{"type": "FeatureCollection", "features": [{"type": "Feature", "properties": {"name": "Nootka Fault Zone - Northern Nootka (northeast)", "CFM_ID": 117, "region": "Offshore_BC", "primary_state/province": "BC", "secondary_state/province": null, "avg_dip": 90, "dip_dir": "vertical", "rake": 0, "slip_sense": "Sinistral", "fault_level": 1, "NSHM23_sliprates": null, "QFFDAgeCatBin": null, "QFFDAgeBin": null, "upper_depth": 1.2, "upper_depth_constraint": "bathymetry", "lower_depth": -20.2, "lower_depth_constraint": "publication", "3D_model_constraints": "trace extended at constant dip", "reference": "Rohr et al. (2018)", "nshm23_id": null, "lineage": null, "usgs_qffd_#": null, "comments": null, "id": "117"}, "geometry": {"type": "MultiPolygon", "coordinates": [[[[-127.94001, 49.27999, -5205.00439453125], [-127.94723, 49.27277, -5271.87060546875], [-127.94357, 49.27643, -4253.51416015625], [-127.94001, 49.27999, -5205.00439453125]]], [[[-128.03329, 49.17287, -5089.1767578125], [-128.04048, 49.16645, -4879.5283203125], [-128.03739, 49.16929, -4184.478515625], [-128.03329, 49.17287, -5089.1767578125]]], [[[-128.04756, 49.15835, -9172.626953125], [-128.05122, 49.15418, -10000.0], [-128.05194, 49.15335, -8682.095703125], [-128.04756, 49.15835, -9172.626953125]]], [[[-128.04594, 49.16021, -5309.53369140625], [-128.05193, 49.15336, -4840.4873046875], [-128.04561, 49.16059, -4290.77685546875], [-128.04594, 49.16021, -5309.53369140625]]], [[[-127.89005, 49.32883, -3799.991943359375], [-127.89504, 49.32396, -3326.98291015625], [-127.89108, 49.32792, -2482.182373046875], [-127.89005, 49.32883, -3799.991943359375]]], [[[-127.92141, 49.29859, -8263.431640625], [-127.91396, 49.30603, -8267.94921875], [-127.91766, 49.30234, -9133.974609375], [-127.92141, 49.29859, -8263.431640625]]], [[[-128.04756, 49.15835, -9172.626953125], [-128.04451, 49.16184, -10000.0], [-128.05122, 49.15418, -10000.0], [-128.04756, 49.15835, -9172.626953125]]], [[[-128.00325, 49.20734, -6361.9580078125], [-128.00027, 49.2113, -7364.10205078125], [-128.00623, 49.20336, -7363.8798828125], [-128.00325, 49.20734, -6361.9580078125]]], [[[-128.04116, 49.16568, -9133.974609375], [-128.04451, 49.16184, -10000.0], [-128.04756, 49.15835, -9172.626953125], [-128.04116, 49.16568, -9133.974609375]]], [[[-128.04116, 49.16568, -9133.974609375], [-128.03735, 49.16932, -10000.0], [-128.04451, 49.16184, -10000.0], [-128.04116, 49.16568, -9133.974609375]]], [[[-128.04594, 49.16021, -6247.626953125], [-128.05193, 49.15336, -6716.673828125], [-128.05193, 49.15336, -5778.58056640625], [-128.04594, 49.16021, -6247.626953125]]], [[[-128.03331, 49.17285, -9133.974609375], [-128.03735, 49.16932, -10000.0], [-128.04116, 49.16568, -9133.974609375], [-128.03331, 49.17285, -9133.974609375]]], [[[-128.0461, 49.16002, -7194.08837890625], [-128.05193, 49.15336, -6716.673828125], [-128.04594, 49.16021, -6247.626953125], [-128.0461, 49.16002, -7194.08837890625]]], [[[-127.96231, 49.25793, -5211.1396484375], [-127.9652, 49.25407, -4256.61328125], [-127.95893, 49.26194, -4236.75439453125], [-127.96231, 49.25793, -5211.1396484375]]], [[[-127.9749, 49.24247, -5279.86669921875], [-127.97787, 49.23851, -4265.796875], [-127.97178, 49.24639, -4265.974609375], [-127.9749, 49.24247, -5279.86669921875]]], [[[-128.03331, 49.17285, -9133.974609375], [-128.02974, 49.17659, -10000.0], [-128.03735, 49.16932, -10000.0], [-128.03331, 49.17285, -9133.974609375]]], [[[-128.02638, 49.18042, -9133.974609375], [-128.02974, 49.17659, -10000.0], [-128.03331, 49.17285, -9133.974609375], [-128.02638, 49.18042, -9133.974609375]]], [[[-128.04048, 49.16645, -4879.5283203125], [-128.04561, 49.16059, -4290.77685546875], [-128.03739, 49.16929, -4184.478515625], [-128.04048, 49.16645, -4879.5283203125]]], [[[-128.02638, 49.18042, -9133.974609375], [-128.02283, 49.18417, -10000.0], [-128.02974, 49.17659, -10000.0], [-128.02638, 49.18042, -9133.974609375]]], [[[-128.04594, 49.16021, -5309.53369140625], [-128.05193, 49.15336, -5778.58056640625], [-128.05193, 49.15336, -4840.4873046875], [-128.04594, 49.16021, -5309.53369140625]]], [[[-127.91766, 49.30234, -3352.25537109375], [-127.92135, 49.29865, -4218.8583984375], [-127.92505, 49.29495, -3353.412109375], [-127.91766, 49.30234, -3352.25537109375]]], [[[-127.91775, 49.30225, -7502.5244140625], [-127.92141, 49.29859, -8263.431640625], [-127.92471, 49.29529, -7197.5888671875], [-127.91775, 49.30225, -7502.5244140625]]], [[[-128.01913, 49.18787, -9133.974609375], [-128.02283, 49.18417, -10000.0], [-128.02638, 49.18042, -9133.974609375], [-128.01913, 49.18787, -9133.974609375]]], [[[-128.01913, 49.18787, -9133.974609375], [-128.01567, 49.19166, -10000.0], [-128.02283, 49.18417, -10000.0], [-128.01913, 49.18787, -9133.974609375]]], [[[-127.96513, 49.25416, -6336.9248046875], [-127.96231, 49.25793, -5211.1396484375], [-127.95895, 49.26192, -6184.17236328125], [-127.96513, 49.25416, -6336.9248046875]]], [[[-128.04119, 49.16564, -3367.207275390625], [-128.04762, 49.15829, -3328.29541015625], [-128.04451, 49.16184, -2492.86865234375], [-128.04119, 49.16564, -3367.207275390625]]], [[[-128.04561, 49.16059, -4290.77685546875], [-128.04048, 49.16645, -4879.5283203125], [-128.04594, 49.16021, -5309.53369140625], [-128.04561, 49.16059, -4290.77685546875]]], [[[-127.92503, 49.29497, -5116.35693359375], [-127.92874, 49.29126, -4220.0166015625], [-127.92135, 49.29865, -4218.8583984375], [-127.92503, 49.29497, -5116.35693359375]]], [[[-128.01232, 49.19549, -9133.974609375], [-128.01567, 49.19166, -10000.0], [-128.01913, 49.18787, -9133.974609375], [-128.01232, 49.19549, -9133.974609375]]], [[[-128.01232, 49.19549, -9133.974609375], [-128.00919, 49.19941, -10000.0], [-128.01567, 49.19166, -10000.0], [-128.01232, 49.19549, -9133.974609375]]], [[[-128.05208, 49.1532, -3810.22705078125], [-128.059, 49.147, -3433.34716796875], [-128.05122, 49.15418, -2494.017578125], [-128.05208, 49.1532, -3810.22705078125]]], [[[-128.00622, 49.20337, -9133.974609375], [-128.00919, 49.19941, -10000.0], [-128.01232, 49.19549, -9133.974609375], [-128.00622, 49.20337, -9133.974609375]]], [[[-127.92503, 49.29497, -5116.35693359375], [-127.91738, 49.30262, -5142.5849609375], [-127.92111, 49.29889, -6039.50048828125], [-127.92503, 49.29497, -5116.35693359375]]], [[[-127.97786, 49.23852, -6362.55029296875], [-127.98108, 49.23462, -5279.4921875], [-127.9749, 49.24247, -5279.86669921875], [-127.97786, 49.23852, -6362.55029296875]]], [[[-127.90382, 49.31518, -6669.6015625], [-127.9101, 49.30941, -7310.1630859375], [-127.91163, 49.30808, -6096.22021484375], [-127.90382, 49.31518, -6669.6015625]]], [[[-128.02972, 49.1766, -4222.56005859375], [-128.03739, 49.16929, -4184.478515625], [-128.0333, 49.17286, -3357.12890625], [-128.02972, 49.1766, -4222.56005859375]]], [[[-127.89023, 49.32868, -5770.5595703125], [-127.883, 49.335, -5300.6220703125], [-127.883, 49.335, -6240.49755859375], [-127.89023, 49.32868, -5770.5595703125]]], [[[-128.00622, 49.20337, -9133.974609375], [-128.00325, 49.20734, -10000.0], [-128.00919, 49.19941, -10000.0], [-128.00622, 49.20337, -9133.974609375]]], [[[-127.94723, 49.27277, -5271.87060546875], [-127.9509, 49.2691, -4255.2138671875], [-127.94357, 49.27643, -4253.51416015625], [-127.94723, 49.27277, -5271.87060546875]]], [[[-128.00027, 49.21131, -9133.974609375], [-128.00325, 49.20734, -10000.0], [-128.00622, 49.20337, -9133.974609375], [-128.00027, 49.21131, -9133.974609375]]], [[[-127.92874, 49.29126, -8216.9814453125], [-127.92141, 49.29859, -8263.431640625], [-127.92506, 49.29494, -9133.974609375], [-127.92874, 49.29126, -8216.9814453125]]], [[[-127.97786, 49.23852, -6362.55029296875], [-127.9749, 49.24247, -5279.86669921875], [-127.97176, 49.24641, -6362.302734375], [-127.97786, 49.23852, -6362.55029296875]]], [[[-128.00027, 49.21131, -9133.974609375], [-127.99708, 49.2152, -10000.0], [-128.00325, 49.20734, -10000.0], [-128.00027, 49.21131, -9133.974609375]]], [[[-127.96513, 49.25416, -6336.9248046875], [-127.96845, 49.2502, -5276.7080078125], [-127.96231, 49.25793, -5211.1396484375], [-127.96513, 49.25416, -6336.9248046875]]], [[[-127.99372, 49.21903, -9133.974609375], [-127.99708, 49.2152, -10000.0], [-128.00027, 49.21131, -9133.974609375], [-127.99372, 49.21903, -9133.974609375]]], [[[-127.92868, 49.29132, -6127.74853515625], [-127.92111, 49.29889, -6039.50048828125], [-127.92471, 49.29529, -7197.5888671875], [-127.92868, 49.29132, -6127.74853515625]]], [[[-128.05208, 49.1532, -3810.22705078125], [-128.059, 49.147, -4371.4404296875], [-128.059, 49.147, -3433.34716796875], [-128.05208, 49.1532, -3810.22705078125]]], [[[-127.99372, 49.21903, -9133.974609375], [-127.99055, 49.22293, -10000.0], [-127.99708, 49.2152, -10000.0], [-127.99372, 49.21903, -9133.974609375]]], [[[-127.92506, 49.29494, -9133.974609375], [-127.92876, 49.29124, -10000.0], [-127.93246, 49.28754, -9133.974609375], [-127.92506, 49.29494, -9133.974609375]]], [[[-127.89726, 49.32174, -4297.6416015625], [-127.89005, 49.32883, -3799.991943359375], [-127.89023, 49.32868, -4830.68408203125], [-127.89726, 49.32174, -4297.6416015625]]], [[[-128.04561, 49.16059, -4290.77685546875], [-128.04119, 49.16564, -3367.207275390625], [-128.03739, 49.16929, -4184.478515625], [-128.04561, 49.16059, -4290.77685546875]]], [[[-127.98108, 49.23462, -5279.4921875], [-127.98443, 49.23079, -4265.27099609375], [-127.97787, 49.23851, -4265.796875], [-127.98108, 49.23462, -5279.4921875]]], [[[-128.00325, 49.20734, -6361.9580078125], [-128.00028, 49.2113, -5278.35546875], [-127.99708, 49.21519, -6362.03564453125], [-128.00325, 49.20734, -6361.9580078125]]], [[[-127.98758, 49.22689, -9133.974609375], [-127.99055, 49.22293, -10000.0], [-127.99372, 49.21903, -9133.974609375], [-127.98758, 49.22689, -9133.974609375]]], [[[-127.89727, 49.32173, -8184.64111328125], [-127.89023, 49.32868, -7650.31103515625], [-127.89005, 49.32883, -8681.4775390625], [-127.89727, 49.32173, -8184.64111328125]]], [[[-127.92505, 49.29495, -3353.412109375], [-127.93245, 49.28755, -3354.57177734375], [-127.92876, 49.29124, -2488.00146484375], [-127.92505, 49.29495, -3353.412109375]]], [[[-127.98758, 49.22689, -9133.974609375], [-127.98443, 49.2308, -10000.0], [-127.99055, 49.22293, -10000.0], [-127.98758, 49.22689, -9133.974609375]]], [[[-128.02301, 49.18399, -6074.94482421875], [-128.02657, 49.1802, -5157.68212890625], [-128.01897, 49.18803, -5195.05322265625], [-128.02301, 49.18399, -6074.94482421875]]], [[[-127.98107, 49.23463, -9133.974609375], [-127.98443, 49.2308, -10000.0], [-127.98758, 49.22689, -9133.974609375], [-127.98107, 49.23463, -9133.974609375]]], [[[-127.99708, 49.21519, -6362.03564453125], [-127.99373, 49.21902, -5278.7294921875], [-127.99056, 49.22293, -6362.19873046875], [-127.99708, 49.21519, -6362.03564453125]]], [[[-127.98107, 49.23463, -9133.974609375], [-127.97786, 49.23852, -10000.0], [-127.98443, 49.2308, -10000.0], [-127.98107, 49.23463, -9133.974609375]]], [[[-127.97489, 49.24248, -9133.974609375], [-127.97786, 49.23852, -10000.0], [-127.98107, 49.23463, -9133.974609375], [-127.97489, 49.24248, -9133.974609375]]], [[[-127.95474, 49.2656, -5210.6279296875], [-127.95893, 49.26194, -4236.75439453125], [-127.9509, 49.2691, -4255.2138671875], [-127.95474, 49.2656, -5210.6279296875]]], [[[-128.05208, 49.1532, -3810.22705078125], [-128.05193, 49.15336, -4840.4873046875], [-128.059, 49.147, -4371.4404296875], [-128.05208, 49.1532, -3810.22705078125]]], [[[-127.98443, 49.2308, -6362.37109375], [-127.98108, 49.23462, -5279.4921875], [-127.97786, 49.23852, -6362.55029296875], [-127.98443, 49.2308, -6362.37109375]]], [[[-127.97489, 49.24248, -9133.974609375], [-127.97177, 49.2464, -10000.0], [-127.97786, 49.23852, -10000.0], [-127.97489, 49.24248, -9133.974609375]]], [[[-127.883, 49.335, -10000.0], [-127.89108, 49.32792, -10000.0], [-127.883, 49.335, -9060.1240234375], [-127.883, 49.335, -10000.0]]], [[[-128.01579, 49.19152, -6329.03466796875], [-128.01897, 49.18803, -5195.05322265625], [-128.01229, 49.19553, -5274.087890625], [-128.01579, 49.19152, -6329.03466796875]]], [[[-127.96842, 49.25024, -9133.974609375], [-127.97177, 49.2464, -10000.0], [-127.97489, 49.24248, -9133.974609375], [-127.96842, 49.25024, -9133.974609375]]], [[[-128.02281, 49.18419, -4221.49072265625], [-128.02972, 49.1766, -4222.56005859375], [-128.02637, 49.18043, -3355.942138671875], [-128.02281, 49.18419, -4221.49072265625]]], [[[-127.90991, 49.30958, -3351.1181640625], [-127.91766, 49.30234, -3352.25537109375], [-127.91396, 49.30603, -2485.6875], [-127.90991, 49.30958, -3351.1181640625]]], [[[-127.96842, 49.25024, -9133.974609375], [-127.96517, 49.25411, -10000.0], [-127.97177, 49.2464, -10000.0], [-127.96842, 49.25024, -9133.974609375]]], [[[-128.02301, 49.18399, -6074.94482421875], [-128.0316, 49.17445, -6102.52197265625], [-128.02657, 49.1802, -5157.68212890625], [-128.02301, 49.18399, -6074.94482421875]]], [[[-127.96845, 49.2502, -5276.7080078125], [-127.97178, 49.24639, -4265.974609375], [-127.9652, 49.25407, -4256.61328125], [-127.96845, 49.2502, -5276.7080078125]]], [[[-127.91766, 49.30234, -9133.974609375], [-127.91396, 49.30603, -10000.0], [-127.92136, 49.29864, -10000.0], [-127.91766, 49.30234, -9133.974609375]]], [[[-127.90991, 49.30958, -3351.1181640625], [-127.91396, 49.30603, -2485.6875], [-127.90588, 49.31312, -2484.4990234375], [-127.90991, 49.30958, -3351.1181640625]]], [[[-127.98759, 49.22688, -5279.10791015625], [-127.99056, 49.22292, -4264.7451171875], [-127.98443, 49.23079, -4265.27099609375], [-127.98759, 49.22688, -5279.10791015625]]], [[[-127.96842, 49.25024, -9133.974609375], [-127.96219, 49.25808, -9133.974609375], [-127.96517, 49.25411, -10000.0], [-127.96842, 49.25024, -9133.974609375]]], [[[-127.93249, 49.28751, -5134.90185546875], [-127.94001, 49.27999, -5205.00439453125], [-127.93616, 49.28384, -4229.05419921875], [-127.93249, 49.28751, -5134.90185546875]]], [[[-127.99373, 49.21902, -5278.7294921875], [-127.99709, 49.21519, -4264.21435546875], [-127.99056, 49.22292, -4264.7451171875], [-127.99373, 49.21902, -5278.7294921875]]], [[[-127.92141, 49.29859, -8263.431640625], [-127.91766, 49.30234, -9133.974609375], [-127.92506, 49.29494, -9133.974609375], [-127.92141, 49.29859, -8263.431640625]]], [[[-127.99708, 49.21519, -6362.03564453125], [-128.00028, 49.2113, -5278.35546875], [-127.99373, 49.21902, -5278.7294921875], [-127.99708, 49.21519, -6362.03564453125]]], [[[-127.92868, 49.29132, -6127.74853515625], [-127.92471, 49.29529, -7197.5888671875], [-127.93237, 49.28763, -7213.00439453125], [-127.92868, 49.29132, -6127.74853515625]]], [[[-127.91163, 49.30808, -6096.22021484375], [-127.92111, 49.29889, -6039.50048828125], [-127.91738, 49.30262, -5142.5849609375], [-127.91163, 49.30808, -6096.22021484375]]], [[[-127.99056, 49.22293, -6362.19873046875], [-127.98759, 49.22688, -5279.10791015625], [-127.98443, 49.2308, -6362.37109375], [-127.99056, 49.22293, -6362.19873046875]]], [[[-127.96517, 49.25411, -8267.94921875], [-127.96219, 49.25808, -9133.974609375], [-127.96842, 49.25024, -9133.974609375], [-127.96517, 49.25411, -8267.94921875]]], [[[-127.883, 49.335, -9060.1240234375], [-127.89005, 49.32883, -8681.4775390625], [-127.883, 49.335, -8120.2490234375], [-127.883, 49.335, -9060.1240234375]]], [[[-128.02972, 49.1766, -4222.56005859375], [-128.0333, 49.17286, -3357.12890625], [-128.02637, 49.18043, -3355.942138671875], [-128.02972, 49.1766, -4222.56005859375]]], [[[-127.96517, 49.25411, -8267.94921875], [-127.95894, 49.26193, -8267.94921875], [-127.96219, 49.25808, -9133.974609375], [-127.96517, 49.25411, -8267.94921875]]], [[[-127.8969, 49.3221, -6240.49755859375], [-127.89023, 49.32868, -5770.5595703125], [-127.89023, 49.32868, -6710.435546875], [-127.8969, 49.3221, -6240.49755859375]]], [[[-127.99056, 49.22293, -6362.19873046875], [-127.99373, 49.21902, -5278.7294921875], [-127.98759, 49.22688, -5279.10791015625], [-127.99056, 49.22293, -6362.19873046875]]], [[[-128.04762, 49.15829, -3328.29541015625], [-128.05122, 49.15418, -2494.017578125], [-128.04451, 49.16184, -2492.86865234375], [-128.04762, 49.15829, -3328.29541015625]]], [[[-127.90382, 49.31518, -6669.6015625], [-127.89669, 49.32231, -7173.37890625], [-127.9025, 49.3165, -7497.009765625], [-127.90382, 49.31518, -6669.6015625]]], [[[-128.00921, 49.19938, -6360.4453125], [-128.00622, 49.20337, -5277.94384765625], [-128.00325, 49.20734, -6361.9580078125], [-128.00921, 49.19938, -6360.4453125]]], [[[-127.96208, 49.25822, -7291.52783203125], [-127.95894, 49.26193, -8267.94921875], [-127.96517, 49.25411, -8267.94921875], [-127.96208, 49.25822, -7291.52783203125]]], [[[-127.89504, 49.32396, -3326.98291015625], [-127.89848, 49.32052, -2483.26806640625], [-127.89108, 49.32792, -2482.182373046875], [-127.89504, 49.32396, -3326.98291015625]]], [[[-127.9101, 49.30941, -7310.1630859375], [-127.91396, 49.30603, -8267.94921875], [-127.91775, 49.30225, -7502.5244140625], [-127.9101, 49.30941, -7310.1630859375]]], [[[-127.89504, 49.32396, -9155.37109375], [-127.89848, 49.32052, -10000.0], [-127.90207, 49.31693, -9112.0927734375], [-127.89504, 49.32396, -9155.37109375]]], [[[-127.95503, 49.26535, -7291.291015625], [-127.95894, 49.26193, -8267.94921875], [-127.96208, 49.25822, -7291.52783203125], [-127.95503, 49.26535, -7291.291015625]]], [[[-128.01579, 49.19152, -6329.03466796875], [-128.01229, 49.19553, -5274.087890625], [-128.00921, 49.19938, -6360.4453125], [-128.01579, 49.19152, -6329.03466796875]]], [[[-127.91697, 49.30303, -6745.89013671875], [-127.92111, 49.29889, -6039.50048828125], [-127.91163, 49.30808, -6096.22021484375], [-127.91697, 49.30303, -6745.89013671875]]], [[[-127.96231, 49.25793, -5211.1396484375], [-127.96845, 49.2502, -5276.7080078125], [-127.9652, 49.25407, -4256.61328125], [-127.96231, 49.25793, -5211.1396484375]]], [[[-128.02301, 49.18399, -6074.94482421875], [-128.01897, 49.18803, -5195.05322265625], [-128.01579, 49.19152, -6329.03466796875], [-128.02301, 49.18399, -6074.94482421875]]], [[[-127.90992, 49.30957, -9133.974609375], [-127.90588, 49.31312, -10000.0], [-127.91396, 49.30603, -10000.0], [-127.90992, 49.30957, -9133.974609375]]], [[[-127.95894, 49.26193, -8267.94921875], [-127.95503, 49.26535, -7291.291015625], [-127.95095, 49.26905, -8267.94921875], [-127.95894, 49.26193, -8267.94921875]]], [[[-127.92471, 49.29529, -7197.5888671875], [-127.92874, 49.29126, -8216.9814453125], [-127.93237, 49.28763, -7213.00439453125], [-127.92471, 49.29529, -7197.5888671875]]], [[[-127.89005, 49.32883, -8681.4775390625], [-127.89023, 49.32868, -7650.31103515625], [-127.883, 49.335, -8120.2490234375], [-127.89005, 49.32883, -8681.4775390625]]], [[[-127.94001, 49.27999, -5205.00439453125], [-127.94357, 49.27643, -4253.51416015625], [-127.93616, 49.28384, -4229.05419921875], [-127.94001, 49.27999, -5205.00439453125]]], [[[-127.95894, 49.26193, -8267.94921875], [-127.95095, 49.26905, -8267.94921875], [-127.95489, 49.26547, -9133.974609375], [-127.95894, 49.26193, -8267.94921875]]], [[[-127.99709, 49.21519, -4264.21435546875], [-127.99373, 49.21902, -5278.7294921875], [-128.00028, 49.2113, -5278.35546875], [-127.99709, 49.21519, -4264.21435546875]]], [[[-127.95894, 49.26193, -8267.94921875], [-127.95489, 49.26547, -9133.974609375], [-127.96219, 49.25808, -9133.974609375], [-127.95894, 49.26193, -8267.94921875]]], [[[-128.04119, 49.16564, -3367.207275390625], [-128.0333, 49.17286, -3357.12890625], [-128.03739, 49.16929, -4184.478515625], [-128.04119, 49.16564, -3367.207275390625]]], [[[-127.95489, 49.26547, -9133.974609375], [-127.95894, 49.26193, -10000.0], [-127.96219, 49.25808, -9133.974609375], [-127.95489, 49.26547, -9133.974609375]]], [[[-128.03988, 49.1671, -5775.2529296875], [-128.04594, 49.16021, -5309.53369140625], [-128.04048, 49.16645, -4879.5283203125], [-128.03988, 49.1671, -5775.2529296875]]], [[[-127.92141, 49.29859, -8263.431640625], [-127.91775, 49.30225, -7502.5244140625], [-127.91396, 49.30603, -8267.94921875], [-127.92141, 49.29859, -8263.431640625]]], [[[-128.0316, 49.17445, -6102.52197265625], [-128.03988, 49.1671, -5775.2529296875], [-128.03329, 49.17287, -5089.1767578125], [-128.0316, 49.17445, -6102.52197265625]]], [[[-127.92868, 49.29132, -6127.74853515625], [-127.93249, 49.28751, -5134.90185546875], [-127.92503, 49.29497, -5116.35693359375], [-127.92868, 49.29132, -6127.74853515625]]], [[[-127.95489, 49.26547, -9133.974609375], [-127.95095, 49.26905, -10000.0], [-127.95894, 49.26193, -10000.0], [-127.95489, 49.26547, -9133.974609375]]], [[[-127.99056, 49.22292, -4264.7451171875], [-127.98759, 49.22688, -5279.10791015625], [-127.99373, 49.21902, -5278.7294921875], [-127.99056, 49.22292, -4264.7451171875]]], [[[-127.94725, 49.27275, -9133.974609375], [-127.95095, 49.26905, -10000.0], [-127.95489, 49.26547, -9133.974609375], [-127.94725, 49.27275, -9133.974609375]]], [[[-128.02697, 49.17975, -6749.16650390625], [-128.0316, 49.17445, -6102.52197265625], [-128.02301, 49.18399, -6074.94482421875], [-128.02697, 49.17975, -6749.16650390625]]], [[[-127.94725, 49.27275, -9133.974609375], [-127.94355, 49.27645, -10000.0], [-127.95095, 49.26905, -10000.0], [-127.94725, 49.27275, -9133.974609375]]], [[[-127.91394, 49.30605, -4217.71142578125], [-127.90991, 49.30958, -3351.1181640625], [-127.9057, 49.3133, -4218.77490234375], [-127.91394, 49.30605, -4217.71142578125]]], [[[-127.89663, 49.32237, -5311.76953125], [-127.89023, 49.32868, -5770.5595703125], [-127.8969, 49.3221, -6240.49755859375], [-127.89663, 49.32237, -5311.76953125]]], [[[-127.90207, 49.31693, -9112.0927734375], [-127.89848, 49.32052, -10000.0], [-127.90588, 49.31312, -10000.0], [-127.90207, 49.31693, -9112.0927734375]]], [[[-128.0316, 49.17445, -6102.52197265625], [-128.0331, 49.17303, -7309.67724609375], [-128.03956, 49.16739, -6667.29931640625], [-128.0316, 49.17445, -6102.52197265625]]], [[[-127.91396, 49.30603, -8267.94921875], [-127.9101, 49.30941, -7310.1630859375], [-127.90572, 49.31328, -8264.3037109375], [-127.91396, 49.30603, -8267.94921875]]], [[[-127.93985, 49.28015, -9133.974609375], [-127.94355, 49.27645, -10000.0], [-127.94725, 49.27275, -9133.974609375], [-127.93985, 49.28015, -9133.974609375]]], [[[-127.9101, 49.30941, -7310.1630859375], [-127.91697, 49.30303, -6745.89013671875], [-127.91163, 49.30808, -6096.22021484375], [-127.9101, 49.30941, -7310.1630859375]]], [[[-127.92471, 49.29529, -7197.5888671875], [-127.91697, 49.30303, -6745.89013671875], [-127.91775, 49.30225, -7502.5244140625], [-127.92471, 49.29529, -7197.5888671875]]], [[[-127.89726, 49.32174, -4297.6416015625], [-127.89504, 49.32396, -3326.98291015625], [-127.89005, 49.32883, -3799.991943359375], [-127.89726, 49.32174, -4297.6416015625]]], [[[-127.93985, 49.28015, -9133.974609375], [-127.93616, 49.28384, -10000.0], [-127.94355, 49.27645, -10000.0], [-127.93985, 49.28015, -9133.974609375]]], [[[-127.90989, 49.3096, -5083.1494140625], [-127.91163, 49.30808, -6096.22021484375], [-127.91738, 49.30262, -5142.5849609375], [-127.90989, 49.3096, -5083.1494140625]]], [[[-127.93985, 49.28015, -9133.974609375], [-127.93246, 49.28754, -9133.974609375], [-127.93616, 49.28384, -10000.0], [-127.93985, 49.28015, -9133.974609375]]], [[[-128.03329, 49.17287, -5089.1767578125], [-128.03739, 49.16929, -4184.478515625], [-128.02972, 49.1766, -4222.56005859375], [-128.03329, 49.17287, -5089.1767578125]]], [[[-127.90207, 49.31693, -9112.0927734375], [-127.90588, 49.31312, -10000.0], [-127.90992, 49.30957, -9133.974609375], [-127.90207, 49.31693, -9112.0927734375]]], [[[-127.93611, 49.28389, -8236.0556640625], [-127.93246, 49.28754, -9133.974609375], [-127.93985, 49.28015, -9133.974609375], [-127.93611, 49.28389, -8236.0556640625]]], [[[-127.91396, 49.30603, -8267.94921875], [-127.90572, 49.31328, -8264.3037109375], [-127.90992, 49.30957, -9133.974609375], [-127.91396, 49.30603, -8267.94921875]]], [[[-127.94353, 49.27647, -8259.82421875], [-127.93985, 49.28015, -9133.974609375], [-127.94725, 49.27275, -9133.974609375], [-127.94353, 49.27647, -8259.82421875]]], [[[-127.93611, 49.28389, -8236.0556640625], [-127.92874, 49.29126, -8216.9814453125], [-127.93246, 49.28754, -9133.974609375], [-127.93611, 49.28389, -8236.0556640625]]], [[[-128.01229, 49.19553, -5274.087890625], [-128.01563, 49.19171, -4252.07080078125], [-128.00919, 49.19941, -4262.84619140625], [-128.01229, 49.19553, -5274.087890625]]], [[[-127.92471, 49.29529, -7197.5888671875], [-127.92111, 49.29889, -6039.50048828125], [-127.91697, 49.30303, -6745.89013671875], [-127.92471, 49.29529, -7197.5888671875]]], [[[-127.93611, 49.28389, -8236.0556640625], [-127.93237, 49.28763, -7213.00439453125], [-127.92874, 49.29126, -8216.9814453125], [-127.93611, 49.28389, -8236.0556640625]]], [[[-128.00622, 49.20337, -5277.94384765625], [-128.01229, 49.19553, -5274.087890625], [-128.00919, 49.19941, -4262.84619140625], [-128.00622, 49.20337, -5277.94384765625]]], [[[-127.93967, 49.28033, -7284.98095703125], [-127.93237, 49.28763, -7213.00439453125], [-127.93611, 49.28389, -8236.0556640625], [-127.93967, 49.28033, -7284.98095703125]]], [[[-127.91396, 49.30603, -8267.94921875], [-127.90992, 49.30957, -9133.974609375], [-127.91766, 49.30234, -9133.974609375], [-127.91396, 49.30603, -8267.94921875]]], [[[-127.89005, 49.32883, -8681.4775390625], [-127.89108, 49.32792, -10000.0], [-127.89504, 49.32396, -9155.37109375], [-127.89005, 49.32883, -8681.4775390625]]], [[[-127.97787, 49.23851, -4265.796875], [-127.9749, 49.24247, -5279.86669921875], [-127.98108, 49.23462, -5279.4921875], [-127.97787, 49.23851, -4265.796875]]], [[[-127.89023, 49.32868, -6710.435546875], [-127.883, 49.335, -6240.49755859375], [-127.883, 49.335, -7180.373046875], [-127.89023, 49.32868, -6710.435546875]]], [[[-128.05172, 49.1536, -7680.8291015625], [-128.05194, 49.15335, -8682.095703125], [-128.059, 49.147, -8123.8134765625], [-128.05172, 49.1536, -7680.8291015625]]], [[[-127.93619, 49.28381, -6156.52099609375], [-127.93237, 49.28763, -7213.00439453125], [-127.93967, 49.28033, -7284.98095703125], [-127.93619, 49.28381, -6156.52099609375]]], [[[-127.94723, 49.27277, -5271.87060546875], [-127.95474, 49.2656, -5210.6279296875], [-127.9509, 49.2691, -4255.2138671875], [-127.94723, 49.27277, -5271.87060546875]]], [[[-127.93619, 49.28381, -6156.52099609375], [-127.92868, 49.29132, -6127.74853515625], [-127.93237, 49.28763, -7213.00439453125], [-127.93619, 49.28381, -6156.52099609375]]], [[[-127.93619, 49.28381, -6156.52099609375], [-127.93249, 49.28751, -5134.90185546875], [-127.92868, 49.29132, -6127.74853515625], [-127.93619, 49.28381, -6156.52099609375]]], [[[-128.04082, 49.16607, -7501.392578125], [-128.03735, 49.16932, -8267.94921875], [-128.04509, 49.16119, -8243.8798828125], [-128.04082, 49.16607, -7501.392578125]]], [[[-127.89504, 49.32396, -9155.37109375], [-127.89108, 49.32792, -10000.0], [-127.89848, 49.32052, -10000.0], [-127.89504, 49.32396, -9155.37109375]]], [[[-127.93619, 49.28381, -6156.52099609375], [-127.94001, 49.27999, -5205.00439453125], [-127.93249, 49.28751, -5134.90185546875], [-127.93619, 49.28381, -6156.52099609375]]], [[[-127.94351, 49.27649, -6333.931640625], [-127.94001, 49.27999, -5205.00439453125], [-127.93619, 49.28381, -6156.52099609375], [-127.94351, 49.27649, -6333.931640625]]], [[[-127.89023, 49.32868, -4830.68408203125], [-127.883, 49.335, -4360.74609375], [-127.883, 49.335, -5300.6220703125], [-127.89023, 49.32868, -4830.68408203125]]], [[[-127.95474, 49.2656, -5210.6279296875], [-127.96231, 49.25793, -5211.1396484375], [-127.95893, 49.26194, -4236.75439453125], [-127.95474, 49.2656, -5210.6279296875]]], [[[-127.89023, 49.32868, -4830.68408203125], [-127.89005, 49.32883, -3799.991943359375], [-127.883, 49.335, -4360.74609375], [-127.89023, 49.32868, -4830.68408203125]]], [[[-127.94351, 49.27649, -6333.931640625], [-127.94723, 49.27277, -5271.87060546875], [-127.94001, 49.27999, -5205.00439453125], [-127.94351, 49.27649, -6333.931640625]]], [[[-127.91766, 49.30234, -9133.974609375], [-127.92136, 49.29864, -10000.0], [-127.92506, 49.29494, -9133.974609375], [-127.91766, 49.30234, -9133.974609375]]], [[[-127.89504, 49.32396, -3326.98291015625], [-127.89726, 49.32174, -4297.6416015625], [-127.90207, 49.31693, -3371.520263671875], [-127.89504, 49.32396, -3326.98291015625]]], [[[-127.951, 49.269, -6333.6337890625], [-127.94723, 49.27277, -5271.87060546875], [-127.94351, 49.27649, -6333.931640625], [-127.951, 49.269, -6333.6337890625]]], [[[-127.90382, 49.31518, -6669.6015625], [-127.9025, 49.3165, -7497.009765625], [-127.9101, 49.30941, -7310.1630859375], [-127.90382, 49.31518, -6669.6015625]]], [[[-127.93249, 49.28751, -5134.90185546875], [-127.93616, 49.28384, -4229.05419921875], [-127.92874, 49.29126, -4220.0166015625], [-127.93249, 49.28751, -5134.90185546875]]], [[[-127.951, 49.269, -6333.6337890625], [-127.95474, 49.2656, -5210.6279296875], [-127.94723, 49.27277, -5271.87060546875], [-127.951, 49.269, -6333.6337890625]]], [[[-127.91163, 49.30808, -6096.22021484375], [-127.90361, 49.31539, -5787.6005859375], [-127.90382, 49.31518, -6669.6015625], [-127.91163, 49.30808, -6096.22021484375]]], [[[-128.03956, 49.16739, -6667.29931640625], [-128.0461, 49.16002, -7194.08837890625], [-128.04594, 49.16021, -6247.626953125], [-128.03956, 49.16739, -6667.29931640625]]], [[[-127.95895, 49.26192, -6184.17236328125], [-127.95474, 49.2656, -5210.6279296875], [-127.951, 49.269, -6333.6337890625], [-127.95895, 49.26192, -6184.17236328125]]], [[[-127.98443, 49.23079, -4265.27099609375], [-127.98108, 49.23462, -5279.4921875], [-127.98759, 49.22688, -5279.10791015625], [-127.98443, 49.23079, -4265.27099609375]]], [[[-127.95895, 49.26192, -6184.17236328125], [-127.96231, 49.25793, -5211.1396484375], [-127.95474, 49.2656, -5210.6279296875], [-127.95895, 49.26192, -6184.17236328125]]], [[[-128.04082, 49.16607, -7501.392578125], [-128.03956, 49.16739, -6667.29931640625], [-128.0331, 49.17303, -7309.67724609375], [-128.04082, 49.16607, -7501.392578125]]], [[[-127.92506, 49.29494, -9133.974609375], [-127.92136, 49.29864, -10000.0], [-127.92876, 49.29124, -10000.0], [-127.92506, 49.29494, -9133.974609375]]], [[[-127.96513, 49.25416, -6336.9248046875], [-127.97176, 49.24641, -6362.302734375], [-127.96845, 49.2502, -5276.7080078125], [-127.96513, 49.25416, -6336.9248046875]]], [[[-128.0333, 49.17286, -3357.12890625], [-128.04119, 49.16564, -3367.207275390625], [-128.03735, 49.16932, -2491.699462890625], [-128.0333, 49.17286, -3357.12890625]]], [[[-127.91163, 49.30808, -6096.22021484375], [-127.90989, 49.3096, -5083.1494140625], [-127.90361, 49.31539, -5787.6005859375], [-127.91163, 49.30808, -6096.22021484375]]], [[[-127.96513, 49.25416, -6336.9248046875], [-127.96838, 49.25028, -7361.08251953125], [-127.97176, 49.24641, -6362.302734375], [-127.96513, 49.25416, -6336.9248046875]]], [[[-128.01897, 49.18803, -5195.05322265625], [-128.02657, 49.1802, -5157.68212890625], [-128.02281, 49.18419, -4221.49072265625], [-128.01897, 49.18803, -5195.05322265625]]], [[[-127.96838, 49.25028, -7361.08251953125], [-127.96513, 49.25416, -6336.9248046875], [-127.96208, 49.25822, -7291.52783203125], [-127.96838, 49.25028, -7361.08251953125]]], [[[-127.96838, 49.25028, -7361.08251953125], [-127.96208, 49.25822, -7291.52783203125], [-127.96517, 49.25411, -8267.94921875], [-127.96838, 49.25028, -7361.08251953125]]], [[[-127.96838, 49.25028, -7361.08251953125], [-127.96517, 49.25411, -8267.94921875], [-127.97177, 49.2464, -8267.94921875], [-127.96838, 49.25028, -7361.08251953125]]], [[[-127.89023, 49.32868, -5770.5595703125], [-127.89023, 49.32868, -4830.68408203125], [-127.883, 49.335, -5300.6220703125], [-127.89023, 49.32868, -5770.5595703125]]], [[[-127.98443, 49.2308, -6362.37109375], [-127.98759, 49.22688, -5279.10791015625], [-127.98108, 49.23462, -5279.4921875], [-127.98443, 49.2308, -6362.37109375]]], [[[-127.9101, 49.30941, -7310.1630859375], [-127.91775, 49.30225, -7502.5244140625], [-127.91697, 49.30303, -6745.89013671875], [-127.9101, 49.30941, -7310.1630859375]]], [[[-127.96838, 49.25028, -7361.08251953125], [-127.97177, 49.2464, -8267.94921875], [-127.97488, 49.24249, -7364.17578125], [-127.96838, 49.25028, -7361.08251953125]]], [[[-127.92868, 49.29132, -6127.74853515625], [-127.92503, 49.29497, -5116.35693359375], [-127.92111, 49.29889, -6039.50048828125], [-127.92868, 49.29132, -6127.74853515625]]], [[[-127.92874, 49.29126, -8216.9814453125], [-127.92506, 49.29494, -9133.974609375], [-127.93246, 49.28754, -9133.974609375], [-127.92874, 49.29126, -8216.9814453125]]], [[[-127.96838, 49.25028, -7361.08251953125], [-127.97488, 49.24249, -7364.17578125], [-127.97176, 49.24641, -6362.302734375], [-127.96838, 49.25028, -7361.08251953125]]], [[[-127.97786, 49.23852, -6362.55029296875], [-127.97176, 49.24641, -6362.302734375], [-127.97488, 49.24249, -7364.17578125], [-127.97786, 49.23852, -6362.55029296875]]], [[[-127.89504, 49.32396, -3326.98291015625], [-127.90207, 49.31693, -3371.520263671875], [-127.89848, 49.32052, -2483.26806640625], [-127.89504, 49.32396, -3326.98291015625]]], [[[-127.92874, 49.29126, -4220.0166015625], [-127.92505, 49.29495, -3353.412109375], [-127.92135, 49.29865, -4218.8583984375], [-127.92874, 49.29126, -4220.0166015625]]], [[[-127.89005, 49.32883, -3799.991943359375], [-127.883, 49.335, -3420.87060546875], [-127.883, 49.335, -4360.74609375], [-127.89005, 49.32883, -3799.991943359375]]], [[[-128.03329, 49.17287, -5089.1767578125], [-128.02972, 49.1766, -4222.56005859375], [-128.02657, 49.1802, -5157.68212890625], [-128.03329, 49.17287, -5089.1767578125]]], [[[-127.92505, 49.29495, -3353.412109375], [-127.92876, 49.29124, -2488.00146484375], [-127.92136, 49.29864, -2486.7734375], [-127.92505, 49.29495, -3353.412109375]]], [[[-127.91766, 49.30234, -3352.25537109375], [-127.92505, 49.29495, -3353.412109375], [-127.92136, 49.29864, -2486.7734375], [-127.91766, 49.30234, -3352.25537109375]]], [[[-127.90207, 49.31693, -3371.520263671875], [-127.90991, 49.30958, -3351.1181640625], [-127.90588, 49.31312, -2484.4990234375], [-127.90207, 49.31693, -3371.520263671875]]], [[[-128.05194, 49.15335, -8682.095703125], [-128.05122, 49.15418, -10000.0], [-128.059, 49.147, -9061.90625], [-128.05194, 49.15335, -8682.095703125]]], [[[-127.92874, 49.29126, -8216.9814453125], [-127.92471, 49.29529, -7197.5888671875], [-127.92141, 49.29859, -8263.431640625], [-127.92874, 49.29126, -8216.9814453125]]], [[[-127.89726, 49.32174, -4297.6416015625], [-127.89023, 49.32868, -4830.68408203125], [-127.89663, 49.32237, -5311.76953125], [-127.89726, 49.32174, -4297.6416015625]]], [[[-128.00325, 49.20733, -4263.6044921875], [-128.00028, 49.2113, -5278.35546875], [-128.00622, 49.20337, -5277.94384765625], [-128.00325, 49.20733, -4263.6044921875]]], [[[-128.00325, 49.20734, -6361.9580078125], [-128.00622, 49.20337, -5277.94384765625], [-128.00028, 49.2113, -5278.35546875], [-128.00325, 49.20734, -6361.9580078125]]], [[[-128.00921, 49.19938, -6360.4453125], [-128.01229, 49.19553, -5274.087890625], [-128.00622, 49.20337, -5277.94384765625], [-128.00921, 49.19938, -6360.4453125]]], [[[-127.883, 49.335, -3420.87060546875], [-127.89108, 49.32792, -2482.182373046875], [-127.883, 49.335, -2480.9951171875], [-127.883, 49.335, -3420.87060546875]]], [[[-127.89023, 49.32868, -7650.31103515625], [-127.89023, 49.32868, -6710.435546875], [-127.883, 49.335, -7180.373046875], [-127.89023, 49.32868, -7650.31103515625]]], [[[-127.90207, 49.31693, -3371.520263671875], [-127.90588, 49.31312, -2484.4990234375], [-127.89848, 49.32052, -2483.26806640625], [-127.90207, 49.31693, -3371.520263671875]]], [[[-128.0331, 49.17303, -7309.67724609375], [-128.0316, 49.17445, -6102.52197265625], [-128.02697, 49.17975, -6749.16650390625], [-128.0331, 49.17303, -7309.67724609375]]], [[[-128.0316, 49.17445, -6102.52197265625], [-128.03956, 49.16739, -6667.29931640625], [-128.03988, 49.1671, -5775.2529296875], [-128.0316, 49.17445, -6102.52197265625]]], [[[-128.0316, 49.17445, -6102.52197265625], [-128.03329, 49.17287, -5089.1767578125], [-128.02657, 49.1802, -5157.68212890625], [-128.0316, 49.17445, -6102.52197265625]]], [[[-128.03988, 49.1671, -5775.2529296875], [-128.04048, 49.16645, -4879.5283203125], [-128.03329, 49.17287, -5089.1767578125], [-128.03988, 49.1671, -5775.2529296875]]], [[[-127.883, 49.335, -9060.1240234375], [-127.89108, 49.32792, -10000.0], [-127.89005, 49.32883, -8681.4775390625], [-127.883, 49.335, -9060.1240234375]]], [[[-127.91766, 49.30234, -3352.25537109375], [-127.92136, 49.29864, -2486.7734375], [-127.91396, 49.30603, -2485.6875], [-127.91766, 49.30234, -3352.25537109375]]], [[[-127.9057, 49.3133, -4218.77490234375], [-127.90991, 49.30958, -3351.1181640625], [-127.90207, 49.31693, -3371.520263671875], [-127.9057, 49.3133, -4218.77490234375]]], [[[-127.89023, 49.32868, -6710.435546875], [-127.89023, 49.32868, -5770.5595703125], [-127.883, 49.335, -6240.49755859375], [-127.89023, 49.32868, -6710.435546875]]], [[[-128.03988, 49.1671, -5775.2529296875], [-128.04594, 49.16021, -6247.626953125], [-128.04594, 49.16021, -5309.53369140625], [-128.03988, 49.1671, -5775.2529296875]]], [[[-127.89669, 49.32231, -7173.37890625], [-127.89023, 49.32868, -7650.31103515625], [-127.89727, 49.32173, -8184.64111328125], [-127.89669, 49.32231, -7173.37890625]]], [[[-128.03988, 49.1671, -5775.2529296875], [-128.03956, 49.16739, -6667.29931640625], [-128.04594, 49.16021, -6247.626953125], [-128.03988, 49.1671, -5775.2529296875]]], [[[-127.89023, 49.32868, -7650.31103515625], [-127.883, 49.335, -7180.373046875], [-127.883, 49.335, -8120.2490234375], [-127.89023, 49.32868, -7650.31103515625]]], [[[-128.03956, 49.16739, -6667.29931640625], [-128.04082, 49.16607, -7501.392578125], [-128.0461, 49.16002, -7194.08837890625], [-128.03956, 49.16739, -6667.29931640625]]], [[[-127.89023, 49.32868, -7650.31103515625], [-127.89669, 49.32231, -7173.37890625], [-127.89023, 49.32868, -6710.435546875], [-127.89023, 49.32868, -7650.31103515625]]], [[[-128.0331, 49.17303, -7309.67724609375], [-128.03735, 49.16932, -8267.94921875], [-128.04082, 49.16607, -7501.392578125], [-128.0331, 49.17303, -7309.67724609375]]], [[[-127.92135, 49.29865, -4218.8583984375], [-127.91766, 49.30234, -3352.25537109375], [-127.91394, 49.30605, -4217.71142578125], [-127.92135, 49.29865, -4218.8583984375]]], [[[-128.03735, 49.16932, -8267.94921875], [-128.0331, 49.17303, -7309.67724609375], [-128.02974, 49.17659, -8267.94921875], [-128.03735, 49.16932, -8267.94921875]]], [[[-128.03735, 49.16932, -8267.94921875], [-128.02974, 49.17659, -8267.94921875], [-128.03331, 49.17285, -9133.974609375], [-128.03735, 49.16932, -8267.94921875]]], [[[-127.91394, 49.30605, -4217.71142578125], [-127.91766, 49.30234, -3352.25537109375], [-127.90991, 49.30958, -3351.1181640625], [-127.91394, 49.30605, -4217.71142578125]]], [[[-128.03735, 49.16932, -8267.94921875], [-128.03331, 49.17285, -9133.974609375], [-128.04116, 49.16568, -9133.974609375], [-128.03735, 49.16932, -8267.94921875]]], [[[-128.00622, 49.20337, -5277.94384765625], [-128.00919, 49.19941, -4262.84619140625], [-128.00325, 49.20733, -4263.6044921875], [-128.00622, 49.20337, -5277.94384765625]]], [[[-128.04119, 49.16564, -3367.207275390625], [-128.04451, 49.16184, -2492.86865234375], [-128.03735, 49.16932, -2491.699462890625], [-128.04119, 49.16564, -3367.207275390625]]], [[[-128.04509, 49.16119, -8243.8798828125], [-128.03735, 49.16932, -8267.94921875], [-128.04116, 49.16568, -9133.974609375], [-128.04509, 49.16119, -8243.8798828125]]], [[[-128.04082, 49.16607, -7501.392578125], [-128.04509, 49.16119, -8243.8798828125], [-128.0461, 49.16002, -7194.08837890625], [-128.04082, 49.16607, -7501.392578125]]], [[[-128.04509, 49.16119, -8243.8798828125], [-128.05172, 49.1536, -7680.8291015625], [-128.0461, 49.16002, -7194.08837890625], [-128.04509, 49.16119, -8243.8798828125]]], [[[-128.04509, 49.16119, -8243.8798828125], [-128.05194, 49.15335, -8682.095703125], [-128.05172, 49.1536, -7680.8291015625], [-128.04509, 49.16119, -8243.8798828125]]], [[[-128.04509, 49.16119, -8243.8798828125], [-128.04756, 49.15835, -9172.626953125], [-128.05194, 49.15335, -8682.095703125], [-128.04509, 49.16119, -8243.8798828125]]], [[[-128.04509, 49.16119, -8243.8798828125], [-128.04116, 49.16568, -9133.974609375], [-128.04756, 49.15835, -9172.626953125], [-128.04509, 49.16119, -8243.8798828125]]], [[[-128.05172, 49.1536, -7680.8291015625], [-128.059, 49.147, -8123.8134765625], [-128.059, 49.147, -7185.72021484375], [-128.05172, 49.1536, -7680.8291015625]]], [[[-128.05193, 49.15336, -6716.673828125], [-128.05172, 49.1536, -7680.8291015625], [-128.059, 49.147, -7185.72021484375], [-128.05193, 49.15336, -6716.673828125]]], [[[-128.0461, 49.16002, -7194.08837890625], [-128.05172, 49.1536, -7680.8291015625], [-128.05193, 49.15336, -6716.673828125], [-128.0461, 49.16002, -7194.08837890625]]], [[[-128.04594, 49.16021, -6247.626953125], [-128.05193, 49.15336, -5778.58056640625], [-128.04594, 49.16021, -5309.53369140625], [-128.04594, 49.16021, -6247.626953125]]], [[[-128.04561, 49.16059, -4290.77685546875], [-128.04762, 49.15829, -3328.29541015625], [-128.04119, 49.16564, -3367.207275390625], [-128.04561, 49.16059, -4290.77685546875]]], [[[-128.04561, 49.16059, -4290.77685546875], [-128.05208, 49.1532, -3810.22705078125], [-128.04762, 49.15829, -3328.29541015625], [-128.04561, 49.16059, -4290.77685546875]]], [[[-128.05208, 49.1532, -3810.22705078125], [-128.04561, 49.16059, -4290.77685546875], [-128.05193, 49.15336, -4840.4873046875], [-128.05208, 49.1532, -3810.22705078125]]], [[[-127.99708, 49.21519, -6362.03564453125], [-127.99372, 49.21903, -7364.146484375], [-128.00027, 49.2113, -7364.10205078125], [-127.99708, 49.21519, -6362.03564453125]]], [[[-128.04762, 49.15829, -3328.29541015625], [-128.05208, 49.1532, -3810.22705078125], [-128.05122, 49.15418, -2494.017578125], [-128.04762, 49.15829, -3328.29541015625]]], [[[-127.90382, 49.31518, -6669.6015625], [-127.90361, 49.31539, -5787.6005859375], [-127.8969, 49.3221, -6240.49755859375], [-127.90382, 49.31518, -6669.6015625]]], [[[-128.02657, 49.1802, -5157.68212890625], [-128.02972, 49.1766, -4222.56005859375], [-128.02281, 49.18419, -4221.49072265625], [-128.02657, 49.1802, -5157.68212890625]]], [[[-128.01897, 49.18803, -5195.05322265625], [-128.02281, 49.18419, -4221.49072265625], [-128.01563, 49.19171, -4252.07080078125], [-128.01897, 49.18803, -5195.05322265625]]], [[[-128.01563, 49.19171, -4252.07080078125], [-128.01229, 49.19553, -5274.087890625], [-128.01897, 49.18803, -5195.05322265625], [-128.01563, 49.19171, -4252.07080078125]]], [[[-127.92505, 49.29495, -3353.412109375], [-127.92874, 49.29126, -4220.0166015625], [-127.93245, 49.28755, -3354.57177734375], [-127.92505, 49.29495, -3353.412109375]]], [[[-128.00028, 49.2113, -5278.35546875], [-128.00325, 49.20733, -4263.6044921875], [-127.99709, 49.21519, -4264.21435546875], [-128.00028, 49.2113, -5278.35546875]]], [[[-127.97178, 49.24639, -4265.974609375], [-127.96845, 49.2502, -5276.7080078125], [-127.9749, 49.24247, -5279.86669921875], [-127.97178, 49.24639, -4265.974609375]]], [[[-127.90992, 49.30957, -9133.974609375], [-127.91396, 49.30603, -10000.0], [-127.91766, 49.30234, -9133.974609375], [-127.90992, 49.30957, -9133.974609375]]], [[[-127.92503, 49.29497, -5116.35693359375], [-127.93249, 49.28751, -5134.90185546875], [-127.92874, 49.29126, -4220.0166015625], [-127.92503, 49.29497, -5116.35693359375]]], [[[-127.89663, 49.32237, -5311.76953125], [-127.89023, 49.32868, -4830.68408203125], [-127.89023, 49.32868, -5770.5595703125], [-127.89663, 49.32237, -5311.76953125]]], [[[-127.91738, 49.30262, -5142.5849609375], [-127.92503, 49.29497, -5116.35693359375], [-127.92135, 49.29865, -4218.8583984375], [-127.91738, 49.30262, -5142.5849609375]]], [[[-127.90382, 49.31518, -6669.6015625], [-127.8969, 49.3221, -6240.49755859375], [-127.89669, 49.32231, -7173.37890625], [-127.90382, 49.31518, -6669.6015625]]], [[[-127.90989, 49.3096, -5083.1494140625], [-127.91738, 49.30262, -5142.5849609375], [-127.91394, 49.30605, -4217.71142578125], [-127.90989, 49.3096, -5083.1494140625]]], [[[-127.90989, 49.3096, -5083.1494140625], [-127.91394, 49.30605, -4217.71142578125], [-127.9057, 49.3133, -4218.77490234375], [-127.90989, 49.3096, -5083.1494140625]]], [[[-127.90241, 49.31659, -4979.923828125], [-127.90989, 49.3096, -5083.1494140625], [-127.9057, 49.3133, -4218.77490234375], [-127.90241, 49.31659, -4979.923828125]]], [[[-127.90241, 49.31659, -4979.923828125], [-127.90361, 49.31539, -5787.6005859375], [-127.90989, 49.3096, -5083.1494140625], [-127.90241, 49.31659, -4979.923828125]]], [[[-127.90361, 49.31539, -5787.6005859375], [-127.90241, 49.31659, -4979.923828125], [-127.89663, 49.32237, -5311.76953125], [-127.90361, 49.31539, -5787.6005859375]]], [[[-127.90361, 49.31539, -5787.6005859375], [-127.89663, 49.32237, -5311.76953125], [-127.8969, 49.3221, -6240.49755859375], [-127.90361, 49.31539, -5787.6005859375]]], [[[-127.90241, 49.31659, -4979.923828125], [-127.89726, 49.32174, -4297.6416015625], [-127.89663, 49.32237, -5311.76953125], [-127.90241, 49.31659, -4979.923828125]]], [[[-127.89726, 49.32174, -4297.6416015625], [-127.90241, 49.31659, -4979.923828125], [-127.9057, 49.3133, -4218.77490234375], [-127.89726, 49.32174, -4297.6416015625]]], [[[-127.9057, 49.3133, -4218.77490234375], [-127.90207, 49.31693, -3371.520263671875], [-127.89726, 49.32174, -4297.6416015625], [-127.9057, 49.3133, -4218.77490234375]]], [[[-127.91738, 49.30262, -5142.5849609375], [-127.92135, 49.29865, -4218.8583984375], [-127.91394, 49.30605, -4217.71142578125], [-127.91738, 49.30262, -5142.5849609375]]], [[[-127.8969, 49.3221, -6240.49755859375], [-127.89023, 49.32868, -6710.435546875], [-127.89669, 49.32231, -7173.37890625], [-127.8969, 49.3221, -6240.49755859375]]], [[[-127.9025, 49.3165, -7497.009765625], [-127.89669, 49.32231, -7173.37890625], [-127.89727, 49.32173, -8184.64111328125], [-127.9025, 49.3165, -7497.009765625]]], [[[-127.9025, 49.3165, -7497.009765625], [-127.89727, 49.32173, -8184.64111328125], [-127.90572, 49.31328, -8264.3037109375], [-127.9025, 49.3165, -7497.009765625]]], [[[-127.9101, 49.30941, -7310.1630859375], [-127.9025, 49.3165, -7497.009765625], [-127.90572, 49.31328, -8264.3037109375], [-127.9101, 49.30941, -7310.1630859375]]], [[[-127.90572, 49.31328, -8264.3037109375], [-127.89727, 49.32173, -8184.64111328125], [-127.90207, 49.31693, -9112.0927734375], [-127.90572, 49.31328, -8264.3037109375]]], [[[-127.90572, 49.31328, -8264.3037109375], [-127.90207, 49.31693, -9112.0927734375], [-127.90992, 49.30957, -9133.974609375], [-127.90572, 49.31328, -8264.3037109375]]], [[[-127.89727, 49.32173, -8184.64111328125], [-127.89504, 49.32396, -9155.37109375], [-127.90207, 49.31693, -9112.0927734375], [-127.89727, 49.32173, -8184.64111328125]]], [[[-127.89727, 49.32173, -8184.64111328125], [-127.89005, 49.32883, -8681.4775390625], [-127.89504, 49.32396, -9155.37109375], [-127.89727, 49.32173, -8184.64111328125]]], [[[-127.93616, 49.28384, -4229.05419921875], [-127.93245, 49.28755, -3354.57177734375], [-127.92874, 49.29126, -4220.0166015625], [-127.93616, 49.28384, -4229.05419921875]]], [[[-127.93245, 49.28755, -3354.57177734375], [-127.93616, 49.28384, -4229.05419921875], [-127.93985, 49.28015, -3355.728759765625], [-127.93245, 49.28755, -3354.57177734375]]], [[[-127.93245, 49.28755, -3354.57177734375], [-127.93985, 49.28015, -3355.728759765625], [-127.93616, 49.28384, -2489.092041015625], [-127.93245, 49.28755, -3354.57177734375]]], [[[-127.93245, 49.28755, -3354.57177734375], [-127.93616, 49.28384, -2489.092041015625], [-127.92876, 49.29124, -2488.00146484375], [-127.93245, 49.28755, -3354.57177734375]]], [[[-127.93985, 49.28015, -3355.728759765625], [-127.94355, 49.27645, -2490.315673828125], [-127.93616, 49.28384, -2489.092041015625], [-127.93985, 49.28015, -3355.728759765625]]], [[[-127.93985, 49.28015, -3355.728759765625], [-127.94724, 49.27276, -3356.887939453125], [-127.94355, 49.27645, -2490.315673828125], [-127.93985, 49.28015, -3355.728759765625]]], [[[-127.93985, 49.28015, -3355.728759765625], [-127.94357, 49.27643, -4253.51416015625], [-127.94724, 49.27276, -3356.887939453125], [-127.93985, 49.28015, -3355.728759765625]]], [[[-127.94357, 49.27643, -4253.51416015625], [-127.93985, 49.28015, -3355.728759765625], [-127.93616, 49.28384, -4229.05419921875], [-127.94357, 49.27643, -4253.51416015625]]], [[[-127.9509, 49.2691, -4255.2138671875], [-127.94724, 49.27276, -3356.887939453125], [-127.94357, 49.27643, -4253.51416015625], [-127.9509, 49.2691, -4255.2138671875]]], [[[-127.9509, 49.2691, -4255.2138671875], [-127.95488, 49.26548, -3358.021484375], [-127.94724, 49.27276, -3356.887939453125], [-127.9509, 49.2691, -4255.2138671875]]], [[[-127.95893, 49.26194, -4236.75439453125], [-127.95488, 49.26548, -3358.021484375], [-127.9509, 49.2691, -4255.2138671875], [-127.95893, 49.26194, -4236.75439453125]]], [[[-127.95893, 49.26194, -4236.75439453125], [-127.96219, 49.25808, -3358.76171875], [-127.95488, 49.26548, -3358.021484375], [-127.95893, 49.26194, -4236.75439453125]]], [[[-127.9652, 49.25407, -4256.61328125], [-127.96219, 49.25808, -3358.76171875], [-127.95893, 49.26194, -4236.75439453125], [-127.9652, 49.25407, -4256.61328125]]], [[[-127.9652, 49.25407, -4256.61328125], [-127.96842, 49.25023, -3358.685546875], [-127.96219, 49.25808, -3358.76171875], [-127.9652, 49.25407, -4256.61328125]]], [[[-127.97178, 49.24639, -4265.974609375], [-127.96842, 49.25023, -3358.685546875], [-127.9652, 49.25407, -4256.61328125], [-127.97178, 49.24639, -4265.974609375]]], [[[-127.97178, 49.24639, -4265.974609375], [-127.97489, 49.24248, -3358.167236328125], [-127.96842, 49.25023, -3358.685546875], [-127.97178, 49.24639, -4265.974609375]]], [[[-127.97787, 49.23851, -4265.796875], [-127.97489, 49.24248, -3358.167236328125], [-127.97178, 49.24639, -4265.974609375], [-127.97787, 49.23851, -4265.796875]]], [[[-127.97787, 49.23851, -4265.796875], [-127.98107, 49.23463, -3357.595703125], [-127.97489, 49.24248, -3358.167236328125], [-127.97787, 49.23851, -4265.796875]]], [[[-127.98443, 49.23079, -4265.27099609375], [-127.98107, 49.23463, -3357.595703125], [-127.97787, 49.23851, -4265.796875], [-127.98443, 49.23079, -4265.27099609375]]], [[[-127.98443, 49.23079, -4265.27099609375], [-127.98758, 49.22689, -3357.02490234375], [-127.98107, 49.23463, -3357.595703125], [-127.98443, 49.23079, -4265.27099609375]]], [[[-127.99056, 49.22292, -4264.7451171875], [-127.98758, 49.22689, -3357.02490234375], [-127.98443, 49.23079, -4265.27099609375], [-127.99056, 49.22292, -4264.7451171875]]], [[[-127.99056, 49.22292, -4264.7451171875], [-127.99373, 49.21903, -3356.453369140625], [-127.98758, 49.22689, -3357.02490234375], [-127.99056, 49.22292, -4264.7451171875]]], [[[-127.99709, 49.21519, -4264.21435546875], [-127.99373, 49.21903, -3356.453369140625], [-127.99056, 49.22292, -4264.7451171875], [-127.99709, 49.21519, -4264.21435546875]]], [[[-127.99709, 49.21519, -4264.21435546875], [-128.00027, 49.2113, -3355.88232421875], [-127.99373, 49.21903, -3356.453369140625], [-127.99709, 49.21519, -4264.21435546875]]], [[[-128.00325, 49.20733, -4263.6044921875], [-128.00027, 49.2113, -3355.88232421875], [-127.99709, 49.21519, -4264.21435546875], [-128.00325, 49.20733, -4263.6044921875]]], [[[-128.00325, 49.20733, -4263.6044921875], [-128.00622, 49.20337, -3355.30419921875], [-128.00027, 49.2113, -3355.88232421875], [-128.00325, 49.20733, -4263.6044921875]]], [[[-128.00325, 49.20733, -4263.6044921875], [-128.00919, 49.19941, -4262.84619140625], [-128.00622, 49.20337, -3355.30419921875], [-128.00325, 49.20733, -4263.6044921875]]], [[[-128.00919, 49.19941, -4262.84619140625], [-128.01232, 49.19549, -3354.82080078125], [-128.00622, 49.20337, -3355.30419921875], [-128.00919, 49.19941, -4262.84619140625]]], [[[-128.01563, 49.19171, -4252.07080078125], [-128.01232, 49.19549, -3354.82080078125], [-128.00919, 49.19941, -4262.84619140625], [-128.01563, 49.19171, -4252.07080078125]]], [[[-128.01232, 49.19549, -3354.82080078125], [-128.01563, 49.19171, -4252.07080078125], [-128.01913, 49.18787, -3354.989013671875], [-128.01232, 49.19549, -3354.82080078125]]], [[[-128.01232, 49.19549, -3354.82080078125], [-128.01913, 49.18787, -3354.989013671875], [-128.01567, 49.19166, -2488.6025390625], [-128.01232, 49.19549, -3354.82080078125]]], [[[-128.01232, 49.19549, -3354.82080078125], [-128.01567, 49.19166, -2488.6025390625], [-128.00919, 49.19941, -2488.98828125], [-128.01232, 49.19549, -3354.82080078125]]], [[[-128.00622, 49.20337, -3355.30419921875], [-128.01232, 49.19549, -3354.82080078125], [-128.00919, 49.19941, -2488.98828125], [-128.00622, 49.20337, -3355.30419921875]]], [[[-128.00622, 49.20337, -3355.30419921875], [-128.00919, 49.19941, -2488.98828125], [-128.00325, 49.20734, -2489.5693359375], [-128.00622, 49.20337, -3355.30419921875]]], [[[-128.00027, 49.2113, -3355.88232421875], [-128.00622, 49.20337, -3355.30419921875], [-128.00325, 49.20734, -2489.5693359375], [-128.00027, 49.2113, -3355.88232421875]]], [[[-128.00027, 49.2113, -3355.88232421875], [-128.00325, 49.20734, -2489.5693359375], [-127.99708, 49.2152, -2490.144775390625], [-128.00027, 49.2113, -3355.88232421875]]], [[[-127.99373, 49.21903, -3356.453369140625], [-128.00027, 49.2113, -3355.88232421875], [-127.99708, 49.2152, -2490.144775390625], [-127.99373, 49.21903, -3356.453369140625]]], [[[-127.99373, 49.21903, -3356.453369140625], [-127.99708, 49.2152, -2490.144775390625], [-127.99055, 49.22293, -2490.711181640625], [-127.99373, 49.21903, -3356.453369140625]]], [[[-127.98758, 49.22689, -3357.02490234375], [-127.99373, 49.21903, -3356.453369140625], [-127.99055, 49.22293, -2490.711181640625], [-127.98758, 49.22689, -3357.02490234375]]], [[[-127.98758, 49.22689, -3357.02490234375], [-127.99055, 49.22293, -2490.711181640625], [-127.98443, 49.2308, -2491.287841796875], [-127.98758, 49.22689, -3357.02490234375]]], [[[-127.98107, 49.23463, -3357.595703125], [-127.98758, 49.22689, -3357.02490234375], [-127.98443, 49.2308, -2491.287841796875], [-127.98107, 49.23463, -3357.595703125]]], [[[-127.98107, 49.23463, -3357.595703125], [-127.98443, 49.2308, -2491.287841796875], [-127.97786, 49.23852, -2491.85302734375], [-127.98107, 49.23463, -3357.595703125]]], [[[-127.97489, 49.24248, -3358.167236328125], [-127.98107, 49.23463, -3357.595703125], [-127.97786, 49.23852, -2491.85302734375], [-127.97489, 49.24248, -3358.167236328125]]], [[[-127.97489, 49.24248, -3358.167236328125], [-127.97786, 49.23852, -2491.85302734375], [-127.97177, 49.2464, -2492.4306640625], [-127.97489, 49.24248, -3358.167236328125]]], [[[-127.96842, 49.25023, -3358.685546875], [-127.97489, 49.24248, -3358.167236328125], [-127.97177, 49.2464, -2492.4306640625], [-127.96842, 49.25023, -3358.685546875]]], [[[-127.96842, 49.25023, -3358.685546875], [-127.97177, 49.2464, -2492.4306640625], [-127.96517, 49.25411, -2492.889892578125], [-127.96842, 49.25023, -3358.685546875]]], [[[-127.96219, 49.25808, -3358.76171875], [-127.96842, 49.25023, -3358.685546875], [-127.96517, 49.25411, -2492.889892578125], [-127.96219, 49.25808, -3358.76171875]]], [[[-127.96219, 49.25808, -3358.76171875], [-127.96517, 49.25411, -2492.889892578125], [-127.95894, 49.26193, -2492.5830078125], [-127.96219, 49.25808, -3358.76171875]]], [[[-127.95488, 49.26548, -3358.021484375], [-127.96219, 49.25808, -3358.76171875], [-127.95894, 49.26193, -2492.5830078125], [-127.95488, 49.26548, -3358.021484375]]], [[[-127.95488, 49.26548, -3358.021484375], [-127.95894, 49.26193, -2492.5830078125], [-127.95095, 49.26905, -2491.410400390625], [-127.95488, 49.26548, -3358.021484375]]], [[[-127.94724, 49.27276, -3356.887939453125], [-127.95488, 49.26548, -3358.021484375], [-127.95095, 49.26905, -2491.410400390625], [-127.94724, 49.27276, -3356.887939453125]]], [[[-127.94724, 49.27276, -3356.887939453125], [-127.95095, 49.26905, -2491.410400390625], [-127.94355, 49.27645, -2490.315673828125], [-127.94724, 49.27276, -3356.887939453125]]], [[[-128.01913, 49.18787, -3354.989013671875], [-128.02283, 49.18417, -2489.325439453125], [-128.01567, 49.19166, -2488.6025390625], [-128.01913, 49.18787, -3354.989013671875]]], [[[-128.01913, 49.18787, -3354.989013671875], [-128.02637, 49.18043, -3355.942138671875], [-128.02283, 49.18417, -2489.325439453125], [-128.01913, 49.18787, -3354.989013671875]]], [[[-128.02281, 49.18419, -4221.49072265625], [-128.02637, 49.18043, -3355.942138671875], [-128.01913, 49.18787, -3354.989013671875], [-128.02281, 49.18419, -4221.49072265625]]], [[[-128.02281, 49.18419, -4221.49072265625], [-128.01913, 49.18787, -3354.989013671875], [-128.01563, 49.19171, -4252.07080078125], [-128.02281, 49.18419, -4221.49072265625]]], [[[-128.02637, 49.18043, -3355.942138671875], [-128.02974, 49.17659, -2490.509033203125], [-128.02283, 49.18417, -2489.325439453125], [-128.02637, 49.18043, -3355.942138671875]]], [[[-128.0333, 49.17286, -3357.12890625], [-128.02974, 49.17659, -2490.509033203125], [-128.02637, 49.18043, -3355.942138671875], [-128.0333, 49.17286, -3357.12890625]]], [[[-128.0333, 49.17286, -3357.12890625], [-128.03735, 49.16932, -2491.699462890625], [-128.02974, 49.17659, -2490.509033203125], [-128.0333, 49.17286, -3357.12890625]]], [[[-127.93246, 49.28754, -9133.974609375], [-127.92876, 49.29124, -10000.0], [-127.93616, 49.28384, -10000.0], [-127.93246, 49.28754, -9133.974609375]]], [[[-127.96845, 49.2502, -5276.7080078125], [-127.97176, 49.24641, -6362.302734375], [-127.9749, 49.24247, -5279.86669921875], [-127.96845, 49.2502, -5276.7080078125]]], [[[-128.05193, 49.15336, -4840.4873046875], [-128.059, 49.147, -5309.53369140625], [-128.059, 49.147, -4371.4404296875], [-128.05193, 49.15336, -4840.4873046875]]], [[[-128.05193, 49.15336, -4840.4873046875], [-128.05193, 49.15336, -5778.58056640625], [-128.059, 49.147, -5309.53369140625], [-128.05193, 49.15336, -4840.4873046875]]], [[[-128.05193, 49.15336, -5778.58056640625], [-128.059, 49.147, -6247.626953125], [-128.059, 49.147, -5309.53369140625], [-128.05193, 49.15336, -5778.58056640625]]], [[[-128.05193, 49.15336, -5778.58056640625], [-128.05193, 49.15336, -6716.673828125], [-128.059, 49.147, -6247.626953125], [-128.05193, 49.15336, -5778.58056640625]]], [[[-128.05193, 49.15336, -6716.673828125], [-128.059, 49.147, -7185.72021484375], [-128.059, 49.147, -6247.626953125], [-128.05193, 49.15336, -6716.673828125]]], [[[-128.05194, 49.15335, -8682.095703125], [-128.059, 49.147, -9061.90625], [-128.059, 49.147, -8123.8134765625], [-128.05194, 49.15335, -8682.095703125]]], [[[-128.02974, 49.17659, -8267.94921875], [-128.02638, 49.18042, -9133.974609375], [-128.03331, 49.17285, -9133.974609375], [-128.02974, 49.17659, -8267.94921875]]], [[[-128.02974, 49.17659, -8267.94921875], [-128.02283, 49.18417, -8267.94921875], [-128.02638, 49.18042, -9133.974609375], [-128.02974, 49.17659, -8267.94921875]]], [[[-128.02974, 49.17659, -8267.94921875], [-128.02635, 49.18046, -7504.81689453125], [-128.02283, 49.18417, -8267.94921875], [-128.02974, 49.17659, -8267.94921875]]], [[[-128.02635, 49.18046, -7504.81689453125], [-128.02974, 49.17659, -8267.94921875], [-128.0331, 49.17303, -7309.67724609375], [-128.02635, 49.18046, -7504.81689453125]]], [[[-128.0331, 49.17303, -7309.67724609375], [-128.02697, 49.17975, -6749.16650390625], [-128.02635, 49.18046, -7504.81689453125], [-128.0331, 49.17303, -7309.67724609375]]], [[[-128.02697, 49.17975, -6749.16650390625], [-128.01961, 49.18739, -7263.2119140625], [-128.02635, 49.18046, -7504.81689453125], [-128.02697, 49.17975, -6749.16650390625]]], [[[-128.02697, 49.17975, -6749.16650390625], [-128.02301, 49.18399, -6074.94482421875], [-128.01961, 49.18739, -7263.2119140625], [-128.02697, 49.17975, -6749.16650390625]]], [[[-128.01961, 49.18739, -7263.2119140625], [-128.02301, 49.18399, -6074.94482421875], [-128.01579, 49.19152, -6329.03466796875], [-128.01961, 49.18739, -7263.2119140625]]], [[[-128.01579, 49.19152, -6329.03466796875], [-128.01242, 49.19538, -7352.42529296875], [-128.01961, 49.18739, -7263.2119140625], [-128.01579, 49.19152, -6329.03466796875]]], [[[-128.01579, 49.19152, -6329.03466796875], [-128.00921, 49.19938, -6360.4453125], [-128.01242, 49.19538, -7352.42529296875], [-128.01579, 49.19152, -6329.03466796875]]], [[[-128.00921, 49.19938, -6360.4453125], [-128.00623, 49.20336, -7363.8798828125], [-128.01242, 49.19538, -7352.42529296875], [-128.00921, 49.19938, -6360.4453125]]], [[[-128.00921, 49.19938, -6360.4453125], [-128.00325, 49.20734, -6361.9580078125], [-128.00623, 49.20336, -7363.8798828125], [-128.00921, 49.19938, -6360.4453125]]], [[[-128.00325, 49.20734, -6361.9580078125], [-127.99708, 49.21519, -6362.03564453125], [-128.00027, 49.2113, -7364.10205078125], [-128.00325, 49.20734, -6361.9580078125]]], [[[-127.99708, 49.21519, -6362.03564453125], [-127.99056, 49.22293, -6362.19873046875], [-127.99372, 49.21903, -7364.146484375], [-127.99708, 49.21519, -6362.03564453125]]], [[[-127.99056, 49.22293, -6362.19873046875], [-127.98758, 49.22689, -7364.18505859375], [-127.99372, 49.21903, -7364.146484375], [-127.99056, 49.22293, -6362.19873046875]]], [[[-127.99056, 49.22293, -6362.19873046875], [-127.98443, 49.2308, -6362.37109375], [-127.98758, 49.22689, -7364.18505859375], [-127.99056, 49.22293, -6362.19873046875]]], [[[-127.98443, 49.2308, -6362.37109375], [-127.98107, 49.23463, -7364.21728515625], [-127.98758, 49.22689, -7364.18505859375], [-127.98443, 49.2308, -6362.37109375]]], [[[-127.98443, 49.2308, -6362.37109375], [-127.97786, 49.23852, -6362.55029296875], [-127.98107, 49.23463, -7364.21728515625], [-127.98443, 49.2308, -6362.37109375]]], [[[-127.97786, 49.23852, -6362.55029296875], [-127.97488, 49.24249, -7364.17578125], [-127.98107, 49.23463, -7364.21728515625], [-127.97786, 49.23852, -6362.55029296875]]], [[[-127.97488, 49.24249, -7364.17578125], [-127.97786, 49.23852, -8267.94921875], [-127.98107, 49.23463, -7364.21728515625], [-127.97488, 49.24249, -7364.17578125]]], [[[-127.97488, 49.24249, -7364.17578125], [-127.97177, 49.2464, -8267.94921875], [-127.97786, 49.23852, -8267.94921875], [-127.97488, 49.24249, -7364.17578125]]], [[[-127.97489, 49.24248, -9133.974609375], [-127.97786, 49.23852, -8267.94921875], [-127.97177, 49.2464, -8267.94921875], [-127.97489, 49.24248, -9133.974609375]]], [[[-127.97786, 49.23852, -8267.94921875], [-127.97489, 49.24248, -9133.974609375], [-127.98107, 49.23463, -9133.974609375], [-127.97786, 49.23852, -8267.94921875]]], [[[-127.98107, 49.23463, -9133.974609375], [-127.98443, 49.2308, -8267.94921875], [-127.97786, 49.23852, -8267.94921875], [-127.98107, 49.23463, -9133.974609375]]], [[[-127.98443, 49.2308, -8267.94921875], [-127.98107, 49.23463, -9133.974609375], [-127.98758, 49.22689, -9133.974609375], [-127.98443, 49.2308, -8267.94921875]]], [[[-127.98758, 49.22689, -9133.974609375], [-127.99055, 49.22293, -8267.94921875], [-127.98443, 49.2308, -8267.94921875], [-127.98758, 49.22689, -9133.974609375]]], [[[-127.99055, 49.22293, -8267.94921875], [-127.98758, 49.22689, -9133.974609375], [-127.99372, 49.21903, -9133.974609375], [-127.99055, 49.22293, -8267.94921875]]], [[[-127.99372, 49.21903, -9133.974609375], [-127.99708, 49.2152, -8267.94921875], [-127.99055, 49.22293, -8267.94921875], [-127.99372, 49.21903, -9133.974609375]]], [[[-127.99708, 49.2152, -8267.94921875], [-127.99372, 49.21903, -9133.974609375], [-128.00027, 49.21131, -9133.974609375], [-127.99708, 49.2152, -8267.94921875]]], [[[-128.00027, 49.21131, -9133.974609375], [-128.00325, 49.20734, -8267.94921875], [-127.99708, 49.2152, -8267.94921875], [-128.00027, 49.21131, -9133.974609375]]], [[[-128.00325, 49.20734, -8267.94921875], [-128.00027, 49.21131, -9133.974609375], [-128.00622, 49.20337, -9133.974609375], [-128.00325, 49.20734, -8267.94921875]]], [[[-128.00622, 49.20337, -9133.974609375], [-128.00919, 49.19941, -8267.94921875], [-128.00325, 49.20734, -8267.94921875], [-128.00622, 49.20337, -9133.974609375]]], [[[-128.00919, 49.19941, -8267.94921875], [-128.00622, 49.20337, -9133.974609375], [-128.01232, 49.19549, -9133.974609375], [-128.00919, 49.19941, -8267.94921875]]], [[[-128.01572, 49.19161, -8251.8369140625], [-128.00919, 49.19941, -8267.94921875], [-128.01232, 49.19549, -9133.974609375], [-128.01572, 49.19161, -8251.8369140625]]], [[[-128.01242, 49.19538, -7352.42529296875], [-128.00919, 49.19941, -8267.94921875], [-128.01572, 49.19161, -8251.8369140625], [-128.01242, 49.19538, -7352.42529296875]]], [[[-128.00623, 49.20336, -7363.8798828125], [-128.00919, 49.19941, -8267.94921875], [-128.01242, 49.19538, -7352.42529296875], [-128.00623, 49.20336, -7363.8798828125]]], [[[-128.00623, 49.20336, -7363.8798828125], [-128.00325, 49.20734, -8267.94921875], [-128.00919, 49.19941, -8267.94921875], [-128.00623, 49.20336, -7363.8798828125]]], [[[-128.00027, 49.2113, -7364.10205078125], [-128.00325, 49.20734, -8267.94921875], [-128.00623, 49.20336, -7363.8798828125], [-128.00027, 49.2113, -7364.10205078125]]], [[[-128.00027, 49.2113, -7364.10205078125], [-127.99708, 49.2152, -8267.94921875], [-128.00325, 49.20734, -8267.94921875], [-128.00027, 49.2113, -7364.10205078125]]], [[[-127.99372, 49.21903, -7364.146484375], [-127.99708, 49.2152, -8267.94921875], [-128.00027, 49.2113, -7364.10205078125], [-127.99372, 49.21903, -7364.146484375]]], [[[-127.99372, 49.21903, -7364.146484375], [-127.99055, 49.22293, -8267.94921875], [-127.99708, 49.2152, -8267.94921875], [-127.99372, 49.21903, -7364.146484375]]], [[[-127.98758, 49.22689, -7364.18505859375], [-127.99055, 49.22293, -8267.94921875], [-127.99372, 49.21903, -7364.146484375], [-127.98758, 49.22689, -7364.18505859375]]], [[[-127.98758, 49.22689, -7364.18505859375], [-127.98443, 49.2308, -8267.94921875], [-127.99055, 49.22293, -8267.94921875], [-127.98758, 49.22689, -7364.18505859375]]], [[[-127.98107, 49.23463, -7364.21728515625], [-127.98443, 49.2308, -8267.94921875], [-127.98758, 49.22689, -7364.18505859375], [-127.98107, 49.23463, -7364.21728515625]]], [[[-127.98107, 49.23463, -7364.21728515625], [-127.97786, 49.23852, -8267.94921875], [-127.98443, 49.2308, -8267.94921875], [-127.98107, 49.23463, -7364.21728515625]]], [[[-128.01242, 49.19538, -7352.42529296875], [-128.01572, 49.19161, -8251.8369140625], [-128.01961, 49.18739, -7263.2119140625], [-128.01242, 49.19538, -7352.42529296875]]], [[[-128.02283, 49.18417, -8267.94921875], [-128.01961, 49.18739, -7263.2119140625], [-128.01572, 49.19161, -8251.8369140625], [-128.02283, 49.18417, -8267.94921875]]], [[[-128.01961, 49.18739, -7263.2119140625], [-128.02283, 49.18417, -8267.94921875], [-128.02635, 49.18046, -7504.81689453125], [-128.01961, 49.18739, -7263.2119140625]]], [[[-128.02283, 49.18417, -8267.94921875], [-128.01572, 49.19161, -8251.8369140625], [-128.01913, 49.18787, -9133.974609375], [-128.02283, 49.18417, -8267.94921875]]], [[[-128.02283, 49.18417, -8267.94921875], [-128.01913, 49.18787, -9133.974609375], [-128.02638, 49.18042, -9133.974609375], [-128.02283, 49.18417, -8267.94921875]]], [[[-128.01572, 49.19161, -8251.8369140625], [-128.01232, 49.19549, -9133.974609375], [-128.01913, 49.18787, -9133.974609375], [-128.01572, 49.19161, -8251.8369140625]]], [[[-127.97489, 49.24248, -9133.974609375], [-127.97177, 49.2464, -8267.94921875], [-127.96842, 49.25024, -9133.974609375], [-127.97489, 49.24248, -9133.974609375]]], [[[-127.96517, 49.25411, -8267.94921875], [-127.96842, 49.25024, -9133.974609375], [-127.97177, 49.2464, -8267.94921875], [-127.96517, 49.25411, -8267.94921875]]], [[[-127.96513, 49.25416, -6336.9248046875], [-127.95895, 49.26192, -6184.17236328125], [-127.96208, 49.25822, -7291.52783203125], [-127.96513, 49.25416, -6336.9248046875]]], [[[-127.95895, 49.26192, -6184.17236328125], [-127.95503, 49.26535, -7291.291015625], [-127.96208, 49.25822, -7291.52783203125], [-127.95895, 49.26192, -6184.17236328125]]], [[[-127.95895, 49.26192, -6184.17236328125], [-127.951, 49.269, -6333.6337890625], [-127.95503, 49.26535, -7291.291015625], [-127.95895, 49.26192, -6184.17236328125]]], [[[-127.951, 49.269, -6333.6337890625], [-127.94724, 49.27276, -7350.61328125], [-127.95503, 49.26535, -7291.291015625], [-127.951, 49.269, -6333.6337890625]]], [[[-127.951, 49.269, -6333.6337890625], [-127.94351, 49.27649, -6333.931640625], [-127.94724, 49.27276, -7350.61328125], [-127.951, 49.269, -6333.6337890625]]], [[[-127.94351, 49.27649, -6333.931640625], [-127.93967, 49.28033, -7284.98095703125], [-127.94724, 49.27276, -7350.61328125], [-127.94351, 49.27649, -6333.931640625]]], [[[-127.94351, 49.27649, -6333.931640625], [-127.93619, 49.28381, -6156.52099609375], [-127.93967, 49.28033, -7284.98095703125], [-127.94351, 49.27649, -6333.931640625]]], [[[-127.94724, 49.27276, -7350.61328125], [-127.93967, 49.28033, -7284.98095703125], [-127.94353, 49.27647, -8259.82421875], [-127.94724, 49.27276, -7350.61328125]]], [[[-127.94724, 49.27276, -7350.61328125], [-127.94353, 49.27647, -8259.82421875], [-127.95095, 49.26905, -8267.94921875], [-127.94724, 49.27276, -7350.61328125]]], [[[-127.94724, 49.27276, -7350.61328125], [-127.95095, 49.26905, -8267.94921875], [-127.95503, 49.26535, -7291.291015625], [-127.94724, 49.27276, -7350.61328125]]], [[[-127.95095, 49.26905, -8267.94921875], [-127.94353, 49.27647, -8259.82421875], [-127.94725, 49.27275, -9133.974609375], [-127.95095, 49.26905, -8267.94921875]]], [[[-127.95095, 49.26905, -8267.94921875], [-127.94725, 49.27275, -9133.974609375], [-127.95489, 49.26547, -9133.974609375], [-127.95095, 49.26905, -8267.94921875]]], [[[-127.93611, 49.28389, -8236.0556640625], [-127.93985, 49.28015, -9133.974609375], [-127.94353, 49.27647, -8259.82421875], [-127.93611, 49.28389, -8236.0556640625]]], [[[-127.93967, 49.28033, -7284.98095703125], [-127.93611, 49.28389, -8236.0556640625], [-127.94353, 49.27647, -8259.82421875], [-127.93967, 49.28033, -7284.98095703125]]], [[[-127.95894, 49.26193, -10000.0], [-127.96517, 49.25411, -10000.0], [-127.96219, 49.25808, -9133.974609375], [-127.95894, 49.26193, -10000.0]]], [[[-127.89005, 49.32883, -3799.991943359375], [-127.89108, 49.32792, -2482.182373046875], [-127.883, 49.335, -3420.87060546875], [-127.89005, 49.32883, -3799.991943359375]]], [[[-128.05122, 49.15418, -10000.0], [-128.059, 49.147, -10000.0], [-128.059, 49.147, -9061.90625], [-128.05122, 49.15418, -10000.0]]], [[[-128.05122, 49.15418, -2494.017578125], [-128.059, 49.147, -3433.34716796875], [-128.059, 49.147, -2495.25390625], [-128.05122, 49.15418, -2494.017578125]]]]}}]}