{"type": "FeatureCollection", "features": [{"type": "Feature", "properties": {"name": "Paulina Marsh", "CFM_ID": 122, "region": "Backarc_OR", "primary_state/province": "OR", "secondary_state/province": null, "avg_dip": 51, "dip_dir": "NE", "rake": -90, "slip_sense": "Normal", "fault_level": 1, "NSHM23_sliprates": 0.35, "QFFDAgeCatBin": "latest Quaternary", "QFFDAgeBin": "<15,000", "upper_depth": 1.3, "upper_depth_constraint": "topography", "lower_depth": -14.8, "lower_depth_constraint": "SDL", "3D_model_constraints": "trace extended at constant dip", "reference": "US NSHM 2023", "nshm23_id": 2526.0, "lineage": "unmodified", "usgs_qffd_#": "834", "comments": null, "id": "122"}, "geometry": {"type": "MultiPolygon", "coordinates": [[[[-121.02068, 43.22596, 894.7373046875], [-121.027, 43.229, 1294.2490234375], [-121.02135, 43.22079, 1293.2236328125], [-121.02068, 43.22596, 894.7373046875]]], [[[-121.01979, 43.23121, 512.9381103515625], [-121.027, 43.229, 1294.2490234375], [-121.02068, 43.22596, 894.7373046875], [-121.01979, 43.23121, 512.9381103515625]]], [[[-120.96644, 43.15795, -668.1552124023438], [-120.97423, 43.15529, 194.1067657470703], [-120.96487, 43.14932, -236.63381958007812], [-120.96644, 43.15795, -668.1552124023438]]], [[[-120.93261, 43.17742, -4920.54345703125], [-120.9311, 43.16874, -4494.16455078125], [-120.92403, 43.1709, -5259.36669921875], [-120.93261, 43.17742, -4920.54345703125]]], [[[-120.90125, 43.16875, -7123.1494140625], [-120.90984, 43.17534, -6802.302734375], [-120.90832, 43.16659, -6357.98095703125], [-120.90125, 43.16875, -7123.1494140625]]], [[[-121.01186, 43.22493, 186.92422485351562], [-121.01979, 43.23121, 512.9381103515625], [-121.02068, 43.22596, 894.7373046875], [-121.01186, 43.22493, 186.92422485351562]]], [[[-120.95468, 43.17987, -3002.904541015625], [-120.96178, 43.17772, -2235.3447265625], [-120.95384, 43.17093, -2626.760986328125], [-120.95468, 43.17987, -3002.904541015625]]], [[[-120.9311, 43.16874, -4494.16455078125], [-120.92953, 43.16012, -4062.475830078125], [-120.92246, 43.16228, -4827.64404296875], [-120.9311, 43.16874, -4494.16455078125]]], [[[-120.99405, 43.19431, 580.1143798828125], [-120.99996, 43.20312, 578.808349609375], [-121.00318, 43.19658, 1293.5416259765625], [-120.99405, 43.19431, 580.1143798828125]]], [[[-121.01186, 43.22493, 186.92422485351562], [-121.01257, 43.23341, -268.37274169921875], [-121.01979, 43.23121, 512.9381103515625], [-121.01186, 43.22493, 186.92422485351562]]], [[[-120.97304, 43.1711, -866.9164428710938], [-120.98093, 43.17248, -190.64010620117188], [-120.97575, 43.16415, -254.02281188964844], [-120.97304, 43.1711, -866.9164428710938]]], [[[-120.94803, 43.21611, -4842.203125], [-120.93903, 43.21829, -5776.22119140625], [-120.94995, 43.22447, -5238.30126953125], [-120.94803, 43.21611, -4842.203125]]], [[[-120.96101, 43.18637, -2534.776611328125], [-120.95468, 43.17987, -3002.904541015625], [-120.95419, 43.18912, -3285.469970703125], [-120.96101, 43.18637, -2534.776611328125]]], [[[-121.00412, 43.22691, -624.1978759765625], [-121.01257, 43.23341, -268.37274169921875], [-121.01186, 43.22493, 186.92422485351562], [-121.00412, 43.22691, -624.1978759765625]]], [[[-120.94761, 43.18203, -3768.17822265625], [-120.94677, 43.1731, -3391.355224609375], [-120.93969, 43.17526, -4155.94970703125], [-120.94761, 43.18203, -3768.17822265625]]], [[[-121.00412, 43.22691, -624.1978759765625], [-121.00536, 43.23562, -1049.68359375], [-121.01257, 43.23341, -268.37274169921875], [-121.00412, 43.22691, -624.1978759765625]]], [[[-120.96891, 43.18477, -1699.721435546875], [-120.97535, 43.17872, -912.3112182617188], [-120.96816, 43.17542, -1528.745849609375], [-120.96891, 43.18477, -1699.721435546875]]], [[[-120.93325, 43.21089, -5901.3837890625], [-120.92814, 43.21556, -6599.4638671875], [-120.93903, 43.21829, -5776.22119140625], [-120.93325, 43.21089, -5901.3837890625]]], [[[-120.91526, 43.19542, -7364.14306640625], [-120.91118, 43.18472, -7284.51513671875], [-120.90716, 43.19197, -8034.38134765625], [-120.91526, 43.19542, -7364.14306640625]]], [[[-120.97535, 43.17872, -912.3112182617188], [-120.98093, 43.17248, -190.64010620117188], [-120.97304, 43.1711, -866.9164428710938], [-120.97535, 43.17872, -912.3112182617188]]], [[[-121.00412, 43.22691, -624.1978759765625], [-120.99684, 43.22906, -1405.9334716796875], [-121.00536, 43.23562, -1049.68359375], [-121.00412, 43.22691, -624.1978759765625]]], [[[-120.99652, 43.21008, -185.80296325683594], [-120.99996, 43.20312, 578.808349609375], [-120.99015, 43.20139, -169.47450256347656], [-120.99652, 43.21008, -185.80296325683594]]], [[[-120.9956, 43.21988, -909.9756469726562], [-120.99684, 43.22906, -1405.9334716796875], [-121.00412, 43.22691, -624.1978759765625], [-120.9956, 43.21988, -909.9756469726562]]], [[[-121.00593, 43.21119, 570.3230590820312], [-121.01529, 43.21272, 1293.0792236328125], [-121.00924, 43.20465, 1293.49560546875], [-121.00593, 43.21119, 570.3230590820312]]], [[[-120.9956, 43.21988, -909.9756469726562], [-120.98808, 43.22199, -1709.962158203125], [-120.99684, 43.22906, -1405.9334716796875], [-120.9956, 43.21988, -909.9756469726562]]], [[[-120.97298, 43.19413, -1402.912353515625], [-120.98095, 43.19603, -730.2200317382812], [-120.97744, 43.18689, -852.934326171875], [-120.97298, 43.19413, -1402.912353515625]]], [[[-120.98923, 43.17517, 571.3148193359375], [-120.99519, 43.16984, 1294.18212890625], [-120.98614, 43.16713, 550.00830078125], [-120.98923, 43.17517, 571.3148193359375]]], [[[-120.99996, 43.20312, 578.808349609375], [-121.00924, 43.20465, 1293.49560546875], [-121.00318, 43.19658, 1293.5416259765625], [-120.99996, 43.20312, 578.808349609375]]], [[[-120.98866, 43.21203, -1006.718994140625], [-120.98808, 43.22199, -1709.962158203125], [-120.9956, 43.21988, -909.9756469726562], [-120.98866, 43.21203, -1006.718994140625]]], [[[-120.99405, 43.19431, 580.1143798828125], [-120.99015, 43.20139, -169.47450256347656], [-120.99996, 43.20312, 578.808349609375], [-120.99405, 43.19431, 580.1143798828125]]], [[[-120.97957, 43.21578, -2055.695556640625], [-120.98808, 43.22199, -1709.962158203125], [-120.98866, 43.21203, -1006.718994140625], [-120.97957, 43.21578, -2055.695556640625]]], [[[-120.97957, 43.21578, -2055.695556640625], [-120.9806, 43.22477, -2551.00244140625], [-120.98808, 43.22199, -1709.962158203125], [-120.97957, 43.21578, -2055.695556640625]]], [[[-120.96178, 43.17772, -2235.3447265625], [-120.96816, 43.17542, -1528.745849609375], [-120.96092, 43.16877, -1862.1668701171875], [-120.96178, 43.17772, -2235.3447265625]]], [[[-120.97957, 43.21578, -2055.695556640625], [-120.97201, 43.21816, -2878.282958984375], [-120.9806, 43.22477, -2551.00244140625], [-120.97957, 43.21578, -2055.695556640625]]], [[[-120.97017, 43.20933, -2449.5078125], [-120.97201, 43.21816, -2878.282958984375], [-120.97957, 43.21578, -2055.695556640625], [-120.97017, 43.20933, -2449.5078125]]], [[[-120.98923, 43.17517, 571.3148193359375], [-120.9971, 43.17893, 1293.9808349609375], [-120.99519, 43.16984, 1294.18212890625], [-120.98923, 43.17517, 571.3148193359375]]], [[[-120.97017, 43.20933, -2449.5078125], [-120.96342, 43.21137, -3176.64404296875], [-120.97201, 43.21816, -2878.282958984375], [-120.97017, 43.20933, -2449.5078125]]], [[[-120.91081, 43.21001, -8079.02978515625], [-120.90348, 43.20598, -8791.5634765625], [-120.90424, 43.21505, -8823.9755859375], [-120.91081, 43.21001, -8079.02978515625]]], [[[-121.00593, 43.21119, 570.3230590820312], [-121.01202, 43.21857, 619.8048706054688], [-121.01529, 43.21272, 1293.0792236328125], [-121.00593, 43.21119, 570.3230590820312]]], [[[-120.96178, 43.17772, -2235.3447265625], [-120.96092, 43.16877, -1862.1668701171875], [-120.95384, 43.17093, -2626.760986328125], [-120.96178, 43.17772, -2235.3447265625]]], [[[-120.97017, 43.20933, -2449.5078125], [-120.96239, 43.2032, -2806.91796875], [-120.96342, 43.21137, -3176.64404296875], [-120.97017, 43.20933, -2449.5078125]]], [[[-120.94524, 43.16442, -2963.760986328125], [-120.95384, 43.17093, -2626.760986328125], [-120.9523, 43.16227, -2198.55908203125], [-120.94524, 43.16442, -2963.760986328125]]], [[[-120.93903, 43.21829, -5776.22119140625], [-120.94278, 43.22685, -6027.24169921875], [-120.94995, 43.22447, -5238.30126953125], [-120.93903, 43.21829, -5776.22119140625]]], [[[-120.97037, 43.20094, -1952.19091796875], [-120.98233, 43.20329, -981.8564453125], [-120.97298, 43.19413, -1402.912353515625], [-120.97037, 43.20094, -1952.19091796875]]], [[[-120.99652, 43.21008, -185.80296325683594], [-120.99015, 43.20139, -169.47450256347656], [-120.98866, 43.21203, -1006.718994140625], [-120.99652, 43.21008, -185.80296325683594]]], [[[-120.96891, 43.18477, -1699.721435546875], [-120.96816, 43.17542, -1528.745849609375], [-120.96178, 43.17772, -2235.3447265625], [-120.96891, 43.18477, -1699.721435546875]]], [[[-120.96239, 43.2032, -2806.91796875], [-120.97017, 43.20933, -2449.5078125], [-120.97037, 43.20094, -1952.19091796875], [-120.96239, 43.2032, -2806.91796875]]], [[[-120.97575, 43.16415, -254.02281188964844], [-120.98614, 43.16713, 550.00830078125], [-120.98189, 43.15963, 583.2075805664062], [-120.97575, 43.16415, -254.02281188964844]]], [[[-120.97037, 43.20094, -1952.19091796875], [-120.96024, 43.19621, -2757.455078125], [-120.96239, 43.2032, -2806.91796875], [-120.97037, 43.20094, -1952.19091796875]]], [[[-120.96024, 43.19621, -2757.455078125], [-120.97037, 43.20094, -1952.19091796875], [-120.96548, 43.19276, -2170.5888671875], [-120.96024, 43.19621, -2757.455078125]]], [[[-120.95384, 43.17093, -2626.760986328125], [-120.94524, 43.16442, -2963.760986328125], [-120.94677, 43.1731, -3391.355224609375], [-120.95384, 43.17093, -2626.760986328125]]], [[[-121.01186, 43.22493, 186.92422485351562], [-121.02068, 43.22596, 894.7373046875], [-121.02135, 43.22079, 1293.2236328125], [-121.01186, 43.22493, 186.92422485351562]]], [[[-120.94524, 43.16442, -2963.760986328125], [-120.94367, 43.1558, -2532.13916015625], [-120.9366, 43.15796, -3297.307373046875], [-120.94524, 43.16442, -2963.760986328125]]], [[[-120.96024, 43.19621, -2757.455078125], [-120.96548, 43.19276, -2170.5888671875], [-120.96101, 43.18637, -2534.776611328125], [-120.96024, 43.19621, -2757.455078125]]], [[[-120.97829, 43.20788, -1639.853515625], [-120.98866, 43.21203, -1006.718994140625], [-120.98233, 43.20329, -981.8564453125], [-120.97829, 43.20788, -1639.853515625]]], [[[-121.00258, 43.21806, -176.9560089111328], [-121.00593, 43.21119, 570.3230590820312], [-120.99652, 43.21008, -185.80296325683594], [-121.00258, 43.21806, -176.9560089111328]]], [[[-120.96891, 43.18477, -1699.721435546875], [-120.96178, 43.17772, -2235.3447265625], [-120.96101, 43.18637, -2534.776611328125], [-120.96891, 43.18477, -1699.721435546875]]], [[[-120.96024, 43.19621, -2757.455078125], [-120.96101, 43.18637, -2534.776611328125], [-120.95419, 43.18912, -3285.469970703125], [-120.96024, 43.19621, -2757.455078125]]], [[[-120.98093, 43.17248, -190.64010620117188], [-120.97535, 43.17872, -912.3112182617188], [-120.98322, 43.18082, -163.60125732421875], [-120.98093, 43.17248, -190.64010620117188]]], [[[-120.89347, 43.17603, -8289.8115234375], [-120.88711, 43.17306, -8653.486328125], [-120.89276, 43.18116, -8690.8984375], [-120.89347, 43.17603, -8289.8115234375]]], [[[-120.95728, 43.22256, -4466.99951171875], [-120.96626, 43.22895, -4086.330322265625], [-120.96518, 43.22016, -3612.32421875], [-120.95728, 43.22256, -4466.99951171875]]], [[[-120.95327, 43.19795, -3506.1923828125], [-120.96024, 43.19621, -2757.455078125], [-120.95419, 43.18912, -3285.469970703125], [-120.95327, 43.19795, -3506.1923828125]]], [[[-120.93325, 43.21089, -5901.3837890625], [-120.92482, 43.2079, -6592.0849609375], [-120.92814, 43.21556, -6599.4638671875], [-120.93325, 43.21089, -5901.3837890625]]], [[[-120.95327, 43.19795, -3506.1923828125], [-120.96239, 43.2032, -2806.91796875], [-120.96024, 43.19621, -2757.455078125], [-120.95327, 43.19795, -3506.1923828125]]], [[[-120.95327, 43.19795, -3506.1923828125], [-120.95504, 43.20545, -3602.0380859375], [-120.96239, 43.2032, -2806.91796875], [-120.95327, 43.19795, -3506.1923828125]]], [[[-120.98093, 43.17248, -190.64010620117188], [-120.98614, 43.16713, 550.00830078125], [-120.97575, 43.16415, -254.02281188964844], [-120.98093, 43.17248, -190.64010620117188]]], [[[-120.94614, 43.20009, -4275.21875], [-120.95504, 43.20545, -3602.0380859375], [-120.95327, 43.19795, -3506.1923828125], [-120.94614, 43.20009, -4275.21875]]], [[[-120.94614, 43.20009, -4275.21875], [-120.9475, 43.20779, -4419.82080078125], [-120.95504, 43.20545, -3602.0380859375], [-120.94614, 43.20009, -4275.21875]]], [[[-120.90203, 43.17729, -7619.271484375], [-120.90984, 43.17534, -6802.302734375], [-120.90125, 43.16875, -7123.1494140625], [-120.90203, 43.17729, -7619.271484375]]], [[[-120.93887, 43.20227, -5059.82275390625], [-120.9475, 43.20779, -4419.82080078125], [-120.94614, 43.20009, -4275.21875], [-120.93887, 43.20227, -5059.82275390625]]], [[[-120.93887, 43.20227, -5059.82275390625], [-120.94004, 43.20995, -5219.98583984375], [-120.9475, 43.20779, -4419.82080078125], [-120.93887, 43.20227, -5059.82275390625]]], [[[-120.94004, 43.20995, -5219.98583984375], [-120.93887, 43.20227, -5059.82275390625], [-120.93138, 43.20345, -5856.10400390625], [-120.94004, 43.20995, -5219.98583984375]]], [[[-120.99652, 43.21008, -185.80296325683594], [-121.00593, 43.21119, 570.3230590820312], [-120.99996, 43.20312, 578.808349609375], [-120.99652, 43.21008, -185.80296325683594]]], [[[-120.96092, 43.16877, -1862.1668701171875], [-120.95937, 43.16011, -1433.357177734375], [-120.9523, 43.16227, -2198.55908203125], [-120.96092, 43.16877, -1862.1668701171875]]], [[[-120.94004, 43.20995, -5219.98583984375], [-120.93138, 43.20345, -5856.10400390625], [-120.93325, 43.21089, -5901.3837890625], [-120.94004, 43.20995, -5219.98583984375]]], [[[-120.94004, 43.20995, -5219.98583984375], [-120.93325, 43.21089, -5901.3837890625], [-120.93903, 43.21829, -5776.22119140625], [-120.94004, 43.20995, -5219.98583984375]]], [[[-120.94278, 43.22685, -6027.24169921875], [-120.95216, 43.23343, -5621.1015625], [-120.94995, 43.22447, -5238.30126953125], [-120.94278, 43.22685, -6027.24169921875]]], [[[-120.94004, 43.20995, -5219.98583984375], [-120.93903, 43.21829, -5776.22119140625], [-120.94803, 43.21611, -4842.203125], [-120.94004, 43.20995, -5219.98583984375]]], [[[-120.9674, 43.16596, -1107.55029296875], [-120.96816, 43.17542, -1528.745849609375], [-120.97304, 43.1711, -866.9164428710938], [-120.9674, 43.16596, -1107.55029296875]]], [[[-120.94004, 43.20995, -5219.98583984375], [-120.94803, 43.21611, -4842.203125], [-120.9475, 43.20779, -4419.82080078125], [-120.94004, 43.20995, -5219.98583984375]]], [[[-120.94995, 43.22447, -5238.30126953125], [-120.95909, 43.23144, -4881.47021484375], [-120.95728, 43.22256, -4466.99951171875], [-120.94995, 43.22447, -5238.30126953125]]], [[[-120.98189, 43.15963, 583.2075805664062], [-120.97423, 43.15529, 194.1067657470703], [-120.97575, 43.16415, -254.02281188964844], [-120.98189, 43.15963, 583.2075805664062]]], [[[-120.9475, 43.20779, -4419.82080078125], [-120.94803, 43.21611, -4842.203125], [-120.95601, 43.21382, -3989.2802734375], [-120.9475, 43.20779, -4419.82080078125]]], [[[-120.9475, 43.20779, -4419.82080078125], [-120.95601, 43.21382, -3989.2802734375], [-120.95504, 43.20545, -3602.0380859375], [-120.9475, 43.20779, -4419.82080078125]]], [[[-120.98923, 43.17517, 571.3148193359375], [-120.99081, 43.18436, 573.29638671875], [-120.9971, 43.17893, 1293.9808349609375], [-120.98923, 43.17517, 571.3148193359375]]], [[[-120.95601, 43.21382, -3989.2802734375], [-120.94803, 43.21611, -4842.203125], [-120.95728, 43.22256, -4466.99951171875], [-120.95601, 43.21382, -3989.2802734375]]], [[[-120.95504, 43.20545, -3602.0380859375], [-120.95601, 43.21382, -3989.2802734375], [-120.96342, 43.21137, -3176.64404296875], [-120.95504, 43.20545, -3602.0380859375]]], [[[-120.97423, 43.15529, 194.1067657470703], [-120.97193, 43.14716, 528.5346069335938], [-120.96487, 43.14932, -236.63381958007812], [-120.97423, 43.15529, 194.1067657470703]]], [[[-120.97744, 43.18689, -852.934326171875], [-120.98095, 43.19603, -730.2200317382812], [-120.98524, 43.1907, -82.09613037109375], [-120.97744, 43.18689, -852.934326171875]]], [[[-120.95504, 43.20545, -3602.0380859375], [-120.96342, 43.21137, -3176.64404296875], [-120.96239, 43.2032, -2806.91796875], [-120.95504, 43.20545, -3602.0380859375]]], [[[-120.96342, 43.21137, -3176.64404296875], [-120.95601, 43.21382, -3989.2802734375], [-120.96518, 43.22016, -3612.32421875], [-120.96342, 43.21137, -3176.64404296875]]], [[[-120.93903, 43.21829, -5776.22119140625], [-120.93224, 43.22264, -6660.23388671875], [-120.94278, 43.22685, -6027.24169921875], [-120.93903, 43.21829, -5776.22119140625]]], [[[-120.96342, 43.21137, -3176.64404296875], [-120.96518, 43.22016, -3612.32421875], [-120.97201, 43.21816, -2878.282958984375], [-120.96342, 43.21137, -3176.64404296875]]], [[[-120.98322, 43.18082, -163.60125732421875], [-120.99081, 43.18436, 573.29638671875], [-120.98923, 43.17517, 571.3148193359375], [-120.98322, 43.18082, -163.60125732421875]]], [[[-120.96518, 43.22016, -3612.32421875], [-120.97383, 43.2269, -3286.455078125], [-120.97201, 43.21816, -2878.282958984375], [-120.96518, 43.22016, -3612.32421875]]], [[[-120.97383, 43.2269, -3286.455078125], [-120.96518, 43.22016, -3612.32421875], [-120.96626, 43.22895, -4086.330322265625], [-120.97383, 43.2269, -3286.455078125]]], [[[-121.00258, 43.21806, -176.9560089111328], [-120.9956, 43.21988, -909.9756469726562], [-121.00412, 43.22691, -624.1978759765625], [-121.00258, 43.21806, -176.9560089111328]]], [[[-120.97423, 43.15529, 194.1067657470703], [-120.98505, 43.15307, 1293.520751953125], [-120.97849, 43.15012, 911.0092163085938], [-120.97423, 43.15529, 194.1067657470703]]], [[[-120.97383, 43.2269, -3286.455078125], [-120.96626, 43.22895, -4086.330322265625], [-120.97516, 43.23565, -3745.1767578125], [-120.97383, 43.2269, -3286.455078125]]], [[[-120.97037, 43.20094, -1952.19091796875], [-120.97298, 43.19413, -1402.912353515625], [-120.96548, 43.19276, -2170.5888671875], [-120.97037, 43.20094, -1952.19091796875]]], [[[-120.97383, 43.2269, -3286.455078125], [-120.97516, 43.23565, -3745.1767578125], [-120.98248, 43.23357, -2965.563720703125], [-120.97383, 43.2269, -3286.455078125]]], [[[-120.9806, 43.22477, -2551.00244140625], [-120.97383, 43.2269, -3286.455078125], [-120.98248, 43.23357, -2965.563720703125], [-120.9806, 43.22477, -2551.00244140625]]], [[[-120.97201, 43.21816, -2878.282958984375], [-120.97383, 43.2269, -3286.455078125], [-120.9806, 43.22477, -2551.00244140625], [-120.97201, 43.21816, -2878.282958984375]]], [[[-120.98524, 43.1907, -82.09613037109375], [-120.99405, 43.19431, 580.1143798828125], [-120.99081, 43.18436, 573.29638671875], [-120.98524, 43.1907, -82.09613037109375]]], [[[-120.9806, 43.22477, -2551.00244140625], [-120.98248, 43.23357, -2965.563720703125], [-120.98958, 43.2312, -2185.465576171875], [-120.9806, 43.22477, -2551.00244140625]]], [[[-120.9806, 43.22477, -2551.00244140625], [-120.98958, 43.2312, -2185.465576171875], [-120.98808, 43.22199, -1709.962158203125], [-120.9806, 43.22477, -2551.00244140625]]], [[[-120.98808, 43.22199, -1709.962158203125], [-120.98958, 43.2312, -2185.465576171875], [-120.99684, 43.22906, -1405.9334716796875], [-120.98808, 43.22199, -1709.962158203125]]], [[[-120.97575, 43.16415, -254.02281188964844], [-120.96644, 43.15795, -668.1552124023438], [-120.9674, 43.16596, -1107.55029296875], [-120.97575, 43.16415, -254.02281188964844]]], [[[-120.98958, 43.2312, -2185.465576171875], [-120.99814, 43.23782, -1830.9945068359375], [-120.99684, 43.22906, -1405.9334716796875], [-120.98958, 43.2312, -2185.465576171875]]], [[[-120.98958, 43.2312, -2185.465576171875], [-120.99092, 43.24003, -2612.305419921875], [-120.99814, 43.23782, -1830.9945068359375], [-120.98958, 43.2312, -2185.465576171875]]], [[[-120.98095, 43.19603, -730.2200317382812], [-120.99015, 43.20139, -169.47450256347656], [-120.98524, 43.1907, -82.09613037109375], [-120.98095, 43.19603, -730.2200317382812]]], [[[-120.98233, 43.20329, -981.8564453125], [-120.99015, 43.20139, -169.47450256347656], [-120.98095, 43.19603, -730.2200317382812], [-120.98233, 43.20329, -981.8564453125]]], [[[-120.98248, 43.23357, -2965.563720703125], [-120.99092, 43.24003, -2612.305419921875], [-120.98958, 43.2312, -2185.465576171875], [-120.98248, 43.23357, -2965.563720703125]]], [[[-120.98248, 43.23357, -2965.563720703125], [-120.98371, 43.24223, -3393.6162109375], [-120.99092, 43.24003, -2612.305419921875], [-120.98248, 43.23357, -2965.563720703125]]], [[[-120.98248, 43.23357, -2965.563720703125], [-120.97516, 43.23565, -3745.1767578125], [-120.98371, 43.24223, -3393.6162109375], [-120.98248, 43.23357, -2965.563720703125]]], [[[-120.97516, 43.23565, -3745.1767578125], [-120.97649, 43.24444, -4174.92724609375], [-120.98371, 43.24223, -3393.6162109375], [-120.97516, 43.23565, -3745.1767578125]]], [[[-120.96795, 43.23786, -4525.18701171875], [-120.97649, 43.24444, -4174.92724609375], [-120.97516, 43.23565, -3745.1767578125], [-120.96795, 43.23786, -4525.18701171875]]], [[[-120.96795, 43.23786, -4525.18701171875], [-120.96927, 43.24664, -4956.23828125], [-120.97649, 43.24444, -4174.92724609375], [-120.96795, 43.23786, -4525.18701171875]]], [[[-120.97535, 43.17872, -912.3112182617188], [-120.97744, 43.18689, -852.934326171875], [-120.98322, 43.18082, -163.60125732421875], [-120.97535, 43.17872, -912.3112182617188]]], [[[-120.91696, 43.17306, -6024.568359375], [-120.90832, 43.16659, -6357.98095703125], [-120.90984, 43.17534, -6802.302734375], [-120.91696, 43.17306, -6024.568359375]]], [[[-120.9608, 43.24018, -5306.8330078125], [-120.96927, 43.24664, -4956.23828125], [-120.96795, 43.23786, -4525.18701171875], [-120.9608, 43.24018, -5306.8330078125]]], [[[-120.9608, 43.24018, -5306.8330078125], [-120.96205, 43.24885, -5737.548828125], [-120.96927, 43.24664, -4956.23828125], [-120.9608, 43.24018, -5306.8330078125]]], [[[-120.99081, 43.18436, 573.29638671875], [-120.99852, 43.18805, 1293.5672607421875], [-120.9971, 43.17893, 1293.9808349609375], [-120.99081, 43.18436, 573.29638671875]]], [[[-120.97849, 43.15012, 911.0092163085938], [-120.98505, 43.15307, 1293.520751953125], [-120.979, 43.145, 1293.7030029296875], [-120.97849, 43.15012, 911.0092163085938]]], [[[-120.95348, 43.24222, -6084.66943359375], [-120.96205, 43.24885, -5737.548828125], [-120.9608, 43.24018, -5306.8330078125], [-120.95348, 43.24222, -6084.66943359375]]], [[[-120.95348, 43.24222, -6084.66943359375], [-120.95483, 43.25105, -6518.85986328125], [-120.96205, 43.24885, -5737.548828125], [-120.95348, 43.24222, -6084.66943359375]]], [[[-120.94573, 43.24434, -6906.05126953125], [-120.95483, 43.25105, -6518.85986328125], [-120.95348, 43.24222, -6084.66943359375], [-120.94573, 43.24434, -6906.05126953125]]], [[[-120.94573, 43.24434, -6906.05126953125], [-120.94762, 43.25325, -7299.68408203125], [-120.95483, 43.25105, -6518.85986328125], [-120.94573, 43.24434, -6906.05126953125]]], [[[-120.94573, 43.24434, -6906.05126953125], [-120.93876, 43.24709, -7699.3515625], [-120.94762, 43.25325, -7299.68408203125], [-120.94573, 43.24434, -6906.05126953125]]], [[[-120.93473, 43.23792, -7449.12109375], [-120.93876, 43.24709, -7699.3515625], [-120.94573, 43.24434, -6906.05126953125], [-120.93473, 43.23792, -7449.12109375]]], [[[-120.98233, 43.20329, -981.8564453125], [-120.98866, 43.21203, -1006.718994140625], [-120.99015, 43.20139, -169.47450256347656], [-120.98233, 43.20329, -981.8564453125]]], [[[-120.90716, 43.19197, -8034.38134765625], [-120.89821, 43.18932, -8727.91796875], [-120.90213, 43.19743, -8759.6748046875], [-120.90716, 43.19197, -8034.38134765625]]], [[[-120.93473, 43.23792, -7449.12109375], [-120.92854, 43.24232, -8282.66796875], [-120.93876, 43.24709, -7699.3515625], [-120.93473, 43.23792, -7449.12109375]]], [[[-120.93473, 43.23792, -7449.12109375], [-120.92351, 43.23394, -8192.3876953125], [-120.92854, 43.24232, -8282.66796875], [-120.93473, 43.23792, -7449.12109375]]], [[[-120.92722, 43.22836, -7484.98828125], [-120.92351, 43.23394, -8192.3876953125], [-120.93473, 43.23792, -7449.12109375], [-120.92722, 43.22836, -7484.98828125]]], [[[-120.92722, 43.22836, -7484.98828125], [-120.91743, 43.22568, -8161.716796875], [-120.92351, 43.23394, -8192.3876953125], [-120.92722, 43.22836, -7484.98828125]]], [[[-120.92722, 43.22836, -7484.98828125], [-120.92229, 43.22046, -7393.37060546875], [-120.91743, 43.22568, -8161.716796875], [-120.92722, 43.22836, -7484.98828125]]], [[[-120.97535, 43.17872, -912.3112182617188], [-120.97304, 43.1711, -866.9164428710938], [-120.96816, 43.17542, -1528.745849609375], [-120.97535, 43.17872, -912.3112182617188]]], [[[-120.93224, 43.22264, -6660.23388671875], [-120.92229, 43.22046, -7393.37060546875], [-120.92722, 43.22836, -7484.98828125], [-120.93224, 43.22264, -6660.23388671875]]], [[[-120.92814, 43.21556, -6599.4638671875], [-120.92229, 43.22046, -7393.37060546875], [-120.93224, 43.22264, -6660.23388671875], [-120.92814, 43.21556, -6599.4638671875]]], [[[-120.97744, 43.18689, -852.934326171875], [-120.98524, 43.1907, -82.09613037109375], [-120.98322, 43.18082, -163.60125732421875], [-120.97744, 43.18689, -852.934326171875]]], [[[-120.97829, 43.20788, -1639.853515625], [-120.97957, 43.21578, -2055.695556640625], [-120.98866, 43.21203, -1006.718994140625], [-120.97829, 43.20788, -1639.853515625]]], [[[-120.90955, 43.20087, -8063.5126953125], [-120.90348, 43.20598, -8791.5634765625], [-120.91081, 43.21001, -8079.02978515625], [-120.90955, 43.20087, -8063.5126953125]]], [[[-120.92229, 43.22046, -7393.37060546875], [-120.92814, 43.21556, -6599.4638671875], [-120.91909, 43.21319, -7337.95947265625], [-120.92229, 43.22046, -7393.37060546875]]], [[[-120.92229, 43.22046, -7393.37060546875], [-120.91909, 43.21319, -7337.95947265625], [-120.91313, 43.21798, -8121.271484375], [-120.92229, 43.22046, -7393.37060546875]]], [[[-120.92229, 43.22046, -7393.37060546875], [-120.91313, 43.21798, -8121.271484375], [-120.91743, 43.22568, -8161.716796875], [-120.92229, 43.22046, -7393.37060546875]]], [[[-120.91313, 43.21798, -8121.271484375], [-120.90805, 43.22368, -8864.2607421875], [-120.91743, 43.22568, -8161.716796875], [-120.91313, 43.21798, -8121.271484375]]], [[[-120.98233, 43.20329, -981.8564453125], [-120.98095, 43.19603, -730.2200317382812], [-120.97298, 43.19413, -1402.912353515625], [-120.98233, 43.20329, -981.8564453125]]], [[[-120.91313, 43.21798, -8121.271484375], [-120.90424, 43.21505, -8823.9755859375], [-120.90805, 43.22368, -8864.2607421875], [-120.91313, 43.21798, -8121.271484375]]], [[[-120.91313, 43.21798, -8121.271484375], [-120.91081, 43.21001, -8079.02978515625], [-120.90424, 43.21505, -8823.9755859375], [-120.91313, 43.21798, -8121.271484375]]], [[[-120.91313, 43.21798, -8121.271484375], [-120.91909, 43.21319, -7337.95947265625], [-120.91081, 43.21001, -8079.02978515625], [-120.91313, 43.21798, -8121.271484375]]], [[[-120.91723, 43.20479, -7348.666015625], [-120.91081, 43.21001, -8079.02978515625], [-120.91909, 43.21319, -7337.95947265625], [-120.91723, 43.20479, -7348.666015625]]], [[[-120.91723, 43.20479, -7348.666015625], [-120.90955, 43.20087, -8063.5126953125], [-120.91081, 43.21001, -8079.02978515625], [-120.91723, 43.20479, -7348.666015625]]], [[[-120.91526, 43.19542, -7364.14306640625], [-120.90955, 43.20087, -8063.5126953125], [-120.91723, 43.20479, -7348.666015625], [-120.91526, 43.19542, -7364.14306640625]]], [[[-120.91526, 43.19542, -7364.14306640625], [-120.90716, 43.19197, -8034.38134765625], [-120.90955, 43.20087, -8063.5126953125], [-120.91526, 43.19542, -7364.14306640625]]], [[[-120.91948, 43.19028, -6797.83837890625], [-120.91118, 43.18472, -7284.51513671875], [-120.91526, 43.19542, -7364.14306640625], [-120.91948, 43.19028, -6797.83837890625]]], [[[-120.91948, 43.19028, -6797.83837890625], [-120.91848, 43.18177, -6448.9169921875], [-120.91118, 43.18472, -7284.51513671875], [-120.91948, 43.19028, -6797.83837890625]]], [[[-120.92636, 43.18881, -6082.349609375], [-120.91848, 43.18177, -6448.9169921875], [-120.91948, 43.19028, -6797.83837890625], [-120.92636, 43.18881, -6082.349609375]]], [[[-120.92636, 43.18881, -6082.349609375], [-120.92553, 43.17958, -5685.1376953125], [-120.91848, 43.18177, -6448.9169921875], [-120.92636, 43.18881, -6082.349609375]]], [[[-120.96816, 43.17542, -1528.745849609375], [-120.9674, 43.16596, -1107.55029296875], [-120.96092, 43.16877, -1862.1668701171875], [-120.96816, 43.17542, -1528.745849609375]]], [[[-120.97829, 43.20788, -1639.853515625], [-120.97037, 43.20094, -1952.19091796875], [-120.97017, 43.20933, -2449.5078125], [-120.97829, 43.20788, -1639.853515625]]], [[[-120.92636, 43.18881, -6082.349609375], [-120.93345, 43.18651, -5308.3818359375], [-120.92553, 43.17958, -5685.1376953125], [-120.92636, 43.18881, -6082.349609375]]], [[[-120.97304, 43.1711, -866.9164428710938], [-120.97575, 43.16415, -254.02281188964844], [-120.9674, 43.16596, -1107.55029296875], [-120.97304, 43.1711, -866.9164428710938]]], [[[-120.96891, 43.18477, -1699.721435546875], [-120.96548, 43.19276, -2170.5888671875], [-120.97298, 43.19413, -1402.912353515625], [-120.96891, 43.18477, -1699.721435546875]]], [[[-120.92636, 43.18881, -6082.349609375], [-120.93191, 43.19594, -5692.58837890625], [-120.93345, 43.18651, -5308.3818359375], [-120.92636, 43.18881, -6082.349609375]]], [[[-120.93191, 43.19594, -5692.58837890625], [-120.92636, 43.18881, -6082.349609375], [-120.9237, 43.19888, -6587.7421875], [-120.93191, 43.19594, -5692.58837890625]]], [[[-120.93138, 43.20345, -5856.10400390625], [-120.93191, 43.19594, -5692.58837890625], [-120.9237, 43.19888, -6587.7421875], [-120.93138, 43.20345, -5856.10400390625]]], [[[-120.96644, 43.15795, -668.1552124023438], [-120.96487, 43.14932, -236.63381958007812], [-120.9578, 43.15148, -1001.80224609375], [-120.96644, 43.15795, -668.1552124023438]]], [[[-120.93887, 43.20227, -5059.82275390625], [-120.93191, 43.19594, -5692.58837890625], [-120.93138, 43.20345, -5856.10400390625], [-120.93887, 43.20227, -5059.82275390625]]], [[[-120.94995, 43.22447, -5238.30126953125], [-120.95216, 43.23343, -5621.1015625], [-120.95909, 43.23144, -4881.47021484375], [-120.94995, 43.22447, -5238.30126953125]]], [[[-120.98093, 43.17248, -190.64010620117188], [-120.98923, 43.17517, 571.3148193359375], [-120.98614, 43.16713, 550.00830078125], [-120.98093, 43.17248, -190.64010620117188]]], [[[-120.93887, 43.20227, -5059.82275390625], [-120.93992, 43.1935, -4826.86083984375], [-120.93191, 43.19594, -5692.58837890625], [-120.93887, 43.20227, -5059.82275390625]]], [[[-120.93887, 43.20227, -5059.82275390625], [-120.94614, 43.20009, -4275.21875], [-120.93992, 43.1935, -4826.86083984375], [-120.93887, 43.20227, -5059.82275390625]]], [[[-120.98524, 43.1907, -82.09613037109375], [-120.99081, 43.18436, 573.29638671875], [-120.98322, 43.18082, -163.60125732421875], [-120.98524, 43.1907, -82.09613037109375]]], [[[-120.99015, 43.20139, -169.47450256347656], [-120.99405, 43.19431, 580.1143798828125], [-120.98524, 43.1907, -82.09613037109375], [-120.99015, 43.20139, -169.47450256347656]]], [[[-120.94614, 43.20009, -4275.21875], [-120.94711, 43.19128, -4050.76123046875], [-120.93992, 43.1935, -4826.86083984375], [-120.94614, 43.20009, -4275.21875]]], [[[-120.94614, 43.20009, -4275.21875], [-120.95327, 43.19795, -3506.1923828125], [-120.94711, 43.19128, -4050.76123046875], [-120.94614, 43.20009, -4275.21875]]], [[[-120.95327, 43.19795, -3506.1923828125], [-120.95419, 43.18912, -3285.469970703125], [-120.94711, 43.19128, -4050.76123046875], [-120.95327, 43.19795, -3506.1923828125]]], [[[-120.95419, 43.18912, -3285.469970703125], [-120.94761, 43.18203, -3768.17822265625], [-120.94711, 43.19128, -4050.76123046875], [-120.95419, 43.18912, -3285.469970703125]]], [[[-120.9523, 43.16227, -2198.55908203125], [-120.95937, 43.16011, -1433.357177734375], [-120.95073, 43.15364, -1766.9705810546875], [-120.9523, 43.16227, -2198.55908203125]]], [[[-120.94761, 43.18203, -3768.17822265625], [-120.95419, 43.18912, -3285.469970703125], [-120.95468, 43.17987, -3002.904541015625], [-120.94761, 43.18203, -3768.17822265625]]], [[[-120.94761, 43.18203, -3768.17822265625], [-120.95468, 43.17987, -3002.904541015625], [-120.94677, 43.1731, -3391.355224609375], [-120.94761, 43.18203, -3768.17822265625]]], [[[-120.95937, 43.16011, -1433.357177734375], [-120.9674, 43.16596, -1107.55029296875], [-120.96644, 43.15795, -668.1552124023438], [-120.95937, 43.16011, -1433.357177734375]]], [[[-120.94055, 43.18419, -4533.4521484375], [-120.94761, 43.18203, -3768.17822265625], [-120.93969, 43.17526, -4155.94970703125], [-120.94055, 43.18419, -4533.4521484375]]], [[[-120.94711, 43.19128, -4050.76123046875], [-120.94761, 43.18203, -3768.17822265625], [-120.94055, 43.18419, -4533.4521484375], [-120.94711, 43.19128, -4050.76123046875]]], [[[-120.94711, 43.19128, -4050.76123046875], [-120.94055, 43.18419, -4533.4521484375], [-120.93992, 43.1935, -4826.86083984375], [-120.94711, 43.19128, -4050.76123046875]]], [[[-120.93992, 43.1935, -4826.86083984375], [-120.94055, 43.18419, -4533.4521484375], [-120.93345, 43.18651, -5308.3818359375], [-120.93992, 43.1935, -4826.86083984375]]], [[[-120.98233, 43.20329, -981.8564453125], [-120.97037, 43.20094, -1952.19091796875], [-120.97829, 43.20788, -1639.853515625], [-120.98233, 43.20329, -981.8564453125]]], [[[-120.93992, 43.1935, -4826.86083984375], [-120.93345, 43.18651, -5308.3818359375], [-120.93191, 43.19594, -5692.58837890625], [-120.93992, 43.1935, -4826.86083984375]]], [[[-120.96548, 43.19276, -2170.5888671875], [-120.96891, 43.18477, -1699.721435546875], [-120.96101, 43.18637, -2534.776611328125], [-120.96548, 43.19276, -2170.5888671875]]], [[[-120.93345, 43.18651, -5308.3818359375], [-120.94055, 43.18419, -4533.4521484375], [-120.93261, 43.17742, -4920.54345703125], [-120.93345, 43.18651, -5308.3818359375]]], [[[-120.93345, 43.18651, -5308.3818359375], [-120.93261, 43.17742, -4920.54345703125], [-120.92553, 43.17958, -5685.1376953125], [-120.93345, 43.18651, -5308.3818359375]]], [[[-120.93261, 43.17742, -4920.54345703125], [-120.92403, 43.1709, -5259.36669921875], [-120.92553, 43.17958, -5685.1376953125], [-120.93261, 43.17742, -4920.54345703125]]], [[[-120.93969, 43.17526, -4155.94970703125], [-120.9311, 43.16874, -4494.16455078125], [-120.93261, 43.17742, -4920.54345703125], [-120.93969, 43.17526, -4155.94970703125]]], [[[-120.93969, 43.17526, -4155.94970703125], [-120.93817, 43.16658, -3728.962890625], [-120.9311, 43.16874, -4494.16455078125], [-120.93969, 43.17526, -4155.94970703125]]], [[[-120.94677, 43.1731, -3391.355224609375], [-120.93817, 43.16658, -3728.962890625], [-120.93969, 43.17526, -4155.94970703125], [-120.94677, 43.1731, -3391.355224609375]]], [[[-120.93817, 43.16658, -3728.962890625], [-120.94677, 43.1731, -3391.355224609375], [-120.94524, 43.16442, -2963.760986328125], [-120.93817, 43.16658, -3728.962890625]]], [[[-120.93817, 43.16658, -3728.962890625], [-120.94524, 43.16442, -2963.760986328125], [-120.9366, 43.15796, -3297.307373046875], [-120.93817, 43.16658, -3728.962890625]]], [[[-120.93817, 43.16658, -3728.962890625], [-120.9366, 43.15796, -3297.307373046875], [-120.92953, 43.16012, -4062.475830078125], [-120.93817, 43.16658, -3728.962890625]]], [[[-120.96644, 43.15795, -668.1552124023438], [-120.97575, 43.16415, -254.02281188964844], [-120.97423, 43.15529, 194.1067657470703], [-120.96644, 43.15795, -668.1552124023438]]], [[[-120.99652, 43.21008, -185.80296325683594], [-120.9956, 43.21988, -909.9756469726562], [-121.00258, 43.21806, -176.9560089111328], [-120.99652, 43.21008, -185.80296325683594]]], [[[-120.9311, 43.16874, -4494.16455078125], [-120.93817, 43.16658, -3728.962890625], [-120.92953, 43.16012, -4062.475830078125], [-120.9311, 43.16874, -4494.16455078125]]], [[[-120.92403, 43.1709, -5259.36669921875], [-120.9311, 43.16874, -4494.16455078125], [-120.92246, 43.16228, -4827.64404296875], [-120.92403, 43.1709, -5259.36669921875]]], [[[-120.92403, 43.1709, -5259.36669921875], [-120.92246, 43.16228, -4827.64404296875], [-120.91539, 43.16444, -5592.8125], [-120.92403, 43.1709, -5259.36669921875]]], [[[-120.9523, 43.16227, -2198.55908203125], [-120.95073, 43.15364, -1766.9705810546875], [-120.94367, 43.1558, -2532.13916015625], [-120.9523, 43.16227, -2198.55908203125]]], [[[-120.90203, 43.17729, -7619.271484375], [-120.89418, 43.17091, -7888.31787109375], [-120.89347, 43.17603, -8289.8115234375], [-120.90203, 43.17729, -7619.271484375]]], [[[-120.91696, 43.17306, -6024.568359375], [-120.92403, 43.1709, -5259.36669921875], [-120.91539, 43.16444, -5592.8125], [-120.91696, 43.17306, -6024.568359375]]], [[[-120.92403, 43.1709, -5259.36669921875], [-120.91696, 43.17306, -6024.568359375], [-120.92553, 43.17958, -5685.1376953125], [-120.92403, 43.1709, -5259.36669921875]]], [[[-120.91848, 43.18177, -6448.9169921875], [-120.92553, 43.17958, -5685.1376953125], [-120.91696, 43.17306, -6024.568359375], [-120.91848, 43.18177, -6448.9169921875]]], [[[-120.91848, 43.18177, -6448.9169921875], [-120.91696, 43.17306, -6024.568359375], [-120.90984, 43.17534, -6802.302734375], [-120.91848, 43.18177, -6448.9169921875]]], [[[-120.9674, 43.16596, -1107.55029296875], [-120.95937, 43.16011, -1433.357177734375], [-120.96092, 43.16877, -1862.1668701171875], [-120.9674, 43.16596, -1107.55029296875]]], [[[-120.91848, 43.18177, -6448.9169921875], [-120.90984, 43.17534, -6802.302734375], [-120.91118, 43.18472, -7284.51513671875], [-120.91848, 43.18177, -6448.9169921875]]], [[[-120.93325, 43.21089, -5901.3837890625], [-120.93138, 43.20345, -5856.10400390625], [-120.92482, 43.2079, -6592.0849609375], [-120.93325, 43.21089, -5901.3837890625]]], [[[-120.94055, 43.18419, -4533.4521484375], [-120.93969, 43.17526, -4155.94970703125], [-120.93261, 43.17742, -4920.54345703125], [-120.94055, 43.18419, -4533.4521484375]]], [[[-120.91118, 43.18472, -7284.51513671875], [-120.90984, 43.17534, -6802.302734375], [-120.90203, 43.17729, -7619.271484375], [-120.91118, 43.18472, -7284.51513671875]]], [[[-120.91118, 43.18472, -7284.51513671875], [-120.90203, 43.17729, -7619.271484375], [-120.90208, 43.18394, -8034.1962890625], [-120.91118, 43.18472, -7284.51513671875]]], [[[-120.90208, 43.18394, -8034.1962890625], [-120.90716, 43.19197, -8034.38134765625], [-120.91118, 43.18472, -7284.51513671875], [-120.90208, 43.18394, -8034.1962890625]]], [[[-120.93903, 43.21829, -5776.22119140625], [-120.92814, 43.21556, -6599.4638671875], [-120.93224, 43.22264, -6660.23388671875], [-120.93903, 43.21829, -5776.22119140625]]], [[[-120.90208, 43.18394, -8034.1962890625], [-120.89821, 43.18932, -8727.91796875], [-120.90716, 43.19197, -8034.38134765625], [-120.90208, 43.18394, -8034.1962890625]]], [[[-120.90208, 43.18394, -8034.1962890625], [-120.89276, 43.18116, -8690.8984375], [-120.89821, 43.18932, -8727.91796875], [-120.90208, 43.18394, -8034.1962890625]]], [[[-120.95937, 43.16011, -1433.357177734375], [-120.96644, 43.15795, -668.1552124023438], [-120.9578, 43.15148, -1001.80224609375], [-120.95937, 43.16011, -1433.357177734375]]], [[[-120.93138, 43.20345, -5856.10400390625], [-120.9237, 43.19888, -6587.7421875], [-120.92482, 43.2079, -6592.0849609375], [-120.93138, 43.20345, -5856.10400390625]]], [[[-120.90203, 43.17729, -7619.271484375], [-120.89276, 43.18116, -8690.8984375], [-120.90208, 43.18394, -8034.1962890625], [-120.90203, 43.17729, -7619.271484375]]], [[[-120.90203, 43.17729, -7619.271484375], [-120.89347, 43.17603, -8289.8115234375], [-120.89276, 43.18116, -8690.8984375], [-120.90203, 43.17729, -7619.271484375]]], [[[-120.90203, 43.17729, -7619.271484375], [-120.90125, 43.16875, -7123.1494140625], [-120.89418, 43.17091, -7888.31787109375], [-120.90203, 43.17729, -7619.271484375]]], [[[-120.99081, 43.18436, 573.29638671875], [-120.99405, 43.19431, 580.1143798828125], [-120.99852, 43.18805, 1293.5672607421875], [-120.99081, 43.18436, 573.29638671875]]], [[[-120.97017, 43.20933, -2449.5078125], [-120.97957, 43.21578, -2055.695556640625], [-120.97829, 43.20788, -1639.853515625], [-120.97017, 43.20933, -2449.5078125]]], [[[-120.91696, 43.17306, -6024.568359375], [-120.91539, 43.16444, -5592.8125], [-120.90832, 43.16659, -6357.98095703125], [-120.91696, 43.17306, -6024.568359375]]], [[[-120.89418, 43.17091, -7888.31787109375], [-120.88711, 43.17306, -8653.486328125], [-120.89347, 43.17603, -8289.8115234375], [-120.89418, 43.17091, -7888.31787109375]]], [[[-120.90955, 43.20087, -8063.5126953125], [-120.90716, 43.19197, -8034.38134765625], [-120.90213, 43.19743, -8759.6748046875], [-120.90955, 43.20087, -8063.5126953125]]], [[[-120.90955, 43.20087, -8063.5126953125], [-120.90213, 43.19743, -8759.6748046875], [-120.90348, 43.20598, -8791.5634765625], [-120.90955, 43.20087, -8063.5126953125]]], [[[-120.99405, 43.19431, 580.1143798828125], [-121.00318, 43.19658, 1293.5416259765625], [-120.99852, 43.18805, 1293.5672607421875], [-120.99405, 43.19431, 580.1143798828125]]], [[[-120.98866, 43.21203, -1006.718994140625], [-120.9956, 43.21988, -909.9756469726562], [-120.99652, 43.21008, -185.80296325683594], [-120.98866, 43.21203, -1006.718994140625]]], [[[-120.94524, 43.16442, -2963.760986328125], [-120.9523, 43.16227, -2198.55908203125], [-120.94367, 43.1558, -2532.13916015625], [-120.94524, 43.16442, -2963.760986328125]]], [[[-120.95468, 43.17987, -3002.904541015625], [-120.95384, 43.17093, -2626.760986328125], [-120.94677, 43.1731, -3391.355224609375], [-120.95468, 43.17987, -3002.904541015625]]], [[[-120.95601, 43.21382, -3989.2802734375], [-120.95728, 43.22256, -4466.99951171875], [-120.96518, 43.22016, -3612.32421875], [-120.95601, 43.21382, -3989.2802734375]]], [[[-120.95468, 43.17987, -3002.904541015625], [-120.96101, 43.18637, -2534.776611328125], [-120.96178, 43.17772, -2235.3447265625], [-120.95468, 43.17987, -3002.904541015625]]], [[[-120.98189, 43.15963, 583.2075805664062], [-120.98505, 43.15307, 1293.520751953125], [-120.97423, 43.15529, 194.1067657470703], [-120.98189, 43.15963, 583.2075805664062]]], [[[-120.96891, 43.18477, -1699.721435546875], [-120.97744, 43.18689, -852.934326171875], [-120.97535, 43.17872, -912.3112182617188], [-120.96891, 43.18477, -1699.721435546875]]], [[[-120.97298, 43.19413, -1402.912353515625], [-120.97744, 43.18689, -852.934326171875], [-120.96891, 43.18477, -1699.721435546875], [-120.97298, 43.19413, -1402.912353515625]]], [[[-121.00258, 43.21806, -176.9560089111328], [-121.01202, 43.21857, 619.8048706054688], [-121.00593, 43.21119, 570.3230590820312], [-121.00258, 43.21806, -176.9560089111328]]], [[[-121.01202, 43.21857, 619.8048706054688], [-121.02135, 43.22079, 1293.2236328125], [-121.01529, 43.21272, 1293.0792236328125], [-121.01202, 43.21857, 619.8048706054688]]], [[[-121.00258, 43.21806, -176.9560089111328], [-121.01186, 43.22493, 186.92422485351562], [-121.01202, 43.21857, 619.8048706054688], [-121.00258, 43.21806, -176.9560089111328]]], [[[-121.00258, 43.21806, -176.9560089111328], [-121.00412, 43.22691, -624.1978759765625], [-121.01186, 43.22493, 186.92422485351562], [-121.00258, 43.21806, -176.9560089111328]]], [[[-121.01202, 43.21857, 619.8048706054688], [-121.01186, 43.22493, 186.92422485351562], [-121.02135, 43.22079, 1293.2236328125], [-121.01202, 43.21857, 619.8048706054688]]], [[[-120.99996, 43.20312, 578.808349609375], [-121.00593, 43.21119, 570.3230590820312], [-121.00924, 43.20465, 1293.49560546875], [-120.99996, 43.20312, 578.808349609375]]], [[[-120.97193, 43.14716, 528.5346069335938], [-120.97849, 43.15012, 911.0092163085938], [-120.979, 43.145, 1293.7030029296875], [-120.97193, 43.14716, 528.5346069335938]]], [[[-120.96092, 43.16877, -1862.1668701171875], [-120.9523, 43.16227, -2198.55908203125], [-120.95384, 43.17093, -2626.760986328125], [-120.96092, 43.16877, -1862.1668701171875]]], [[[-120.95937, 43.16011, -1433.357177734375], [-120.9578, 43.15148, -1001.80224609375], [-120.95073, 43.15364, -1766.9705810546875], [-120.95937, 43.16011, -1433.357177734375]]], [[[-120.95728, 43.22256, -4466.99951171875], [-120.95909, 43.23144, -4881.47021484375], [-120.96626, 43.22895, -4086.330322265625], [-120.95728, 43.22256, -4466.99951171875]]], [[[-120.98093, 43.17248, -190.64010620117188], [-120.98322, 43.18082, -163.60125732421875], [-120.98923, 43.17517, 571.3148193359375], [-120.98093, 43.17248, -190.64010620117188]]], [[[-120.98614, 43.16713, 550.00830078125], [-120.99519, 43.16984, 1294.18212890625], [-120.99108, 43.16115, 1294.1734619140625], [-120.98614, 43.16713, 550.00830078125]]], [[[-120.98614, 43.16713, 550.00830078125], [-120.99108, 43.16115, 1294.1734619140625], [-120.98189, 43.15963, 583.2075805664062], [-120.98614, 43.16713, 550.00830078125]]], [[[-120.98505, 43.15307, 1293.520751953125], [-120.98189, 43.15963, 583.2075805664062], [-120.99108, 43.16115, 1294.1734619140625], [-120.98505, 43.15307, 1293.520751953125]]], [[[-120.97423, 43.15529, 194.1067657470703], [-120.97849, 43.15012, 911.0092163085938], [-120.97193, 43.14716, 528.5346069335938], [-120.97423, 43.15529, 194.1067657470703]]], [[[-120.94803, 43.21611, -4842.203125], [-120.94995, 43.22447, -5238.30126953125], [-120.95728, 43.22256, -4466.99951171875], [-120.94803, 43.21611, -4842.203125]]], [[[-120.95216, 43.23343, -5621.1015625], [-120.94278, 43.22685, -6027.24169921875], [-120.94412, 43.23573, -6480.07177734375], [-120.95216, 43.23343, -5621.1015625]]], [[[-120.95216, 43.23343, -5621.1015625], [-120.94412, 43.23573, -6480.07177734375], [-120.95348, 43.24222, -6084.66943359375], [-120.95216, 43.23343, -5621.1015625]]], [[[-120.95216, 43.23343, -5621.1015625], [-120.95348, 43.24222, -6084.66943359375], [-120.9608, 43.24018, -5306.8330078125], [-120.95216, 43.23343, -5621.1015625]]], [[[-120.95909, 43.23144, -4881.47021484375], [-120.95216, 43.23343, -5621.1015625], [-120.9608, 43.24018, -5306.8330078125], [-120.95909, 43.23144, -4881.47021484375]]], [[[-120.95909, 43.23144, -4881.47021484375], [-120.9608, 43.24018, -5306.8330078125], [-120.96795, 43.23786, -4525.18701171875], [-120.95909, 43.23144, -4881.47021484375]]], [[[-120.96626, 43.22895, -4086.330322265625], [-120.95909, 43.23144, -4881.47021484375], [-120.96795, 43.23786, -4525.18701171875], [-120.96626, 43.22895, -4086.330322265625]]], [[[-120.96626, 43.22895, -4086.330322265625], [-120.96795, 43.23786, -4525.18701171875], [-120.97516, 43.23565, -3745.1767578125], [-120.96626, 43.22895, -4086.330322265625]]], [[[-120.94412, 43.23573, -6480.07177734375], [-120.94573, 43.24434, -6906.05126953125], [-120.95348, 43.24222, -6084.66943359375], [-120.94412, 43.23573, -6480.07177734375]]], [[[-120.94412, 43.23573, -6480.07177734375], [-120.93473, 43.23792, -7449.12109375], [-120.94573, 43.24434, -6906.05126953125], [-120.94412, 43.23573, -6480.07177734375]]], [[[-120.93576, 43.23033, -6874.4736328125], [-120.93473, 43.23792, -7449.12109375], [-120.94412, 43.23573, -6480.07177734375], [-120.93576, 43.23033, -6874.4736328125]]], [[[-120.93576, 43.23033, -6874.4736328125], [-120.92722, 43.22836, -7484.98828125], [-120.93473, 43.23792, -7449.12109375], [-120.93576, 43.23033, -6874.4736328125]]], [[[-120.93224, 43.22264, -6660.23388671875], [-120.92722, 43.22836, -7484.98828125], [-120.93576, 43.23033, -6874.4736328125], [-120.93224, 43.22264, -6660.23388671875]]], [[[-120.93576, 43.23033, -6874.4736328125], [-120.94278, 43.22685, -6027.24169921875], [-120.93224, 43.22264, -6660.23388671875], [-120.93576, 43.23033, -6874.4736328125]]], [[[-120.94278, 43.22685, -6027.24169921875], [-120.93576, 43.23033, -6874.4736328125], [-120.94412, 43.23573, -6480.07177734375], [-120.94278, 43.22685, -6027.24169921875]]], [[[-120.92482, 43.2079, -6592.0849609375], [-120.91909, 43.21319, -7337.95947265625], [-120.92814, 43.21556, -6599.4638671875], [-120.92482, 43.2079, -6592.0849609375]]], [[[-120.92482, 43.2079, -6592.0849609375], [-120.91723, 43.20479, -7348.666015625], [-120.91909, 43.21319, -7337.95947265625], [-120.92482, 43.2079, -6592.0849609375]]], [[[-120.92482, 43.2079, -6592.0849609375], [-120.9237, 43.19888, -6587.7421875], [-120.91723, 43.20479, -7348.666015625], [-120.92482, 43.2079, -6592.0849609375]]], [[[-120.91526, 43.19542, -7364.14306640625], [-120.91723, 43.20479, -7348.666015625], [-120.9237, 43.19888, -6587.7421875], [-120.91526, 43.19542, -7364.14306640625]]], [[[-120.9237, 43.19888, -6587.7421875], [-120.91948, 43.19028, -6797.83837890625], [-120.91526, 43.19542, -7364.14306640625], [-120.9237, 43.19888, -6587.7421875]]], [[[-120.92636, 43.18881, -6082.349609375], [-120.91948, 43.19028, -6797.83837890625], [-120.9237, 43.19888, -6587.7421875], [-120.92636, 43.18881, -6082.349609375]]], [[[-120.91743, 43.22568, -8161.716796875], [-120.90805, 43.22368, -8864.2607421875], [-120.91356, 43.23183, -8908.064453125], [-120.91743, 43.22568, -8161.716796875]]], [[[-120.91743, 43.22568, -8161.716796875], [-120.91356, 43.23183, -8908.064453125], [-120.92351, 43.23394, -8192.3876953125], [-120.91743, 43.22568, -8161.716796875]]], [[[-120.92351, 43.23394, -8192.3876953125], [-120.91356, 43.23183, -8908.064453125], [-120.91933, 43.23987, -8952.353515625], [-120.92351, 43.23394, -8192.3876953125]]], [[[-120.92351, 43.23394, -8192.3876953125], [-120.91933, 43.23987, -8952.353515625], [-120.92854, 43.24232, -8282.66796875], [-120.92351, 43.23394, -8192.3876953125]]], [[[-120.91933, 43.23987, -8952.353515625], [-120.92429, 43.24743, -8992.537109375], [-120.92854, 43.24232, -8282.66796875], [-120.91933, 43.23987, -8952.353515625]]], [[[-120.93269, 43.25022, -8438.8515625], [-120.92854, 43.24232, -8282.66796875], [-120.92429, 43.24743, -8992.537109375], [-120.93269, 43.25022, -8438.8515625]]], [[[-120.92854, 43.24232, -8282.66796875], [-120.93269, 43.25022, -8438.8515625], [-120.93876, 43.24709, -7699.3515625], [-120.92854, 43.24232, -8282.66796875]]], [[[-120.93269, 43.25022, -8438.8515625], [-120.94097, 43.25528, -8019.35546875], [-120.93876, 43.24709, -7699.3515625], [-120.93269, 43.25022, -8438.8515625]]], [[[-120.93269, 43.25022, -8438.8515625], [-120.93559, 43.25692, -8601.0712890625], [-120.94097, 43.25528, -8019.35546875], [-120.93269, 43.25022, -8438.8515625]]], [[[-120.93559, 43.25692, -8601.0712890625], [-120.93269, 43.25022, -8438.8515625], [-120.93209, 43.25518, -8817.630859375], [-120.93559, 43.25692, -8601.0712890625]]], [[[-120.93209, 43.25518, -8817.630859375], [-120.93144, 43.25818, -9050.0029296875], [-120.93559, 43.25692, -8601.0712890625], [-120.93209, 43.25518, -8817.630859375]]], [[[-120.92845, 43.25348, -9025.302734375], [-120.93144, 43.25818, -9050.0029296875], [-120.93209, 43.25518, -8817.630859375], [-120.92845, 43.25348, -9025.302734375]]], [[[-120.93209, 43.25518, -8817.630859375], [-120.93269, 43.25022, -8438.8515625], [-120.92845, 43.25348, -9025.302734375], [-120.93209, 43.25518, -8817.630859375]]], [[[-120.93269, 43.25022, -8438.8515625], [-120.92429, 43.24743, -8992.537109375], [-120.92845, 43.25348, -9025.302734375], [-120.93269, 43.25022, -8438.8515625]]], [[[-120.93876, 43.24709, -7699.3515625], [-120.94097, 43.25528, -8019.35546875], [-120.94762, 43.25325, -7299.68408203125], [-120.93876, 43.24709, -7699.3515625]]], [[[-120.99684, 43.22906, -1405.9334716796875], [-120.99814, 43.23782, -1830.9945068359375], [-121.00536, 43.23562, -1049.68359375], [-120.99684, 43.22906, -1405.9334716796875]]]]}}]}