{"type": "FeatureCollection", "features": [{"type": "Feature", "properties": {"name": "Langley Hill", "CFM_ID": 134, "region": "ForearcIntraarc_WA", "primary_state/province": "WA", "secondary_state/province": null, "avg_dip": 60, "dip_dir": "N", "rake": 90, "slip_sense": "Reverse", "fault_level": 3, "NSHM23_sliprates": 0.09, "QFFDAgeCatBin": "undifferentiated Quaternary", "QFFDAgeBin": "<1.6 million", "upper_depth": 0.0, "upper_depth_constraint": "topography", "lower_depth": -24.5, "lower_depth_constraint": "Slab2", "3D_model_constraints": "trace extended at constant dip", "reference": "US NSHM 2023", "nshm23_id": 2838.0, "lineage": "renamed", "usgs_qffd_#": "587", "comments": "in NSHM23 as Saddle Hill (Langley Hill)", "id": "134"}, "geometry": {"type": "MultiPolygon", "coordinates": [[[[-124.13402, 47.23951, -23996.697265625], [-124.12887, 47.24351, -24509.37890625], [-124.1416, 47.24005, -24341.6875], [-124.13402, 47.23951, -23996.697265625]]], [[[-124.18144, 47.14893, -9845.7275390625], [-124.19317, 47.14813, -10287.3115234375], [-124.1909, 47.14395, -9430.8681640625], [-124.18144, 47.14893, -9845.7275390625]]], [[[-124.12514, 47.14374, -6142.9072265625], [-124.11429, 47.1488, -6501.40869140625], [-124.12771, 47.14787, -7008.28271484375], [-124.12514, 47.14374, -6142.9072265625]]], [[[-124.12654, 47.23925, -23633.708984375], [-124.12887, 47.24351, -24509.37890625], [-124.13402, 47.23951, -23996.697265625], [-124.12654, 47.23925, -23633.708984375]]], [[[-124.1082, 47.13545, -3802.028564453125], [-124.09511, 47.13666, -3427.306396484375], [-124.0975, 47.14089, -4299.2783203125], [-124.1082, 47.13545, -3802.028564453125]]], [[[-124.1082, 47.13545, -3802.028564453125], [-124.10523, 47.13145, -2940.664306640625], [-124.09511, 47.13666, -3427.306396484375], [-124.1082, 47.13545, -3802.028564453125]]], [[[-124.13612, 47.23488, -23197.181640625], [-124.12654, 47.23925, -23633.708984375], [-124.13402, 47.23951, -23996.697265625], [-124.13612, 47.23488, -23197.181640625]]], [[[-124.12654, 47.23925, -23633.708984375], [-124.13612, 47.23488, -23197.181640625], [-124.12422, 47.23498, -22758.041015625], [-124.12654, 47.23925, -23633.708984375]]], [[[-124.10929, 47.14035, -4741.0390625], [-124.1082, 47.13545, -3802.028564453125], [-124.0975, 47.14089, -4299.2783203125], [-124.10929, 47.14035, -4741.0390625]]], [[[-124.15546, 47.14666, -8086.541015625], [-124.16528, 47.14152, -7681.5068359375], [-124.1532, 47.14249, -7230.251953125], [-124.15546, 47.14666, -8086.541015625]]], [[[-124.13612, 47.23488, -23197.181640625], [-124.13395, 47.23048, -22296.94140625], [-124.12422, 47.23498, -22758.041015625], [-124.13612, 47.23488, -23197.181640625]]], [[[-124.17918, 47.14476, -8989.265625], [-124.1909, 47.14395, -9430.8681640625], [-124.18864, 47.13977, -8574.42578125], [-124.17918, 47.14476, -8989.265625]]], [[[-124.12125, 47.16154, -9128.443359375], [-124.11895, 47.15729, -8252.171875], [-124.109, 47.16227, -8681.23828125], [-124.12125, 47.16154, -9128.443359375]]], [[[-124.17691, 47.14058, -8132.802734375], [-124.18637, 47.13559, -7717.982421875], [-124.17465, 47.1364, -7276.3408203125], [-124.17691, 47.14058, -8132.802734375]]], [[[-124.14612, 47.23055, -22691.724609375], [-124.13395, 47.23048, -22296.94140625], [-124.13612, 47.23488, -23197.181640625], [-124.14612, 47.23055, -22691.724609375]]], [[[-124.1466, 47.15572, -9335.044921875], [-124.14432, 47.15152, -8474.921875], [-124.13231, 47.15635, -8749.4189453125], [-124.1466, 47.15572, -9335.044921875]]], [[[-124.09464, 47.15818, -7393.5703125], [-124.10437, 47.15373, -6929.927734375], [-124.09233, 47.15393, -6516.9013671875], [-124.09464, 47.15818, -7393.5703125]]], [[[-124.14474, 47.22628, -21853.71875], [-124.13395, 47.23048, -22296.94140625], [-124.14612, 47.23055, -22691.724609375], [-124.14474, 47.22628, -21853.71875]]], [[[-124.13977, 47.14318, -6762.9814453125], [-124.14205, 47.14733, -7615.70263671875], [-124.1532, 47.14249, -7230.251953125], [-124.13977, 47.14318, -6762.9814453125]]], [[[-124.14474, 47.22628, -21853.71875], [-124.13163, 47.22623, -21420.2734375], [-124.13395, 47.23048, -22296.94140625], [-124.14474, 47.22628, -21853.71875]]], [[[-124.15773, 47.15084, -8943.36328125], [-124.16754, 47.1457, -8538.0537109375], [-124.15546, 47.14666, -8086.541015625], [-124.15773, 47.15084, -8943.36328125]]], [[[-124.14432, 47.15152, -8474.921875], [-124.14205, 47.14733, -7615.70263671875], [-124.13001, 47.1521, -7877.93798828125], [-124.14432, 47.15152, -8474.921875]]], [[[-124.16528, 47.14152, -7681.5068359375], [-124.17465, 47.1364, -7276.3408203125], [-124.16301, 47.13735, -6824.95947265625], [-124.16528, 47.14152, -7681.5068359375]]], [[[-124.14225, 47.22207, -20982.271484375], [-124.13163, 47.22623, -21420.2734375], [-124.14474, 47.22628, -21853.71875], [-124.14225, 47.22207, -20982.271484375]]], [[[-124.17691, 47.14058, -8132.802734375], [-124.18864, 47.13977, -8574.42578125], [-124.18637, 47.13559, -7717.982421875], [-124.17691, 47.14058, -8132.802734375]]], [[[-124.17821, 47.18841, -16655.724609375], [-124.19019, 47.18746, -17103.525390625], [-124.18792, 47.18328, -16246.978515625], [-124.17821, 47.18841, -16655.724609375]]], [[[-124.18824, 47.16146, -12415.1142578125], [-124.1977, 47.15648, -12000.1982421875], [-124.18597, 47.15729, -11558.6513671875], [-124.18824, 47.16146, -12415.1142578125]]], [[[-124.13163, 47.22623, -21420.2734375], [-124.14225, 47.22207, -20982.271484375], [-124.12932, 47.22198, -20543.603515625], [-124.13163, 47.22623, -21420.2734375]]], [[[-124.13163, 47.22623, -21420.2734375], [-124.12932, 47.22198, -20543.603515625], [-124.11958, 47.22644, -21006.701171875], [-124.13163, 47.22623, -21420.2734375]]], [[[-124.18597, 47.15729, -11558.6513671875], [-124.19543, 47.1523, -11143.7548828125], [-124.18371, 47.15311, -10702.189453125], [-124.18597, 47.15729, -11558.6513671875]]], [[[-124.15073, 47.19034, -15723.6025390625], [-124.16486, 47.18927, -16216.0400390625], [-124.16258, 47.18508, -15356.076171875], [-124.15073, 47.19034, -15723.6025390625]]], [[[-124.15073, 47.19034, -15723.6025390625], [-124.13972, 47.19556, -16138.923828125], [-124.15304, 47.19458, -16595.40625], [-124.15073, 47.19034, -15723.6025390625]]], [[[-124.13163, 47.22623, -21420.2734375], [-124.11958, 47.22644, -21006.701171875], [-124.1219, 47.23071, -21882.37109375], [-124.13163, 47.22623, -21420.2734375]]], [[[-124.18566, 47.1791, -15390.4306640625], [-124.19504, 47.17399, -14984.529296875], [-124.18339, 47.17493, -14533.8837890625], [-124.18566, 47.1791, -15390.4306640625]]], [[[-124.16713, 47.19346, -17076.232421875], [-124.17821, 47.18841, -16655.724609375], [-124.16486, 47.18927, -16216.0400390625], [-124.16713, 47.19346, -17076.232421875]]], [[[-124.13395, 47.23048, -22296.94140625], [-124.13163, 47.22623, -21420.2734375], [-124.1219, 47.23071, -21882.37109375], [-124.13395, 47.23048, -22296.94140625]]], [[[-124.14205, 47.14733, -7615.70263671875], [-124.14432, 47.15152, -8474.921875], [-124.15546, 47.14666, -8086.541015625], [-124.14205, 47.14733, -7615.70263671875]]], [[[-124.17918, 47.14476, -8989.265625], [-124.18864, 47.13977, -8574.42578125], [-124.17691, 47.14058, -8132.802734375], [-124.17918, 47.14476, -8989.265625]]], [[[-124.16106, 47.2119, -20072.357421875], [-124.14876, 47.21262, -19645.66796875], [-124.1511, 47.21707, -20560.033203125], [-124.16106, 47.2119, -20072.357421875]]], [[[-124.13395, 47.23048, -22296.94140625], [-124.1219, 47.23071, -21882.37109375], [-124.12422, 47.23498, -22758.041015625], [-124.13395, 47.23048, -22296.94140625]]], [[[-124.16713, 47.19346, -17076.232421875], [-124.16486, 47.18927, -16216.0400390625], [-124.15304, 47.19458, -16595.40625], [-124.16713, 47.19346, -17076.232421875]]], [[[-124.13741, 47.1913, -15262.6123046875], [-124.14843, 47.18609, -14851.8623046875], [-124.1351, 47.18705, -14386.2978515625], [-124.13741, 47.1913, -15262.6123046875]]], [[[-124.16942, 47.19766, -17937.330078125], [-124.18274, 47.19677, -18370.384765625], [-124.18048, 47.19259, -17512.64453125], [-124.16942, 47.19766, -17937.330078125]]], [[[-124.12932, 47.22198, -20543.603515625], [-124.11726, 47.22218, -20131.03125], [-124.11958, 47.22644, -21006.701171875], [-124.12932, 47.22198, -20543.603515625]]], [[[-124.15534, 47.19883, -17467.302734375], [-124.14203, 47.19981, -17015.240234375], [-124.14434, 47.20406, -17891.58203125], [-124.15534, 47.19883, -17467.302734375]]], [[[-124.12932, 47.22198, -20543.603515625], [-124.127, 47.21773, -19666.935546875], [-124.11726, 47.22218, -20131.03125], [-124.12932, 47.22198, -20543.603515625]]], [[[-124.16258, 47.18508, -15356.076171875], [-124.14843, 47.18609, -14851.8623046875], [-124.15073, 47.19034, -15723.6025390625], [-124.16258, 47.18508, -15356.076171875]]], [[[-124.18278, 47.21797, -22205.6171875], [-124.19315, 47.2189, -22840.7421875], [-124.1944, 47.21413, -22029.5078125], [-124.18278, 47.21797, -22205.6171875]]], [[[-124.16486, 47.18927, -16216.0400390625], [-124.15073, 47.19034, -15723.6025390625], [-124.15304, 47.19458, -16595.40625], [-124.16486, 47.18927, -16216.0400390625]]], [[[-124.11132, 47.16654, -9556.8935546875], [-124.09926, 47.16669, -9146.908203125], [-124.10157, 47.17094, -10023.5771484375], [-124.11132, 47.16654, -9556.8935546875]]], [[[-124.13915, 47.21775, -20064.7578125], [-124.127, 47.21773, -19666.935546875], [-124.12932, 47.22198, -20543.603515625], [-124.13915, 47.21775, -20064.7578125]]], [[[-124.17594, 47.18423, -15798.900390625], [-124.18792, 47.18328, -16246.978515625], [-124.18566, 47.1791, -15390.4306640625], [-124.17594, 47.18423, -15798.900390625]]], [[[-124.14432, 47.15152, -8474.921875], [-124.15773, 47.15084, -8943.36328125], [-124.15546, 47.14666, -8086.541015625], [-124.14432, 47.15152, -8474.921875]]], [[[-124.13683, 47.21348, -19189.103515625], [-124.127, 47.21773, -19666.935546875], [-124.13915, 47.21775, -20064.7578125], [-124.13683, 47.21348, -19189.103515625]]], [[[-124.1905, 47.16564, -13271.576171875], [-124.20223, 47.16483, -13713.083984375], [-124.19997, 47.16066, -12856.6416015625], [-124.1905, 47.16564, -13271.576171875]]], [[[-124.15623, 47.12482, -4255.318359375], [-124.14387, 47.12566, -3768.213623046875], [-124.14683, 47.12989, -4664.1865234375], [-124.15623, 47.12482, -4255.318359375]]], [[[-124.13972, 47.19556, -16138.923828125], [-124.15073, 47.19034, -15723.6025390625], [-124.13741, 47.1913, -15262.6123046875], [-124.13972, 47.19556, -16138.923828125]]], [[[-124.13683, 47.21348, -19189.103515625], [-124.12469, 47.21347, -18790.265625], [-124.127, 47.21773, -19666.935546875], [-124.13683, 47.21348, -19189.103515625]]], [[[-124.18048, 47.19259, -17512.64453125], [-124.19245, 47.19163, -17960.072265625], [-124.19019, 47.18746, -17103.525390625], [-124.18048, 47.19259, -17512.64453125]]], [[[-124.17057, 47.21201, -20596.109375], [-124.16213, 47.2168, -21008.697265625], [-124.17211, 47.21669, -21514.87109375], [-124.17057, 47.21201, -20596.109375]]], [[[-124.14382, 47.17759, -13108.32421875], [-124.13279, 47.1828, -13509.990234375], [-124.14612, 47.18184, -13980.1171875], [-124.14382, 47.17759, -13108.32421875]]], [[[-124.1351, 47.18705, -14386.2978515625], [-124.14612, 47.18184, -13980.1171875], [-124.13279, 47.1828, -13509.990234375], [-124.1351, 47.18705, -14386.2978515625]]], [[[-124.13451, 47.20922, -18313.447265625], [-124.12469, 47.21347, -18790.265625], [-124.13683, 47.21348, -19189.103515625], [-124.13451, 47.20922, -18313.447265625]]], [[[-124.13721, 47.1346, -5097.478515625], [-124.14909, 47.13406, -5520.77099609375], [-124.14683, 47.12989, -4664.1865234375], [-124.13721, 47.1346, -5097.478515625]]], [[[-124.18274, 47.19677, -18370.384765625], [-124.19472, 47.19581, -18816.619140625], [-124.19245, 47.19163, -17960.072265625], [-124.18274, 47.19677, -18370.384765625]]], [[[-124.17886, 47.16658, -12820.7900390625], [-124.16914, 47.1717, -13228.302734375], [-124.18112, 47.17075, -13677.3369140625], [-124.17886, 47.16658, -12820.7900390625]]], [[[-124.15304, 47.19458, -16595.40625], [-124.13972, 47.19556, -16138.923828125], [-124.14203, 47.19981, -17015.240234375], [-124.15304, 47.19458, -16595.40625]]], [[[-124.13451, 47.20922, -18313.447265625], [-124.12238, 47.20922, -17913.59765625], [-124.12469, 47.21347, -18790.265625], [-124.13451, 47.20922, -18313.447265625]]], [[[-124.16713, 47.19346, -17076.232421875], [-124.18048, 47.19259, -17512.64453125], [-124.17821, 47.18841, -16655.724609375], [-124.16713, 47.19346, -17076.232421875]]], [[[-124.12771, 47.14787, -7008.28271484375], [-124.13001, 47.1521, -7877.93798828125], [-124.14205, 47.14733, -7615.70263671875], [-124.12771, 47.14787, -7008.28271484375]]], [[[-124.18566, 47.1791, -15390.4306640625], [-124.1973, 47.17817, -15841.0810546875], [-124.19504, 47.17399, -14984.529296875], [-124.18566, 47.1791, -15390.4306640625]]], [[[-124.13219, 47.20495, -17437.79296875], [-124.12238, 47.20922, -17913.59765625], [-124.13451, 47.20922, -18313.447265625], [-124.13219, 47.20495, -17437.79296875]]], [[[-124.13472, 47.13007, -4166.74072265625], [-124.14683, 47.12989, -4664.1865234375], [-124.14387, 47.12566, -3768.213623046875], [-124.13472, 47.13007, -4166.74072265625]]], [[[-124.14843, 47.18609, -14851.8623046875], [-124.16258, 47.18508, -15356.076171875], [-124.1603, 47.18088, -14496.8125], [-124.14843, 47.18609, -14851.8623046875]]], [[[-124.13219, 47.20495, -17437.79296875], [-124.12006, 47.20497, -17036.927734375], [-124.12238, 47.20922, -17913.59765625], [-124.13219, 47.20495, -17437.79296875]]], [[[-124.15534, 47.19883, -17467.302734375], [-124.14434, 47.20406, -17891.58203125], [-124.15766, 47.20308, -18339.712890625], [-124.15534, 47.19883, -17467.302734375]]], [[[-124.17403, 47.20641, -19724.001953125], [-124.15998, 47.20734, -19214.068359375], [-124.16106, 47.2119, -20072.357421875], [-124.17403, 47.20641, -19724.001953125]]], [[[-124.18339, 47.17493, -14533.8837890625], [-124.19504, 47.17399, -14984.529296875], [-124.19277, 47.16982, -14128.0380859375], [-124.18339, 47.17493, -14533.8837890625]]], [[[-124.12987, 47.20068, -16562.13671875], [-124.12006, 47.20497, -17036.927734375], [-124.13219, 47.20495, -17437.79296875], [-124.12987, 47.20068, -16562.13671875]]], [[[-124.18566, 47.1791, -15390.4306640625], [-124.18792, 47.18328, -16246.978515625], [-124.1973, 47.17817, -15841.0810546875], [-124.18566, 47.1791, -15390.4306640625]]], [[[-124.19172, 47.20952, -21075.763671875], [-124.20209, 47.20953, -21628.201171875], [-124.19931, 47.20452, -20595.185546875], [-124.19172, 47.20952, -21075.763671875]]], [[[-124.17171, 47.20191, -18806.63671875], [-124.18489, 47.201, -19233.44921875], [-124.18274, 47.19677, -18370.384765625], [-124.17171, 47.20191, -18806.63671875]]], [[[-124.12291, 47.18788, -13935.1708984375], [-124.11081, 47.18796, -13530.2529296875], [-124.11313, 47.19221, -14406.921875], [-124.12291, 47.18788, -13935.1708984375]]], [[[-124.12987, 47.20068, -16562.13671875], [-124.11775, 47.20072, -16160.259765625], [-124.12006, 47.20497, -17036.927734375], [-124.12987, 47.20068, -16562.13671875]]], [[[-124.1351, 47.18705, -14386.2978515625], [-124.13279, 47.1828, -13509.990234375], [-124.12291, 47.18788, -13935.1708984375], [-124.1351, 47.18705, -14386.2978515625]]], [[[-124.19277, 47.16982, -14128.0380859375], [-124.20223, 47.16483, -13713.083984375], [-124.1905, 47.16564, -13271.576171875], [-124.19277, 47.16982, -14128.0380859375]]], [[[-124.14612, 47.18184, -13980.1171875], [-124.1351, 47.18705, -14386.2978515625], [-124.14843, 47.18609, -14851.8623046875], [-124.14612, 47.18184, -13980.1171875]]], [[[-124.12755, 47.19641, -15686.4814453125], [-124.11775, 47.20072, -16160.259765625], [-124.12987, 47.20068, -16562.13671875], [-124.12755, 47.19641, -15686.4814453125]]], [[[-124.12755, 47.19641, -15686.4814453125], [-124.11544, 47.19646, -15283.5908203125], [-124.11775, 47.20072, -16160.259765625], [-124.12755, 47.19641, -15686.4814453125]]], [[[-124.12514, 47.14374, -6142.9072265625], [-124.13977, 47.14318, -6762.9814453125], [-124.13898, 47.13894, -5961.2021484375], [-124.12514, 47.14374, -6142.9072265625]]], [[[-124.12523, 47.19214, -14810.826171875], [-124.11544, 47.19646, -15283.5908203125], [-124.12755, 47.19641, -15686.4814453125], [-124.12523, 47.19214, -14810.826171875]]], [[[-124.15304, 47.19458, -16595.40625], [-124.14203, 47.19981, -17015.240234375], [-124.15534, 47.19883, -17467.302734375], [-124.15304, 47.19458, -16595.40625]]], [[[-124.20209, 47.20953, -21628.201171875], [-124.20509, 47.21417, -22607.990234375], [-124.2129, 47.2075, -21844.6640625], [-124.20209, 47.20953, -21628.201171875]]], [[[-124.16942, 47.19766, -17937.330078125], [-124.15534, 47.19883, -17467.302734375], [-124.15766, 47.20308, -18339.712890625], [-124.16942, 47.19766, -17937.330078125]]], [[[-124.12523, 47.19214, -14810.826171875], [-124.11313, 47.19221, -14406.921875], [-124.11544, 47.19646, -15283.5908203125], [-124.12523, 47.19214, -14810.826171875]]], [[[-124.17403, 47.20641, -19724.001953125], [-124.16106, 47.2119, -20072.357421875], [-124.17057, 47.21201, -20596.109375], [-124.17403, 47.20641, -19724.001953125]]], [[[-124.19472, 47.19581, -18816.619140625], [-124.20411, 47.19069, -18410.734375], [-124.19245, 47.19163, -17960.072265625], [-124.19472, 47.19581, -18816.619140625]]], [[[-124.14612, 47.18184, -13980.1171875], [-124.14843, 47.18609, -14851.8623046875], [-124.1603, 47.18088, -14496.8125], [-124.14612, 47.18184, -13980.1171875]]], [[[-124.127, 47.21773, -19666.935546875], [-124.11494, 47.21791, -19255.36328125], [-124.11726, 47.22218, -20131.03125], [-124.127, 47.21773, -19666.935546875]]], [[[-124.17403, 47.20641, -19724.001953125], [-124.17171, 47.20191, -18806.63671875], [-124.15998, 47.20734, -19214.068359375], [-124.17403, 47.20641, -19724.001953125]]], [[[-124.12291, 47.18788, -13935.1708984375], [-124.11313, 47.19221, -14406.921875], [-124.12523, 47.19214, -14810.826171875], [-124.12291, 47.18788, -13935.1708984375]]], [[[-124.13741, 47.1913, -15262.6123046875], [-124.1351, 47.18705, -14386.2978515625], [-124.12523, 47.19214, -14810.826171875], [-124.13741, 47.1913, -15262.6123046875]]], [[[-124.18048, 47.19259, -17512.64453125], [-124.18274, 47.19677, -18370.384765625], [-124.19245, 47.19163, -17960.072265625], [-124.18048, 47.19259, -17512.64453125]]], [[[-124.12059, 47.18361, -13059.515625], [-124.11081, 47.18796, -13530.2529296875], [-124.12291, 47.18788, -13935.1708984375], [-124.12059, 47.18361, -13059.515625]]], [[[-124.12059, 47.18361, -13059.515625], [-124.1085, 47.1837, -12653.583984375], [-124.11081, 47.18796, -13530.2529296875], [-124.12059, 47.18361, -13059.515625]]], [[[-124.18765, 47.20516, -20108.05859375], [-124.19931, 47.20452, -20595.185546875], [-124.19699, 47.19998, -19673.166015625], [-124.18765, 47.20516, -20108.05859375]]], [[[-124.11827, 47.17934, -12183.8603515625], [-124.1085, 47.1837, -12653.583984375], [-124.12059, 47.18361, -13059.515625], [-124.11827, 47.17934, -12183.8603515625]]], [[[-124.17821, 47.18841, -16655.724609375], [-124.18048, 47.19259, -17512.64453125], [-124.19019, 47.18746, -17103.525390625], [-124.17821, 47.18841, -16655.724609375]]], [[[-124.11827, 47.17934, -12183.8603515625], [-124.10619, 47.17945, -11776.9150390625], [-124.1085, 47.1837, -12653.583984375], [-124.11827, 47.17934, -12183.8603515625]]], [[[-124.18274, 47.19677, -18370.384765625], [-124.18489, 47.201, -19233.44921875], [-124.19472, 47.19581, -18816.619140625], [-124.18274, 47.19677, -18370.384765625]]], [[[-124.11596, 47.17507, -11308.2041015625], [-124.10619, 47.17945, -11776.9150390625], [-124.11827, 47.17934, -12183.8603515625], [-124.11596, 47.17507, -11308.2041015625]]], [[[-124.1798, 47.21012, -20653.798828125], [-124.19172, 47.20952, -21075.763671875], [-124.18765, 47.20516, -20108.05859375], [-124.1798, 47.21012, -20653.798828125]]], [[[-124.11596, 47.17507, -11308.2041015625], [-124.10388, 47.1752, -10900.24609375], [-124.10619, 47.17945, -11776.9150390625], [-124.11596, 47.17507, -11308.2041015625]]], [[[-124.11364, 47.1708, -10432.548828125], [-124.10388, 47.1752, -10900.24609375], [-124.11596, 47.17507, -11308.2041015625], [-124.11364, 47.1708, -10432.548828125]]], [[[-124.11364, 47.1708, -10432.548828125], [-124.10157, 47.17094, -10023.5771484375], [-124.10388, 47.1752, -10900.24609375], [-124.11364, 47.1708, -10432.548828125]]], [[[-124.16106, 47.2119, -20072.357421875], [-124.1511, 47.21707, -20560.033203125], [-124.16213, 47.2168, -21008.697265625], [-124.16106, 47.2119, -20072.357421875]]], [[[-124.11132, 47.16654, -9556.8935546875], [-124.10157, 47.17094, -10023.5771484375], [-124.11364, 47.1708, -10432.548828125], [-124.11132, 47.16654, -9556.8935546875]]], [[[-124.17057, 47.21201, -20596.109375], [-124.16106, 47.2119, -20072.357421875], [-124.16213, 47.2168, -21008.697265625], [-124.17057, 47.21201, -20596.109375]]], [[[-124.109, 47.16227, -8681.23828125], [-124.09926, 47.16669, -9146.908203125], [-124.11132, 47.16654, -9556.8935546875], [-124.109, 47.16227, -8681.23828125]]], [[[-124.15766, 47.20308, -18339.712890625], [-124.14665, 47.20831, -18768.142578125], [-124.15998, 47.20734, -19214.068359375], [-124.15766, 47.20308, -18339.712890625]]], [[[-124.109, 47.16227, -8681.23828125], [-124.09695, 47.16244, -8270.2392578125], [-124.09926, 47.16669, -9146.908203125], [-124.109, 47.16227, -8681.23828125]]], [[[-124.19172, 47.20952, -21075.763671875], [-124.1944, 47.21413, -22029.5078125], [-124.20209, 47.20953, -21628.201171875], [-124.19172, 47.20952, -21075.763671875]]], [[[-124.15766, 47.20308, -18339.712890625], [-124.14434, 47.20406, -17891.58203125], [-124.14665, 47.20831, -18768.142578125], [-124.15766, 47.20308, -18339.712890625]]], [[[-124.10669, 47.158, -7805.5830078125], [-124.09695, 47.16244, -8270.2392578125], [-124.109, 47.16227, -8681.23828125], [-124.10669, 47.158, -7805.5830078125]]], [[[-124.09695, 47.16244, -8270.2392578125], [-124.10669, 47.158, -7805.5830078125], [-124.09464, 47.15818, -7393.5703125], [-124.09695, 47.16244, -8270.2392578125]]], [[[-124.09695, 47.16244, -8270.2392578125], [-124.09464, 47.15818, -7393.5703125], [-124.08482, 47.16242, -7871.6611328125], [-124.09695, 47.16244, -8270.2392578125]]], [[[-124.19699, 47.19998, -19673.166015625], [-124.20637, 47.19487, -19267.28515625], [-124.19472, 47.19581, -18816.619140625], [-124.19699, 47.19998, -19673.166015625]]], [[[-124.09695, 47.16244, -8270.2392578125], [-124.08482, 47.16242, -7871.6611328125], [-124.08713, 47.16669, -8747.330078125], [-124.09695, 47.16244, -8270.2392578125]]], [[[-124.09926, 47.16669, -9146.908203125], [-124.09695, 47.16244, -8270.2392578125], [-124.08713, 47.16669, -8747.330078125], [-124.09926, 47.16669, -9146.908203125]]], [[[-124.1798, 47.21012, -20653.798828125], [-124.17211, 47.21669, -21514.87109375], [-124.1838, 47.2135, -21444.609375], [-124.1798, 47.21012, -20653.798828125]]], [[[-124.09926, 47.16669, -9146.908203125], [-124.08713, 47.16669, -8747.330078125], [-124.08945, 47.17096, -9623.0], [-124.09926, 47.16669, -9146.908203125]]], [[[-124.10157, 47.17094, -10023.5771484375], [-124.09926, 47.16669, -9146.908203125], [-124.08945, 47.17096, -9623.0], [-124.10157, 47.17094, -10023.5771484375]]], [[[-124.19019, 47.18746, -17103.525390625], [-124.20184, 47.18652, -17554.18359375], [-124.19957, 47.18234, -16697.6328125], [-124.19019, 47.18746, -17103.525390625]]], [[[-124.10157, 47.17094, -10023.5771484375], [-124.08945, 47.17096, -9623.0], [-124.09176, 47.17523, -10498.6689453125], [-124.10157, 47.17094, -10023.5771484375]]], [[[-124.10388, 47.1752, -10900.24609375], [-124.10157, 47.17094, -10023.5771484375], [-124.09176, 47.17523, -10498.6689453125], [-124.10388, 47.1752, -10900.24609375]]], [[[-124.10388, 47.1752, -10900.24609375], [-124.09176, 47.17523, -10498.6689453125], [-124.09408, 47.17949, -11374.3388671875], [-124.10388, 47.1752, -10900.24609375]]], [[[-124.18765, 47.20516, -20108.05859375], [-124.19172, 47.20952, -21075.763671875], [-124.19931, 47.20452, -20595.185546875], [-124.18765, 47.20516, -20108.05859375]]], [[[-124.10619, 47.17945, -11776.9150390625], [-124.10388, 47.1752, -10900.24609375], [-124.09408, 47.17949, -11374.3388671875], [-124.10619, 47.17945, -11776.9150390625]]], [[[-124.10619, 47.17945, -11776.9150390625], [-124.09408, 47.17949, -11374.3388671875], [-124.0964, 47.18376, -12250.0078125], [-124.10619, 47.17945, -11776.9150390625]]], [[[-124.19245, 47.19163, -17960.072265625], [-124.20184, 47.18652, -17554.18359375], [-124.19019, 47.18746, -17103.525390625], [-124.19245, 47.19163, -17960.072265625]]], [[[-124.1085, 47.1837, -12653.583984375], [-124.10619, 47.17945, -11776.9150390625], [-124.0964, 47.18376, -12250.0078125], [-124.1085, 47.1837, -12653.583984375]]], [[[-124.1085, 47.1837, -12653.583984375], [-124.0964, 47.18376, -12250.0078125], [-124.09871, 47.18803, -13125.677734375], [-124.1085, 47.1837, -12653.583984375]]], [[[-124.11081, 47.18796, -13530.2529296875], [-124.1085, 47.1837, -12653.583984375], [-124.09871, 47.18803, -13125.677734375], [-124.11081, 47.18796, -13530.2529296875]]], [[[-124.11081, 47.18796, -13530.2529296875], [-124.09871, 47.18803, -13125.677734375], [-124.10103, 47.1923, -14001.3466796875], [-124.11081, 47.18796, -13530.2529296875]]], [[[-124.11313, 47.19221, -14406.921875], [-124.11081, 47.18796, -13530.2529296875], [-124.10103, 47.1923, -14001.3466796875], [-124.11313, 47.19221, -14406.921875]]], [[[-124.16713, 47.19346, -17076.232421875], [-124.15304, 47.19458, -16595.40625], [-124.15534, 47.19883, -17467.302734375], [-124.16713, 47.19346, -17076.232421875]]], [[[-124.11313, 47.19221, -14406.921875], [-124.10103, 47.1923, -14001.3466796875], [-124.10335, 47.19657, -14877.015625], [-124.11313, 47.19221, -14406.921875]]], [[[-124.11544, 47.19646, -15283.5908203125], [-124.11313, 47.19221, -14406.921875], [-124.10335, 47.19657, -14877.015625], [-124.11544, 47.19646, -15283.5908203125]]], [[[-124.18489, 47.201, -19233.44921875], [-124.18765, 47.20516, -20108.05859375], [-124.19699, 47.19998, -19673.166015625], [-124.18489, 47.201, -19233.44921875]]], [[[-124.11544, 47.19646, -15283.5908203125], [-124.10335, 47.19657, -14877.015625], [-124.10567, 47.20084, -15752.685546875], [-124.11544, 47.19646, -15283.5908203125]]], [[[-124.11775, 47.20072, -16160.259765625], [-124.11544, 47.19646, -15283.5908203125], [-124.10567, 47.20084, -15752.685546875], [-124.11775, 47.20072, -16160.259765625]]], [[[-124.19019, 47.18746, -17103.525390625], [-124.19957, 47.18234, -16697.6328125], [-124.18792, 47.18328, -16246.978515625], [-124.19019, 47.18746, -17103.525390625]]], [[[-124.11775, 47.20072, -16160.259765625], [-124.10567, 47.20084, -15752.685546875], [-124.10798, 47.2051, -16628.35546875], [-124.11775, 47.20072, -16160.259765625]]], [[[-124.19699, 47.19998, -19673.166015625], [-124.20864, 47.19904, -20123.8359375], [-124.20637, 47.19487, -19267.28515625], [-124.19699, 47.19998, -19673.166015625]]], [[[-124.12006, 47.20497, -17036.927734375], [-124.11775, 47.20072, -16160.259765625], [-124.10798, 47.2051, -16628.35546875], [-124.12006, 47.20497, -17036.927734375]]], [[[-124.15998, 47.20734, -19214.068359375], [-124.14665, 47.20831, -18768.142578125], [-124.14876, 47.21262, -19645.66796875], [-124.15998, 47.20734, -19214.068359375]]], [[[-124.19172, 47.20952, -21075.763671875], [-124.1798, 47.21012, -20653.798828125], [-124.1838, 47.2135, -21444.609375], [-124.19172, 47.20952, -21075.763671875]]], [[[-124.12006, 47.20497, -17036.927734375], [-124.10798, 47.2051, -16628.35546875], [-124.1103, 47.20937, -17504.0234375], [-124.12006, 47.20497, -17036.927734375]]], [[[-124.15998, 47.20734, -19214.068359375], [-124.14876, 47.21262, -19645.66796875], [-124.16106, 47.2119, -20072.357421875], [-124.15998, 47.20734, -19214.068359375]]], [[[-124.12238, 47.20922, -17913.59765625], [-124.12006, 47.20497, -17036.927734375], [-124.1103, 47.20937, -17504.0234375], [-124.12238, 47.20922, -17913.59765625]]], [[[-124.1351, 47.18705, -14386.2978515625], [-124.12291, 47.18788, -13935.1708984375], [-124.12523, 47.19214, -14810.826171875], [-124.1351, 47.18705, -14386.2978515625]]], [[[-124.12238, 47.20922, -17913.59765625], [-124.1103, 47.20937, -17504.0234375], [-124.11262, 47.21364, -18379.693359375], [-124.12238, 47.20922, -17913.59765625]]], [[[-124.19245, 47.19163, -17960.072265625], [-124.20411, 47.19069, -18410.734375], [-124.20184, 47.18652, -17554.18359375], [-124.19245, 47.19163, -17960.072265625]]], [[[-124.12469, 47.21347, -18790.265625], [-124.12238, 47.20922, -17913.59765625], [-124.11262, 47.21364, -18379.693359375], [-124.12469, 47.21347, -18790.265625]]], [[[-124.19931, 47.20452, -20595.185546875], [-124.20864, 47.19904, -20123.8359375], [-124.19699, 47.19998, -19673.166015625], [-124.19931, 47.20452, -20595.185546875]]], [[[-124.12469, 47.21347, -18790.265625], [-124.11262, 47.21364, -18379.693359375], [-124.11494, 47.21791, -19255.36328125], [-124.12469, 47.21347, -18790.265625]]], [[[-124.127, 47.21773, -19666.935546875], [-124.12469, 47.21347, -18790.265625], [-124.11494, 47.21791, -19255.36328125], [-124.127, 47.21773, -19666.935546875]]], [[[-124.09464, 47.15818, -7393.5703125], [-124.0825, 47.15815, -6995.99169921875], [-124.08482, 47.16242, -7871.6611328125], [-124.09464, 47.15818, -7393.5703125]]], [[[-124.09464, 47.15818, -7393.5703125], [-124.09233, 47.15393, -6516.9013671875], [-124.0825, 47.15815, -6995.99169921875], [-124.09464, 47.15818, -7393.5703125]]], [[[-124.10437, 47.15373, -6929.927734375], [-124.09464, 47.15818, -7393.5703125], [-124.10669, 47.158, -7805.5830078125], [-124.10437, 47.15373, -6929.927734375]]], [[[-124.11664, 47.15304, -7376.14794921875], [-124.10437, 47.15373, -6929.927734375], [-124.10669, 47.158, -7805.5830078125], [-124.11664, 47.15304, -7376.14794921875]]], [[[-124.11664, 47.15304, -7376.14794921875], [-124.11429, 47.1488, -6501.40869140625], [-124.10437, 47.15373, -6929.927734375], [-124.11664, 47.15304, -7376.14794921875]]], [[[-124.11664, 47.15304, -7376.14794921875], [-124.12771, 47.14787, -7008.28271484375], [-124.11429, 47.1488, -6501.40869140625], [-124.11664, 47.15304, -7376.14794921875]]], [[[-124.12771, 47.14787, -7008.28271484375], [-124.11664, 47.15304, -7376.14794921875], [-124.13001, 47.1521, -7877.93798828125], [-124.12771, 47.14787, -7008.28271484375]]], [[[-124.13977, 47.14318, -6762.9814453125], [-124.12771, 47.14787, -7008.28271484375], [-124.14205, 47.14733, -7615.70263671875], [-124.13977, 47.14318, -6762.9814453125]]], [[[-124.13977, 47.14318, -6762.9814453125], [-124.12514, 47.14374, -6142.9072265625], [-124.12771, 47.14787, -7008.28271484375], [-124.13977, 47.14318, -6762.9814453125]]], [[[-124.12893, 47.139, -5526.3896484375], [-124.12514, 47.14374, -6142.9072265625], [-124.13898, 47.13894, -5961.2021484375], [-124.12893, 47.139, -5526.3896484375]]], [[[-124.14843, 47.18609, -14851.8623046875], [-124.13741, 47.1913, -15262.6123046875], [-124.15073, 47.19034, -15723.6025390625], [-124.14843, 47.18609, -14851.8623046875]]], [[[-124.12893, 47.139, -5526.3896484375], [-124.11982, 47.14001, -5188.98388671875], [-124.12514, 47.14374, -6142.9072265625], [-124.12893, 47.139, -5526.3896484375]]], [[[-124.12661, 47.13482, -4666.41650390625], [-124.11982, 47.14001, -5188.98388671875], [-124.12893, 47.139, -5526.3896484375], [-124.12661, 47.13482, -4666.41650390625]]], [[[-124.12661, 47.13482, -4666.41650390625], [-124.11745, 47.13572, -4306.5791015625], [-124.11982, 47.14001, -5188.98388671875], [-124.12661, 47.13482, -4666.41650390625]]], [[[-124.12661, 47.13482, -4666.41650390625], [-124.12298, 47.13085, -3770.803466796875], [-124.11745, 47.13572, -4306.5791015625], [-124.12661, 47.13482, -4666.41650390625]]], [[[-124.12298, 47.13085, -3770.803466796875], [-124.12661, 47.13482, -4666.41650390625], [-124.13472, 47.13007, -4166.74072265625], [-124.12298, 47.13085, -3770.803466796875]]], [[[-124.12298, 47.13085, -3770.803466796875], [-124.13472, 47.13007, -4166.74072265625], [-124.13003, 47.12549, -3128.2783203125], [-124.12298, 47.13085, -3770.803466796875]]], [[[-124.12298, 47.13085, -3770.803466796875], [-124.13003, 47.12549, -3128.2783203125], [-124.11679, 47.12903, -3101.909423828125], [-124.12298, 47.13085, -3770.803466796875]]], [[[-124.12298, 47.13085, -3770.803466796875], [-124.11679, 47.12903, -3101.909423828125], [-124.1082, 47.13545, -3802.028564453125], [-124.12298, 47.13085, -3770.803466796875]]], [[[-124.12298, 47.13085, -3770.803466796875], [-124.1082, 47.13545, -3802.028564453125], [-124.11745, 47.13572, -4306.5791015625], [-124.12298, 47.13085, -3770.803466796875]]], [[[-124.11745, 47.13572, -4306.5791015625], [-124.1082, 47.13545, -3802.028564453125], [-124.10929, 47.14035, -4741.0390625], [-124.11745, 47.13572, -4306.5791015625]]], [[[-124.11745, 47.13572, -4306.5791015625], [-124.10929, 47.14035, -4741.0390625], [-124.11982, 47.14001, -5188.98388671875], [-124.11745, 47.13572, -4306.5791015625]]], [[[-124.11165, 47.14463, -5623.87109375], [-124.11982, 47.14001, -5188.98388671875], [-124.10929, 47.14035, -4741.0390625], [-124.11165, 47.14463, -5623.87109375]]], [[[-124.11982, 47.14001, -5188.98388671875], [-124.11165, 47.14463, -5623.87109375], [-124.12514, 47.14374, -6142.9072265625], [-124.11982, 47.14001, -5188.98388671875]]], [[[-124.11429, 47.1488, -6501.40869140625], [-124.12514, 47.14374, -6142.9072265625], [-124.11165, 47.14463, -5623.87109375], [-124.11429, 47.1488, -6501.40869140625]]], [[[-124.11429, 47.1488, -6501.40869140625], [-124.11165, 47.14463, -5623.87109375], [-124.10206, 47.14946, -6054.2724609375], [-124.11429, 47.1488, -6501.40869140625]]], [[[-124.11429, 47.1488, -6501.40869140625], [-124.10206, 47.14946, -6054.2724609375], [-124.10437, 47.15373, -6929.927734375], [-124.11429, 47.1488, -6501.40869140625]]], [[[-124.10206, 47.14946, -6054.2724609375], [-124.09233, 47.15393, -6516.9013671875], [-124.10437, 47.15373, -6929.927734375], [-124.10206, 47.14946, -6054.2724609375]]], [[[-124.09233, 47.15393, -6516.9013671875], [-124.10206, 47.14946, -6054.2724609375], [-124.09002, 47.14968, -5640.232421875], [-124.09233, 47.15393, -6516.9013671875]]], [[[-124.09233, 47.15393, -6516.9013671875], [-124.09002, 47.14968, -5640.232421875], [-124.08019, 47.15388, -6120.322265625], [-124.09233, 47.15393, -6516.9013671875]]], [[[-124.09233, 47.15393, -6516.9013671875], [-124.08019, 47.15388, -6120.322265625], [-124.0825, 47.15815, -6995.99169921875], [-124.09233, 47.15393, -6516.9013671875]]], [[[-124.09002, 47.14968, -5640.232421875], [-124.07787, 47.14961, -5244.6533203125], [-124.08019, 47.15388, -6120.322265625], [-124.09002, 47.14968, -5640.232421875]]], [[[-124.09002, 47.14968, -5640.232421875], [-124.08771, 47.14542, -4763.5634765625], [-124.07787, 47.14961, -5244.6533203125], [-124.09002, 47.14968, -5640.232421875]]], [[[-124.09002, 47.14968, -5640.232421875], [-124.09974, 47.14519, -5178.6171875], [-124.08771, 47.14542, -4763.5634765625], [-124.09002, 47.14968, -5640.232421875]]], [[[-124.09974, 47.14519, -5178.6171875], [-124.09002, 47.14968, -5640.232421875], [-124.10206, 47.14946, -6054.2724609375], [-124.09974, 47.14519, -5178.6171875]]], [[[-124.11165, 47.14463, -5623.87109375], [-124.09974, 47.14519, -5178.6171875], [-124.10206, 47.14946, -6054.2724609375], [-124.11165, 47.14463, -5623.87109375]]], [[[-124.11165, 47.14463, -5623.87109375], [-124.10929, 47.14035, -4741.0390625], [-124.09974, 47.14519, -5178.6171875], [-124.11165, 47.14463, -5623.87109375]]], [[[-124.10929, 47.14035, -4741.0390625], [-124.0975, 47.14089, -4299.2783203125], [-124.09974, 47.14519, -5178.6171875], [-124.10929, 47.14035, -4741.0390625]]], [[[-124.11679, 47.12903, -3101.909423828125], [-124.10523, 47.13145, -2940.664306640625], [-124.1082, 47.13545, -3802.028564453125], [-124.11679, 47.12903, -3101.909423828125]]], [[[-124.11679, 47.12903, -3101.909423828125], [-124.11588, 47.12478, -2308.52197265625], [-124.10523, 47.13145, -2940.664306640625], [-124.11679, 47.12903, -3101.909423828125]]], [[[-124.13003, 47.12549, -3128.2783203125], [-124.11588, 47.12478, -2308.52197265625], [-124.11679, 47.12903, -3101.909423828125], [-124.13003, 47.12549, -3128.2783203125]]], [[[-124.13003, 47.12549, -3128.2783203125], [-124.12846, 47.12108, -2261.9208984375], [-124.11588, 47.12478, -2308.52197265625], [-124.13003, 47.12549, -3128.2783203125]]], [[[-124.13003, 47.12549, -3128.2783203125], [-124.14172, 47.12155, -2928.3251953125], [-124.12846, 47.12108, -2261.9208984375], [-124.13003, 47.12549, -3128.2783203125]]], [[[-124.13003, 47.12549, -3128.2783203125], [-124.14387, 47.12566, -3768.213623046875], [-124.14172, 47.12155, -2928.3251953125], [-124.13003, 47.12549, -3128.2783203125]]], [[[-124.13472, 47.13007, -4166.74072265625], [-124.14387, 47.12566, -3768.213623046875], [-124.13003, 47.12549, -3128.2783203125], [-124.13472, 47.13007, -4166.74072265625]]], [[[-124.13721, 47.1346, -5097.478515625], [-124.14683, 47.12989, -4664.1865234375], [-124.13472, 47.13007, -4166.74072265625], [-124.13721, 47.1346, -5097.478515625]]], [[[-124.13898, 47.13894, -5961.2021484375], [-124.14909, 47.13406, -5520.77099609375], [-124.13721, 47.1346, -5097.478515625], [-124.13898, 47.13894, -5961.2021484375]]], [[[-124.13898, 47.13894, -5961.2021484375], [-124.15135, 47.13824, -6377.35595703125], [-124.14909, 47.13406, -5520.77099609375], [-124.13898, 47.13894, -5961.2021484375]]], [[[-124.13977, 47.14318, -6762.9814453125], [-124.15135, 47.13824, -6377.35595703125], [-124.13898, 47.13894, -5961.2021484375], [-124.13977, 47.14318, -6762.9814453125]]], [[[-124.13977, 47.14318, -6762.9814453125], [-124.1532, 47.14249, -7230.251953125], [-124.15135, 47.13824, -6377.35595703125], [-124.13977, 47.14318, -6762.9814453125]]], [[[-124.14205, 47.14733, -7615.70263671875], [-124.15546, 47.14666, -8086.541015625], [-124.1532, 47.14249, -7230.251953125], [-124.14205, 47.14733, -7615.70263671875]]], [[[-124.13001, 47.1521, -7877.93798828125], [-124.13231, 47.15635, -8749.4189453125], [-124.14432, 47.15152, -8474.921875], [-124.13001, 47.1521, -7877.93798828125]]], [[[-124.13001, 47.1521, -7877.93798828125], [-124.11895, 47.15729, -8252.171875], [-124.13231, 47.15635, -8749.4189453125], [-124.13001, 47.1521, -7877.93798828125]]], [[[-124.11895, 47.15729, -8252.171875], [-124.13001, 47.1521, -7877.93798828125], [-124.11664, 47.15304, -7376.14794921875], [-124.11895, 47.15729, -8252.171875]]], [[[-124.11895, 47.15729, -8252.171875], [-124.11664, 47.15304, -7376.14794921875], [-124.10669, 47.158, -7805.5830078125], [-124.11895, 47.15729, -8252.171875]]], [[[-124.11895, 47.15729, -8252.171875], [-124.10669, 47.158, -7805.5830078125], [-124.109, 47.16227, -8681.23828125], [-124.11895, 47.15729, -8252.171875]]], [[[-124.12125, 47.16154, -9128.443359375], [-124.13231, 47.15635, -8749.4189453125], [-124.11895, 47.15729, -8252.171875], [-124.12125, 47.16154, -9128.443359375]]], [[[-124.13231, 47.15635, -8749.4189453125], [-124.12125, 47.16154, -9128.443359375], [-124.13461, 47.1606, -9621.154296875], [-124.13231, 47.15635, -8749.4189453125]]], [[[-124.13231, 47.15635, -8749.4189453125], [-124.13461, 47.1606, -9621.154296875], [-124.1466, 47.15572, -9335.044921875], [-124.13231, 47.15635, -8749.4189453125]]], [[[-124.14432, 47.15152, -8474.921875], [-124.1466, 47.15572, -9335.044921875], [-124.15773, 47.15084, -8943.36328125], [-124.14432, 47.15152, -8474.921875]]], [[[-124.16754, 47.1457, -8538.0537109375], [-124.15773, 47.15084, -8943.36328125], [-124.1698, 47.14988, -9394.6015625], [-124.16754, 47.1457, -8538.0537109375]]], [[[-124.16754, 47.1457, -8538.0537109375], [-124.1698, 47.14988, -9394.6015625], [-124.17918, 47.14476, -8989.265625], [-124.16754, 47.1457, -8538.0537109375]]], [[[-124.16754, 47.1457, -8538.0537109375], [-124.17918, 47.14476, -8989.265625], [-124.17691, 47.14058, -8132.802734375], [-124.16754, 47.1457, -8538.0537109375]]], [[[-124.16528, 47.14152, -7681.5068359375], [-124.16754, 47.1457, -8538.0537109375], [-124.17691, 47.14058, -8132.802734375], [-124.16528, 47.14152, -7681.5068359375]]], [[[-124.16528, 47.14152, -7681.5068359375], [-124.15546, 47.14666, -8086.541015625], [-124.16754, 47.1457, -8538.0537109375], [-124.16528, 47.14152, -7681.5068359375]]], [[[-124.16528, 47.14152, -7681.5068359375], [-124.16301, 47.13735, -6824.95947265625], [-124.1532, 47.14249, -7230.251953125], [-124.16528, 47.14152, -7681.5068359375]]], [[[-124.16528, 47.14152, -7681.5068359375], [-124.17691, 47.14058, -8132.802734375], [-124.17465, 47.1364, -7276.3408203125], [-124.16528, 47.14152, -7681.5068359375]]], [[[-124.18144, 47.14893, -9845.7275390625], [-124.1909, 47.14395, -9430.8681640625], [-124.17918, 47.14476, -8989.265625], [-124.18144, 47.14893, -9845.7275390625]]], [[[-124.18371, 47.15311, -10702.189453125], [-124.19317, 47.14813, -10287.3115234375], [-124.18144, 47.14893, -9845.7275390625], [-124.18371, 47.15311, -10702.189453125]]], [[[-124.18371, 47.15311, -10702.189453125], [-124.19543, 47.1523, -11143.7548828125], [-124.19317, 47.14813, -10287.3115234375], [-124.18371, 47.15311, -10702.189453125]]], [[[-124.18597, 47.15729, -11558.6513671875], [-124.1977, 47.15648, -12000.1982421875], [-124.19543, 47.1523, -11143.7548828125], [-124.18597, 47.15729, -11558.6513671875]]], [[[-124.18824, 47.16146, -12415.1142578125], [-124.19997, 47.16066, -12856.6416015625], [-124.1977, 47.15648, -12000.1982421875], [-124.18824, 47.16146, -12415.1142578125]]], [[[-124.1905, 47.16564, -13271.576171875], [-124.19997, 47.16066, -12856.6416015625], [-124.18824, 47.16146, -12415.1142578125], [-124.1905, 47.16564, -13271.576171875]]], [[[-124.19277, 47.16982, -14128.0380859375], [-124.2045, 47.16901, -14569.52734375], [-124.20223, 47.16483, -13713.083984375], [-124.19277, 47.16982, -14128.0380859375]]], [[[-124.19277, 47.16982, -14128.0380859375], [-124.19504, 47.17399, -14984.529296875], [-124.2045, 47.16901, -14569.52734375], [-124.19277, 47.16982, -14128.0380859375]]], [[[-124.17594, 47.18423, -15798.900390625], [-124.17821, 47.18841, -16655.724609375], [-124.18792, 47.18328, -16246.978515625], [-124.17594, 47.18423, -15798.900390625]]], [[[-124.16486, 47.18927, -16216.0400390625], [-124.17821, 47.18841, -16655.724609375], [-124.17594, 47.18423, -15798.900390625], [-124.16486, 47.18927, -16216.0400390625]]], [[[-124.16942, 47.19766, -17937.330078125], [-124.18048, 47.19259, -17512.64453125], [-124.16713, 47.19346, -17076.232421875], [-124.16942, 47.19766, -17937.330078125]]], [[[-124.17171, 47.20191, -18806.63671875], [-124.18274, 47.19677, -18370.384765625], [-124.16942, 47.19766, -17937.330078125], [-124.17171, 47.20191, -18806.63671875]]], [[[-124.17403, 47.20641, -19724.001953125], [-124.18489, 47.201, -19233.44921875], [-124.17171, 47.20191, -18806.63671875], [-124.17403, 47.20641, -19724.001953125]]], [[[-124.17403, 47.20641, -19724.001953125], [-124.18765, 47.20516, -20108.05859375], [-124.18489, 47.201, -19233.44921875], [-124.17403, 47.20641, -19724.001953125]]], [[[-124.17403, 47.20641, -19724.001953125], [-124.1798, 47.21012, -20653.798828125], [-124.18765, 47.20516, -20108.05859375], [-124.17403, 47.20641, -19724.001953125]]], [[[-124.17403, 47.20641, -19724.001953125], [-124.17057, 47.21201, -20596.109375], [-124.1798, 47.21012, -20653.798828125], [-124.17403, 47.20641, -19724.001953125]]], [[[-124.17171, 47.20191, -18806.63671875], [-124.15766, 47.20308, -18339.712890625], [-124.15998, 47.20734, -19214.068359375], [-124.17171, 47.20191, -18806.63671875]]], [[[-124.17171, 47.20191, -18806.63671875], [-124.16942, 47.19766, -17937.330078125], [-124.15766, 47.20308, -18339.712890625], [-124.17171, 47.20191, -18806.63671875]]], [[[-124.16942, 47.19766, -17937.330078125], [-124.16713, 47.19346, -17076.232421875], [-124.15534, 47.19883, -17467.302734375], [-124.16942, 47.19766, -17937.330078125]]], [[[-124.17057, 47.21201, -20596.109375], [-124.17211, 47.21669, -21514.87109375], [-124.1798, 47.21012, -20653.798828125], [-124.17057, 47.21201, -20596.109375]]], [[[-124.18489, 47.201, -19233.44921875], [-124.19699, 47.19998, -19673.166015625], [-124.19472, 47.19581, -18816.619140625], [-124.18489, 47.201, -19233.44921875]]], [[[-124.19472, 47.19581, -18816.619140625], [-124.20637, 47.19487, -19267.28515625], [-124.20411, 47.19069, -18410.734375], [-124.19472, 47.19581, -18816.619140625]]], [[[-124.19931, 47.20452, -20595.185546875], [-124.21053, 47.20349, -21013.349609375], [-124.20864, 47.19904, -20123.8359375], [-124.19931, 47.20452, -20595.185546875]]], [[[-124.19931, 47.20452, -20595.185546875], [-124.20209, 47.20953, -21628.201171875], [-124.21053, 47.20349, -21013.349609375], [-124.19931, 47.20452, -20595.185546875]]], [[[-124.19172, 47.20952, -21075.763671875], [-124.1838, 47.2135, -21444.609375], [-124.1944, 47.21413, -22029.5078125], [-124.19172, 47.20952, -21075.763671875]]], [[[-124.1944, 47.21413, -22029.5078125], [-124.1838, 47.2135, -21444.609375], [-124.18278, 47.21797, -22205.6171875], [-124.1944, 47.21413, -22029.5078125]]], [[[-124.18278, 47.21797, -22205.6171875], [-124.18089, 47.22289, -23015.373046875], [-124.19315, 47.2189, -22840.7421875], [-124.18278, 47.21797, -22205.6171875]]], [[[-124.18278, 47.21797, -22205.6171875], [-124.16975, 47.22202, -22329.802734375], [-124.18089, 47.22289, -23015.373046875], [-124.18278, 47.21797, -22205.6171875]]], [[[-124.17211, 47.21669, -21514.87109375], [-124.16975, 47.22202, -22329.802734375], [-124.18278, 47.21797, -22205.6171875], [-124.17211, 47.21669, -21514.87109375]]], [[[-124.17211, 47.21669, -21514.87109375], [-124.1565, 47.22154, -21614.498046875], [-124.16975, 47.22202, -22329.802734375], [-124.17211, 47.21669, -21514.87109375]]], [[[-124.16213, 47.2168, -21008.697265625], [-124.1565, 47.22154, -21614.498046875], [-124.17211, 47.21669, -21514.87109375], [-124.16213, 47.2168, -21008.697265625]]], [[[-124.16213, 47.2168, -21008.697265625], [-124.1511, 47.21707, -20560.033203125], [-124.1565, 47.22154, -21614.498046875], [-124.16213, 47.2168, -21008.697265625]]], [[[-124.1511, 47.21707, -20560.033203125], [-124.14225, 47.22207, -20982.271484375], [-124.1565, 47.22154, -21614.498046875], [-124.1511, 47.21707, -20560.033203125]]], [[[-124.1511, 47.21707, -20560.033203125], [-124.13915, 47.21775, -20064.7578125], [-124.14225, 47.22207, -20982.271484375], [-124.1511, 47.21707, -20560.033203125]]], [[[-124.1511, 47.21707, -20560.033203125], [-124.14876, 47.21262, -19645.66796875], [-124.13915, 47.21775, -20064.7578125], [-124.1511, 47.21707, -20560.033203125]]], [[[-124.14876, 47.21262, -19645.66796875], [-124.13683, 47.21348, -19189.103515625], [-124.13915, 47.21775, -20064.7578125], [-124.14876, 47.21262, -19645.66796875]]], [[[-124.14876, 47.21262, -19645.66796875], [-124.14665, 47.20831, -18768.142578125], [-124.13683, 47.21348, -19189.103515625], [-124.14876, 47.21262, -19645.66796875]]], [[[-124.14665, 47.20831, -18768.142578125], [-124.13451, 47.20922, -18313.447265625], [-124.13683, 47.21348, -19189.103515625], [-124.14665, 47.20831, -18768.142578125]]], [[[-124.14665, 47.20831, -18768.142578125], [-124.14434, 47.20406, -17891.58203125], [-124.13451, 47.20922, -18313.447265625], [-124.14665, 47.20831, -18768.142578125]]], [[[-124.14434, 47.20406, -17891.58203125], [-124.13219, 47.20495, -17437.79296875], [-124.13451, 47.20922, -18313.447265625], [-124.14434, 47.20406, -17891.58203125]]], [[[-124.14434, 47.20406, -17891.58203125], [-124.14203, 47.19981, -17015.240234375], [-124.13219, 47.20495, -17437.79296875], [-124.14434, 47.20406, -17891.58203125]]], [[[-124.14203, 47.19981, -17015.240234375], [-124.12987, 47.20068, -16562.13671875], [-124.13219, 47.20495, -17437.79296875], [-124.14203, 47.19981, -17015.240234375]]], [[[-124.14203, 47.19981, -17015.240234375], [-124.13972, 47.19556, -16138.923828125], [-124.12987, 47.20068, -16562.13671875], [-124.14203, 47.19981, -17015.240234375]]], [[[-124.13972, 47.19556, -16138.923828125], [-124.12755, 47.19641, -15686.4814453125], [-124.12987, 47.20068, -16562.13671875], [-124.13972, 47.19556, -16138.923828125]]], [[[-124.13972, 47.19556, -16138.923828125], [-124.13741, 47.1913, -15262.6123046875], [-124.12755, 47.19641, -15686.4814453125], [-124.13972, 47.19556, -16138.923828125]]], [[[-124.13741, 47.1913, -15262.6123046875], [-124.12523, 47.19214, -14810.826171875], [-124.12755, 47.19641, -15686.4814453125], [-124.13741, 47.1913, -15262.6123046875]]], [[[-124.13915, 47.21775, -20064.7578125], [-124.12932, 47.22198, -20543.603515625], [-124.14225, 47.22207, -20982.271484375], [-124.13915, 47.21775, -20064.7578125]]], [[[-124.1565, 47.22154, -21614.498046875], [-124.14225, 47.22207, -20982.271484375], [-124.14474, 47.22628, -21853.71875], [-124.1565, 47.22154, -21614.498046875]]], [[[-124.1565, 47.22154, -21614.498046875], [-124.14474, 47.22628, -21853.71875], [-124.15762, 47.22627, -22524.0859375], [-124.1565, 47.22154, -21614.498046875]]], [[[-124.1565, 47.22154, -21614.498046875], [-124.15762, 47.22627, -22524.0859375], [-124.16975, 47.22202, -22329.802734375], [-124.1565, 47.22154, -21614.498046875]]], [[[-124.16975, 47.22202, -22329.802734375], [-124.15762, 47.22627, -22524.0859375], [-124.16846, 47.22721, -23185.517578125], [-124.16975, 47.22202, -22329.802734375]]], [[[-124.18089, 47.22289, -23015.373046875], [-124.16975, 47.22202, -22329.802734375], [-124.16846, 47.22721, -23185.517578125], [-124.18089, 47.22289, -23015.373046875]]], [[[-124.16846, 47.22721, -23185.517578125], [-124.17855, 47.22791, -23831.2734375], [-124.18089, 47.22289, -23015.373046875], [-124.16846, 47.22721, -23185.517578125]]], [[[-124.16846, 47.22721, -23185.517578125], [-124.16642, 47.23224, -24004.76171875], [-124.17855, 47.22791, -23831.2734375], [-124.16846, 47.22721, -23185.517578125]]], [[[-124.16846, 47.22721, -23185.517578125], [-124.15623, 47.23149, -23368.712890625], [-124.16642, 47.23224, -24004.76171875], [-124.16846, 47.22721, -23185.517578125]]], [[[-124.15762, 47.22627, -22524.0859375], [-124.15623, 47.23149, -23368.712890625], [-124.16846, 47.22721, -23185.517578125], [-124.15762, 47.22627, -22524.0859375]]], [[[-124.15762, 47.22627, -22524.0859375], [-124.14612, 47.23055, -22691.724609375], [-124.15623, 47.23149, -23368.712890625], [-124.15762, 47.22627, -22524.0859375]]], [[[-124.14612, 47.23055, -22691.724609375], [-124.15762, 47.22627, -22524.0859375], [-124.14474, 47.22628, -21853.71875], [-124.14612, 47.23055, -22691.724609375]]], [[[-124.15623, 47.23149, -23368.712890625], [-124.14612, 47.23055, -22691.724609375], [-124.14543, 47.23534, -23557.81640625], [-124.15623, 47.23149, -23368.712890625]]], [[[-124.15623, 47.23149, -23368.712890625], [-124.14543, 47.23534, -23557.81640625], [-124.15441, 47.23673, -24174.060546875], [-124.15623, 47.23149, -23368.712890625]]], [[[-124.15623, 47.23149, -23368.712890625], [-124.15441, 47.23673, -24174.060546875], [-124.16642, 47.23224, -24004.76171875], [-124.15623, 47.23149, -23368.712890625]]], [[[-124.14543, 47.23534, -23557.81640625], [-124.1416, 47.24005, -24341.6875], [-124.15441, 47.23673, -24174.060546875], [-124.14543, 47.23534, -23557.81640625]]], [[[-124.13612, 47.23488, -23197.181640625], [-124.1416, 47.24005, -24341.6875], [-124.14543, 47.23534, -23557.81640625], [-124.13612, 47.23488, -23197.181640625]]], [[[-124.13612, 47.23488, -23197.181640625], [-124.13402, 47.23951, -23996.697265625], [-124.1416, 47.24005, -24341.6875], [-124.13612, 47.23488, -23197.181640625]]], [[[-124.14612, 47.23055, -22691.724609375], [-124.13612, 47.23488, -23197.181640625], [-124.14543, 47.23534, -23557.81640625], [-124.14612, 47.23055, -22691.724609375]]], [[[-124.18089, 47.22289, -23015.373046875], [-124.17855, 47.22791, -23831.2734375], [-124.19097, 47.22396, -23655.736328125], [-124.18089, 47.22289, -23015.373046875]]], [[[-124.18089, 47.22289, -23015.373046875], [-124.19097, 47.22396, -23655.736328125], [-124.19315, 47.2189, -22840.7421875], [-124.18089, 47.22289, -23015.373046875]]], [[[-124.19315, 47.2189, -22840.7421875], [-124.19097, 47.22396, -23655.736328125], [-124.20325, 47.21982, -23481.705078125], [-124.19315, 47.2189, -22840.7421875]]], [[[-124.19315, 47.2189, -22840.7421875], [-124.20325, 47.21982, -23481.705078125], [-124.20509, 47.21417, -22607.990234375], [-124.19315, 47.2189, -22840.7421875]]], [[[-124.1944, 47.21413, -22029.5078125], [-124.19315, 47.2189, -22840.7421875], [-124.20509, 47.21417, -22607.990234375], [-124.1944, 47.21413, -22029.5078125]]], [[[-124.1944, 47.21413, -22029.5078125], [-124.20509, 47.21417, -22607.990234375], [-124.20209, 47.20953, -21628.201171875], [-124.1944, 47.21413, -22029.5078125]]], [[[-124.20209, 47.20953, -21628.201171875], [-124.2129, 47.2075, -21844.6640625], [-124.21053, 47.20349, -21013.349609375], [-124.20209, 47.20953, -21628.201171875]]], [[[-124.21053, 47.20349, -21013.349609375], [-124.2129, 47.2075, -21844.6640625], [-124.22266, 47.20242, -21421.072265625], [-124.21053, 47.20349, -21013.349609375]]], [[[-124.21053, 47.20349, -21013.349609375], [-124.22266, 47.20242, -21421.072265625], [-124.22038, 47.19824, -20564.62890625], [-124.21053, 47.20349, -21013.349609375]]], [[[-124.20864, 47.19904, -20123.8359375], [-124.21053, 47.20349, -21013.349609375], [-124.22038, 47.19824, -20564.62890625], [-124.20864, 47.19904, -20123.8359375]]], [[[-124.20864, 47.19904, -20123.8359375], [-124.22038, 47.19824, -20564.62890625], [-124.21811, 47.19407, -19708.185546875], [-124.20864, 47.19904, -20123.8359375]]], [[[-124.20637, 47.19487, -19267.28515625], [-124.20864, 47.19904, -20123.8359375], [-124.21811, 47.19407, -19708.185546875], [-124.20637, 47.19487, -19267.28515625]]], [[[-124.20637, 47.19487, -19267.28515625], [-124.21811, 47.19407, -19708.185546875], [-124.21584, 47.18989, -18851.744140625], [-124.20637, 47.19487, -19267.28515625]]], [[[-124.20411, 47.19069, -18410.734375], [-124.20637, 47.19487, -19267.28515625], [-124.21584, 47.18989, -18851.744140625], [-124.20411, 47.19069, -18410.734375]]], [[[-124.20411, 47.19069, -18410.734375], [-124.21584, 47.18989, -18851.744140625], [-124.21358, 47.18571, -17995.30078125], [-124.20411, 47.19069, -18410.734375]]], [[[-124.20184, 47.18652, -17554.18359375], [-124.20411, 47.19069, -18410.734375], [-124.21358, 47.18571, -17995.30078125], [-124.20184, 47.18652, -17554.18359375]]], [[[-124.20184, 47.18652, -17554.18359375], [-124.21358, 47.18571, -17995.30078125], [-124.21131, 47.18154, -17138.857421875], [-124.20184, 47.18652, -17554.18359375]]], [[[-124.19957, 47.18234, -16697.6328125], [-124.20184, 47.18652, -17554.18359375], [-124.21131, 47.18154, -17138.857421875], [-124.19957, 47.18234, -16697.6328125]]], [[[-124.19957, 47.18234, -16697.6328125], [-124.21131, 47.18154, -17138.857421875], [-124.20904, 47.17736, -16282.4140625], [-124.19957, 47.18234, -16697.6328125]]], [[[-124.1973, 47.17817, -15841.0810546875], [-124.19957, 47.18234, -16697.6328125], [-124.20904, 47.17736, -16282.4140625], [-124.1973, 47.17817, -15841.0810546875]]], [[[-124.18792, 47.18328, -16246.978515625], [-124.19957, 47.18234, -16697.6328125], [-124.1973, 47.17817, -15841.0810546875], [-124.18792, 47.18328, -16246.978515625]]], [[[-124.1973, 47.17817, -15841.0810546875], [-124.20904, 47.17736, -16282.4140625], [-124.20677, 47.17318, -15425.970703125], [-124.1973, 47.17817, -15841.0810546875]]], [[[-124.19504, 47.17399, -14984.529296875], [-124.1973, 47.17817, -15841.0810546875], [-124.20677, 47.17318, -15425.970703125], [-124.19504, 47.17399, -14984.529296875]]], [[[-124.19504, 47.17399, -14984.529296875], [-124.20677, 47.17318, -15425.970703125], [-124.2045, 47.16901, -14569.52734375], [-124.19504, 47.17399, -14984.529296875]]], [[[-124.2129, 47.2075, -21844.6640625], [-124.22493, 47.2066, -22277.515625], [-124.22266, 47.20242, -21421.072265625], [-124.2129, 47.2075, -21844.6640625]]], [[[-124.2129, 47.2075, -21844.6640625], [-124.21647, 47.21067, -22576.869140625], [-124.22493, 47.2066, -22277.515625], [-124.2129, 47.2075, -21844.6640625]]], [[[-124.2129, 47.2075, -21844.6640625], [-124.20509, 47.21417, -22607.990234375], [-124.21647, 47.21067, -22576.869140625], [-124.2129, 47.2075, -21844.6640625]]], [[[-124.20509, 47.21417, -22607.990234375], [-124.21506, 47.21508, -23310.34375], [-124.21647, 47.21067, -22576.869140625], [-124.20509, 47.21417, -22607.990234375]]], [[[-124.20509, 47.21417, -22607.990234375], [-124.20325, 47.21982, -23481.705078125], [-124.21506, 47.21508, -23310.34375], [-124.20509, 47.21417, -22607.990234375]]], [[[-124.21647, 47.21067, -22576.869140625], [-124.21506, 47.21508, -23310.34375], [-124.2272, 47.21077, -23133.958984375], [-124.21647, 47.21067, -22576.869140625]]], [[[-124.21647, 47.21067, -22576.869140625], [-124.2272, 47.21077, -23133.958984375], [-124.22493, 47.2066, -22277.515625], [-124.21647, 47.21067, -22576.869140625]]], [[[-124.17211, 47.21669, -21514.87109375], [-124.18278, 47.21797, -22205.6171875], [-124.1838, 47.2135, -21444.609375], [-124.17211, 47.21669, -21514.87109375]]], [[[-124.13279, 47.1828, -13509.990234375], [-124.12059, 47.18361, -13059.515625], [-124.12291, 47.18788, -13935.1708984375], [-124.13279, 47.1828, -13509.990234375]]], [[[-124.13279, 47.1828, -13509.990234375], [-124.13048, 47.17855, -12633.677734375], [-124.12059, 47.18361, -13059.515625], [-124.13279, 47.1828, -13509.990234375]]], [[[-124.13279, 47.1828, -13509.990234375], [-124.14382, 47.17759, -13108.32421875], [-124.13048, 47.17855, -12633.677734375], [-124.13279, 47.1828, -13509.990234375]]], [[[-124.15802, 47.17669, -13636.2353515625], [-124.14382, 47.17759, -13108.32421875], [-124.14612, 47.18184, -13980.1171875], [-124.15802, 47.17669, -13636.2353515625]]], [[[-124.15802, 47.17669, -13636.2353515625], [-124.15573, 47.1725, -12776.33984375], [-124.14382, 47.17759, -13108.32421875], [-124.15802, 47.17669, -13636.2353515625]]], [[[-124.15573, 47.1725, -12776.33984375], [-124.15802, 47.17669, -13636.2353515625], [-124.16914, 47.1717, -13228.302734375], [-124.15573, 47.1725, -12776.33984375]]], [[[-124.15573, 47.1725, -12776.33984375], [-124.16914, 47.1717, -13228.302734375], [-124.16679, 47.16755, -12371.0390625], [-124.15573, 47.1725, -12776.33984375]]], [[[-124.15344, 47.1683, -11915.7060546875], [-124.15573, 47.1725, -12776.33984375], [-124.16679, 47.16755, -12371.0390625], [-124.15344, 47.1683, -11915.7060546875]]], [[[-124.15573, 47.1725, -12776.33984375], [-124.15344, 47.1683, -11915.7060546875], [-124.14151, 47.17334, -12236.5244140625], [-124.15573, 47.1725, -12776.33984375]]], [[[-124.14151, 47.17334, -12236.5244140625], [-124.14382, 47.17759, -13108.32421875], [-124.15573, 47.1725, -12776.33984375], [-124.14151, 47.17334, -12236.5244140625]]], [[[-124.14151, 47.17334, -12236.5244140625], [-124.13048, 47.17855, -12633.677734375], [-124.14382, 47.17759, -13108.32421875], [-124.14151, 47.17334, -12236.5244140625]]], [[[-124.13048, 47.17855, -12633.677734375], [-124.14151, 47.17334, -12236.5244140625], [-124.12817, 47.1743, -11757.365234375], [-124.13048, 47.17855, -12633.677734375]]], [[[-124.13048, 47.17855, -12633.677734375], [-124.12817, 47.1743, -11757.365234375], [-124.11827, 47.17934, -12183.8603515625], [-124.13048, 47.17855, -12633.677734375]]], [[[-124.13048, 47.17855, -12633.677734375], [-124.11827, 47.17934, -12183.8603515625], [-124.12059, 47.18361, -13059.515625], [-124.13048, 47.17855, -12633.677734375]]], [[[-124.12817, 47.1743, -11757.365234375], [-124.11596, 47.17507, -11308.2041015625], [-124.11827, 47.17934, -12183.8603515625], [-124.12817, 47.1743, -11757.365234375]]], [[[-124.12817, 47.1743, -11757.365234375], [-124.12587, 47.17004, -10881.0546875], [-124.11596, 47.17507, -11308.2041015625], [-124.12817, 47.1743, -11757.365234375]]], [[[-124.12817, 47.1743, -11757.365234375], [-124.13921, 47.1691, -11364.6943359375], [-124.12587, 47.17004, -10881.0546875], [-124.12817, 47.1743, -11757.365234375]]], [[[-124.13921, 47.1691, -11364.6943359375], [-124.12817, 47.1743, -11757.365234375], [-124.14151, 47.17334, -12236.5244140625], [-124.13921, 47.1691, -11364.6943359375]]], [[[-124.13921, 47.1691, -11364.6943359375], [-124.14151, 47.17334, -12236.5244140625], [-124.15344, 47.1683, -11915.7060546875], [-124.13921, 47.1691, -11364.6943359375]]], [[[-124.15344, 47.1683, -11915.7060546875], [-124.15116, 47.16411, -11055.44921875], [-124.13921, 47.1691, -11364.6943359375], [-124.15344, 47.1683, -11915.7060546875]]], [[[-124.15116, 47.16411, -11055.44921875], [-124.15344, 47.1683, -11915.7060546875], [-124.16452, 47.16337, -11514.076171875], [-124.15116, 47.16411, -11055.44921875]]], [[[-124.15116, 47.16411, -11055.44921875], [-124.16452, 47.16337, -11514.076171875], [-124.16226, 47.15919, -10657.1669921875], [-124.15116, 47.16411, -11055.44921875]]], [[[-124.14888, 47.15991, -10195.2431640625], [-124.15116, 47.16411, -11055.44921875], [-124.16226, 47.15919, -10657.1669921875], [-124.14888, 47.15991, -10195.2431640625]]], [[[-124.15116, 47.16411, -11055.44921875], [-124.14888, 47.15991, -10195.2431640625], [-124.13691, 47.16485, -10492.9169921875], [-124.15116, 47.16411, -11055.44921875]]], [[[-124.13691, 47.16485, -10492.9169921875], [-124.13921, 47.1691, -11364.6943359375], [-124.15116, 47.16411, -11055.44921875], [-124.13691, 47.16485, -10492.9169921875]]], [[[-124.13691, 47.16485, -10492.9169921875], [-124.12587, 47.17004, -10881.0546875], [-124.13921, 47.1691, -11364.6943359375], [-124.13691, 47.16485, -10492.9169921875]]], [[[-124.12587, 47.17004, -10881.0546875], [-124.13691, 47.16485, -10492.9169921875], [-124.12356, 47.16579, -10004.7470703125], [-124.12587, 47.17004, -10881.0546875]]], [[[-124.12587, 47.17004, -10881.0546875], [-124.12356, 47.16579, -10004.7470703125], [-124.11364, 47.1708, -10432.548828125], [-124.12587, 47.17004, -10881.0546875]]], [[[-124.12587, 47.17004, -10881.0546875], [-124.11364, 47.1708, -10432.548828125], [-124.11596, 47.17507, -11308.2041015625], [-124.12587, 47.17004, -10881.0546875]]], [[[-124.12356, 47.16579, -10004.7470703125], [-124.11132, 47.16654, -9556.8935546875], [-124.11364, 47.1708, -10432.548828125], [-124.12356, 47.16579, -10004.7470703125]]], [[[-124.12356, 47.16579, -10004.7470703125], [-124.12125, 47.16154, -9128.443359375], [-124.11132, 47.16654, -9556.8935546875], [-124.12356, 47.16579, -10004.7470703125]]], [[[-124.12356, 47.16579, -10004.7470703125], [-124.13461, 47.1606, -9621.154296875], [-124.12125, 47.16154, -9128.443359375], [-124.12356, 47.16579, -10004.7470703125]]], [[[-124.13461, 47.1606, -9621.154296875], [-124.12356, 47.16579, -10004.7470703125], [-124.13691, 47.16485, -10492.9169921875], [-124.13461, 47.1606, -9621.154296875]]], [[[-124.13461, 47.1606, -9621.154296875], [-124.13691, 47.16485, -10492.9169921875], [-124.14888, 47.15991, -10195.2431640625], [-124.13461, 47.1606, -9621.154296875]]], [[[-124.14888, 47.15991, -10195.2431640625], [-124.1466, 47.15572, -9335.044921875], [-124.13461, 47.1606, -9621.154296875], [-124.14888, 47.15991, -10195.2431640625]]], [[[-124.1466, 47.15572, -9335.044921875], [-124.14888, 47.15991, -10195.2431640625], [-124.15999, 47.15502, -9800.2607421875], [-124.1466, 47.15572, -9335.044921875]]], [[[-124.1466, 47.15572, -9335.044921875], [-124.15999, 47.15502, -9800.2607421875], [-124.15773, 47.15084, -8943.36328125], [-124.1466, 47.15572, -9335.044921875]]], [[[-124.15999, 47.15502, -9800.2607421875], [-124.1698, 47.14988, -9394.6015625], [-124.15773, 47.15084, -8943.36328125], [-124.15999, 47.15502, -9800.2607421875]]], [[[-124.1698, 47.14988, -9394.6015625], [-124.15999, 47.15502, -9800.2607421875], [-124.17207, 47.15405, -10251.1484375], [-124.1698, 47.14988, -9394.6015625]]], [[[-124.1698, 47.14988, -9394.6015625], [-124.17207, 47.15405, -10251.1484375], [-124.18144, 47.14893, -9845.7275390625], [-124.1698, 47.14988, -9394.6015625]]], [[[-124.1698, 47.14988, -9394.6015625], [-124.18144, 47.14893, -9845.7275390625], [-124.17918, 47.14476, -8989.265625], [-124.1698, 47.14988, -9394.6015625]]], [[[-124.17207, 47.15405, -10251.1484375], [-124.18371, 47.15311, -10702.189453125], [-124.18144, 47.14893, -9845.7275390625], [-124.17207, 47.15405, -10251.1484375]]], [[[-124.17207, 47.15405, -10251.1484375], [-124.17433, 47.15823, -11107.6953125], [-124.18371, 47.15311, -10702.189453125], [-124.17207, 47.15405, -10251.1484375]]], [[[-124.17207, 47.15405, -10251.1484375], [-124.16226, 47.15919, -10657.1669921875], [-124.17433, 47.15823, -11107.6953125], [-124.17207, 47.15405, -10251.1484375]]], [[[-124.16226, 47.15919, -10657.1669921875], [-124.17207, 47.15405, -10251.1484375], [-124.15999, 47.15502, -9800.2607421875], [-124.16226, 47.15919, -10657.1669921875]]], [[[-124.14888, 47.15991, -10195.2431640625], [-124.16226, 47.15919, -10657.1669921875], [-124.15999, 47.15502, -9800.2607421875], [-124.14888, 47.15991, -10195.2431640625]]], [[[-124.16452, 47.16337, -11514.076171875], [-124.17433, 47.15823, -11107.6953125], [-124.16226, 47.15919, -10657.1669921875], [-124.16452, 47.16337, -11514.076171875]]], [[[-124.17433, 47.15823, -11107.6953125], [-124.16452, 47.16337, -11514.076171875], [-124.17659, 47.1624, -11964.2421875], [-124.17433, 47.15823, -11107.6953125]]], [[[-124.17433, 47.15823, -11107.6953125], [-124.17659, 47.1624, -11964.2421875], [-124.18597, 47.15729, -11558.6513671875], [-124.17433, 47.15823, -11107.6953125]]], [[[-124.17433, 47.15823, -11107.6953125], [-124.18597, 47.15729, -11558.6513671875], [-124.18371, 47.15311, -10702.189453125], [-124.17433, 47.15823, -11107.6953125]]], [[[-124.17659, 47.1624, -11964.2421875], [-124.18824, 47.16146, -12415.1142578125], [-124.18597, 47.15729, -11558.6513671875], [-124.17659, 47.1624, -11964.2421875]]], [[[-124.17659, 47.1624, -11964.2421875], [-124.17886, 47.16658, -12820.7900390625], [-124.18824, 47.16146, -12415.1142578125], [-124.17659, 47.1624, -11964.2421875]]], [[[-124.17659, 47.1624, -11964.2421875], [-124.16679, 47.16755, -12371.0390625], [-124.17886, 47.16658, -12820.7900390625], [-124.17659, 47.1624, -11964.2421875]]], [[[-124.16679, 47.16755, -12371.0390625], [-124.17659, 47.1624, -11964.2421875], [-124.16452, 47.16337, -11514.076171875], [-124.16679, 47.16755, -12371.0390625]]], [[[-124.15344, 47.1683, -11915.7060546875], [-124.16679, 47.16755, -12371.0390625], [-124.16452, 47.16337, -11514.076171875], [-124.15344, 47.1683, -11915.7060546875]]], [[[-124.16914, 47.1717, -13228.302734375], [-124.17886, 47.16658, -12820.7900390625], [-124.16679, 47.16755, -12371.0390625], [-124.16914, 47.1717, -13228.302734375]]], [[[-124.17886, 47.16658, -12820.7900390625], [-124.18112, 47.17075, -13677.3369140625], [-124.1905, 47.16564, -13271.576171875], [-124.17886, 47.16658, -12820.7900390625]]], [[[-124.17886, 47.16658, -12820.7900390625], [-124.1905, 47.16564, -13271.576171875], [-124.18824, 47.16146, -12415.1142578125], [-124.17886, 47.16658, -12820.7900390625]]], [[[-124.18112, 47.17075, -13677.3369140625], [-124.19277, 47.16982, -14128.0380859375], [-124.1905, 47.16564, -13271.576171875], [-124.18112, 47.17075, -13677.3369140625]]], [[[-124.18112, 47.17075, -13677.3369140625], [-124.18339, 47.17493, -14533.8837890625], [-124.19277, 47.16982, -14128.0380859375], [-124.18112, 47.17075, -13677.3369140625]]], [[[-124.18112, 47.17075, -13677.3369140625], [-124.17141, 47.17588, -14085.1796875], [-124.18339, 47.17493, -14533.8837890625], [-124.18112, 47.17075, -13677.3369140625]]], [[[-124.17141, 47.17588, -14085.1796875], [-124.18112, 47.17075, -13677.3369140625], [-124.16914, 47.1717, -13228.302734375], [-124.17141, 47.17588, -14085.1796875]]], [[[-124.15802, 47.17669, -13636.2353515625], [-124.17141, 47.17588, -14085.1796875], [-124.16914, 47.1717, -13228.302734375], [-124.15802, 47.17669, -13636.2353515625]]], [[[-124.15802, 47.17669, -13636.2353515625], [-124.1603, 47.18088, -14496.8125], [-124.17141, 47.17588, -14085.1796875], [-124.15802, 47.17669, -13636.2353515625]]], [[[-124.15802, 47.17669, -13636.2353515625], [-124.14612, 47.18184, -13980.1171875], [-124.1603, 47.18088, -14496.8125], [-124.15802, 47.17669, -13636.2353515625]]], [[[-124.1603, 47.18088, -14496.8125], [-124.17368, 47.18006, -14942.109375], [-124.17141, 47.17588, -14085.1796875], [-124.1603, 47.18088, -14496.8125]]], [[[-124.16258, 47.18508, -15356.076171875], [-124.17368, 47.18006, -14942.109375], [-124.1603, 47.18088, -14496.8125], [-124.16258, 47.18508, -15356.076171875]]], [[[-124.16258, 47.18508, -15356.076171875], [-124.17594, 47.18423, -15798.900390625], [-124.17368, 47.18006, -14942.109375], [-124.16258, 47.18508, -15356.076171875]]], [[[-124.16486, 47.18927, -16216.0400390625], [-124.17594, 47.18423, -15798.900390625], [-124.16258, 47.18508, -15356.076171875], [-124.16486, 47.18927, -16216.0400390625]]], [[[-124.17368, 47.18006, -14942.109375], [-124.17594, 47.18423, -15798.900390625], [-124.18566, 47.1791, -15390.4306640625], [-124.17368, 47.18006, -14942.109375]]], [[[-124.17368, 47.18006, -14942.109375], [-124.18566, 47.1791, -15390.4306640625], [-124.18339, 47.17493, -14533.8837890625], [-124.17368, 47.18006, -14942.109375]]], [[[-124.17141, 47.17588, -14085.1796875], [-124.17368, 47.18006, -14942.109375], [-124.18339, 47.17493, -14533.8837890625], [-124.17141, 47.17588, -14085.1796875]]], [[[-124.12125, 47.16154, -9128.443359375], [-124.109, 47.16227, -8681.23828125], [-124.11132, 47.16654, -9556.8935546875], [-124.12125, 47.16154, -9128.443359375]]], [[[-124.18411, 47.13142, -6861.5390625], [-124.17465, 47.1364, -7276.3408203125], [-124.18637, 47.13559, -7717.982421875], [-124.18411, 47.13142, -6861.5390625]]], [[[-124.17238, 47.13223, -6419.87841796875], [-124.17465, 47.1364, -7276.3408203125], [-124.18411, 47.13142, -6861.5390625], [-124.17238, 47.13223, -6419.87841796875]]], [[[-124.16301, 47.13735, -6824.95947265625], [-124.17465, 47.1364, -7276.3408203125], [-124.17238, 47.13223, -6419.87841796875], [-124.16301, 47.13735, -6824.95947265625]]], [[[-124.16301, 47.13735, -6824.95947265625], [-124.17238, 47.13223, -6419.87841796875], [-124.16075, 47.13317, -5968.41259765625], [-124.16301, 47.13735, -6824.95947265625]]], [[[-124.15135, 47.13824, -6377.35595703125], [-124.16301, 47.13735, -6824.95947265625], [-124.16075, 47.13317, -5968.41259765625], [-124.15135, 47.13824, -6377.35595703125]]], [[[-124.15135, 47.13824, -6377.35595703125], [-124.1532, 47.14249, -7230.251953125], [-124.16301, 47.13735, -6824.95947265625], [-124.15135, 47.13824, -6377.35595703125]]], [[[-124.14909, 47.13406, -5520.77099609375], [-124.15135, 47.13824, -6377.35595703125], [-124.16075, 47.13317, -5968.41259765625], [-124.14909, 47.13406, -5520.77099609375]]], [[[-124.14909, 47.13406, -5520.77099609375], [-124.16075, 47.13317, -5968.41259765625], [-124.15849, 47.129, -5111.865234375], [-124.14909, 47.13406, -5520.77099609375]]], [[[-124.14683, 47.12989, -4664.1865234375], [-124.14909, 47.13406, -5520.77099609375], [-124.15849, 47.129, -5111.865234375], [-124.14683, 47.12989, -4664.1865234375]]], [[[-124.14683, 47.12989, -4664.1865234375], [-124.15849, 47.129, -5111.865234375], [-124.15623, 47.12482, -4255.318359375], [-124.14683, 47.12989, -4664.1865234375]]], [[[-124.14387, 47.12566, -3768.213623046875], [-124.15623, 47.12482, -4255.318359375], [-124.15397, 47.12064, -3398.771240234375], [-124.14387, 47.12566, -3768.213623046875]]], [[[-124.14172, 47.12155, -2928.3251953125], [-124.14387, 47.12566, -3768.213623046875], [-124.15397, 47.12064, -3398.771240234375], [-124.14172, 47.12155, -2928.3251953125]]], [[[-124.14172, 47.12155, -2928.3251953125], [-124.15397, 47.12064, -3398.771240234375], [-124.15148, 47.11636, -2511.2421875], [-124.14172, 47.12155, -2928.3251953125]]], [[[-124.13978, 47.11774, -2151.44921875], [-124.14172, 47.12155, -2928.3251953125], [-124.15148, 47.11636, -2511.2421875], [-124.13978, 47.11774, -2151.44921875]]], [[[-124.13978, 47.11774, -2151.44921875], [-124.12846, 47.12108, -2261.9208984375], [-124.14172, 47.12155, -2928.3251953125], [-124.13978, 47.11774, -2151.44921875]]], [[[-124.12846, 47.12108, -2261.9208984375], [-124.13978, 47.11774, -2151.44921875], [-124.13208, 47.1158, -1467.2987060546875], [-124.12846, 47.12108, -2261.9208984375]]], [[[-124.12846, 47.12108, -2261.9208984375], [-124.13208, 47.1158, -1467.2987060546875], [-124.11991, 47.1189, -1484.4097900390625], [-124.12846, 47.12108, -2261.9208984375]]], [[[-124.11588, 47.12478, -2308.52197265625], [-124.12846, 47.12108, -2261.9208984375], [-124.11991, 47.1189, -1484.4097900390625], [-124.11588, 47.12478, -2308.52197265625]]], [[[-124.11588, 47.12478, -2308.52197265625], [-124.11991, 47.1189, -1484.4097900390625], [-124.107, 47.12283, -1465.104736328125], [-124.11588, 47.12478, -2308.52197265625]]], [[[-124.10244, 47.12761, -2117.635009765625], [-124.11588, 47.12478, -2308.52197265625], [-124.107, 47.12283, -1465.104736328125], [-124.10244, 47.12761, -2117.635009765625]]], [[[-124.10244, 47.12761, -2117.635009765625], [-124.10523, 47.13145, -2940.664306640625], [-124.11588, 47.12478, -2308.52197265625], [-124.10244, 47.12761, -2117.635009765625]]], [[[-124.10523, 47.13145, -2940.664306640625], [-124.10244, 47.12761, -2117.635009765625], [-124.0928, 47.13239, -2551.651123046875], [-124.10523, 47.13145, -2940.664306640625]]], [[[-124.10523, 47.13145, -2940.664306640625], [-124.0928, 47.13239, -2551.651123046875], [-124.09511, 47.13666, -3427.306396484375], [-124.10523, 47.13145, -2940.664306640625]]], [[[-124.0928, 47.13239, -2551.651123046875], [-124.0831, 47.13692, -3010.2255859375], [-124.09511, 47.13666, -3427.306396484375], [-124.0928, 47.13239, -2551.651123046875]]], [[[-124.0928, 47.13239, -2551.651123046875], [-124.08095, 47.13253, -2112.23193359375], [-124.0831, 47.13692, -3010.2255859375], [-124.0928, 47.13239, -2551.651123046875]]], [[[-124.09174, 47.1274, -1596.6673583984375], [-124.08095, 47.13253, -2112.23193359375], [-124.0928, 47.13239, -2551.651123046875], [-124.09174, 47.1274, -1596.6673583984375]]], [[[-124.09174, 47.1274, -1596.6673583984375], [-124.07829, 47.12802, -1177.704833984375], [-124.08095, 47.13253, -2112.23193359375], [-124.09174, 47.1274, -1596.6673583984375]]], [[[-124.09174, 47.1274, -1596.6673583984375], [-124.08607, 47.12399, -736.9993286132812], [-124.07829, 47.12802, -1177.704833984375], [-124.09174, 47.1274, -1596.6673583984375]]], [[[-124.09174, 47.1274, -1596.6673583984375], [-124.09842, 47.12121, -773.2644653320312], [-124.08607, 47.12399, -736.9993286132812], [-124.09174, 47.1274, -1596.6673583984375]]], [[[-124.107, 47.12283, -1465.104736328125], [-124.09842, 47.12121, -773.2644653320312], [-124.09174, 47.1274, -1596.6673583984375], [-124.107, 47.12283, -1465.104736328125]]], [[[-124.107, 47.12283, -1465.104736328125], [-124.11161, 47.11713, -732.9326782226562], [-124.09842, 47.12121, -773.2644653320312], [-124.107, 47.12283, -1465.104736328125]]], [[[-124.11991, 47.1189, -1484.4097900390625], [-124.11161, 47.11713, -732.9326782226562], [-124.107, 47.12283, -1465.104736328125], [-124.11991, 47.1189, -1484.4097900390625]]], [[[-124.11991, 47.1189, -1484.4097900390625], [-124.12368, 47.11374, -721.9782104492188], [-124.11161, 47.11713, -732.9326782226562], [-124.11991, 47.1189, -1484.4097900390625]]], [[[-124.13208, 47.1158, -1467.2987060546875], [-124.12368, 47.11374, -721.9782104492188], [-124.11991, 47.1189, -1484.4097900390625], [-124.13208, 47.1158, -1467.2987060546875]]], [[[-124.12368, 47.11374, -721.9782104492188], [-124.13208, 47.1158, -1467.2987060546875], [-124.1364, 47.11068, -723.8955078125], [-124.12368, 47.11374, -721.9782104492188]]], [[[-124.12368, 47.11374, -721.9782104492188], [-124.1364, 47.11068, -723.8955078125], [-124.12815, 47.1085, 28.92190170288086], [-124.12368, 47.11374, -721.9782104492188]]], [[[-124.12368, 47.11374, -721.9782104492188], [-124.12815, 47.1085, 28.92190170288086], [-124.11532, 47.11167, 27.72749137878418], [-124.12368, 47.11374, -721.9782104492188]]], [[[-124.11161, 47.11713, -732.9326782226562], [-124.12368, 47.11374, -721.9782104492188], [-124.11532, 47.11167, 27.72749137878418], [-124.11161, 47.11713, -732.9326782226562]]], [[[-124.11161, 47.11713, -732.9326782226562], [-124.11532, 47.11167, 27.72749137878418], [-124.103, 47.11567, 11.869701385498047], [-124.11161, 47.11713, -732.9326782226562]]], [[[-124.11161, 47.11713, -732.9326782226562], [-124.103, 47.11567, 11.869701385498047], [-124.09842, 47.12121, -773.2644653320312], [-124.11161, 47.11713, -732.9326782226562]]], [[[-124.09023, 47.11894, 7.788735389709473], [-124.09842, 47.12121, -773.2644653320312], [-124.103, 47.11567, 11.869701385498047], [-124.09023, 47.11894, 7.788735389709473]]], [[[-124.08607, 47.12399, -736.9993286132812], [-124.09842, 47.12121, -773.2644653320312], [-124.09023, 47.11894, 7.788735389709473], [-124.08607, 47.12399, -736.9993286132812]]], [[[-124.08607, 47.12399, -736.9993286132812], [-124.09023, 47.11894, 7.788735389709473], [-124.0773, 47.12193, 5.399128437042236], [-124.08607, 47.12399, -736.9993286132812]]], [[[-124.07829, 47.12802, -1177.704833984375], [-124.08607, 47.12399, -736.9993286132812], [-124.0773, 47.12193, 5.399128437042236], [-124.07829, 47.12802, -1177.704833984375]]], [[[-124.07829, 47.12802, -1177.704833984375], [-124.0773, 47.12193, 5.399128437042236], [-124.07181, 47.1251, -430.4223937988281], [-124.07829, 47.12802, -1177.704833984375]]], [[[-124.07829, 47.12802, -1177.704833984375], [-124.07181, 47.1251, -430.4223937988281], [-124.06631, 47.12827, -866.3063354492188], [-124.07829, 47.12802, -1177.704833984375]]], [[[-124.07829, 47.12802, -1177.704833984375], [-124.06631, 47.12827, -866.3063354492188], [-124.06862, 47.13254, -1741.9757080078125], [-124.07829, 47.12802, -1177.704833984375]]], [[[-124.08095, 47.13253, -2112.23193359375], [-124.07829, 47.12802, -1177.704833984375], [-124.06862, 47.13254, -1741.9757080078125], [-124.08095, 47.13253, -2112.23193359375]]], [[[-124.08095, 47.13253, -2112.23193359375], [-124.06862, 47.13254, -1741.9757080078125], [-124.07094, 47.13681, -2617.64501953125], [-124.08095, 47.13253, -2112.23193359375]]], [[[-124.0831, 47.13692, -3010.2255859375], [-124.08095, 47.13253, -2112.23193359375], [-124.07094, 47.13681, -2617.64501953125], [-124.0831, 47.13692, -3010.2255859375]]], [[[-124.0831, 47.13692, -3010.2255859375], [-124.07094, 47.13681, -2617.64501953125], [-124.07325, 47.14108, -3493.314453125], [-124.0831, 47.13692, -3010.2255859375]]], [[[-124.08541, 47.14117, -3886.89453125], [-124.0831, 47.13692, -3010.2255859375], [-124.07325, 47.14108, -3493.314453125], [-124.08541, 47.14117, -3886.89453125]]], [[[-124.09511, 47.13666, -3427.306396484375], [-124.0831, 47.13692, -3010.2255859375], [-124.08541, 47.14117, -3886.89453125], [-124.09511, 47.13666, -3427.306396484375]]], [[[-124.09511, 47.13666, -3427.306396484375], [-124.08541, 47.14117, -3886.89453125], [-124.0975, 47.14089, -4299.2783203125], [-124.09511, 47.13666, -3427.306396484375]]], [[[-124.08771, 47.14542, -4763.5634765625], [-124.0975, 47.14089, -4299.2783203125], [-124.08541, 47.14117, -3886.89453125], [-124.08771, 47.14542, -4763.5634765625]]], [[[-124.0975, 47.14089, -4299.2783203125], [-124.08771, 47.14542, -4763.5634765625], [-124.09974, 47.14519, -5178.6171875], [-124.0975, 47.14089, -4299.2783203125]]], [[[-124.08771, 47.14542, -4763.5634765625], [-124.08541, 47.14117, -3886.89453125], [-124.07556, 47.14534, -4368.98388671875], [-124.08771, 47.14542, -4763.5634765625]]], [[[-124.08771, 47.14542, -4763.5634765625], [-124.07556, 47.14534, -4368.98388671875], [-124.07787, 47.14961, -5244.6533203125], [-124.08771, 47.14542, -4763.5634765625]]], [[[-124.08541, 47.14117, -3886.89453125], [-124.07325, 47.14108, -3493.314453125], [-124.07556, 47.14534, -4368.98388671875], [-124.08541, 47.14117, -3886.89453125]]], [[[-124.064, 47.124, 9.36299991607666], [-124.06631, 47.12827, -866.3063354492188], [-124.07181, 47.1251, -430.4223937988281], [-124.064, 47.124, 9.36299991607666]]], [[[-124.064, 47.124, 9.36299991607666], [-124.07181, 47.1251, -430.4223937988281], [-124.0773, 47.12193, 5.399128437042236], [-124.064, 47.124, 9.36299991607666]]], [[[-124.1364, 47.11068, -723.8955078125], [-124.14097, 47.10534, 14.399417877197266], [-124.12815, 47.1085, 28.92190170288086], [-124.1364, 47.11068, -723.8955078125]]], [[[-124.1364, 47.11068, -723.8955078125], [-124.14855, 47.10699, -713.9745483398438], [-124.14097, 47.10534, 14.399417877197266], [-124.1364, 47.11068, -723.8955078125]]], [[[-124.14639, 47.1124, -1525.9564208984375], [-124.14855, 47.10699, -713.9745483398438], [-124.1364, 47.11068, -723.8955078125], [-124.14639, 47.1124, -1525.9564208984375]]], [[[-124.14639, 47.1124, -1525.9564208984375], [-124.15814, 47.1068, -1185.833251953125], [-124.14855, 47.10699, -713.9745483398438], [-124.14639, 47.1124, -1525.9564208984375]]], [[[-124.14639, 47.1124, -1525.9564208984375], [-124.16019, 47.11132, -2092.83447265625], [-124.15814, 47.1068, -1185.833251953125], [-124.14639, 47.1124, -1525.9564208984375]]], [[[-124.15148, 47.11636, -2511.2421875], [-124.16019, 47.11132, -2092.83447265625], [-124.14639, 47.1124, -1525.9564208984375], [-124.15148, 47.11636, -2511.2421875]]], [[[-124.15148, 47.11636, -2511.2421875], [-124.16333, 47.11552, -2994.02978515625], [-124.16019, 47.11132, -2092.83447265625], [-124.15148, 47.11636, -2511.2421875]]], [[[-124.15397, 47.12064, -3398.771240234375], [-124.16333, 47.11552, -2994.02978515625], [-124.15148, 47.11636, -2511.2421875], [-124.15397, 47.12064, -3398.771240234375]]], [[[-124.15397, 47.12064, -3398.771240234375], [-124.1656, 47.11969, -3850.491943359375], [-124.16333, 47.11552, -2994.02978515625], [-124.15397, 47.12064, -3398.771240234375]]], [[[-124.15623, 47.12482, -4255.318359375], [-124.1656, 47.11969, -3850.491943359375], [-124.15397, 47.12064, -3398.771240234375], [-124.15623, 47.12482, -4255.318359375]]], [[[-124.15623, 47.12482, -4255.318359375], [-124.16786, 47.12387, -4706.9541015625], [-124.1656, 47.11969, -3850.491943359375], [-124.15623, 47.12482, -4255.318359375]]], [[[-124.15849, 47.129, -5111.865234375], [-124.16786, 47.12387, -4706.9541015625], [-124.15623, 47.12482, -4255.318359375], [-124.15849, 47.129, -5111.865234375]]], [[[-124.15849, 47.129, -5111.865234375], [-124.17012, 47.12805, -5563.41650390625], [-124.16786, 47.12387, -4706.9541015625], [-124.15849, 47.129, -5111.865234375]]], [[[-124.16075, 47.13317, -5968.41259765625], [-124.17012, 47.12805, -5563.41650390625], [-124.15849, 47.129, -5111.865234375], [-124.16075, 47.13317, -5968.41259765625]]], [[[-124.16075, 47.13317, -5968.41259765625], [-124.17238, 47.13223, -6419.87841796875], [-124.17012, 47.12805, -5563.41650390625], [-124.16075, 47.13317, -5968.41259765625]]], [[[-124.17012, 47.12805, -5563.41650390625], [-124.17238, 47.13223, -6419.87841796875], [-124.18184, 47.12724, -6005.09619140625], [-124.17012, 47.12805, -5563.41650390625]]], [[[-124.17012, 47.12805, -5563.41650390625], [-124.18184, 47.12724, -6005.09619140625], [-124.17958, 47.12306, -5148.65283203125], [-124.17012, 47.12805, -5563.41650390625]]], [[[-124.17012, 47.12805, -5563.41650390625], [-124.17958, 47.12306, -5148.65283203125], [-124.16786, 47.12387, -4706.9541015625], [-124.17012, 47.12805, -5563.41650390625]]], [[[-124.17731, 47.11889, -4292.2099609375], [-124.16786, 47.12387, -4706.9541015625], [-124.17958, 47.12306, -5148.65283203125], [-124.17731, 47.11889, -4292.2099609375]]], [[[-124.1656, 47.11969, -3850.491943359375], [-124.16786, 47.12387, -4706.9541015625], [-124.17731, 47.11889, -4292.2099609375], [-124.1656, 47.11969, -3850.491943359375]]], [[[-124.1656, 47.11969, -3850.491943359375], [-124.17731, 47.11889, -4292.2099609375], [-124.17505, 47.11471, -3435.7666015625], [-124.1656, 47.11969, -3850.491943359375]]], [[[-124.16333, 47.11552, -2994.02978515625], [-124.1656, 47.11969, -3850.491943359375], [-124.17505, 47.11471, -3435.7666015625], [-124.16333, 47.11552, -2994.02978515625]]], [[[-124.16333, 47.11552, -2994.02978515625], [-124.17505, 47.11471, -3435.7666015625], [-124.17279, 47.11053, -2579.323486328125], [-124.16333, 47.11552, -2994.02978515625]]], [[[-124.16019, 47.11132, -2092.83447265625], [-124.16333, 47.11552, -2994.02978515625], [-124.17279, 47.11053, -2579.323486328125], [-124.16019, 47.11132, -2092.83447265625]]], [[[-124.16019, 47.11132, -2092.83447265625], [-124.17279, 47.11053, -2579.323486328125], [-124.17052, 47.10635, -1722.8802490234375], [-124.16019, 47.11132, -2092.83447265625]]], [[[-124.15814, 47.1068, -1185.833251953125], [-124.16019, 47.11132, -2092.83447265625], [-124.17052, 47.10635, -1722.8802490234375], [-124.15814, 47.1068, -1185.833251953125]]], [[[-124.15814, 47.1068, -1185.833251953125], [-124.17052, 47.10635, -1722.8802490234375], [-124.16826, 47.10218, -866.4371337890625], [-124.15814, 47.1068, -1185.833251953125]]], [[[-124.15814, 47.1068, -1185.833251953125], [-124.16826, 47.10218, -866.4371337890625], [-124.16084, 47.10188, -424.4031677246094], [-124.15814, 47.1068, -1185.833251953125]]], [[[-124.15814, 47.1068, -1185.833251953125], [-124.16084, 47.10188, -424.4031677246094], [-124.15333, 47.10142, 6.548727035522461], [-124.15814, 47.1068, -1185.833251953125]]], [[[-124.14855, 47.10699, -713.9745483398438], [-124.15814, 47.1068, -1185.833251953125], [-124.15333, 47.10142, 6.548727035522461], [-124.14855, 47.10699, -713.9745483398438]]], [[[-124.14855, 47.10699, -713.9745483398438], [-124.15333, 47.10142, 6.548727035522461], [-124.14097, 47.10534, 14.399417877197266], [-124.14855, 47.10699, -713.9745483398438]]], [[[-124.166, 47.098, -9.994000434875488], [-124.15333, 47.10142, 6.548727035522461], [-124.16084, 47.10188, -424.4031677246094], [-124.166, 47.098, -9.994000434875488]]], [[[-124.166, 47.098, -9.994000434875488], [-124.16084, 47.10188, -424.4031677246094], [-124.16826, 47.10218, -866.4371337890625], [-124.166, 47.098, -9.994000434875488]]], [[[-124.17238, 47.13223, -6419.87841796875], [-124.18411, 47.13142, -6861.5390625], [-124.18184, 47.12724, -6005.09619140625], [-124.17238, 47.13223, -6419.87841796875]]], [[[-124.13978, 47.11774, -2151.44921875], [-124.15148, 47.11636, -2511.2421875], [-124.14639, 47.1124, -1525.9564208984375], [-124.13978, 47.11774, -2151.44921875]]], [[[-124.13978, 47.11774, -2151.44921875], [-124.14639, 47.1124, -1525.9564208984375], [-124.13208, 47.1158, -1467.2987060546875], [-124.13978, 47.11774, -2151.44921875]]], [[[-124.14639, 47.1124, -1525.9564208984375], [-124.1364, 47.11068, -723.8955078125], [-124.13208, 47.1158, -1467.2987060546875], [-124.14639, 47.1124, -1525.9564208984375]]], [[[-124.09174, 47.1274, -1596.6673583984375], [-124.10244, 47.12761, -2117.635009765625], [-124.107, 47.12283, -1465.104736328125], [-124.09174, 47.1274, -1596.6673583984375]]], [[[-124.10244, 47.12761, -2117.635009765625], [-124.09174, 47.1274, -1596.6673583984375], [-124.0928, 47.13239, -2551.651123046875], [-124.10244, 47.12761, -2117.635009765625]]], [[[-124.12893, 47.139, -5526.3896484375], [-124.13898, 47.13894, -5961.2021484375], [-124.13721, 47.1346, -5097.478515625], [-124.12893, 47.139, -5526.3896484375]]], [[[-124.12661, 47.13482, -4666.41650390625], [-124.12893, 47.139, -5526.3896484375], [-124.13721, 47.1346, -5097.478515625], [-124.12661, 47.13482, -4666.41650390625]]], [[[-124.12661, 47.13482, -4666.41650390625], [-124.13721, 47.1346, -5097.478515625], [-124.13472, 47.13007, -4166.74072265625], [-124.12661, 47.13482, -4666.41650390625]]]]}}]}