{"type": "FeatureCollection", "features": [{"type": "Feature", "properties": {"name": "Santa Rosa Range (center)", "CFM_ID": 137, "region": "Backarc_OR", "primary_state/province": "OR", "secondary_state/province": null, "avg_dip": 51, "dip_dir": "W", "rake": -90, "slip_sense": "Normal", "fault_level": 1, "NSHM23_sliprates": 0.12, "QFFDAgeCatBin": "latest Quaternary", "QFFDAgeBin": "<15,000", "upper_depth": 1.5, "upper_depth_constraint": "topography", "lower_depth": -11.3, "lower_depth_constraint": "SDL", "3D_model_constraints": "trace extended at constant dip", "reference": "US NSHM 2023", "nshm23_id": 2572.0, "lineage": "unmodified", "usgs_qffd_#": "1508b,c", "comments": null, "id": "137"}, "geometry": {"type": "MultiPolygon", "coordinates": [[[[-117.77702, 42.12015, -3769.9267578125], [-117.76853, 42.11397, -3550.73974609375], [-117.76935, 42.12135, -2970.22509765625], [-117.77702, 42.12015, -3769.9267578125]]], [[[-117.83792, 42.11306, -9925.328125], [-117.84815, 42.1162, -10616.3564453125], [-117.84171, 42.10898, -10607.728515625], [-117.83792, 42.11306, -9925.328125]]], [[[-117.82451, 42.18233, -6300.4638671875], [-117.83007, 42.18888, -6795.5107421875], [-117.83332, 42.1806, -7220.05029296875], [-117.82451, 42.18233, -6300.4638671875]]], [[[-117.83041, 42.10485, -9954.6572265625], [-117.84171, 42.10898, -10607.728515625], [-117.83583, 42.10226, -10664.5791015625], [-117.83041, 42.10485, -9954.6572265625]]], [[[-117.7588, 42.22977, 730.664306640625], [-117.7529, 42.22346, 1462.7889404296875], [-117.75095, 42.23222, 1526.355224609375], [-117.7588, 42.22977, 730.664306640625]]], [[[-117.8467, 42.13443, -9231.55078125], [-117.85461, 42.13606, -9955.5751953125], [-117.85119, 42.12917, -9958.103515625], [-117.8467, 42.13443, -9231.55078125]]], [[[-117.76168, 42.12255, -2170.5234375], [-117.76935, 42.12135, -2970.22509765625], [-117.76086, 42.11517, -2750.99609375], [-117.76168, 42.12255, -2170.5234375]]], [[[-117.75885, 42.21887, 818.3343505859375], [-117.7529, 42.22346, 1462.7889404296875], [-117.7588, 42.22977, 730.664306640625], [-117.75885, 42.21887, 818.3343505859375]]], [[[-117.82296, 42.11292, -8562.3662109375], [-117.83031, 42.11171, -9334.27734375], [-117.8222, 42.10556, -9148.9462890625], [-117.82296, 42.11292, -8562.3662109375]]], [[[-117.83722, 42.11968, -9320.6181640625], [-117.83031, 42.11171, -9334.27734375], [-117.83011, 42.11879, -8759.5693359375], [-117.83722, 42.11968, -9320.6181640625]]], [[[-117.84171, 42.10898, -10607.728515625], [-117.85074, 42.11012, -11334.5751953125], [-117.84374, 42.10294, -11328.416015625], [-117.84171, 42.10898, -10607.728515625]]], [[[-117.86717, 42.18217, -10660.3369140625], [-117.86798, 42.1912, -10663.21484375], [-117.87397, 42.18635, -11339.2021484375], [-117.86717, 42.18217, -10660.3369140625]]], [[[-117.83722, 42.11968, -9320.6181640625], [-117.84569, 42.12167, -9941.818359375], [-117.83792, 42.11306, -9925.328125], [-117.83722, 42.11968, -9320.6181640625]]], [[[-117.75885, 42.21887, 818.3343505859375], [-117.75207, 42.2146, 1472.7943115234375], [-117.7529, 42.22346, 1462.7889404296875], [-117.75885, 42.21887, 818.3343505859375]]], [[[-117.81378, 42.09935, -8924.142578125], [-117.8061, 42.10056, -8125.02490234375], [-117.81453, 42.10676, -8349.2021484375], [-117.81378, 42.09935, -8924.142578125]]], [[[-117.8222, 42.10556, -9148.9462890625], [-117.81378, 42.09935, -8924.142578125], [-117.81453, 42.10676, -8349.2021484375], [-117.8222, 42.10556, -9148.9462890625]]], [[[-117.79153, 42.11037, -5949.97119140625], [-117.7992, 42.10917, -6749.71484375], [-117.79075, 42.10297, -6526.78955078125], [-117.79153, 42.11037, -5949.97119140625]]], [[[-117.83285, 42.22026, -7005.7275390625], [-117.83631, 42.22735, -7538.76708984375], [-117.84013, 42.21912, -7762.55712890625], [-117.83285, 42.22026, -7005.7275390625]]], [[[-117.8222, 42.10556, -9148.9462890625], [-117.82145, 42.09814, -9723.2607421875], [-117.81378, 42.09935, -8924.142578125], [-117.8222, 42.10556, -9148.9462890625]]], [[[-117.75808, 42.20985, 799.2230834960938], [-117.75207, 42.2146, 1472.7943115234375], [-117.75885, 42.21887, 818.3343505859375], [-117.75808, 42.20985, 799.2230834960938]]], [[[-117.76746, 42.17419, -596.2838745117188], [-117.76042, 42.16999, 64.84008026123047], [-117.76115, 42.17853, 102.2445297241211], [-117.76746, 42.17419, -596.2838745117188]]], [[[-117.74921, 42.14648, 736.2716064453125], [-117.74087, 42.14439, 1415.9981689453125], [-117.74535, 42.15258, 1390.959228515625], [-117.74921, 42.14648, 736.2716064453125]]], [[[-117.75808, 42.20985, 799.2230834960938], [-117.75108, 42.20573, 1459.3321533203125], [-117.75207, 42.2146, 1472.7943115234375], [-117.75808, 42.20985, 799.2230834960938]]], [[[-117.72977, 42.12177, 645.8479614257812], [-117.72816, 42.12933, 1445.335693359375], [-117.73651, 42.13058, 773.7129516601562], [-117.72977, 42.12177, 645.8479614257812]]], [[[-117.75707, 42.20089, 792.9227905273438], [-117.75108, 42.20573, 1459.3321533203125], [-117.75808, 42.20985, 799.2230834960938], [-117.75707, 42.20089, 792.9227905273438]]], [[[-117.83792, 42.11306, -9925.328125], [-117.84171, 42.10898, -10607.728515625], [-117.83041, 42.10485, -9954.6572265625], [-117.83792, 42.11306, -9925.328125]]], [[[-117.76086, 42.11517, -2750.99609375], [-117.76006, 42.10779, -3330.318603515625], [-117.75238, 42.10899, -2531.200927734375], [-117.76086, 42.11517, -2750.99609375]]], [[[-117.75707, 42.20089, 792.9227905273438], [-117.7501, 42.19687, 1461.4791259765625], [-117.75108, 42.20573, 1459.3321533203125], [-117.75707, 42.20089, 792.9227905273438]]], [[[-117.75319, 42.11637, -1951.2523193359375], [-117.75238, 42.10899, -2531.200927734375], [-117.74471, 42.11019, -1732.0830078125], [-117.75319, 42.11637, -1951.2523193359375]]], [[[-117.76086, 42.11517, -2750.99609375], [-117.76853, 42.11397, -3550.73974609375], [-117.76006, 42.10779, -3330.318603515625], [-117.76086, 42.11517, -2750.99609375]]], [[[-117.83299, 42.17103, -7305.8203125], [-117.83983, 42.17574, -7945.2119140625], [-117.83894, 42.1663, -7974.25634765625], [-117.83299, 42.17103, -7305.8203125]]], [[[-117.83583, 42.10226, -10664.5791015625], [-117.8368, 42.09573, -11321.49609375], [-117.82912, 42.09693, -10522.3779296875], [-117.83583, 42.10226, -10664.5791015625]]], [[[-117.75611, 42.1921, 790.0568237304688], [-117.7501, 42.19687, 1461.4791259765625], [-117.75707, 42.20089, 792.9227905273438], [-117.75611, 42.1921, 790.0568237304688]]], [[[-117.81536, 42.11414, -7768.43505859375], [-117.82296, 42.11292, -8562.3662109375], [-117.81453, 42.10676, -8349.2021484375], [-117.81536, 42.11414, -7768.43505859375]]], [[[-117.83295, 42.13754, -7749.25537109375], [-117.841, 42.13901, -8520.703125], [-117.83826, 42.1328, -8522.6328125], [-117.83295, 42.13754, -7749.25537109375]]], [[[-117.75208, 42.13997, 76.73210144042969], [-117.74323, 42.13805, 739.517822265625], [-117.74921, 42.14648, 736.2716064453125], [-117.75208, 42.13997, 76.73210144042969]]], [[[-117.75611, 42.1921, 790.0568237304688], [-117.74911, 42.188, 1451.2396240234375], [-117.7501, 42.19687, 1461.4791259765625], [-117.75611, 42.1921, 790.0568237304688]]], [[[-117.78513, 42.12651, -4017.871826171875], [-117.78469, 42.11894, -4569.62841796875], [-117.77702, 42.12015, -3769.9267578125], [-117.78513, 42.12651, -4017.871826171875]]], [[[-117.73757, 42.11886, -317.3987121582031], [-117.73703, 42.1114, -932.96533203125], [-117.72935, 42.1126, -133.84756469726562], [-117.73757, 42.11886, -317.3987121582031]]], [[[-117.80686, 42.10796, -7549.45849609375], [-117.81453, 42.10676, -8349.2021484375], [-117.8061, 42.10056, -8125.02490234375], [-117.80686, 42.10796, -7549.45849609375]]], [[[-117.79239, 42.17089, -3177.053466796875], [-117.79029, 42.16156, -3081.587158203125], [-117.78561, 42.16729, -2532.095703125], [-117.79239, 42.17089, -3177.053466796875]]], [[[-117.75513, 42.18327, 776.931884765625], [-117.74911, 42.188, 1451.2396240234375], [-117.75611, 42.1921, 790.0568237304688], [-117.75513, 42.18327, 776.931884765625]]], [[[-117.83826, 42.1328, -8522.6328125], [-117.84278, 42.12753, -9246.931640625], [-117.83428, 42.12571, -8579.9326171875], [-117.83826, 42.1328, -8522.6328125]]], [[[-117.73757, 42.11886, -317.3987121582031], [-117.72935, 42.1126, -133.84756469726562], [-117.72977, 42.12177, 645.8479614257812], [-117.73757, 42.11886, -317.3987121582031]]], [[[-117.74634, 42.12494, -571.1199340820312], [-117.73757, 42.11886, -317.3987121582031], [-117.73871, 42.12558, 175.55433654785156], [-117.74634, 42.12494, -571.1199340820312]]], [[[-117.79641, 42.16433, -3669.425048828125], [-117.79239, 42.17089, -3177.053466796875], [-117.79949, 42.17102, -3897.787353515625], [-117.79641, 42.16433, -3669.425048828125]]], [[[-117.75513, 42.18327, 776.931884765625], [-117.74813, 42.17913, 1434.8907470703125], [-117.74911, 42.188, 1451.2396240234375], [-117.75513, 42.18327, 776.931884765625]]], [[[-117.74552, 42.11757, -1151.508544921875], [-117.73703, 42.1114, -932.96533203125], [-117.73757, 42.11886, -317.3987121582031], [-117.74552, 42.11757, -1151.508544921875]]], [[[-117.83006, 42.13065, -7858.79736328125], [-117.83428, 42.12571, -8579.9326171875], [-117.82416, 42.12111, -8017.681640625], [-117.83006, 42.13065, -7858.79736328125]]], [[[-117.8467, 42.13443, -9231.55078125], [-117.841, 42.13901, -8520.703125], [-117.84879, 42.14081, -9259.203125], [-117.8467, 42.13443, -9231.55078125]]], [[[-117.75414, 42.1744, 760.7687377929688], [-117.74813, 42.17913, 1434.8907470703125], [-117.75513, 42.18327, 776.931884765625], [-117.75414, 42.1744, 760.7687377929688]]], [[[-117.78386, 42.11157, -5150.2275390625], [-117.77541, 42.10538, -4928.55419921875], [-117.7762, 42.11277, -4350.4833984375], [-117.78386, 42.11157, -5150.2275390625]]], [[[-117.80423, 42.17751, -4294.48583984375], [-117.80205, 42.18562, -3971.2392578125], [-117.80946, 42.18463, -4738.33447265625], [-117.80423, 42.17751, -4294.48583984375]]], [[[-117.75414, 42.1744, 760.7687377929688], [-117.74714, 42.17027, 1419.0147705078125], [-117.74813, 42.17913, 1434.8907470703125], [-117.75414, 42.1744, 760.7687377929688]]], [[[-117.72141, 42.11797, 1062.5592041015625], [-117.714, 42.115, 1464.387939453125], [-117.72114, 42.12214, 1459.3212890625], [-117.72141, 42.11797, 1062.5592041015625]]], [[[-117.75349, 42.16586, 738.4784545898438], [-117.74714, 42.17027, 1419.0147705078125], [-117.75414, 42.1744, 760.7687377929688], [-117.75349, 42.16586, 738.4784545898438]]], [[[-117.7762, 42.11277, -4350.4833984375], [-117.77541, 42.10538, -4928.55419921875], [-117.76773, 42.10658, -4129.4365234375], [-117.7762, 42.11277, -4350.4833984375]]], [[[-117.85968, 42.13105, -10661.427734375], [-117.86784, 42.13334, -11346.970703125], [-117.86338, 42.12514, -11344.6533203125], [-117.85968, 42.13105, -10661.427734375]]], [[[-117.75349, 42.16586, 738.4784545898438], [-117.747, 42.16138, 1403.5447998046875], [-117.74714, 42.17027, 1419.0147705078125], [-117.75349, 42.16586, 738.4784545898438]]], [[[-117.75282, 42.15637, 731.7760620117188], [-117.747, 42.16138, 1403.5447998046875], [-117.75349, 42.16586, 738.4784545898438], [-117.75282, 42.15637, 731.7760620117188]]], [[[-117.72977, 42.12177, 645.8479614257812], [-117.72114, 42.12214, 1459.3212890625], [-117.72816, 42.12933, 1445.335693359375], [-117.72977, 42.12177, 645.8479614257812]]], [[[-117.74634, 42.12494, -571.1199340820312], [-117.74552, 42.11757, -1151.508544921875], [-117.73757, 42.11886, -317.3987121582031], [-117.74634, 42.12494, -571.1199340820312]]], [[[-117.75282, 42.15637, 731.7760620117188], [-117.74535, 42.15258, 1390.959228515625], [-117.747, 42.16138, 1403.5447998046875], [-117.75282, 42.15637, 731.7760620117188]]], [[[-117.83007, 42.18888, -6795.5107421875], [-117.83444, 42.19589, -7178.63525390625], [-117.83941, 42.18635, -7777.4931640625], [-117.83007, 42.18888, -6795.5107421875]]], [[[-117.75282, 42.15637, 731.7760620117188], [-117.74921, 42.14648, 736.2716064453125], [-117.74535, 42.15258, 1390.959228515625], [-117.75282, 42.15637, 731.7760620117188]]], [[[-117.72977, 42.12177, 645.8479614257812], [-117.72141, 42.11797, 1062.5592041015625], [-117.72114, 42.12214, 1459.3212890625], [-117.72977, 42.12177, 645.8479614257812]]], [[[-117.74552, 42.11757, -1151.508544921875], [-117.74471, 42.11019, -1732.0830078125], [-117.73703, 42.1114, -932.96533203125], [-117.74552, 42.11757, -1151.508544921875]]], [[[-117.75744, 42.1501, 120.18158721923828], [-117.74921, 42.14648, 736.2716064453125], [-117.75282, 42.15637, 731.7760620117188], [-117.75744, 42.1501, 120.18158721923828]]], [[[-117.76853, 42.11397, -3550.73974609375], [-117.7762, 42.11277, -4350.4833984375], [-117.76773, 42.10658, -4129.4365234375], [-117.76853, 42.11397, -3550.73974609375]]], [[[-117.75744, 42.1501, 120.18158721923828], [-117.75208, 42.13997, 76.73210144042969], [-117.74921, 42.14648, 736.2716064453125], [-117.75744, 42.1501, 120.18158721923828]]], [[[-117.76853, 42.11397, -3550.73974609375], [-117.76773, 42.10658, -4129.4365234375], [-117.76006, 42.10779, -3330.318603515625], [-117.76853, 42.11397, -3550.73974609375]]], [[[-117.76059, 42.14349, -515.621826171875], [-117.75208, 42.13997, 76.73210144042969], [-117.75744, 42.1501, 120.18158721923828], [-117.76059, 42.14349, -515.621826171875]]], [[[-117.78386, 42.11157, -5150.2275390625], [-117.79153, 42.11037, -5949.97119140625], [-117.78308, 42.10418, -5727.671875], [-117.78386, 42.11157, -5150.2275390625]]], [[[-117.78393, 42.14956, -2548.827880859375], [-117.78533, 42.14192, -2964.5908203125], [-117.77726, 42.14348, -2106.965087890625], [-117.78393, 42.14956, -2548.827880859375]]], [[[-117.76059, 42.14349, -515.621826171875], [-117.75429, 42.13275, -688.972412109375], [-117.75208, 42.13997, 76.73210144042969], [-117.76059, 42.14349, -515.621826171875]]], [[[-117.83666, 42.15018, -7911.837890625], [-117.83792, 42.1578, -7978.560546875], [-117.84394, 42.153, -8650.9921875], [-117.83666, 42.15018, -7911.837890625]]], [[[-117.76292, 42.13786, -1083.0677490234375], [-117.75429, 42.13275, -688.972412109375], [-117.76059, 42.14349, -515.621826171875], [-117.76292, 42.13786, -1083.0677490234375]]], [[[-117.7455, 42.13198, 55.88685989379883], [-117.73871, 42.12558, 175.55433654785156], [-117.73651, 42.13058, 773.7129516601562], [-117.7455, 42.13198, 55.88685989379883]]], [[[-117.72168, 42.1138, 665.2702026367188], [-117.714, 42.115, 1464.387939453125], [-117.72141, 42.11797, 1062.5592041015625], [-117.72168, 42.1138, 665.2702026367188]]], [[[-117.76478, 42.15419, -519.0674438476562], [-117.75744, 42.1501, 120.18158721923828], [-117.75971, 42.16051, 84.5223388671875], [-117.76478, 42.15419, -519.0674438476562]]], [[[-117.75429, 42.13275, -688.972412109375], [-117.76292, 42.13786, -1083.0677490234375], [-117.76199, 42.13017, -1603.185302734375], [-117.75429, 42.13275, -688.972412109375]]], [[[-117.77702, 42.12015, -3769.9267578125], [-117.7762, 42.11277, -4350.4833984375], [-117.76853, 42.11397, -3550.73974609375], [-117.77702, 42.12015, -3769.9267578125]]], [[[-117.82894, 42.14437, -7184.49755859375], [-117.83553, 42.14375, -7859.365234375], [-117.83295, 42.13754, -7749.25537109375], [-117.82894, 42.14437, -7184.49755859375]]], [[[-117.79641, 42.16433, -3669.425048828125], [-117.79029, 42.16156, -3081.587158203125], [-117.79239, 42.17089, -3177.053466796875], [-117.79641, 42.16433, -3669.425048828125]]], [[[-117.76199, 42.13017, -1603.185302734375], [-117.754, 42.12394, -1353.5341796875], [-117.75429, 42.13275, -688.972412109375], [-117.76199, 42.13017, -1603.185302734375]]], [[[-117.85461, 42.13606, -9955.5751953125], [-117.85968, 42.13105, -10661.427734375], [-117.85119, 42.12917, -9958.103515625], [-117.85461, 42.13606, -9955.5751953125]]], [[[-117.8222, 42.10556, -9148.9462890625], [-117.83041, 42.10485, -9954.6572265625], [-117.82145, 42.09814, -9723.2607421875], [-117.8222, 42.10556, -9148.9462890625]]], [[[-117.74323, 42.13805, 739.517822265625], [-117.73651, 42.13058, 773.7129516601562], [-117.73468, 42.13679, 1427.335693359375], [-117.74323, 42.13805, 739.517822265625]]], [[[-117.75971, 42.16051, 84.5223388671875], [-117.75282, 42.15637, 731.7760620117188], [-117.75349, 42.16586, 738.4784545898438], [-117.75971, 42.16051, 84.5223388671875]]], [[[-117.76199, 42.13017, -1603.185302734375], [-117.76168, 42.12255, -2170.5234375], [-117.754, 42.12394, -1353.5341796875], [-117.76199, 42.13017, -1603.185302734375]]], [[[-117.73871, 42.12558, 175.55433654785156], [-117.72977, 42.12177, 645.8479614257812], [-117.73651, 42.13058, 773.7129516601562], [-117.73871, 42.12558, 175.55433654785156]]], [[[-117.76979, 42.12892, -2418.610595703125], [-117.76168, 42.12255, -2170.5234375], [-117.76199, 42.13017, -1603.185302734375], [-117.76979, 42.12892, -2418.610595703125]]], [[[-117.72977, 42.12177, 645.8479614257812], [-117.72168, 42.1138, 665.2702026367188], [-117.72141, 42.11797, 1062.5592041015625], [-117.72977, 42.12177, 645.8479614257812]]], [[[-117.76979, 42.12892, -2418.610595703125], [-117.76935, 42.12135, -2970.22509765625], [-117.76168, 42.12255, -2170.5234375], [-117.76979, 42.12892, -2418.610595703125]]], [[[-117.75319, 42.11637, -1951.2523193359375], [-117.74471, 42.11019, -1732.0830078125], [-117.74552, 42.11757, -1151.508544921875], [-117.75319, 42.11637, -1951.2523193359375]]], [[[-117.77746, 42.12771, -3218.2412109375], [-117.76935, 42.12135, -2970.22509765625], [-117.76979, 42.12892, -2418.610595703125], [-117.77746, 42.12771, -3218.2412109375]]], [[[-117.7992, 42.10917, -6749.71484375], [-117.79843, 42.10176, -7325.9072265625], [-117.79075, 42.10297, -6526.78955078125], [-117.7992, 42.10917, -6749.71484375]]], [[[-117.85968, 42.13105, -10661.427734375], [-117.8623, 42.13846, -10669.5302734375], [-117.86784, 42.13334, -11346.970703125], [-117.85968, 42.13105, -10661.427734375]]], [[[-117.76042, 42.16999, 64.84008026123047], [-117.75971, 42.16051, 84.5223388671875], [-117.75349, 42.16586, 738.4784545898438], [-117.76042, 42.16999, 64.84008026123047]]], [[[-117.73651, 42.13058, 773.7129516601562], [-117.72816, 42.12933, 1445.335693359375], [-117.73468, 42.13679, 1427.335693359375], [-117.73651, 42.13058, 773.7129516601562]]], [[[-117.77746, 42.12771, -3218.2412109375], [-117.77702, 42.12015, -3769.9267578125], [-117.76935, 42.12135, -2970.22509765625], [-117.77746, 42.12771, -3218.2412109375]]], [[[-117.841, 42.13901, -8520.703125], [-117.8467, 42.13443, -9231.55078125], [-117.83826, 42.1328, -8522.6328125], [-117.841, 42.13901, -8520.703125]]], [[[-117.85968, 42.13105, -10661.427734375], [-117.85461, 42.13606, -9955.5751953125], [-117.8623, 42.13846, -10669.5302734375], [-117.85968, 42.13105, -10661.427734375]]], [[[-117.73871, 42.12558, 175.55433654785156], [-117.73757, 42.11886, -317.3987121582031], [-117.72977, 42.12177, 645.8479614257812], [-117.73871, 42.12558, 175.55433654785156]]], [[[-117.77746, 42.12771, -3218.2412109375], [-117.78513, 42.12651, -4017.871826171875], [-117.77702, 42.12015, -3769.9267578125], [-117.77746, 42.12771, -3218.2412109375]]], [[[-117.78562, 42.13406, -3462.7705078125], [-117.78513, 42.12651, -4017.871826171875], [-117.77746, 42.12771, -3218.2412109375], [-117.78562, 42.13406, -3462.7705078125]]], [[[-117.83295, 42.13754, -7749.25537109375], [-117.83553, 42.14375, -7859.365234375], [-117.841, 42.13901, -8520.703125], [-117.83295, 42.13754, -7749.25537109375]]], [[[-117.754, 42.12394, -1353.5341796875], [-117.76168, 42.12255, -2170.5234375], [-117.75319, 42.11637, -1951.2523193359375], [-117.754, 42.12394, -1353.5341796875]]], [[[-117.76042, 42.16999, 64.84008026123047], [-117.7664, 42.16466, -601.2921752929688], [-117.75971, 42.16051, 84.5223388671875], [-117.76042, 42.16999, 64.84008026123047]]], [[[-117.83666, 42.15018, -7911.837890625], [-117.83553, 42.14375, -7859.365234375], [-117.82894, 42.14437, -7184.49755859375], [-117.83666, 42.15018, -7911.837890625]]], [[[-117.78562, 42.13406, -3462.7705078125], [-117.7933, 42.13285, -4261.74560546875], [-117.78513, 42.12651, -4017.871826171875], [-117.78562, 42.13406, -3462.7705078125]]], [[[-117.83792, 42.1578, -7978.560546875], [-117.83894, 42.1663, -7974.25634765625], [-117.84495, 42.16142, -8646.8115234375], [-117.83792, 42.1578, -7978.560546875]]], [[[-117.78562, 42.13406, -3462.7705078125], [-117.79301, 42.14071, -3763.95556640625], [-117.7933, 42.13285, -4261.74560546875], [-117.78562, 42.13406, -3462.7705078125]]], [[[-117.76453, 42.20547, 82.9254150390625], [-117.75707, 42.20089, 792.9227905273438], [-117.75808, 42.20985, 799.2230834960938], [-117.76453, 42.20547, 82.9254150390625]]], [[[-117.85119, 42.12917, -9958.103515625], [-117.85493, 42.12362, -10646.2578125], [-117.84569, 42.12167, -9941.818359375], [-117.85119, 42.12917, -9958.103515625]]], [[[-117.78533, 42.14192, -2964.5908203125], [-117.79301, 42.14071, -3763.95556640625], [-117.78562, 42.13406, -3462.7705078125], [-117.78533, 42.14192, -2964.5908203125]]], [[[-117.83666, 42.15018, -7911.837890625], [-117.84297, 42.14557, -8574.72265625], [-117.83553, 42.14375, -7859.365234375], [-117.83666, 42.15018, -7911.837890625]]], [[[-117.78533, 42.14192, -2964.5908203125], [-117.79178, 42.14826, -3366.15185546875], [-117.79301, 42.14071, -3763.95556640625], [-117.78533, 42.14192, -2964.5908203125]]], [[[-117.79178, 42.14826, -3366.15185546875], [-117.78533, 42.14192, -2964.5908203125], [-117.78393, 42.14956, -2548.827880859375], [-117.79178, 42.14826, -3366.15185546875]]], [[[-117.84606, 42.17028, -8646.4453125], [-117.85312, 42.17422, -9318.5859375], [-117.85209, 42.16552, -9322.4091796875], [-117.84606, 42.17028, -8646.4453125]]], [[[-117.79029, 42.15462, -3096.458740234375], [-117.79178, 42.14826, -3366.15185546875], [-117.78393, 42.14956, -2548.827880859375], [-117.79029, 42.15462, -3096.458740234375]]], [[[-117.81929, 42.16644, -5972.1513671875], [-117.82566, 42.16774, -6603.9677734375], [-117.82441, 42.15974, -6578.10400390625], [-117.81929, 42.16644, -5972.1513671875]]], [[[-117.79703, 42.15593, -3793.240234375], [-117.79178, 42.14826, -3366.15185546875], [-117.79029, 42.15462, -3096.458740234375], [-117.79703, 42.15593, -3793.240234375]]], [[[-117.81603, 42.1371, -6162.04931640625], [-117.81634, 42.12923, -6658.67138671875], [-117.80866, 42.13044, -5859.6962890625], [-117.81603, 42.1371, -6162.04931640625]]], [[[-117.79703, 42.15593, -3793.240234375], [-117.79934, 42.14763, -4139.55859375], [-117.79178, 42.14826, -3366.15185546875], [-117.79703, 42.15593, -3793.240234375]]], [[[-117.79934, 42.14763, -4139.55859375], [-117.80068, 42.13951, -4563.3203125], [-117.79301, 42.14071, -3763.95556640625], [-117.79934, 42.14763, -4139.55859375]]], [[[-117.80466, 42.15471, -4585.59228515625], [-117.79934, 42.14763, -4139.55859375], [-117.79703, 42.15593, -3793.240234375], [-117.80466, 42.15471, -4585.59228515625]]], [[[-117.81363, 42.16834, -5372.13427734375], [-117.8195, 42.17492, -5882.236328125], [-117.81929, 42.16644, -5972.1513671875], [-117.81363, 42.16834, -5372.13427734375]]], [[[-117.80466, 42.15471, -4585.59228515625], [-117.80703, 42.14643, -4938.46142578125], [-117.79934, 42.14763, -4139.55859375], [-117.80466, 42.15471, -4585.59228515625]]], [[[-117.80466, 42.15471, -4585.59228515625], [-117.81229, 42.15345, -5379.2294921875], [-117.80703, 42.14643, -4938.46142578125], [-117.80466, 42.15471, -4585.59228515625]]], [[[-117.83444, 42.19589, -7178.63525390625], [-117.83897, 42.20373, -7551.89794921875], [-117.84162, 42.19516, -7920.3232421875], [-117.83444, 42.19589, -7178.63525390625]]], [[[-117.80953, 42.16158, -5040.75390625], [-117.81229, 42.15345, -5379.2294921875], [-117.80466, 42.15471, -4585.59228515625], [-117.80953, 42.16158, -5040.75390625]]], [[[-117.83444, 42.19589, -7178.63525390625], [-117.82675, 42.19768, -6369.61767578125], [-117.8317, 42.20488, -6794.5849609375], [-117.83444, 42.19589, -7178.63525390625]]], [[[-117.80953, 42.16158, -5040.75390625], [-117.8168, 42.1599, -5801.599609375], [-117.81229, 42.15345, -5379.2294921875], [-117.80953, 42.16158, -5040.75390625]]], [[[-117.81363, 42.16834, -5372.13427734375], [-117.8168, 42.1599, -5801.599609375], [-117.80953, 42.16158, -5040.75390625], [-117.81363, 42.16834, -5372.13427734375]]], [[[-117.81363, 42.16834, -5372.13427734375], [-117.81929, 42.16644, -5972.1513671875], [-117.8168, 42.1599, -5801.599609375], [-117.81363, 42.16834, -5372.13427734375]]], [[[-117.81363, 42.16834, -5372.13427734375], [-117.81167, 42.17636, -5067.1162109375], [-117.8195, 42.17492, -5882.236328125], [-117.81363, 42.16834, -5372.13427734375]]], [[[-117.81363, 42.16834, -5372.13427734375], [-117.80658, 42.16937, -4640.9248046875], [-117.81167, 42.17636, -5067.1162109375], [-117.81363, 42.16834, -5372.13427734375]]], [[[-117.80658, 42.16937, -4640.9248046875], [-117.81363, 42.16834, -5372.13427734375], [-117.80953, 42.16158, -5040.75390625], [-117.80658, 42.16937, -4640.9248046875]]], [[[-117.80658, 42.16937, -4640.9248046875], [-117.80953, 42.16158, -5040.75390625], [-117.8023, 42.16267, -4290.39794921875], [-117.80658, 42.16937, -4640.9248046875]]], [[[-117.79949, 42.17102, -3897.787353515625], [-117.80658, 42.16937, -4640.9248046875], [-117.8023, 42.16267, -4290.39794921875], [-117.79949, 42.17102, -3897.787353515625]]], [[[-117.84162, 42.19516, -7920.3232421875], [-117.83897, 42.20373, -7551.89794921875], [-117.84648, 42.2028, -8331.8779296875], [-117.84162, 42.19516, -7920.3232421875]]], [[[-117.80658, 42.16937, -4640.9248046875], [-117.79949, 42.17102, -3897.787353515625], [-117.80423, 42.17751, -4294.48583984375], [-117.80658, 42.16937, -4640.9248046875]]], [[[-117.80658, 42.16937, -4640.9248046875], [-117.80423, 42.17751, -4294.48583984375], [-117.81167, 42.17636, -5067.1162109375], [-117.80658, 42.16937, -4640.9248046875]]], [[[-117.80946, 42.18463, -4738.33447265625], [-117.81167, 42.17636, -5067.1162109375], [-117.80423, 42.17751, -4294.48583984375], [-117.80946, 42.18463, -4738.33447265625]]], [[[-117.81167, 42.17636, -5067.1162109375], [-117.80946, 42.18463, -4738.33447265625], [-117.81674, 42.18348, -5494.634765625], [-117.81167, 42.17636, -5067.1162109375]]], [[[-117.81674, 42.18348, -5494.634765625], [-117.8195, 42.17492, -5882.236328125], [-117.81167, 42.17636, -5067.1162109375], [-117.81674, 42.18348, -5494.634765625]]], [[[-117.8195, 42.17492, -5882.236328125], [-117.81674, 42.18348, -5494.634765625], [-117.82451, 42.18233, -6300.4638671875], [-117.8195, 42.17492, -5882.236328125]]], [[[-117.80946, 42.18463, -4738.33447265625], [-117.80718, 42.19289, -4413.66455078125], [-117.81447, 42.19176, -5170.08251953125], [-117.80946, 42.18463, -4738.33447265625]]], [[[-117.82728, 42.17531, -6672.236328125], [-117.8195, 42.17492, -5882.236328125], [-117.82451, 42.18233, -6300.4638671875], [-117.82728, 42.17531, -6672.236328125]]], [[[-117.82728, 42.17531, -6672.236328125], [-117.82566, 42.16774, -6603.9677734375], [-117.8195, 42.17492, -5882.236328125], [-117.82728, 42.17531, -6672.236328125]]], [[[-117.82566, 42.16774, -6603.9677734375], [-117.82728, 42.17531, -6672.236328125], [-117.83299, 42.17103, -7305.8203125], [-117.82566, 42.16774, -6603.9677734375]]], [[[-117.82566, 42.16774, -6603.9677734375], [-117.83299, 42.17103, -7305.8203125], [-117.83185, 42.16252, -7298.4140625], [-117.82566, 42.16774, -6603.9677734375]]], [[[-117.82441, 42.15974, -6578.10400390625], [-117.82566, 42.16774, -6603.9677734375], [-117.83185, 42.16252, -7298.4140625], [-117.82441, 42.15974, -6578.10400390625]]], [[[-117.81929, 42.16644, -5972.1513671875], [-117.8195, 42.17492, -5882.236328125], [-117.82566, 42.16774, -6603.9677734375], [-117.81929, 42.16644, -5972.1513671875]]], [[[-117.81929, 42.16644, -5972.1513671875], [-117.82441, 42.15974, -6578.10400390625], [-117.8168, 42.1599, -5801.599609375], [-117.81929, 42.16644, -5972.1513671875]]], [[[-117.83007, 42.18888, -6795.5107421875], [-117.82675, 42.19768, -6369.61767578125], [-117.83444, 42.19589, -7178.63525390625], [-117.83007, 42.18888, -6795.5107421875]]], [[[-117.8168, 42.1599, -5801.599609375], [-117.82441, 42.15974, -6578.10400390625], [-117.81962, 42.15225, -6141.45703125], [-117.8168, 42.1599, -5801.599609375]]], [[[-117.81229, 42.15345, -5379.2294921875], [-117.8168, 42.1599, -5801.599609375], [-117.81962, 42.15225, -6141.45703125], [-117.81229, 42.15345, -5379.2294921875]]], [[[-117.81229, 42.15345, -5379.2294921875], [-117.81962, 42.15225, -6141.45703125], [-117.81471, 42.14522, -5737.36474609375], [-117.81229, 42.15345, -5379.2294921875]]], [[[-117.81229, 42.15345, -5379.2294921875], [-117.81471, 42.14522, -5737.36474609375], [-117.80703, 42.14643, -4938.46142578125], [-117.81229, 42.15345, -5379.2294921875]]], [[[-117.81471, 42.14522, -5737.36474609375], [-117.80836, 42.13831, -5362.6845703125], [-117.80703, 42.14643, -4938.46142578125], [-117.81471, 42.14522, -5737.36474609375]]], [[[-117.81471, 42.14522, -5737.36474609375], [-117.81603, 42.1371, -6162.04931640625], [-117.80836, 42.13831, -5362.6845703125], [-117.81471, 42.14522, -5737.36474609375]]], [[[-117.81471, 42.14522, -5737.36474609375], [-117.82201, 42.14389, -6500.482421875], [-117.81603, 42.1371, -6162.04931640625], [-117.81471, 42.14522, -5737.36474609375]]], [[[-117.81962, 42.15225, -6141.45703125], [-117.82201, 42.14389, -6500.482421875], [-117.81471, 42.14522, -5737.36474609375], [-117.81962, 42.15225, -6141.45703125]]], [[[-117.82451, 42.18233, -6300.4638671875], [-117.82187, 42.19057, -5939.95458984375], [-117.83007, 42.18888, -6795.5107421875], [-117.82451, 42.18233, -6300.4638671875]]], [[[-117.81962, 42.15225, -6141.45703125], [-117.82578, 42.15146, -6781.873046875], [-117.82201, 42.14389, -6500.482421875], [-117.81962, 42.15225, -6141.45703125]]], [[[-117.81962, 42.15225, -6141.45703125], [-117.82441, 42.15974, -6578.10400390625], [-117.82578, 42.15146, -6781.873046875], [-117.81962, 42.15225, -6141.45703125]]], [[[-117.82578, 42.15146, -6781.873046875], [-117.82441, 42.15974, -6578.10400390625], [-117.83081, 42.15455, -7294.15234375], [-117.82578, 42.15146, -6781.873046875]]], [[[-117.83007, 42.18888, -6795.5107421875], [-117.82187, 42.19057, -5939.95458984375], [-117.82675, 42.19768, -6369.61767578125], [-117.83007, 42.18888, -6795.5107421875]]], [[[-117.82578, 42.15146, -6781.873046875], [-117.83081, 42.15455, -7294.15234375], [-117.82894, 42.14437, -7184.49755859375], [-117.82578, 42.15146, -6781.873046875]]], [[[-117.83444, 42.19589, -7178.63525390625], [-117.8317, 42.20488, -6794.5849609375], [-117.83897, 42.20373, -7551.89794921875], [-117.83444, 42.19589, -7178.63525390625]]], [[[-117.82578, 42.15146, -6781.873046875], [-117.82894, 42.14437, -7184.49755859375], [-117.82201, 42.14389, -6500.482421875], [-117.82578, 42.15146, -6781.873046875]]], [[[-117.82201, 42.14389, -6500.482421875], [-117.82894, 42.14437, -7184.49755859375], [-117.82405, 42.13586, -6995.92578125], [-117.82201, 42.14389, -6500.482421875]]], [[[-117.82201, 42.14389, -6500.482421875], [-117.82405, 42.13586, -6995.92578125], [-117.81603, 42.1371, -6162.04931640625], [-117.82201, 42.14389, -6500.482421875]]], [[[-117.82405, 42.13586, -6995.92578125], [-117.81634, 42.12923, -6658.67138671875], [-117.81603, 42.1371, -6162.04931640625], [-117.82405, 42.13586, -6995.92578125]]], [[[-117.81634, 42.12923, -6658.67138671875], [-117.82405, 42.13586, -6995.92578125], [-117.82318, 42.12778, -7400.05810546875], [-117.81634, 42.12923, -6658.67138671875]]], [[[-117.81634, 42.12923, -6658.67138671875], [-117.82318, 42.12778, -7400.05810546875], [-117.81582, 42.1217, -7215.4912109375], [-117.81634, 42.12923, -6658.67138671875]]], [[[-117.81634, 42.12923, -6658.67138671875], [-117.81582, 42.1217, -7215.4912109375], [-117.80815, 42.1229, -6416.51025390625], [-117.81634, 42.12923, -6658.67138671875]]], [[[-117.81634, 42.12923, -6658.67138671875], [-117.80815, 42.1229, -6416.51025390625], [-117.80866, 42.13044, -5859.6962890625], [-117.81634, 42.12923, -6658.67138671875]]], [[[-117.80836, 42.13831, -5362.6845703125], [-117.81603, 42.1371, -6162.04931640625], [-117.80866, 42.13044, -5859.6962890625], [-117.80836, 42.13831, -5362.6845703125]]], [[[-117.80836, 42.13831, -5362.6845703125], [-117.80866, 42.13044, -5859.6962890625], [-117.80098, 42.13165, -5060.72119140625], [-117.80836, 42.13831, -5362.6845703125]]], [[[-117.81674, 42.18348, -5494.634765625], [-117.82187, 42.19057, -5939.95458984375], [-117.82451, 42.18233, -6300.4638671875], [-117.81674, 42.18348, -5494.634765625]]], [[[-117.80836, 42.13831, -5362.6845703125], [-117.80098, 42.13165, -5060.72119140625], [-117.80068, 42.13951, -4563.3203125], [-117.80836, 42.13831, -5362.6845703125]]], [[[-117.80836, 42.13831, -5362.6845703125], [-117.80068, 42.13951, -4563.3203125], [-117.80703, 42.14643, -4938.46142578125], [-117.80836, 42.13831, -5362.6845703125]]], [[[-117.80068, 42.13951, -4563.3203125], [-117.79934, 42.14763, -4139.55859375], [-117.80703, 42.14643, -4938.46142578125], [-117.80068, 42.13951, -4563.3203125]]], [[[-117.79934, 42.14763, -4139.55859375], [-117.79301, 42.14071, -3763.95556640625], [-117.79178, 42.14826, -3366.15185546875], [-117.79934, 42.14763, -4139.55859375]]], [[[-117.80068, 42.13951, -4563.3203125], [-117.7933, 42.13285, -4261.74560546875], [-117.79301, 42.14071, -3763.95556640625], [-117.80068, 42.13951, -4563.3203125]]], [[[-117.80068, 42.13951, -4563.3203125], [-117.80098, 42.13165, -5060.72119140625], [-117.7933, 42.13285, -4261.74560546875], [-117.80068, 42.13951, -4563.3203125]]], [[[-117.7928, 42.12531, -4817.50244140625], [-117.7933, 42.13285, -4261.74560546875], [-117.80098, 42.13165, -5060.72119140625], [-117.7928, 42.12531, -4817.50244140625]]], [[[-117.7933, 42.13285, -4261.74560546875], [-117.7928, 42.12531, -4817.50244140625], [-117.78513, 42.12651, -4017.871826171875], [-117.7933, 42.13285, -4261.74560546875]]], [[[-117.7455, 42.13198, 55.88685989379883], [-117.73651, 42.13058, 773.7129516601562], [-117.74323, 42.13805, 739.517822265625], [-117.7455, 42.13198, 55.88685989379883]]], [[[-117.7928, 42.12531, -4817.50244140625], [-117.78469, 42.11894, -4569.62841796875], [-117.78513, 42.12651, -4017.871826171875], [-117.7928, 42.12531, -4817.50244140625]]], [[[-117.7928, 42.12531, -4817.50244140625], [-117.79236, 42.11774, -5369.330078125], [-117.78469, 42.11894, -4569.62841796875], [-117.7928, 42.12531, -4817.50244140625]]], [[[-117.7928, 42.12531, -4817.50244140625], [-117.80047, 42.12411, -5617.13330078125], [-117.79236, 42.11774, -5369.330078125], [-117.7928, 42.12531, -4817.50244140625]]], [[[-117.7928, 42.12531, -4817.50244140625], [-117.80098, 42.13165, -5060.72119140625], [-117.80047, 42.12411, -5617.13330078125], [-117.7928, 42.12531, -4817.50244140625]]], [[[-117.80866, 42.13044, -5859.6962890625], [-117.80047, 42.12411, -5617.13330078125], [-117.80098, 42.13165, -5060.72119140625], [-117.80866, 42.13044, -5859.6962890625]]], [[[-117.80047, 42.12411, -5617.13330078125], [-117.80866, 42.13044, -5859.6962890625], [-117.80815, 42.1229, -6416.51025390625], [-117.80047, 42.12411, -5617.13330078125]]], [[[-117.80047, 42.12411, -5617.13330078125], [-117.80815, 42.1229, -6416.51025390625], [-117.80003, 42.11654, -6169.03173828125], [-117.80047, 42.12411, -5617.13330078125]]], [[[-117.80047, 42.12411, -5617.13330078125], [-117.80003, 42.11654, -6169.03173828125], [-117.79236, 42.11774, -5369.330078125], [-117.80047, 42.12411, -5617.13330078125]]], [[[-117.80003, 42.11654, -6169.03173828125], [-117.79153, 42.11037, -5949.97119140625], [-117.79236, 42.11774, -5369.330078125], [-117.80003, 42.11654, -6169.03173828125]]], [[[-117.80003, 42.11654, -6169.03173828125], [-117.7992, 42.10917, -6749.71484375], [-117.79153, 42.11037, -5949.97119140625], [-117.80003, 42.11654, -6169.03173828125]]], [[[-117.80003, 42.11654, -6169.03173828125], [-117.80769, 42.11534, -6968.7333984375], [-117.7992, 42.10917, -6749.71484375], [-117.80003, 42.11654, -6169.03173828125]]], [[[-117.80815, 42.1229, -6416.51025390625], [-117.80769, 42.11534, -6968.7333984375], [-117.80003, 42.11654, -6169.03173828125], [-117.80815, 42.1229, -6416.51025390625]]], [[[-117.81582, 42.1217, -7215.4912109375], [-117.80769, 42.11534, -6968.7333984375], [-117.80815, 42.1229, -6416.51025390625], [-117.81582, 42.1217, -7215.4912109375]]], [[[-117.81582, 42.1217, -7215.4912109375], [-117.81536, 42.11414, -7768.43505859375], [-117.80769, 42.11534, -6968.7333984375], [-117.81582, 42.1217, -7215.4912109375]]], [[[-117.82416, 42.12111, -8017.681640625], [-117.81536, 42.11414, -7768.43505859375], [-117.81582, 42.1217, -7215.4912109375], [-117.82416, 42.12111, -8017.681640625]]], [[[-117.82416, 42.12111, -8017.681640625], [-117.82296, 42.11292, -8562.3662109375], [-117.81536, 42.11414, -7768.43505859375], [-117.82416, 42.12111, -8017.681640625]]], [[[-117.83011, 42.11879, -8759.5693359375], [-117.82296, 42.11292, -8562.3662109375], [-117.82416, 42.12111, -8017.681640625], [-117.83011, 42.11879, -8759.5693359375]]], [[[-117.83011, 42.11879, -8759.5693359375], [-117.83031, 42.11171, -9334.27734375], [-117.82296, 42.11292, -8562.3662109375], [-117.83011, 42.11879, -8759.5693359375]]], [[[-117.83722, 42.11968, -9320.6181640625], [-117.83792, 42.11306, -9925.328125], [-117.83031, 42.11171, -9334.27734375], [-117.83722, 42.11968, -9320.6181640625]]], [[[-117.83722, 42.11968, -9320.6181640625], [-117.84278, 42.12753, -9246.931640625], [-117.84569, 42.12167, -9941.818359375], [-117.83722, 42.11968, -9320.6181640625]]], [[[-117.83428, 42.12571, -8579.9326171875], [-117.84278, 42.12753, -9246.931640625], [-117.83722, 42.11968, -9320.6181640625], [-117.83428, 42.12571, -8579.9326171875]]], [[[-117.84278, 42.12753, -9246.931640625], [-117.83826, 42.1328, -8522.6328125], [-117.8467, 42.13443, -9231.55078125], [-117.84278, 42.12753, -9246.931640625]]], [[[-117.84278, 42.12753, -9246.931640625], [-117.8467, 42.13443, -9231.55078125], [-117.85119, 42.12917, -9958.103515625], [-117.84278, 42.12753, -9246.931640625]]], [[[-117.84278, 42.12753, -9246.931640625], [-117.85119, 42.12917, -9958.103515625], [-117.84569, 42.12167, -9941.818359375], [-117.84278, 42.12753, -9246.931640625]]], [[[-117.85493, 42.12362, -10646.2578125], [-117.85119, 42.12917, -9958.103515625], [-117.85968, 42.13105, -10661.427734375], [-117.85493, 42.12362, -10646.2578125]]], [[[-117.85493, 42.12362, -10646.2578125], [-117.85968, 42.13105, -10661.427734375], [-117.86338, 42.12514, -11344.6533203125], [-117.85493, 42.12362, -10646.2578125]]], [[[-117.85493, 42.12362, -10646.2578125], [-117.86338, 42.12514, -11344.6533203125], [-117.85737, 42.11749, -11340.123046875], [-117.85493, 42.12362, -10646.2578125]]], [[[-117.84815, 42.1162, -10616.3564453125], [-117.85493, 42.12362, -10646.2578125], [-117.85737, 42.11749, -11340.123046875], [-117.84815, 42.1162, -10616.3564453125]]], [[[-117.84815, 42.1162, -10616.3564453125], [-117.84569, 42.12167, -9941.818359375], [-117.85493, 42.12362, -10646.2578125], [-117.84815, 42.1162, -10616.3564453125]]], [[[-117.84569, 42.12167, -9941.818359375], [-117.84815, 42.1162, -10616.3564453125], [-117.83792, 42.11306, -9925.328125], [-117.84569, 42.12167, -9941.818359375]]], [[[-117.83031, 42.11171, -9334.27734375], [-117.83792, 42.11306, -9925.328125], [-117.83041, 42.10485, -9954.6572265625], [-117.83031, 42.11171, -9334.27734375]]], [[[-117.83031, 42.11171, -9334.27734375], [-117.83041, 42.10485, -9954.6572265625], [-117.8222, 42.10556, -9148.9462890625], [-117.83031, 42.11171, -9334.27734375]]], [[[-117.82296, 42.11292, -8562.3662109375], [-117.8222, 42.10556, -9148.9462890625], [-117.81453, 42.10676, -8349.2021484375], [-117.82296, 42.11292, -8562.3662109375]]], [[[-117.81536, 42.11414, -7768.43505859375], [-117.81453, 42.10676, -8349.2021484375], [-117.80686, 42.10796, -7549.45849609375], [-117.81536, 42.11414, -7768.43505859375]]], [[[-117.80769, 42.11534, -6968.7333984375], [-117.81536, 42.11414, -7768.43505859375], [-117.80686, 42.10796, -7549.45849609375], [-117.80769, 42.11534, -6968.7333984375]]], [[[-117.80769, 42.11534, -6968.7333984375], [-117.80686, 42.10796, -7549.45849609375], [-117.7992, 42.10917, -6749.71484375], [-117.80769, 42.11534, -6968.7333984375]]], [[[-117.80686, 42.10796, -7549.45849609375], [-117.79843, 42.10176, -7325.9072265625], [-117.7992, 42.10917, -6749.71484375], [-117.80686, 42.10796, -7549.45849609375]]], [[[-117.80686, 42.10796, -7549.45849609375], [-117.8061, 42.10056, -8125.02490234375], [-117.79843, 42.10176, -7325.9072265625], [-117.80686, 42.10796, -7549.45849609375]]], [[[-117.83041, 42.10485, -9954.6572265625], [-117.82912, 42.09693, -10522.3779296875], [-117.82145, 42.09814, -9723.2607421875], [-117.83041, 42.10485, -9954.6572265625]]], [[[-117.82912, 42.09693, -10522.3779296875], [-117.83041, 42.10485, -9954.6572265625], [-117.83583, 42.10226, -10664.5791015625], [-117.82912, 42.09693, -10522.3779296875]]], [[[-117.8368, 42.09573, -11321.49609375], [-117.83583, 42.10226, -10664.5791015625], [-117.84374, 42.10294, -11328.416015625], [-117.8368, 42.09573, -11321.49609375]]], [[[-117.84171, 42.10898, -10607.728515625], [-117.84374, 42.10294, -11328.416015625], [-117.83583, 42.10226, -10664.5791015625], [-117.84171, 42.10898, -10607.728515625]]], [[[-117.84815, 42.1162, -10616.3564453125], [-117.85074, 42.11012, -11334.5751953125], [-117.84171, 42.10898, -10607.728515625], [-117.84815, 42.1162, -10616.3564453125]]], [[[-117.84815, 42.1162, -10616.3564453125], [-117.85737, 42.11749, -11340.123046875], [-117.85074, 42.11012, -11334.5751953125], [-117.84815, 42.1162, -10616.3564453125]]], [[[-117.79153, 42.11037, -5949.97119140625], [-117.79075, 42.10297, -6526.78955078125], [-117.78308, 42.10418, -5727.671875], [-117.79153, 42.11037, -5949.97119140625]]], [[[-117.79153, 42.11037, -5949.97119140625], [-117.78386, 42.11157, -5150.2275390625], [-117.79236, 42.11774, -5369.330078125], [-117.79153, 42.11037, -5949.97119140625]]], [[[-117.78386, 42.11157, -5150.2275390625], [-117.78469, 42.11894, -4569.62841796875], [-117.79236, 42.11774, -5369.330078125], [-117.78386, 42.11157, -5150.2275390625]]], [[[-117.78469, 42.11894, -4569.62841796875], [-117.78386, 42.11157, -5150.2275390625], [-117.7762, 42.11277, -4350.4833984375], [-117.78469, 42.11894, -4569.62841796875]]], [[[-117.77702, 42.12015, -3769.9267578125], [-117.78469, 42.11894, -4569.62841796875], [-117.7762, 42.11277, -4350.4833984375], [-117.77702, 42.12015, -3769.9267578125]]], [[[-117.76853, 42.11397, -3550.73974609375], [-117.76086, 42.11517, -2750.99609375], [-117.76935, 42.12135, -2970.22509765625], [-117.76853, 42.11397, -3550.73974609375]]], [[[-117.76086, 42.11517, -2750.99609375], [-117.75238, 42.10899, -2531.200927734375], [-117.75319, 42.11637, -1951.2523193359375], [-117.76086, 42.11517, -2750.99609375]]], [[[-117.76168, 42.12255, -2170.5234375], [-117.76086, 42.11517, -2750.99609375], [-117.75319, 42.11637, -1951.2523193359375], [-117.76168, 42.12255, -2170.5234375]]], [[[-117.754, 42.12394, -1353.5341796875], [-117.75319, 42.11637, -1951.2523193359375], [-117.74552, 42.11757, -1151.508544921875], [-117.754, 42.12394, -1353.5341796875]]], [[[-117.74634, 42.12494, -571.1199340820312], [-117.754, 42.12394, -1353.5341796875], [-117.74552, 42.11757, -1151.508544921875], [-117.74634, 42.12494, -571.1199340820312]]], [[[-117.74634, 42.12494, -571.1199340820312], [-117.75429, 42.13275, -688.972412109375], [-117.754, 42.12394, -1353.5341796875], [-117.74634, 42.12494, -571.1199340820312]]], [[[-117.7455, 42.13198, 55.88685989379883], [-117.74634, 42.12494, -571.1199340820312], [-117.73871, 42.12558, 175.55433654785156], [-117.7455, 42.13198, 55.88685989379883]]], [[[-117.7455, 42.13198, 55.88685989379883], [-117.75429, 42.13275, -688.972412109375], [-117.74634, 42.12494, -571.1199340820312], [-117.7455, 42.13198, 55.88685989379883]]], [[[-117.75429, 42.13275, -688.972412109375], [-117.7455, 42.13198, 55.88685989379883], [-117.75208, 42.13997, 76.73210144042969], [-117.75429, 42.13275, -688.972412109375]]], [[[-117.75208, 42.13997, 76.73210144042969], [-117.7455, 42.13198, 55.88685989379883], [-117.74323, 42.13805, 739.517822265625], [-117.75208, 42.13997, 76.73210144042969]]], [[[-117.74921, 42.14648, 736.2716064453125], [-117.74323, 42.13805, 739.517822265625], [-117.74087, 42.14439, 1415.9981689453125], [-117.74921, 42.14648, 736.2716064453125]]], [[[-117.74323, 42.13805, 739.517822265625], [-117.73468, 42.13679, 1427.335693359375], [-117.74087, 42.14439, 1415.9981689453125], [-117.74323, 42.13805, 739.517822265625]]], [[[-117.72935, 42.1126, -133.84756469726562], [-117.72168, 42.1138, 665.2702026367188], [-117.72977, 42.12177, 645.8479614257812], [-117.72935, 42.1126, -133.84756469726562]]], [[[-117.78386, 42.11157, -5150.2275390625], [-117.78308, 42.10418, -5727.671875], [-117.77541, 42.10538, -4928.55419921875], [-117.78386, 42.11157, -5150.2275390625]]], [[[-117.8467, 42.13443, -9231.55078125], [-117.84879, 42.14081, -9259.203125], [-117.85461, 42.13606, -9955.5751953125], [-117.8467, 42.13443, -9231.55078125]]], [[[-117.83666, 42.15018, -7911.837890625], [-117.84394, 42.153, -8650.9921875], [-117.84297, 42.14557, -8574.72265625], [-117.83666, 42.15018, -7911.837890625]]], [[[-117.83081, 42.15455, -7294.15234375], [-117.83792, 42.1578, -7978.560546875], [-117.83666, 42.15018, -7911.837890625], [-117.83081, 42.15455, -7294.15234375]]], [[[-117.83185, 42.16252, -7298.4140625], [-117.83792, 42.1578, -7978.560546875], [-117.83081, 42.15455, -7294.15234375], [-117.83185, 42.16252, -7298.4140625]]], [[[-117.83792, 42.1578, -7978.560546875], [-117.83185, 42.16252, -7298.4140625], [-117.83894, 42.1663, -7974.25634765625], [-117.83792, 42.1578, -7978.560546875]]], [[[-117.83792, 42.1578, -7978.560546875], [-117.84495, 42.16142, -8646.8115234375], [-117.84394, 42.153, -8650.9921875], [-117.83792, 42.1578, -7978.560546875]]], [[[-117.84495, 42.16142, -8646.8115234375], [-117.85102, 42.15651, -9327.5546875], [-117.84394, 42.153, -8650.9921875], [-117.84495, 42.16142, -8646.8115234375]]], [[[-117.84495, 42.16142, -8646.8115234375], [-117.85209, 42.16552, -9322.4091796875], [-117.85102, 42.15651, -9327.5546875], [-117.84495, 42.16142, -8646.8115234375]]], [[[-117.84606, 42.17028, -8646.4453125], [-117.85209, 42.16552, -9322.4091796875], [-117.84495, 42.16142, -8646.8115234375], [-117.84606, 42.17028, -8646.4453125]]], [[[-117.84662, 42.17946, -8589.9384765625], [-117.85312, 42.17422, -9318.5859375], [-117.84606, 42.17028, -8646.4453125], [-117.84662, 42.17946, -8589.9384765625]]], [[[-117.84662, 42.17946, -8589.9384765625], [-117.85404, 42.18288, -9310.41796875], [-117.85312, 42.17422, -9318.5859375], [-117.84662, 42.17946, -8589.9384765625]]], [[[-117.84755, 42.18805, -8591.3818359375], [-117.85404, 42.18288, -9310.41796875], [-117.84662, 42.17946, -8589.9384765625], [-117.84755, 42.18805, -8591.3818359375]]], [[[-117.84755, 42.18805, -8591.3818359375], [-117.85486, 42.19191, -9315.4130859375], [-117.85404, 42.18288, -9310.41796875], [-117.84755, 42.18805, -8591.3818359375]]], [[[-117.84755, 42.18805, -8591.3818359375], [-117.8489, 42.19617, -8650.1484375], [-117.85486, 42.19191, -9315.4130859375], [-117.84755, 42.18805, -8591.3818359375]]], [[[-117.8489, 42.19617, -8650.1484375], [-117.84755, 42.18805, -8591.3818359375], [-117.84162, 42.19516, -7920.3232421875], [-117.8489, 42.19617, -8650.1484375]]], [[[-117.84162, 42.19516, -7920.3232421875], [-117.84648, 42.2028, -8331.8779296875], [-117.8489, 42.19617, -8650.1484375], [-117.84162, 42.19516, -7920.3232421875]]], [[[-117.81674, 42.18348, -5494.634765625], [-117.81447, 42.19176, -5170.08251953125], [-117.82187, 42.19057, -5939.95458984375], [-117.81674, 42.18348, -5494.634765625]]], [[[-117.80946, 42.18463, -4738.33447265625], [-117.81447, 42.19176, -5170.08251953125], [-117.81674, 42.18348, -5494.634765625], [-117.80946, 42.18463, -4738.33447265625]]], [[[-117.80205, 42.18562, -3971.2392578125], [-117.80718, 42.19289, -4413.66455078125], [-117.80946, 42.18463, -4738.33447265625], [-117.80205, 42.18562, -3971.2392578125]]], [[[-117.80205, 42.18562, -3971.2392578125], [-117.7999, 42.19403, -3657.246826171875], [-117.80718, 42.19289, -4413.66455078125], [-117.80205, 42.18562, -3971.2392578125]]], [[[-117.80205, 42.18562, -3971.2392578125], [-117.79474, 42.18648, -3215.279052734375], [-117.7999, 42.19403, -3657.246826171875], [-117.80205, 42.18562, -3971.2392578125]]], [[[-117.79597, 42.17842, -3441.447509765625], [-117.79474, 42.18648, -3215.279052734375], [-117.80205, 42.18562, -3971.2392578125], [-117.79597, 42.17842, -3441.447509765625]]], [[[-117.78804, 42.17774, -2643.5146484375], [-117.79474, 42.18648, -3215.279052734375], [-117.79597, 42.17842, -3441.447509765625], [-117.78804, 42.17774, -2643.5146484375]]], [[[-117.78804, 42.17774, -2643.5146484375], [-117.78831, 42.18718, -2551.763916015625], [-117.79474, 42.18648, -3215.279052734375], [-117.78804, 42.17774, -2643.5146484375]]], [[[-117.78804, 42.17774, -2643.5146484375], [-117.78164, 42.18214, -1936.5621337890625], [-117.78831, 42.18718, -2551.763916015625], [-117.78804, 42.17774, -2643.5146484375]]], [[[-117.78804, 42.17774, -2643.5146484375], [-117.78052, 42.17317, -1939.5098876953125], [-117.78164, 42.18214, -1936.5621337890625], [-117.78804, 42.17774, -2643.5146484375]]], [[[-117.78561, 42.16729, -2532.095703125], [-117.78052, 42.17317, -1939.5098876953125], [-117.78804, 42.17774, -2643.5146484375], [-117.78561, 42.16729, -2532.095703125]]], [[[-117.78561, 42.16729, -2532.095703125], [-117.77857, 42.16299, -1866.340576171875], [-117.78052, 42.17317, -1939.5098876953125], [-117.78561, 42.16729, -2532.095703125]]], [[[-117.78561, 42.16729, -2532.095703125], [-117.78354, 42.15743, -2391.753173828125], [-117.77857, 42.16299, -1866.340576171875], [-117.78561, 42.16729, -2532.095703125]]], [[[-117.78354, 42.15743, -2391.753173828125], [-117.78561, 42.16729, -2532.095703125], [-117.79029, 42.16156, -3081.587158203125], [-117.78354, 42.15743, -2391.753173828125]]], [[[-117.79029, 42.15462, -3096.458740234375], [-117.78354, 42.15743, -2391.753173828125], [-117.79029, 42.16156, -3081.587158203125], [-117.79029, 42.15462, -3096.458740234375]]], [[[-117.79029, 42.15462, -3096.458740234375], [-117.78393, 42.14956, -2548.827880859375], [-117.78354, 42.15743, -2391.753173828125], [-117.79029, 42.15462, -3096.458740234375]]], [[[-117.78354, 42.15743, -2391.753173828125], [-117.78393, 42.14956, -2548.827880859375], [-117.77672, 42.15244, -1757.681640625], [-117.78354, 42.15743, -2391.753173828125]]], [[[-117.78354, 42.15743, -2391.753173828125], [-117.77672, 42.15244, -1757.681640625], [-117.77857, 42.16299, -1866.340576171875], [-117.78354, 42.15743, -2391.753173828125]]], [[[-117.77672, 42.15244, -1757.681640625], [-117.77182, 42.15849, -1175.1053466796875], [-117.77857, 42.16299, -1866.340576171875], [-117.77672, 42.15244, -1757.681640625]]], [[[-117.77672, 42.15244, -1757.681640625], [-117.7694, 42.14706, -1157.434814453125], [-117.77182, 42.15849, -1175.1053466796875], [-117.77672, 42.15244, -1757.681640625]]], [[[-117.77726, 42.14348, -2106.965087890625], [-117.7694, 42.14706, -1157.434814453125], [-117.77672, 42.15244, -1757.681640625], [-117.77726, 42.14348, -2106.965087890625]]], [[[-117.77726, 42.14348, -2106.965087890625], [-117.77022, 42.13707, -1814.47216796875], [-117.7694, 42.14706, -1157.434814453125], [-117.77726, 42.14348, -2106.965087890625]]], [[[-117.77726, 42.14348, -2106.965087890625], [-117.77794, 42.13526, -2663.79541015625], [-117.77022, 42.13707, -1814.47216796875], [-117.77726, 42.14348, -2106.965087890625]]], [[[-117.78533, 42.14192, -2964.5908203125], [-117.77794, 42.13526, -2663.79541015625], [-117.77726, 42.14348, -2106.965087890625], [-117.78533, 42.14192, -2964.5908203125]]], [[[-117.78533, 42.14192, -2964.5908203125], [-117.78562, 42.13406, -3462.7705078125], [-117.77794, 42.13526, -2663.79541015625], [-117.78533, 42.14192, -2964.5908203125]]], [[[-117.78562, 42.13406, -3462.7705078125], [-117.77746, 42.12771, -3218.2412109375], [-117.77794, 42.13526, -2663.79541015625], [-117.78562, 42.13406, -3462.7705078125]]], [[[-117.76979, 42.12892, -2418.610595703125], [-117.77794, 42.13526, -2663.79541015625], [-117.77746, 42.12771, -3218.2412109375], [-117.76979, 42.12892, -2418.610595703125]]], [[[-117.77022, 42.13707, -1814.47216796875], [-117.77794, 42.13526, -2663.79541015625], [-117.76979, 42.12892, -2418.610595703125], [-117.77022, 42.13707, -1814.47216796875]]], [[[-117.77022, 42.13707, -1814.47216796875], [-117.76979, 42.12892, -2418.610595703125], [-117.76199, 42.13017, -1603.185302734375], [-117.77022, 42.13707, -1814.47216796875]]], [[[-117.76292, 42.13786, -1083.0677490234375], [-117.77022, 42.13707, -1814.47216796875], [-117.76199, 42.13017, -1603.185302734375], [-117.76292, 42.13786, -1083.0677490234375]]], [[[-117.7694, 42.14706, -1157.434814453125], [-117.77022, 42.13707, -1814.47216796875], [-117.76292, 42.13786, -1083.0677490234375], [-117.7694, 42.14706, -1157.434814453125]]], [[[-117.7694, 42.14706, -1157.434814453125], [-117.76292, 42.13786, -1083.0677490234375], [-117.76059, 42.14349, -515.621826171875], [-117.7694, 42.14706, -1157.434814453125]]], [[[-117.7694, 42.14706, -1157.434814453125], [-117.76059, 42.14349, -515.621826171875], [-117.76478, 42.15419, -519.0674438476562], [-117.7694, 42.14706, -1157.434814453125]]], [[[-117.7694, 42.14706, -1157.434814453125], [-117.76478, 42.15419, -519.0674438476562], [-117.77182, 42.15849, -1175.1053466796875], [-117.7694, 42.14706, -1157.434814453125]]], [[[-117.7664, 42.16466, -601.2921752929688], [-117.77182, 42.15849, -1175.1053466796875], [-117.76478, 42.15419, -519.0674438476562], [-117.7664, 42.16466, -601.2921752929688]]], [[[-117.77338, 42.16887, -1268.3924560546875], [-117.77182, 42.15849, -1175.1053466796875], [-117.7664, 42.16466, -601.2921752929688], [-117.77338, 42.16887, -1268.3924560546875]]], [[[-117.77857, 42.16299, -1866.340576171875], [-117.77182, 42.15849, -1175.1053466796875], [-117.77338, 42.16887, -1268.3924560546875], [-117.77857, 42.16299, -1866.340576171875]]], [[[-117.77857, 42.16299, -1866.340576171875], [-117.77338, 42.16887, -1268.3924560546875], [-117.78052, 42.17317, -1939.5098876953125], [-117.77857, 42.16299, -1866.340576171875]]], [[[-117.78052, 42.17317, -1939.5098876953125], [-117.77338, 42.16887, -1268.3924560546875], [-117.77454, 42.17823, -1264.61376953125], [-117.78052, 42.17317, -1939.5098876953125]]], [[[-117.78052, 42.17317, -1939.5098876953125], [-117.77454, 42.17823, -1264.61376953125], [-117.78164, 42.18214, -1936.5621337890625], [-117.78052, 42.17317, -1939.5098876953125]]], [[[-117.77531, 42.18661, -1235.172119140625], [-117.78164, 42.18214, -1936.5621337890625], [-117.77454, 42.17823, -1264.61376953125], [-117.77531, 42.18661, -1235.172119140625]]], [[[-117.78164, 42.18214, -1936.5621337890625], [-117.77531, 42.18661, -1235.172119140625], [-117.78193, 42.19022, -1863.0433349609375], [-117.78164, 42.18214, -1936.5621337890625]]], [[[-117.78831, 42.18718, -2551.763916015625], [-117.78164, 42.18214, -1936.5621337890625], [-117.78193, 42.19022, -1863.0433349609375], [-117.78831, 42.18718, -2551.763916015625]]], [[[-117.78534, 42.19631, -2144.4111328125], [-117.78831, 42.18718, -2551.763916015625], [-117.78193, 42.19022, -1863.0433349609375], [-117.78534, 42.19631, -2144.4111328125]]], [[[-117.78534, 42.19631, -2144.4111328125], [-117.79262, 42.19517, -2900.8291015625], [-117.78831, 42.18718, -2551.763916015625], [-117.78534, 42.19631, -2144.4111328125]]], [[[-117.79262, 42.19517, -2900.8291015625], [-117.78534, 42.19631, -2144.4111328125], [-117.79033, 42.20344, -2576.85693359375], [-117.79262, 42.19517, -2900.8291015625]]], [[[-117.79262, 42.19517, -2900.8291015625], [-117.79033, 42.20344, -2576.85693359375], [-117.7976, 42.2023, -3334.03564453125], [-117.79262, 42.19517, -2900.8291015625]]], [[[-117.7999, 42.19403, -3657.246826171875], [-117.79262, 42.19517, -2900.8291015625], [-117.7976, 42.2023, -3334.03564453125], [-117.7999, 42.19403, -3657.246826171875]]], [[[-117.79474, 42.18648, -3215.279052734375], [-117.79262, 42.19517, -2900.8291015625], [-117.7999, 42.19403, -3657.246826171875], [-117.79474, 42.18648, -3215.279052734375]]], [[[-117.79474, 42.18648, -3215.279052734375], [-117.78831, 42.18718, -2551.763916015625], [-117.79262, 42.19517, -2900.8291015625], [-117.79474, 42.18648, -3215.279052734375]]], [[[-117.7999, 42.19403, -3657.246826171875], [-117.7976, 42.2023, -3334.03564453125], [-117.80488, 42.20116, -4091.214599609375], [-117.7999, 42.19403, -3657.246826171875]]], [[[-117.80718, 42.19289, -4413.66455078125], [-117.7999, 42.19403, -3657.246826171875], [-117.80488, 42.20116, -4091.214599609375], [-117.80718, 42.19289, -4413.66455078125]]], [[[-117.80718, 42.19289, -4413.66455078125], [-117.80488, 42.20116, -4091.214599609375], [-117.81215, 42.20003, -4848.3935546875], [-117.80718, 42.19289, -4413.66455078125]]], [[[-117.81447, 42.19176, -5170.08251953125], [-117.80718, 42.19289, -4413.66455078125], [-117.81215, 42.20003, -4848.3935546875], [-117.81447, 42.19176, -5170.08251953125]]], [[[-117.81447, 42.19176, -5170.08251953125], [-117.81215, 42.20003, -4848.3935546875], [-117.81942, 42.19889, -5605.572265625], [-117.81447, 42.19176, -5170.08251953125]]], [[[-117.82187, 42.19057, -5939.95458984375], [-117.81447, 42.19176, -5170.08251953125], [-117.81942, 42.19889, -5605.572265625], [-117.82187, 42.19057, -5939.95458984375]]], [[[-117.82187, 42.19057, -5939.95458984375], [-117.81942, 42.19889, -5605.572265625], [-117.82675, 42.19768, -6369.61767578125], [-117.82187, 42.19057, -5939.95458984375]]], [[[-117.81942, 42.19889, -5605.572265625], [-117.82443, 42.20602, -6037.2724609375], [-117.82675, 42.19768, -6369.61767578125], [-117.81942, 42.19889, -5605.572265625]]], [[[-117.81942, 42.19889, -5605.572265625], [-117.81716, 42.20716, -5279.95947265625], [-117.82443, 42.20602, -6037.2724609375], [-117.81942, 42.19889, -5605.572265625]]], [[[-117.81215, 42.20003, -4848.3935546875], [-117.81716, 42.20716, -5279.95947265625], [-117.81942, 42.19889, -5605.572265625], [-117.81215, 42.20003, -4848.3935546875]]], [[[-117.81215, 42.20003, -4848.3935546875], [-117.80989, 42.20829, -4522.64697265625], [-117.81716, 42.20716, -5279.95947265625], [-117.81215, 42.20003, -4848.3935546875]]], [[[-117.80488, 42.20116, -4091.214599609375], [-117.80989, 42.20829, -4522.64697265625], [-117.81215, 42.20003, -4848.3935546875], [-117.80488, 42.20116, -4091.214599609375]]], [[[-117.80488, 42.20116, -4091.214599609375], [-117.80262, 42.20943, -3765.33447265625], [-117.80989, 42.20829, -4522.64697265625], [-117.80488, 42.20116, -4091.214599609375]]], [[[-117.7976, 42.2023, -3334.03564453125], [-117.80262, 42.20943, -3765.33447265625], [-117.80488, 42.20116, -4091.214599609375], [-117.7976, 42.2023, -3334.03564453125]]], [[[-117.7976, 42.2023, -3334.03564453125], [-117.79535, 42.21057, -3008.02197265625], [-117.80262, 42.20943, -3765.33447265625], [-117.7976, 42.2023, -3334.03564453125]]], [[[-117.79033, 42.20344, -2576.85693359375], [-117.79535, 42.21057, -3008.02197265625], [-117.7976, 42.2023, -3334.03564453125], [-117.79033, 42.20344, -2576.85693359375]]], [[[-117.79033, 42.20344, -2576.85693359375], [-117.78808, 42.21171, -2250.70947265625], [-117.79535, 42.21057, -3008.02197265625], [-117.79033, 42.20344, -2576.85693359375]]], [[[-117.78283, 42.20426, -1800.525634765625], [-117.78808, 42.21171, -2250.70947265625], [-117.79033, 42.20344, -2576.85693359375], [-117.78283, 42.20426, -1800.525634765625]]], [[[-117.78283, 42.20426, -1800.525634765625], [-117.78074, 42.21282, -1487.3101806640625], [-117.78808, 42.21171, -2250.70947265625], [-117.78283, 42.20426, -1800.525634765625]]], [[[-117.7759, 42.20546, -1077.52099609375], [-117.78074, 42.21282, -1487.3101806640625], [-117.78283, 42.20426, -1800.525634765625], [-117.7759, 42.20546, -1077.52099609375]]], [[[-117.7759, 42.20546, -1077.52099609375], [-117.77238, 42.21234, -633.371337890625], [-117.78074, 42.21282, -1487.3101806640625], [-117.7759, 42.20546, -1077.52099609375]]], [[[-117.7759, 42.20546, -1077.52099609375], [-117.7702, 42.20083, -548.98779296875], [-117.77238, 42.21234, -633.371337890625], [-117.7759, 42.20546, -1077.52099609375]]], [[[-117.7759, 42.20546, -1077.52099609375], [-117.7768, 42.19617, -1274.37646484375], [-117.7702, 42.20083, -548.98779296875], [-117.7759, 42.20546, -1077.52099609375]]], [[[-117.7759, 42.20546, -1077.52099609375], [-117.78283, 42.20426, -1800.525634765625], [-117.7768, 42.19617, -1274.37646484375], [-117.7759, 42.20546, -1077.52099609375]]], [[[-117.78534, 42.19631, -2144.4111328125], [-117.7768, 42.19617, -1274.37646484375], [-117.78283, 42.20426, -1800.525634765625], [-117.78534, 42.19631, -2144.4111328125]]], [[[-117.78534, 42.19631, -2144.4111328125], [-117.78193, 42.19022, -1863.0433349609375], [-117.7768, 42.19617, -1274.37646484375], [-117.78534, 42.19631, -2144.4111328125]]], [[[-117.7768, 42.19617, -1274.37646484375], [-117.78193, 42.19022, -1863.0433349609375], [-117.77531, 42.18661, -1235.172119140625], [-117.7768, 42.19617, -1274.37646484375]]], [[[-117.7768, 42.19617, -1274.37646484375], [-117.77531, 42.18661, -1235.172119140625], [-117.76926, 42.19138, -557.7261352539062], [-117.7768, 42.19617, -1274.37646484375]]], [[[-117.7768, 42.19617, -1274.37646484375], [-117.76926, 42.19138, -557.7261352539062], [-117.7702, 42.20083, -548.98779296875], [-117.7768, 42.19617, -1274.37646484375]]], [[[-117.76926, 42.19138, -557.7261352539062], [-117.76316, 42.19611, 118.67552947998047], [-117.7702, 42.20083, -548.98779296875], [-117.76926, 42.19138, -557.7261352539062]]], [[[-117.76316, 42.19611, 118.67552947998047], [-117.76926, 42.19138, -557.7261352539062], [-117.76219, 42.18736, 110.58136749267578], [-117.76316, 42.19611, 118.67552947998047]]], [[[-117.76316, 42.19611, 118.67552947998047], [-117.76219, 42.18736, 110.58136749267578], [-117.75611, 42.1921, 790.0568237304688], [-117.76316, 42.19611, 118.67552947998047]]], [[[-117.76316, 42.19611, 118.67552947998047], [-117.75611, 42.1921, 790.0568237304688], [-117.75707, 42.20089, 792.9227905273438], [-117.76316, 42.19611, 118.67552947998047]]], [[[-117.76453, 42.20547, 82.9254150390625], [-117.76316, 42.19611, 118.67552947998047], [-117.75707, 42.20089, 792.9227905273438], [-117.76453, 42.20547, 82.9254150390625]]], [[[-117.76453, 42.20547, 82.9254150390625], [-117.7702, 42.20083, -548.98779296875], [-117.76316, 42.19611, 118.67552947998047], [-117.76453, 42.20547, 82.9254150390625]]], [[[-117.7702, 42.20083, -548.98779296875], [-117.76453, 42.20547, 82.9254150390625], [-117.77238, 42.21234, -633.371337890625], [-117.7702, 42.20083, -548.98779296875]]], [[[-117.76453, 42.20547, 82.9254150390625], [-117.76528, 42.21422, 113.40282440185547], [-117.77238, 42.21234, -633.371337890625], [-117.76453, 42.20547, 82.9254150390625]]], [[[-117.76528, 42.21422, 113.40282440185547], [-117.76453, 42.20547, 82.9254150390625], [-117.75808, 42.20985, 799.2230834960938], [-117.76528, 42.21422, 113.40282440185547]]], [[[-117.76528, 42.21422, 113.40282440185547], [-117.75808, 42.20985, 799.2230834960938], [-117.75885, 42.21887, 818.3343505859375], [-117.76528, 42.21422, 113.40282440185547]]], [[[-117.76528, 42.21422, 113.40282440185547], [-117.75885, 42.21887, 818.3343505859375], [-117.76416, 42.22294, 270.5377197265625], [-117.76528, 42.21422, 113.40282440185547]]], [[[-117.7709, 42.22185, -429.4052734375], [-117.76528, 42.21422, 113.40282440185547], [-117.76416, 42.22294, 270.5377197265625], [-117.7709, 42.22185, -429.4052734375]]], [[[-117.77238, 42.21234, -633.371337890625], [-117.76528, 42.21422, 113.40282440185547], [-117.7709, 42.22185, -429.4052734375], [-117.77238, 42.21234, -633.371337890625]]], [[[-117.77238, 42.21234, -633.371337890625], [-117.7709, 42.22185, -429.4052734375], [-117.77803, 42.22086, -1173.4908447265625], [-117.77238, 42.21234, -633.371337890625]]], [[[-117.78074, 42.21282, -1487.3101806640625], [-117.77238, 42.21234, -633.371337890625], [-117.77803, 42.22086, -1173.4908447265625], [-117.78074, 42.21282, -1487.3101806640625]]], [[[-117.78074, 42.21282, -1487.3101806640625], [-117.77803, 42.22086, -1173.4908447265625], [-117.78544, 42.21998, -1949.544189453125], [-117.78074, 42.21282, -1487.3101806640625]]], [[[-117.78808, 42.21171, -2250.70947265625], [-117.78074, 42.21282, -1487.3101806640625], [-117.78544, 42.21998, -1949.544189453125], [-117.78808, 42.21171, -2250.70947265625]]], [[[-117.78808, 42.21171, -2250.70947265625], [-117.78544, 42.21998, -1949.544189453125], [-117.79272, 42.21884, -2706.637451171875], [-117.78808, 42.21171, -2250.70947265625]]], [[[-117.79535, 42.21057, -3008.02197265625], [-117.78808, 42.21171, -2250.70947265625], [-117.79272, 42.21884, -2706.637451171875], [-117.79535, 42.21057, -3008.02197265625]]], [[[-117.79535, 42.21057, -3008.02197265625], [-117.79272, 42.21884, -2706.637451171875], [-117.79999, 42.2177, -3463.730712890625], [-117.79535, 42.21057, -3008.02197265625]]], [[[-117.80262, 42.20943, -3765.33447265625], [-117.79535, 42.21057, -3008.02197265625], [-117.79999, 42.2177, -3463.730712890625], [-117.80262, 42.20943, -3765.33447265625]]], [[[-117.80262, 42.20943, -3765.33447265625], [-117.79999, 42.2177, -3463.730712890625], [-117.80727, 42.21656, -4220.82421875], [-117.80262, 42.20943, -3765.33447265625]]], [[[-117.80989, 42.20829, -4522.64697265625], [-117.80262, 42.20943, -3765.33447265625], [-117.80727, 42.21656, -4220.82421875], [-117.80989, 42.20829, -4522.64697265625]]], [[[-117.80989, 42.20829, -4522.64697265625], [-117.80727, 42.21656, -4220.82421875], [-117.81454, 42.21542, -4977.91748046875], [-117.80989, 42.20829, -4522.64697265625]]], [[[-117.81716, 42.20716, -5279.95947265625], [-117.80989, 42.20829, -4522.64697265625], [-117.81454, 42.21542, -4977.91748046875], [-117.81716, 42.20716, -5279.95947265625]]], [[[-117.81716, 42.20716, -5279.95947265625], [-117.81454, 42.21542, -4977.91748046875], [-117.82182, 42.21428, -5735.0107421875], [-117.81716, 42.20716, -5279.95947265625]]], [[[-117.82443, 42.20602, -6037.2724609375], [-117.81716, 42.20716, -5279.95947265625], [-117.82182, 42.21428, -5735.0107421875], [-117.82443, 42.20602, -6037.2724609375]]], [[[-117.82443, 42.20602, -6037.2724609375], [-117.82182, 42.21428, -5735.0107421875], [-117.82909, 42.21314, -6492.1044921875], [-117.82443, 42.20602, -6037.2724609375]]], [[[-117.82443, 42.20602, -6037.2724609375], [-117.82909, 42.21314, -6492.1044921875], [-117.8317, 42.20488, -6794.5849609375], [-117.82443, 42.20602, -6037.2724609375]]], [[[-117.82675, 42.19768, -6369.61767578125], [-117.82443, 42.20602, -6037.2724609375], [-117.8317, 42.20488, -6794.5849609375], [-117.82675, 42.19768, -6369.61767578125]]], [[[-117.83636, 42.212, -7249.19775390625], [-117.8317, 42.20488, -6794.5849609375], [-117.82909, 42.21314, -6492.1044921875], [-117.83636, 42.212, -7249.19775390625]]], [[[-117.8317, 42.20488, -6794.5849609375], [-117.83636, 42.212, -7249.19775390625], [-117.83897, 42.20373, -7551.89794921875], [-117.8317, 42.20488, -6794.5849609375]]], [[[-117.84364, 42.21086, -8006.291015625], [-117.83897, 42.20373, -7551.89794921875], [-117.83636, 42.212, -7249.19775390625], [-117.84364, 42.21086, -8006.291015625]]], [[[-117.84648, 42.2028, -8331.8779296875], [-117.83897, 42.20373, -7551.89794921875], [-117.84364, 42.21086, -8006.291015625], [-117.84648, 42.2028, -8331.8779296875]]], [[[-117.84648, 42.2028, -8331.8779296875], [-117.84364, 42.21086, -8006.291015625], [-117.85182, 42.20926, -8853.013671875], [-117.84648, 42.2028, -8331.8779296875]]], [[[-117.85512, 42.20102, -9236.609375], [-117.84648, 42.2028, -8331.8779296875], [-117.85182, 42.20926, -8853.013671875], [-117.85512, 42.20102, -9236.609375]]], [[[-117.85512, 42.20102, -9236.609375], [-117.8489, 42.19617, -8650.1484375], [-117.84648, 42.2028, -8331.8779296875], [-117.85512, 42.20102, -9236.609375]]], [[[-117.8489, 42.19617, -8650.1484375], [-117.85512, 42.20102, -9236.609375], [-117.85486, 42.19191, -9315.4130859375], [-117.8489, 42.19617, -8650.1484375]]], [[[-117.85486, 42.19191, -9315.4130859375], [-117.85512, 42.20102, -9236.609375], [-117.86178, 42.19644, -9965.5693359375], [-117.85486, 42.19191, -9315.4130859375]]], [[[-117.85486, 42.19191, -9315.4130859375], [-117.86178, 42.19644, -9965.5693359375], [-117.86093, 42.18703, -9985.4951171875], [-117.85486, 42.19191, -9315.4130859375]]], [[[-117.85404, 42.18288, -9310.41796875], [-117.85486, 42.19191, -9315.4130859375], [-117.86093, 42.18703, -9985.4951171875], [-117.85404, 42.18288, -9310.41796875]]], [[[-117.85404, 42.18288, -9310.41796875], [-117.86093, 42.18703, -9985.4951171875], [-117.86017, 42.17817, -9989.4208984375], [-117.85404, 42.18288, -9310.41796875]]], [[[-117.85312, 42.17422, -9318.5859375], [-117.85404, 42.18288, -9310.41796875], [-117.86017, 42.17817, -9989.4208984375], [-117.85312, 42.17422, -9318.5859375]]], [[[-117.85312, 42.17422, -9318.5859375], [-117.86017, 42.17817, -9989.4208984375], [-117.85918, 42.16951, -9995.0634765625], [-117.85312, 42.17422, -9318.5859375]]], [[[-117.85209, 42.16552, -9322.4091796875], [-117.85312, 42.17422, -9318.5859375], [-117.85918, 42.16951, -9995.0634765625], [-117.85209, 42.16552, -9322.4091796875]]], [[[-117.85209, 42.16552, -9322.4091796875], [-117.85918, 42.16951, -9995.0634765625], [-117.8581, 42.16068, -9997.310546875], [-117.85209, 42.16552, -9322.4091796875]]], [[[-117.8581, 42.16068, -9997.310546875], [-117.85102, 42.15651, -9327.5546875], [-117.85209, 42.16552, -9322.4091796875], [-117.8581, 42.16068, -9997.310546875]]], [[[-117.85102, 42.15651, -9327.5546875], [-117.8581, 42.16068, -9997.310546875], [-117.85705, 42.15159, -10005.0244140625], [-117.85102, 42.15651, -9327.5546875]]], [[[-117.85012, 42.14816, -9311.857421875], [-117.85102, 42.15651, -9327.5546875], [-117.85705, 42.15159, -10005.0244140625], [-117.85012, 42.14816, -9311.857421875]]], [[[-117.84394, 42.153, -8650.9921875], [-117.85102, 42.15651, -9327.5546875], [-117.85012, 42.14816, -9311.857421875], [-117.84394, 42.153, -8650.9921875]]], [[[-117.84297, 42.14557, -8574.72265625], [-117.84394, 42.153, -8650.9921875], [-117.85012, 42.14816, -9311.857421875], [-117.84297, 42.14557, -8574.72265625]]], [[[-117.84297, 42.14557, -8574.72265625], [-117.85012, 42.14816, -9311.857421875], [-117.84879, 42.14081, -9259.203125], [-117.84297, 42.14557, -8574.72265625]]], [[[-117.84297, 42.14557, -8574.72265625], [-117.84879, 42.14081, -9259.203125], [-117.841, 42.13901, -8520.703125], [-117.84297, 42.14557, -8574.72265625]]], [[[-117.83553, 42.14375, -7859.365234375], [-117.84297, 42.14557, -8574.72265625], [-117.841, 42.13901, -8520.703125], [-117.83553, 42.14375, -7859.365234375]]], [[[-117.85012, 42.14816, -9311.857421875], [-117.85641, 42.1433, -9972.83984375], [-117.84879, 42.14081, -9259.203125], [-117.85012, 42.14816, -9311.857421875]]], [[[-117.85012, 42.14816, -9311.857421875], [-117.85705, 42.15159, -10005.0244140625], [-117.85641, 42.1433, -9972.83984375], [-117.85012, 42.14816, -9311.857421875]]], [[[-117.85641, 42.1433, -9972.83984375], [-117.85705, 42.15159, -10005.0244140625], [-117.86326, 42.14673, -10676.267578125], [-117.85641, 42.1433, -9972.83984375]]], [[[-117.85641, 42.1433, -9972.83984375], [-117.86326, 42.14673, -10676.267578125], [-117.8623, 42.13846, -10669.5302734375], [-117.85641, 42.1433, -9972.83984375]]], [[[-117.85641, 42.1433, -9972.83984375], [-117.8623, 42.13846, -10669.5302734375], [-117.85461, 42.13606, -9955.5751953125], [-117.85641, 42.1433, -9972.83984375]]], [[[-117.85461, 42.13606, -9955.5751953125], [-117.84879, 42.14081, -9259.203125], [-117.85641, 42.1433, -9972.83984375], [-117.85461, 42.13606, -9955.5751953125]]], [[[-117.86326, 42.14673, -10676.267578125], [-117.86964, 42.14211, -11346.91015625], [-117.8623, 42.13846, -10669.5302734375], [-117.86326, 42.14673, -10676.267578125]]], [[[-117.86326, 42.14673, -10676.267578125], [-117.87013, 42.15097, -11344.783203125], [-117.86964, 42.14211, -11346.91015625], [-117.86326, 42.14673, -10676.267578125]]], [[[-117.86326, 42.14673, -10676.267578125], [-117.86413, 42.15582, -10670.0107421875], [-117.87013, 42.15097, -11344.783203125], [-117.86326, 42.14673, -10676.267578125]]], [[[-117.85705, 42.15159, -10005.0244140625], [-117.86413, 42.15582, -10670.0107421875], [-117.86326, 42.14673, -10676.267578125], [-117.85705, 42.15159, -10005.0244140625]]], [[[-117.8581, 42.16068, -9997.310546875], [-117.86413, 42.15582, -10670.0107421875], [-117.85705, 42.15159, -10005.0244140625], [-117.8581, 42.16068, -9997.310546875]]], [[[-117.86413, 42.15582, -10670.0107421875], [-117.8581, 42.16068, -9997.310546875], [-117.86521, 42.16467, -10668.529296875], [-117.86413, 42.15582, -10670.0107421875]]], [[[-117.86413, 42.15582, -10670.0107421875], [-117.86521, 42.16467, -10668.529296875], [-117.87121, 42.15981, -11343.572265625], [-117.86413, 42.15582, -10670.0107421875]]], [[[-117.86413, 42.15582, -10670.0107421875], [-117.87121, 42.15981, -11343.572265625], [-117.87013, 42.15097, -11344.783203125], [-117.86413, 42.15582, -10670.0107421875]]], [[[-117.86521, 42.16467, -10668.529296875], [-117.87229, 42.16865, -11342.3681640625], [-117.87121, 42.15981, -11343.572265625], [-117.86521, 42.16467, -10668.529296875]]], [[[-117.86521, 42.16467, -10668.529296875], [-117.86627, 42.17349, -10667.2333984375], [-117.87229, 42.16865, -11342.3681640625], [-117.86521, 42.16467, -10668.529296875]]], [[[-117.86521, 42.16467, -10668.529296875], [-117.85918, 42.16951, -9995.0634765625], [-117.86627, 42.17349, -10667.2333984375], [-117.86521, 42.16467, -10668.529296875]]], [[[-117.85918, 42.16951, -9995.0634765625], [-117.86521, 42.16467, -10668.529296875], [-117.8581, 42.16068, -9997.310546875], [-117.85918, 42.16951, -9995.0634765625]]], [[[-117.86017, 42.17817, -9989.4208984375], [-117.86627, 42.17349, -10667.2333984375], [-117.85918, 42.16951, -9995.0634765625], [-117.86017, 42.17817, -9989.4208984375]]], [[[-117.86017, 42.17817, -9989.4208984375], [-117.86717, 42.18217, -10660.3369140625], [-117.86627, 42.17349, -10667.2333984375], [-117.86017, 42.17817, -9989.4208984375]]], [[[-117.86093, 42.18703, -9985.4951171875], [-117.86717, 42.18217, -10660.3369140625], [-117.86017, 42.17817, -9989.4208984375], [-117.86093, 42.18703, -9985.4951171875]]], [[[-117.86093, 42.18703, -9985.4951171875], [-117.86798, 42.1912, -10663.21484375], [-117.86717, 42.18217, -10660.3369140625], [-117.86093, 42.18703, -9985.4951171875]]], [[[-117.86178, 42.19644, -9965.5693359375], [-117.86798, 42.1912, -10663.21484375], [-117.86093, 42.18703, -9985.4951171875], [-117.86178, 42.19644, -9965.5693359375]]], [[[-117.86178, 42.19644, -9965.5693359375], [-117.86852, 42.20013, -10620.1572265625], [-117.86798, 42.1912, -10663.21484375], [-117.86178, 42.19644, -9965.5693359375]]], [[[-117.86178, 42.19644, -9965.5693359375], [-117.86113, 42.20678, -9805.900390625], [-117.86852, 42.20013, -10620.1572265625], [-117.86178, 42.19644, -9965.5693359375]]], [[[-117.85512, 42.20102, -9236.609375], [-117.86113, 42.20678, -9805.900390625], [-117.86178, 42.19644, -9965.5693359375], [-117.85512, 42.20102, -9236.609375]]], [[[-117.85512, 42.20102, -9236.609375], [-117.85182, 42.20926, -8853.013671875], [-117.86113, 42.20678, -9805.900390625], [-117.85512, 42.20102, -9236.609375]]], [[[-117.85182, 42.20926, -8853.013671875], [-117.85513, 42.21625, -9310.611328125], [-117.86113, 42.20678, -9805.900390625], [-117.85182, 42.20926, -8853.013671875]]], [[[-117.85182, 42.20926, -8853.013671875], [-117.84741, 42.21798, -8519.38671875], [-117.85513, 42.21625, -9310.611328125], [-117.85182, 42.20926, -8853.013671875]]], [[[-117.84364, 42.21086, -8006.291015625], [-117.84741, 42.21798, -8519.38671875], [-117.85182, 42.20926, -8853.013671875], [-117.84364, 42.21086, -8006.291015625]]], [[[-117.84364, 42.21086, -8006.291015625], [-117.84013, 42.21912, -7762.55712890625], [-117.84741, 42.21798, -8519.38671875], [-117.84364, 42.21086, -8006.291015625]]], [[[-117.84364, 42.21086, -8006.291015625], [-117.83636, 42.212, -7249.19775390625], [-117.84013, 42.21912, -7762.55712890625], [-117.84364, 42.21086, -8006.291015625]]], [[[-117.83636, 42.212, -7249.19775390625], [-117.83285, 42.22026, -7005.7275390625], [-117.84013, 42.21912, -7762.55712890625], [-117.83636, 42.212, -7249.19775390625]]], [[[-117.83636, 42.212, -7249.19775390625], [-117.82909, 42.21314, -6492.1044921875], [-117.83285, 42.22026, -7005.7275390625], [-117.83636, 42.212, -7249.19775390625]]], [[[-117.82909, 42.21314, -6492.1044921875], [-117.82557, 42.2214, -6248.89794921875], [-117.83285, 42.22026, -7005.7275390625], [-117.82909, 42.21314, -6492.1044921875]]], [[[-117.82182, 42.21428, -5735.0107421875], [-117.82557, 42.2214, -6248.89794921875], [-117.82909, 42.21314, -6492.1044921875], [-117.82182, 42.21428, -5735.0107421875]]], [[[-117.82182, 42.21428, -5735.0107421875], [-117.81829, 42.22254, -5492.068359375], [-117.82557, 42.2214, -6248.89794921875], [-117.82182, 42.21428, -5735.0107421875]]], [[[-117.81454, 42.21542, -4977.91748046875], [-117.81829, 42.22254, -5492.068359375], [-117.82182, 42.21428, -5735.0107421875], [-117.81454, 42.21542, -4977.91748046875]]], [[[-117.81454, 42.21542, -4977.91748046875], [-117.81102, 42.22368, -4735.23876953125], [-117.81829, 42.22254, -5492.068359375], [-117.81454, 42.21542, -4977.91748046875]]], [[[-117.80727, 42.21656, -4220.82421875], [-117.81102, 42.22368, -4735.23876953125], [-117.81454, 42.21542, -4977.91748046875], [-117.80727, 42.21656, -4220.82421875]]], [[[-117.80727, 42.21656, -4220.82421875], [-117.80374, 42.22482, -3978.4091796875], [-117.81102, 42.22368, -4735.23876953125], [-117.80727, 42.21656, -4220.82421875]]], [[[-117.79999, 42.2177, -3463.730712890625], [-117.80374, 42.22482, -3978.4091796875], [-117.80727, 42.21656, -4220.82421875], [-117.79999, 42.2177, -3463.730712890625]]], [[[-117.79999, 42.2177, -3463.730712890625], [-117.79646, 42.22595, -3221.57958984375], [-117.80374, 42.22482, -3978.4091796875], [-117.79999, 42.2177, -3463.730712890625]]], [[[-117.79272, 42.21884, -2706.637451171875], [-117.79646, 42.22595, -3221.57958984375], [-117.79999, 42.2177, -3463.730712890625], [-117.79272, 42.21884, -2706.637451171875]]], [[[-117.79272, 42.21884, -2706.637451171875], [-117.78917, 42.22709, -2464.75], [-117.79646, 42.22595, -3221.57958984375], [-117.79272, 42.21884, -2706.637451171875]]], [[[-117.78544, 42.21998, -1949.544189453125], [-117.78917, 42.22709, -2464.75], [-117.79272, 42.21884, -2706.637451171875], [-117.78544, 42.21998, -1949.544189453125]]], [[[-117.78544, 42.21998, -1949.544189453125], [-117.78189, 42.22823, -1707.9202880859375], [-117.78917, 42.22709, -2464.75], [-117.78544, 42.21998, -1949.544189453125]]], [[[-117.77803, 42.22086, -1173.4908447265625], [-117.78189, 42.22823, -1707.9202880859375], [-117.78544, 42.21998, -1949.544189453125], [-117.77803, 42.22086, -1173.4908447265625]]], [[[-117.77803, 42.22086, -1173.4908447265625], [-117.77461, 42.22936, -951.0907592773438], [-117.78189, 42.22823, -1707.9202880859375], [-117.77803, 42.22086, -1173.4908447265625]]], [[[-117.7709, 42.22185, -429.4052734375], [-117.77461, 42.22936, -951.0907592773438], [-117.77803, 42.22086, -1173.4908447265625], [-117.7709, 42.22185, -429.4052734375]]], [[[-117.7709, 42.22185, -429.4052734375], [-117.76711, 42.23047, -169.66888427734375], [-117.77461, 42.22936, -951.0907592773438], [-117.7709, 42.22185, -429.4052734375]]], [[[-117.7709, 42.22185, -429.4052734375], [-117.76416, 42.22294, 270.5377197265625], [-117.76711, 42.23047, -169.66888427734375], [-117.7709, 42.22185, -429.4052734375]]], [[[-117.76416, 42.22294, 270.5377197265625], [-117.7588, 42.22977, 730.664306640625], [-117.76711, 42.23047, -169.66888427734375], [-117.76416, 42.22294, 270.5377197265625]]], [[[-117.7588, 42.22977, 730.664306640625], [-117.76416, 42.22294, 270.5377197265625], [-117.75885, 42.21887, 818.3343505859375], [-117.7588, 42.22977, 730.664306640625]]], [[[-117.76711, 42.23047, -169.66888427734375], [-117.7588, 42.22977, 730.664306640625], [-117.76355, 42.23873, 32.77464294433594], [-117.76711, 42.23047, -169.66888427734375]]], [[[-117.76711, 42.23047, -169.66888427734375], [-117.76355, 42.23873, 32.77464294433594], [-117.77083, 42.23759, -724.3795166015625], [-117.76711, 42.23047, -169.66888427734375]]], [[[-117.77461, 42.22936, -951.0907592773438], [-117.76711, 42.23047, -169.66888427734375], [-117.77083, 42.23759, -724.3795166015625], [-117.77461, 42.22936, -951.0907592773438]]], [[[-117.77461, 42.22936, -951.0907592773438], [-117.77083, 42.23759, -724.3795166015625], [-117.77811, 42.23646, -1481.53369140625], [-117.77461, 42.22936, -951.0907592773438]]], [[[-117.78189, 42.22823, -1707.9202880859375], [-117.77461, 42.22936, -951.0907592773438], [-117.77811, 42.23646, -1481.53369140625], [-117.78189, 42.22823, -1707.9202880859375]]], [[[-117.78189, 42.22823, -1707.9202880859375], [-117.77811, 42.23646, -1481.53369140625], [-117.78538, 42.23532, -2238.68798828125], [-117.78189, 42.22823, -1707.9202880859375]]], [[[-117.78917, 42.22709, -2464.75], [-117.78189, 42.22823, -1707.9202880859375], [-117.78538, 42.23532, -2238.68798828125], [-117.78917, 42.22709, -2464.75]]], [[[-117.78917, 42.22709, -2464.75], [-117.78538, 42.23532, -2238.68798828125], [-117.79266, 42.23418, -2995.842041015625], [-117.78917, 42.22709, -2464.75]]], [[[-117.79646, 42.22595, -3221.57958984375], [-117.78917, 42.22709, -2464.75], [-117.79266, 42.23418, -2995.842041015625], [-117.79646, 42.22595, -3221.57958984375]]], [[[-117.79646, 42.22595, -3221.57958984375], [-117.79266, 42.23418, -2995.842041015625], [-117.79994, 42.23304, -3752.996337890625], [-117.79646, 42.22595, -3221.57958984375]]], [[[-117.80374, 42.22482, -3978.4091796875], [-117.79646, 42.22595, -3221.57958984375], [-117.79994, 42.23304, -3752.996337890625], [-117.80374, 42.22482, -3978.4091796875]]], [[[-117.80374, 42.22482, -3978.4091796875], [-117.79994, 42.23304, -3752.996337890625], [-117.80721, 42.2319, -4510.150390625], [-117.80374, 42.22482, -3978.4091796875]]], [[[-117.81102, 42.22368, -4735.23876953125], [-117.80374, 42.22482, -3978.4091796875], [-117.80721, 42.2319, -4510.150390625], [-117.81102, 42.22368, -4735.23876953125]]], [[[-117.81102, 42.22368, -4735.23876953125], [-117.80721, 42.2319, -4510.150390625], [-117.81449, 42.23077, -5267.3046875], [-117.81102, 42.22368, -4735.23876953125]]], [[[-117.81829, 42.22254, -5492.068359375], [-117.81102, 42.22368, -4735.23876953125], [-117.81449, 42.23077, -5267.3046875], [-117.81829, 42.22254, -5492.068359375]]], [[[-117.81829, 42.22254, -5492.068359375], [-117.81449, 42.23077, -5267.3046875], [-117.82176, 42.22963, -6024.458984375], [-117.81829, 42.22254, -5492.068359375]]], [[[-117.82557, 42.2214, -6248.89794921875], [-117.81829, 42.22254, -5492.068359375], [-117.82176, 42.22963, -6024.458984375], [-117.82557, 42.2214, -6248.89794921875]]], [[[-117.82557, 42.2214, -6248.89794921875], [-117.82176, 42.22963, -6024.458984375], [-117.82904, 42.22849, -6781.61279296875], [-117.82557, 42.2214, -6248.89794921875]]], [[[-117.82557, 42.2214, -6248.89794921875], [-117.82904, 42.22849, -6781.61279296875], [-117.83285, 42.22026, -7005.7275390625], [-117.82557, 42.2214, -6248.89794921875]]], [[[-117.83285, 42.22026, -7005.7275390625], [-117.82904, 42.22849, -6781.61279296875], [-117.83631, 42.22735, -7538.76708984375], [-117.83285, 42.22026, -7005.7275390625]]], [[[-117.84359, 42.2262, -8295.9208984375], [-117.84013, 42.21912, -7762.55712890625], [-117.83631, 42.22735, -7538.76708984375], [-117.84359, 42.2262, -8295.9208984375]]], [[[-117.84741, 42.21798, -8519.38671875], [-117.84013, 42.21912, -7762.55712890625], [-117.84359, 42.2262, -8295.9208984375], [-117.84741, 42.21798, -8519.38671875]]], [[[-117.84741, 42.21798, -8519.38671875], [-117.84359, 42.2262, -8295.9208984375], [-117.85086, 42.22506, -9053.0751953125], [-117.84741, 42.21798, -8519.38671875]]], [[[-117.85513, 42.21625, -9310.611328125], [-117.84741, 42.21798, -8519.38671875], [-117.85086, 42.22506, -9053.0751953125], [-117.85513, 42.21625, -9310.611328125]]], [[[-117.85513, 42.21625, -9310.611328125], [-117.85086, 42.22506, -9053.0751953125], [-117.85814, 42.22392, -9810.2294921875], [-117.85513, 42.21625, -9310.611328125]]], [[[-117.86216, 42.21545, -10048.3671875], [-117.85513, 42.21625, -9310.611328125], [-117.85814, 42.22392, -9810.2294921875], [-117.86216, 42.21545, -10048.3671875]]], [[[-117.86216, 42.21545, -10048.3671875], [-117.86113, 42.20678, -9805.900390625], [-117.85513, 42.21625, -9310.611328125], [-117.86216, 42.21545, -10048.3671875]]], [[[-117.86113, 42.20678, -9805.900390625], [-117.86216, 42.21545, -10048.3671875], [-117.86888, 42.20792, -10649.615234375], [-117.86113, 42.20678, -9805.900390625]]], [[[-117.86113, 42.20678, -9805.900390625], [-117.86888, 42.20792, -10649.615234375], [-117.86852, 42.20013, -10620.1572265625], [-117.86113, 42.20678, -9805.900390625]]], [[[-117.86852, 42.20013, -10620.1572265625], [-117.86888, 42.20792, -10649.615234375], [-117.8759, 42.20405, -11336.2119140625], [-117.86852, 42.20013, -10620.1572265625]]], [[[-117.86852, 42.20013, -10620.1572265625], [-117.8759, 42.20405, -11336.2119140625], [-117.87504, 42.1952, -11337.9755859375], [-117.86852, 42.20013, -10620.1572265625]]], [[[-117.86798, 42.1912, -10663.21484375], [-117.86852, 42.20013, -10620.1572265625], [-117.87504, 42.1952, -11337.9755859375], [-117.86798, 42.1912, -10663.21484375]]], [[[-117.86798, 42.1912, -10663.21484375], [-117.87504, 42.1952, -11337.9755859375], [-117.87397, 42.18635, -11339.2021484375], [-117.86798, 42.1912, -10663.21484375]]], [[[-117.86717, 42.18217, -10660.3369140625], [-117.87397, 42.18635, -11339.2021484375], [-117.87333, 42.1775, -11341.099609375], [-117.86717, 42.18217, -10660.3369140625]]], [[[-117.86627, 42.17349, -10667.2333984375], [-117.86717, 42.18217, -10660.3369140625], [-117.87333, 42.1775, -11341.099609375], [-117.86627, 42.17349, -10667.2333984375]]], [[[-117.86627, 42.17349, -10667.2333984375], [-117.87333, 42.1775, -11341.099609375], [-117.87229, 42.16865, -11342.3681640625], [-117.86627, 42.17349, -10667.2333984375]]], [[[-117.86888, 42.20792, -10649.615234375], [-117.87461, 42.21288, -11330.8603515625], [-117.8759, 42.20405, -11336.2119140625], [-117.86888, 42.20792, -10649.615234375]]], [[[-117.86888, 42.20792, -10649.615234375], [-117.86874, 42.21539, -10752.763671875], [-117.87461, 42.21288, -11330.8603515625], [-117.86888, 42.20792, -10649.615234375]]], [[[-117.86216, 42.21545, -10048.3671875], [-117.86874, 42.21539, -10752.763671875], [-117.86888, 42.20792, -10649.615234375], [-117.86216, 42.21545, -10048.3671875]]], [[[-117.86216, 42.21545, -10048.3671875], [-117.86541, 42.22278, -10567.3837890625], [-117.86874, 42.21539, -10752.763671875], [-117.86216, 42.21545, -10048.3671875]]], [[[-117.86216, 42.21545, -10048.3671875], [-117.85814, 42.22392, -9810.2294921875], [-117.86541, 42.22278, -10567.3837890625], [-117.86216, 42.21545, -10048.3671875]]], [[[-117.87268, 42.22164, -11324.5380859375], [-117.86874, 42.21539, -10752.763671875], [-117.86541, 42.22278, -10567.3837890625], [-117.87268, 42.22164, -11324.5380859375]]], [[[-117.86874, 42.21539, -10752.763671875], [-117.87268, 42.22164, -11324.5380859375], [-117.87461, 42.21288, -11330.8603515625], [-117.86874, 42.21539, -10752.763671875]]], [[[-117.7588, 42.22977, 730.664306640625], [-117.75628, 42.23986, 789.9288330078125], [-117.76355, 42.23873, 32.77464294433594], [-117.7588, 42.22977, 730.664306640625]]], [[[-117.7588, 42.22977, 730.664306640625], [-117.75362, 42.23604, 1158.304443359375], [-117.75628, 42.23986, 789.9288330078125], [-117.7588, 42.22977, 730.664306640625]]], [[[-117.7588, 42.22977, 730.664306640625], [-117.75095, 42.23222, 1526.355224609375], [-117.75362, 42.23604, 1158.304443359375], [-117.7588, 42.22977, 730.664306640625]]], [[[-117.75362, 42.23604, 1158.304443359375], [-117.75095, 42.23222, 1526.355224609375], [-117.749, 42.241, 1547.0830078125], [-117.75362, 42.23604, 1158.304443359375]]], [[[-117.75628, 42.23986, 789.9288330078125], [-117.75362, 42.23604, 1158.304443359375], [-117.749, 42.241, 1547.0830078125], [-117.75628, 42.23986, 789.9288330078125]]], [[[-117.8623, 42.13846, -10669.5302734375], [-117.86964, 42.14211, -11346.91015625], [-117.86784, 42.13334, -11346.970703125], [-117.8623, 42.13846, -10669.5302734375]]], [[[-117.76219, 42.18736, 110.58136749267578], [-117.75513, 42.18327, 776.931884765625], [-117.75611, 42.1921, 790.0568237304688], [-117.76219, 42.18736, 110.58136749267578]]], [[[-117.76219, 42.18736, 110.58136749267578], [-117.76115, 42.17853, 102.2445297241211], [-117.75513, 42.18327, 776.931884765625], [-117.76219, 42.18736, 110.58136749267578]]], [[[-117.76219, 42.18736, 110.58136749267578], [-117.76824, 42.18256, -566.1004638671875], [-117.76115, 42.17853, 102.2445297241211], [-117.76219, 42.18736, 110.58136749267578]]], [[[-117.76824, 42.18256, -566.1004638671875], [-117.76219, 42.18736, 110.58136749267578], [-117.76926, 42.19138, -557.7261352539062], [-117.76824, 42.18256, -566.1004638671875]]], [[[-117.77531, 42.18661, -1235.172119140625], [-117.76824, 42.18256, -566.1004638671875], [-117.76926, 42.19138, -557.7261352539062], [-117.77531, 42.18661, -1235.172119140625]]], [[[-117.77531, 42.18661, -1235.172119140625], [-117.77454, 42.17823, -1264.61376953125], [-117.76824, 42.18256, -566.1004638671875], [-117.77531, 42.18661, -1235.172119140625]]], [[[-117.77454, 42.17823, -1264.61376953125], [-117.76746, 42.17419, -596.2838745117188], [-117.76824, 42.18256, -566.1004638671875], [-117.77454, 42.17823, -1264.61376953125]]], [[[-117.77454, 42.17823, -1264.61376953125], [-117.77338, 42.16887, -1268.3924560546875], [-117.76746, 42.17419, -596.2838745117188], [-117.77454, 42.17823, -1264.61376953125]]], [[[-117.77338, 42.16887, -1268.3924560546875], [-117.7664, 42.16466, -601.2921752929688], [-117.76746, 42.17419, -596.2838745117188], [-117.77338, 42.16887, -1268.3924560546875]]], [[[-117.7664, 42.16466, -601.2921752929688], [-117.76042, 42.16999, 64.84008026123047], [-117.76746, 42.17419, -596.2838745117188], [-117.7664, 42.16466, -601.2921752929688]]], [[[-117.76042, 42.16999, 64.84008026123047], [-117.75349, 42.16586, 738.4784545898438], [-117.75414, 42.1744, 760.7687377929688], [-117.76042, 42.16999, 64.84008026123047]]], [[[-117.76115, 42.17853, 102.2445297241211], [-117.76042, 42.16999, 64.84008026123047], [-117.75414, 42.1744, 760.7687377929688], [-117.76115, 42.17853, 102.2445297241211]]], [[[-117.76746, 42.17419, -596.2838745117188], [-117.76115, 42.17853, 102.2445297241211], [-117.76824, 42.18256, -566.1004638671875], [-117.76746, 42.17419, -596.2838745117188]]], [[[-117.76115, 42.17853, 102.2445297241211], [-117.75414, 42.1744, 760.7687377929688], [-117.75513, 42.18327, 776.931884765625], [-117.76115, 42.17853, 102.2445297241211]]], [[[-117.75744, 42.1501, 120.18158721923828], [-117.75282, 42.15637, 731.7760620117188], [-117.75971, 42.16051, 84.5223388671875], [-117.75744, 42.1501, 120.18158721923828]]], [[[-117.76478, 42.15419, -519.0674438476562], [-117.76059, 42.14349, -515.621826171875], [-117.75744, 42.1501, 120.18158721923828], [-117.76478, 42.15419, -519.0674438476562]]], [[[-117.76478, 42.15419, -519.0674438476562], [-117.75971, 42.16051, 84.5223388671875], [-117.7664, 42.16466, -601.2921752929688], [-117.76478, 42.15419, -519.0674438476562]]], [[[-117.78534, 42.19631, -2144.4111328125], [-117.78283, 42.20426, -1800.525634765625], [-117.79033, 42.20344, -2576.85693359375], [-117.78534, 42.19631, -2144.4111328125]]], [[[-117.78393, 42.14956, -2548.827880859375], [-117.77726, 42.14348, -2106.965087890625], [-117.77672, 42.15244, -1757.681640625], [-117.78393, 42.14956, -2548.827880859375]]], [[[-117.79029, 42.15462, -3096.458740234375], [-117.79029, 42.16156, -3081.587158203125], [-117.79703, 42.15593, -3793.240234375], [-117.79029, 42.15462, -3096.458740234375]]], [[[-117.79641, 42.16433, -3669.425048828125], [-117.79703, 42.15593, -3793.240234375], [-117.79029, 42.16156, -3081.587158203125], [-117.79641, 42.16433, -3669.425048828125]]], [[[-117.8023, 42.16267, -4290.39794921875], [-117.79703, 42.15593, -3793.240234375], [-117.79641, 42.16433, -3669.425048828125], [-117.8023, 42.16267, -4290.39794921875]]], [[[-117.8023, 42.16267, -4290.39794921875], [-117.80466, 42.15471, -4585.59228515625], [-117.79703, 42.15593, -3793.240234375], [-117.8023, 42.16267, -4290.39794921875]]], [[[-117.8023, 42.16267, -4290.39794921875], [-117.80953, 42.16158, -5040.75390625], [-117.80466, 42.15471, -4585.59228515625], [-117.8023, 42.16267, -4290.39794921875]]], [[[-117.79949, 42.17102, -3897.787353515625], [-117.8023, 42.16267, -4290.39794921875], [-117.79641, 42.16433, -3669.425048828125], [-117.79949, 42.17102, -3897.787353515625]]], [[[-117.78804, 42.17774, -2643.5146484375], [-117.79239, 42.17089, -3177.053466796875], [-117.78561, 42.16729, -2532.095703125], [-117.78804, 42.17774, -2643.5146484375]]], [[[-117.79239, 42.17089, -3177.053466796875], [-117.78804, 42.17774, -2643.5146484375], [-117.79597, 42.17842, -3441.447509765625], [-117.79239, 42.17089, -3177.053466796875]]], [[[-117.79949, 42.17102, -3897.787353515625], [-117.79239, 42.17089, -3177.053466796875], [-117.79597, 42.17842, -3441.447509765625], [-117.79949, 42.17102, -3897.787353515625]]], [[[-117.79949, 42.17102, -3897.787353515625], [-117.79597, 42.17842, -3441.447509765625], [-117.80423, 42.17751, -4294.48583984375], [-117.79949, 42.17102, -3897.787353515625]]], [[[-117.80423, 42.17751, -4294.48583984375], [-117.79597, 42.17842, -3441.447509765625], [-117.80205, 42.18562, -3971.2392578125], [-117.80423, 42.17751, -4294.48583984375]]], [[[-117.83332, 42.1806, -7220.05029296875], [-117.82728, 42.17531, -6672.236328125], [-117.82451, 42.18233, -6300.4638671875], [-117.83332, 42.1806, -7220.05029296875]]], [[[-117.82728, 42.17531, -6672.236328125], [-117.83332, 42.1806, -7220.05029296875], [-117.83299, 42.17103, -7305.8203125], [-117.82728, 42.17531, -6672.236328125]]], [[[-117.83332, 42.1806, -7220.05029296875], [-117.83983, 42.17574, -7945.2119140625], [-117.83299, 42.17103, -7305.8203125], [-117.83332, 42.1806, -7220.05029296875]]], [[[-117.83332, 42.1806, -7220.05029296875], [-117.83941, 42.18635, -7777.4931640625], [-117.83983, 42.17574, -7945.2119140625], [-117.83332, 42.1806, -7220.05029296875]]], [[[-117.83332, 42.1806, -7220.05029296875], [-117.83007, 42.18888, -6795.5107421875], [-117.83941, 42.18635, -7777.4931640625], [-117.83332, 42.1806, -7220.05029296875]]], [[[-117.84162, 42.19516, -7920.3232421875], [-117.83941, 42.18635, -7777.4931640625], [-117.83444, 42.19589, -7178.63525390625], [-117.84162, 42.19516, -7920.3232421875]]], [[[-117.83941, 42.18635, -7777.4931640625], [-117.84162, 42.19516, -7920.3232421875], [-117.84755, 42.18805, -8591.3818359375], [-117.83941, 42.18635, -7777.4931640625]]], [[[-117.83941, 42.18635, -7777.4931640625], [-117.84755, 42.18805, -8591.3818359375], [-117.84662, 42.17946, -8589.9384765625], [-117.83941, 42.18635, -7777.4931640625]]], [[[-117.83983, 42.17574, -7945.2119140625], [-117.83941, 42.18635, -7777.4931640625], [-117.84662, 42.17946, -8589.9384765625], [-117.83983, 42.17574, -7945.2119140625]]], [[[-117.83983, 42.17574, -7945.2119140625], [-117.84662, 42.17946, -8589.9384765625], [-117.84606, 42.17028, -8646.4453125], [-117.83983, 42.17574, -7945.2119140625]]], [[[-117.83894, 42.1663, -7974.25634765625], [-117.83983, 42.17574, -7945.2119140625], [-117.84606, 42.17028, -8646.4453125], [-117.83894, 42.1663, -7974.25634765625]]], [[[-117.83299, 42.17103, -7305.8203125], [-117.83894, 42.1663, -7974.25634765625], [-117.83185, 42.16252, -7298.4140625], [-117.83299, 42.17103, -7305.8203125]]], [[[-117.83894, 42.1663, -7974.25634765625], [-117.84606, 42.17028, -8646.4453125], [-117.84495, 42.16142, -8646.8115234375], [-117.83894, 42.1663, -7974.25634765625]]], [[[-117.82441, 42.15974, -6578.10400390625], [-117.83185, 42.16252, -7298.4140625], [-117.83081, 42.15455, -7294.15234375], [-117.82441, 42.15974, -6578.10400390625]]], [[[-117.83081, 42.15455, -7294.15234375], [-117.83666, 42.15018, -7911.837890625], [-117.82894, 42.14437, -7184.49755859375], [-117.83081, 42.15455, -7294.15234375]]], [[[-117.82894, 42.14437, -7184.49755859375], [-117.83295, 42.13754, -7749.25537109375], [-117.82405, 42.13586, -6995.92578125], [-117.82894, 42.14437, -7184.49755859375]]], [[[-117.83006, 42.13065, -7858.79736328125], [-117.82405, 42.13586, -6995.92578125], [-117.83295, 42.13754, -7749.25537109375], [-117.83006, 42.13065, -7858.79736328125]]], [[[-117.82405, 42.13586, -6995.92578125], [-117.83006, 42.13065, -7858.79736328125], [-117.82318, 42.12778, -7400.05810546875], [-117.82405, 42.13586, -6995.92578125]]], [[[-117.83006, 42.13065, -7858.79736328125], [-117.82416, 42.12111, -8017.681640625], [-117.82318, 42.12778, -7400.05810546875], [-117.83006, 42.13065, -7858.79736328125]]], [[[-117.83006, 42.13065, -7858.79736328125], [-117.83826, 42.1328, -8522.6328125], [-117.83428, 42.12571, -8579.9326171875], [-117.83006, 42.13065, -7858.79736328125]]], [[[-117.83006, 42.13065, -7858.79736328125], [-117.83295, 42.13754, -7749.25537109375], [-117.83826, 42.1328, -8522.6328125], [-117.83006, 42.13065, -7858.79736328125]]], [[[-117.83428, 42.12571, -8579.9326171875], [-117.83011, 42.11879, -8759.5693359375], [-117.82416, 42.12111, -8017.681640625], [-117.83428, 42.12571, -8579.9326171875]]], [[[-117.83428, 42.12571, -8579.9326171875], [-117.83722, 42.11968, -9320.6181640625], [-117.83011, 42.11879, -8759.5693359375], [-117.83428, 42.12571, -8579.9326171875]]], [[[-117.82318, 42.12778, -7400.05810546875], [-117.82416, 42.12111, -8017.681640625], [-117.81582, 42.1217, -7215.4912109375], [-117.82318, 42.12778, -7400.05810546875]]]]}}]}