{"type": "FeatureCollection", "features": [{"type": "Feature", "properties": {"name": "Beaver Creek", "CFM_ID": 13, "region": "ForearcIntraarc_OR", "primary_state/province": "OR", "secondary_state/province": null, "avg_dip": 50, "dip_dir": "S", "rake": -90, "slip_sense": "Normal", "fault_level": 1, "NSHM23_sliprates": 0.3, "QFFDAgeCatBin": "late Quaternary", "QFFDAgeBin": "<130,000", "upper_depth": 0.3, "upper_depth_constraint": "topography", "lower_depth": -18.5, "lower_depth_constraint": "Slab2", "3D_model_constraints": "trace extended at constant dip", "reference": "US NSHM 2023", "nshm23_id": 2506.0, "lineage": "unmodified", "usgs_qffd_#": "895", "comments": null, "id": "13"}, "geometry": {"type": "MultiPolygon", "coordinates": [[[[-124.24947, 42.72675, -17230.755859375], [-124.25379, 42.7315, -16467.18359375], [-124.26174, 42.72641, -16945.171875], [-124.24947, 42.72675, -17230.755859375]]], [[[-124.35415, 42.82658, -868.9100341796875], [-124.34033, 42.8265, -1191.1693115234375], [-124.34467, 42.83125, -427.3686828613281], [-124.35415, 42.82658, -868.9100341796875]]], [[[-124.26174, 42.72641, -16945.171875], [-124.26644, 42.7307, -16241.841796875], [-124.27498, 42.72604, -16707.400390625], [-124.26174, 42.72641, -16945.171875]]], [[[-124.34999, 42.8213, -1702.0111083984375], [-124.34033, 42.8265, -1191.1693115234375], [-124.35415, 42.82658, -868.9100341796875], [-124.34999, 42.8213, -1702.0111083984375]]], [[[-124.40219, 42.74382, -8126.08251953125], [-124.41231, 42.74039, -7579.4765625], [-124.40788, 42.73548, -8361.533203125], [-124.40219, 42.74382, -8126.08251953125]]], [[[-124.31831, 42.78787, -7084.83740234375], [-124.3227, 42.79263, -6320.8994140625], [-124.33109, 42.78734, -6889.82763671875], [-124.31831, 42.78787, -7084.83740234375]]], [[[-124.27094, 42.73545, -15477.8759765625], [-124.26644, 42.7307, -16241.841796875], [-124.25811, 42.73625, -15703.3828125], [-124.27094, 42.73545, -15477.8759765625]]], [[[-124.34396, 42.77075, -8605.1875], [-124.35135, 42.76316, -8974.2509765625], [-124.33912, 42.76543, -9455.783203125], [-124.34396, 42.77075, -8605.1875]]], [[[-124.33002, 42.70427, -16374.5146484375], [-124.33503, 42.69669, -16974.302734375], [-124.32449, 42.70013, -17154.83984375], [-124.33002, 42.70427, -16374.5146484375]]], [[[-124.34999, 42.8213, -1702.0111083984375], [-124.336, 42.82175, -1954.9700927734375], [-124.34033, 42.8265, -1191.1693115234375], [-124.34999, 42.8213, -1702.0111083984375]]], [[[-124.25537, 42.72237, -17645.486328125], [-124.25071, 42.71815, -18337.09375], [-124.24813, 42.72028, -18132.3515625], [-124.25537, 42.72237, -17645.486328125]]], [[[-124.36875, 42.67778, -16375.951171875], [-124.36158, 42.68455, -16506.7734375], [-124.3675, 42.68368, -16059.6640625], [-124.36875, 42.67778, -16375.951171875]]], [[[-124.26244, 42.741, -14939.58203125], [-124.2751, 42.74025, -14713.09375], [-124.27094, 42.73545, -15477.8759765625], [-124.26244, 42.741, -14939.58203125]]], [[[-124.34442, 42.8164, -2508.76123046875], [-124.336, 42.82175, -1954.9700927734375], [-124.34999, 42.8213, -1702.0111083984375], [-124.34442, 42.8164, -2508.76123046875]]], [[[-124.29944, 42.71641, -17014.755859375], [-124.3092, 42.71291, -16752.640625], [-124.3044, 42.70858, -17498.708984375], [-124.29944, 42.71641, -17014.755859375]]], [[[-124.32761, 42.71204, -15781.9033203125], [-124.32063, 42.70862, -16583.16015625], [-124.3169, 42.71608, -15979.7744140625], [-124.32761, 42.71204, -15781.9033203125]]], [[[-124.34881, 42.70372, -15471.4443359375], [-124.34056, 42.70094, -16218.4443359375], [-124.3374, 42.70788, -15562.5009765625], [-124.34881, 42.70372, -15471.4443359375]]], [[[-124.34442, 42.8164, -2508.76123046875], [-124.33167, 42.81701, -2718.770751953125], [-124.336, 42.82175, -1954.9700927734375], [-124.34442, 42.8164, -2508.76123046875]]], [[[-124.37237, 42.69623, -14623.646484375], [-124.3769, 42.70111, -13835.927734375], [-124.38205, 42.69253, -14032.4296875], [-124.37237, 42.69623, -14623.646484375]]], [[[-124.3092, 42.71291, -16752.640625], [-124.32063, 42.70862, -16583.16015625], [-124.31486, 42.70489, -17322.189453125], [-124.3092, 42.71291, -16752.640625]]], [[[-124.36572, 42.79474, -4773.00537109375], [-124.35325, 42.79596, -5110.271484375], [-124.35746, 42.801, -4317.97998046875], [-124.36572, 42.79474, -4773.00537109375]]], [[[-124.40906, 42.79603, -2064.998046875], [-124.41845, 42.79709, -1319.8724365234375], [-124.41991, 42.78986, -2063.934814453125], [-124.40906, 42.79603, -2064.998046875]]], [[[-124.34543, 42.69327, -16793.56640625], [-124.35171, 42.69658, -16080.0400390625], [-124.35448, 42.69001, -16635.609375], [-124.34543, 42.69327, -16793.56640625]]], [[[-124.33998, 42.81167, -3269.465576171875], [-124.33167, 42.81701, -2718.770751953125], [-124.34442, 42.8164, -2508.76123046875], [-124.33998, 42.81167, -3269.465576171875]]], [[[-124.37122, 42.70945, -13601.5068359375], [-124.3769, 42.70111, -13835.927734375], [-124.3667, 42.70446, -14398.763671875], [-124.37122, 42.70945, -13601.5068359375]]], [[[-124.33998, 42.81167, -3269.465576171875], [-124.32733, 42.81226, -3482.571533203125], [-124.33167, 42.81701, -2718.770751953125], [-124.33998, 42.81167, -3269.465576171875]]], [[[-124.26771, 42.72205, -17424.5078125], [-124.27261, 42.71682, -17998.998046875], [-124.26119, 42.71771, -18175.484375], [-124.26771, 42.72205, -17424.5078125]]], [[[-124.39795, 42.802, -2088.917724609375], [-124.40766, 42.80351, -1391.1639404296875], [-124.40906, 42.79603, -2064.998046875], [-124.39795, 42.802, -2088.917724609375]]], [[[-124.34603, 42.71106, -14769.591796875], [-124.35572, 42.70645, -14787.4423828125], [-124.34881, 42.70372, -15471.4443359375], [-124.34603, 42.71106, -14769.591796875]]], [[[-124.37318, 42.6827, -15594.77734375], [-124.3675, 42.68368, -16059.6640625], [-124.36873, 42.69125, -15344.6669921875], [-124.37318, 42.6827, -15594.77734375]]], [[[-124.36162, 42.69122, -15943.2490234375], [-124.36873, 42.69125, -15344.6669921875], [-124.3675, 42.68368, -16059.6640625], [-124.36162, 42.69122, -15943.2490234375]]], [[[-124.33571, 42.80689, -4034.83544921875], [-124.32733, 42.81226, -3482.571533203125], [-124.33998, 42.81167, -3269.465576171875], [-124.33571, 42.80689, -4034.83544921875]]], [[[-124.36162, 42.69122, -15943.2490234375], [-124.3675, 42.68368, -16059.6640625], [-124.36158, 42.68455, -16506.7734375], [-124.36162, 42.69122, -15943.2490234375]]], [[[-124.37343, 42.78726, -5125.25537109375], [-124.36102, 42.78948, -5609.34033203125], [-124.36572, 42.79474, -4773.00537109375], [-124.37343, 42.78726, -5125.25537109375]]], [[[-124.33571, 42.80689, -4034.83544921875], [-124.323, 42.80751, -4246.3720703125], [-124.32733, 42.81226, -3482.571533203125], [-124.33571, 42.80689, -4034.83544921875]]], [[[-124.36873, 42.69125, -15344.6669921875], [-124.37761, 42.68762, -14813.603515625], [-124.37318, 42.6827, -15594.77734375], [-124.36873, 42.69125, -15344.6669921875]]], [[[-124.29634, 42.72339, -16411.521484375], [-124.30585, 42.72029, -16217.8291015625], [-124.29944, 42.71641, -17014.755859375], [-124.29634, 42.72339, -16411.521484375]]], [[[-124.3535, 42.73565, -11722.3017578125], [-124.36532, 42.7334, -11241.9951171875], [-124.3609, 42.7285, -12024.7705078125], [-124.3535, 42.73565, -11722.3017578125]]], [[[-124.37237, 42.69623, -14623.646484375], [-124.38205, 42.69253, -14032.4296875], [-124.37761, 42.68762, -14813.603515625], [-124.37237, 42.69623, -14623.646484375]]], [[[-124.33155, 42.80209, -4799.0029296875], [-124.323, 42.80751, -4246.3720703125], [-124.33571, 42.80689, -4034.83544921875], [-124.33155, 42.80209, -4799.0029296875]]], [[[-124.35866, 42.71164, -14061.0126953125], [-124.3667, 42.70446, -14398.763671875], [-124.35572, 42.70645, -14787.4423828125], [-124.35866, 42.71164, -14061.0126953125]]], [[[-124.36109, 42.69936, -15277.169921875], [-124.35572, 42.70645, -14787.4423828125], [-124.3667, 42.70446, -14398.763671875], [-124.36109, 42.69936, -15277.169921875]]], [[[-124.4104, 42.78831, -2722.129150390625], [-124.41991, 42.78986, -2063.934814453125], [-124.42156, 42.78144, -2961.75048828125], [-124.4104, 42.78831, -2722.129150390625]]], [[[-124.33155, 42.80209, -4799.0029296875], [-124.31867, 42.80276, -5010.1728515625], [-124.323, 42.80751, -4246.3720703125], [-124.33155, 42.80209, -4799.0029296875]]], [[[-124.4104, 42.78831, -2722.129150390625], [-124.42156, 42.78144, -2961.75048828125], [-124.41016, 42.78217, -3419.2666015625], [-124.4104, 42.78831, -2722.129150390625]]], [[[-124.36401, 42.76322, -8213.552734375], [-124.35494, 42.76854, -8200.4853515625], [-124.35988, 42.77238, -7496.49169921875], [-124.36401, 42.76322, -8213.552734375]]], [[[-124.38449, 42.72418, -11254.896484375], [-124.3946, 42.72075, -10707.7021484375], [-124.39017, 42.71584, -11489.7587890625], [-124.38449, 42.72418, -11254.896484375]]], [[[-124.33002, 42.70427, -16374.5146484375], [-124.3374, 42.70788, -15562.5009765625], [-124.34056, 42.70094, -16218.4443359375], [-124.33002, 42.70427, -16374.5146484375]]], [[[-124.33155, 42.80209, -4799.0029296875], [-124.32717, 42.79734, -5562.4169921875], [-124.31867, 42.80276, -5010.1728515625], [-124.33155, 42.80209, -4799.0029296875]]], [[[-124.34034, 42.79671, -5373.3212890625], [-124.32717, 42.79734, -5562.4169921875], [-124.33155, 42.80209, -4799.0029296875], [-124.34034, 42.79671, -5373.3212890625]]], [[[-124.32717, 42.79734, -5562.4169921875], [-124.34034, 42.79671, -5373.3212890625], [-124.33569, 42.7919, -6149.31005859375], [-124.32717, 42.79734, -5562.4169921875]]], [[[-124.37777, 42.79236, -4332.736328125], [-124.36572, 42.79474, -4773.00537109375], [-124.37002, 42.79978, -3982.181640625], [-124.37777, 42.79236, -4332.736328125]]], [[[-124.33569, 42.7919, -6149.31005859375], [-124.3227, 42.79263, -6320.8994140625], [-124.32717, 42.79734, -5562.4169921875], [-124.33569, 42.7919, -6149.31005859375]]], [[[-124.41104, 42.75364, -6561.67529296875], [-124.42117, 42.75021, -6015.36376953125], [-124.41674, 42.7453, -6797.42041015625], [-124.41104, 42.75364, -6561.67529296875]]], [[[-124.3227, 42.79263, -6320.8994140625], [-124.33569, 42.7919, -6149.31005859375], [-124.33109, 42.78734, -6889.82763671875], [-124.3227, 42.79263, -6320.8994140625]]], [[[-124.38064, 42.77993, -5465.28955078125], [-124.38992, 42.77506, -5407.68408203125], [-124.3851, 42.77064, -6165.60107421875], [-124.38064, 42.77993, -5465.28955078125]]], [[[-124.35988, 42.77238, -7496.49169921875], [-124.34822, 42.77567, -7829.625], [-124.352, 42.77995, -7151.20556640625], [-124.35988, 42.77238, -7496.49169921875]]], [[[-124.31831, 42.78787, -7084.83740234375], [-124.31001, 42.79326, -6537.7744140625], [-124.3227, 42.79263, -6320.8994140625], [-124.31831, 42.78787, -7084.83740234375]]], [[[-124.40345, 42.73057, -9143.5888671875], [-124.40867, 42.72203, -9345.3857421875], [-124.39903, 42.72566, -9925.6455078125], [-124.40345, 42.73057, -9143.5888671875]]], [[[-124.37564, 42.71436, -12819.302734375], [-124.38006, 42.71927, -12037.099609375], [-124.38575, 42.71093, -12271.814453125], [-124.37564, 42.71436, -12819.302734375]]], [[[-124.34603, 42.71106, -14769.591796875], [-124.34881, 42.70372, -15471.4443359375], [-124.3374, 42.70788, -15562.5009765625], [-124.34603, 42.71106, -14769.591796875]]], [[[-124.31831, 42.78787, -7084.83740234375], [-124.30568, 42.78851, -7301.57470703125], [-124.31001, 42.79326, -6537.7744140625], [-124.31831, 42.78787, -7084.83740234375]]], [[[-124.39378, 42.78024, -4641.2939453125], [-124.39986, 42.78655, -3612.91552734375], [-124.40505, 42.77771, -4180.2392578125], [-124.39378, 42.78024, -4641.2939453125]]], [[[-124.36572, 42.79474, -4773.00537109375], [-124.36102, 42.78948, -5609.34033203125], [-124.35325, 42.79596, -5110.271484375], [-124.36572, 42.79474, -4773.00537109375]]], [[[-124.35572, 42.70645, -14787.4423828125], [-124.36109, 42.69936, -15277.169921875], [-124.34881, 42.70372, -15471.4443359375], [-124.35572, 42.70645, -14787.4423828125]]], [[[-124.26174, 42.72641, -16945.171875], [-124.27498, 42.72604, -16707.400390625], [-124.26771, 42.72205, -17424.5078125], [-124.26174, 42.72641, -16945.171875]]], [[[-124.40661, 42.74873, -7343.87890625], [-124.41674, 42.7453, -6797.42041015625], [-124.41231, 42.74039, -7579.4765625], [-124.40661, 42.74873, -7343.87890625]]], [[[-124.3141, 42.78308, -7848.8125], [-124.30568, 42.78851, -7301.57470703125], [-124.31831, 42.78787, -7084.83740234375], [-124.3141, 42.78308, -7848.8125]]], [[[-124.39986, 42.78655, -3612.91552734375], [-124.41016, 42.78217, -3419.2666015625], [-124.40505, 42.77771, -4180.2392578125], [-124.39986, 42.78655, -3612.91552734375]]], [[[-124.37002, 42.79978, -3982.181640625], [-124.36199, 42.8056, -3574.01708984375], [-124.37691, 42.80508, -3028.07177734375], [-124.37002, 42.79978, -3982.181640625]]], [[[-124.37284, 42.72647, -11655.6767578125], [-124.38006, 42.71927, -12037.099609375], [-124.36841, 42.72156, -12437.2880859375], [-124.37284, 42.72647, -11655.6767578125]]], [[[-124.38006, 42.71927, -12037.099609375], [-124.39017, 42.71584, -11489.7587890625], [-124.38575, 42.71093, -12271.814453125], [-124.38006, 42.71927, -12037.099609375]]], [[[-124.3817, 42.7363, -10092.4541015625], [-124.38891, 42.72909, -10472.6923828125], [-124.37727, 42.73139, -10874.0654296875], [-124.3817, 42.7363, -10092.4541015625]]], [[[-124.29079, 42.71901, -17185.892578125], [-124.29473, 42.71302, -17655.4609375], [-124.28407, 42.71555, -17821.65625], [-124.29079, 42.71901, -17185.892578125]]], [[[-124.34396, 42.77075, -8605.1875], [-124.33144, 42.77191, -8940.6728515625], [-124.33591, 42.77706, -8126.82958984375], [-124.34396, 42.77075, -8605.1875]]], [[[-124.3141, 42.78308, -7848.8125], [-124.30136, 42.78376, -8065.37548828125], [-124.30568, 42.78851, -7301.57470703125], [-124.3141, 42.78308, -7848.8125]]], [[[-124.40345, 42.73057, -9143.5888671875], [-124.41311, 42.72694, -8564.2119140625], [-124.40867, 42.72203, -9345.3857421875], [-124.40345, 42.73057, -9143.5888671875]]], [[[-124.30993, 42.77828, -8614.255859375], [-124.30136, 42.78376, -8065.37548828125], [-124.3141, 42.78308, -7848.8125], [-124.30993, 42.77828, -8614.255859375]]], [[[-124.33301, 42.72391, -14235.505859375], [-124.34772, 42.7175, -13936.7578125], [-124.33554, 42.71573, -14883.919921875], [-124.33301, 42.72391, -14235.505859375]]], [[[-124.30993, 42.77828, -8614.255859375], [-124.29703, 42.77901, -8829.17578125], [-124.30136, 42.78376, -8065.37548828125], [-124.30993, 42.77828, -8614.255859375]]], [[[-124.41104, 42.75364, -6561.67529296875], [-124.41674, 42.7453, -6797.42041015625], [-124.40661, 42.74873, -7343.87890625], [-124.41104, 42.75364, -6561.67529296875]]], [[[-124.30544, 42.77356, -9374.126953125], [-124.29703, 42.77901, -8829.17578125], [-124.30993, 42.77828, -8614.255859375], [-124.30544, 42.77356, -9374.126953125]]], [[[-124.40345, 42.73057, -9143.5888671875], [-124.40788, 42.73548, -8361.533203125], [-124.41311, 42.72694, -8564.2119140625], [-124.40345, 42.73057, -9143.5888671875]]], [[[-124.28697, 42.72482, -16496.71875], [-124.29079, 42.71901, -17185.892578125], [-124.27974, 42.7208, -17247.548828125], [-124.28697, 42.72482, -16496.71875]]], [[[-124.37564, 42.71436, -12819.302734375], [-124.38132, 42.70602, -13053.87109375], [-124.37122, 42.70945, -13601.5068359375], [-124.37564, 42.71436, -12819.302734375]]], [[[-124.30544, 42.77356, -9374.126953125], [-124.2927, 42.77426, -9592.9765625], [-124.29703, 42.77901, -8829.17578125], [-124.30544, 42.77356, -9374.126953125]]], [[[-124.4199, 42.76346, -4997.2685546875], [-124.4256, 42.75512, -5233.3076171875], [-124.41547, 42.75855, -5779.47216796875], [-124.4199, 42.76346, -4997.2685546875]]], [[[-124.41272, 42.77071, -4621.17431640625], [-124.42433, 42.76836, -4215.06494140625], [-124.4199, 42.76346, -4997.2685546875], [-124.41272, 42.77071, -4621.17431640625]]], [[[-124.301, 42.76884, -10133.82421875], [-124.2927, 42.77426, -9592.9765625], [-124.30544, 42.77356, -9374.126953125], [-124.301, 42.76884, -10133.82421875]]], [[[-124.301, 42.76884, -10133.82421875], [-124.28838, 42.76951, -10356.77734375], [-124.2927, 42.77426, -9592.9765625], [-124.301, 42.76884, -10133.82421875]]], [[[-124.34772, 42.7175, -13936.7578125], [-124.34603, 42.71106, -14769.591796875], [-124.33554, 42.71573, -14883.919921875], [-124.34772, 42.7175, -13936.7578125]]], [[[-124.37343, 42.78726, -5125.25537109375], [-124.36572, 42.79474, -4773.00537109375], [-124.37777, 42.79236, -4332.736328125], [-124.37343, 42.78726, -5125.25537109375]]], [[[-124.29669, 42.76406, -10899.2236328125], [-124.28838, 42.76951, -10356.77734375], [-124.301, 42.76884, -10133.82421875], [-124.29669, 42.76406, -10899.2236328125]]], [[[-124.38985, 42.79268, -3557.735107421875], [-124.38893, 42.80018, -2827.105712890625], [-124.39957, 42.79474, -2798.658203125], [-124.38985, 42.79268, -3557.735107421875]]], [[[-124.38985, 42.79268, -3557.735107421875], [-124.39957, 42.79474, -2798.658203125], [-124.39986, 42.78655, -3612.91552734375], [-124.38985, 42.79268, -3557.735107421875]]], [[[-124.38006, 42.71927, -12037.099609375], [-124.38449, 42.72418, -11254.896484375], [-124.39017, 42.71584, -11489.7587890625], [-124.38006, 42.71927, -12037.099609375]]], [[[-124.29669, 42.76406, -10899.2236328125], [-124.28405, 42.76476, -11120.578125], [-124.28838, 42.76951, -10356.77734375], [-124.29669, 42.76406, -10899.2236328125]]], [[[-124.4199, 42.76346, -4997.2685546875], [-124.43003, 42.76003, -4451.25146484375], [-124.4256, 42.75512, -5233.3076171875], [-124.4199, 42.76346, -4997.2685546875]]], [[[-124.36199, 42.8056, -3574.01708984375], [-124.36631, 42.81016, -2842.16015625], [-124.37691, 42.80508, -3028.07177734375], [-124.36199, 42.8056, -3574.01708984375]]], [[[-124.34396, 42.77075, -8605.1875], [-124.33591, 42.77706, -8126.82958984375], [-124.34822, 42.77567, -7829.625], [-124.34396, 42.77075, -8605.1875]]], [[[-124.29669, 42.76406, -10899.2236328125], [-124.29252, 42.75927, -11663.0166015625], [-124.28405, 42.76476, -11120.578125], [-124.29669, 42.76406, -10899.2236328125]]], [[[-124.25537, 42.72237, -17645.486328125], [-124.26771, 42.72205, -17424.5078125], [-124.26119, 42.71771, -18175.484375], [-124.25537, 42.72237, -17645.486328125]]], [[[-124.30558, 42.75882, -11444.603515625], [-124.29252, 42.75927, -11663.0166015625], [-124.29669, 42.76406, -10899.2236328125], [-124.30558, 42.75882, -11444.603515625]]], [[[-124.37777, 42.79236, -4332.736328125], [-124.38985, 42.79268, -3557.735107421875], [-124.38675, 42.78631, -4428.40283203125], [-124.37777, 42.79236, -4332.736328125]]], [[[-124.26644, 42.7307, -16241.841796875], [-124.25379, 42.7315, -16467.18359375], [-124.25811, 42.73625, -15703.3828125], [-124.26644, 42.7307, -16241.841796875]]], [[[-124.40505, 42.77771, -4180.2392578125], [-124.41715, 42.77562, -3839.56298828125], [-124.41272, 42.77071, -4621.17431640625], [-124.40505, 42.77771, -4180.2392578125]]], [[[-124.29252, 42.75927, -11663.0166015625], [-124.30558, 42.75882, -11444.603515625], [-124.30138, 42.7539, -12226.841796875], [-124.29252, 42.75927, -11663.0166015625]]], [[[-124.29252, 42.75927, -11663.0166015625], [-124.30138, 42.7539, -12226.841796875], [-124.28822, 42.75449, -12427.6884765625], [-124.29252, 42.75927, -11663.0166015625]]], [[[-124.36875, 42.67778, -16375.951171875], [-124.3675, 42.68368, -16059.6640625], [-124.37318, 42.6827, -15594.77734375], [-124.36875, 42.67778, -16375.951171875]]], [[[-124.28822, 42.75449, -12427.6884765625], [-124.27973, 42.76001, -11884.37890625], [-124.29252, 42.75927, -11663.0166015625], [-124.28822, 42.75449, -12427.6884765625]]], [[[-124.4104, 42.78831, -2722.129150390625], [-124.40906, 42.79603, -2064.998046875], [-124.41991, 42.78986, -2063.934814453125], [-124.4104, 42.78831, -2722.129150390625]]], [[[-124.28822, 42.75449, -12427.6884765625], [-124.2754, 42.75525, -12648.1796875], [-124.27973, 42.76001, -11884.37890625], [-124.28822, 42.75449, -12427.6884765625]]], [[[-124.28374, 42.74978, -13186.11328125], [-124.2754, 42.75525, -12648.1796875], [-124.28822, 42.75449, -12427.6884765625], [-124.28374, 42.74978, -13186.11328125]]], [[[-124.39017, 42.71584, -11489.7587890625], [-124.39536, 42.70728, -11688.9072265625], [-124.38575, 42.71093, -12271.814453125], [-124.39017, 42.71584, -11489.7587890625]]], [[[-124.28374, 42.74978, -13186.11328125], [-124.27108, 42.7505, -13411.98046875], [-124.2754, 42.75525, -12648.1796875], [-124.28374, 42.74978, -13186.11328125]]], [[[-124.27932, 42.74504, -13948.3837890625], [-124.27108, 42.7505, -13411.98046875], [-124.28374, 42.74978, -13186.11328125], [-124.27932, 42.74504, -13948.3837890625]]], [[[-124.37284, 42.72647, -11655.6767578125], [-124.38449, 42.72418, -11254.896484375], [-124.38006, 42.71927, -12037.099609375], [-124.37284, 42.72647, -11655.6767578125]]], [[[-124.27932, 42.74504, -13948.3837890625], [-124.26676, 42.74575, -14175.78125], [-124.27108, 42.7505, -13411.98046875], [-124.27932, 42.74504, -13948.3837890625]]], [[[-124.38985, 42.79268, -3557.735107421875], [-124.38056, 42.79781, -3602.483154296875], [-124.38893, 42.80018, -2827.105712890625], [-124.38985, 42.79268, -3557.735107421875]]], [[[-124.35866, 42.71164, -14061.0126953125], [-124.34772, 42.7175, -13936.7578125], [-124.36296, 42.7166, -13282.1357421875], [-124.35866, 42.71164, -14061.0126953125]]], [[[-124.27932, 42.74504, -13948.3837890625], [-124.2751, 42.74025, -14713.09375], [-124.26676, 42.74575, -14175.78125], [-124.27932, 42.74504, -13948.3837890625]]], [[[-124.37002, 42.79978, -3982.181640625], [-124.36572, 42.79474, -4773.00537109375], [-124.35746, 42.801, -4317.97998046875], [-124.37002, 42.79978, -3982.181640625]]], [[[-124.36841, 42.72156, -12437.2880859375], [-124.37564, 42.71436, -12819.302734375], [-124.36296, 42.7166, -13282.1357421875], [-124.36841, 42.72156, -12437.2880859375]]], [[[-124.35135, 42.76316, -8974.2509765625], [-124.34396, 42.77075, -8605.1875], [-124.35494, 42.76854, -8200.4853515625], [-124.35135, 42.76316, -8974.2509765625]]], [[[-124.2751, 42.74025, -14713.09375], [-124.27932, 42.74504, -13948.3837890625], [-124.28798, 42.73979, -14496.6904296875], [-124.2751, 42.74025, -14713.09375]]], [[[-124.28393, 42.73506, -15247.9033203125], [-124.2751, 42.74025, -14713.09375], [-124.28798, 42.73979, -14496.6904296875], [-124.28393, 42.73506, -15247.9033203125]]], [[[-124.34381, 42.78608, -6698.7509765625], [-124.352, 42.77995, -7151.20556640625], [-124.33968, 42.78177, -7391.31005859375], [-124.34381, 42.78608, -6698.7509765625]]], [[[-124.28393, 42.73506, -15247.9033203125], [-124.27094, 42.73545, -15477.8759765625], [-124.2751, 42.74025, -14713.09375], [-124.28393, 42.73506, -15247.9033203125]]], [[[-124.36363, 42.77703, -6786.7255859375], [-124.35626, 42.78434, -6436.03271484375], [-124.36788, 42.78192, -6019.47900390625], [-124.36363, 42.77703, -6786.7255859375]]], [[[-124.27961, 42.73033, -16005.587890625], [-124.27094, 42.73545, -15477.8759765625], [-124.28393, 42.73506, -15247.9033203125], [-124.27961, 42.73033, -16005.587890625]]], [[[-124.27974, 42.7208, -17247.548828125], [-124.27261, 42.71682, -17998.998046875], [-124.26771, 42.72205, -17424.5078125], [-124.27974, 42.7208, -17247.548828125]]], [[[-124.27961, 42.73033, -16005.587890625], [-124.26644, 42.7307, -16241.841796875], [-124.27094, 42.73545, -15477.8759765625], [-124.27961, 42.73033, -16005.587890625]]], [[[-124.38056, 42.79781, -3602.483154296875], [-124.37002, 42.79978, -3982.181640625], [-124.37691, 42.80508, -3028.07177734375], [-124.38056, 42.79781, -3602.483154296875]]], [[[-124.32426, 42.71971, -15176.5234375], [-124.33554, 42.71573, -14883.919921875], [-124.32761, 42.71204, -15781.9033203125], [-124.32426, 42.71971, -15176.5234375]]], [[[-124.27961, 42.73033, -16005.587890625], [-124.27498, 42.72604, -16707.400390625], [-124.26644, 42.7307, -16241.841796875], [-124.27961, 42.73033, -16005.587890625]]], [[[-124.3558, 42.72306, -12901.9970703125], [-124.36841, 42.72156, -12437.2880859375], [-124.36296, 42.7166, -13282.1357421875], [-124.3558, 42.72306, -12901.9970703125]]], [[[-124.28697, 42.72482, -16496.71875], [-124.27498, 42.72604, -16707.400390625], [-124.27961, 42.73033, -16005.587890625], [-124.28697, 42.72482, -16496.71875]]], [[[-124.39017, 42.71584, -11489.7587890625], [-124.3998, 42.7122, -10907.7333984375], [-124.39536, 42.70728, -11688.9072265625], [-124.39017, 42.71584, -11489.7587890625]]], [[[-124.28697, 42.72482, -16496.71875], [-124.27974, 42.7208, -17247.548828125], [-124.27498, 42.72604, -16707.400390625], [-124.28697, 42.72482, -16496.71875]]], [[[-124.28697, 42.72482, -16496.71875], [-124.29634, 42.72339, -16411.521484375], [-124.29079, 42.71901, -17185.892578125], [-124.28697, 42.72482, -16496.71875]]], [[[-124.39903, 42.72566, -9925.6455078125], [-124.40424, 42.71711, -10126.5595703125], [-124.3946, 42.72075, -10707.7021484375], [-124.39903, 42.72566, -9925.6455078125]]], [[[-124.29146, 42.72976, -15708.8955078125], [-124.29634, 42.72339, -16411.521484375], [-124.28697, 42.72482, -16496.71875], [-124.29146, 42.72976, -15708.8955078125]]], [[[-124.39776, 42.73891, -8908.2861328125], [-124.40788, 42.73548, -8361.533203125], [-124.40345, 42.73057, -9143.5888671875], [-124.39776, 42.73891, -8908.2861328125]]], [[[-124.30212, 42.72782, -15612.638671875], [-124.29634, 42.72339, -16411.521484375], [-124.29146, 42.72976, -15708.8955078125], [-124.30212, 42.72782, -15612.638671875]]], [[[-124.37727, 42.73139, -10874.0654296875], [-124.38891, 42.72909, -10472.6923828125], [-124.38449, 42.72418, -11254.896484375], [-124.37727, 42.73139, -10874.0654296875]]], [[[-124.30212, 42.72782, -15612.638671875], [-124.30585, 42.72029, -16217.8291015625], [-124.29634, 42.72339, -16411.521484375], [-124.30212, 42.72782, -15612.638671875]]], [[[-124.36102, 42.78948, -5609.34033203125], [-124.35626, 42.78434, -6436.03271484375], [-124.34855, 42.79079, -5933.533203125], [-124.36102, 42.78948, -5609.34033203125]]], [[[-124.31257, 42.72378, -15438.515625], [-124.30585, 42.72029, -16217.8291015625], [-124.30212, 42.72782, -15612.638671875], [-124.31257, 42.72378, -15438.515625]]], [[[-124.35494, 42.76854, -8200.4853515625], [-124.34396, 42.77075, -8605.1875], [-124.34822, 42.77567, -7829.625], [-124.35494, 42.76854, -8200.4853515625]]], [[[-124.31257, 42.72378, -15438.515625], [-124.3169, 42.71608, -15979.7744140625], [-124.30585, 42.72029, -16217.8291015625], [-124.31257, 42.72378, -15438.515625]]], [[[-124.33968, 42.78177, -7391.31005859375], [-124.34822, 42.77567, -7829.625], [-124.33591, 42.77706, -8126.82958984375], [-124.33968, 42.78177, -7391.31005859375]]], [[[-124.31257, 42.72378, -15438.515625], [-124.32426, 42.71971, -15176.5234375], [-124.3169, 42.71608, -15979.7744140625], [-124.31257, 42.72378, -15438.515625]]], [[[-124.38891, 42.72909, -10472.6923828125], [-124.39333, 42.734, -9690.4892578125], [-124.39903, 42.72566, -9925.6455078125], [-124.38891, 42.72909, -10472.6923828125]]], [[[-124.31964, 42.72749, -14609.974609375], [-124.32426, 42.71971, -15176.5234375], [-124.31257, 42.72378, -15438.515625], [-124.31964, 42.72749, -14609.974609375]]], [[[-124.38449, 42.72418, -11254.896484375], [-124.38891, 42.72909, -10472.6923828125], [-124.3946, 42.72075, -10707.7021484375], [-124.38449, 42.72418, -11254.896484375]]], [[[-124.33301, 42.72391, -14235.505859375], [-124.32426, 42.71971, -15176.5234375], [-124.31964, 42.72749, -14609.974609375], [-124.33301, 42.72391, -14235.505859375]]], [[[-124.34381, 42.78608, -6698.7509765625], [-124.35626, 42.78434, -6436.03271484375], [-124.352, 42.77995, -7151.20556640625], [-124.34381, 42.78608, -6698.7509765625]]], [[[-124.33301, 42.72391, -14235.505859375], [-124.33554, 42.71573, -14883.919921875], [-124.32426, 42.71971, -15176.5234375], [-124.33301, 42.72391, -14235.505859375]]], [[[-124.4199, 42.76346, -4997.2685546875], [-124.42433, 42.76836, -4215.06494140625], [-124.43003, 42.76003, -4451.25146484375], [-124.4199, 42.76346, -4997.2685546875]]], [[[-124.34448, 42.72474, -13398.498046875], [-124.34772, 42.7175, -13936.7578125], [-124.33301, 42.72391, -14235.505859375], [-124.34448, 42.72474, -13398.498046875]]], [[[-124.34448, 42.72474, -13398.498046875], [-124.3558, 42.72306, -12901.9970703125], [-124.34772, 42.7175, -13936.7578125], [-124.34448, 42.72474, -13398.498046875]]], [[[-124.38985, 42.79268, -3557.735107421875], [-124.37777, 42.79236, -4332.736328125], [-124.38056, 42.79781, -3602.483154296875], [-124.38985, 42.79268, -3557.735107421875]]], [[[-124.34885, 42.73048, -12541.7158203125], [-124.3558, 42.72306, -12901.9970703125], [-124.34448, 42.72474, -13398.498046875], [-124.34885, 42.73048, -12541.7158203125]]], [[[-124.34885, 42.73048, -12541.7158203125], [-124.3609, 42.7285, -12024.7705078125], [-124.3558, 42.72306, -12901.9970703125], [-124.34885, 42.73048, -12541.7158203125]]], [[[-124.3535, 42.73565, -11722.3017578125], [-124.3609, 42.7285, -12024.7705078125], [-124.34885, 42.73048, -12541.7158203125], [-124.3535, 42.73565, -11722.3017578125]]], [[[-124.35823, 42.74065, -10913.525390625], [-124.36532, 42.7334, -11241.9951171875], [-124.3535, 42.73565, -11722.3017578125], [-124.35823, 42.74065, -10913.525390625]]], [[[-124.41016, 42.78217, -3419.2666015625], [-124.42156, 42.78144, -2961.75048828125], [-124.41715, 42.77562, -3839.56298828125], [-124.41016, 42.78217, -3419.2666015625]]], [[[-124.36532, 42.7334, -11241.9951171875], [-124.35823, 42.74065, -10913.525390625], [-124.36974, 42.73831, -10459.220703125], [-124.36532, 42.7334, -11241.9951171875]]], [[[-124.36532, 42.7334, -11241.9951171875], [-124.36974, 42.73831, -10459.220703125], [-124.37727, 42.73139, -10874.0654296875], [-124.36532, 42.7334, -11241.9951171875]]], [[[-124.38675, 42.78631, -4428.40283203125], [-124.38985, 42.79268, -3557.735107421875], [-124.39986, 42.78655, -3612.91552734375], [-124.38675, 42.78631, -4428.40283203125]]], [[[-124.36532, 42.7334, -11241.9951171875], [-124.37727, 42.73139, -10874.0654296875], [-124.37284, 42.72647, -11655.6767578125], [-124.36532, 42.7334, -11241.9951171875]]], [[[-124.41547, 42.75855, -5779.47216796875], [-124.42117, 42.75021, -6015.36376953125], [-124.41104, 42.75364, -6561.67529296875], [-124.41547, 42.75855, -5779.47216796875]]], [[[-124.3609, 42.7285, -12024.7705078125], [-124.36532, 42.7334, -11241.9951171875], [-124.37284, 42.72647, -11655.6767578125], [-124.3609, 42.7285, -12024.7705078125]]], [[[-124.3609, 42.7285, -12024.7705078125], [-124.37284, 42.72647, -11655.6767578125], [-124.36841, 42.72156, -12437.2880859375], [-124.3609, 42.7285, -12024.7705078125]]], [[[-124.3558, 42.72306, -12901.9970703125], [-124.3609, 42.7285, -12024.7705078125], [-124.36841, 42.72156, -12437.2880859375], [-124.3558, 42.72306, -12901.9970703125]]], [[[-124.3558, 42.72306, -12901.9970703125], [-124.36296, 42.7166, -13282.1357421875], [-124.34772, 42.7175, -13936.7578125], [-124.3558, 42.72306, -12901.9970703125]]], [[[-124.34772, 42.7175, -13936.7578125], [-124.35866, 42.71164, -14061.0126953125], [-124.34603, 42.71106, -14769.591796875], [-124.34772, 42.7175, -13936.7578125]]], [[[-124.33554, 42.71573, -14883.919921875], [-124.34603, 42.71106, -14769.591796875], [-124.3374, 42.70788, -15562.5009765625], [-124.33554, 42.71573, -14883.919921875]]], [[[-124.33554, 42.71573, -14883.919921875], [-124.3374, 42.70788, -15562.5009765625], [-124.32761, 42.71204, -15781.9033203125], [-124.33554, 42.71573, -14883.919921875]]], [[[-124.32426, 42.71971, -15176.5234375], [-124.32761, 42.71204, -15781.9033203125], [-124.3169, 42.71608, -15979.7744140625], [-124.32426, 42.71971, -15176.5234375]]], [[[-124.32063, 42.70862, -16583.16015625], [-124.32761, 42.71204, -15781.9033203125], [-124.33002, 42.70427, -16374.5146484375], [-124.32063, 42.70862, -16583.16015625]]], [[[-124.38056, 42.79781, -3602.483154296875], [-124.37691, 42.80508, -3028.07177734375], [-124.38893, 42.80018, -2827.105712890625], [-124.38056, 42.79781, -3602.483154296875]]], [[[-124.32063, 42.70862, -16583.16015625], [-124.33002, 42.70427, -16374.5146484375], [-124.32449, 42.70013, -17154.83984375], [-124.32063, 42.70862, -16583.16015625]]], [[[-124.32063, 42.70862, -16583.16015625], [-124.32449, 42.70013, -17154.83984375], [-124.31486, 42.70489, -17322.189453125], [-124.32063, 42.70862, -16583.16015625]]], [[[-124.37002, 42.79978, -3982.181640625], [-124.35746, 42.801, -4317.97998046875], [-124.36199, 42.8056, -3574.01708984375], [-124.37002, 42.79978, -3982.181640625]]], [[[-124.3092, 42.71291, -16752.640625], [-124.3169, 42.71608, -15979.7744140625], [-124.32063, 42.70862, -16583.16015625], [-124.3092, 42.71291, -16752.640625]]], [[[-124.39795, 42.802, -2088.917724609375], [-124.39715, 42.80924, -1385.7353515625], [-124.40766, 42.80351, -1391.1639404296875], [-124.39795, 42.802, -2088.917724609375]]], [[[-124.30585, 42.72029, -16217.8291015625], [-124.3169, 42.71608, -15979.7744140625], [-124.3092, 42.71291, -16752.640625], [-124.30585, 42.72029, -16217.8291015625]]], [[[-124.30585, 42.72029, -16217.8291015625], [-124.3092, 42.71291, -16752.640625], [-124.29944, 42.71641, -17014.755859375], [-124.30585, 42.72029, -16217.8291015625]]], [[[-124.35572, 42.70645, -14787.4423828125], [-124.34603, 42.71106, -14769.591796875], [-124.35866, 42.71164, -14061.0126953125], [-124.35572, 42.70645, -14787.4423828125]]], [[[-124.29634, 42.72339, -16411.521484375], [-124.29944, 42.71641, -17014.755859375], [-124.29079, 42.71901, -17185.892578125], [-124.29634, 42.72339, -16411.521484375]]], [[[-124.29079, 42.71901, -17185.892578125], [-124.29944, 42.71641, -17014.755859375], [-124.29473, 42.71302, -17655.4609375], [-124.29079, 42.71901, -17185.892578125]]], [[[-124.39795, 42.802, -2088.917724609375], [-124.38826, 42.80737, -2144.10009765625], [-124.39715, 42.80924, -1385.7353515625], [-124.39795, 42.802, -2088.917724609375]]], [[[-124.29079, 42.71901, -17185.892578125], [-124.28407, 42.71555, -17821.65625], [-124.27974, 42.7208, -17247.548828125], [-124.29079, 42.71901, -17185.892578125]]], [[[-124.35988, 42.77238, -7496.49169921875], [-124.352, 42.77995, -7151.20556640625], [-124.36363, 42.77703, -6786.7255859375], [-124.35988, 42.77238, -7496.49169921875]]], [[[-124.27974, 42.7208, -17247.548828125], [-124.28407, 42.71555, -17821.65625], [-124.27261, 42.71682, -17998.998046875], [-124.27974, 42.7208, -17247.548828125]]], [[[-124.26771, 42.72205, -17424.5078125], [-124.27498, 42.72604, -16707.400390625], [-124.27974, 42.7208, -17247.548828125], [-124.26771, 42.72205, -17424.5078125]]], [[[-124.34822, 42.77567, -7829.625], [-124.33968, 42.78177, -7391.31005859375], [-124.352, 42.77995, -7151.20556640625], [-124.34822, 42.77567, -7829.625]]], [[[-124.25379, 42.7315, -16467.18359375], [-124.26644, 42.7307, -16241.841796875], [-124.26174, 42.72641, -16945.171875], [-124.25379, 42.7315, -16467.18359375]]], [[[-124.37777, 42.79236, -4332.736328125], [-124.37002, 42.79978, -3982.181640625], [-124.38056, 42.79781, -3602.483154296875], [-124.37777, 42.79236, -4332.736328125]]], [[[-124.27094, 42.73545, -15477.8759765625], [-124.25811, 42.73625, -15703.3828125], [-124.26244, 42.741, -14939.58203125], [-124.27094, 42.73545, -15477.8759765625]]], [[[-124.2751, 42.74025, -14713.09375], [-124.26244, 42.741, -14939.58203125], [-124.26676, 42.74575, -14175.78125], [-124.2751, 42.74025, -14713.09375]]], [[[-124.39957, 42.79474, -2798.658203125], [-124.38893, 42.80018, -2827.105712890625], [-124.39795, 42.802, -2088.917724609375], [-124.39957, 42.79474, -2798.658203125]]], [[[-124.26174, 42.72641, -16945.171875], [-124.25537, 42.72237, -17645.486328125], [-124.24947, 42.72675, -17230.755859375], [-124.26174, 42.72641, -16945.171875]]], [[[-124.36788, 42.78192, -6019.47900390625], [-124.35626, 42.78434, -6436.03271484375], [-124.36102, 42.78948, -5609.34033203125], [-124.36788, 42.78192, -6019.47900390625]]], [[[-124.26771, 42.72205, -17424.5078125], [-124.25537, 42.72237, -17645.486328125], [-124.26174, 42.72641, -16945.171875], [-124.26771, 42.72205, -17424.5078125]]], [[[-124.36363, 42.77703, -6786.7255859375], [-124.352, 42.77995, -7151.20556640625], [-124.35626, 42.78434, -6436.03271484375], [-124.36363, 42.77703, -6786.7255859375]]], [[[-124.25537, 42.72237, -17645.486328125], [-124.26119, 42.71771, -18175.484375], [-124.25071, 42.71815, -18337.09375], [-124.25537, 42.72237, -17645.486328125]]], [[[-124.25537, 42.72237, -17645.486328125], [-124.24813, 42.72028, -18132.3515625], [-124.24554, 42.72241, -17927.037109375], [-124.25537, 42.72237, -17645.486328125]]], [[[-124.24554, 42.72241, -17927.037109375], [-124.24947, 42.72675, -17230.755859375], [-124.25537, 42.72237, -17645.486328125], [-124.24554, 42.72241, -17927.037109375]]], [[[-124.24238, 42.71893, -18486.201171875], [-124.24554, 42.72241, -17927.037109375], [-124.24813, 42.72028, -18132.3515625], [-124.24238, 42.71893, -18486.201171875]]], [[[-124.24238, 42.71893, -18486.201171875], [-124.24813, 42.72028, -18132.3515625], [-124.25071, 42.71815, -18337.09375], [-124.24238, 42.71893, -18486.201171875]]], [[[-124.38893, 42.80018, -2827.105712890625], [-124.37691, 42.80508, -3028.07177734375], [-124.38826, 42.80737, -2144.10009765625], [-124.38893, 42.80018, -2827.105712890625]]], [[[-124.29944, 42.71641, -17014.755859375], [-124.3044, 42.70858, -17498.708984375], [-124.29473, 42.71302, -17655.4609375], [-124.29944, 42.71641, -17014.755859375]]], [[[-124.3092, 42.71291, -16752.640625], [-124.31486, 42.70489, -17322.189453125], [-124.3044, 42.70858, -17498.708984375], [-124.3092, 42.71291, -16752.640625]]], [[[-124.33002, 42.70427, -16374.5146484375], [-124.34056, 42.70094, -16218.4443359375], [-124.33503, 42.69669, -16974.302734375], [-124.33002, 42.70427, -16374.5146484375]]], [[[-124.3374, 42.70788, -15562.5009765625], [-124.33002, 42.70427, -16374.5146484375], [-124.32761, 42.71204, -15781.9033203125], [-124.3374, 42.70788, -15562.5009765625]]], [[[-124.34881, 42.70372, -15471.4443359375], [-124.35171, 42.69658, -16080.0400390625], [-124.34056, 42.70094, -16218.4443359375], [-124.34881, 42.70372, -15471.4443359375]]], [[[-124.36109, 42.69936, -15277.169921875], [-124.35171, 42.69658, -16080.0400390625], [-124.34881, 42.70372, -15471.4443359375], [-124.36109, 42.69936, -15277.169921875]]], [[[-124.36109, 42.69936, -15277.169921875], [-124.36162, 42.69122, -15943.2490234375], [-124.35171, 42.69658, -16080.0400390625], [-124.36109, 42.69936, -15277.169921875]]], [[[-124.36109, 42.69936, -15277.169921875], [-124.36873, 42.69125, -15344.6669921875], [-124.36162, 42.69122, -15943.2490234375], [-124.36109, 42.69936, -15277.169921875]]], [[[-124.36873, 42.69125, -15344.6669921875], [-124.36109, 42.69936, -15277.169921875], [-124.37237, 42.69623, -14623.646484375], [-124.36873, 42.69125, -15344.6669921875]]], [[[-124.36873, 42.69125, -15344.6669921875], [-124.37237, 42.69623, -14623.646484375], [-124.37761, 42.68762, -14813.603515625], [-124.36873, 42.69125, -15344.6669921875]]], [[[-124.36162, 42.69122, -15943.2490234375], [-124.36158, 42.68455, -16506.7734375], [-124.35448, 42.69001, -16635.609375], [-124.36162, 42.69122, -15943.2490234375]]], [[[-124.36162, 42.69122, -15943.2490234375], [-124.35448, 42.69001, -16635.609375], [-124.35171, 42.69658, -16080.0400390625], [-124.36162, 42.69122, -15943.2490234375]]], [[[-124.35171, 42.69658, -16080.0400390625], [-124.34543, 42.69327, -16793.56640625], [-124.34056, 42.70094, -16218.4443359375], [-124.35171, 42.69658, -16080.0400390625]]], [[[-124.34396, 42.77075, -8605.1875], [-124.33912, 42.76543, -9455.783203125], [-124.33144, 42.77191, -8940.6728515625], [-124.34396, 42.77075, -8605.1875]]], [[[-124.33503, 42.69669, -16974.302734375], [-124.34056, 42.70094, -16218.4443359375], [-124.34543, 42.69327, -16793.56640625], [-124.33503, 42.69669, -16974.302734375]]], [[[-124.3667, 42.70446, -14398.763671875], [-124.3769, 42.70111, -13835.927734375], [-124.37237, 42.69623, -14623.646484375], [-124.3667, 42.70446, -14398.763671875]]], [[[-124.37122, 42.70945, -13601.5068359375], [-124.38132, 42.70602, -13053.87109375], [-124.3769, 42.70111, -13835.927734375], [-124.37122, 42.70945, -13601.5068359375]]], [[[-124.37564, 42.71436, -12819.302734375], [-124.38575, 42.71093, -12271.814453125], [-124.38132, 42.70602, -13053.87109375], [-124.37564, 42.71436, -12819.302734375]]], [[[-124.37564, 42.71436, -12819.302734375], [-124.36841, 42.72156, -12437.2880859375], [-124.38006, 42.71927, -12037.099609375], [-124.37564, 42.71436, -12819.302734375]]], [[[-124.41272, 42.77071, -4621.17431640625], [-124.41715, 42.77562, -3839.56298828125], [-124.42433, 42.76836, -4215.06494140625], [-124.41272, 42.77071, -4621.17431640625]]], [[[-124.37564, 42.71436, -12819.302734375], [-124.37122, 42.70945, -13601.5068359375], [-124.36296, 42.7166, -13282.1357421875], [-124.37564, 42.71436, -12819.302734375]]], [[[-124.35866, 42.71164, -14061.0126953125], [-124.36296, 42.7166, -13282.1357421875], [-124.37122, 42.70945, -13601.5068359375], [-124.35866, 42.71164, -14061.0126953125]]], [[[-124.35866, 42.71164, -14061.0126953125], [-124.37122, 42.70945, -13601.5068359375], [-124.3667, 42.70446, -14398.763671875], [-124.35866, 42.71164, -14061.0126953125]]], [[[-124.3667, 42.70446, -14398.763671875], [-124.37237, 42.69623, -14623.646484375], [-124.36109, 42.69936, -15277.169921875], [-124.3667, 42.70446, -14398.763671875]]], [[[-124.37727, 42.73139, -10874.0654296875], [-124.38449, 42.72418, -11254.896484375], [-124.37284, 42.72647, -11655.6767578125], [-124.37727, 42.73139, -10874.0654296875]]], [[[-124.38891, 42.72909, -10472.6923828125], [-124.3817, 42.7363, -10092.4541015625], [-124.39333, 42.734, -9690.4892578125], [-124.38891, 42.72909, -10472.6923828125]]], [[[-124.38891, 42.72909, -10472.6923828125], [-124.39903, 42.72566, -9925.6455078125], [-124.3946, 42.72075, -10707.7021484375], [-124.38891, 42.72909, -10472.6923828125]]], [[[-124.3946, 42.72075, -10707.7021484375], [-124.3998, 42.7122, -10907.7333984375], [-124.39017, 42.71584, -11489.7587890625], [-124.3946, 42.72075, -10707.7021484375]]], [[[-124.3946, 42.72075, -10707.7021484375], [-124.40424, 42.71711, -10126.5595703125], [-124.3998, 42.7122, -10907.7333984375], [-124.3946, 42.72075, -10707.7021484375]]], [[[-124.39903, 42.72566, -9925.6455078125], [-124.40867, 42.72203, -9345.3857421875], [-124.40424, 42.71711, -10126.5595703125], [-124.39903, 42.72566, -9925.6455078125]]], [[[-124.40219, 42.74382, -8126.08251953125], [-124.40788, 42.73548, -8361.533203125], [-124.39776, 42.73891, -8908.2861328125], [-124.40219, 42.74382, -8126.08251953125]]], [[[-124.40661, 42.74873, -7343.87890625], [-124.41231, 42.74039, -7579.4765625], [-124.40219, 42.74382, -8126.08251953125], [-124.40661, 42.74873, -7343.87890625]]], [[[-124.41547, 42.75855, -5779.47216796875], [-124.4256, 42.75512, -5233.3076171875], [-124.42117, 42.75021, -6015.36376953125], [-124.41547, 42.75855, -5779.47216796875]]], [[[-124.41016, 42.78217, -3419.2666015625], [-124.41715, 42.77562, -3839.56298828125], [-124.40505, 42.77771, -4180.2392578125], [-124.41016, 42.78217, -3419.2666015625]]], [[[-124.4104, 42.78831, -2722.129150390625], [-124.39957, 42.79474, -2798.658203125], [-124.40906, 42.79603, -2064.998046875], [-124.4104, 42.78831, -2722.129150390625]]], [[[-124.4104, 42.78831, -2722.129150390625], [-124.39986, 42.78655, -3612.91552734375], [-124.39957, 42.79474, -2798.658203125], [-124.4104, 42.78831, -2722.129150390625]]], [[[-124.39986, 42.78655, -3612.91552734375], [-124.4104, 42.78831, -2722.129150390625], [-124.41016, 42.78217, -3419.2666015625], [-124.39986, 42.78655, -3612.91552734375]]], [[[-124.38675, 42.78631, -4428.40283203125], [-124.39986, 42.78655, -3612.91552734375], [-124.39378, 42.78024, -4641.2939453125], [-124.38675, 42.78631, -4428.40283203125]]], [[[-124.39957, 42.79474, -2798.658203125], [-124.39795, 42.802, -2088.917724609375], [-124.40906, 42.79603, -2064.998046875], [-124.39957, 42.79474, -2798.658203125]]], [[[-124.38893, 42.80018, -2827.105712890625], [-124.38826, 42.80737, -2144.10009765625], [-124.39795, 42.802, -2088.917724609375], [-124.38893, 42.80018, -2827.105712890625]]], [[[-124.36788, 42.78192, -6019.47900390625], [-124.36102, 42.78948, -5609.34033203125], [-124.37343, 42.78726, -5125.25537109375], [-124.36788, 42.78192, -6019.47900390625]]], [[[-124.35988, 42.77238, -7496.49169921875], [-124.35494, 42.76854, -8200.4853515625], [-124.34822, 42.77567, -7829.625], [-124.35988, 42.77238, -7496.49169921875]]], [[[-124.35135, 42.76316, -8974.2509765625], [-124.35494, 42.76854, -8200.4853515625], [-124.36401, 42.76322, -8213.552734375], [-124.35135, 42.76316, -8974.2509765625]]], [[[-124.35626, 42.78434, -6436.03271484375], [-124.34381, 42.78608, -6698.7509765625], [-124.34855, 42.79079, -5933.533203125], [-124.35626, 42.78434, -6436.03271484375]]], [[[-124.36102, 42.78948, -5609.34033203125], [-124.34855, 42.79079, -5933.533203125], [-124.35325, 42.79596, -5110.271484375], [-124.36102, 42.78948, -5609.34033203125]]], [[[-124.36199, 42.8056, -3574.01708984375], [-124.35284, 42.81105, -3090.04150390625], [-124.36631, 42.81016, -2842.16015625], [-124.36199, 42.8056, -3574.01708984375]]], [[[-124.36199, 42.8056, -3574.01708984375], [-124.34854, 42.80647, -3826.49560546875], [-124.35284, 42.81105, -3090.04150390625], [-124.36199, 42.8056, -3574.01708984375]]], [[[-124.35746, 42.801, -4317.97998046875], [-124.34854, 42.80647, -3826.49560546875], [-124.36199, 42.8056, -3574.01708984375], [-124.35746, 42.801, -4317.97998046875]]], [[[-124.35746, 42.801, -4317.97998046875], [-124.34467, 42.80167, -4583.4443359375], [-124.34854, 42.80647, -3826.49560546875], [-124.35746, 42.801, -4317.97998046875]]], [[[-124.35325, 42.79596, -5110.271484375], [-124.34467, 42.80167, -4583.4443359375], [-124.35746, 42.801, -4317.97998046875], [-124.35325, 42.79596, -5110.271484375]]], [[[-124.35325, 42.79596, -5110.271484375], [-124.34034, 42.79671, -5373.3212890625], [-124.34467, 42.80167, -4583.4443359375], [-124.35325, 42.79596, -5110.271484375]]], [[[-124.34855, 42.79079, -5933.533203125], [-124.34034, 42.79671, -5373.3212890625], [-124.35325, 42.79596, -5110.271484375], [-124.34855, 42.79079, -5933.533203125]]], [[[-124.34855, 42.79079, -5933.533203125], [-124.33569, 42.7919, -6149.31005859375], [-124.34034, 42.79671, -5373.3212890625], [-124.34855, 42.79079, -5933.533203125]]], [[[-124.34381, 42.78608, -6698.7509765625], [-124.33569, 42.7919, -6149.31005859375], [-124.34855, 42.79079, -5933.533203125], [-124.34381, 42.78608, -6698.7509765625]]], [[[-124.34381, 42.78608, -6698.7509765625], [-124.33109, 42.78734, -6889.82763671875], [-124.33569, 42.7919, -6149.31005859375], [-124.34381, 42.78608, -6698.7509765625]]], [[[-124.34381, 42.78608, -6698.7509765625], [-124.33968, 42.78177, -7391.31005859375], [-124.33109, 42.78734, -6889.82763671875], [-124.34381, 42.78608, -6698.7509765625]]], [[[-124.33968, 42.78177, -7391.31005859375], [-124.32706, 42.78266, -7634.0546875], [-124.33109, 42.78734, -6889.82763671875], [-124.33968, 42.78177, -7391.31005859375]]], [[[-124.33968, 42.78177, -7391.31005859375], [-124.33591, 42.77706, -8126.82958984375], [-124.32706, 42.78266, -7634.0546875], [-124.33968, 42.78177, -7391.31005859375]]], [[[-124.32706, 42.78266, -7634.0546875], [-124.33591, 42.77706, -8126.82958984375], [-124.32306, 42.77781, -8401.08203125], [-124.32706, 42.78266, -7634.0546875]]], [[[-124.32706, 42.78266, -7634.0546875], [-124.32306, 42.77781, -8401.08203125], [-124.3141, 42.78308, -7848.8125], [-124.32706, 42.78266, -7634.0546875]]], [[[-124.32706, 42.78266, -7634.0546875], [-124.3141, 42.78308, -7848.8125], [-124.31831, 42.78787, -7084.83740234375], [-124.32706, 42.78266, -7634.0546875]]], [[[-124.32706, 42.78266, -7634.0546875], [-124.31831, 42.78787, -7084.83740234375], [-124.33109, 42.78734, -6889.82763671875], [-124.32706, 42.78266, -7634.0546875]]], [[[-124.32306, 42.77781, -8401.08203125], [-124.30993, 42.77828, -8614.255859375], [-124.3141, 42.78308, -7848.8125], [-124.32306, 42.77781, -8401.08203125]]], [[[-124.32306, 42.77781, -8401.08203125], [-124.31853, 42.77283, -9197.5380859375], [-124.30993, 42.77828, -8614.255859375], [-124.32306, 42.77781, -8401.08203125]]], [[[-124.32306, 42.77781, -8401.08203125], [-124.33144, 42.77191, -8940.6728515625], [-124.31853, 42.77283, -9197.5380859375], [-124.32306, 42.77781, -8401.08203125]]], [[[-124.33144, 42.77191, -8940.6728515625], [-124.32306, 42.77781, -8401.08203125], [-124.33591, 42.77706, -8126.82958984375], [-124.33144, 42.77191, -8940.6728515625]]], [[[-124.32666, 42.76686, -9751.7978515625], [-124.31853, 42.77283, -9197.5380859375], [-124.33144, 42.77191, -8940.6728515625], [-124.32666, 42.76686, -9751.7978515625]]], [[[-124.32666, 42.76686, -9751.7978515625], [-124.31388, 42.76816, -9954.2578125], [-124.31853, 42.77283, -9197.5380859375], [-124.32666, 42.76686, -9751.7978515625]]], [[[-124.32208, 42.7624, -10479.0029296875], [-124.31388, 42.76816, -9954.2578125], [-124.32666, 42.76686, -9751.7978515625], [-124.32208, 42.7624, -10479.0029296875]]], [[[-124.32208, 42.7624, -10479.0029296875], [-124.30947, 42.76358, -10692.3955078125], [-124.31388, 42.76816, -9954.2578125], [-124.32208, 42.7624, -10479.0029296875]]], [[[-124.31828, 42.75799, -11175.3466796875], [-124.30947, 42.76358, -10692.3955078125], [-124.32208, 42.7624, -10479.0029296875], [-124.31828, 42.75799, -11175.3466796875]]], [[[-124.31828, 42.75799, -11175.3466796875], [-124.30558, 42.75882, -11444.603515625], [-124.30947, 42.76358, -10692.3955078125], [-124.31828, 42.75799, -11175.3466796875]]], [[[-124.31425, 42.75305, -11947.4580078125], [-124.30558, 42.75882, -11444.603515625], [-124.31828, 42.75799, -11175.3466796875], [-124.31425, 42.75305, -11947.4580078125]]], [[[-124.31425, 42.75305, -11947.4580078125], [-124.30138, 42.7539, -12226.841796875], [-124.30558, 42.75882, -11444.603515625], [-124.31425, 42.75305, -11947.4580078125]]], [[[-124.31425, 42.75305, -11947.4580078125], [-124.30957, 42.74789, -12770.193359375], [-124.30138, 42.7539, -12226.841796875], [-124.31425, 42.75305, -11947.4580078125]]], [[[-124.31425, 42.75305, -11947.4580078125], [-124.32208, 42.74669, -12451.4423828125], [-124.30957, 42.74789, -12770.193359375], [-124.31425, 42.75305, -11947.4580078125]]], [[[-124.31425, 42.75305, -11947.4580078125], [-124.32671, 42.75188, -11626.77734375], [-124.32208, 42.74669, -12451.4423828125], [-124.31425, 42.75305, -11947.4580078125]]], [[[-124.32671, 42.75188, -11626.77734375], [-124.31425, 42.75305, -11947.4580078125], [-124.31828, 42.75799, -11175.3466796875], [-124.32671, 42.75188, -11626.77734375]]], [[[-124.33059, 42.75643, -10912.763671875], [-124.32671, 42.75188, -11626.77734375], [-124.31828, 42.75799, -11175.3466796875], [-124.33059, 42.75643, -10912.763671875]]], [[[-124.33822, 42.74914, -11232.302734375], [-124.32671, 42.75188, -11626.77734375], [-124.33059, 42.75643, -10912.763671875], [-124.33822, 42.74914, -11232.302734375]]], [[[-124.33377, 42.74444, -11992.48828125], [-124.32671, 42.75188, -11626.77734375], [-124.33822, 42.74914, -11232.302734375], [-124.33377, 42.74444, -11992.48828125]]], [[[-124.33377, 42.74444, -11992.48828125], [-124.32208, 42.74669, -12451.4423828125], [-124.32671, 42.75188, -11626.77734375], [-124.33377, 42.74444, -11992.48828125]]], [[[-124.32882, 42.73901, -12858.2294921875], [-124.32208, 42.74669, -12451.4423828125], [-124.33377, 42.74444, -11992.48828125], [-124.32882, 42.73901, -12858.2294921875]]], [[[-124.32882, 42.73901, -12858.2294921875], [-124.31735, 42.74141, -13291.404296875], [-124.32208, 42.74669, -12451.4423828125], [-124.32882, 42.73901, -12858.2294921875]]], [[[-124.32882, 42.73901, -12858.2294921875], [-124.32453, 42.7326, -13780.5986328125], [-124.31735, 42.74141, -13291.404296875], [-124.32882, 42.73901, -12858.2294921875]]], [[[-124.32882, 42.73901, -12858.2294921875], [-124.33611, 42.73122, -13261.5224609375], [-124.32453, 42.7326, -13780.5986328125], [-124.32882, 42.73901, -12858.2294921875]]], [[[-124.34057, 42.73692, -12389.6796875], [-124.33611, 42.73122, -13261.5224609375], [-124.32882, 42.73901, -12858.2294921875], [-124.34057, 42.73692, -12389.6796875]]], [[[-124.33611, 42.73122, -13261.5224609375], [-124.34057, 42.73692, -12389.6796875], [-124.34885, 42.73048, -12541.7158203125], [-124.33611, 42.73122, -13261.5224609375]]], [[[-124.33611, 42.73122, -13261.5224609375], [-124.34885, 42.73048, -12541.7158203125], [-124.34448, 42.72474, -13398.498046875], [-124.33611, 42.73122, -13261.5224609375]]], [[[-124.33611, 42.73122, -13261.5224609375], [-124.34448, 42.72474, -13398.498046875], [-124.33301, 42.72391, -14235.505859375], [-124.33611, 42.73122, -13261.5224609375]]], [[[-124.33611, 42.73122, -13261.5224609375], [-124.33301, 42.72391, -14235.505859375], [-124.32453, 42.7326, -13780.5986328125], [-124.33611, 42.73122, -13261.5224609375]]], [[[-124.32453, 42.7326, -13780.5986328125], [-124.33301, 42.72391, -14235.505859375], [-124.31964, 42.72749, -14609.974609375], [-124.32453, 42.7326, -13780.5986328125]]], [[[-124.32453, 42.7326, -13780.5986328125], [-124.31964, 42.72749, -14609.974609375], [-124.31311, 42.73642, -14074.060546875], [-124.32453, 42.7326, -13780.5986328125]]], [[[-124.32453, 42.7326, -13780.5986328125], [-124.31311, 42.73642, -14074.060546875], [-124.31735, 42.74141, -13291.404296875], [-124.32453, 42.7326, -13780.5986328125]]], [[[-124.31311, 42.73642, -14074.060546875], [-124.30481, 42.74302, -13555.763671875], [-124.31735, 42.74141, -13291.404296875], [-124.31311, 42.73642, -14074.060546875]]], [[[-124.31311, 42.73642, -14074.060546875], [-124.30059, 42.7386, -14266.9287109375], [-124.30481, 42.74302, -13555.763671875], [-124.31311, 42.73642, -14074.060546875]]], [[[-124.31311, 42.73642, -14074.060546875], [-124.30871, 42.73172, -14831.95703125], [-124.30059, 42.7386, -14266.9287109375], [-124.31311, 42.73642, -14074.060546875]]], [[[-124.31311, 42.73642, -14074.060546875], [-124.31964, 42.72749, -14609.974609375], [-124.30871, 42.73172, -14831.95703125], [-124.31311, 42.73642, -14074.060546875]]], [[[-124.31964, 42.72749, -14609.974609375], [-124.31257, 42.72378, -15438.515625], [-124.30871, 42.73172, -14831.95703125], [-124.31964, 42.72749, -14609.974609375]]], [[[-124.30871, 42.73172, -14831.95703125], [-124.31257, 42.72378, -15438.515625], [-124.30212, 42.72782, -15612.638671875], [-124.30871, 42.73172, -14831.95703125]]], [[[-124.30871, 42.73172, -14831.95703125], [-124.30212, 42.72782, -15612.638671875], [-124.29664, 42.73408, -14981.619140625], [-124.30871, 42.73172, -14831.95703125]]], [[[-124.30059, 42.7386, -14266.9287109375], [-124.30871, 42.73172, -14831.95703125], [-124.29664, 42.73408, -14981.619140625], [-124.30059, 42.7386, -14266.9287109375]]], [[[-124.29664, 42.73408, -14981.619140625], [-124.28798, 42.73979, -14496.6904296875], [-124.30059, 42.7386, -14266.9287109375], [-124.29664, 42.73408, -14981.619140625]]], [[[-124.29664, 42.73408, -14981.619140625], [-124.28393, 42.73506, -15247.9033203125], [-124.28798, 42.73979, -14496.6904296875], [-124.29664, 42.73408, -14981.619140625]]], [[[-124.29664, 42.73408, -14981.619140625], [-124.29146, 42.72976, -15708.8955078125], [-124.28393, 42.73506, -15247.9033203125], [-124.29664, 42.73408, -14981.619140625]]], [[[-124.30212, 42.72782, -15612.638671875], [-124.29146, 42.72976, -15708.8955078125], [-124.29664, 42.73408, -14981.619140625], [-124.30212, 42.72782, -15612.638671875]]], [[[-124.29146, 42.72976, -15708.8955078125], [-124.27961, 42.73033, -16005.587890625], [-124.28393, 42.73506, -15247.9033203125], [-124.29146, 42.72976, -15708.8955078125]]], [[[-124.29146, 42.72976, -15708.8955078125], [-124.28697, 42.72482, -16496.71875], [-124.27961, 42.73033, -16005.587890625], [-124.29146, 42.72976, -15708.8955078125]]], [[[-124.30059, 42.7386, -14266.9287109375], [-124.28798, 42.73979, -14496.6904296875], [-124.29213, 42.7444, -13759.484375], [-124.30059, 42.7386, -14266.9287109375]]], [[[-124.30059, 42.7386, -14266.9287109375], [-124.29213, 42.7444, -13759.484375], [-124.30481, 42.74302, -13555.763671875], [-124.30059, 42.7386, -14266.9287109375]]], [[[-124.29676, 42.74901, -13012.4521484375], [-124.30481, 42.74302, -13555.763671875], [-124.29213, 42.7444, -13759.484375], [-124.29676, 42.74901, -13012.4521484375]]], [[[-124.30957, 42.74789, -12770.193359375], [-124.30481, 42.74302, -13555.763671875], [-124.29676, 42.74901, -13012.4521484375], [-124.30957, 42.74789, -12770.193359375]]], [[[-124.31735, 42.74141, -13291.404296875], [-124.30481, 42.74302, -13555.763671875], [-124.30957, 42.74789, -12770.193359375], [-124.31735, 42.74141, -13291.404296875]]], [[[-124.31735, 42.74141, -13291.404296875], [-124.30957, 42.74789, -12770.193359375], [-124.32208, 42.74669, -12451.4423828125], [-124.31735, 42.74141, -13291.404296875]]], [[[-124.30957, 42.74789, -12770.193359375], [-124.29676, 42.74901, -13012.4521484375], [-124.30138, 42.7539, -12226.841796875], [-124.30957, 42.74789, -12770.193359375]]], [[[-124.29676, 42.74901, -13012.4521484375], [-124.28822, 42.75449, -12427.6884765625], [-124.30138, 42.7539, -12226.841796875], [-124.29676, 42.74901, -13012.4521484375]]], [[[-124.29676, 42.74901, -13012.4521484375], [-124.28374, 42.74978, -13186.11328125], [-124.28822, 42.75449, -12427.6884765625], [-124.29676, 42.74901, -13012.4521484375]]], [[[-124.29676, 42.74901, -13012.4521484375], [-124.29213, 42.7444, -13759.484375], [-124.28374, 42.74978, -13186.11328125], [-124.29676, 42.74901, -13012.4521484375]]], [[[-124.29213, 42.7444, -13759.484375], [-124.27932, 42.74504, -13948.3837890625], [-124.28374, 42.74978, -13186.11328125], [-124.29213, 42.7444, -13759.484375]]], [[[-124.29213, 42.7444, -13759.484375], [-124.28798, 42.73979, -14496.6904296875], [-124.27932, 42.74504, -13948.3837890625], [-124.29213, 42.7444, -13759.484375]]], [[[-124.34057, 42.73692, -12389.6796875], [-124.3535, 42.73565, -11722.3017578125], [-124.34885, 42.73048, -12541.7158203125], [-124.34057, 42.73692, -12389.6796875]]], [[[-124.34057, 42.73692, -12389.6796875], [-124.34553, 42.74182, -11579.48046875], [-124.3535, 42.73565, -11722.3017578125], [-124.34057, 42.73692, -12389.6796875]]], [[[-124.34553, 42.74182, -11579.48046875], [-124.34057, 42.73692, -12389.6796875], [-124.33377, 42.74444, -11992.48828125], [-124.34553, 42.74182, -11579.48046875]]], [[[-124.33377, 42.74444, -11992.48828125], [-124.33822, 42.74914, -11232.302734375], [-124.34553, 42.74182, -11579.48046875], [-124.33377, 42.74444, -11992.48828125]]], [[[-124.35002, 42.74628, -10842.9296875], [-124.34553, 42.74182, -11579.48046875], [-124.33822, 42.74914, -11232.302734375], [-124.35002, 42.74628, -10842.9296875]]], [[[-124.35823, 42.74065, -10913.525390625], [-124.34553, 42.74182, -11579.48046875], [-124.35002, 42.74628, -10842.9296875], [-124.35823, 42.74065, -10913.525390625]]], [[[-124.35823, 42.74065, -10913.525390625], [-124.3535, 42.73565, -11722.3017578125], [-124.34553, 42.74182, -11579.48046875], [-124.35823, 42.74065, -10913.525390625]]], [[[-124.36248, 42.74599, -10105.2646484375], [-124.35823, 42.74065, -10913.525390625], [-124.35002, 42.74628, -10842.9296875], [-124.36248, 42.74599, -10105.2646484375]]], [[[-124.36248, 42.74599, -10105.2646484375], [-124.36974, 42.73831, -10459.220703125], [-124.35823, 42.74065, -10913.525390625], [-124.36248, 42.74599, -10105.2646484375]]], [[[-124.36974, 42.73831, -10459.220703125], [-124.36248, 42.74599, -10105.2646484375], [-124.37416, 42.74321, -9676.4462890625], [-124.36974, 42.73831, -10459.220703125]]], [[[-124.36974, 42.73831, -10459.220703125], [-124.37416, 42.74321, -9676.4462890625], [-124.3817, 42.7363, -10092.4541015625], [-124.36974, 42.73831, -10459.220703125]]], [[[-124.36974, 42.73831, -10459.220703125], [-124.3817, 42.7363, -10092.4541015625], [-124.37727, 42.73139, -10874.0654296875], [-124.36974, 42.73831, -10459.220703125]]], [[[-124.37416, 42.74321, -9676.4462890625], [-124.38613, 42.74122, -9310.8427734375], [-124.3817, 42.7363, -10092.4541015625], [-124.37416, 42.74321, -9676.4462890625]]], [[[-124.37416, 42.74321, -9676.4462890625], [-124.37858, 42.74812, -8893.6728515625], [-124.38613, 42.74122, -9310.8427734375], [-124.37416, 42.74321, -9676.4462890625]]], [[[-124.36756, 42.7504, -9329.3212890625], [-124.37858, 42.74812, -8893.6728515625], [-124.37416, 42.74321, -9676.4462890625], [-124.36756, 42.7504, -9329.3212890625]]], [[[-124.36756, 42.7504, -9329.3212890625], [-124.37111, 42.75568, -8574.3984375], [-124.37858, 42.74812, -8893.6728515625], [-124.36756, 42.7504, -9329.3212890625]]], [[[-124.35881, 42.75588, -9305.716796875], [-124.37111, 42.75568, -8574.3984375], [-124.36756, 42.7504, -9329.3212890625], [-124.35881, 42.75588, -9305.716796875]]], [[[-124.35881, 42.75588, -9305.716796875], [-124.36401, 42.76322, -8213.552734375], [-124.37111, 42.75568, -8574.3984375], [-124.35881, 42.75588, -9305.716796875]]], [[[-124.36401, 42.76322, -8213.552734375], [-124.35881, 42.75588, -9305.716796875], [-124.35135, 42.76316, -8974.2509765625], [-124.36401, 42.76322, -8213.552734375]]], [[[-124.35881, 42.75588, -9305.716796875], [-124.34631, 42.75813, -9805.1591796875], [-124.35135, 42.76316, -8974.2509765625], [-124.35881, 42.75588, -9305.716796875]]], [[[-124.35331, 42.75112, -10130.3935546875], [-124.34631, 42.75813, -9805.1591796875], [-124.35881, 42.75588, -9305.716796875], [-124.35331, 42.75112, -10130.3935546875]]], [[[-124.35331, 42.75112, -10130.3935546875], [-124.34213, 42.75334, -10557.5556640625], [-124.34631, 42.75813, -9805.1591796875], [-124.35331, 42.75112, -10130.3935546875]]], [[[-124.35331, 42.75112, -10130.3935546875], [-124.35002, 42.74628, -10842.9296875], [-124.34213, 42.75334, -10557.5556640625], [-124.35331, 42.75112, -10130.3935546875]]], [[[-124.36248, 42.74599, -10105.2646484375], [-124.35002, 42.74628, -10842.9296875], [-124.35331, 42.75112, -10130.3935546875], [-124.36248, 42.74599, -10105.2646484375]]], [[[-124.35881, 42.75588, -9305.716796875], [-124.36248, 42.74599, -10105.2646484375], [-124.35331, 42.75112, -10130.3935546875], [-124.35881, 42.75588, -9305.716796875]]], [[[-124.35881, 42.75588, -9305.716796875], [-124.36756, 42.7504, -9329.3212890625], [-124.36248, 42.74599, -10105.2646484375], [-124.35881, 42.75588, -9305.716796875]]], [[[-124.36756, 42.7504, -9329.3212890625], [-124.37416, 42.74321, -9676.4462890625], [-124.36248, 42.74599, -10105.2646484375], [-124.36756, 42.7504, -9329.3212890625]]], [[[-124.35002, 42.74628, -10842.9296875], [-124.33822, 42.74914, -11232.302734375], [-124.34213, 42.75334, -10557.5556640625], [-124.35002, 42.74628, -10842.9296875]]], [[[-124.33822, 42.74914, -11232.302734375], [-124.33059, 42.75643, -10912.763671875], [-124.34213, 42.75334, -10557.5556640625], [-124.33822, 42.74914, -11232.302734375]]], [[[-124.34213, 42.75334, -10557.5556640625], [-124.33059, 42.75643, -10912.763671875], [-124.33455, 42.76063, -10233.095703125], [-124.34213, 42.75334, -10557.5556640625]]], [[[-124.34213, 42.75334, -10557.5556640625], [-124.33455, 42.76063, -10233.095703125], [-124.34631, 42.75813, -9805.1591796875], [-124.34213, 42.75334, -10557.5556640625]]], [[[-124.34631, 42.75813, -9805.1591796875], [-124.33455, 42.76063, -10233.095703125], [-124.33912, 42.76543, -9455.783203125], [-124.34631, 42.75813, -9805.1591796875]]], [[[-124.34631, 42.75813, -9805.1591796875], [-124.33912, 42.76543, -9455.783203125], [-124.35135, 42.76316, -8974.2509765625], [-124.34631, 42.75813, -9805.1591796875]]], [[[-124.33912, 42.76543, -9455.783203125], [-124.33455, 42.76063, -10233.095703125], [-124.32666, 42.76686, -9751.7978515625], [-124.33912, 42.76543, -9455.783203125]]], [[[-124.33912, 42.76543, -9455.783203125], [-124.32666, 42.76686, -9751.7978515625], [-124.33144, 42.77191, -8940.6728515625], [-124.33912, 42.76543, -9455.783203125]]], [[[-124.33455, 42.76063, -10233.095703125], [-124.32208, 42.7624, -10479.0029296875], [-124.32666, 42.76686, -9751.7978515625], [-124.33455, 42.76063, -10233.095703125]]], [[[-124.33455, 42.76063, -10233.095703125], [-124.33059, 42.75643, -10912.763671875], [-124.32208, 42.7624, -10479.0029296875], [-124.33455, 42.76063, -10233.095703125]]], [[[-124.33059, 42.75643, -10912.763671875], [-124.31828, 42.75799, -11175.3466796875], [-124.32208, 42.7624, -10479.0029296875], [-124.33059, 42.75643, -10912.763671875]]], [[[-124.37594, 42.76073, -7754.25244140625], [-124.37111, 42.75568, -8574.3984375], [-124.36401, 42.76322, -8213.552734375], [-124.37594, 42.76073, -7754.25244140625]]], [[[-124.37111, 42.75568, -8574.3984375], [-124.37594, 42.76073, -7754.25244140625], [-124.383, 42.75302, -8110.89794921875], [-124.37111, 42.75568, -8574.3984375]]], [[[-124.37111, 42.75568, -8574.3984375], [-124.383, 42.75302, -8110.89794921875], [-124.37858, 42.74812, -8893.6728515625], [-124.37111, 42.75568, -8574.3984375]]], [[[-124.383, 42.75302, -8110.89794921875], [-124.39056, 42.74613, -8529.2314453125], [-124.37858, 42.74812, -8893.6728515625], [-124.383, 42.75302, -8110.89794921875]]], [[[-124.383, 42.75302, -8110.89794921875], [-124.39499, 42.75105, -7747.61962890625], [-124.39056, 42.74613, -8529.2314453125], [-124.383, 42.75302, -8110.89794921875]]], [[[-124.38742, 42.75792, -7328.12353515625], [-124.39499, 42.75105, -7747.61962890625], [-124.383, 42.75302, -8110.89794921875], [-124.38742, 42.75792, -7328.12353515625]]], [[[-124.38742, 42.75792, -7328.12353515625], [-124.39942, 42.75596, -6966.00830078125], [-124.39499, 42.75105, -7747.61962890625], [-124.38742, 42.75792, -7328.12353515625]]], [[[-124.39185, 42.76283, -6545.34912109375], [-124.39942, 42.75596, -6966.00830078125], [-124.38742, 42.75792, -7328.12353515625], [-124.39185, 42.76283, -6545.34912109375]]], [[[-124.39185, 42.76283, -6545.34912109375], [-124.40385, 42.76088, -6184.39697265625], [-124.39942, 42.75596, -6966.00830078125], [-124.39185, 42.76283, -6545.34912109375]]], [[[-124.39627, 42.76773, -5762.57470703125], [-124.40385, 42.76088, -6184.39697265625], [-124.39185, 42.76283, -6545.34912109375], [-124.39627, 42.76773, -5762.57470703125]]], [[[-124.39627, 42.76773, -5762.57470703125], [-124.40828, 42.76579, -5402.78564453125], [-124.40385, 42.76088, -6184.39697265625], [-124.39627, 42.76773, -5762.57470703125]]], [[[-124.39627, 42.76773, -5762.57470703125], [-124.40069, 42.77264, -4979.80029296875], [-124.40828, 42.76579, -5402.78564453125], [-124.39627, 42.76773, -5762.57470703125]]], [[[-124.40069, 42.77264, -4979.80029296875], [-124.39627, 42.76773, -5762.57470703125], [-124.38992, 42.77506, -5407.68408203125], [-124.40069, 42.77264, -4979.80029296875]]], [[[-124.39378, 42.78024, -4641.2939453125], [-124.40069, 42.77264, -4979.80029296875], [-124.38992, 42.77506, -5407.68408203125], [-124.39378, 42.78024, -4641.2939453125]]], [[[-124.39378, 42.78024, -4641.2939453125], [-124.40505, 42.77771, -4180.2392578125], [-124.40069, 42.77264, -4979.80029296875], [-124.39378, 42.78024, -4641.2939453125]]], [[[-124.40069, 42.77264, -4979.80029296875], [-124.40505, 42.77771, -4180.2392578125], [-124.41272, 42.77071, -4621.17431640625], [-124.40069, 42.77264, -4979.80029296875]]], [[[-124.40069, 42.77264, -4979.80029296875], [-124.41272, 42.77071, -4621.17431640625], [-124.40828, 42.76579, -5402.78564453125], [-124.40069, 42.77264, -4979.80029296875]]], [[[-124.41272, 42.77071, -4621.17431640625], [-124.4199, 42.76346, -4997.2685546875], [-124.40828, 42.76579, -5402.78564453125], [-124.41272, 42.77071, -4621.17431640625]]], [[[-124.4199, 42.76346, -4997.2685546875], [-124.41547, 42.75855, -5779.47216796875], [-124.40828, 42.76579, -5402.78564453125], [-124.4199, 42.76346, -4997.2685546875]]], [[[-124.40385, 42.76088, -6184.39697265625], [-124.40828, 42.76579, -5402.78564453125], [-124.41547, 42.75855, -5779.47216796875], [-124.40385, 42.76088, -6184.39697265625]]], [[[-124.40385, 42.76088, -6184.39697265625], [-124.41547, 42.75855, -5779.47216796875], [-124.41104, 42.75364, -6561.67529296875], [-124.40385, 42.76088, -6184.39697265625]]], [[[-124.39942, 42.75596, -6966.00830078125], [-124.40385, 42.76088, -6184.39697265625], [-124.41104, 42.75364, -6561.67529296875], [-124.39942, 42.75596, -6966.00830078125]]], [[[-124.39942, 42.75596, -6966.00830078125], [-124.41104, 42.75364, -6561.67529296875], [-124.40661, 42.74873, -7343.87890625], [-124.39942, 42.75596, -6966.00830078125]]], [[[-124.39499, 42.75105, -7747.61962890625], [-124.39942, 42.75596, -6966.00830078125], [-124.40661, 42.74873, -7343.87890625], [-124.39499, 42.75105, -7747.61962890625]]], [[[-124.39499, 42.75105, -7747.61962890625], [-124.40661, 42.74873, -7343.87890625], [-124.40219, 42.74382, -8126.08251953125], [-124.39499, 42.75105, -7747.61962890625]]], [[[-124.39056, 42.74613, -8529.2314453125], [-124.39499, 42.75105, -7747.61962890625], [-124.40219, 42.74382, -8126.08251953125], [-124.39056, 42.74613, -8529.2314453125]]], [[[-124.39056, 42.74613, -8529.2314453125], [-124.40219, 42.74382, -8126.08251953125], [-124.39776, 42.73891, -8908.2861328125], [-124.39056, 42.74613, -8529.2314453125]]], [[[-124.38613, 42.74122, -9310.8427734375], [-124.39056, 42.74613, -8529.2314453125], [-124.39776, 42.73891, -8908.2861328125], [-124.38613, 42.74122, -9310.8427734375]]], [[[-124.37858, 42.74812, -8893.6728515625], [-124.39056, 42.74613, -8529.2314453125], [-124.38613, 42.74122, -9310.8427734375], [-124.37858, 42.74812, -8893.6728515625]]], [[[-124.38613, 42.74122, -9310.8427734375], [-124.39776, 42.73891, -8908.2861328125], [-124.39333, 42.734, -9690.4892578125], [-124.38613, 42.74122, -9310.8427734375]]], [[[-124.38613, 42.74122, -9310.8427734375], [-124.39333, 42.734, -9690.4892578125], [-124.3817, 42.7363, -10092.4541015625], [-124.38613, 42.74122, -9310.8427734375]]], [[[-124.39333, 42.734, -9690.4892578125], [-124.39776, 42.73891, -8908.2861328125], [-124.40345, 42.73057, -9143.5888671875], [-124.39333, 42.734, -9690.4892578125]]], [[[-124.39333, 42.734, -9690.4892578125], [-124.40345, 42.73057, -9143.5888671875], [-124.39903, 42.72566, -9925.6455078125], [-124.39333, 42.734, -9690.4892578125]]], [[[-124.38064, 42.77993, -5465.28955078125], [-124.39378, 42.78024, -4641.2939453125], [-124.38992, 42.77506, -5407.68408203125], [-124.38064, 42.77993, -5465.28955078125]]], [[[-124.38064, 42.77993, -5465.28955078125], [-124.38675, 42.78631, -4428.40283203125], [-124.39378, 42.78024, -4641.2939453125], [-124.38064, 42.77993, -5465.28955078125]]], [[[-124.38675, 42.78631, -4428.40283203125], [-124.38064, 42.77993, -5465.28955078125], [-124.37343, 42.78726, -5125.25537109375], [-124.38675, 42.78631, -4428.40283203125]]], [[[-124.38675, 42.78631, -4428.40283203125], [-124.37343, 42.78726, -5125.25537109375], [-124.37777, 42.79236, -4332.736328125], [-124.38675, 42.78631, -4428.40283203125]]], [[[-124.36788, 42.78192, -6019.47900390625], [-124.37343, 42.78726, -5125.25537109375], [-124.38064, 42.77993, -5465.28955078125], [-124.36788, 42.78192, -6019.47900390625]]], [[[-124.37514, 42.77438, -6376.10693359375], [-124.36788, 42.78192, -6019.47900390625], [-124.38064, 42.77993, -5465.28955078125], [-124.37514, 42.77438, -6376.10693359375]]], [[[-124.37514, 42.77438, -6376.10693359375], [-124.36363, 42.77703, -6786.7255859375], [-124.36788, 42.78192, -6019.47900390625], [-124.37514, 42.77438, -6376.10693359375]]], [[[-124.37514, 42.77438, -6376.10693359375], [-124.37047, 42.76903, -7220.65185546875], [-124.36363, 42.77703, -6786.7255859375], [-124.37514, 42.77438, -6376.10693359375]]], [[[-124.37514, 42.77438, -6376.10693359375], [-124.38074, 42.76558, -6955.7880859375], [-124.37047, 42.76903, -7220.65185546875], [-124.37514, 42.77438, -6376.10693359375]]], [[[-124.37514, 42.77438, -6376.10693359375], [-124.3851, 42.77064, -6165.60107421875], [-124.38074, 42.76558, -6955.7880859375], [-124.37514, 42.77438, -6376.10693359375]]], [[[-124.38064, 42.77993, -5465.28955078125], [-124.3851, 42.77064, -6165.60107421875], [-124.37514, 42.77438, -6376.10693359375], [-124.38064, 42.77993, -5465.28955078125]]], [[[-124.3851, 42.77064, -6165.60107421875], [-124.38992, 42.77506, -5407.68408203125], [-124.39627, 42.76773, -5762.57470703125], [-124.3851, 42.77064, -6165.60107421875]]], [[[-124.3851, 42.77064, -6165.60107421875], [-124.39627, 42.76773, -5762.57470703125], [-124.39185, 42.76283, -6545.34912109375], [-124.3851, 42.77064, -6165.60107421875]]], [[[-124.38074, 42.76558, -6955.7880859375], [-124.3851, 42.77064, -6165.60107421875], [-124.39185, 42.76283, -6545.34912109375], [-124.38074, 42.76558, -6955.7880859375]]], [[[-124.38074, 42.76558, -6955.7880859375], [-124.39185, 42.76283, -6545.34912109375], [-124.38742, 42.75792, -7328.12353515625], [-124.38074, 42.76558, -6955.7880859375]]], [[[-124.37594, 42.76073, -7754.25244140625], [-124.38074, 42.76558, -6955.7880859375], [-124.38742, 42.75792, -7328.12353515625], [-124.37594, 42.76073, -7754.25244140625]]], [[[-124.37047, 42.76903, -7220.65185546875], [-124.38074, 42.76558, -6955.7880859375], [-124.37594, 42.76073, -7754.25244140625], [-124.37047, 42.76903, -7220.65185546875]]], [[[-124.37047, 42.76903, -7220.65185546875], [-124.37594, 42.76073, -7754.25244140625], [-124.36401, 42.76322, -8213.552734375], [-124.37047, 42.76903, -7220.65185546875]]], [[[-124.36401, 42.76322, -8213.552734375], [-124.35988, 42.77238, -7496.49169921875], [-124.37047, 42.76903, -7220.65185546875], [-124.36401, 42.76322, -8213.552734375]]], [[[-124.35988, 42.77238, -7496.49169921875], [-124.36363, 42.77703, -6786.7255859375], [-124.37047, 42.76903, -7220.65185546875], [-124.35988, 42.77238, -7496.49169921875]]], [[[-124.37594, 42.76073, -7754.25244140625], [-124.38742, 42.75792, -7328.12353515625], [-124.383, 42.75302, -8110.89794921875], [-124.37594, 42.76073, -7754.25244140625]]], [[[-124.34057, 42.73692, -12389.6796875], [-124.32882, 42.73901, -12858.2294921875], [-124.33377, 42.74444, -11992.48828125], [-124.34057, 42.73692, -12389.6796875]]], [[[-124.29669, 42.76406, -10899.2236328125], [-124.30947, 42.76358, -10692.3955078125], [-124.30558, 42.75882, -11444.603515625], [-124.29669, 42.76406, -10899.2236328125]]], [[[-124.30947, 42.76358, -10692.3955078125], [-124.29669, 42.76406, -10899.2236328125], [-124.301, 42.76884, -10133.82421875], [-124.30947, 42.76358, -10692.3955078125]]], [[[-124.31388, 42.76816, -9954.2578125], [-124.30947, 42.76358, -10692.3955078125], [-124.301, 42.76884, -10133.82421875], [-124.31388, 42.76816, -9954.2578125]]], [[[-124.31388, 42.76816, -9954.2578125], [-124.301, 42.76884, -10133.82421875], [-124.30544, 42.77356, -9374.126953125], [-124.31388, 42.76816, -9954.2578125]]], [[[-124.31853, 42.77283, -9197.5380859375], [-124.31388, 42.76816, -9954.2578125], [-124.30544, 42.77356, -9374.126953125], [-124.31853, 42.77283, -9197.5380859375]]], [[[-124.31853, 42.77283, -9197.5380859375], [-124.30544, 42.77356, -9374.126953125], [-124.30993, 42.77828, -8614.255859375], [-124.31853, 42.77283, -9197.5380859375]]], [[[-124.34467, 42.80167, -4583.4443359375], [-124.34034, 42.79671, -5373.3212890625], [-124.33155, 42.80209, -4799.0029296875], [-124.34467, 42.80167, -4583.4443359375]]], [[[-124.34467, 42.80167, -4583.4443359375], [-124.33155, 42.80209, -4799.0029296875], [-124.33571, 42.80689, -4034.83544921875], [-124.34467, 42.80167, -4583.4443359375]]], [[[-124.34854, 42.80647, -3826.49560546875], [-124.34467, 42.80167, -4583.4443359375], [-124.33571, 42.80689, -4034.83544921875], [-124.34854, 42.80647, -3826.49560546875]]], [[[-124.34854, 42.80647, -3826.49560546875], [-124.33571, 42.80689, -4034.83544921875], [-124.33998, 42.81167, -3269.465576171875], [-124.34854, 42.80647, -3826.49560546875]]], [[[-124.35284, 42.81105, -3090.04150390625], [-124.34854, 42.80647, -3826.49560546875], [-124.33998, 42.81167, -3269.465576171875], [-124.35284, 42.81105, -3090.04150390625]]], [[[-124.35284, 42.81105, -3090.04150390625], [-124.33998, 42.81167, -3269.465576171875], [-124.34442, 42.8164, -2508.76123046875], [-124.35284, 42.81105, -3090.04150390625]]], [[[-124.35791, 42.81595, -2292.54443359375], [-124.35284, 42.81105, -3090.04150390625], [-124.34442, 42.8164, -2508.76123046875], [-124.35791, 42.81595, -2292.54443359375]]], [[[-124.36631, 42.81016, -2842.16015625], [-124.35284, 42.81105, -3090.04150390625], [-124.35791, 42.81595, -2292.54443359375], [-124.36631, 42.81016, -2842.16015625]]], [[[-124.36631, 42.81016, -2842.16015625], [-124.35791, 42.81595, -2292.54443359375], [-124.36982, 42.81513, -2081.80322265625], [-124.36631, 42.81016, -2842.16015625]]], [[[-124.3794, 42.81142, -2183.517822265625], [-124.36631, 42.81016, -2842.16015625], [-124.36982, 42.81513, -2081.80322265625], [-124.3794, 42.81142, -2183.517822265625]]], [[[-124.37691, 42.80508, -3028.07177734375], [-124.36631, 42.81016, -2842.16015625], [-124.3794, 42.81142, -2183.517822265625], [-124.37691, 42.80508, -3028.07177734375]]], [[[-124.37691, 42.80508, -3028.07177734375], [-124.3794, 42.81142, -2183.517822265625], [-124.38826, 42.80737, -2144.10009765625], [-124.37691, 42.80508, -3028.07177734375]]], [[[-124.38799, 42.81443, -1401.148681640625], [-124.38826, 42.80737, -2144.10009765625], [-124.3794, 42.81142, -2183.517822265625], [-124.38799, 42.81443, -1401.148681640625]]], [[[-124.38826, 42.80737, -2144.10009765625], [-124.38799, 42.81443, -1401.148681640625], [-124.39715, 42.80924, -1385.7353515625], [-124.38826, 42.80737, -2144.10009765625]]], [[[-124.38799, 42.81443, -1401.148681640625], [-124.397, 42.81636, -676.1444091796875], [-124.39715, 42.80924, -1385.7353515625], [-124.38799, 42.81443, -1401.148681640625]]], [[[-124.38799, 42.81443, -1401.148681640625], [-124.38707, 42.82133, -669.0545043945312], [-124.397, 42.81636, -676.1444091796875], [-124.38799, 42.81443, -1401.148681640625]]], [[[-124.38799, 42.81443, -1401.148681640625], [-124.37827, 42.81838, -1392.892578125], [-124.38707, 42.82133, -669.0545043945312], [-124.38799, 42.81443, -1401.148681640625]]], [[[-124.3794, 42.81142, -2183.517822265625], [-124.37827, 42.81838, -1392.892578125], [-124.38799, 42.81443, -1401.148681640625], [-124.3794, 42.81142, -2183.517822265625]]], [[[-124.3794, 42.81142, -2183.517822265625], [-124.36982, 42.81513, -2081.80322265625], [-124.37827, 42.81838, -1392.892578125], [-124.3794, 42.81142, -2183.517822265625]]], [[[-124.36982, 42.81513, -2081.80322265625], [-124.36553, 42.82132, -1374.073486328125], [-124.37827, 42.81838, -1392.892578125], [-124.36982, 42.81513, -2081.80322265625]]], [[[-124.36553, 42.82132, -1374.073486328125], [-124.36982, 42.81513, -2081.80322265625], [-124.35791, 42.81595, -2292.54443359375], [-124.36553, 42.82132, -1374.073486328125]]], [[[-124.36553, 42.82132, -1374.073486328125], [-124.35791, 42.81595, -2292.54443359375], [-124.34999, 42.8213, -1702.0111083984375], [-124.36553, 42.82132, -1374.073486328125]]], [[[-124.36553, 42.82132, -1374.073486328125], [-124.34999, 42.8213, -1702.0111083984375], [-124.35415, 42.82658, -868.9100341796875], [-124.36553, 42.82132, -1374.073486328125]]], [[[-124.36553, 42.82132, -1374.073486328125], [-124.35415, 42.82658, -868.9100341796875], [-124.36481, 42.82736, -540.9378662109375], [-124.36553, 42.82132, -1374.073486328125]]], [[[-124.36553, 42.82132, -1374.073486328125], [-124.36481, 42.82736, -540.9378662109375], [-124.37635, 42.82459, -637.4664916992188], [-124.36553, 42.82132, -1374.073486328125]]], [[[-124.37827, 42.81838, -1392.892578125], [-124.36553, 42.82132, -1374.073486328125], [-124.37635, 42.82459, -637.4664916992188], [-124.37827, 42.81838, -1392.892578125]]], [[[-124.37827, 42.81838, -1392.892578125], [-124.37635, 42.82459, -637.4664916992188], [-124.38707, 42.82133, -669.0545043945312], [-124.37827, 42.81838, -1392.892578125]]], [[[-124.37635, 42.82459, -637.4664916992188], [-124.38534, 42.82791, 76.91990661621094], [-124.38707, 42.82133, -669.0545043945312], [-124.37635, 42.82459, -637.4664916992188]]], [[[-124.37635, 42.82459, -637.4664916992188], [-124.37319, 42.83069, 107.42652893066406], [-124.38534, 42.82791, 76.91990661621094], [-124.37635, 42.82459, -637.4664916992188]]], [[[-124.37635, 42.82459, -637.4664916992188], [-124.36481, 42.82736, -540.9378662109375], [-124.37319, 42.83069, 107.42652893066406], [-124.37635, 42.82459, -637.4664916992188]]], [[[-124.36481, 42.82736, -540.9378662109375], [-124.36104, 42.83324, 215.50718688964844], [-124.37319, 42.83069, 107.42652893066406], [-124.36481, 42.82736, -540.9378662109375]]], [[[-124.36481, 42.82736, -540.9378662109375], [-124.35415, 42.82658, -868.9100341796875], [-124.36104, 42.83324, 215.50718688964844], [-124.36481, 42.82736, -540.9378662109375]]], [[[-124.35415, 42.82658, -868.9100341796875], [-124.35283, 42.83216, -98.68630981445312], [-124.36104, 42.83324, 215.50718688964844], [-124.35415, 42.82658, -868.9100341796875]]], [[[-124.35415, 42.82658, -868.9100341796875], [-124.34467, 42.83125, -427.3686828613281], [-124.35283, 42.83216, -98.68630981445312], [-124.35415, 42.82658, -868.9100341796875]]], [[[-124.349, 42.836, 336.4320068359375], [-124.35283, 42.83216, -98.68630981445312], [-124.34467, 42.83125, -427.3686828613281], [-124.349, 42.836, 336.4320068359375]]], [[[-124.349, 42.836, 336.4320068359375], [-124.36104, 42.83324, 215.50718688964844], [-124.35283, 42.83216, -98.68630981445312], [-124.349, 42.836, 336.4320068359375]]], [[[-124.38707, 42.82133, -669.0545043945312], [-124.38534, 42.82791, 76.91990661621094], [-124.39628, 42.82336, 35.04337692260742], [-124.38707, 42.82133, -669.0545043945312]]], [[[-124.397, 42.81636, -676.1444091796875], [-124.38707, 42.82133, -669.0545043945312], [-124.39628, 42.82336, 35.04337692260742], [-124.397, 42.81636, -676.1444091796875]]], [[[-124.397, 42.81636, -676.1444091796875], [-124.39628, 42.82336, 35.04337692260742], [-124.40625, 42.81765, 46.104061126708984], [-124.397, 42.81636, -676.1444091796875]]], [[[-124.40653, 42.81065, -668.5380859375], [-124.397, 42.81636, -676.1444091796875], [-124.40625, 42.81765, 46.104061126708984], [-124.40653, 42.81065, -668.5380859375]]], [[[-124.39715, 42.80924, -1385.7353515625], [-124.397, 42.81636, -676.1444091796875], [-124.40653, 42.81065, -668.5380859375], [-124.39715, 42.80924, -1385.7353515625]]], [[[-124.40766, 42.80351, -1391.1639404296875], [-124.39715, 42.80924, -1385.7353515625], [-124.40653, 42.81065, -668.5380859375], [-124.40766, 42.80351, -1391.1639404296875]]], [[[-124.40766, 42.80351, -1391.1639404296875], [-124.40653, 42.81065, -668.5380859375], [-124.41725, 42.80467, -666.9810791015625], [-124.40766, 42.80351, -1391.1639404296875]]], [[[-124.41845, 42.79709, -1319.8724365234375], [-124.40766, 42.80351, -1391.1639404296875], [-124.41725, 42.80467, -666.9810791015625], [-124.41845, 42.79709, -1319.8724365234375]]], [[[-124.40906, 42.79603, -2064.998046875], [-124.40766, 42.80351, -1391.1639404296875], [-124.41845, 42.79709, -1319.8724365234375], [-124.40906, 42.79603, -2064.998046875]]], [[[-124.43009, 42.79208, -1331.142578125], [-124.41991, 42.78986, -2063.934814453125], [-124.41845, 42.79709, -1319.8724365234375], [-124.43009, 42.79208, -1331.142578125]]], [[[-124.41991, 42.78986, -2063.934814453125], [-124.43009, 42.79208, -1331.142578125], [-124.42874, 42.78531, -2136.625], [-124.41991, 42.78986, -2063.934814453125]]], [[[-124.42874, 42.78531, -2136.625], [-124.42156, 42.78144, -2961.75048828125], [-124.41991, 42.78986, -2063.934814453125], [-124.42874, 42.78531, -2136.625]]], [[[-124.42156, 42.78144, -2961.75048828125], [-124.42874, 42.78531, -2136.625], [-124.43364, 42.77857, -2580.243408203125], [-124.42156, 42.78144, -2961.75048828125]]], [[[-124.42156, 42.78144, -2961.75048828125], [-124.43364, 42.77857, -2580.243408203125], [-124.42878, 42.77334, -3425.782470703125], [-124.42156, 42.78144, -2961.75048828125]]], [[[-124.41715, 42.77562, -3839.56298828125], [-124.42156, 42.78144, -2961.75048828125], [-124.42878, 42.77334, -3425.782470703125], [-124.41715, 42.77562, -3839.56298828125]]], [[[-124.41715, 42.77562, -3839.56298828125], [-124.42878, 42.77334, -3425.782470703125], [-124.42433, 42.76836, -4215.06494140625], [-124.41715, 42.77562, -3839.56298828125]]], [[[-124.42878, 42.77334, -3425.782470703125], [-124.43446, 42.76494, -3669.195068359375], [-124.42433, 42.76836, -4215.06494140625], [-124.42878, 42.77334, -3425.782470703125]]], [[[-124.42878, 42.77334, -3425.782470703125], [-124.4389, 42.76985, -2887.138671875], [-124.43446, 42.76494, -3669.195068359375], [-124.42878, 42.77334, -3425.782470703125]]], [[[-124.43364, 42.77857, -2580.243408203125], [-124.4389, 42.76985, -2887.138671875], [-124.42878, 42.77334, -3425.782470703125], [-124.43364, 42.77857, -2580.243408203125]]], [[[-124.43364, 42.77857, -2580.243408203125], [-124.44319, 42.7752, -2079.37548828125], [-124.4389, 42.76985, -2887.138671875], [-124.43364, 42.77857, -2580.243408203125]]], [[[-124.43364, 42.77857, -2580.243408203125], [-124.43889, 42.78552, -1537.9208984375], [-124.44319, 42.7752, -2079.37548828125], [-124.43364, 42.77857, -2580.243408203125]]], [[[-124.42874, 42.78531, -2136.625], [-124.43889, 42.78552, -1537.9208984375], [-124.43364, 42.77857, -2580.243408203125], [-124.42874, 42.78531, -2136.625]]], [[[-124.42874, 42.78531, -2136.625], [-124.43009, 42.79208, -1331.142578125], [-124.43889, 42.78552, -1537.9208984375], [-124.42874, 42.78531, -2136.625]]], [[[-124.43009, 42.79208, -1331.142578125], [-124.4386, 42.7943, -608.396240234375], [-124.43889, 42.78552, -1537.9208984375], [-124.43009, 42.79208, -1331.142578125]]], [[[-124.4386, 42.7943, -608.396240234375], [-124.43009, 42.79208, -1331.142578125], [-124.42789, 42.79904, -612.4908447265625], [-124.4386, 42.7943, -608.396240234375]]], [[[-124.42789, 42.79904, -612.4908447265625], [-124.43712, 42.80135, 81.93180847167969], [-124.4386, 42.7943, -608.396240234375], [-124.42789, 42.79904, -612.4908447265625]]], [[[-124.42789, 42.79904, -612.4908447265625], [-124.42618, 42.80609, 81.39630126953125], [-124.43712, 42.80135, 81.93180847167969], [-124.42789, 42.79904, -612.4908447265625]]], [[[-124.41725, 42.80467, -666.9810791015625], [-124.42618, 42.80609, 81.39630126953125], [-124.42789, 42.79904, -612.4908447265625], [-124.41725, 42.80467, -666.9810791015625]]], [[[-124.41725, 42.80467, -666.9810791015625], [-124.4163, 42.81195, 9.194241523742676], [-124.42618, 42.80609, 81.39630126953125], [-124.41725, 42.80467, -666.9810791015625]]], [[[-124.40653, 42.81065, -668.5380859375], [-124.4163, 42.81195, 9.194241523742676], [-124.41725, 42.80467, -666.9810791015625], [-124.40653, 42.81065, -668.5380859375]]], [[[-124.40653, 42.81065, -668.5380859375], [-124.40625, 42.81765, 46.104061126708984], [-124.4163, 42.81195, 9.194241523742676], [-124.40653, 42.81065, -668.5380859375]]], [[[-124.41845, 42.79709, -1319.8724365234375], [-124.41725, 42.80467, -666.9810791015625], [-124.42789, 42.79904, -612.4908447265625], [-124.41845, 42.79709, -1319.8724365234375]]], [[[-124.41845, 42.79709, -1319.8724365234375], [-124.42789, 42.79904, -612.4908447265625], [-124.43009, 42.79208, -1331.142578125], [-124.41845, 42.79709, -1319.8724365234375]]], [[[-124.4386, 42.7943, -608.396240234375], [-124.43712, 42.80135, 81.93180847167969], [-124.44795, 42.79648, 157.63748168945312], [-124.4386, 42.7943, -608.396240234375]]], [[[-124.4386, 42.7943, -608.396240234375], [-124.44795, 42.79648, 157.63748168945312], [-124.44624, 42.78912, -645.8887329101562], [-124.4386, 42.7943, -608.396240234375]]], [[[-124.44624, 42.78912, -645.8887329101562], [-124.43889, 42.78552, -1537.9208984375], [-124.4386, 42.7943, -608.396240234375], [-124.44624, 42.78912, -645.8887329101562]]], [[[-124.43889, 42.78552, -1537.9208984375], [-124.44624, 42.78912, -645.8887329101562], [-124.44767, 42.77982, -1316.8758544921875], [-124.43889, 42.78552, -1537.9208984375]]], [[[-124.43889, 42.78552, -1537.9208984375], [-124.44767, 42.77982, -1316.8758544921875], [-124.44319, 42.7752, -2079.37548828125], [-124.43889, 42.78552, -1537.9208984375]]], [[[-124.44319, 42.7752, -2079.37548828125], [-124.44767, 42.77982, -1316.8758544921875], [-124.45311, 42.77117, -1533.6468505859375], [-124.44319, 42.7752, -2079.37548828125]]], [[[-124.44319, 42.7752, -2079.37548828125], [-124.45311, 42.77117, -1533.6468505859375], [-124.44866, 42.76626, -2314.82080078125], [-124.44319, 42.7752, -2079.37548828125]]], [[[-124.4389, 42.76985, -2887.138671875], [-124.44319, 42.7752, -2079.37548828125], [-124.44866, 42.76626, -2314.82080078125], [-124.4389, 42.76985, -2887.138671875]]], [[[-124.4389, 42.76985, -2887.138671875], [-124.44866, 42.76626, -2314.82080078125], [-124.44421, 42.76135, -3095.99462890625], [-124.4389, 42.76985, -2887.138671875]]], [[[-124.43446, 42.76494, -3669.195068359375], [-124.4389, 42.76985, -2887.138671875], [-124.44421, 42.76135, -3095.99462890625], [-124.43446, 42.76494, -3669.195068359375]]], [[[-124.43446, 42.76494, -3669.195068359375], [-124.44421, 42.76135, -3095.99462890625], [-124.43977, 42.75643, -3877.16845703125], [-124.43446, 42.76494, -3669.195068359375]]], [[[-124.43446, 42.76494, -3669.195068359375], [-124.43977, 42.75643, -3877.16845703125], [-124.43003, 42.76003, -4451.25146484375], [-124.43446, 42.76494, -3669.195068359375]]], [[[-124.42433, 42.76836, -4215.06494140625], [-124.43446, 42.76494, -3669.195068359375], [-124.43003, 42.76003, -4451.25146484375], [-124.42433, 42.76836, -4215.06494140625]]], [[[-124.43003, 42.76003, -4451.25146484375], [-124.43977, 42.75643, -3877.16845703125], [-124.43532, 42.75152, -4658.34228515625], [-124.43003, 42.76003, -4451.25146484375]]], [[[-124.43003, 42.76003, -4451.25146484375], [-124.43532, 42.75152, -4658.34228515625], [-124.4256, 42.75512, -5233.3076171875], [-124.43003, 42.76003, -4451.25146484375]]], [[[-124.4256, 42.75512, -5233.3076171875], [-124.43532, 42.75152, -4658.34228515625], [-124.43088, 42.7466, -5439.5166015625], [-124.4256, 42.75512, -5233.3076171875]]], [[[-124.42117, 42.75021, -6015.36376953125], [-124.4256, 42.75512, -5233.3076171875], [-124.43088, 42.7466, -5439.5166015625], [-124.42117, 42.75021, -6015.36376953125]]], [[[-124.42117, 42.75021, -6015.36376953125], [-124.43088, 42.7466, -5439.5166015625], [-124.42644, 42.74169, -6220.6904296875], [-124.42117, 42.75021, -6015.36376953125]]], [[[-124.41674, 42.7453, -6797.42041015625], [-124.42117, 42.75021, -6015.36376953125], [-124.42644, 42.74169, -6220.6904296875], [-124.41674, 42.7453, -6797.42041015625]]], [[[-124.41674, 42.7453, -6797.42041015625], [-124.42644, 42.74169, -6220.6904296875], [-124.422, 42.73677, -7001.8642578125], [-124.41674, 42.7453, -6797.42041015625]]], [[[-124.41231, 42.74039, -7579.4765625], [-124.41674, 42.7453, -6797.42041015625], [-124.422, 42.73677, -7001.8642578125], [-124.41231, 42.74039, -7579.4765625]]], [[[-124.41231, 42.74039, -7579.4765625], [-124.422, 42.73677, -7001.8642578125], [-124.41755, 42.73186, -7783.0380859375], [-124.41231, 42.74039, -7579.4765625]]], [[[-124.40788, 42.73548, -8361.533203125], [-124.41231, 42.74039, -7579.4765625], [-124.41755, 42.73186, -7783.0380859375], [-124.40788, 42.73548, -8361.533203125]]], [[[-124.40788, 42.73548, -8361.533203125], [-124.41755, 42.73186, -7783.0380859375], [-124.41311, 42.72694, -8564.2119140625], [-124.40788, 42.73548, -8361.533203125]]], [[[-124.44767, 42.77982, -1316.8758544921875], [-124.45755, 42.77609, -752.472900390625], [-124.45311, 42.77117, -1533.6468505859375], [-124.44767, 42.77982, -1316.8758544921875]]], [[[-124.44767, 42.77982, -1316.8758544921875], [-124.45299, 42.78304, -597.4602661132812], [-124.45755, 42.77609, -752.472900390625], [-124.44767, 42.77982, -1316.8758544921875]]], [[[-124.44767, 42.77982, -1316.8758544921875], [-124.44624, 42.78912, -645.8887329101562], [-124.45299, 42.78304, -597.4602661132812], [-124.44767, 42.77982, -1316.8758544921875]]], [[[-124.44624, 42.78912, -645.8887329101562], [-124.4552, 42.78892, 75.68058776855469], [-124.45299, 42.78304, -597.4602661132812], [-124.44624, 42.78912, -645.8887329101562]]], [[[-124.44624, 42.78912, -645.8887329101562], [-124.44795, 42.79648, 157.63748168945312], [-124.4552, 42.78892, 75.68058776855469], [-124.44624, 42.78912, -645.8887329101562]]], [[[-124.45299, 42.78304, -597.4602661132812], [-124.4552, 42.78892, 75.68058776855469], [-124.462, 42.781, 28.701000213623047], [-124.45299, 42.78304, -597.4602661132812]]], [[[-124.45299, 42.78304, -597.4602661132812], [-124.462, 42.781, 28.701000213623047], [-124.45755, 42.77609, -752.472900390625], [-124.45299, 42.78304, -597.4602661132812]]], [[[-124.35791, 42.81595, -2292.54443359375], [-124.34442, 42.8164, -2508.76123046875], [-124.34999, 42.8213, -1702.0111083984375], [-124.35791, 42.81595, -2292.54443359375]]], [[[-124.38575, 42.71093, -12271.814453125], [-124.39536, 42.70728, -11688.9072265625], [-124.39092, 42.70237, -12470.08203125], [-124.38575, 42.71093, -12271.814453125]]], [[[-124.38575, 42.71093, -12271.814453125], [-124.39092, 42.70237, -12470.08203125], [-124.38132, 42.70602, -13053.87109375], [-124.38575, 42.71093, -12271.814453125]]], [[[-124.38649, 42.69745, -13251.255859375], [-124.38132, 42.70602, -13053.87109375], [-124.39092, 42.70237, -12470.08203125], [-124.38649, 42.69745, -13251.255859375]]], [[[-124.3769, 42.70111, -13835.927734375], [-124.38132, 42.70602, -13053.87109375], [-124.38649, 42.69745, -13251.255859375], [-124.3769, 42.70111, -13835.927734375]]], [[[-124.3769, 42.70111, -13835.927734375], [-124.38649, 42.69745, -13251.255859375], [-124.38205, 42.69253, -14032.4296875], [-124.3769, 42.70111, -13835.927734375]]], [[[-124.29252, 42.75927, -11663.0166015625], [-124.27973, 42.76001, -11884.37890625], [-124.28405, 42.76476, -11120.578125], [-124.29252, 42.75927, -11663.0166015625]]], [[[-124.31001, 42.79326, -6537.7744140625], [-124.31434, 42.79801, -5773.9736328125], [-124.3227, 42.79263, -6320.8994140625], [-124.31001, 42.79326, -6537.7744140625]]], [[[-124.31434, 42.79801, -5773.9736328125], [-124.32717, 42.79734, -5562.4169921875], [-124.3227, 42.79263, -6320.8994140625], [-124.31434, 42.79801, -5773.9736328125]]], [[[-124.32717, 42.79734, -5562.4169921875], [-124.31434, 42.79801, -5773.9736328125], [-124.31867, 42.80276, -5010.1728515625], [-124.32717, 42.79734, -5562.4169921875]]]]}}]}