{"type": "FeatureCollection", "features": [{"type": "Feature", "properties": {"name": "Thousand Springs", "CFM_ID": 168, "region": "Backarc_OR", "primary_state/province": "OR", "secondary_state/province": null, "avg_dip": 50, "dip_dir": "W", "rake": -90, "slip_sense": "Normal", "fault_level": 1, "NSHM23_sliprates": null, "QFFDAgeCatBin": null, "QFFDAgeBin": null, "upper_depth": 1.3, "upper_depth_constraint": "topography", "lower_depth": -8.2, "lower_depth_constraint": "SDL", "3D_model_constraints": "trace extended at constant dip", "reference": "Curtiss et al. (2024); Egger et al. (2021)", "nshm23_id": null, "lineage": null, "usgs_qffd_#": null, "comments": null, "id": "168"}, "geometry": {"type": "MultiPolygon", "coordinates": [[[[-120.65502, 42.95455, 563.5748291015625], [-120.64867, 42.95801, 1273.6064453125], [-120.65678, 42.9644, 556.5443725585938], [-120.65502, 42.95455, 563.5748291015625]]], [[[-120.66845, 42.92509, -1565.326416015625], [-120.66204, 42.91805, -1087.3988037109375], [-120.66063, 42.92744, -753.9552001953125], [-120.66845, 42.92509, -1565.326416015625]]], [[[-120.75642, 42.9693, -7760.87744140625], [-120.7647, 42.97134, -8153.18505859375], [-120.75587, 42.96522, -8145.10546875], [-120.75642, 42.9693, -7760.87744140625]]], [[[-120.68569, 42.98354, -910.715576171875], [-120.68829, 42.99106, -304.7975158691406], [-120.69593, 42.98909, -1089.63623046875], [-120.68569, 42.98354, -910.715576171875]]], [[[-120.67134, 42.9878, 624.0504150390625], [-120.673, 42.995, 1264.8800048828125], [-120.68064, 42.99303, 480.041259765625], [-120.67134, 42.9878, 624.0504150390625]]], [[[-120.67613, 42.9231, -2355.915283203125], [-120.6774, 42.91408, -2668.55615234375], [-120.66972, 42.91606, -1877.9774169921875], [-120.67613, 42.9231, -2355.915283203125]]], [[[-120.75706, 42.97332, -7368.34619140625], [-120.7647, 42.97134, -8153.18505859375], [-120.75642, 42.9693, -7760.87744140625], [-120.75706, 42.97332, -7368.34619140625]]], [[[-120.67542, 42.97789, -733.1214599609375], [-120.67881, 42.98589, -140.4242706298828], [-120.68569, 42.98354, -910.715576171875], [-120.67542, 42.97789, -733.1214599609375]]], [[[-120.72013, 42.94248, -6029.2099609375], [-120.72833, 42.94559, -6813.5283203125], [-120.72548, 42.93687, -6673.79248046875], [-120.72013, 42.94248, -6029.2099609375]]], [[[-120.74931, 42.96691, -7470.10595703125], [-120.75706, 42.97332, -7368.34619140625], [-120.75642, 42.9693, -7760.87744140625], [-120.74931, 42.96691, -7470.10595703125]]], [[[-120.66245, 42.98222, 677.7968139648438], [-120.66489, 42.98926, 1264.292236328125], [-120.67134, 42.9878, 624.0504150390625], [-120.66245, 42.98222, 677.7968139648438]]], [[[-120.72127, 42.96606, -5441.8994140625], [-120.73154, 42.97172, -5619.51025390625], [-120.72963, 42.96413, -6282.123046875], [-120.72127, 42.96606, -5441.8994140625]]], [[[-120.74931, 42.96691, -7470.10595703125], [-120.74942, 42.97529, -6583.50732421875], [-120.75706, 42.97332, -7368.34619140625], [-120.74931, 42.96691, -7470.10595703125]]], [[[-120.70604, 42.97009, -3869.23779296875], [-120.70862, 42.97763, -3265.017333984375], [-120.71626, 42.97566, -4049.78466796875], [-120.70604, 42.97009, -3869.23779296875]]], [[[-120.69794, 42.92618, -4412.6494140625], [-120.706, 42.92446, -5234.8203125], [-120.69916, 42.91715, -4727.78173828125], [-120.69794, 42.92618, -4412.6494140625]]], [[[-120.74069, 42.96573, -6959.71044921875], [-120.74942, 42.97529, -6583.50732421875], [-120.74931, 42.96691, -7470.10595703125], [-120.74069, 42.96573, -6959.71044921875]]], [[[-120.70626, 42.95227, -4528.4326171875], [-120.69856, 42.95431, -3736.34521484375], [-120.70489, 42.96198, -4362.8955078125], [-120.70626, 42.95227, -4528.4326171875]]], [[[-120.69794, 42.92618, -4412.6494140625], [-120.69148, 42.91913, -3937.15966796875], [-120.69026, 42.92817, -3622.026611328125], [-120.69794, 42.92618, -4412.6494140625]]], [[[-120.74069, 42.96573, -6959.71044921875], [-120.73911, 42.9703, -6344.01025390625], [-120.74942, 42.97529, -6583.50732421875], [-120.74069, 42.96573, -6959.71044921875]]], [[[-120.65309, 42.92906, 15.832159996032715], [-120.64668, 42.92202, 493.7584228515625], [-120.64579, 42.92979, 742.4320068359375], [-120.65309, 42.92906, 15.832159996032715]]], [[[-120.70862, 42.97763, -3265.017333984375], [-120.71886, 42.98318, -3444.152587890625], [-120.71626, 42.97566, -4049.78466796875], [-120.70862, 42.97763, -3265.017333984375]]], [[[-120.70542, 42.93318, -4890.19677734375], [-120.706, 42.92446, -5234.8203125], [-120.69794, 42.92618, -4412.6494140625], [-120.70542, 42.93318, -4890.19677734375]]], [[[-120.72963, 42.96413, -6282.123046875], [-120.73154, 42.97172, -5619.51025390625], [-120.73911, 42.9703, -6344.01025390625], [-120.72963, 42.96413, -6282.123046875]]], [[[-120.74069, 42.96573, -6959.71044921875], [-120.72963, 42.96413, -6282.123046875], [-120.73911, 42.9703, -6344.01025390625], [-120.74069, 42.96573, -6959.71044921875]]], [[[-120.67881, 42.98589, -140.4242706298828], [-120.68829, 42.99106, -304.7975158691406], [-120.68569, 42.98354, -910.715576171875], [-120.67881, 42.98589, -140.4242706298828]]], [[[-120.73534, 42.95998, -7085.302734375], [-120.72963, 42.96413, -6282.123046875], [-120.74069, 42.96573, -6959.71044921875], [-120.73534, 42.95998, -7085.302734375]]], [[[-120.69725, 42.96396, -3577.7373046875], [-120.70604, 42.97009, -3869.23779296875], [-120.70489, 42.96198, -4362.8955078125], [-120.69725, 42.96396, -3577.7373046875]]], [[[-120.72963, 42.96413, -6282.123046875], [-120.73534, 42.95998, -7085.302734375], [-120.72763, 42.95595, -6697.98046875], [-120.72963, 42.96413, -6282.123046875]]], [[[-120.68569, 42.98354, -910.715576171875], [-120.69593, 42.98909, -1089.63623046875], [-120.69333, 42.98157, -1695.4827880859375], [-120.68569, 42.98354, -910.715576171875]]], [[[-120.6838, 42.92112, -3146.537353515625], [-120.6774, 42.91408, -2668.55615234375], [-120.67613, 42.9231, -2355.915283203125], [-120.6838, 42.92112, -3146.537353515625]]], [[[-120.67542, 42.97789, -733.1214599609375], [-120.66491, 42.97631, -2.148488283157349], [-120.67068, 42.98135, -39.7450065612793], [-120.67542, 42.97789, -733.1214599609375]]], [[[-120.72007, 42.95809, -5921.8740234375], [-120.72963, 42.96413, -6282.123046875], [-120.72763, 42.95595, -6697.98046875], [-120.72007, 42.95809, -5921.8740234375]]], [[[-120.71406, 42.9499, -5336.97314453125], [-120.72007, 42.95809, -5921.8740234375], [-120.72205, 42.95018, -6124.6455078125], [-120.71406, 42.9499, -5336.97314453125]]], [[[-120.64091, 42.93258, 1277.219482421875], [-120.64929, 42.93699, 557.4474487304688], [-120.64579, 42.92979, 742.4320068359375], [-120.64091, 42.93258, 1277.219482421875]]], [[[-120.72007, 42.95809, -5921.8740234375], [-120.72127, 42.96606, -5441.8994140625], [-120.72963, 42.96413, -6282.123046875], [-120.72007, 42.95809, -5921.8740234375]]], [[[-120.72007, 42.95809, -5921.8740234375], [-120.71248, 42.95997, -5142.1083984375], [-120.72127, 42.96606, -5441.8994140625], [-120.72007, 42.95809, -5921.8740234375]]], [[[-120.71368, 42.96812, -4653.98486328125], [-120.7239, 42.97369, -4834.55224609375], [-120.72127, 42.96606, -5441.8994140625], [-120.71368, 42.96812, -4653.98486328125]]], [[[-120.69333, 42.98157, -1695.4827880859375], [-120.70357, 42.98712, -1874.4749755859375], [-120.70098, 42.9796, -2480.250244140625], [-120.69333, 42.98157, -1695.4827880859375]]], [[[-120.67134, 42.9878, 624.0504150390625], [-120.66489, 42.98926, 1264.292236328125], [-120.673, 42.995, 1264.8800048828125], [-120.67134, 42.9878, 624.0504150390625]]], [[[-120.72205, 42.95018, -6124.6455078125], [-120.72763, 42.95595, -6697.98046875], [-120.72833, 42.94559, -6813.5283203125], [-120.72205, 42.95018, -6124.6455078125]]], [[[-120.65678, 42.9644, 556.5443725585938], [-120.64867, 42.95801, 1273.6064453125], [-120.64982, 42.96642, 1274.651611328125], [-120.65678, 42.9644, 556.5443725585938]]], [[[-120.71406, 42.9499, -5336.97314453125], [-120.71248, 42.95997, -5142.1083984375], [-120.72007, 42.95809, -5921.8740234375], [-120.71406, 42.9499, -5336.97314453125]]], [[[-120.639, 42.924, 1284.3370361328125], [-120.64579, 42.92979, 742.4320068359375], [-120.64668, 42.92202, 493.7584228515625], [-120.639, 42.924, 1284.3370361328125]]], [[[-120.71406, 42.9499, -5336.97314453125], [-120.70626, 42.95227, -4528.4326171875], [-120.71248, 42.95997, -5142.1083984375], [-120.71406, 42.9499, -5336.97314453125]]], [[[-120.66245, 42.98222, 677.7968139648438], [-120.65276, 42.97976, 1271.3690185546875], [-120.65786, 42.98457, 1267.8448486328125], [-120.66245, 42.98222, 677.7968139648438]]], [[[-120.70626, 42.95227, -4528.4326171875], [-120.71406, 42.9499, -5336.97314453125], [-120.70518, 42.94271, -4565.36181640625], [-120.70626, 42.95227, -4528.4326171875]]], [[[-120.70098, 42.9796, -2480.250244140625], [-120.70357, 42.98712, -1874.4749755859375], [-120.71122, 42.98515, -2659.313720703125], [-120.70098, 42.9796, -2480.250244140625]]], [[[-120.70518, 42.94271, -4565.36181640625], [-120.70542, 42.93318, -4890.19677734375], [-120.69729, 42.93515, -4058.1259765625], [-120.70518, 42.94271, -4565.36181640625]]], [[[-120.67542, 42.97789, -733.1214599609375], [-120.67068, 42.98135, -39.7450065612793], [-120.67881, 42.98589, -140.4242706298828], [-120.67542, 42.97789, -733.1214599609375]]], [[[-120.69752, 42.94473, -3774.896484375], [-120.70626, 42.95227, -4528.4326171875], [-120.70518, 42.94271, -4565.36181640625], [-120.69752, 42.94473, -3774.896484375]]], [[[-120.71368, 42.96812, -4653.98486328125], [-120.71626, 42.97566, -4049.78466796875], [-120.7239, 42.97369, -4834.55224609375], [-120.71368, 42.96812, -4653.98486328125]]], [[[-120.64929, 42.93699, 557.4474487304688], [-120.64091, 42.93258, 1277.219482421875], [-120.64281, 42.94116, 1277.847412109375], [-120.64929, 42.93699, 557.4474487304688]]], [[[-120.69075, 42.97404, -2299.76171875], [-120.69333, 42.98157, -1695.4827880859375], [-120.70098, 42.9796, -2480.250244140625], [-120.69075, 42.97404, -2299.76171875]]], [[[-120.6838, 42.92112, -3146.537353515625], [-120.68258, 42.93016, -2831.403564453125], [-120.69026, 42.92817, -3622.026611328125], [-120.6838, 42.92112, -3146.537353515625]]], [[[-120.69752, 42.94473, -3774.896484375], [-120.69856, 42.95431, -3736.34521484375], [-120.70626, 42.95227, -4528.4326171875], [-120.69752, 42.94473, -3774.896484375]]], [[[-120.68961, 42.93714, -3267.4609375], [-120.69752, 42.94473, -3774.896484375], [-120.69729, 42.93515, -4058.1259765625], [-120.68961, 42.93714, -3267.4609375]]], [[[-120.70604, 42.97009, -3869.23779296875], [-120.6984, 42.97207, -3084.5], [-120.70862, 42.97763, -3265.017333984375], [-120.70604, 42.97009, -3869.23779296875]]], [[[-120.69856, 42.95431, -3736.34521484375], [-120.69752, 42.94473, -3774.896484375], [-120.68998, 42.94688, -2992.840576171875], [-120.69856, 42.95431, -3736.34521484375]]], [[[-120.67068, 42.98135, -39.7450065612793], [-120.67134, 42.9878, 624.0504150390625], [-120.67881, 42.98589, -140.4242706298828], [-120.67068, 42.98135, -39.7450065612793]]], [[[-120.69856, 42.95431, -3736.34521484375], [-120.68998, 42.94688, -2992.840576171875], [-120.69093, 42.95694, -2938.5478515625], [-120.69856, 42.95431, -3736.34521484375]]], [[[-120.73911, 42.9703, -6344.01025390625], [-120.74178, 42.97726, -5798.6689453125], [-120.74942, 42.97529, -6583.50732421875], [-120.73911, 42.9703, -6344.01025390625]]], [[[-120.69093, 42.95694, -2938.5478515625], [-120.69725, 42.96396, -3577.7373046875], [-120.69856, 42.95431, -3736.34521484375], [-120.69093, 42.95694, -2938.5478515625]]], [[[-120.70862, 42.97763, -3265.017333984375], [-120.71122, 42.98515, -2659.313720703125], [-120.71886, 42.98318, -3444.152587890625], [-120.70862, 42.97763, -3265.017333984375]]], [[[-120.69093, 42.95694, -2938.5478515625], [-120.68963, 42.96655, -2796.060546875], [-120.69725, 42.96396, -3577.7373046875], [-120.69093, 42.95694, -2938.5478515625]]], [[[-120.67881, 42.98589, -140.4242706298828], [-120.67134, 42.9878, 624.0504150390625], [-120.68064, 42.99303, 480.041259765625], [-120.67881, 42.98589, -140.4242706298828]]], [[[-120.69093, 42.95694, -2938.5478515625], [-120.68438, 42.95986, -2255.19970703125], [-120.68963, 42.96655, -2796.060546875], [-120.69093, 42.95694, -2938.5478515625]]], [[[-120.73154, 42.97172, -5619.51025390625], [-120.73414, 42.97924, -5013.830078125], [-120.74178, 42.97726, -5798.6689453125], [-120.73154, 42.97172, -5619.51025390625]]], [[[-120.69093, 42.95694, -2938.5478515625], [-120.68285, 42.94888, -2253.39794921875], [-120.68438, 42.95986, -2255.19970703125], [-120.69093, 42.95694, -2938.5478515625]]], [[[-120.70518, 42.94271, -4565.36181640625], [-120.71227, 42.94021, -5315.92724609375], [-120.70542, 42.93318, -4890.19677734375], [-120.70518, 42.94271, -4565.36181640625]]], [[[-120.68285, 42.94888, -2253.39794921875], [-120.69093, 42.95694, -2938.5478515625], [-120.68998, 42.94688, -2992.840576171875], [-120.68285, 42.94888, -2253.39794921875]]], [[[-120.67881, 42.98589, -140.4242706298828], [-120.68064, 42.99303, 480.041259765625], [-120.68829, 42.99106, -304.7975158691406], [-120.67881, 42.98589, -140.4242706298828]]], [[[-120.68285, 42.94888, -2253.39794921875], [-120.68998, 42.94688, -2992.840576171875], [-120.68197, 42.93923, -2477.215576171875], [-120.68285, 42.94888, -2253.39794921875]]], [[[-120.68961, 42.93714, -3267.4609375], [-120.68998, 42.94688, -2992.840576171875], [-120.69752, 42.94473, -3774.896484375], [-120.68961, 42.93714, -3267.4609375]]], [[[-120.68285, 42.94888, -2253.39794921875], [-120.68197, 42.93923, -2477.215576171875], [-120.67426, 42.94234, -1643.707275390625], [-120.68285, 42.94888, -2253.39794921875]]], [[[-120.64579, 42.92979, 742.4320068359375], [-120.639, 42.924, 1284.3370361328125], [-120.64091, 42.93258, 1277.219482421875], [-120.64579, 42.92979, 742.4320068359375]]], [[[-120.67426, 42.94234, -1643.707275390625], [-120.67774, 42.9529, -1670.193603515625], [-120.68285, 42.94888, -2253.39794921875], [-120.67426, 42.94234, -1643.707275390625]]], [[[-120.71368, 42.96812, -4653.98486328125], [-120.70604, 42.97009, -3869.23779296875], [-120.71626, 42.97566, -4049.78466796875], [-120.71368, 42.96812, -4653.98486328125]]], [[[-120.67426, 42.94234, -1643.707275390625], [-120.66995, 42.95247, -918.1170043945312], [-120.67774, 42.9529, -1670.193603515625], [-120.67426, 42.94234, -1643.707275390625]]], [[[-120.65698, 42.97429, 556.5155029296875], [-120.64982, 42.96642, 1274.651611328125], [-120.65, 42.97389, 1273.9349365234375], [-120.65698, 42.97429, 556.5155029296875]]], [[[-120.66617, 42.9424, -882.6936645507812], [-120.66995, 42.95247, -918.1170043945312], [-120.67426, 42.94234, -1643.707275390625], [-120.66617, 42.9424, -882.6936645507812]]], [[[-120.66995, 42.95247, -918.1170043945312], [-120.66617, 42.9424, -882.6936645507812], [-120.66062, 42.94837, -160.55616760253906], [-120.66995, 42.95247, -918.1170043945312]]], [[[-120.66995, 42.95247, -918.1170043945312], [-120.66062, 42.94837, -160.55616760253906], [-120.66327, 42.95867, -158.052001953125], [-120.66995, 42.95247, -918.1170043945312]]], [[[-120.715, 42.91313, -6357.8076171875], [-120.70811, 42.90613, -5830.87060546875], [-120.70684, 42.91516, -5518.40380859375], [-120.715, 42.91313, -6357.8076171875]]], [[[-120.66995, 42.95247, -918.1170043945312], [-120.66327, 42.95867, -158.052001953125], [-120.67009, 42.96364, -788.0757446289062], [-120.66995, 42.95247, -918.1170043945312]]], [[[-120.67009, 42.96364, -788.0757446289062], [-120.67718, 42.96193, -1515.42529296875], [-120.66995, 42.95247, -918.1170043945312], [-120.67009, 42.96364, -788.0757446289062]]], [[[-120.67496, 42.97061, -1286.4483642578125], [-120.67718, 42.96193, -1515.42529296875], [-120.67009, 42.96364, -788.0757446289062], [-120.67496, 42.97061, -1286.4483642578125]]], [[[-120.67718, 42.96193, -1515.42529296875], [-120.67496, 42.97061, -1286.4483642578125], [-120.68221, 42.96874, -2030.5123291015625], [-120.67718, 42.96193, -1515.42529296875]]], [[[-120.66062, 42.94837, -160.55616760253906], [-120.65792, 42.93771, -267.45086669921875], [-120.65203, 42.94524, 544.9656982421875], [-120.66062, 42.94837, -160.55616760253906]]], [[[-120.68438, 42.95986, -2255.19970703125], [-120.67718, 42.96193, -1515.42529296875], [-120.68221, 42.96874, -2030.5123291015625], [-120.68438, 42.95986, -2255.19970703125]]], [[[-120.72497, 42.91258, -7340.69775390625], [-120.7348, 42.91797, -8180.78759765625], [-120.73293, 42.90907, -8191.67236328125], [-120.72497, 42.91258, -7340.69775390625]]], [[[-120.67774, 42.9529, -1670.193603515625], [-120.67718, 42.96193, -1515.42529296875], [-120.68438, 42.95986, -2255.19970703125], [-120.67774, 42.9529, -1670.193603515625]]], [[[-120.67774, 42.9529, -1670.193603515625], [-120.66995, 42.95247, -918.1170043945312], [-120.67718, 42.96193, -1515.42529296875], [-120.67774, 42.9529, -1670.193603515625]]], [[[-120.65792, 42.93771, -267.45086669921875], [-120.66617, 42.9424, -882.6936645507812], [-120.66685, 42.93424, -1211.4603271484375], [-120.65792, 42.93771, -267.45086669921875]]], [[[-120.67774, 42.9529, -1670.193603515625], [-120.68438, 42.95986, -2255.19970703125], [-120.68285, 42.94888, -2253.39794921875], [-120.67774, 42.9529, -1670.193603515625]]], [[[-120.72086, 42.9199, -6780.388671875], [-120.72893, 42.92276, -7464.77490234375], [-120.72497, 42.91258, -7340.69775390625], [-120.72086, 42.9199, -6780.388671875]]], [[[-120.68438, 42.95986, -2255.19970703125], [-120.68221, 42.96874, -2030.5123291015625], [-120.68963, 42.96655, -2796.060546875], [-120.68438, 42.95986, -2255.19970703125]]], [[[-120.65203, 42.94524, 544.9656982421875], [-120.64281, 42.94116, 1277.847412109375], [-120.64584, 42.94957, 1277.7227783203125], [-120.65203, 42.94524, 544.9656982421875]]], [[[-120.68221, 42.96874, -2030.5123291015625], [-120.69075, 42.97404, -2299.76171875], [-120.68963, 42.96655, -2796.060546875], [-120.68221, 42.96874, -2030.5123291015625]]], [[[-120.73265, 42.95188, -7212.96533203125], [-120.72833, 42.94559, -6813.5283203125], [-120.72763, 42.95595, -6697.98046875], [-120.73265, 42.95188, -7212.96533203125]]], [[[-120.68221, 42.96874, -2030.5123291015625], [-120.68311, 42.97601, -1515.02392578125], [-120.69075, 42.97404, -2299.76171875], [-120.68221, 42.96874, -2030.5123291015625]]], [[[-120.66063, 42.92744, -753.9552001953125], [-120.66204, 42.91805, -1087.3988037109375], [-120.65436, 42.92003, -296.8202209472656], [-120.66063, 42.92744, -753.9552001953125]]], [[[-120.68221, 42.96874, -2030.5123291015625], [-120.67496, 42.97061, -1286.4483642578125], [-120.68311, 42.97601, -1515.02392578125], [-120.68221, 42.96874, -2030.5123291015625]]], [[[-120.64929, 42.93699, 557.4474487304688], [-120.65309, 42.92906, 15.832159996032715], [-120.64579, 42.92979, 742.4320068359375], [-120.64929, 42.93699, 557.4474487304688]]], [[[-120.72497, 42.91258, -7340.69775390625], [-120.73293, 42.90907, -8191.67236328125], [-120.72819, 42.90561, -7801.61181640625], [-120.72497, 42.91258, -7340.69775390625]]], [[[-120.67496, 42.97061, -1286.4483642578125], [-120.67542, 42.97789, -733.1214599609375], [-120.68311, 42.97601, -1515.02392578125], [-120.67496, 42.97061, -1286.4483642578125]]], [[[-120.67496, 42.97061, -1286.4483642578125], [-120.66823, 42.97172, -598.51806640625], [-120.67542, 42.97789, -733.1214599609375], [-120.67496, 42.97061, -1286.4483642578125]]], [[[-120.67496, 42.97061, -1286.4483642578125], [-120.67009, 42.96364, -788.0757446289062], [-120.66823, 42.97172, -598.51806640625], [-120.67496, 42.97061, -1286.4483642578125]]], [[[-120.67009, 42.96364, -788.0757446289062], [-120.66312, 42.96885, -72.8821792602539], [-120.66823, 42.97172, -598.51806640625], [-120.67009, 42.96364, -788.0757446289062]]], [[[-120.66312, 42.96885, -72.8821792602539], [-120.67009, 42.96364, -788.0757446289062], [-120.66327, 42.95867, -158.052001953125], [-120.66312, 42.96885, -72.8821792602539]]], [[[-120.66327, 42.95867, -158.052001953125], [-120.65678, 42.9644, 556.5443725585938], [-120.66312, 42.96885, -72.8821792602539], [-120.66327, 42.95867, -158.052001953125]]], [[[-120.66327, 42.95867, -158.052001953125], [-120.65502, 42.95455, 563.5748291015625], [-120.65678, 42.9644, 556.5443725585938], [-120.66327, 42.95867, -158.052001953125]]], [[[-120.66327, 42.95867, -158.052001953125], [-120.66062, 42.94837, -160.55616760253906], [-120.65502, 42.95455, 563.5748291015625], [-120.66327, 42.95867, -158.052001953125]]], [[[-120.66062, 42.94837, -160.55616760253906], [-120.65203, 42.94524, 544.9656982421875], [-120.65502, 42.95455, 563.5748291015625], [-120.66062, 42.94837, -160.55616760253906]]], [[[-120.66617, 42.9424, -882.6936645507812], [-120.65792, 42.93771, -267.45086669921875], [-120.66062, 42.94837, -160.55616760253906], [-120.66617, 42.9424, -882.6936645507812]]], [[[-120.74931, 42.96691, -7470.10595703125], [-120.75587, 42.96522, -8145.10546875], [-120.74812, 42.9599, -8137.9873046875], [-120.74931, 42.96691, -7470.10595703125]]], [[[-120.66685, 42.93424, -1211.4603271484375], [-120.66063, 42.92744, -753.9552001953125], [-120.65792, 42.93771, -267.45086669921875], [-120.66685, 42.93424, -1211.4603271484375]]], [[[-120.67068, 42.98135, -39.7450065612793], [-120.66245, 42.98222, 677.7968139648438], [-120.67134, 42.9878, 624.0504150390625], [-120.67068, 42.98135, -39.7450065612793]]], [[[-120.66685, 42.93424, -1211.4603271484375], [-120.66845, 42.92509, -1565.326416015625], [-120.66063, 42.92744, -753.9552001953125], [-120.66685, 42.93424, -1211.4603271484375]]], [[[-120.66245, 42.98222, 677.7968139648438], [-120.65698, 42.97429, 556.5155029296875], [-120.65276, 42.97976, 1271.3690185546875], [-120.66245, 42.98222, 677.7968139648438]]], [[[-120.66685, 42.93424, -1211.4603271484375], [-120.67482, 42.93227, -2030.275390625], [-120.66845, 42.92509, -1565.326416015625], [-120.66685, 42.93424, -1211.4603271484375]]], [[[-120.72346, 42.90216, -7412.02783203125], [-120.72819, 42.90561, -7801.61181640625], [-120.73113, 42.90017, -8202.6064453125], [-120.72346, 42.90216, -7412.02783203125]]], [[[-120.67426, 42.94234, -1643.707275390625], [-120.67482, 42.93227, -2030.275390625], [-120.66685, 42.93424, -1211.4603271484375], [-120.67426, 42.94234, -1643.707275390625]]], [[[-120.72763, 42.95595, -6697.98046875], [-120.73534, 42.95998, -7085.302734375], [-120.73692, 42.95432, -7653.59619140625], [-120.72763, 42.95595, -6697.98046875]]], [[[-120.68197, 42.93923, -2477.215576171875], [-120.67482, 42.93227, -2030.275390625], [-120.67426, 42.94234, -1643.707275390625], [-120.68197, 42.93923, -2477.215576171875]]], [[[-120.65792, 42.93771, -267.45086669921875], [-120.64929, 42.93699, 557.4474487304688], [-120.65203, 42.94524, 544.9656982421875], [-120.65792, 42.93771, -267.45086669921875]]], [[[-120.68197, 42.93923, -2477.215576171875], [-120.68258, 42.93016, -2831.403564453125], [-120.67482, 42.93227, -2030.275390625], [-120.68197, 42.93923, -2477.215576171875]]], [[[-120.72819, 42.90561, -7801.61181640625], [-120.73293, 42.90907, -8191.67236328125], [-120.73113, 42.90017, -8202.6064453125], [-120.72819, 42.90561, -7801.61181640625]]], [[[-120.68961, 42.93714, -3267.4609375], [-120.68258, 42.93016, -2831.403564453125], [-120.68197, 42.93923, -2477.215576171875], [-120.68961, 42.93714, -3267.4609375]]], [[[-120.74254, 42.96026, -7651.56787109375], [-120.74069, 42.96573, -6959.71044921875], [-120.74931, 42.96691, -7470.10595703125], [-120.74254, 42.96026, -7651.56787109375]]], [[[-120.68961, 42.93714, -3267.4609375], [-120.69026, 42.92817, -3622.026611328125], [-120.68258, 42.93016, -2831.403564453125], [-120.68961, 42.93714, -3267.4609375]]], [[[-120.65698, 42.97429, 556.5155029296875], [-120.66245, 42.98222, 677.7968139648438], [-120.66491, 42.97631, -2.148488283157349], [-120.65698, 42.97429, 556.5155029296875]]], [[[-120.69729, 42.93515, -4058.1259765625], [-120.69026, 42.92817, -3622.026611328125], [-120.68961, 42.93714, -3267.4609375], [-120.69729, 42.93515, -4058.1259765625]]], [[[-120.71525, 42.93221, -5848.53125], [-120.71356, 42.92234, -6016.86767578125], [-120.706, 42.92446, -5234.8203125], [-120.71525, 42.93221, -5848.53125]]], [[[-120.69729, 42.93515, -4058.1259765625], [-120.69794, 42.92618, -4412.6494140625], [-120.69026, 42.92817, -3622.026611328125], [-120.69729, 42.93515, -4058.1259765625]]], [[[-120.65309, 42.92906, 15.832159996032715], [-120.65792, 42.93771, -267.45086669921875], [-120.66063, 42.92744, -753.9552001953125], [-120.65309, 42.92906, 15.832159996032715]]], [[[-120.69729, 42.93515, -4058.1259765625], [-120.70542, 42.93318, -4890.19677734375], [-120.69794, 42.92618, -4412.6494140625], [-120.69729, 42.93515, -4058.1259765625]]], [[[-120.6984, 42.97207, -3084.5], [-120.68963, 42.96655, -2796.060546875], [-120.69075, 42.97404, -2299.76171875], [-120.6984, 42.97207, -3084.5]]], [[[-120.71227, 42.94021, -5315.92724609375], [-120.70518, 42.94271, -4565.36181640625], [-120.71406, 42.9499, -5336.97314453125], [-120.71227, 42.94021, -5315.92724609375]]], [[[-120.66823, 42.97172, -598.51806640625], [-120.66491, 42.97631, -2.148488283157349], [-120.67542, 42.97789, -733.1214599609375], [-120.66823, 42.97172, -598.51806640625]]], [[[-120.69148, 42.91913, -3937.15966796875], [-120.69275, 42.91011, -4249.71337890625], [-120.68508, 42.91209, -3459.134765625], [-120.69148, 42.91913, -3937.15966796875]]], [[[-120.71406, 42.9499, -5336.97314453125], [-120.72013, 42.94248, -6029.2099609375], [-120.71227, 42.94021, -5315.92724609375], [-120.71406, 42.9499, -5336.97314453125]]], [[[-120.65, 42.97389, 1273.9349365234375], [-120.65276, 42.97976, 1271.3690185546875], [-120.65698, 42.97429, 556.5155029296875], [-120.65, 42.97389, 1273.9349365234375]]], [[[-120.69856, 42.95431, -3736.34521484375], [-120.69725, 42.96396, -3577.7373046875], [-120.70489, 42.96198, -4362.8955078125], [-120.69856, 42.95431, -3736.34521484375]]], [[[-120.71406, 42.9499, -5336.97314453125], [-120.72205, 42.95018, -6124.6455078125], [-120.72013, 42.94248, -6029.2099609375], [-120.71406, 42.9499, -5336.97314453125]]], [[[-120.70862, 42.97763, -3265.017333984375], [-120.70098, 42.9796, -2480.250244140625], [-120.71122, 42.98515, -2659.313720703125], [-120.70862, 42.97763, -3265.017333984375]]], [[[-120.67482, 42.93227, -2030.275390625], [-120.68258, 42.93016, -2831.403564453125], [-120.67613, 42.9231, -2355.915283203125], [-120.67482, 42.93227, -2030.275390625]]], [[[-120.72205, 42.95018, -6124.6455078125], [-120.72007, 42.95809, -5921.8740234375], [-120.72763, 42.95595, -6697.98046875], [-120.72205, 42.95018, -6124.6455078125]]], [[[-120.72893, 42.92276, -7464.77490234375], [-120.73789, 42.92667, -8170.7158203125], [-120.7348, 42.91797, -8180.78759765625], [-120.72893, 42.92276, -7464.77490234375]]], [[[-120.72205, 42.95018, -6124.6455078125], [-120.72833, 42.94559, -6813.5283203125], [-120.72013, 42.94248, -6029.2099609375], [-120.72205, 42.95018, -6124.6455078125]]], [[[-120.72013, 42.94248, -6029.2099609375], [-120.72548, 42.93687, -6673.79248046875], [-120.71525, 42.93221, -5848.53125], [-120.72013, 42.94248, -6029.2099609375]]], [[[-120.69075, 42.97404, -2299.76171875], [-120.68311, 42.97601, -1515.02392578125], [-120.69333, 42.98157, -1695.4827880859375], [-120.69075, 42.97404, -2299.76171875]]], [[[-120.71227, 42.94021, -5315.92724609375], [-120.72013, 42.94248, -6029.2099609375], [-120.71525, 42.93221, -5848.53125], [-120.71227, 42.94021, -5315.92724609375]]], [[[-120.68998, 42.94688, -2992.840576171875], [-120.68961, 42.93714, -3267.4609375], [-120.68197, 42.93923, -2477.215576171875], [-120.68998, 42.94688, -2992.840576171875]]], [[[-120.71227, 42.94021, -5315.92724609375], [-120.71525, 42.93221, -5848.53125], [-120.70542, 42.93318, -4890.19677734375], [-120.71227, 42.94021, -5315.92724609375]]], [[[-120.69333, 42.98157, -1695.4827880859375], [-120.69593, 42.98909, -1089.63623046875], [-120.70357, 42.98712, -1874.4749755859375], [-120.69333, 42.98157, -1695.4827880859375]]], [[[-120.70489, 42.96198, -4362.8955078125], [-120.70604, 42.97009, -3869.23779296875], [-120.71368, 42.96812, -4653.98486328125], [-120.70489, 42.96198, -4362.8955078125]]], [[[-120.70542, 42.93318, -4890.19677734375], [-120.71525, 42.93221, -5848.53125], [-120.706, 42.92446, -5234.8203125], [-120.70542, 42.93318, -4890.19677734375]]], [[[-120.74254, 42.96026, -7651.56787109375], [-120.74931, 42.96691, -7470.10595703125], [-120.74812, 42.9599, -8137.9873046875], [-120.74254, 42.96026, -7651.56787109375]]], [[[-120.69794, 42.92618, -4412.6494140625], [-120.69916, 42.91715, -4727.78173828125], [-120.69148, 42.91913, -3937.15966796875], [-120.69794, 42.92618, -4412.6494140625]]], [[[-120.72548, 42.93687, -6673.79248046875], [-120.73413, 42.93937, -7465.53173828125], [-120.73167, 42.93131, -7435.4404296875], [-120.72548, 42.93687, -6673.79248046875]]], [[[-120.6838, 42.92112, -3146.537353515625], [-120.69026, 42.92817, -3622.026611328125], [-120.69148, 42.91913, -3937.15966796875], [-120.6838, 42.92112, -3146.537353515625]]], [[[-120.65203, 42.94524, 544.9656982421875], [-120.64929, 42.93699, 557.4474487304688], [-120.64281, 42.94116, 1277.847412109375], [-120.65203, 42.94524, 544.9656982421875]]], [[[-120.68258, 42.93016, -2831.403564453125], [-120.6838, 42.92112, -3146.537353515625], [-120.67613, 42.9231, -2355.915283203125], [-120.68258, 42.93016, -2831.403564453125]]], [[[-120.67482, 42.93227, -2030.275390625], [-120.67613, 42.9231, -2355.915283203125], [-120.66845, 42.92509, -1565.326416015625], [-120.67482, 42.93227, -2030.275390625]]], [[[-120.67613, 42.9231, -2355.915283203125], [-120.66972, 42.91606, -1877.9774169921875], [-120.66845, 42.92509, -1565.326416015625], [-120.67613, 42.9231, -2355.915283203125]]], [[[-120.72262, 42.92826, -6678.10693359375], [-120.71525, 42.93221, -5848.53125], [-120.72548, 42.93687, -6673.79248046875], [-120.72262, 42.92826, -6678.10693359375]]], [[[-120.6838, 42.92112, -3146.537353515625], [-120.68508, 42.91209, -3459.134765625], [-120.6774, 42.91408, -2668.55615234375], [-120.6838, 42.92112, -3146.537353515625]]], [[[-120.68508, 42.91209, -3459.134765625], [-120.6838, 42.92112, -3146.537353515625], [-120.69148, 42.91913, -3937.15966796875], [-120.68508, 42.91209, -3459.134765625]]], [[[-120.69148, 42.91913, -3937.15966796875], [-120.69916, 42.91715, -4727.78173828125], [-120.69275, 42.91011, -4249.71337890625], [-120.69148, 42.91913, -3937.15966796875]]], [[[-120.69916, 42.91715, -4727.78173828125], [-120.70043, 42.90812, -5040.2919921875], [-120.69275, 42.91011, -4249.71337890625], [-120.69916, 42.91715, -4727.78173828125]]], [[[-120.70684, 42.91516, -5518.40380859375], [-120.70043, 42.90812, -5040.2919921875], [-120.69916, 42.91715, -4727.78173828125], [-120.70684, 42.91516, -5518.40380859375]]], [[[-120.70518, 42.94271, -4565.36181640625], [-120.69729, 42.93515, -4058.1259765625], [-120.69752, 42.94473, -3774.896484375], [-120.70518, 42.94271, -4565.36181640625]]], [[[-120.70684, 42.91516, -5518.40380859375], [-120.70811, 42.90613, -5830.87060546875], [-120.70043, 42.90812, -5040.2919921875], [-120.70684, 42.91516, -5518.40380859375]]], [[[-120.715, 42.91313, -6357.8076171875], [-120.71578, 42.90414, -6621.44921875], [-120.70811, 42.90613, -5830.87060546875], [-120.715, 42.91313, -6357.8076171875]]], [[[-120.71578, 42.90414, -6621.44921875], [-120.715, 42.91313, -6357.8076171875], [-120.72497, 42.91258, -7340.69775390625], [-120.71578, 42.90414, -6621.44921875]]], [[[-120.72346, 42.90216, -7412.02783203125], [-120.71578, 42.90414, -6621.44921875], [-120.72497, 42.91258, -7340.69775390625], [-120.72346, 42.90216, -7412.02783203125]]], [[[-120.72497, 42.91258, -7340.69775390625], [-120.72819, 42.90561, -7801.61181640625], [-120.72346, 42.90216, -7412.02783203125], [-120.72497, 42.91258, -7340.69775390625]]], [[[-120.72893, 42.92276, -7464.77490234375], [-120.7348, 42.91797, -8180.78759765625], [-120.72497, 42.91258, -7340.69775390625], [-120.72893, 42.92276, -7464.77490234375]]], [[[-120.73167, 42.93131, -7435.4404296875], [-120.73789, 42.92667, -8170.7158203125], [-120.72893, 42.92276, -7464.77490234375], [-120.73167, 42.93131, -7435.4404296875]]], [[[-120.73167, 42.93131, -7435.4404296875], [-120.74062, 42.93536, -8160.4970703125], [-120.73789, 42.92667, -8170.7158203125], [-120.73167, 42.93131, -7435.4404296875]]], [[[-120.73413, 42.93937, -7465.53173828125], [-120.74062, 42.93536, -8160.4970703125], [-120.73167, 42.93131, -7435.4404296875], [-120.73413, 42.93937, -7465.53173828125]]], [[[-120.73413, 42.93937, -7465.53173828125], [-120.74157, 42.94341, -8150.30224609375], [-120.74062, 42.93536, -8160.4970703125], [-120.73413, 42.93937, -7465.53173828125]]], [[[-120.73611, 42.94706, -7568.31494140625], [-120.74157, 42.94341, -8150.30224609375], [-120.73413, 42.93937, -7465.53173828125], [-120.73611, 42.94706, -7568.31494140625]]], [[[-120.73611, 42.94706, -7568.31494140625], [-120.74169, 42.94989, -8141.7978515625], [-120.74157, 42.94341, -8150.30224609375], [-120.73611, 42.94706, -7568.31494140625]]], [[[-120.65309, 42.92906, 15.832159996032715], [-120.65436, 42.92003, -296.8202209472656], [-120.64668, 42.92202, 493.7584228515625], [-120.65309, 42.92906, 15.832159996032715]]], [[[-120.73692, 42.95432, -7653.59619140625], [-120.74169, 42.94989, -8141.7978515625], [-120.73611, 42.94706, -7568.31494140625], [-120.73692, 42.95432, -7653.59619140625]]], [[[-120.73692, 42.95432, -7653.59619140625], [-120.74321, 42.95497, -8135.7900390625], [-120.74169, 42.94989, -8141.7978515625], [-120.73692, 42.95432, -7653.59619140625]]], [[[-120.67426, 42.94234, -1643.707275390625], [-120.66685, 42.93424, -1211.4603271484375], [-120.66617, 42.9424, -882.6936645507812], [-120.67426, 42.94234, -1643.707275390625]]], [[[-120.73692, 42.95432, -7653.59619140625], [-120.74254, 42.96026, -7651.56787109375], [-120.74321, 42.95497, -8135.7900390625], [-120.73692, 42.95432, -7653.59619140625]]], [[[-120.73534, 42.95998, -7085.302734375], [-120.74254, 42.96026, -7651.56787109375], [-120.73692, 42.95432, -7653.59619140625], [-120.73534, 42.95998, -7085.302734375]]], [[[-120.74254, 42.96026, -7651.56787109375], [-120.73534, 42.95998, -7085.302734375], [-120.74069, 42.96573, -6959.71044921875], [-120.74254, 42.96026, -7651.56787109375]]], [[[-120.74254, 42.96026, -7651.56787109375], [-120.74812, 42.9599, -8137.9873046875], [-120.74321, 42.95497, -8135.7900390625], [-120.74254, 42.96026, -7651.56787109375]]], [[[-120.74931, 42.96691, -7470.10595703125], [-120.75642, 42.9693, -7760.87744140625], [-120.75587, 42.96522, -8145.10546875], [-120.74931, 42.96691, -7470.10595703125]]], [[[-120.72763, 42.95595, -6697.98046875], [-120.73692, 42.95432, -7653.59619140625], [-120.73265, 42.95188, -7212.96533203125], [-120.72763, 42.95595, -6697.98046875]]], [[[-120.70626, 42.95227, -4528.4326171875], [-120.70489, 42.96198, -4362.8955078125], [-120.71248, 42.95997, -5142.1083984375], [-120.70626, 42.95227, -4528.4326171875]]], [[[-120.68311, 42.97601, -1515.02392578125], [-120.67542, 42.97789, -733.1214599609375], [-120.68569, 42.98354, -910.715576171875], [-120.68311, 42.97601, -1515.02392578125]]], [[[-120.73265, 42.95188, -7212.96533203125], [-120.73611, 42.94706, -7568.31494140625], [-120.72833, 42.94559, -6813.5283203125], [-120.73265, 42.95188, -7212.96533203125]]], [[[-120.73692, 42.95432, -7653.59619140625], [-120.73611, 42.94706, -7568.31494140625], [-120.73265, 42.95188, -7212.96533203125], [-120.73692, 42.95432, -7653.59619140625]]], [[[-120.73413, 42.93937, -7465.53173828125], [-120.72833, 42.94559, -6813.5283203125], [-120.73611, 42.94706, -7568.31494140625], [-120.73413, 42.93937, -7465.53173828125]]], [[[-120.72548, 42.93687, -6673.79248046875], [-120.72833, 42.94559, -6813.5283203125], [-120.73413, 42.93937, -7465.53173828125], [-120.72548, 42.93687, -6673.79248046875]]], [[[-120.72548, 42.93687, -6673.79248046875], [-120.73167, 42.93131, -7435.4404296875], [-120.72262, 42.92826, -6678.10693359375], [-120.72548, 42.93687, -6673.79248046875]]], [[[-120.72127, 42.96606, -5441.8994140625], [-120.71248, 42.95997, -5142.1083984375], [-120.71368, 42.96812, -4653.98486328125], [-120.72127, 42.96606, -5441.8994140625]]], [[[-120.65698, 42.97429, 556.5155029296875], [-120.65678, 42.9644, 556.5443725585938], [-120.64982, 42.96642, 1274.651611328125], [-120.65698, 42.97429, 556.5155029296875]]], [[[-120.71525, 42.93221, -5848.53125], [-120.72262, 42.92826, -6678.10693359375], [-120.71356, 42.92234, -6016.86767578125], [-120.71525, 42.93221, -5848.53125]]], [[[-120.73154, 42.97172, -5619.51025390625], [-120.7239, 42.97369, -4834.55224609375], [-120.73414, 42.97924, -5013.830078125], [-120.73154, 42.97172, -5619.51025390625]]], [[[-120.706, 42.92446, -5234.8203125], [-120.71356, 42.92234, -6016.86767578125], [-120.70684, 42.91516, -5518.40380859375], [-120.706, 42.92446, -5234.8203125]]], [[[-120.706, 42.92446, -5234.8203125], [-120.70684, 42.91516, -5518.40380859375], [-120.69916, 42.91715, -4727.78173828125], [-120.706, 42.92446, -5234.8203125]]], [[[-120.71356, 42.92234, -6016.86767578125], [-120.715, 42.91313, -6357.8076171875], [-120.70684, 42.91516, -5518.40380859375], [-120.71356, 42.92234, -6016.86767578125]]], [[[-120.71356, 42.92234, -6016.86767578125], [-120.72086, 42.9199, -6780.388671875], [-120.715, 42.91313, -6357.8076171875], [-120.71356, 42.92234, -6016.86767578125]]], [[[-120.72262, 42.92826, -6678.10693359375], [-120.72086, 42.9199, -6780.388671875], [-120.71356, 42.92234, -6016.86767578125], [-120.72262, 42.92826, -6678.10693359375]]], [[[-120.72262, 42.92826, -6678.10693359375], [-120.72893, 42.92276, -7464.77490234375], [-120.72086, 42.9199, -6780.388671875], [-120.72262, 42.92826, -6678.10693359375]]], [[[-120.72262, 42.92826, -6678.10693359375], [-120.73167, 42.93131, -7435.4404296875], [-120.72893, 42.92276, -7464.77490234375], [-120.72262, 42.92826, -6678.10693359375]]], [[[-120.72086, 42.9199, -6780.388671875], [-120.72497, 42.91258, -7340.69775390625], [-120.715, 42.91313, -6357.8076171875], [-120.72086, 42.9199, -6780.388671875]]], [[[-120.66845, 42.92509, -1565.326416015625], [-120.66972, 42.91606, -1877.9774169921875], [-120.66204, 42.91805, -1087.3988037109375], [-120.66845, 42.92509, -1565.326416015625]]], [[[-120.68311, 42.97601, -1515.02392578125], [-120.68569, 42.98354, -910.715576171875], [-120.69333, 42.98157, -1695.4827880859375], [-120.68311, 42.97601, -1515.02392578125]]], [[[-120.66063, 42.92744, -753.9552001953125], [-120.65436, 42.92003, -296.8202209472656], [-120.65309, 42.92906, 15.832159996032715], [-120.66063, 42.92744, -753.9552001953125]]], [[[-120.64929, 42.93699, 557.4474487304688], [-120.65792, 42.93771, -267.45086669921875], [-120.65309, 42.92906, 15.832159996032715], [-120.64929, 42.93699, 557.4474487304688]]], [[[-120.65203, 42.94524, 544.9656982421875], [-120.64584, 42.94957, 1277.7227783203125], [-120.65502, 42.95455, 563.5748291015625], [-120.65203, 42.94524, 544.9656982421875]]], [[[-120.65502, 42.95455, 563.5748291015625], [-120.64584, 42.94957, 1277.7227783203125], [-120.64867, 42.95801, 1273.6064453125], [-120.65502, 42.95455, 563.5748291015625]]], [[[-120.65678, 42.9644, 556.5443725585938], [-120.65698, 42.97429, 556.5155029296875], [-120.66312, 42.96885, -72.8821792602539], [-120.65678, 42.9644, 556.5443725585938]]], [[[-120.65698, 42.97429, 556.5155029296875], [-120.66823, 42.97172, -598.51806640625], [-120.66312, 42.96885, -72.8821792602539], [-120.65698, 42.97429, 556.5155029296875]]], [[[-120.65698, 42.97429, 556.5155029296875], [-120.66491, 42.97631, -2.148488283157349], [-120.66823, 42.97172, -598.51806640625], [-120.65698, 42.97429, 556.5155029296875]]], [[[-120.68963, 42.96655, -2796.060546875], [-120.6984, 42.97207, -3084.5], [-120.69725, 42.96396, -3577.7373046875], [-120.68963, 42.96655, -2796.060546875]]], [[[-120.66245, 42.98222, 677.7968139648438], [-120.65786, 42.98457, 1267.8448486328125], [-120.66489, 42.98926, 1264.292236328125], [-120.66245, 42.98222, 677.7968139648438]]], [[[-120.66491, 42.97631, -2.148488283157349], [-120.66245, 42.98222, 677.7968139648438], [-120.67068, 42.98135, -39.7450065612793], [-120.66491, 42.97631, -2.148488283157349]]], [[[-120.6984, 42.97207, -3084.5], [-120.69075, 42.97404, -2299.76171875], [-120.70098, 42.9796, -2480.250244140625], [-120.6984, 42.97207, -3084.5]]], [[[-120.70489, 42.96198, -4362.8955078125], [-120.71368, 42.96812, -4653.98486328125], [-120.71248, 42.95997, -5142.1083984375], [-120.70489, 42.96198, -4362.8955078125]]], [[[-120.69725, 42.96396, -3577.7373046875], [-120.6984, 42.97207, -3084.5], [-120.70604, 42.97009, -3869.23779296875], [-120.69725, 42.96396, -3577.7373046875]]], [[[-120.72127, 42.96606, -5441.8994140625], [-120.7239, 42.97369, -4834.55224609375], [-120.73154, 42.97172, -5619.51025390625], [-120.72127, 42.96606, -5441.8994140625]]], [[[-120.73154, 42.97172, -5619.51025390625], [-120.74178, 42.97726, -5798.6689453125], [-120.73911, 42.9703, -6344.01025390625], [-120.73154, 42.97172, -5619.51025390625]]], [[[-120.7265, 42.98121, -4228.9912109375], [-120.73414, 42.97924, -5013.830078125], [-120.7239, 42.97369, -4834.55224609375], [-120.7265, 42.98121, -4228.9912109375]]], [[[-120.71626, 42.97566, -4049.78466796875], [-120.7265, 42.98121, -4228.9912109375], [-120.7239, 42.97369, -4834.55224609375], [-120.71626, 42.97566, -4049.78466796875]]], [[[-120.71626, 42.97566, -4049.78466796875], [-120.71886, 42.98318, -3444.152587890625], [-120.7265, 42.98121, -4228.9912109375], [-120.71626, 42.97566, -4049.78466796875]]], [[[-120.6984, 42.97207, -3084.5], [-120.70098, 42.9796, -2480.250244140625], [-120.70862, 42.97763, -3265.017333984375], [-120.6984, 42.97207, -3084.5]]]]}}]}