{"type": "FeatureCollection", "features": [{"type": "Feature", "properties": {"name": "Tilly Jane", "CFM_ID": 169, "region": "ForearcIntraarc_OR", "primary_state/province": "OR", "secondary_state/province": null, "avg_dip": 80.0, "dip_dir": "W", "rake": -90, "slip_sense": "Normal", "fault_level": 1, "NSHM23_sliprates": null, "QFFDAgeCatBin": null, "QFFDAgeBin": null, "upper_depth": 1.9, "upper_depth_constraint": "topography", "lower_depth": -17.0, "lower_depth_constraint": "SDL", "3D_model_constraints": "trace extended at constant dip", "reference": "Madin et al. (2021)", "nshm23_id": null, "lineage": null, "usgs_qffd_#": null, "comments": null, "id": "169"}, "geometry": {"type": "MultiPolygon", "coordinates": [[[[-121.62342, 45.43624, -2997.686279296875], [-121.62152, 45.44468, -3471.518798828125], [-121.62549, 45.4368, -3985.142333984375], [-121.62342, 45.43624, -2997.686279296875]]], [[[-121.68466, 45.39436, -16405.970703125], [-121.68496, 45.39695, -16972.1875], [-121.68703, 45.38984, -16982.17578125], [-121.68466, 45.39436, -16405.970703125]]], [[[-121.63409, 45.41152, -2496.918701171875], [-121.64281, 45.40486, -3158.6611328125], [-121.64089, 45.40397, -2083.472412109375], [-121.63409, 45.41152, -2496.918701171875]]], [[[-121.6503, 45.40558, -6147.16552734375], [-121.65847, 45.39879, -6554.8037109375], [-121.65621, 45.39852, -5563.8544921875], [-121.6503, 45.40558, -6147.16552734375]]], [[[-121.65182, 45.39799, -3636.615966796875], [-121.64531, 45.40519, -4190.271484375], [-121.65409, 45.39811, -4591.53955078125], [-121.65182, 45.39799, -3636.615966796875]]], [[[-121.68214, 45.39958, -16380.2314453125], [-121.68496, 45.39695, -16972.1875], [-121.68466, 45.39436, -16405.970703125], [-121.68214, 45.39958, -16380.2314453125]]], [[[-121.64953, 45.39778, -2644.46240234375], [-121.65182, 45.39799, -3636.615966796875], [-121.65559, 45.39009, -3129.716796875], [-121.64953, 45.39778, -2644.46240234375]]], [[[-121.6503, 45.40558, -6147.16552734375], [-121.65272, 45.40581, -7109.50146484375], [-121.65847, 45.39879, -6554.8037109375], [-121.6503, 45.40558, -6147.16552734375]]], [[[-121.63409, 45.41152, -2496.918701171875], [-121.64089, 45.40397, -2083.472412109375], [-121.6329, 45.40978, -1395.556640625], [-121.63409, 45.41152, -2496.918701171875]]], [[[-121.68214, 45.39958, -16380.2314453125], [-121.68132, 45.40304, -16957.005859375], [-121.68496, 45.39695, -16972.1875], [-121.68214, 45.39958, -16380.2314453125]]], [[[-121.63409, 45.41152, -2496.918701171875], [-121.62733, 45.41833, -1570.5263671875], [-121.62951, 45.41928, -2694.27490234375], [-121.63409, 45.41152, -2496.918701171875]]], [[[-121.68214, 45.39958, -16380.2314453125], [-121.67827, 45.40545, -16281.0595703125], [-121.68132, 45.40304, -16957.005859375], [-121.68214, 45.39958, -16380.2314453125]]], [[[-121.63208, 45.42024, -3979.07666015625], [-121.62744, 45.42803, -3483.740966796875], [-121.62946, 45.42888, -4499.0439453125], [-121.63208, 45.42024, -3979.07666015625]]], [[[-121.6497, 45.41469, -9456.4794921875], [-121.64272, 45.42277, -8956.904296875], [-121.64462, 45.42363, -9941.62890625], [-121.6497, 45.41469, -9456.4794921875]]], [[[-121.63646, 45.41219, -3628.8486328125], [-121.64531, 45.40519, -4190.271484375], [-121.64281, 45.40486, -3158.6611328125], [-121.63646, 45.41219, -3628.8486328125]]], [[[-121.68214, 45.39958, -16380.2314453125], [-121.67965, 45.40092, -15727.0947265625], [-121.67827, 45.40545, -16281.0595703125], [-121.68214, 45.39958, -16380.2314453125]]], [[[-121.63646, 45.41219, -3628.8486328125], [-121.63409, 45.41152, -2496.918701171875], [-121.62951, 45.41928, -2694.27490234375], [-121.63646, 45.41219, -3628.8486328125]]], [[[-121.67965, 45.40092, -15727.0947265625], [-121.68214, 45.39958, -16380.2314453125], [-121.68274, 45.39533, -15740.85546875], [-121.67965, 45.40092, -15727.0947265625]]], [[[-121.62359, 45.42695, -1649.87841796875], [-121.61924, 45.43431, -893.2212524414062], [-121.62131, 45.43569, -2000.4656982421875], [-121.62359, 45.42695, -1649.87841796875]]], [[[-121.64802, 45.41386, -8506.310546875], [-121.64072, 45.42214, -7981.5078125], [-121.64272, 45.42277, -8956.904296875], [-121.64802, 45.41386, -8506.310546875]]], [[[-121.63646, 45.41219, -3628.8486328125], [-121.64281, 45.40486, -3158.6611328125], [-121.63409, 45.41152, -2496.918701171875], [-121.63646, 45.41219, -3628.8486328125]]], [[[-121.67965, 45.40092, -15727.0947265625], [-121.68274, 45.39533, -15740.85546875], [-121.68037, 45.39668, -14945.5185546875], [-121.67965, 45.40092, -15727.0947265625]]], [[[-121.62131, 45.43569, -2000.4656982421875], [-121.61943, 45.44412, -2484.376220703125], [-121.62342, 45.43624, -2997.686279296875], [-121.62131, 45.43569, -2000.4656982421875]]], [[[-121.67965, 45.40092, -15727.0947265625], [-121.68037, 45.39668, -14945.5185546875], [-121.67537, 45.4062, -15370.755859375], [-121.67965, 45.40092, -15727.0947265625]]], [[[-121.64281, 45.40486, -3158.6611328125], [-121.64953, 45.39778, -2644.46240234375], [-121.64089, 45.40397, -2083.472412109375], [-121.64281, 45.40486, -3158.6611328125]]], [[[-121.65469, 45.4063, -8025.55908203125], [-121.66257, 45.39978, -8478.43359375], [-121.66065, 45.39911, -7523.845703125], [-121.65469, 45.4063, -8025.55908203125]]], [[[-121.6329, 45.40978, -1395.556640625], [-121.63334, 45.40662, -355.65960693359375], [-121.62683, 45.41495, -534.7630004882812], [-121.6329, 45.40978, -1395.556640625]]], [[[-121.67537, 45.4062, -15370.755859375], [-121.67827, 45.40545, -16281.0595703125], [-121.67965, 45.40092, -15727.0947265625], [-121.67537, 45.4062, -15370.755859375]]], [[[-121.62362, 45.44525, -4458.6611328125], [-121.61848, 45.45284, -3962.227294921875], [-121.62058, 45.45341, -4949.375], [-121.62362, 45.44525, -4458.6611328125]]], [[[-121.66065, 45.39911, -7523.845703125], [-121.66601, 45.39229, -7998.72119140625], [-121.66394, 45.3918, -7023.9921875], [-121.66065, 45.39911, -7523.845703125]]], [[[-121.67827, 45.40545, -16281.0595703125], [-121.67537, 45.4062, -15370.755859375], [-121.67066, 45.41183, -16045.171875], [-121.67827, 45.40545, -16281.0595703125]]], [[[-121.62744, 45.42803, -3483.740966796875], [-121.62527, 45.42799, -2546.744384765625], [-121.62342, 45.43624, -2997.686279296875], [-121.62744, 45.42803, -3483.740966796875]]], [[[-121.64395, 45.41296, -6670.17578125], [-121.6416, 45.41272, -5711.71923828125], [-121.63655, 45.42114, -6031.11376953125], [-121.64395, 45.41296, -6670.17578125]]], [[[-121.64953, 45.39778, -2644.46240234375], [-121.65346, 45.38966, -2135.179931640625], [-121.64768, 45.3966, -1582.029296875], [-121.64953, 45.39778, -2644.46240234375]]], [[[-121.67827, 45.40545, -16281.0595703125], [-121.67066, 45.41183, -16045.171875], [-121.67594, 45.40933, -16935.189453125], [-121.67827, 45.40545, -16281.0595703125]]], [[[-121.6329, 45.40978, -1395.556640625], [-121.64089, 45.40397, -2083.472412109375], [-121.64098, 45.40129, -954.3881225585938], [-121.6329, 45.40978, -1395.556640625]]], [[[-121.65981, 45.39079, -5069.74755859375], [-121.66197, 45.38306, -5187.08984375], [-121.65983, 45.38248, -4180.43505859375], [-121.65981, 45.39079, -5069.74755859375]]], [[[-121.64089, 45.40397, -2083.472412109375], [-121.64768, 45.3966, -1582.029296875], [-121.64098, 45.40129, -954.3881225585938], [-121.64089, 45.40397, -2083.472412109375]]], [[[-121.67827, 45.40545, -16281.0595703125], [-121.67594, 45.40933, -16935.189453125], [-121.68132, 45.40304, -16957.005859375], [-121.67827, 45.40545, -16281.0595703125]]], [[[-121.65469, 45.4063, -8025.55908203125], [-121.65639, 45.40708, -8970.5693359375], [-121.66257, 45.39978, -8478.43359375], [-121.65469, 45.4063, -8025.55908203125]]], [[[-121.62131, 45.43569, -2000.4656982421875], [-121.61731, 45.4434, -1467.034423828125], [-121.61943, 45.44412, -2484.376220703125], [-121.62131, 45.43569, -2000.4656982421875]]], [[[-121.67066, 45.41183, -16045.171875], [-121.66831, 45.41633, -16906.826171875], [-121.67594, 45.40933, -16935.189453125], [-121.67066, 45.41183, -16045.171875]]], [[[-121.62733, 45.41833, -1570.5263671875], [-121.62683, 45.41495, -534.7630004882812], [-121.62244, 45.42402, -647.6129760742188], [-121.62733, 45.41833, -1570.5263671875]]], [[[-121.66187, 45.39135, -6053.0595703125], [-121.66197, 45.38306, -5187.08984375], [-121.65981, 45.39079, -5069.74755859375], [-121.66187, 45.39135, -6053.0595703125]]], [[[-121.64953, 45.39778, -2644.46240234375], [-121.65559, 45.39009, -3129.716796875], [-121.65346, 45.38966, -2135.179931640625], [-121.64953, 45.39778, -2644.46240234375]]], [[[-121.67066, 45.41183, -16045.171875], [-121.66233, 45.41934, -15978.84765625], [-121.66831, 45.41633, -16906.826171875], [-121.67066, 45.41183, -16045.171875]]], [[[-121.62683, 45.41495, -534.7630004882812], [-121.62733, 45.41833, -1570.5263671875], [-121.6329, 45.40978, -1395.556640625], [-121.62683, 45.41495, -534.7630004882812]]], [[[-121.65409, 45.39811, -4591.53955078125], [-121.65621, 45.39852, -5563.8544921875], [-121.65981, 45.39079, -5069.74755859375], [-121.65409, 45.39811, -4591.53955078125]]], [[[-121.67066, 45.41183, -16045.171875], [-121.66643, 45.41323, -15037.734375], [-121.66233, 45.41934, -15978.84765625], [-121.67066, 45.41183, -16045.171875]]], [[[-121.66257, 45.39978, -8478.43359375], [-121.66601, 45.39229, -7998.72119140625], [-121.66065, 45.39911, -7523.845703125], [-121.66257, 45.39978, -8478.43359375]]], [[[-121.66187, 45.39135, -6053.0595703125], [-121.66394, 45.3918, -7023.9921875], [-121.66411, 45.38364, -6193.7451171875], [-121.66187, 45.39135, -6053.0595703125]]], [[[-121.67537, 45.4062, -15370.755859375], [-121.66643, 45.41323, -15037.734375], [-121.67066, 45.41183, -16045.171875], [-121.67537, 45.4062, -15370.755859375]]], [[[-121.65981, 45.39079, -5069.74755859375], [-121.65983, 45.38248, -4180.43505859375], [-121.65775, 45.39028, -4089.993896484375], [-121.65981, 45.39079, -5069.74755859375]]], [[[-121.6416, 45.41272, -5711.71923828125], [-121.6503, 45.40558, -6147.16552734375], [-121.64786, 45.40533, -5163.046875], [-121.6416, 45.41272, -5711.71923828125]]], [[[-121.62744, 45.42803, -3483.740966796875], [-121.62342, 45.43624, -2997.686279296875], [-121.62549, 45.4368, -3985.142333984375], [-121.62744, 45.42803, -3483.740966796875]]], [[[-121.67537, 45.4062, -15370.755859375], [-121.67468, 45.40394, -14447.28125], [-121.66643, 45.41323, -15037.734375], [-121.67537, 45.4062, -15370.755859375]]], [[[-121.66447, 45.40066, -9466.1201171875], [-121.67002, 45.39356, -9948.970703125], [-121.66799, 45.39296, -8970.974609375], [-121.66447, 45.40066, -9466.1201171875]]], [[[-121.67468, 45.40394, -14447.28125], [-121.67537, 45.4062, -15370.755859375], [-121.68037, 45.39668, -14945.5185546875], [-121.67468, 45.40394, -14447.28125]]], [[[-121.6497, 45.41469, -9456.4794921875], [-121.65639, 45.40708, -8970.5693359375], [-121.64802, 45.41386, -8506.310546875], [-121.6497, 45.41469, -9456.4794921875]]], [[[-121.67468, 45.40394, -14447.28125], [-121.68037, 45.39668, -14945.5185546875], [-121.67828, 45.39585, -13903.58203125], [-121.67468, 45.40394, -14447.28125]]], [[[-121.65639, 45.40708, -8970.5693359375], [-121.66447, 45.40066, -9466.1201171875], [-121.66257, 45.39978, -8478.43359375], [-121.65639, 45.40708, -8970.5693359375]]], [[[-121.67468, 45.40394, -14447.28125], [-121.67828, 45.39585, -13903.58203125], [-121.67281, 45.40274, -13392.40234375], [-121.67468, 45.40394, -14447.28125]]], [[[-121.65847, 45.39879, -6554.8037109375], [-121.66394, 45.3918, -7023.9921875], [-121.66187, 45.39135, -6053.0595703125], [-121.65847, 45.39879, -6554.8037109375]]], [[[-121.65182, 45.39799, -3636.615966796875], [-121.65409, 45.39811, -4591.53955078125], [-121.65775, 45.39028, -4089.993896484375], [-121.65182, 45.39799, -3636.615966796875]]], [[[-121.66668, 45.4102, -13954.9658203125], [-121.67468, 45.40394, -14447.28125], [-121.67281, 45.40274, -13392.40234375], [-121.66668, 45.4102, -13954.9658203125]]], [[[-121.66668, 45.4102, -13954.9658203125], [-121.66643, 45.41323, -15037.734375], [-121.67468, 45.40394, -14447.28125], [-121.66668, 45.4102, -13954.9658203125]]], [[[-121.62359, 45.42695, -1649.87841796875], [-121.62733, 45.41833, -1570.5263671875], [-121.62244, 45.42402, -647.6129760742188], [-121.62359, 45.42695, -1649.87841796875]]], [[[-121.65559, 45.39009, -3129.716796875], [-121.65769, 45.3819, -3173.77978515625], [-121.65555, 45.38132, -2167.12451171875], [-121.65559, 45.39009, -3129.716796875]]], [[[-121.66668, 45.4102, -13954.9658203125], [-121.65945, 45.41759, -14196.982421875], [-121.66643, 45.41323, -15037.734375], [-121.66668, 45.4102, -13954.9658203125]]], [[[-121.65621, 45.39852, -5563.8544921875], [-121.66187, 45.39135, -6053.0595703125], [-121.65981, 45.39079, -5069.74755859375], [-121.65621, 45.39852, -5563.8544921875]]], [[[-121.66668, 45.4102, -13954.9658203125], [-121.65725, 45.41734, -13299.9228515625], [-121.65945, 45.41759, -14196.982421875], [-121.66668, 45.4102, -13954.9658203125]]], [[[-121.66668, 45.4102, -13954.9658203125], [-121.66446, 45.40975, -12967.6064453125], [-121.65725, 45.41734, -13299.9228515625], [-121.66668, 45.4102, -13954.9658203125]]], [[[-121.66446, 45.40975, -12967.6064453125], [-121.66668, 45.4102, -13954.9658203125], [-121.67281, 45.40274, -13392.40234375], [-121.66446, 45.40975, -12967.6064453125]]], [[[-121.66446, 45.40975, -12967.6064453125], [-121.67281, 45.40274, -13392.40234375], [-121.67057, 45.40246, -12402.8701171875], [-121.66446, 45.40975, -12967.6064453125]]], [[[-121.66224, 45.4093, -11982.3984375], [-121.66446, 45.40975, -12967.6064453125], [-121.67057, 45.40246, -12402.8701171875], [-121.66224, 45.4093, -11982.3984375]]], [[[-121.66447, 45.40066, -9466.1201171875], [-121.6664, 45.40141, -10441.603515625], [-121.67002, 45.39356, -9948.970703125], [-121.66447, 45.40066, -9466.1201171875]]], [[[-121.65492, 45.4172, -12402.71875], [-121.66446, 45.40975, -12967.6064453125], [-121.66224, 45.4093, -11982.3984375], [-121.65492, 45.4172, -12402.71875]]], [[[-121.65621, 45.39852, -5563.8544921875], [-121.65847, 45.39879, -6554.8037109375], [-121.66187, 45.39135, -6053.0595703125], [-121.65621, 45.39852, -5563.8544921875]]], [[[-121.65492, 45.4172, -12402.71875], [-121.65725, 45.41734, -13299.9228515625], [-121.66446, 45.40975, -12967.6064453125], [-121.65492, 45.4172, -12402.71875]]], [[[-121.65492, 45.4172, -12402.71875], [-121.65116, 45.42525, -13017.544921875], [-121.65725, 45.41734, -13299.9228515625], [-121.65492, 45.4172, -12402.71875]]], [[[-121.66447, 45.40066, -9466.1201171875], [-121.66799, 45.39296, -8970.974609375], [-121.66257, 45.39978, -8478.43359375], [-121.66447, 45.40066, -9466.1201171875]]], [[[-121.6497, 45.41469, -9456.4794921875], [-121.64802, 45.41386, -8506.310546875], [-121.64272, 45.42277, -8956.904296875], [-121.6497, 45.41469, -9456.4794921875]]], [[[-121.65492, 45.4172, -12402.71875], [-121.64866, 45.42499, -11928.3701171875], [-121.65116, 45.42525, -13017.544921875], [-121.65492, 45.4172, -12402.71875]]], [[[-121.65345, 45.41625, -11471.404296875], [-121.64866, 45.42499, -11928.3701171875], [-121.65492, 45.4172, -12402.71875], [-121.65345, 45.41625, -11471.404296875]]], [[[-121.65345, 45.41625, -11471.404296875], [-121.64667, 45.42426, -10936.3564453125], [-121.64866, 45.42499, -11928.3701171875], [-121.65345, 45.41625, -11471.404296875]]], [[[-121.64072, 45.42214, -7981.5078125], [-121.64802, 45.41386, -8506.310546875], [-121.6461, 45.41332, -7596.33935546875], [-121.64072, 45.42214, -7981.5078125]]], [[[-121.65345, 45.41625, -11471.404296875], [-121.65164, 45.41544, -10474.2109375], [-121.64667, 45.42426, -10936.3564453125], [-121.65345, 45.41625, -11471.404296875]]], [[[-121.66065, 45.39911, -7523.845703125], [-121.66394, 45.3918, -7023.9921875], [-121.65847, 45.39879, -6554.8037109375], [-121.66065, 45.39911, -7523.845703125]]], [[[-121.65345, 45.41625, -11471.404296875], [-121.66005, 45.40875, -10968.8828125], [-121.65164, 45.41544, -10474.2109375], [-121.65345, 45.41625, -11471.404296875]]], [[[-121.6497, 45.41469, -9456.4794921875], [-121.65808, 45.40802, -9962.6318359375], [-121.65639, 45.40708, -8970.5693359375], [-121.6497, 45.41469, -9456.4794921875]]], [[[-121.65345, 45.41625, -11471.404296875], [-121.66224, 45.4093, -11982.3984375], [-121.66005, 45.40875, -10968.8828125], [-121.65345, 45.41625, -11471.404296875]]], [[[-121.6461, 45.41332, -7596.33935546875], [-121.65272, 45.40581, -7109.50146484375], [-121.64395, 45.41296, -6670.17578125], [-121.6461, 45.41332, -7596.33935546875]]], [[[-121.65492, 45.4172, -12402.71875], [-121.66224, 45.4093, -11982.3984375], [-121.65345, 45.41625, -11471.404296875], [-121.65492, 45.4172, -12402.71875]]], [[[-121.66005, 45.40875, -10968.8828125], [-121.66224, 45.4093, -11982.3984375], [-121.66844, 45.40204, -11427.66015625], [-121.66005, 45.40875, -10968.8828125]]], [[[-121.6416, 45.41272, -5711.71923828125], [-121.64395, 45.41296, -6670.17578125], [-121.6503, 45.40558, -6147.16552734375], [-121.6416, 45.41272, -5711.71923828125]]], [[[-121.62359, 45.42695, -1649.87841796875], [-121.62244, 45.42402, -647.6129760742188], [-121.61924, 45.43431, -893.2212524414062], [-121.62359, 45.42695, -1649.87841796875]]], [[[-121.66005, 45.40875, -10968.8828125], [-121.66844, 45.40204, -11427.66015625], [-121.6664, 45.40141, -10441.603515625], [-121.66005, 45.40875, -10968.8828125]]], [[[-121.65272, 45.40581, -7109.50146484375], [-121.65469, 45.4063, -8025.55908203125], [-121.66065, 45.39911, -7523.845703125], [-121.65272, 45.40581, -7109.50146484375]]], [[[-121.64089, 45.40397, -2083.472412109375], [-121.64953, 45.39778, -2644.46240234375], [-121.64768, 45.3966, -1582.029296875], [-121.64089, 45.40397, -2083.472412109375]]], [[[-121.65808, 45.40802, -9962.6318359375], [-121.66005, 45.40875, -10968.8828125], [-121.6664, 45.40141, -10441.603515625], [-121.65808, 45.40802, -9962.6318359375]]], [[[-121.6503, 45.40558, -6147.16552734375], [-121.65621, 45.39852, -5563.8544921875], [-121.64786, 45.40533, -5163.046875], [-121.6503, 45.40558, -6147.16552734375]]], [[[-121.65164, 45.41544, -10474.2109375], [-121.66005, 45.40875, -10968.8828125], [-121.65808, 45.40802, -9962.6318359375], [-121.65164, 45.41544, -10474.2109375]]], [[[-121.64395, 45.41296, -6670.17578125], [-121.65272, 45.40581, -7109.50146484375], [-121.6503, 45.40558, -6147.16552734375], [-121.64395, 45.41296, -6670.17578125]]], [[[-121.65164, 45.41544, -10474.2109375], [-121.65808, 45.40802, -9962.6318359375], [-121.6497, 45.41469, -9456.4794921875], [-121.65164, 45.41544, -10474.2109375]]], [[[-121.64786, 45.40533, -5163.046875], [-121.65621, 45.39852, -5563.8544921875], [-121.65409, 45.39811, -4591.53955078125], [-121.64786, 45.40533, -5163.046875]]], [[[-121.65164, 45.41544, -10474.2109375], [-121.6497, 45.41469, -9456.4794921875], [-121.64462, 45.42363, -9941.62890625], [-121.65164, 45.41544, -10474.2109375]]], [[[-121.65775, 45.39028, -4089.993896484375], [-121.65983, 45.38248, -4180.43505859375], [-121.65769, 45.3819, -3173.77978515625], [-121.65775, 45.39028, -4089.993896484375]]], [[[-121.65164, 45.41544, -10474.2109375], [-121.64462, 45.42363, -9941.62890625], [-121.64667, 45.42426, -10936.3564453125], [-121.65164, 45.41544, -10474.2109375]]], [[[-121.66257, 45.39978, -8478.43359375], [-121.66799, 45.39296, -8970.974609375], [-121.66601, 45.39229, -7998.72119140625], [-121.66257, 45.39978, -8478.43359375]]], [[[-121.64462, 45.42363, -9941.62890625], [-121.64191, 45.43227, -10423.775390625], [-121.64667, 45.42426, -10936.3564453125], [-121.64462, 45.42363, -9941.62890625]]], [[[-121.6461, 45.41332, -7596.33935546875], [-121.65469, 45.4063, -8025.55908203125], [-121.65272, 45.40581, -7109.50146484375], [-121.6461, 45.41332, -7596.33935546875]]], [[[-121.64462, 45.42363, -9941.62890625], [-121.63983, 45.4317, -9436.3173828125], [-121.64191, 45.43227, -10423.775390625], [-121.64462, 45.42363, -9941.62890625]]], [[[-121.65639, 45.40708, -8970.5693359375], [-121.65808, 45.40802, -9962.6318359375], [-121.66447, 45.40066, -9466.1201171875], [-121.65639, 45.40708, -8970.5693359375]]], [[[-121.64272, 45.42277, -8956.904296875], [-121.63983, 45.4317, -9436.3173828125], [-121.64462, 45.42363, -9941.62890625], [-121.64272, 45.42277, -8956.904296875]]], [[[-121.62152, 45.44468, -3471.518798828125], [-121.61943, 45.44412, -2484.376220703125], [-121.61639, 45.45227, -2975.079833984375], [-121.62152, 45.44468, -3471.518798828125]]], [[[-121.65409, 45.39811, -4591.53955078125], [-121.65981, 45.39079, -5069.74755859375], [-121.65775, 45.39028, -4089.993896484375], [-121.65409, 45.39811, -4591.53955078125]]], [[[-121.64272, 45.42277, -8956.904296875], [-121.63776, 45.43114, -8448.8515625], [-121.63983, 45.4317, -9436.3173828125], [-121.64272, 45.42277, -8956.904296875]]], [[[-121.64072, 45.42214, -7981.5078125], [-121.63776, 45.43114, -8448.8515625], [-121.64272, 45.42277, -8956.904296875], [-121.64072, 45.42214, -7981.5078125]]], [[[-121.63776, 45.43114, -8448.8515625], [-121.64072, 45.42214, -7981.5078125], [-121.63568, 45.43058, -7461.39599609375], [-121.63776, 45.43114, -8448.8515625]]], [[[-121.63776, 45.43114, -8448.8515625], [-121.63568, 45.43058, -7461.39599609375], [-121.63379, 45.43906, -7934.97119140625], [-121.63776, 45.43114, -8448.8515625]]], [[[-121.63776, 45.43114, -8448.8515625], [-121.63379, 45.43906, -7934.97119140625], [-121.63587, 45.43962, -8922.2958984375], [-121.63776, 45.43114, -8448.8515625]]], [[[-121.63983, 45.4317, -9436.3173828125], [-121.63776, 45.43114, -8448.8515625], [-121.63587, 45.43962, -8922.2958984375], [-121.63983, 45.4317, -9436.3173828125]]], [[[-121.63983, 45.4317, -9436.3173828125], [-121.63587, 45.43962, -8922.2958984375], [-121.63797, 45.44019, -9909.4501953125], [-121.63983, 45.4317, -9436.3173828125]]], [[[-121.64191, 45.43227, -10423.775390625], [-121.63983, 45.4317, -9436.3173828125], [-121.63797, 45.44019, -9909.4501953125], [-121.64191, 45.43227, -10423.775390625]]], [[[-121.64191, 45.43227, -10423.775390625], [-121.63797, 45.44019, -9909.4501953125], [-121.64007, 45.44076, -10896.587890625], [-121.64191, 45.43227, -10423.775390625]]], [[[-121.64398, 45.43283, -11411.2236328125], [-121.64191, 45.43227, -10423.775390625], [-121.64007, 45.44076, -10896.587890625], [-121.64398, 45.43283, -11411.2236328125]]], [[[-121.64667, 45.42426, -10936.3564453125], [-121.64191, 45.43227, -10423.775390625], [-121.64398, 45.43283, -11411.2236328125], [-121.64667, 45.42426, -10936.3564453125]]], [[[-121.64667, 45.42426, -10936.3564453125], [-121.64398, 45.43283, -11411.2236328125], [-121.64866, 45.42499, -11928.3701171875], [-121.64667, 45.42426, -10936.3564453125]]], [[[-121.64866, 45.42499, -11928.3701171875], [-121.64398, 45.43283, -11411.2236328125], [-121.6461, 45.43333, -12407.58203125], [-121.64866, 45.42499, -11928.3701171875]]], [[[-121.64866, 45.42499, -11928.3701171875], [-121.6461, 45.43333, -12407.58203125], [-121.65116, 45.42525, -13017.544921875], [-121.64866, 45.42499, -11928.3701171875]]], [[[-121.65116, 45.42525, -13017.544921875], [-121.6461, 45.43333, -12407.58203125], [-121.64813, 45.43393, -13381.3193359375], [-121.65116, 45.42525, -13017.544921875]]], [[[-121.65116, 45.42525, -13017.544921875], [-121.64813, 45.43393, -13381.3193359375], [-121.65314, 45.42616, -14050.1416015625], [-121.65116, 45.42525, -13017.544921875]]], [[[-121.65116, 45.42525, -13017.544921875], [-121.65314, 45.42616, -14050.1416015625], [-121.65725, 45.41734, -13299.9228515625], [-121.65116, 45.42525, -13017.544921875]]], [[[-121.65725, 45.41734, -13299.9228515625], [-121.65314, 45.42616, -14050.1416015625], [-121.65945, 45.41759, -14196.982421875], [-121.65725, 45.41734, -13299.9228515625]]], [[[-121.65945, 45.41759, -14196.982421875], [-121.65314, 45.42616, -14050.1416015625], [-121.65766, 45.42268, -15044.9443359375], [-121.65945, 45.41759, -14196.982421875]]], [[[-121.65945, 45.41759, -14196.982421875], [-121.65766, 45.42268, -15044.9443359375], [-121.66643, 45.41323, -15037.734375], [-121.65945, 45.41759, -14196.982421875]]], [[[-121.65766, 45.42268, -15044.9443359375], [-121.66233, 45.41934, -15978.84765625], [-121.66643, 45.41323, -15037.734375], [-121.65766, 45.42268, -15044.9443359375]]], [[[-121.65766, 45.42268, -15044.9443359375], [-121.65664, 45.42811, -15959.1533203125], [-121.66233, 45.41934, -15978.84765625], [-121.65766, 45.42268, -15044.9443359375]]], [[[-121.65766, 45.42268, -15044.9443359375], [-121.65284, 45.43196, -15059.5400390625], [-121.65664, 45.42811, -15959.1533203125], [-121.65766, 45.42268, -15044.9443359375]]], [[[-121.65766, 45.42268, -15044.9443359375], [-121.65314, 45.42616, -14050.1416015625], [-121.65284, 45.43196, -15059.5400390625], [-121.65766, 45.42268, -15044.9443359375]]], [[[-121.64988, 45.43476, -14272.6796875], [-121.65284, 45.43196, -15059.5400390625], [-121.65314, 45.42616, -14050.1416015625], [-121.64988, 45.43476, -14272.6796875]]], [[[-121.64988, 45.43476, -14272.6796875], [-121.64896, 45.44201, -14964.9208984375], [-121.65284, 45.43196, -15059.5400390625], [-121.64988, 45.43476, -14272.6796875]]], [[[-121.64988, 45.43476, -14272.6796875], [-121.64636, 45.44246, -13857.908203125], [-121.64896, 45.44201, -14964.9208984375], [-121.64988, 45.43476, -14272.6796875]]], [[[-121.64813, 45.43393, -13381.3193359375], [-121.64636, 45.44246, -13857.908203125], [-121.64988, 45.43476, -14272.6796875], [-121.64813, 45.43393, -13381.3193359375]]], [[[-121.64813, 45.43393, -13381.3193359375], [-121.64426, 45.44189, -12870.876953125], [-121.64636, 45.44246, -13857.908203125], [-121.64813, 45.43393, -13381.3193359375]]], [[[-121.6461, 45.43333, -12407.58203125], [-121.64426, 45.44189, -12870.876953125], [-121.64813, 45.43393, -13381.3193359375], [-121.6461, 45.43333, -12407.58203125]]], [[[-121.6461, 45.43333, -12407.58203125], [-121.64217, 45.44132, -11883.7333984375], [-121.64426, 45.44189, -12870.876953125], [-121.6461, 45.43333, -12407.58203125]]], [[[-121.6461, 45.43333, -12407.58203125], [-121.64398, 45.43283, -11411.2236328125], [-121.64217, 45.44132, -11883.7333984375], [-121.6461, 45.43333, -12407.58203125]]], [[[-121.64398, 45.43283, -11411.2236328125], [-121.64007, 45.44076, -10896.587890625], [-121.64217, 45.44132, -11883.7333984375], [-121.64398, 45.43283, -11411.2236328125]]], [[[-121.64007, 45.44076, -10896.587890625], [-121.63831, 45.44922, -11368.6591796875], [-121.64217, 45.44132, -11883.7333984375], [-121.64007, 45.44076, -10896.587890625]]], [[[-121.63831, 45.44922, -11368.6591796875], [-121.64007, 45.44076, -10896.587890625], [-121.63621, 45.44866, -10381.517578125], [-121.63831, 45.44922, -11368.6591796875]]], [[[-121.63831, 45.44922, -11368.6591796875], [-121.63621, 45.44866, -10381.517578125], [-121.63316, 45.45682, -10872.259765625], [-121.63831, 45.44922, -11368.6591796875]]], [[[-121.63831, 45.44922, -11368.6591796875], [-121.63316, 45.45682, -10872.259765625], [-121.63526, 45.45739, -11859.4072265625], [-121.63831, 45.44922, -11368.6591796875]]], [[[-121.64039, 45.44979, -12355.943359375], [-121.63831, 45.44922, -11368.6591796875], [-121.63526, 45.45739, -11859.4072265625], [-121.64039, 45.44979, -12355.943359375]]], [[[-121.63831, 45.44922, -11368.6591796875], [-121.64039, 45.44979, -12355.943359375], [-121.64217, 45.44132, -11883.7333984375], [-121.63831, 45.44922, -11368.6591796875]]], [[[-121.64426, 45.44189, -12870.876953125], [-121.64217, 45.44132, -11883.7333984375], [-121.64039, 45.44979, -12355.943359375], [-121.64426, 45.44189, -12870.876953125]]], [[[-121.64426, 45.44189, -12870.876953125], [-121.64039, 45.44979, -12355.943359375], [-121.64247, 45.45035, -13343.4013671875], [-121.64426, 45.44189, -12870.876953125]]], [[[-121.64426, 45.44189, -12870.876953125], [-121.64247, 45.45035, -13343.4013671875], [-121.64636, 45.44246, -13857.908203125], [-121.64426, 45.44189, -12870.876953125]]], [[[-121.64636, 45.44246, -13857.908203125], [-121.64247, 45.45035, -13343.4013671875], [-121.64473, 45.45068, -14360.744140625], [-121.64636, 45.44246, -13857.908203125]]], [[[-121.64636, 45.44246, -13857.908203125], [-121.64473, 45.45068, -14360.744140625], [-121.64896, 45.44201, -14964.9208984375], [-121.64636, 45.44246, -13857.908203125]]], [[[-121.64896, 45.44201, -14964.9208984375], [-121.64473, 45.45068, -14360.744140625], [-121.64677, 45.45166, -15418.7041015625], [-121.64896, 45.44201, -14964.9208984375]]], [[[-121.64896, 45.44201, -14964.9208984375], [-121.64677, 45.45166, -15418.7041015625], [-121.65027, 45.44599, -15962.240234375], [-121.64896, 45.44201, -14964.9208984375]]], [[[-121.65027, 45.44599, -15962.240234375], [-121.65278, 45.43722, -15932.2646484375], [-121.64896, 45.44201, -14964.9208984375], [-121.65027, 45.44599, -15962.240234375]]], [[[-121.65027, 45.44599, -15962.240234375], [-121.65317, 45.44215, -16834.79296875], [-121.65278, 45.43722, -15932.2646484375], [-121.65027, 45.44599, -15962.240234375]]], [[[-121.65027, 45.44599, -15962.240234375], [-121.65025, 45.45135, -16816.076171875], [-121.65317, 45.44215, -16834.79296875], [-121.65027, 45.44599, -15962.240234375]]], [[[-121.64677, 45.45166, -15418.7041015625], [-121.65025, 45.45135, -16816.076171875], [-121.65027, 45.44599, -15962.240234375], [-121.64677, 45.45166, -15418.7041015625]]], [[[-121.64677, 45.45166, -15418.7041015625], [-121.64695, 45.45551, -16311.974609375], [-121.65025, 45.45135, -16816.076171875], [-121.64677, 45.45166, -15418.7041015625]]], [[[-121.64677, 45.45166, -15418.7041015625], [-121.64365, 45.45966, -15807.9970703125], [-121.64695, 45.45551, -16311.974609375], [-121.64677, 45.45166, -15418.7041015625]]], [[[-121.64677, 45.45166, -15418.7041015625], [-121.64155, 45.45909, -14820.849609375], [-121.64365, 45.45966, -15807.9970703125], [-121.64677, 45.45166, -15418.7041015625]]], [[[-121.64677, 45.45166, -15418.7041015625], [-121.64473, 45.45068, -14360.744140625], [-121.64155, 45.45909, -14820.849609375], [-121.64677, 45.45166, -15418.7041015625]]], [[[-121.64473, 45.45068, -14360.744140625], [-121.63946, 45.45852, -13833.7021484375], [-121.64155, 45.45909, -14820.849609375], [-121.64473, 45.45068, -14360.744140625]]], [[[-121.64473, 45.45068, -14360.744140625], [-121.64247, 45.45035, -13343.4013671875], [-121.63946, 45.45852, -13833.7021484375], [-121.64473, 45.45068, -14360.744140625]]], [[[-121.63946, 45.45852, -13833.7021484375], [-121.64247, 45.45035, -13343.4013671875], [-121.63736, 45.45795, -12846.5546875], [-121.63946, 45.45852, -13833.7021484375]]], [[[-121.64039, 45.44979, -12355.943359375], [-121.63736, 45.45795, -12846.5546875], [-121.64247, 45.45035, -13343.4013671875], [-121.64039, 45.44979, -12355.943359375]]], [[[-121.64039, 45.44979, -12355.943359375], [-121.63526, 45.45739, -11859.4072265625], [-121.63736, 45.45795, -12846.5546875], [-121.64039, 45.44979, -12355.943359375]]], [[[-121.64365, 45.45966, -15807.9970703125], [-121.64575, 45.46022, -16795.14453125], [-121.64695, 45.45551, -16311.974609375], [-121.64365, 45.45966, -15807.9970703125]]], [[[-121.64695, 45.45551, -16311.974609375], [-121.64575, 45.46022, -16795.14453125], [-121.65025, 45.45135, -16816.076171875], [-121.64695, 45.45551, -16311.974609375]]], [[[-121.65278, 45.43722, -15932.2646484375], [-121.65317, 45.44215, -16834.79296875], [-121.65659, 45.43303, -16855.400390625], [-121.65278, 45.43722, -15932.2646484375]]], [[[-121.65278, 45.43722, -15932.2646484375], [-121.65659, 45.43303, -16855.400390625], [-121.65664, 45.42811, -15959.1533203125], [-121.65278, 45.43722, -15932.2646484375]]], [[[-121.65284, 45.43196, -15059.5400390625], [-121.65278, 45.43722, -15932.2646484375], [-121.65664, 45.42811, -15959.1533203125], [-121.65284, 45.43196, -15059.5400390625]]], [[[-121.65278, 45.43722, -15932.2646484375], [-121.65284, 45.43196, -15059.5400390625], [-121.64896, 45.44201, -14964.9208984375], [-121.65278, 45.43722, -15932.2646484375]]], [[[-121.65664, 45.42811, -15959.1533203125], [-121.65659, 45.43303, -16855.400390625], [-121.66123, 45.4242, -16878.6796875], [-121.65664, 45.42811, -15959.1533203125]]], [[[-121.65664, 45.42811, -15959.1533203125], [-121.66123, 45.4242, -16878.6796875], [-121.66233, 45.41934, -15978.84765625], [-121.65664, 45.42811, -15959.1533203125]]], [[[-121.66123, 45.4242, -16878.6796875], [-121.66831, 45.41633, -16906.826171875], [-121.66233, 45.41934, -15978.84765625], [-121.66123, 45.4242, -16878.6796875]]], [[[-121.63621, 45.44866, -10381.517578125], [-121.63107, 45.45625, -9885.1123046875], [-121.63316, 45.45682, -10872.259765625], [-121.63621, 45.44866, -10381.517578125]]], [[[-121.63621, 45.44866, -10381.517578125], [-121.63411, 45.44809, -9394.375], [-121.63107, 45.45625, -9885.1123046875], [-121.63621, 45.44866, -10381.517578125]]], [[[-121.63797, 45.44019, -9909.4501953125], [-121.63411, 45.44809, -9394.375], [-121.63621, 45.44866, -10381.517578125], [-121.63797, 45.44019, -9909.4501953125]]], [[[-121.63587, 45.43962, -8922.2958984375], [-121.63411, 45.44809, -9394.375], [-121.63797, 45.44019, -9909.4501953125], [-121.63587, 45.43962, -8922.2958984375]]], [[[-121.63587, 45.43962, -8922.2958984375], [-121.63201, 45.44752, -8407.232421875], [-121.63411, 45.44809, -9394.375], [-121.63587, 45.43962, -8922.2958984375]]], [[[-121.63379, 45.43906, -7934.97119140625], [-121.63201, 45.44752, -8407.232421875], [-121.63587, 45.43962, -8922.2958984375], [-121.63379, 45.43906, -7934.97119140625]]], [[[-121.63201, 45.44752, -8407.232421875], [-121.63379, 45.43906, -7934.97119140625], [-121.62991, 45.44695, -7420.08984375], [-121.63201, 45.44752, -8407.232421875]]], [[[-121.63201, 45.44752, -8407.232421875], [-121.62991, 45.44695, -7420.08984375], [-121.62687, 45.45511, -7910.8173828125], [-121.63201, 45.44752, -8407.232421875]]], [[[-121.63201, 45.44752, -8407.232421875], [-121.62687, 45.45511, -7910.8173828125], [-121.62897, 45.45568, -8897.96484375], [-121.63201, 45.44752, -8407.232421875]]], [[[-121.63411, 45.44809, -9394.375], [-121.63201, 45.44752, -8407.232421875], [-121.62897, 45.45568, -8897.96484375], [-121.63411, 45.44809, -9394.375]]], [[[-121.63411, 45.44809, -9394.375], [-121.62897, 45.45568, -8897.96484375], [-121.63107, 45.45625, -9885.1123046875], [-121.63411, 45.44809, -9394.375]]], [[[-121.62991, 45.44695, -7420.08984375], [-121.62478, 45.45455, -6923.669921875], [-121.62687, 45.45511, -7910.8173828125], [-121.62991, 45.44695, -7420.08984375]]], [[[-121.62991, 45.44695, -7420.08984375], [-121.62782, 45.44639, -6432.94775390625], [-121.62478, 45.45455, -6923.669921875], [-121.62991, 45.44695, -7420.08984375]]], [[[-121.62991, 45.44695, -7420.08984375], [-121.63171, 45.43849, -6947.5146484375], [-121.62782, 45.44639, -6432.94775390625], [-121.62991, 45.44695, -7420.08984375]]], [[[-121.63171, 45.43849, -6947.5146484375], [-121.62991, 45.44695, -7420.08984375], [-121.63379, 45.43906, -7934.97119140625], [-121.63171, 45.43849, -6947.5146484375]]], [[[-121.63568, 45.43058, -7461.39599609375], [-121.63171, 45.43849, -6947.5146484375], [-121.63379, 45.43906, -7934.97119140625], [-121.63568, 45.43058, -7461.39599609375]]], [[[-121.63568, 45.43058, -7461.39599609375], [-121.63361, 45.43001, -6473.94384765625], [-121.63171, 45.43849, -6947.5146484375], [-121.63568, 45.43058, -7461.39599609375]]], [[[-121.63568, 45.43058, -7461.39599609375], [-121.63869, 45.42157, -7011.693359375], [-121.63361, 45.43001, -6473.94384765625], [-121.63568, 45.43058, -7461.39599609375]]], [[[-121.63869, 45.42157, -7011.693359375], [-121.63568, 45.43058, -7461.39599609375], [-121.64072, 45.42214, -7981.5078125], [-121.63869, 45.42157, -7011.693359375]]], [[[-121.6461, 45.41332, -7596.33935546875], [-121.63869, 45.42157, -7011.693359375], [-121.64072, 45.42214, -7981.5078125], [-121.6461, 45.41332, -7596.33935546875]]], [[[-121.63869, 45.42157, -7011.693359375], [-121.6461, 45.41332, -7596.33935546875], [-121.64395, 45.41296, -6670.17578125], [-121.63869, 45.42157, -7011.693359375]]], [[[-121.63655, 45.42114, -6031.11376953125], [-121.63869, 45.42157, -7011.693359375], [-121.64395, 45.41296, -6670.17578125], [-121.63655, 45.42114, -6031.11376953125]]], [[[-121.63655, 45.42114, -6031.11376953125], [-121.63361, 45.43001, -6473.94384765625], [-121.63869, 45.42157, -7011.693359375], [-121.63655, 45.42114, -6031.11376953125]]], [[[-121.63361, 45.43001, -6473.94384765625], [-121.63655, 45.42114, -6031.11376953125], [-121.63153, 45.42945, -5486.49169921875], [-121.63361, 45.43001, -6473.94384765625]]], [[[-121.63361, 45.43001, -6473.94384765625], [-121.63153, 45.42945, -5486.49169921875], [-121.62964, 45.43793, -5960.056640625], [-121.63361, 45.43001, -6473.94384765625]]], [[[-121.63361, 45.43001, -6473.94384765625], [-121.62964, 45.43793, -5960.056640625], [-121.63171, 45.43849, -6947.5146484375], [-121.63361, 45.43001, -6473.94384765625]]], [[[-121.62964, 45.43793, -5960.056640625], [-121.62782, 45.44639, -6432.94775390625], [-121.63171, 45.43849, -6947.5146484375], [-121.62964, 45.43793, -5960.056640625]]], [[[-121.62782, 45.44639, -6432.94775390625], [-121.62964, 45.43793, -5960.056640625], [-121.62572, 45.44582, -5445.8037109375], [-121.62782, 45.44639, -6432.94775390625]]], [[[-121.62782, 45.44639, -6432.94775390625], [-121.62572, 45.44582, -5445.8037109375], [-121.62268, 45.45398, -5936.5224609375], [-121.62782, 45.44639, -6432.94775390625]]], [[[-121.62782, 45.44639, -6432.94775390625], [-121.62268, 45.45398, -5936.5224609375], [-121.62478, 45.45455, -6923.669921875], [-121.62782, 45.44639, -6432.94775390625]]], [[[-121.62572, 45.44582, -5445.8037109375], [-121.62058, 45.45341, -4949.375], [-121.62268, 45.45398, -5936.5224609375], [-121.62572, 45.44582, -5445.8037109375]]], [[[-121.62572, 45.44582, -5445.8037109375], [-121.62362, 45.44525, -4458.6611328125], [-121.62058, 45.45341, -4949.375], [-121.62572, 45.44582, -5445.8037109375]]], [[[-121.62572, 45.44582, -5445.8037109375], [-121.62756, 45.43737, -4972.5986328125], [-121.62362, 45.44525, -4458.6611328125], [-121.62572, 45.44582, -5445.8037109375]]], [[[-121.62756, 45.43737, -4972.5986328125], [-121.62572, 45.44582, -5445.8037109375], [-121.62964, 45.43793, -5960.056640625], [-121.62756, 45.43737, -4972.5986328125]]], [[[-121.63153, 45.42945, -5486.49169921875], [-121.62756, 45.43737, -4972.5986328125], [-121.62964, 45.43793, -5960.056640625], [-121.63153, 45.42945, -5486.49169921875]]], [[[-121.63153, 45.42945, -5486.49169921875], [-121.62946, 45.42888, -4499.0439453125], [-121.62756, 45.43737, -4972.5986328125], [-121.63153, 45.42945, -5486.49169921875]]], [[[-121.63153, 45.42945, -5486.49169921875], [-121.63432, 45.4208, -5034.3984375], [-121.62946, 45.42888, -4499.0439453125], [-121.63153, 45.42945, -5486.49169921875]]], [[[-121.63432, 45.4208, -5034.3984375], [-121.63153, 45.42945, -5486.49169921875], [-121.63655, 45.42114, -6031.11376953125], [-121.63432, 45.4208, -5034.3984375]]], [[[-121.63432, 45.4208, -5034.3984375], [-121.63655, 45.42114, -6031.11376953125], [-121.6416, 45.41272, -5711.71923828125], [-121.63432, 45.4208, -5034.3984375]]], [[[-121.64786, 45.40533, -5163.046875], [-121.65409, 45.39811, -4591.53955078125], [-121.64531, 45.40519, -4190.271484375], [-121.64786, 45.40533, -5163.046875]]], [[[-121.6416, 45.41272, -5711.71923828125], [-121.63903, 45.41257, -4718.48388671875], [-121.63432, 45.4208, -5034.3984375], [-121.6416, 45.41272, -5711.71923828125]]], [[[-121.63903, 45.41257, -4718.48388671875], [-121.6416, 45.41272, -5711.71923828125], [-121.64786, 45.40533, -5163.046875], [-121.63903, 45.41257, -4718.48388671875]]], [[[-121.63903, 45.41257, -4718.48388671875], [-121.64786, 45.40533, -5163.046875], [-121.64531, 45.40519, -4190.271484375], [-121.63903, 45.41257, -4718.48388671875]]], [[[-121.63646, 45.41219, -3628.8486328125], [-121.63903, 45.41257, -4718.48388671875], [-121.64531, 45.40519, -4190.271484375], [-121.63646, 45.41219, -3628.8486328125]]], [[[-121.63903, 45.41257, -4718.48388671875], [-121.63646, 45.41219, -3628.8486328125], [-121.63208, 45.42024, -3979.07666015625], [-121.63903, 45.41257, -4718.48388671875]]], [[[-121.63208, 45.42024, -3979.07666015625], [-121.63432, 45.4208, -5034.3984375], [-121.63903, 45.41257, -4718.48388671875], [-121.63208, 45.42024, -3979.07666015625]]], [[[-121.63208, 45.42024, -3979.07666015625], [-121.62946, 45.42888, -4499.0439453125], [-121.63432, 45.4208, -5034.3984375], [-121.63208, 45.42024, -3979.07666015625]]], [[[-121.63208, 45.42024, -3979.07666015625], [-121.62951, 45.41928, -2694.27490234375], [-121.62744, 45.42803, -3483.740966796875], [-121.63208, 45.42024, -3979.07666015625]]], [[[-121.63646, 45.41219, -3628.8486328125], [-121.62951, 45.41928, -2694.27490234375], [-121.63208, 45.42024, -3979.07666015625], [-121.63646, 45.41219, -3628.8486328125]]], [[[-121.64531, 45.40519, -4190.271484375], [-121.65182, 45.39799, -3636.615966796875], [-121.64281, 45.40486, -3158.6611328125], [-121.64531, 45.40519, -4190.271484375]]], [[[-121.65182, 45.39799, -3636.615966796875], [-121.65775, 45.39028, -4089.993896484375], [-121.65559, 45.39009, -3129.716796875], [-121.65182, 45.39799, -3636.615966796875]]], [[[-121.64953, 45.39778, -2644.46240234375], [-121.64281, 45.40486, -3158.6611328125], [-121.65182, 45.39799, -3636.615966796875], [-121.64953, 45.39778, -2644.46240234375]]], [[[-121.62733, 45.41833, -1570.5263671875], [-121.63409, 45.41152, -2496.918701171875], [-121.6329, 45.40978, -1395.556640625], [-121.62733, 45.41833, -1570.5263671875]]], [[[-121.62951, 45.41928, -2694.27490234375], [-121.62733, 45.41833, -1570.5263671875], [-121.62359, 45.42695, -1649.87841796875], [-121.62951, 45.41928, -2694.27490234375]]], [[[-121.62951, 45.41928, -2694.27490234375], [-121.62359, 45.42695, -1649.87841796875], [-121.62527, 45.42799, -2546.744384765625], [-121.62951, 45.41928, -2694.27490234375]]], [[[-121.62744, 45.42803, -3483.740966796875], [-121.62951, 45.41928, -2694.27490234375], [-121.62527, 45.42799, -2546.744384765625], [-121.62744, 45.42803, -3483.740966796875]]], [[[-121.62946, 45.42888, -4499.0439453125], [-121.62744, 45.42803, -3483.740966796875], [-121.62549, 45.4368, -3985.142333984375], [-121.62946, 45.42888, -4499.0439453125]]], [[[-121.62946, 45.42888, -4499.0439453125], [-121.62549, 45.4368, -3985.142333984375], [-121.62756, 45.43737, -4972.5986328125], [-121.62946, 45.42888, -4499.0439453125]]], [[[-121.62549, 45.4368, -3985.142333984375], [-121.62362, 45.44525, -4458.6611328125], [-121.62756, 45.43737, -4972.5986328125], [-121.62549, 45.4368, -3985.142333984375]]], [[[-121.62362, 45.44525, -4458.6611328125], [-121.62549, 45.4368, -3985.142333984375], [-121.62152, 45.44468, -3471.518798828125], [-121.62362, 45.44525, -4458.6611328125]]], [[[-121.62362, 45.44525, -4458.6611328125], [-121.62152, 45.44468, -3471.518798828125], [-121.61848, 45.45284, -3962.227294921875], [-121.62362, 45.44525, -4458.6611328125]]], [[[-121.62152, 45.44468, -3471.518798828125], [-121.61639, 45.45227, -2975.079833984375], [-121.61848, 45.45284, -3962.227294921875], [-121.62152, 45.44468, -3471.518798828125]]], [[[-121.62152, 45.44468, -3471.518798828125], [-121.62342, 45.43624, -2997.686279296875], [-121.61943, 45.44412, -2484.376220703125], [-121.62152, 45.44468, -3471.518798828125]]], [[[-121.62131, 45.43569, -2000.4656982421875], [-121.61924, 45.43431, -893.2212524414062], [-121.61731, 45.4434, -1467.034423828125], [-121.62131, 45.43569, -2000.4656982421875]]], [[[-121.6329, 45.40978, -1395.556640625], [-121.64098, 45.40129, -954.3881225585938], [-121.63334, 45.40662, -355.65960693359375], [-121.6329, 45.40978, -1395.556640625]]], [[[-121.65559, 45.39009, -3129.716796875], [-121.65555, 45.38132, -2167.12451171875], [-121.65346, 45.38966, -2135.179931640625], [-121.65559, 45.39009, -3129.716796875]]], [[[-121.65775, 45.39028, -4089.993896484375], [-121.65769, 45.3819, -3173.77978515625], [-121.65559, 45.39009, -3129.716796875], [-121.65775, 45.39028, -4089.993896484375]]], [[[-121.66187, 45.39135, -6053.0595703125], [-121.66411, 45.38364, -6193.7451171875], [-121.66197, 45.38306, -5187.08984375], [-121.66187, 45.39135, -6053.0595703125]]], [[[-121.65808, 45.40802, -9962.6318359375], [-121.6664, 45.40141, -10441.603515625], [-121.66447, 45.40066, -9466.1201171875], [-121.65808, 45.40802, -9962.6318359375]]], [[[-121.65272, 45.40581, -7109.50146484375], [-121.66065, 45.39911, -7523.845703125], [-121.65847, 45.39879, -6554.8037109375], [-121.65272, 45.40581, -7109.50146484375]]], [[[-121.64802, 45.41386, -8506.310546875], [-121.65469, 45.4063, -8025.55908203125], [-121.6461, 45.41332, -7596.33935546875], [-121.64802, 45.41386, -8506.310546875]]], [[[-121.64802, 45.41386, -8506.310546875], [-121.65639, 45.40708, -8970.5693359375], [-121.65469, 45.4063, -8025.55908203125], [-121.64802, 45.41386, -8506.310546875]]], [[[-121.6664, 45.40141, -10441.603515625], [-121.67206, 45.39416, -10928.7373046875], [-121.67002, 45.39356, -9948.970703125], [-121.6664, 45.40141, -10441.603515625]]], [[[-121.66844, 45.40204, -11427.66015625], [-121.67206, 45.39416, -10928.7373046875], [-121.6664, 45.40141, -10441.603515625], [-121.66844, 45.40204, -11427.66015625]]], [[[-121.66844, 45.40204, -11427.66015625], [-121.67412, 45.3947, -11908.8125], [-121.67206, 45.39416, -10928.7373046875], [-121.66844, 45.40204, -11427.66015625]]], [[[-121.67057, 45.40246, -12402.8701171875], [-121.67412, 45.3947, -11908.8125], [-121.66844, 45.40204, -11427.66015625], [-121.67057, 45.40246, -12402.8701171875]]], [[[-121.67057, 45.40246, -12402.8701171875], [-121.67617, 45.39525, -12892.0068359375], [-121.67412, 45.3947, -11908.8125], [-121.67057, 45.40246, -12402.8701171875]]], [[[-121.67281, 45.40274, -13392.40234375], [-121.67617, 45.39525, -12892.0068359375], [-121.67057, 45.40246, -12402.8701171875], [-121.67281, 45.40274, -13392.40234375]]], [[[-121.67617, 45.39525, -12892.0068359375], [-121.67281, 45.40274, -13392.40234375], [-121.67828, 45.39585, -13903.58203125], [-121.67617, 45.39525, -12892.0068359375]]], [[[-121.67617, 45.39525, -12892.0068359375], [-121.67828, 45.39585, -13903.58203125], [-121.67908, 45.38769, -13240.3310546875], [-121.67617, 45.39525, -12892.0068359375]]], [[[-121.67617, 45.39525, -12892.0068359375], [-121.67908, 45.38769, -13240.3310546875], [-121.67694, 45.38711, -12233.67578125], [-121.67617, 45.39525, -12892.0068359375]]], [[[-121.67412, 45.3947, -11908.8125], [-121.67617, 45.39525, -12892.0068359375], [-121.67694, 45.38711, -12233.67578125], [-121.67412, 45.3947, -11908.8125]]], [[[-121.67412, 45.3947, -11908.8125], [-121.67694, 45.38711, -12233.67578125], [-121.6748, 45.38653, -11227.0205078125], [-121.67412, 45.3947, -11908.8125]]], [[[-121.67206, 45.39416, -10928.7373046875], [-121.67412, 45.3947, -11908.8125], [-121.6748, 45.38653, -11227.0205078125], [-121.67206, 45.39416, -10928.7373046875]]], [[[-121.67206, 45.39416, -10928.7373046875], [-121.6748, 45.38653, -11227.0205078125], [-121.67266, 45.38595, -10220.365234375], [-121.67206, 45.39416, -10928.7373046875]]], [[[-121.67206, 45.39416, -10928.7373046875], [-121.67266, 45.38595, -10220.365234375], [-121.67002, 45.39356, -9948.970703125], [-121.67206, 45.39416, -10928.7373046875]]], [[[-121.67002, 45.39356, -9948.970703125], [-121.67266, 45.38595, -10220.365234375], [-121.67052, 45.38537, -9213.7109375], [-121.67002, 45.39356, -9948.970703125]]], [[[-121.66799, 45.39296, -8970.974609375], [-121.67002, 45.39356, -9948.970703125], [-121.67052, 45.38537, -9213.7109375], [-121.66799, 45.39296, -8970.974609375]]], [[[-121.66799, 45.39296, -8970.974609375], [-121.67052, 45.38537, -9213.7109375], [-121.66838, 45.38479, -8207.0556640625], [-121.66799, 45.39296, -8970.974609375]]], [[[-121.66601, 45.39229, -7998.72119140625], [-121.66799, 45.39296, -8970.974609375], [-121.66838, 45.38479, -8207.0556640625], [-121.66601, 45.39229, -7998.72119140625]]], [[[-121.66601, 45.39229, -7998.72119140625], [-121.66838, 45.38479, -8207.0556640625], [-121.66625, 45.38421, -7200.400390625], [-121.66601, 45.39229, -7998.72119140625]]], [[[-121.66394, 45.3918, -7023.9921875], [-121.66601, 45.39229, -7998.72119140625], [-121.66625, 45.38421, -7200.400390625], [-121.66394, 45.3918, -7023.9921875]]], [[[-121.66394, 45.3918, -7023.9921875], [-121.66625, 45.38421, -7200.400390625], [-121.66411, 45.38364, -6193.7451171875], [-121.66394, 45.3918, -7023.9921875]]], [[[-121.67828, 45.39585, -13903.58203125], [-121.68122, 45.38827, -14246.986328125], [-121.67908, 45.38769, -13240.3310546875], [-121.67828, 45.39585, -13903.58203125]]], [[[-121.68037, 45.39668, -14945.5185546875], [-121.68122, 45.38827, -14246.986328125], [-121.67828, 45.39585, -13903.58203125], [-121.68037, 45.39668, -14945.5185546875]]], [[[-121.68037, 45.39668, -14945.5185546875], [-121.68331, 45.38883, -15231.3798828125], [-121.68122, 45.38827, -14246.986328125], [-121.68037, 45.39668, -14945.5185546875]]], [[[-121.68274, 45.39533, -15740.85546875], [-121.68331, 45.38883, -15231.3798828125], [-121.68037, 45.39668, -14945.5185546875], [-121.68274, 45.39533, -15740.85546875]]], [[[-121.68274, 45.39533, -15740.85546875], [-121.68523, 45.38935, -16133.5869140625], [-121.68331, 45.38883, -15231.3798828125], [-121.68274, 45.39533, -15740.85546875]]], [[[-121.68274, 45.39533, -15740.85546875], [-121.68466, 45.39436, -16405.970703125], [-121.68523, 45.38935, -16133.5869140625], [-121.68274, 45.39533, -15740.85546875]]], [[[-121.68214, 45.39958, -16380.2314453125], [-121.68466, 45.39436, -16405.970703125], [-121.68274, 45.39533, -15740.85546875], [-121.68214, 45.39958, -16380.2314453125]]], [[[-121.68466, 45.39436, -16405.970703125], [-121.68703, 45.38984, -16982.17578125], [-121.68523, 45.38935, -16133.5869140625], [-121.68466, 45.39436, -16405.970703125]]], [[[-121.66224, 45.4093, -11982.3984375], [-121.67057, 45.40246, -12402.8701171875], [-121.66844, 45.40204, -11427.66015625], [-121.66224, 45.4093, -11982.3984375]]], [[[-121.65346, 45.38966, -2135.179931640625], [-121.65555, 45.38132, -2167.12451171875], [-121.65141, 45.38872, -1108.572509765625], [-121.65346, 45.38966, -2135.179931640625]]], [[[-121.64768, 45.3966, -1582.029296875], [-121.65346, 45.38966, -2135.179931640625], [-121.65141, 45.38872, -1108.572509765625], [-121.64768, 45.3966, -1582.029296875]]], [[[-121.64768, 45.3966, -1582.029296875], [-121.65141, 45.38872, -1108.572509765625], [-121.64677, 45.39376, -456.40362548828125], [-121.64768, 45.3966, -1582.029296875]]], [[[-121.64098, 45.40129, -954.3881225585938], [-121.64768, 45.3966, -1582.029296875], [-121.64677, 45.39376, -456.40362548828125], [-121.64098, 45.40129, -954.3881225585938]]], [[[-121.64098, 45.40129, -954.3881225585938], [-121.64677, 45.39376, -456.40362548828125], [-121.64113, 45.39875, 95.35458374023438], [-121.64098, 45.40129, -954.3881225585938]]], [[[-121.64098, 45.40129, -954.3881225585938], [-121.64113, 45.39875, 95.35458374023438], [-121.63334, 45.40662, -355.65960693359375], [-121.64098, 45.40129, -954.3881225585938]]], [[[-121.64113, 45.39875, 95.35458374023438], [-121.6338, 45.40355, 641.2543334960938], [-121.63334, 45.40662, -355.65960693359375], [-121.64113, 45.39875, 95.35458374023438]]], [[[-121.64113, 45.39875, 95.35458374023438], [-121.64116, 45.39676, 951.7706909179688], [-121.6338, 45.40355, 641.2543334960938], [-121.64113, 45.39875, 95.35458374023438]]], [[[-121.64573, 45.392, 436.4708251953125], [-121.64116, 45.39676, 951.7706909179688], [-121.64113, 45.39875, 95.35458374023438], [-121.64573, 45.392, 436.4708251953125]]], [[[-121.64573, 45.392, 436.4708251953125], [-121.64515, 45.39031, 1123.5350341796875], [-121.64116, 45.39676, 951.7706909179688], [-121.64573, 45.392, 436.4708251953125]]], [[[-121.64573, 45.392, 436.4708251953125], [-121.64825, 45.38574, 599.3472290039062], [-121.64515, 45.39031, 1123.5350341796875], [-121.64573, 45.392, 436.4708251953125]]], [[[-121.64825, 45.38574, 599.3472290039062], [-121.64573, 45.392, 436.4708251953125], [-121.64964, 45.38684, -128.19204711914062], [-121.64825, 45.38574, 599.3472290039062]]], [[[-121.64825, 45.38574, 599.3472290039062], [-121.64964, 45.38684, -128.19204711914062], [-121.65128, 45.38016, -153.81430053710938], [-121.64825, 45.38574, 599.3472290039062]]], [[[-121.64825, 45.38574, 599.3472290039062], [-121.65128, 45.38016, -153.81430053710938], [-121.64914, 45.37958, 852.8408203125], [-121.64825, 45.38574, 599.3472290039062]]], [[[-121.64825, 45.38574, 599.3472290039062], [-121.64914, 45.37958, 852.8408203125], [-121.64714, 45.38462, 1207.974365234375], [-121.64825, 45.38574, 599.3472290039062]]], [[[-121.64714, 45.38462, 1207.974365234375], [-121.64515, 45.39031, 1123.5350341796875], [-121.64825, 45.38574, 599.3472290039062], [-121.64714, 45.38462, 1207.974365234375]]], [[[-121.64515, 45.39031, 1123.5350341796875], [-121.64714, 45.38462, 1207.974365234375], [-121.64522, 45.387, 1806.9918212890625], [-121.64515, 45.39031, 1123.5350341796875]]], [[[-121.64515, 45.39031, 1123.5350341796875], [-121.64522, 45.387, 1806.9918212890625], [-121.64125, 45.39401, 1721.39404296875], [-121.64515, 45.39031, 1123.5350341796875]]], [[[-121.64116, 45.39676, 951.7706909179688], [-121.64515, 45.39031, 1123.5350341796875], [-121.64125, 45.39401, 1721.39404296875], [-121.64116, 45.39676, 951.7706909179688]]], [[[-121.64116, 45.39676, 951.7706909179688], [-121.64125, 45.39401, 1721.39404296875], [-121.63469, 45.40064, 1573.9962158203125], [-121.64116, 45.39676, 951.7706909179688]]], [[[-121.6338, 45.40355, 641.2543334960938], [-121.64116, 45.39676, 951.7706909179688], [-121.63469, 45.40064, 1573.9962158203125], [-121.6338, 45.40355, 641.2543334960938]]], [[[-121.6338, 45.40355, 641.2543334960938], [-121.63469, 45.40064, 1573.9962158203125], [-121.62729, 45.40771, 1453.6455078125], [-121.6338, 45.40355, 641.2543334960938]]], [[[-121.62664, 45.41119, 464.3148498535156], [-121.6338, 45.40355, 641.2543334960938], [-121.62729, 45.40771, 1453.6455078125], [-121.62664, 45.41119, 464.3148498535156]]], [[[-121.62664, 45.41119, 464.3148498535156], [-121.63334, 45.40662, -355.65960693359375], [-121.6338, 45.40355, 641.2543334960938], [-121.62664, 45.41119, 464.3148498535156]]], [[[-121.63334, 45.40662, -355.65960693359375], [-121.62664, 45.41119, 464.3148498535156], [-121.62683, 45.41495, -534.7630004882812], [-121.63334, 45.40662, -355.65960693359375]]], [[[-121.62683, 45.41495, -534.7630004882812], [-121.62664, 45.41119, 464.3148498535156], [-121.62204, 45.41935, 342.1304931640625], [-121.62683, 45.41495, -534.7630004882812]]], [[[-121.62683, 45.41495, -534.7630004882812], [-121.62204, 45.41935, 342.1304931640625], [-121.62244, 45.42402, -647.6129760742188], [-121.62683, 45.41495, -534.7630004882812]]], [[[-121.62244, 45.42402, -647.6129760742188], [-121.62204, 45.41935, 342.1304931640625], [-121.61869, 45.42854, 206.13333129882812], [-121.62244, 45.42402, -647.6129760742188]]], [[[-121.62244, 45.42402, -647.6129760742188], [-121.61869, 45.42854, 206.13333129882812], [-121.61924, 45.43431, -893.2212524414062], [-121.62244, 45.42402, -647.6129760742188]]], [[[-121.61601, 45.43668, 169.61427307128906], [-121.61924, 45.43431, -893.2212524414062], [-121.61869, 45.42854, 206.13333129882812], [-121.61601, 45.43668, 169.61427307128906]]], [[[-121.61601, 45.43668, 169.61427307128906], [-121.61491, 45.44302, -380.38677978515625], [-121.61924, 45.43431, -893.2212524414062], [-121.61601, 45.43668, 169.61427307128906]]], [[[-121.61601, 45.43668, 169.61427307128906], [-121.61214, 45.44158, 1036.2208251953125], [-121.61491, 45.44302, -380.38677978515625], [-121.61601, 45.43668, 169.61427307128906]]], [[[-121.61601, 45.43668, 169.61427307128906], [-121.61503, 45.4329, 1149.2513427734375], [-121.61214, 45.44158, 1036.2208251953125], [-121.61601, 45.43668, 169.61427307128906]]], [[[-121.61601, 45.43668, 169.61427307128906], [-121.61869, 45.42854, 206.13333129882812], [-121.61503, 45.4329, 1149.2513427734375], [-121.61601, 45.43668, 169.61427307128906]]], [[[-121.61503, 45.4329, 1149.2513427734375], [-121.61869, 45.42854, 206.13333129882812], [-121.61806, 45.42418, 1202.9224853515625], [-121.61503, 45.4329, 1149.2513427734375]]], [[[-121.61869, 45.42854, 206.13333129882812], [-121.62204, 45.41935, 342.1304931640625], [-121.61806, 45.42418, 1202.9224853515625], [-121.61869, 45.42854, 206.13333129882812]]], [[[-121.62204, 45.41935, 342.1304931640625], [-121.62184, 45.41569, 1323.099365234375], [-121.61806, 45.42418, 1202.9224853515625], [-121.62204, 45.41935, 342.1304931640625]]], [[[-121.62204, 45.41935, 342.1304931640625], [-121.62664, 45.41119, 464.3148498535156], [-121.62184, 45.41569, 1323.099365234375], [-121.62204, 45.41935, 342.1304931640625]]], [[[-121.62664, 45.41119, 464.3148498535156], [-121.62729, 45.40771, 1453.6455078125], [-121.62184, 45.41569, 1323.099365234375], [-121.62664, 45.41119, 464.3148498535156]]], [[[-121.61491, 45.44302, -380.38677978515625], [-121.61214, 45.44158, 1036.2208251953125], [-121.61143, 45.44615, 515.8329467773438], [-121.61491, 45.44302, -380.38677978515625]]], [[[-121.61491, 45.44302, -380.38677978515625], [-121.61143, 45.44615, 515.8329467773438], [-121.6101, 45.45057, -13.63746452331543], [-121.61491, 45.44302, -380.38677978515625]]], [[[-121.61491, 45.44302, -380.38677978515625], [-121.6101, 45.45057, -13.63746452331543], [-121.61219, 45.45114, -1000.784912109375], [-121.61491, 45.44302, -380.38677978515625]]], [[[-121.61491, 45.44302, -380.38677978515625], [-121.61219, 45.45114, -1000.784912109375], [-121.61731, 45.4434, -1467.034423828125], [-121.61491, 45.44302, -380.38677978515625]]], [[[-121.61924, 45.43431, -893.2212524414062], [-121.61491, 45.44302, -380.38677978515625], [-121.61731, 45.4434, -1467.034423828125], [-121.61924, 45.43431, -893.2212524414062]]], [[[-121.61731, 45.4434, -1467.034423828125], [-121.61219, 45.45114, -1000.784912109375], [-121.61429, 45.45171, -1987.932373046875], [-121.61731, 45.4434, -1467.034423828125]]], [[[-121.61943, 45.44412, -2484.376220703125], [-121.61731, 45.4434, -1467.034423828125], [-121.61429, 45.45171, -1987.932373046875], [-121.61943, 45.44412, -2484.376220703125]]], [[[-121.61943, 45.44412, -2484.376220703125], [-121.61429, 45.45171, -1987.932373046875], [-121.61639, 45.45227, -2975.079833984375], [-121.61943, 45.44412, -2484.376220703125]]], [[[-121.608, 45.45, 973.510009765625], [-121.6101, 45.45057, -13.63746452331543], [-121.61143, 45.44615, 515.8329467773438], [-121.608, 45.45, 973.510009765625]]], [[[-121.608, 45.45, 973.510009765625], [-121.61143, 45.44615, 515.8329467773438], [-121.61214, 45.44158, 1036.2208251953125], [-121.608, 45.45, 973.510009765625]]], [[[-121.64714, 45.38462, 1207.974365234375], [-121.647, 45.379, 1859.4959716796875], [-121.64522, 45.387, 1806.9918212890625], [-121.64714, 45.38462, 1207.974365234375]]], [[[-121.647, 45.379, 1859.4959716796875], [-121.64714, 45.38462, 1207.974365234375], [-121.64914, 45.37958, 852.8408203125], [-121.647, 45.379, 1859.4959716796875]]], [[[-121.64964, 45.38684, -128.19204711914062], [-121.65341, 45.38074, -1160.469482421875], [-121.65128, 45.38016, -153.81430053710938], [-121.64964, 45.38684, -128.19204711914062]]], [[[-121.64964, 45.38684, -128.19204711914062], [-121.65141, 45.38872, -1108.572509765625], [-121.65341, 45.38074, -1160.469482421875], [-121.64964, 45.38684, -128.19204711914062]]], [[[-121.64677, 45.39376, -456.40362548828125], [-121.65141, 45.38872, -1108.572509765625], [-121.64964, 45.38684, -128.19204711914062], [-121.64677, 45.39376, -456.40362548828125]]], [[[-121.64573, 45.392, 436.4708251953125], [-121.64677, 45.39376, -456.40362548828125], [-121.64964, 45.38684, -128.19204711914062], [-121.64573, 45.392, 436.4708251953125]]], [[[-121.64677, 45.39376, -456.40362548828125], [-121.64573, 45.392, 436.4708251953125], [-121.64113, 45.39875, 95.35458374023438], [-121.64677, 45.39376, -456.40362548828125]]], [[[-121.65341, 45.38074, -1160.469482421875], [-121.65141, 45.38872, -1108.572509765625], [-121.65555, 45.38132, -2167.12451171875], [-121.65341, 45.38074, -1160.469482421875]]], [[[-121.62527, 45.42799, -2546.744384765625], [-121.62359, 45.42695, -1649.87841796875], [-121.62131, 45.43569, -2000.4656982421875], [-121.62527, 45.42799, -2546.744384765625]]], [[[-121.62527, 45.42799, -2546.744384765625], [-121.62131, 45.43569, -2000.4656982421875], [-121.62342, 45.43624, -2997.686279296875], [-121.62527, 45.42799, -2546.744384765625]]], [[[-121.63797, 45.44019, -9909.4501953125], [-121.63621, 45.44866, -10381.517578125], [-121.64007, 45.44076, -10896.587890625], [-121.63797, 45.44019, -9909.4501953125]]], [[[-121.64988, 45.43476, -14272.6796875], [-121.65314, 45.42616, -14050.1416015625], [-121.64813, 45.43393, -13381.3193359375], [-121.64988, 45.43476, -14272.6796875]]]]}}]}