{"type": "FeatureCollection", "features": [{"type": "Feature", "properties": {"name": "Brothers (northeast)", "CFM_ID": 17, "region": "Backarc_OR", "primary_state/province": "OR", "secondary_state/province": null, "avg_dip": 50, "dip_dir": "SW", "rake": -90, "slip_sense": "Normal", "fault_level": 3, "NSHM23_sliprates": null, "QFFDAgeCatBin": "middle and late Quaternary", "QFFDAgeBin": "<750,000", "upper_depth": 1.5, "upper_depth_constraint": "topography", "lower_depth": -10.8, "lower_depth_constraint": "SDL", "3D_model_constraints": "trace extended at constant dip", "reference": "USGS QFFD; Weldon et al. (2002)", "nshm23_id": null, "lineage": null, "usgs_qffd_#": "841", "comments": null, "id": "17"}, "geometry": {"type": "MultiPolygon", "coordinates": [[[[-120.81628, 43.80473, 675.69067383], [-120.82622, 43.80425, 3.4458189], [-120.81482, 43.79784, -7.38666725], [-120.81628, 43.80473, 675.69067383]]], [[[-120.78361, 43.76924, -881.1461792], [-120.7777, 43.76136, -1254.61816406], [-120.77249, 43.76563, -473.39956665], [-120.78361, 43.76924, -881.1461792]]], [[[-120.89096, 43.74451, -10421.93164062], [-120.88229, 43.74758, -9552.31152344], [-120.89106, 43.75147, -9694.64746094], [-120.89096, 43.74451, -10421.93164062]]], [[[-120.84291, 43.82374, 695.831604], [-120.84289, 43.83093, 1393.00744629], [-120.85225, 43.83032, 644.61730957], [-120.84291, 43.82374, 695.831604]]], [[[-120.89096, 43.74451, -10421.93164062], [-120.883, 43.7411, -10384.91699219], [-120.88229, 43.74758, -9552.31152344], [-120.89096, 43.74451, -10421.93164062]]], [[[-120.88945, 43.80931, -3993.88647461], [-120.90107, 43.81262, -4333.08105469], [-120.89461, 43.80521, -4753.94189453], [-120.88945, 43.80931, -3993.88647461]]], [[[-120.77832, 43.77419, -26.09013748], [-120.77249, 43.76563, -473.39956665], [-120.76644, 43.76984, 359.83224487], [-120.77832, 43.77419, -26.09013748]]], [[[-120.88229, 43.74758, -9552.31152344], [-120.883, 43.7411, -10384.91699219], [-120.87429, 43.74369, -9645.39941406], [-120.88229, 43.74758, -9552.31152344]]], [[[-120.87161, 43.78548, -5083.00537109], [-120.88298, 43.7892, -5460.51904297], [-120.87688, 43.78127, -5861.77099609], [-120.87161, 43.78548, -5083.00537109]]], [[[-120.86223, 43.83711, 687.43365479], [-120.85168, 43.83741, 1356.05603027], [-120.86134, 43.8432, 1405.37268066], [-120.86223, 43.83711, 687.43365479]]], [[[-120.87455, 43.74901, -8987.62695312], [-120.88229, 43.74758, -9552.31152344], [-120.87429, 43.74369, -9645.39941406], [-120.87455, 43.74901, -8987.62695312]]], [[[-120.79678, 43.78108, -788.92730713], [-120.78702, 43.78244, -12.58438492], [-120.7957, 43.78777, -25.46368217], [-120.79678, 43.78108, -788.92730713]]], [[[-120.85243, 43.82309, -34.71728897], [-120.8531, 43.81603, -765.7845459], [-120.84357, 43.8168, -27.28498268], [-120.85243, 43.82309, -34.71728897]]], [[[-120.7888, 43.76509, -1650.01831055], [-120.79402, 43.76096, -2420.11816406], [-120.78293, 43.75723, -2024.32678223], [-120.7888, 43.76509, -1650.01831055]]], [[[-120.88229, 43.74758, -9552.31152344], [-120.87455, 43.74901, -8987.62695312], [-120.88165, 43.75358, -8870.7265625], [-120.88229, 43.74758, -9552.31152344]]], [[[-120.87071, 43.83736, 193.74452209], [-120.88135, 43.84079, -143.71372986], [-120.87521, 43.83314, -534.66027832], [-120.87071, 43.83736, 193.74452209]]], [[[-120.88229, 43.74758, -9552.31152344], [-120.88165, 43.75358, -8870.7265625], [-120.89106, 43.75147, -9694.64746094], [-120.88229, 43.74758, -9552.31152344]]], [[[-120.82611, 43.81176, 689.2835083], [-120.81641, 43.81164, 1405.85375977], [-120.82451, 43.81857, 1420.74719238], [-120.82611, 43.81176, 689.2835083]]], [[[-120.8531, 43.81603, -765.7845459], [-120.85243, 43.82309, -34.71728897], [-120.86078, 43.82268, -690.08776855], [-120.8531, 43.81603, -765.7845459]]], [[[-120.91518, 43.78862, -7809.25683594], [-120.91011, 43.79291, -7034.10742188], [-120.92174, 43.7962, -7371.76611328], [-120.91518, 43.78862, -7809.25683594]]], [[[-120.88165, 43.75358, -8870.7265625], [-120.89036, 43.75858, -8984.9375], [-120.89106, 43.75147, -9694.64746094], [-120.88165, 43.75358, -8870.7265625]]], [[[-120.86223, 43.83711, 687.43365479], [-120.86134, 43.8432, 1405.37268066], [-120.86876, 43.84405, 1010.45159912], [-120.86223, 43.83711, 687.43365479]]], [[[-120.80415, 43.79284, -66.39566803], [-120.7957, 43.78777, -25.46368217], [-120.79508, 43.79458, 712.27703857], [-120.80415, 43.79284, -66.39566803]]], [[[-120.92574, 43.77462, -9930.37695312], [-120.93697, 43.78231, -9799.5859375], [-120.9343, 43.77298, -10673.36914062], [-120.92574, 43.77462, -9930.37695312]]], [[[-120.77847, 43.78251, 686.89886475], [-120.7699, 43.77621, 752.20489502], [-120.76923, 43.78249, 1424.16235352], [-120.77847, 43.78251, 686.89886475]]], [[[-120.89036, 43.75858, -8984.9375], [-120.88165, 43.75358, -8870.7265625], [-120.88174, 43.76025, -8180.43408203], [-120.89036, 43.75858, -8984.9375]]], [[[-120.79405, 43.77341, -1338.21313477], [-120.7888, 43.76509, -1650.01831055], [-120.78361, 43.76924, -881.1461792], [-120.79405, 43.77341, -1338.21313477]]], [[[-120.871, 43.849, 1375.2010498], [-120.87618, 43.84489, 615.74365234], [-120.86876, 43.84405, 1010.45159912], [-120.871, 43.849, 1375.2010498]]], [[[-120.8342, 43.81793, 705.92791748], [-120.82451, 43.81857, 1420.74719238], [-120.83367, 43.82478, 1442.32177734], [-120.8342, 43.81793, 705.92791748]]], [[[-120.89036, 43.75858, -8984.9375], [-120.89871, 43.76388, -9082.58203125], [-120.89871, 43.75682, -9780.57421875], [-120.89036, 43.75858, -8984.9375]]], [[[-120.84579, 43.73404, -8819.57324219], [-120.84632, 43.72661, -9473.28417969], [-120.83658, 43.72741, -8677.7421875], [-120.84579, 43.73404, -8819.57324219]]], [[[-120.88997, 43.76578, -8301.765625], [-120.89036, 43.75858, -8984.9375], [-120.88174, 43.76025, -8180.43408203], [-120.88997, 43.76578, -8301.765625]]], [[[-120.7957, 43.78777, -25.46368217], [-120.78702, 43.78244, -12.58438492], [-120.78651, 43.78915, 715.35498047], [-120.7957, 43.78777, -25.46368217]]], [[[-120.78651, 43.78915, 715.35498047], [-120.78591, 43.79594, 1458.04772949], [-120.79508, 43.79458, 712.27703857], [-120.78651, 43.78915, 715.35498047]]], [[[-120.81482, 43.79784, -7.38666725], [-120.80458, 43.79934, 668.07617188], [-120.81628, 43.80473, 675.69067383], [-120.81482, 43.79784, -7.38666725]]], [[[-120.88997, 43.76578, -8301.765625], [-120.89871, 43.76388, -9082.58203125], [-120.89036, 43.75858, -8984.9375], [-120.88997, 43.76578, -8301.765625]]], [[[-120.80458, 43.79934, 668.07617188], [-120.79508, 43.79458, 712.27703857], [-120.79556, 43.80174, 1412.6315918], [-120.80458, 43.79934, 668.07617188]]], [[[-120.8549, 43.78542, -3870.15673828], [-120.86031, 43.78132, -4649.99560547], [-120.84947, 43.77805, -4246.96826172], [-120.8549, 43.78542, -3870.15673828]]], [[[-120.88997, 43.76578, -8301.765625], [-120.89916, 43.77105, -8374.11621094], [-120.89871, 43.76388, -9082.58203125], [-120.88997, 43.76578, -8301.765625]]], [[[-120.80458, 43.79934, 668.07617188], [-120.79556, 43.80174, 1412.6315918], [-120.8067, 43.80589, 1391.68847656], [-120.80458, 43.79934, 668.07617188]]], [[[-120.78361, 43.76924, -881.1461792], [-120.77249, 43.76563, -473.39956665], [-120.77832, 43.77419, -26.09013748], [-120.78361, 43.76924, -881.1461792]]], [[[-120.92589, 43.78115, -9272.09179688], [-120.93697, 43.78231, -9799.5859375], [-120.92574, 43.77462, -9930.37695312], [-120.92589, 43.78115, -9272.09179688]]], [[[-120.7888, 43.76509, -1650.01831055], [-120.78293, 43.75723, -2024.32678223], [-120.7777, 43.76136, -1254.61816406], [-120.7888, 43.76509, -1650.01831055]]], [[[-120.88979, 43.77279, -7581.8359375], [-120.89916, 43.77105, -8374.11621094], [-120.88997, 43.76578, -8301.765625], [-120.88979, 43.77279, -7581.8359375]]], [[[-120.7888, 43.76509, -1650.01831055], [-120.7777, 43.76136, -1254.61816406], [-120.78361, 43.76924, -881.1461792], [-120.7888, 43.76509, -1650.01831055]]], [[[-120.87618, 43.84489, 615.74365234], [-120.87071, 43.83736, 193.74452209], [-120.86876, 43.84405, 1010.45159912], [-120.87618, 43.84489, 615.74365234]]], [[[-120.79402, 43.76096, -2420.11816406], [-120.80448, 43.76514, -2873.71337891], [-120.79925, 43.75683, -3190.21777344], [-120.79402, 43.76096, -2420.11816406]]], [[[-120.93697, 43.78231, -9799.5859375], [-120.94858, 43.7874, -10016.66015625], [-120.9464, 43.78266, -10372.59179688], [-120.93697, 43.78231, -9799.5859375]]], [[[-120.80415, 43.79284, -66.39566803], [-120.79508, 43.79458, 712.27703857], [-120.80458, 43.79934, 668.07617188], [-120.80415, 43.79284, -66.39566803]]], [[[-120.88979, 43.77279, -7581.8359375], [-120.8993, 43.77734, -7754.99365234], [-120.89916, 43.77105, -8374.11621094], [-120.88979, 43.77279, -7581.8359375]]], [[[-120.8993, 43.77734, -7754.99365234], [-120.88979, 43.77279, -7581.8359375], [-120.89329, 43.78096, -6982.91601562], [-120.8993, 43.77734, -7754.99365234]]], [[[-120.81431, 43.73242, -6643.27246094], [-120.80856, 43.72452, -7010.03662109], [-120.80333, 43.72865, -6240.32763672], [-120.81431, 43.73242, -6643.27246094]]], [[[-120.77847, 43.78251, 686.89886475], [-120.77675, 43.78975, 1423.06066895], [-120.78651, 43.78915, 715.35498047], [-120.77847, 43.78251, 686.89886475]]], [[[-120.8993, 43.77734, -7754.99365234], [-120.89329, 43.78096, -6982.91601562], [-120.90435, 43.78488, -7400.80664062], [-120.8993, 43.77734, -7754.99365234]]], [[[-120.8993, 43.77734, -7754.99365234], [-120.90435, 43.78488, -7400.80664062], [-120.90948, 43.77916, -8308.12695312], [-120.8993, 43.77734, -7754.99365234]]], [[[-120.84376, 43.77136, -4713.15576172], [-120.8375, 43.76435, -5191.03466797], [-120.83226, 43.76851, -4417.84570312], [-120.84376, 43.77136, -4713.15576172]]], [[[-120.81361, 43.79129, -773.53857422], [-120.80445, 43.78581, -806.17687988], [-120.80415, 43.79284, -66.39566803], [-120.81361, 43.79129, -773.53857422]]], [[[-120.8993, 43.77734, -7754.99365234], [-120.90948, 43.77916, -8308.12695312], [-120.89916, 43.77105, -8374.11621094], [-120.8993, 43.77734, -7754.99365234]]], [[[-120.90786, 43.76993, -9073.87597656], [-120.89916, 43.77105, -8374.11621094], [-120.90948, 43.77916, -8308.12695312], [-120.90786, 43.76993, -9073.87597656]]], [[[-120.86486, 43.76496, -6605.93554688], [-120.85979, 43.76949, -5805.79638672], [-120.87052, 43.77243, -6227.50048828], [-120.86486, 43.76496, -6605.93554688]]], [[[-120.89871, 43.75682, -9780.57421875], [-120.90742, 43.75551, -10513.71777344], [-120.89891, 43.74938, -10462.09960938], [-120.89871, 43.75682, -9780.57421875]]], [[[-120.89916, 43.77105, -8374.11621094], [-120.90786, 43.76993, -9073.87597656], [-120.89871, 43.76388, -9082.58203125], [-120.89916, 43.77105, -8374.11621094]]], [[[-120.81628, 43.80473, 675.69067383], [-120.8067, 43.80589, 1391.68847656], [-120.81641, 43.81164, 1405.85375977], [-120.81628, 43.80473, 675.69067383]]], [[[-120.77832, 43.77419, -26.09013748], [-120.76644, 43.76984, 359.83224487], [-120.7699, 43.77621, 752.20489502], [-120.77832, 43.77419, -26.09013748]]], [[[-120.87781, 43.7933, -4700.61962891], [-120.88363, 43.80134, -4349.2265625], [-120.8888, 43.79724, -5109.44677734], [-120.87781, 43.7933, -4700.61962891]]], [[[-120.90786, 43.76993, -9073.87597656], [-120.90785, 43.7626, -9815.68261719], [-120.89871, 43.76388, -9082.58203125], [-120.90786, 43.76993, -9073.87597656]]], [[[-120.91141, 43.80441, -5852.42382812], [-120.92274, 43.80794, -6219.37304688], [-120.91658, 43.80031, -6612.09472656], [-120.91141, 43.80441, -5852.42382812]]], [[[-120.90786, 43.76993, -9073.87597656], [-120.91655, 43.76808, -9862.54980469], [-120.90785, 43.7626, -9815.68261719], [-120.90786, 43.76993, -9073.87597656]]], [[[-120.82476, 43.72415, -8183.53808594], [-120.82924, 43.71985, -8915.45996094], [-120.81901, 43.71624, -8549.45410156], [-120.82476, 43.72415, -8183.53808594]]], [[[-120.80481, 43.77813, -1617.12414551], [-120.79405, 43.77341, -1338.21313477], [-120.79678, 43.78108, -788.92730713], [-120.80481, 43.77813, -1617.12414551]]], [[[-120.83863, 43.77548, -3951.56274414], [-120.84376, 43.77136, -4713.15576172], [-120.83226, 43.76851, -4417.84570312], [-120.83863, 43.77548, -3951.56274414]]], [[[-120.90786, 43.76993, -9073.87597656], [-120.91658, 43.77576, -9147.87695312], [-120.91655, 43.76808, -9862.54980469], [-120.90786, 43.76993, -9073.87597656]]], [[[-120.85174, 43.80229, -2052.00317383], [-120.85602, 43.79775, -2798.74829102], [-120.84422, 43.79493, -2201.97045898], [-120.85174, 43.80229, -2052.00317383]]], [[[-120.82924, 43.71985, -8915.45996094], [-120.82476, 43.72415, -8183.53808594], [-120.83658, 43.72741, -8677.7421875], [-120.82924, 43.71985, -8915.45996094]]], [[[-120.7957, 43.78777, -25.46368217], [-120.78651, 43.78915, 715.35498047], [-120.79508, 43.79458, 712.27703857], [-120.7957, 43.78777, -25.46368217]]], [[[-120.91658, 43.77576, -9147.87695312], [-120.90786, 43.76993, -9073.87597656], [-120.90948, 43.77916, -8308.12695312], [-120.91658, 43.77576, -9147.87695312]]], [[[-120.88139, 43.7755, -6750.08203125], [-120.89329, 43.78096, -6982.91601562], [-120.88979, 43.77279, -7581.8359375], [-120.88139, 43.7755, -6750.08203125]]], [[[-120.88298, 43.7892, -5460.51904297], [-120.87781, 43.7933, -4700.61962891], [-120.8888, 43.79724, -5109.44677734], [-120.88298, 43.7892, -5460.51904297]]], [[[-120.78651, 43.78915, 715.35498047], [-120.77675, 43.78975, 1423.06066895], [-120.78591, 43.79594, 1458.04772949], [-120.78651, 43.78915, 715.35498047]]], [[[-120.84947, 43.77805, -4246.96826172], [-120.84376, 43.77136, -4713.15576172], [-120.83863, 43.77548, -3951.56274414], [-120.84947, 43.77805, -4246.96826172]]], [[[-120.90948, 43.77916, -8308.12695312], [-120.92036, 43.7846, -8560.44824219], [-120.91658, 43.77576, -9147.87695312], [-120.90948, 43.77916, -8308.12695312]]], [[[-120.85465, 43.77381, -5023.41992188], [-120.84376, 43.77136, -4713.15576172], [-120.84947, 43.77805, -4246.96826172], [-120.85465, 43.77381, -5023.41992188]]], [[[-120.90948, 43.77916, -8308.12695312], [-120.91518, 43.78862, -7809.25683594], [-120.92036, 43.7846, -8560.44824219], [-120.90948, 43.77916, -8308.12695312]]], [[[-120.90435, 43.78488, -7400.80664062], [-120.91518, 43.78862, -7809.25683594], [-120.90948, 43.77916, -8308.12695312], [-120.90435, 43.78488, -7400.80664062]]], [[[-120.78816, 43.75309, -2794.03540039], [-120.77717, 43.74933, -2391.78442383], [-120.78293, 43.75723, -2024.32678223], [-120.78816, 43.75309, -2794.03540039]]], [[[-120.85562, 43.74045, -8837.76074219], [-120.86468, 43.73896, -9590.46582031], [-120.85531, 43.73334, -9546.15136719], [-120.85562, 43.74045, -8837.76074219]]], [[[-120.90435, 43.78488, -7400.80664062], [-120.91011, 43.79291, -7034.10742188], [-120.91518, 43.78862, -7809.25683594], [-120.90435, 43.78488, -7400.80664062]]], [[[-120.88803, 43.7849, -6232.45019531], [-120.87688, 43.78127, -5861.77099609], [-120.88298, 43.7892, -5460.51904297], [-120.88803, 43.7849, -6232.45019531]]], [[[-120.86577, 43.74613, -8919.13867188], [-120.86468, 43.73896, -9590.46582031], [-120.85562, 43.74045, -8837.76074219], [-120.86577, 43.74613, -8919.13867188]]], [[[-120.81034, 43.77316, -2492.75634766], [-120.80448, 43.76514, -2873.71337891], [-120.79926, 43.76935, -2099.24047852], [-120.81034, 43.77316, -2492.75634766]]], [[[-120.83367, 43.77934, -3229.37646484], [-120.83863, 43.77548, -3951.56274414], [-120.82713, 43.77266, -3653.88452148], [-120.83367, 43.77934, -3229.37646484]]], [[[-120.89912, 43.78904, -6629.88769531], [-120.91011, 43.79291, -7034.10742188], [-120.90435, 43.78488, -7400.80664062], [-120.89912, 43.78904, -6629.88769531]]], [[[-120.84579, 43.73404, -8819.57324219], [-120.85531, 43.73334, -9546.15136719], [-120.84632, 43.72661, -9473.28417969], [-120.84579, 43.73404, -8819.57324219]]], [[[-120.86475, 43.76019, -7113.25146484], [-120.87216, 43.76073, -7513.671875], [-120.86351, 43.75546, -7652.75537109], [-120.86475, 43.76019, -7113.25146484]]], [[[-120.83367, 43.77934, -3229.37646484], [-120.84458, 43.78186, -3534.17724609], [-120.83863, 43.77548, -3951.56274414], [-120.83367, 43.77934, -3229.37646484]]], [[[-120.89912, 43.78904, -6629.88769531], [-120.90494, 43.79701, -6274.05224609], [-120.91011, 43.79291, -7034.10742188], [-120.89912, 43.78904, -6629.88769531]]], [[[-120.84458, 43.78186, -3534.17724609], [-120.8549, 43.78542, -3870.15673828], [-120.84947, 43.77805, -4246.96826172], [-120.84458, 43.78186, -3534.17724609]]], [[[-120.81687, 43.78119, -2100.96289062], [-120.80481, 43.77813, -1617.12414551], [-120.81295, 43.785, -1451.45324707], [-120.81687, 43.78119, -2100.96289062]]], [[[-120.89396, 43.79314, -5869.66699219], [-120.90494, 43.79701, -6274.05224609], [-120.89912, 43.78904, -6629.88769531], [-120.89396, 43.79314, -5869.66699219]]], [[[-120.85465, 43.77381, -5023.41992188], [-120.86578, 43.77728, -5430.73339844], [-120.85979, 43.76949, -5805.79638672], [-120.85465, 43.77381, -5023.41992188]]], [[[-120.89396, 43.79314, -5869.66699219], [-120.89978, 43.80111, -5513.99707031], [-120.90494, 43.79701, -6274.05224609], [-120.89396, 43.79314, -5869.66699219]]], [[[-120.81953, 43.72828, -7413.40527344], [-120.80856, 43.72452, -7010.03662109], [-120.81431, 43.73242, -6643.27246094], [-120.81953, 43.72828, -7413.40527344]]], [[[-120.8888, 43.79724, -5109.44677734], [-120.89978, 43.80111, -5513.99707031], [-120.89396, 43.79314, -5869.66699219], [-120.8888, 43.79724, -5109.44677734]]], [[[-120.84458, 43.78186, -3534.17724609], [-120.83367, 43.77934, -3229.37646484], [-120.8399, 43.78573, -2829.24926758], [-120.84458, 43.78186, -3534.17724609]]], [[[-120.86351, 43.75546, -7652.75537109], [-120.87216, 43.76073, -7513.671875], [-120.87124, 43.75339, -8277.93261719], [-120.86351, 43.75546, -7652.75537109]]], [[[-120.82476, 43.72415, -8183.53808594], [-120.81379, 43.72038, -7779.74511719], [-120.81953, 43.72828, -7413.40527344], [-120.82476, 43.72415, -8183.53808594]]], [[[-120.83492, 43.79627, -1391.81445312], [-120.82483, 43.79698, -685.35302734], [-120.83559, 43.80388, -741.3861084], [-120.83492, 43.79627, -1391.81445312]]], [[[-120.8888, 43.79724, -5109.44677734], [-120.89461, 43.80521, -4753.94189453], [-120.89978, 43.80111, -5513.99707031], [-120.8888, 43.79724, -5109.44677734]]], [[[-120.81431, 43.73242, -6643.27246094], [-120.80333, 43.72865, -6240.32763672], [-120.80908, 43.73655, -5873.13964844], [-120.81431, 43.73242, -6643.27246094]]], [[[-120.8807, 43.7672, -7473.94091797], [-120.88997, 43.76578, -8301.765625], [-120.88174, 43.76025, -8180.43408203], [-120.8807, 43.7672, -7473.94091797]]], [[[-120.86486, 43.76496, -6605.93554688], [-120.85765, 43.75883, -6950.22265625], [-120.85362, 43.76271, -6270.00488281], [-120.86486, 43.76496, -6605.93554688]]], [[[-120.80445, 43.78581, -806.17687988], [-120.81295, 43.785, -1451.45324707], [-120.80481, 43.77813, -1617.12414551], [-120.80445, 43.78581, -806.17687988]]], [[[-120.88363, 43.80134, -4349.2265625], [-120.89461, 43.80521, -4753.94189453], [-120.8888, 43.79724, -5109.44677734], [-120.88363, 43.80134, -4349.2265625]]], [[[-120.85562, 43.74045, -8837.76074219], [-120.85531, 43.73334, -9546.15136719], [-120.84579, 43.73404, -8819.57324219], [-120.85562, 43.74045, -8837.76074219]]], [[[-120.87124, 43.75339, -8277.93261719], [-120.87216, 43.76073, -7513.671875], [-120.88174, 43.76025, -8180.43408203], [-120.87124, 43.75339, -8277.93261719]]], [[[-120.82391, 43.78961, -1473.97009277], [-120.81295, 43.785, -1451.45324707], [-120.81361, 43.79129, -773.53857422], [-120.82391, 43.78961, -1473.97009277]]], [[[-120.88363, 43.80134, -4349.2265625], [-120.88945, 43.80931, -3993.88647461], [-120.89461, 43.80521, -4753.94189453], [-120.88363, 43.80134, -4349.2265625]]], [[[-120.82713, 43.77266, -3653.88452148], [-120.82084, 43.76479, -4042.2512207], [-120.8156, 43.76893, -3272.74121094], [-120.82713, 43.77266, -3653.88452148]]], [[[-120.87427, 43.76775, -6933.04443359], [-120.86486, 43.76496, -6605.93554688], [-120.87052, 43.77243, -6227.50048828], [-120.87427, 43.76775, -6933.04443359]]], [[[-120.88363, 43.80134, -4349.2265625], [-120.87847, 43.80544, -3589.00610352], [-120.88945, 43.80931, -3993.88647461], [-120.88363, 43.80134, -4349.2265625]]], [[[-120.86577, 43.74613, -8919.13867188], [-120.87455, 43.74901, -8987.62695312], [-120.87429, 43.74369, -9645.39941406], [-120.86577, 43.74613, -8919.13867188]]], [[[-120.87264, 43.79741, -3940.71948242], [-120.87847, 43.80544, -3589.00610352], [-120.88363, 43.80134, -4349.2265625], [-120.87264, 43.79741, -3940.71948242]]], [[[-120.87052, 43.77243, -6227.50048828], [-120.87688, 43.78127, -5861.77099609], [-120.88139, 43.7755, -6750.08203125], [-120.87052, 43.77243, -6227.50048828]]], [[[-120.86747, 43.80151, -3180.81958008], [-120.87847, 43.80544, -3589.00610352], [-120.87264, 43.79741, -3940.71948242], [-120.86747, 43.80151, -3180.81958008]]], [[[-120.86475, 43.76019, -7113.25146484], [-120.86486, 43.76496, -6605.93554688], [-120.87216, 43.76073, -7513.671875], [-120.86475, 43.76019, -7113.25146484]]], [[[-120.7934, 43.74896, -3563.74414062], [-120.78764, 43.74106, -3931.20166016], [-120.78241, 43.74519, -3161.49291992], [-120.7934, 43.74896, -3563.74414062]]], [[[-120.84444, 43.80333, -1462.79553223], [-120.83559, 43.80388, -741.3861084], [-120.84487, 43.81021, -788.41796875], [-120.84444, 43.80333, -1462.79553223]]], [[[-120.86747, 43.80151, -3180.81958008], [-120.8733, 43.80954, -2828.78588867], [-120.87847, 43.80544, -3589.00610352], [-120.86747, 43.80151, -3180.81958008]]], [[[-120.89329, 43.78096, -6982.91601562], [-120.89912, 43.78904, -6629.88769531], [-120.90435, 43.78488, -7400.80664062], [-120.89329, 43.78096, -6982.91601562]]], [[[-120.8622, 43.80562, -2412.77832031], [-120.8733, 43.80954, -2828.78588867], [-120.86747, 43.80151, -3180.81958008], [-120.8622, 43.80562, -2412.77832031]]], [[[-120.88803, 43.7849, -6232.45019531], [-120.88298, 43.7892, -5460.51904297], [-120.89396, 43.79314, -5869.66699219], [-120.88803, 43.7849, -6232.45019531]]], [[[-120.83658, 43.72741, -8677.7421875], [-120.84632, 43.72661, -9473.28417969], [-120.83735, 43.72012, -9461.13183594], [-120.83658, 43.72741, -8677.7421875]]], [[[-120.8622, 43.80562, -2412.77832031], [-120.86803, 43.81362, -2063.08203125], [-120.8733, 43.80954, -2828.78588867], [-120.8622, 43.80562, -2412.77832031]]], [[[-120.8622, 43.80562, -2412.77832031], [-120.85591, 43.80992, -1555.09814453], [-120.86803, 43.81362, -2063.08203125], [-120.8622, 43.80562, -2412.77832031]]], [[[-120.82713, 43.77266, -3653.88452148], [-120.8156, 43.76893, -3272.74121094], [-120.82182, 43.77677, -2881.05175781], [-120.82713, 43.77266, -3653.88452148]]], [[[-120.87216, 43.76073, -7513.671875], [-120.87427, 43.76775, -6933.04443359], [-120.8807, 43.7672, -7473.94091797], [-120.87216, 43.76073, -7513.671875]]], [[[-120.85174, 43.80229, -2052.00317383], [-120.85591, 43.80992, -1555.09814453], [-120.8622, 43.80562, -2412.77832031], [-120.85174, 43.80229, -2052.00317383]]], [[[-120.83226, 43.76851, -4417.84570312], [-120.82607, 43.76065, -4811.76171875], [-120.82084, 43.76479, -4042.2512207], [-120.83226, 43.76851, -4417.84570312]]], [[[-120.85174, 43.80229, -2052.00317383], [-120.84444, 43.80333, -1462.79553223], [-120.85591, 43.80992, -1555.09814453], [-120.85174, 43.80229, -2052.00317383]]], [[[-120.87052, 43.77243, -6227.50048828], [-120.86578, 43.77728, -5430.73339844], [-120.87688, 43.78127, -5861.77099609], [-120.87052, 43.77243, -6227.50048828]]], [[[-120.84422, 43.79493, -2201.97045898], [-120.84444, 43.80333, -1462.79553223], [-120.85174, 43.80229, -2052.00317383], [-120.84422, 43.79493, -2201.97045898]]], [[[-120.87216, 43.76073, -7513.671875], [-120.8807, 43.7672, -7473.94091797], [-120.88174, 43.76025, -8180.43408203], [-120.87216, 43.76073, -7513.671875]]], [[[-120.79863, 43.74482, -4333.45263672], [-120.78764, 43.74106, -3931.20166016], [-120.7934, 43.74896, -3563.74414062], [-120.79863, 43.74482, -4333.45263672]]], [[[-120.84422, 43.79493, -2201.97045898], [-120.83492, 43.79627, -1391.81445312], [-120.84444, 43.80333, -1462.79553223], [-120.84422, 43.79493, -2201.97045898]]], [[[-120.8807, 43.7672, -7473.94091797], [-120.88979, 43.77279, -7581.8359375], [-120.88997, 43.76578, -8301.765625], [-120.8807, 43.7672, -7473.94091797]]], [[[-120.86577, 43.74613, -8919.13867188], [-120.87429, 43.74369, -9645.39941406], [-120.86468, 43.73896, -9590.46582031], [-120.86577, 43.74613, -8919.13867188]]], [[[-120.83449, 43.78964, -2073.19970703], [-120.83492, 43.79627, -1391.81445312], [-120.84422, 43.79493, -2201.97045898], [-120.83449, 43.78964, -2073.19970703]]], [[[-120.83449, 43.78964, -2073.19970703], [-120.82391, 43.78961, -1473.97009277], [-120.83492, 43.79627, -1391.81445312], [-120.83449, 43.78964, -2073.19970703]]], [[[-120.86486, 43.76496, -6605.93554688], [-120.85362, 43.76271, -6270.00488281], [-120.85979, 43.76949, -5805.79638672], [-120.86486, 43.76496, -6605.93554688]]], [[[-120.82847, 43.78376, -2426.93481445], [-120.82391, 43.78961, -1473.97009277], [-120.83449, 43.78964, -2073.19970703], [-120.82847, 43.78376, -2426.93481445]]], [[[-120.87124, 43.75339, -8277.93261719], [-120.88174, 43.76025, -8180.43408203], [-120.88165, 43.75358, -8870.7265625], [-120.87124, 43.75339, -8277.93261719]]], [[[-120.88298, 43.7892, -5460.51904297], [-120.8888, 43.79724, -5109.44677734], [-120.89396, 43.79314, -5869.66699219], [-120.88298, 43.7892, -5460.51904297]]], [[[-120.82847, 43.78376, -2426.93481445], [-120.81687, 43.78119, -2100.96289062], [-120.82391, 43.78961, -1473.97009277], [-120.82847, 43.78376, -2426.93481445]]], [[[-120.89329, 43.78096, -6982.91601562], [-120.88139, 43.7755, -6750.08203125], [-120.88803, 43.7849, -6232.45019531], [-120.89329, 43.78096, -6982.91601562]]], [[[-120.79863, 43.74482, -4333.45263672], [-120.79287, 43.73692, -4700.91015625], [-120.78764, 43.74106, -3931.20166016], [-120.79863, 43.74482, -4333.45263672]]], [[[-120.81687, 43.78119, -2100.96289062], [-120.82847, 43.78376, -2426.93481445], [-120.82182, 43.77677, -2881.05175781], [-120.81687, 43.78119, -2100.96289062]]], [[[-120.80386, 43.74069, -5103.16162109], [-120.7981, 43.73279, -5470.61914062], [-120.79287, 43.73692, -4700.91015625], [-120.80386, 43.74069, -5103.16162109]]], [[[-120.82182, 43.77677, -2881.05175781], [-120.81034, 43.77316, -2492.75634766], [-120.81687, 43.78119, -2100.96289062], [-120.82182, 43.77677, -2881.05175781]]], [[[-120.81034, 43.77316, -2492.75634766], [-120.82182, 43.77677, -2881.05175781], [-120.8156, 43.76893, -3272.74121094], [-120.81034, 43.77316, -2492.75634766]]], [[[-120.81034, 43.77316, -2492.75634766], [-120.8156, 43.76893, -3272.74121094], [-120.80448, 43.76514, -2873.71337891], [-120.81034, 43.77316, -2492.75634766]]], [[[-120.80386, 43.74069, -5103.16162109], [-120.79287, 43.73692, -4700.91015625], [-120.79863, 43.74482, -4333.45263672], [-120.80386, 43.74069, -5103.16162109]]], [[[-120.81034, 43.77316, -2492.75634766], [-120.79926, 43.76935, -2099.24047852], [-120.80481, 43.77813, -1617.12414551], [-120.81034, 43.77316, -2492.75634766]]], [[[-120.81687, 43.78119, -2100.96289062], [-120.81034, 43.77316, -2492.75634766], [-120.80481, 43.77813, -1617.12414551], [-120.81687, 43.78119, -2100.96289062]]], [[[-120.84947, 43.77805, -4246.96826172], [-120.86031, 43.78132, -4649.99560547], [-120.85465, 43.77381, -5023.41992188], [-120.84947, 43.77805, -4246.96826172]]], [[[-120.83863, 43.77548, -3951.56274414], [-120.83226, 43.76851, -4417.84570312], [-120.82713, 43.77266, -3653.88452148], [-120.83863, 43.77548, -3951.56274414]]], [[[-120.81687, 43.78119, -2100.96289062], [-120.81295, 43.785, -1451.45324707], [-120.82391, 43.78961, -1473.97009277], [-120.81687, 43.78119, -2100.96289062]]], [[[-120.81953, 43.72828, -7413.40527344], [-120.81379, 43.72038, -7779.74511719], [-120.80856, 43.72452, -7010.03662109], [-120.81953, 43.72828, -7413.40527344]]], [[[-120.8549, 43.78542, -3870.15673828], [-120.84942, 43.78978, -3060.97167969], [-120.86128, 43.79368, -3562.59912109], [-120.8549, 43.78542, -3870.15673828]]], [[[-120.82391, 43.78961, -1473.97009277], [-120.81361, 43.79129, -773.53857422], [-120.82483, 43.79698, -685.35302734], [-120.82391, 43.78961, -1473.97009277]]], [[[-120.87688, 43.78127, -5861.77099609], [-120.88803, 43.7849, -6232.45019531], [-120.88139, 43.7755, -6750.08203125], [-120.87688, 43.78127, -5861.77099609]]], [[[-120.83492, 43.79627, -1391.81445312], [-120.82391, 43.78961, -1473.97009277], [-120.82483, 43.79698, -685.35302734], [-120.83492, 43.79627, -1391.81445312]]], [[[-120.84444, 43.80333, -1462.79553223], [-120.83492, 43.79627, -1391.81445312], [-120.83559, 43.80388, -741.3861084], [-120.84444, 43.80333, -1462.79553223]]], [[[-120.84444, 43.80333, -1462.79553223], [-120.84487, 43.81021, -788.41796875], [-120.85591, 43.80992, -1555.09814453], [-120.84444, 43.80333, -1462.79553223]]], [[[-120.8531, 43.81603, -765.7845459], [-120.85591, 43.80992, -1555.09814453], [-120.84487, 43.81021, -788.41796875], [-120.8531, 43.81603, -765.7845459]]], [[[-120.85591, 43.80992, -1555.09814453], [-120.8531, 43.81603, -765.7845459], [-120.86317, 43.81762, -1333.8145752], [-120.85591, 43.80992, -1555.09814453]]], [[[-120.85591, 43.80992, -1555.09814453], [-120.86317, 43.81762, -1333.8145752], [-120.86803, 43.81362, -2063.08203125], [-120.85591, 43.80992, -1555.09814453]]], [[[-120.86803, 43.81362, -2063.08203125], [-120.86317, 43.81762, -1333.8145752], [-120.87394, 43.82161, -1713.72070312], [-120.86803, 43.81362, -2063.08203125]]], [[[-120.8399, 43.78573, -2829.24926758], [-120.84942, 43.78978, -3060.97167969], [-120.84458, 43.78186, -3534.17724609], [-120.8399, 43.78573, -2829.24926758]]], [[[-120.86803, 43.81362, -2063.08203125], [-120.87394, 43.82161, -1713.72070312], [-120.87911, 43.81751, -2473.77612305], [-120.86803, 43.81362, -2063.08203125]]], [[[-120.86128, 43.79368, -3562.59912109], [-120.86747, 43.80151, -3180.81958008], [-120.87264, 43.79741, -3940.71948242], [-120.86128, 43.79368, -3562.59912109]]], [[[-120.8733, 43.80954, -2828.78588867], [-120.86803, 43.81362, -2063.08203125], [-120.87911, 43.81751, -2473.77612305], [-120.8733, 43.80954, -2828.78588867]]], [[[-120.8375, 43.76435, -5191.03466797], [-120.84376, 43.77136, -4713.15576172], [-120.8491, 43.7672, -5491.14160156], [-120.8375, 43.76435, -5191.03466797]]], [[[-120.8733, 43.80954, -2828.78588867], [-120.87911, 43.81751, -2473.77612305], [-120.88428, 43.81341, -3233.83129883], [-120.8733, 43.80954, -2828.78588867]]], [[[-120.88428, 43.81341, -3233.83129883], [-120.87847, 43.80544, -3589.00610352], [-120.8733, 43.80954, -2828.78588867], [-120.88428, 43.81341, -3233.83129883]]], [[[-120.83226, 43.76851, -4417.84570312], [-120.82084, 43.76479, -4042.2512207], [-120.82713, 43.77266, -3653.88452148], [-120.83226, 43.76851, -4417.84570312]]], [[[-120.86486, 43.76496, -6605.93554688], [-120.86475, 43.76019, -7113.25146484], [-120.85765, 43.75883, -6950.22265625], [-120.86486, 43.76496, -6605.93554688]]], [[[-120.87847, 43.80544, -3589.00610352], [-120.88428, 43.81341, -3233.83129883], [-120.88945, 43.80931, -3993.88647461], [-120.87847, 43.80544, -3589.00610352]]], [[[-120.88428, 43.81341, -3233.83129883], [-120.8959, 43.81673, -3573.40991211], [-120.88945, 43.80931, -3993.88647461], [-120.88428, 43.81341, -3233.83129883]]], [[[-120.86031, 43.78132, -4649.99560547], [-120.86644, 43.78958, -4322.80224609], [-120.87161, 43.78548, -5083.00537109], [-120.86031, 43.78132, -4649.99560547]]], [[[-120.88428, 43.81341, -3233.83129883], [-120.89073, 43.82083, -2813.73876953], [-120.8959, 43.81673, -3573.40991211], [-120.88428, 43.81341, -3233.83129883]]], [[[-120.87911, 43.81751, -2473.77612305], [-120.89073, 43.82083, -2813.73876953], [-120.88428, 43.81341, -3233.83129883], [-120.87911, 43.81751, -2473.77612305]]], [[[-120.87911, 43.81751, -2473.77612305], [-120.88556, 43.82493, -2054.06762695], [-120.89073, 43.82083, -2813.73876953], [-120.87911, 43.81751, -2473.77612305]]], [[[-120.87911, 43.81751, -2473.77612305], [-120.87394, 43.82161, -1713.72070312], [-120.88556, 43.82493, -2054.06762695], [-120.87911, 43.81751, -2473.77612305]]], [[[-120.87394, 43.82161, -1713.72070312], [-120.88039, 43.82904, -1294.39648438], [-120.88556, 43.82493, -2054.06762695], [-120.87394, 43.82161, -1713.72070312]]], [[[-120.86941, 43.82606, -954.01708984], [-120.88039, 43.82904, -1294.39648438], [-120.87394, 43.82161, -1713.72070312], [-120.86941, 43.82606, -954.01708984]]], [[[-120.82847, 43.78376, -2426.93481445], [-120.83367, 43.77934, -3229.37646484], [-120.82182, 43.77677, -2881.05175781], [-120.82847, 43.78376, -2426.93481445]]], [[[-120.86941, 43.82606, -954.01708984], [-120.87521, 43.83314, -534.66027832], [-120.88039, 43.82904, -1294.39648438], [-120.86941, 43.82606, -954.01708984]]], [[[-120.86941, 43.82606, -954.01708984], [-120.86268, 43.82999, -117.96115875], [-120.87521, 43.83314, -534.66027832], [-120.86941, 43.82606, -954.01708984]]], [[[-120.86078, 43.82268, -690.08776855], [-120.86268, 43.82999, -117.96115875], [-120.86941, 43.82606, -954.01708984], [-120.86078, 43.82268, -690.08776855]]], [[[-120.86078, 43.82268, -690.08776855], [-120.85243, 43.82309, -34.71728897], [-120.86268, 43.82999, -117.96115875], [-120.86078, 43.82268, -690.08776855]]], [[[-120.85243, 43.82309, -34.71728897], [-120.84357, 43.8168, -27.28498268], [-120.84291, 43.82374, 695.831604], [-120.85243, 43.82309, -34.71728897]]], [[[-120.84422, 43.79493, -2201.97045898], [-120.84942, 43.78978, -3060.97167969], [-120.8399, 43.78573, -2829.24926758], [-120.84422, 43.79493, -2201.97045898]]], [[[-120.85243, 43.82309, -34.71728897], [-120.84291, 43.82374, 695.831604], [-120.85225, 43.83032, 644.61730957], [-120.85243, 43.82309, -34.71728897]]], [[[-120.85243, 43.82309, -34.71728897], [-120.85225, 43.83032, 644.61730957], [-120.86268, 43.82999, -117.96115875], [-120.85243, 43.82309, -34.71728897]]], [[[-120.86268, 43.82999, -117.96115875], [-120.85225, 43.83032, 644.61730957], [-120.86223, 43.83711, 687.43365479], [-120.86268, 43.82999, -117.96115875]]], [[[-120.86268, 43.82999, -117.96115875], [-120.86223, 43.83711, 687.43365479], [-120.87071, 43.83736, 193.74452209], [-120.86268, 43.82999, -117.96115875]]], [[[-120.87071, 43.83736, 193.74452209], [-120.87521, 43.83314, -534.66027832], [-120.86268, 43.82999, -117.96115875], [-120.87071, 43.83736, 193.74452209]]], [[[-120.86644, 43.78958, -4322.80224609], [-120.87264, 43.79741, -3940.71948242], [-120.87781, 43.7933, -4700.61962891], [-120.86644, 43.78958, -4322.80224609]]], [[[-120.87071, 43.83736, 193.74452209], [-120.87618, 43.84489, 615.74365234], [-120.88135, 43.84079, -143.71372986], [-120.87071, 43.83736, 193.74452209]]], [[[-120.871, 43.849, 1375.2010498], [-120.86876, 43.84405, 1010.45159912], [-120.86134, 43.8432, 1405.37268066], [-120.871, 43.849, 1375.2010498]]], [[[-120.86223, 43.83711, 687.43365479], [-120.85225, 43.83032, 644.61730957], [-120.85168, 43.83741, 1356.05603027], [-120.86223, 43.83711, 687.43365479]]], [[[-120.86578, 43.77728, -5430.73339844], [-120.87161, 43.78548, -5083.00537109], [-120.87688, 43.78127, -5861.77099609], [-120.86578, 43.77728, -5430.73339844]]], [[[-120.85225, 43.83032, 644.61730957], [-120.84289, 43.83093, 1393.00744629], [-120.85168, 43.83741, 1356.05603027], [-120.85225, 43.83032, 644.61730957]]], [[[-120.84291, 43.82374, 695.831604], [-120.83367, 43.82478, 1442.32177734], [-120.84289, 43.83093, 1393.00744629], [-120.84291, 43.82374, 695.831604]]], [[[-120.8342, 43.81793, 705.92791748], [-120.83367, 43.82478, 1442.32177734], [-120.84291, 43.82374, 695.831604], [-120.8342, 43.81793, 705.92791748]]], [[[-120.82611, 43.81176, 689.2835083], [-120.82451, 43.81857, 1420.74719238], [-120.8342, 43.81793, 705.92791748], [-120.82611, 43.81176, 689.2835083]]], [[[-120.81628, 43.80473, 675.69067383], [-120.81641, 43.81164, 1405.85375977], [-120.82611, 43.81176, 689.2835083], [-120.81628, 43.80473, 675.69067383]]], [[[-120.80458, 43.79934, 668.07617188], [-120.8067, 43.80589, 1391.68847656], [-120.81628, 43.80473, 675.69067383], [-120.80458, 43.79934, 668.07617188]]], [[[-120.79678, 43.78108, -788.92730713], [-120.7957, 43.78777, -25.46368217], [-120.80445, 43.78581, -806.17687988], [-120.79678, 43.78108, -788.92730713]]], [[[-120.80415, 43.79284, -66.39566803], [-120.80445, 43.78581, -806.17687988], [-120.7957, 43.78777, -25.46368217], [-120.80415, 43.79284, -66.39566803]]], [[[-120.81295, 43.785, -1451.45324707], [-120.80445, 43.78581, -806.17687988], [-120.81361, 43.79129, -773.53857422], [-120.81295, 43.785, -1451.45324707]]], [[[-120.84376, 43.77136, -4713.15576172], [-120.85465, 43.77381, -5023.41992188], [-120.8491, 43.7672, -5491.14160156], [-120.84376, 43.77136, -4713.15576172]]], [[[-120.80481, 43.77813, -1617.12414551], [-120.79678, 43.78108, -788.92730713], [-120.80445, 43.78581, -806.17687988], [-120.80481, 43.77813, -1617.12414551]]], [[[-120.80481, 43.77813, -1617.12414551], [-120.79926, 43.76935, -2099.24047852], [-120.79405, 43.77341, -1338.21313477], [-120.80481, 43.77813, -1617.12414551]]], [[[-120.79405, 43.77341, -1338.21313477], [-120.79926, 43.76935, -2099.24047852], [-120.7888, 43.76509, -1650.01831055], [-120.79405, 43.77341, -1338.21313477]]], [[[-120.79405, 43.77341, -1338.21313477], [-120.78361, 43.76924, -881.1461792], [-120.78814, 43.77669, -583.4630127], [-120.79405, 43.77341, -1338.21313477]]], [[[-120.79678, 43.78108, -788.92730713], [-120.79405, 43.77341, -1338.21313477], [-120.78814, 43.77669, -583.4630127], [-120.79678, 43.78108, -788.92730713]]], [[[-120.79678, 43.78108, -788.92730713], [-120.78814, 43.77669, -583.4630127], [-120.78702, 43.78244, -12.58438492], [-120.79678, 43.78108, -788.92730713]]], [[[-120.77847, 43.78251, 686.89886475], [-120.76923, 43.78249, 1424.16235352], [-120.77675, 43.78975, 1423.06066895], [-120.77847, 43.78251, 686.89886475]]], [[[-120.77832, 43.77419, -26.09013748], [-120.7699, 43.77621, 752.20489502], [-120.77847, 43.78251, 686.89886475], [-120.77832, 43.77419, -26.09013748]]], [[[-120.84422, 43.79493, -2201.97045898], [-120.8399, 43.78573, -2829.24926758], [-120.83449, 43.78964, -2073.19970703], [-120.84422, 43.79493, -2201.97045898]]], [[[-120.7888, 43.76509, -1650.01831055], [-120.79926, 43.76935, -2099.24047852], [-120.79402, 43.76096, -2420.11816406], [-120.7888, 43.76509, -1650.01831055]]], [[[-120.80448, 43.76514, -2873.71337891], [-120.79402, 43.76096, -2420.11816406], [-120.79926, 43.76935, -2099.24047852], [-120.80448, 43.76514, -2873.71337891]]], [[[-120.79402, 43.76096, -2420.11816406], [-120.79925, 43.75683, -3190.21777344], [-120.78816, 43.75309, -2794.03540039], [-120.79402, 43.76096, -2420.11816406]]], [[[-120.87264, 43.79741, -3940.71948242], [-120.88363, 43.80134, -4349.2265625], [-120.87781, 43.7933, -4700.61962891], [-120.87264, 43.79741, -3940.71948242]]], [[[-120.79402, 43.76096, -2420.11816406], [-120.78816, 43.75309, -2794.03540039], [-120.78293, 43.75723, -2024.32678223], [-120.79402, 43.76096, -2420.11816406]]], [[[-120.78816, 43.75309, -2794.03540039], [-120.78241, 43.74519, -3161.49291992], [-120.77717, 43.74933, -2391.78442383], [-120.78816, 43.75309, -2794.03540039]]], [[[-120.7934, 43.74896, -3563.74414062], [-120.78241, 43.74519, -3161.49291992], [-120.78816, 43.75309, -2794.03540039], [-120.7934, 43.74896, -3563.74414062]]], [[[-120.80908, 43.73655, -5873.13964844], [-120.7981, 43.73279, -5470.61914062], [-120.80386, 43.74069, -5103.16162109], [-120.80908, 43.73655, -5873.13964844]]], [[[-120.80908, 43.73655, -5873.13964844], [-120.80333, 43.72865, -6240.32763672], [-120.7981, 43.73279, -5470.61914062], [-120.80908, 43.73655, -5873.13964844]]], [[[-120.82476, 43.72415, -8183.53808594], [-120.81901, 43.71624, -8549.45410156], [-120.81379, 43.72038, -7779.74511719], [-120.82476, 43.72415, -8183.53808594]]], [[[-120.83658, 43.72741, -8677.7421875], [-120.83735, 43.72012, -9461.13183594], [-120.82924, 43.71985, -8915.45996094], [-120.83658, 43.72741, -8677.7421875]]], [[[-120.87124, 43.75339, -8277.93261719], [-120.87455, 43.74901, -8987.62695312], [-120.86577, 43.74613, -8919.13867188], [-120.87124, 43.75339, -8277.93261719]]], [[[-120.87455, 43.74901, -8987.62695312], [-120.87124, 43.75339, -8277.93261719], [-120.88165, 43.75358, -8870.7265625], [-120.87455, 43.74901, -8987.62695312]]], [[[-120.87216, 43.76073, -7513.671875], [-120.86486, 43.76496, -6605.93554688], [-120.87427, 43.76775, -6933.04443359], [-120.87216, 43.76073, -7513.671875]]], [[[-120.88139, 43.7755, -6750.08203125], [-120.88979, 43.77279, -7581.8359375], [-120.8807, 43.7672, -7473.94091797], [-120.88139, 43.7755, -6750.08203125]]], [[[-120.89912, 43.78904, -6629.88769531], [-120.89329, 43.78096, -6982.91601562], [-120.88803, 43.7849, -6232.45019531], [-120.89912, 43.78904, -6629.88769531]]], [[[-120.88803, 43.7849, -6232.45019531], [-120.89396, 43.79314, -5869.66699219], [-120.89912, 43.78904, -6629.88769531], [-120.88803, 43.7849, -6232.45019531]]], [[[-120.87052, 43.77243, -6227.50048828], [-120.85979, 43.76949, -5805.79638672], [-120.86578, 43.77728, -5430.73339844], [-120.87052, 43.77243, -6227.50048828]]], [[[-120.85465, 43.77381, -5023.41992188], [-120.86031, 43.78132, -4649.99560547], [-120.86578, 43.77728, -5430.73339844], [-120.85465, 43.77381, -5023.41992188]]], [[[-120.8549, 43.78542, -3870.15673828], [-120.86644, 43.78958, -4322.80224609], [-120.86031, 43.78132, -4649.99560547], [-120.8549, 43.78542, -3870.15673828]]], [[[-120.8549, 43.78542, -3870.15673828], [-120.86128, 43.79368, -3562.59912109], [-120.86644, 43.78958, -4322.80224609], [-120.8549, 43.78542, -3870.15673828]]], [[[-120.8549, 43.78542, -3870.15673828], [-120.84458, 43.78186, -3534.17724609], [-120.84942, 43.78978, -3060.97167969], [-120.8549, 43.78542, -3870.15673828]]], [[[-120.84947, 43.77805, -4246.96826172], [-120.83863, 43.77548, -3951.56274414], [-120.84458, 43.78186, -3534.17724609], [-120.84947, 43.77805, -4246.96826172]]], [[[-120.84942, 43.78978, -3060.97167969], [-120.84422, 43.79493, -2201.97045898], [-120.85602, 43.79775, -2798.74829102], [-120.84942, 43.78978, -3060.97167969]]], [[[-120.84942, 43.78978, -3060.97167969], [-120.85602, 43.79775, -2798.74829102], [-120.86128, 43.79368, -3562.59912109], [-120.84942, 43.78978, -3060.97167969]]], [[[-120.86747, 43.80151, -3180.81958008], [-120.86128, 43.79368, -3562.59912109], [-120.85602, 43.79775, -2798.74829102], [-120.86747, 43.80151, -3180.81958008]]], [[[-120.86644, 43.78958, -4322.80224609], [-120.86128, 43.79368, -3562.59912109], [-120.87264, 43.79741, -3940.71948242], [-120.86644, 43.78958, -4322.80224609]]], [[[-120.87161, 43.78548, -5083.00537109], [-120.86644, 43.78958, -4322.80224609], [-120.87781, 43.7933, -4700.61962891], [-120.87161, 43.78548, -5083.00537109]]], [[[-120.86578, 43.77728, -5430.73339844], [-120.86031, 43.78132, -4649.99560547], [-120.87161, 43.78548, -5083.00537109], [-120.86578, 43.77728, -5430.73339844]]], [[[-120.87161, 43.78548, -5083.00537109], [-120.87781, 43.7933, -4700.61962891], [-120.88298, 43.7892, -5460.51904297], [-120.87161, 43.78548, -5083.00537109]]], [[[-120.85602, 43.79775, -2798.74829102], [-120.8622, 43.80562, -2412.77832031], [-120.86747, 43.80151, -3180.81958008], [-120.85602, 43.79775, -2798.74829102]]], [[[-120.85602, 43.79775, -2798.74829102], [-120.85174, 43.80229, -2052.00317383], [-120.8622, 43.80562, -2412.77832031], [-120.85602, 43.79775, -2798.74829102]]], [[[-120.8399, 43.78573, -2829.24926758], [-120.82847, 43.78376, -2426.93481445], [-120.83449, 43.78964, -2073.19970703], [-120.8399, 43.78573, -2829.24926758]]], [[[-120.8399, 43.78573, -2829.24926758], [-120.83367, 43.77934, -3229.37646484], [-120.82847, 43.78376, -2426.93481445], [-120.8399, 43.78573, -2829.24926758]]], [[[-120.83367, 43.77934, -3229.37646484], [-120.82713, 43.77266, -3653.88452148], [-120.82182, 43.77677, -2881.05175781], [-120.83367, 43.77934, -3229.37646484]]], [[[-120.8375, 43.76435, -5191.03466797], [-120.82607, 43.76065, -4811.76171875], [-120.83226, 43.76851, -4417.84570312], [-120.8375, 43.76435, -5191.03466797]]], [[[-120.8375, 43.76435, -5191.03466797], [-120.8313, 43.75651, -5581.84033203], [-120.82607, 43.76065, -4811.76171875], [-120.8375, 43.76435, -5191.03466797]]], [[[-120.84264, 43.76, -5976.85351562], [-120.8313, 43.75651, -5581.84033203], [-120.8375, 43.76435, -5191.03466797], [-120.84264, 43.76, -5976.85351562]]], [[[-120.84264, 43.76, -5976.85351562], [-120.83689, 43.75208, -6404.56494141], [-120.8313, 43.75651, -5581.84033203], [-120.84264, 43.76, -5976.85351562]]], [[[-120.84755, 43.75562, -6750.30419922], [-120.83689, 43.75208, -6404.56494141], [-120.84264, 43.76, -5976.85351562], [-120.84755, 43.75562, -6750.30419922]]], [[[-120.84755, 43.75562, -6750.30419922], [-120.84409, 43.7477, -7328.89794922], [-120.83689, 43.75208, -6404.56494141], [-120.84755, 43.75562, -6750.30419922]]], [[[-120.85392, 43.75303, -7437.02539062], [-120.84409, 43.7477, -7328.89794922], [-120.84755, 43.75562, -6750.30419922], [-120.85392, 43.75303, -7437.02539062]]], [[[-120.85392, 43.75303, -7437.02539062], [-120.85681, 43.74779, -8165.23779297], [-120.84409, 43.7477, -7328.89794922], [-120.85392, 43.75303, -7437.02539062]]], [[[-120.86351, 43.75546, -7652.75537109], [-120.85681, 43.74779, -8165.23779297], [-120.85392, 43.75303, -7437.02539062], [-120.86351, 43.75546, -7652.75537109]]], [[[-120.87124, 43.75339, -8277.93261719], [-120.85681, 43.74779, -8165.23779297], [-120.86351, 43.75546, -7652.75537109], [-120.87124, 43.75339, -8277.93261719]]], [[[-120.87124, 43.75339, -8277.93261719], [-120.86577, 43.74613, -8919.13867188], [-120.85681, 43.74779, -8165.23779297], [-120.87124, 43.75339, -8277.93261719]]], [[[-120.86577, 43.74613, -8919.13867188], [-120.85562, 43.74045, -8837.76074219], [-120.85681, 43.74779, -8165.23779297], [-120.86577, 43.74613, -8919.13867188]]], [[[-120.85681, 43.74779, -8165.23779297], [-120.85562, 43.74045, -8837.76074219], [-120.84627, 43.7414, -8121.99902344], [-120.85681, 43.74779, -8165.23779297]]], [[[-120.84409, 43.7477, -7328.89794922], [-120.85681, 43.74779, -8165.23779297], [-120.84627, 43.7414, -8121.99902344], [-120.84409, 43.7477, -7328.89794922]]], [[[-120.83583, 43.74036, -7482.07714844], [-120.84409, 43.7477, -7328.89794922], [-120.84627, 43.7414, -8121.99902344], [-120.83583, 43.74036, -7482.07714844]]], [[[-120.84409, 43.7477, -7328.89794922], [-120.83583, 43.74036, -7482.07714844], [-120.83096, 43.74451, -6741.11328125], [-120.84409, 43.7477, -7328.89794922]]], [[[-120.83096, 43.74451, -6741.11328125], [-120.83689, 43.75208, -6404.56494141], [-120.84409, 43.7477, -7328.89794922], [-120.83096, 43.74451, -6741.11328125]]], [[[-120.83689, 43.75208, -6404.56494141], [-120.83096, 43.74451, -6741.11328125], [-120.82541, 43.74858, -5951.625], [-120.83689, 43.75208, -6404.56494141]]], [[[-120.82541, 43.74858, -5951.625], [-120.8313, 43.75651, -5581.84033203], [-120.83689, 43.75208, -6404.56494141], [-120.82541, 43.74858, -5951.625]]], [[[-120.8313, 43.75651, -5581.84033203], [-120.82541, 43.74858, -5951.625], [-120.82018, 43.75272, -5182.14697266], [-120.8313, 43.75651, -5581.84033203]]], [[[-120.82018, 43.75272, -5182.14697266], [-120.82607, 43.76065, -4811.76171875], [-120.8313, 43.75651, -5581.84033203], [-120.82018, 43.75272, -5182.14697266]]], [[[-120.82607, 43.76065, -4811.76171875], [-120.82018, 43.75272, -5182.14697266], [-120.81495, 43.75686, -4412.66894531], [-120.82607, 43.76065, -4811.76171875]]], [[[-120.81495, 43.75686, -4412.66894531], [-120.82084, 43.76479, -4042.2512207], [-120.82607, 43.76065, -4811.76171875], [-120.81495, 43.75686, -4412.66894531]]], [[[-120.82084, 43.76479, -4042.2512207], [-120.81495, 43.75686, -4412.66894531], [-120.80971, 43.761, -3643.19116211], [-120.82084, 43.76479, -4042.2512207]]], [[[-120.8156, 43.76893, -3272.74121094], [-120.82084, 43.76479, -4042.2512207], [-120.80971, 43.761, -3643.19116211], [-120.8156, 43.76893, -3272.74121094]]], [[[-120.8156, 43.76893, -3272.74121094], [-120.80971, 43.761, -3643.19116211], [-120.80448, 43.76514, -2873.71337891], [-120.8156, 43.76893, -3272.74121094]]], [[[-120.80971, 43.761, -3643.19116211], [-120.79925, 43.75683, -3190.21777344], [-120.80448, 43.76514, -2873.71337891], [-120.80971, 43.761, -3643.19116211]]], [[[-120.80971, 43.761, -3643.19116211], [-120.80448, 43.75269, -3960.31762695], [-120.79925, 43.75683, -3190.21777344], [-120.80971, 43.761, -3643.19116211]]], [[[-120.81495, 43.75686, -4412.66894531], [-120.80448, 43.75269, -3960.31762695], [-120.80971, 43.761, -3643.19116211], [-120.81495, 43.75686, -4412.66894531]]], [[[-120.81495, 43.75686, -4412.66894531], [-120.80971, 43.74856, -4730.41748047], [-120.80448, 43.75269, -3960.31762695], [-120.81495, 43.75686, -4412.66894531]]], [[[-120.82018, 43.75272, -5182.14697266], [-120.80971, 43.74856, -4730.41748047], [-120.81495, 43.75686, -4412.66894531], [-120.82018, 43.75272, -5182.14697266]]], [[[-120.82018, 43.75272, -5182.14697266], [-120.81493, 43.74443, -5500.51708984], [-120.80971, 43.74856, -4730.41748047], [-120.82018, 43.75272, -5182.14697266]]], [[[-120.82541, 43.74858, -5951.625], [-120.81493, 43.74443, -5500.51708984], [-120.82018, 43.75272, -5182.14697266], [-120.82541, 43.74858, -5951.625]]], [[[-120.82541, 43.74858, -5951.625], [-120.82016, 43.74029, -6270.6171875], [-120.81493, 43.74443, -5500.51708984], [-120.82541, 43.74858, -5951.625]]], [[[-120.83096, 43.74451, -6741.11328125], [-120.82016, 43.74029, -6270.6171875], [-120.82541, 43.74858, -5951.625], [-120.83096, 43.74451, -6741.11328125]]], [[[-120.83096, 43.74451, -6741.11328125], [-120.82538, 43.73616, -7040.71679688], [-120.82016, 43.74029, -6270.6171875], [-120.83096, 43.74451, -6741.11328125]]], [[[-120.83096, 43.74451, -6741.11328125], [-120.83583, 43.74036, -7482.07714844], [-120.82538, 43.73616, -7040.71679688], [-120.83096, 43.74451, -6741.11328125]]], [[[-120.83583, 43.74036, -7482.07714844], [-120.83002, 43.73163, -7810.85693359], [-120.82538, 43.73616, -7040.71679688], [-120.83583, 43.74036, -7482.07714844]]], [[[-120.83583, 43.74036, -7482.07714844], [-120.83827, 43.73504, -8119.19433594], [-120.83002, 43.73163, -7810.85693359], [-120.83583, 43.74036, -7482.07714844]]], [[[-120.83583, 43.74036, -7482.07714844], [-120.84627, 43.7414, -8121.99902344], [-120.83827, 43.73504, -8119.19433594], [-120.83583, 43.74036, -7482.07714844]]], [[[-120.84627, 43.7414, -8121.99902344], [-120.84579, 43.73404, -8819.57324219], [-120.83827, 43.73504, -8119.19433594], [-120.84627, 43.7414, -8121.99902344]]], [[[-120.84579, 43.73404, -8819.57324219], [-120.84627, 43.7414, -8121.99902344], [-120.85562, 43.74045, -8837.76074219], [-120.84579, 43.73404, -8819.57324219]]], [[[-120.83827, 43.73504, -8119.19433594], [-120.84579, 43.73404, -8819.57324219], [-120.83658, 43.72741, -8677.7421875], [-120.83827, 43.73504, -8119.19433594]]], [[[-120.83827, 43.73504, -8119.19433594], [-120.83658, 43.72741, -8677.7421875], [-120.83002, 43.73163, -7810.85693359], [-120.83827, 43.73504, -8119.19433594]]], [[[-120.82476, 43.72415, -8183.53808594], [-120.83002, 43.73163, -7810.85693359], [-120.83658, 43.72741, -8677.7421875], [-120.82476, 43.72415, -8183.53808594]]], [[[-120.83002, 43.73163, -7810.85693359], [-120.82476, 43.72415, -8183.53808594], [-120.81953, 43.72828, -7413.40527344], [-120.83002, 43.73163, -7810.85693359]]], [[[-120.82538, 43.73616, -7040.71679688], [-120.83002, 43.73163, -7810.85693359], [-120.81953, 43.72828, -7413.40527344], [-120.82538, 43.73616, -7040.71679688]]], [[[-120.82538, 43.73616, -7040.71679688], [-120.81953, 43.72828, -7413.40527344], [-120.81431, 43.73242, -6643.27246094], [-120.82538, 43.73616, -7040.71679688]]], [[[-120.81431, 43.73242, -6643.27246094], [-120.82016, 43.74029, -6270.6171875], [-120.82538, 43.73616, -7040.71679688], [-120.81431, 43.73242, -6643.27246094]]], [[[-120.82016, 43.74029, -6270.6171875], [-120.81431, 43.73242, -6643.27246094], [-120.80908, 43.73655, -5873.13964844], [-120.82016, 43.74029, -6270.6171875]]], [[[-120.81493, 43.74443, -5500.51708984], [-120.82016, 43.74029, -6270.6171875], [-120.80908, 43.73655, -5873.13964844], [-120.81493, 43.74443, -5500.51708984]]], [[[-120.81493, 43.74443, -5500.51708984], [-120.80908, 43.73655, -5873.13964844], [-120.80386, 43.74069, -5103.16162109], [-120.81493, 43.74443, -5500.51708984]]], [[[-120.80971, 43.74856, -4730.41748047], [-120.81493, 43.74443, -5500.51708984], [-120.80386, 43.74069, -5103.16162109], [-120.80971, 43.74856, -4730.41748047]]], [[[-120.80971, 43.74856, -4730.41748047], [-120.80386, 43.74069, -5103.16162109], [-120.79863, 43.74482, -4333.45263672], [-120.80971, 43.74856, -4730.41748047]]], [[[-120.80448, 43.75269, -3960.31762695], [-120.80971, 43.74856, -4730.41748047], [-120.79863, 43.74482, -4333.45263672], [-120.80448, 43.75269, -3960.31762695]]], [[[-120.80448, 43.75269, -3960.31762695], [-120.79863, 43.74482, -4333.45263672], [-120.7934, 43.74896, -3563.74414062], [-120.80448, 43.75269, -3960.31762695]]], [[[-120.79925, 43.75683, -3190.21777344], [-120.80448, 43.75269, -3960.31762695], [-120.7934, 43.74896, -3563.74414062], [-120.79925, 43.75683, -3190.21777344]]], [[[-120.79925, 43.75683, -3190.21777344], [-120.7934, 43.74896, -3563.74414062], [-120.78816, 43.75309, -2794.03540039], [-120.79925, 43.75683, -3190.21777344]]], [[[-120.86351, 43.75546, -7652.75537109], [-120.85392, 43.75303, -7437.02539062], [-120.85765, 43.75883, -6950.22265625], [-120.86351, 43.75546, -7652.75537109]]], [[[-120.86351, 43.75546, -7652.75537109], [-120.85765, 43.75883, -6950.22265625], [-120.86475, 43.76019, -7113.25146484], [-120.86351, 43.75546, -7652.75537109]]], [[[-120.85392, 43.75303, -7437.02539062], [-120.84755, 43.75562, -6750.30419922], [-120.85765, 43.75883, -6950.22265625], [-120.85392, 43.75303, -7437.02539062]]], [[[-120.84755, 43.75562, -6750.30419922], [-120.85362, 43.76271, -6270.00488281], [-120.85765, 43.75883, -6950.22265625], [-120.84755, 43.75562, -6750.30419922]]], [[[-120.85362, 43.76271, -6270.00488281], [-120.84755, 43.75562, -6750.30419922], [-120.84264, 43.76, -5976.85351562], [-120.85362, 43.76271, -6270.00488281]]], [[[-120.85362, 43.76271, -6270.00488281], [-120.84264, 43.76, -5976.85351562], [-120.8491, 43.7672, -5491.14160156], [-120.85362, 43.76271, -6270.00488281]]], [[[-120.85362, 43.76271, -6270.00488281], [-120.8491, 43.7672, -5491.14160156], [-120.85979, 43.76949, -5805.79638672], [-120.85362, 43.76271, -6270.00488281]]], [[[-120.85465, 43.77381, -5023.41992188], [-120.85979, 43.76949, -5805.79638672], [-120.8491, 43.7672, -5491.14160156], [-120.85465, 43.77381, -5023.41992188]]], [[[-120.8491, 43.7672, -5491.14160156], [-120.84264, 43.76, -5976.85351562], [-120.8375, 43.76435, -5191.03466797], [-120.8491, 43.7672, -5491.14160156]]], [[[-120.87427, 43.76775, -6933.04443359], [-120.87052, 43.77243, -6227.50048828], [-120.88139, 43.7755, -6750.08203125], [-120.87427, 43.76775, -6933.04443359]]], [[[-120.87427, 43.76775, -6933.04443359], [-120.88139, 43.7755, -6750.08203125], [-120.8807, 43.7672, -7473.94091797], [-120.87427, 43.76775, -6933.04443359]]], [[[-120.87429, 43.74369, -9645.39941406], [-120.87366, 43.7374, -10342.07910156], [-120.86468, 43.73896, -9590.46582031], [-120.87429, 43.74369, -9645.39941406]]], [[[-120.87429, 43.74369, -9645.39941406], [-120.883, 43.7411, -10384.91699219], [-120.87366, 43.7374, -10342.07910156], [-120.87429, 43.74369, -9645.39941406]]], [[[-120.86468, 43.73896, -9590.46582031], [-120.87366, 43.7374, -10342.07910156], [-120.86436, 43.73186, -10293.94140625], [-120.86468, 43.73896, -9590.46582031]]], [[[-120.85531, 43.73334, -9546.15136719], [-120.86468, 43.73896, -9590.46582031], [-120.86436, 43.73186, -10293.94140625], [-120.85531, 43.73334, -9546.15136719]]], [[[-120.85531, 43.73334, -9546.15136719], [-120.86436, 43.73186, -10293.94140625], [-120.85525, 43.72619, -10241.8671875], [-120.85531, 43.73334, -9546.15136719]]], [[[-120.85531, 43.73334, -9546.15136719], [-120.85525, 43.72619, -10241.8671875], [-120.84632, 43.72661, -9473.28417969], [-120.85531, 43.73334, -9546.15136719]]], [[[-120.84632, 43.72661, -9473.28417969], [-120.85525, 43.72619, -10241.8671875], [-120.84743, 43.7196, -10192.73242188], [-120.84632, 43.72661, -9473.28417969]]], [[[-120.83735, 43.72012, -9461.13183594], [-120.84632, 43.72661, -9473.28417969], [-120.84743, 43.7196, -10192.73242188], [-120.83735, 43.72012, -9461.13183594]]], [[[-120.83735, 43.72012, -9461.13183594], [-120.84743, 43.7196, -10192.73242188], [-120.83833, 43.71388, -10140.56738281], [-120.83735, 43.72012, -9461.13183594]]], [[[-120.83735, 43.72012, -9461.13183594], [-120.83833, 43.71388, -10140.56738281], [-120.8313, 43.71298, -9728.18945312], [-120.83735, 43.72012, -9461.13183594]]], [[[-120.83735, 43.72012, -9461.13183594], [-120.8313, 43.71298, -9728.18945312], [-120.82924, 43.71985, -8915.45996094], [-120.83735, 43.72012, -9461.13183594]]], [[[-120.82424, 43.71211, -9319.16210938], [-120.82924, 43.71985, -8915.45996094], [-120.8313, 43.71298, -9728.18945312], [-120.82424, 43.71211, -9319.16210938]]], [[[-120.82924, 43.71985, -8915.45996094], [-120.82424, 43.71211, -9319.16210938], [-120.81901, 43.71624, -8549.45410156], [-120.82924, 43.71985, -8915.45996094]]], [[[-120.82424, 43.71211, -9319.16210938], [-120.8313, 43.71298, -9728.18945312], [-120.82947, 43.70797, -10088.87109375], [-120.82424, 43.71211, -9319.16210938]]], [[[-120.8313, 43.71298, -9728.18945312], [-120.83833, 43.71388, -10140.56738281], [-120.82947, 43.70797, -10088.87109375], [-120.8313, 43.71298, -9728.18945312]]], [[[-120.78293, 43.75723, -2024.32678223], [-120.77717, 43.74933, -2391.78442383], [-120.77194, 43.75346, -1622.07568359], [-120.78293, 43.75723, -2024.32678223]]], [[[-120.7777, 43.76136, -1254.61816406], [-120.78293, 43.75723, -2024.32678223], [-120.77194, 43.75346, -1622.07568359], [-120.7777, 43.76136, -1254.61816406]]], [[[-120.7777, 43.76136, -1254.61816406], [-120.77194, 43.75346, -1622.07568359], [-120.76671, 43.7576, -852.36700439], [-120.7777, 43.76136, -1254.61816406]]], [[[-120.77249, 43.76563, -473.39956665], [-120.7777, 43.76136, -1254.61816406], [-120.76671, 43.7576, -852.36700439], [-120.77249, 43.76563, -473.39956665]]], [[[-120.77249, 43.76563, -473.39956665], [-120.76671, 43.7576, -852.36700439], [-120.76147, 43.76173, -82.65831757], [-120.77249, 43.76563, -473.39956665]]], [[[-120.76644, 43.76984, 359.83224487], [-120.77249, 43.76563, -473.39956665], [-120.76147, 43.76173, -82.65831757], [-120.76644, 43.76984, 359.83224487]]], [[[-120.76644, 43.76984, 359.83224487], [-120.76147, 43.76173, -82.65831757], [-120.75624, 43.76587, 687.050354], [-120.76644, 43.76984, 359.83224487]]], [[[-120.76644, 43.76984, 359.83224487], [-120.75624, 43.76587, 687.050354], [-120.75813, 43.77109, 1064.07580566], [-120.76644, 43.76984, 359.83224487]]], [[[-120.76644, 43.76984, 359.83224487], [-120.75813, 43.77109, 1064.07580566], [-120.76002, 43.77631, 1441.10131836], [-120.76644, 43.76984, 359.83224487]]], [[[-120.7699, 43.77621, 752.20489502], [-120.76644, 43.76984, 359.83224487], [-120.76002, 43.77631, 1441.10131836], [-120.7699, 43.77621, 752.20489502]]], [[[-120.7699, 43.77621, 752.20489502], [-120.76002, 43.77631, 1441.10131836], [-120.76923, 43.78249, 1424.16235352], [-120.7699, 43.77621, 752.20489502]]], [[[-120.751, 43.77, 1456.7590332], [-120.76002, 43.77631, 1441.10131836], [-120.75813, 43.77109, 1064.07580566], [-120.751, 43.77, 1456.7590332]]], [[[-120.751, 43.77, 1456.7590332], [-120.75813, 43.77109, 1064.07580566], [-120.75624, 43.76587, 687.050354], [-120.751, 43.77, 1456.7590332]]], [[[-120.77832, 43.77419, -26.09013748], [-120.78814, 43.77669, -583.4630127], [-120.78361, 43.76924, -881.1461792], [-120.77832, 43.77419, -26.09013748]]], [[[-120.78814, 43.77669, -583.4630127], [-120.77832, 43.77419, -26.09013748], [-120.78702, 43.78244, -12.58438492], [-120.78814, 43.77669, -583.4630127]]], [[[-120.77832, 43.77419, -26.09013748], [-120.77847, 43.78251, 686.89886475], [-120.78702, 43.78244, -12.58438492], [-120.77832, 43.77419, -26.09013748]]], [[[-120.78651, 43.78915, 715.35498047], [-120.78702, 43.78244, -12.58438492], [-120.77847, 43.78251, 686.89886475], [-120.78651, 43.78915, 715.35498047]]], [[[-120.78591, 43.79594, 1458.04772949], [-120.79556, 43.80174, 1412.6315918], [-120.79508, 43.79458, 712.27703857], [-120.78591, 43.79594, 1458.04772949]]], [[[-120.81361, 43.79129, -773.53857422], [-120.80415, 43.79284, -66.39566803], [-120.81482, 43.79784, -7.38666725], [-120.81361, 43.79129, -773.53857422]]], [[[-120.82483, 43.79698, -685.35302734], [-120.81361, 43.79129, -773.53857422], [-120.81482, 43.79784, -7.38666725], [-120.82483, 43.79698, -685.35302734]]], [[[-120.82483, 43.79698, -685.35302734], [-120.81482, 43.79784, -7.38666725], [-120.82622, 43.80425, 3.4458189], [-120.82483, 43.79698, -685.35302734]]], [[[-120.82483, 43.79698, -685.35302734], [-120.82622, 43.80425, 3.4458189], [-120.83559, 43.80388, -741.3861084], [-120.82483, 43.79698, -685.35302734]]], [[[-120.83559, 43.80388, -741.3861084], [-120.82622, 43.80425, 3.4458189], [-120.8351, 43.81111, -51.98297119], [-120.83559, 43.80388, -741.3861084]]], [[[-120.83559, 43.80388, -741.3861084], [-120.8351, 43.81111, -51.98297119], [-120.84487, 43.81021, -788.41796875], [-120.83559, 43.80388, -741.3861084]]], [[[-120.84487, 43.81021, -788.41796875], [-120.8351, 43.81111, -51.98297119], [-120.84357, 43.8168, -27.28498268], [-120.84487, 43.81021, -788.41796875]]], [[[-120.84487, 43.81021, -788.41796875], [-120.84357, 43.8168, -27.28498268], [-120.8531, 43.81603, -765.7845459], [-120.84487, 43.81021, -788.41796875]]], [[[-120.8342, 43.81793, 705.92791748], [-120.84357, 43.8168, -27.28498268], [-120.8351, 43.81111, -51.98297119], [-120.8342, 43.81793, 705.92791748]]], [[[-120.84357, 43.8168, -27.28498268], [-120.8342, 43.81793, 705.92791748], [-120.84291, 43.82374, 695.831604], [-120.84357, 43.8168, -27.28498268]]], [[[-120.8351, 43.81111, -51.98297119], [-120.82611, 43.81176, 689.2835083], [-120.8342, 43.81793, 705.92791748], [-120.8351, 43.81111, -51.98297119]]], [[[-120.8351, 43.81111, -51.98297119], [-120.82622, 43.80425, 3.4458189], [-120.82611, 43.81176, 689.2835083], [-120.8351, 43.81111, -51.98297119]]], [[[-120.82622, 43.80425, 3.4458189], [-120.81628, 43.80473, 675.69067383], [-120.82611, 43.81176, 689.2835083], [-120.82622, 43.80425, 3.4458189]]], [[[-120.80415, 43.79284, -66.39566803], [-120.80458, 43.79934, 668.07617188], [-120.81482, 43.79784, -7.38666725], [-120.80415, 43.79284, -66.39566803]]], [[[-120.86223, 43.83711, 687.43365479], [-120.86876, 43.84405, 1010.45159912], [-120.87071, 43.83736, 193.74452209], [-120.86223, 43.83711, 687.43365479]]], [[[-120.88135, 43.84079, -143.71372986], [-120.88653, 43.83668, -903.17114258], [-120.87521, 43.83314, -534.66027832], [-120.88135, 43.84079, -143.71372986]]], [[[-120.88039, 43.82904, -1294.39648438], [-120.87521, 43.83314, -534.66027832], [-120.88653, 43.83668, -903.17114258], [-120.88039, 43.82904, -1294.39648438]]], [[[-120.88039, 43.82904, -1294.39648438], [-120.88653, 43.83668, -903.17114258], [-120.8917, 43.83258, -1662.62854004], [-120.88039, 43.82904, -1294.39648438]]], [[[-120.88039, 43.82904, -1294.39648438], [-120.8917, 43.83258, -1662.62854004], [-120.88556, 43.82493, -2054.06762695], [-120.88039, 43.82904, -1294.39648438]]], [[[-120.88556, 43.82493, -2054.06762695], [-120.8917, 43.83258, -1662.62854004], [-120.89688, 43.82847, -2422.0859375], [-120.88556, 43.82493, -2054.06762695]]], [[[-120.89073, 43.82083, -2813.73876953], [-120.88556, 43.82493, -2054.06762695], [-120.89688, 43.82847, -2422.0859375], [-120.89073, 43.82083, -2813.73876953]]], [[[-120.89073, 43.82083, -2813.73876953], [-120.89688, 43.82847, -2422.0859375], [-120.90205, 43.82437, -3181.54321289], [-120.89073, 43.82083, -2813.73876953]]], [[[-120.8959, 43.81673, -3573.40991211], [-120.89073, 43.82083, -2813.73876953], [-120.90205, 43.82437, -3181.54321289], [-120.8959, 43.81673, -3573.40991211]]], [[[-120.8959, 43.81673, -3573.40991211], [-120.90205, 43.82437, -3181.54321289], [-120.90722, 43.82026, -3941.00073242], [-120.8959, 43.81673, -3573.40991211]]], [[[-120.90107, 43.81262, -4333.08105469], [-120.8959, 43.81673, -3573.40991211], [-120.90722, 43.82026, -3941.00073242], [-120.90107, 43.81262, -4333.08105469]]], [[[-120.88945, 43.80931, -3993.88647461], [-120.8959, 43.81673, -3573.40991211], [-120.90107, 43.81262, -4333.08105469], [-120.88945, 43.80931, -3993.88647461]]], [[[-120.89461, 43.80521, -4753.94189453], [-120.90107, 43.81262, -4333.08105469], [-120.90624, 43.80852, -5092.75244141], [-120.89461, 43.80521, -4753.94189453]]], [[[-120.89978, 43.80111, -5513.99707031], [-120.89461, 43.80521, -4753.94189453], [-120.90624, 43.80852, -5092.75244141], [-120.89978, 43.80111, -5513.99707031]]], [[[-120.89978, 43.80111, -5513.99707031], [-120.90624, 43.80852, -5092.75244141], [-120.91141, 43.80441, -5852.42382812], [-120.89978, 43.80111, -5513.99707031]]], [[[-120.91141, 43.80441, -5852.42382812], [-120.90494, 43.79701, -6274.05224609], [-120.89978, 43.80111, -5513.99707031], [-120.91141, 43.80441, -5852.42382812]]], [[[-120.90494, 43.79701, -6274.05224609], [-120.91141, 43.80441, -5852.42382812], [-120.91658, 43.80031, -6612.09472656], [-120.90494, 43.79701, -6274.05224609]]], [[[-120.91011, 43.79291, -7034.10742188], [-120.90494, 43.79701, -6274.05224609], [-120.91658, 43.80031, -6612.09472656], [-120.91011, 43.79291, -7034.10742188]]], [[[-120.91011, 43.79291, -7034.10742188], [-120.91658, 43.80031, -6612.09472656], [-120.92174, 43.7962, -7371.76611328], [-120.91011, 43.79291, -7034.10742188]]], [[[-120.91518, 43.78862, -7809.25683594], [-120.92174, 43.7962, -7371.76611328], [-120.92691, 43.7921, -8131.43701172], [-120.91518, 43.78862, -7809.25683594]]], [[[-120.92036, 43.7846, -8560.44824219], [-120.91518, 43.78862, -7809.25683594], [-120.92691, 43.7921, -8131.43701172], [-120.92036, 43.7846, -8560.44824219]]], [[[-120.92036, 43.7846, -8560.44824219], [-120.92691, 43.7921, -8131.43701172], [-120.93216, 43.78798, -8897.28808594], [-120.92036, 43.7846, -8560.44824219]]], [[[-120.92589, 43.78115, -9272.09179688], [-120.92036, 43.7846, -8560.44824219], [-120.93216, 43.78798, -8897.28808594], [-120.92589, 43.78115, -9272.09179688]]], [[[-120.92589, 43.78115, -9272.09179688], [-120.91658, 43.77576, -9147.87695312], [-120.92036, 43.7846, -8560.44824219], [-120.92589, 43.78115, -9272.09179688]]], [[[-120.91658, 43.77576, -9147.87695312], [-120.92589, 43.78115, -9272.09179688], [-120.92574, 43.77462, -9930.37695312], [-120.91658, 43.77576, -9147.87695312]]], [[[-120.91658, 43.77576, -9147.87695312], [-120.92574, 43.77462, -9930.37695312], [-120.91655, 43.76808, -9862.54980469], [-120.91658, 43.77576, -9147.87695312]]], [[[-120.92574, 43.77462, -9930.37695312], [-120.92557, 43.76698, -10622.33886719], [-120.91655, 43.76808, -9862.54980469], [-120.92574, 43.77462, -9930.37695312]]], [[[-120.92574, 43.77462, -9930.37695312], [-120.9343, 43.77298, -10673.36914062], [-120.92557, 43.76698, -10622.33886719], [-120.92574, 43.77462, -9930.37695312]]], [[[-120.92589, 43.78115, -9272.09179688], [-120.93216, 43.78798, -8897.28808594], [-120.93697, 43.78231, -9799.5859375], [-120.92589, 43.78115, -9272.09179688]]], [[[-120.93216, 43.78798, -8897.28808594], [-120.94341, 43.79151, -9257.20214844], [-120.93697, 43.78231, -9799.5859375], [-120.93216, 43.78798, -8897.28808594]]], [[[-120.93216, 43.78798, -8897.28808594], [-120.93824, 43.79562, -8497.74511719], [-120.94341, 43.79151, -9257.20214844], [-120.93216, 43.78798, -8897.28808594]]], [[[-120.92691, 43.7921, -8131.43701172], [-120.93824, 43.79562, -8497.74511719], [-120.93216, 43.78798, -8897.28808594], [-120.92691, 43.7921, -8131.43701172]]], [[[-120.92691, 43.7921, -8131.43701172], [-120.93308, 43.79972, -7738.28759766], [-120.93824, 43.79562, -8497.74511719], [-120.92691, 43.7921, -8131.43701172]]], [[[-120.92174, 43.7962, -7371.76611328], [-120.93308, 43.79972, -7738.28759766], [-120.92691, 43.7921, -8131.43701172], [-120.92174, 43.7962, -7371.76611328]]], [[[-120.92174, 43.7962, -7371.76611328], [-120.92791, 43.80383, -6978.83007812], [-120.93308, 43.79972, -7738.28759766], [-120.92174, 43.7962, -7371.76611328]]], [[[-120.91658, 43.80031, -6612.09472656], [-120.92791, 43.80383, -6978.83007812], [-120.92174, 43.7962, -7371.76611328], [-120.91658, 43.80031, -6612.09472656]]], [[[-120.91658, 43.80031, -6612.09472656], [-120.92274, 43.80794, -6219.37304688], [-120.92791, 43.80383, -6978.83007812], [-120.91658, 43.80031, -6612.09472656]]], [[[-120.91141, 43.80441, -5852.42382812], [-120.91757, 43.81205, -5459.91552734], [-120.92274, 43.80794, -6219.37304688], [-120.91141, 43.80441, -5852.42382812]]], [[[-120.90624, 43.80852, -5092.75244141], [-120.91757, 43.81205, -5459.91552734], [-120.91141, 43.80441, -5852.42382812], [-120.90624, 43.80852, -5092.75244141]]], [[[-120.90624, 43.80852, -5092.75244141], [-120.91239, 43.81615, -4700.45800781], [-120.91757, 43.81205, -5459.91552734], [-120.90624, 43.80852, -5092.75244141]]], [[[-120.90624, 43.80852, -5092.75244141], [-120.90107, 43.81262, -4333.08105469], [-120.91239, 43.81615, -4700.45800781], [-120.90624, 43.80852, -5092.75244141]]], [[[-120.90107, 43.81262, -4333.08105469], [-120.90722, 43.82026, -3941.00073242], [-120.91239, 43.81615, -4700.45800781], [-120.90107, 43.81262, -4333.08105469]]], [[[-120.94341, 43.79151, -9257.20214844], [-120.94858, 43.7874, -10016.66015625], [-120.93697, 43.78231, -9799.5859375], [-120.94341, 43.79151, -9257.20214844]]], [[[-120.93697, 43.78231, -9799.5859375], [-120.9464, 43.78266, -10372.59179688], [-120.94426, 43.7779, -10725.33007812], [-120.93697, 43.78231, -9799.5859375]]], [[[-120.93697, 43.78231, -9799.5859375], [-120.94426, 43.7779, -10725.33007812], [-120.9343, 43.77298, -10673.36914062], [-120.93697, 43.78231, -9799.5859375]]], [[[-120.9464, 43.78266, -10372.59179688], [-120.95374, 43.78329, -10776.1171875], [-120.94426, 43.7779, -10725.33007812], [-120.9464, 43.78266, -10372.59179688]]], [[[-120.94858, 43.7874, -10016.66015625], [-120.95374, 43.78329, -10776.1171875], [-120.9464, 43.78266, -10372.59179688], [-120.94858, 43.7874, -10016.66015625]]], [[[-120.91655, 43.76808, -9862.54980469], [-120.92557, 43.76698, -10622.33886719], [-120.91681, 43.76098, -10568.91796875], [-120.91655, 43.76808, -9862.54980469]]], [[[-120.90785, 43.7626, -9815.68261719], [-120.91655, 43.76808, -9862.54980469], [-120.91681, 43.76098, -10568.91796875], [-120.90785, 43.7626, -9815.68261719]]], [[[-120.90785, 43.7626, -9815.68261719], [-120.91681, 43.76098, -10568.91796875], [-120.90742, 43.75551, -10513.71777344], [-120.90785, 43.7626, -9815.68261719]]], [[[-120.89871, 43.75682, -9780.57421875], [-120.90785, 43.7626, -9815.68261719], [-120.90742, 43.75551, -10513.71777344], [-120.89871, 43.75682, -9780.57421875]]], [[[-120.89871, 43.76388, -9082.58203125], [-120.90785, 43.7626, -9815.68261719], [-120.89871, 43.75682, -9780.57421875], [-120.89871, 43.76388, -9082.58203125]]], [[[-120.89036, 43.75858, -8984.9375], [-120.89871, 43.75682, -9780.57421875], [-120.89106, 43.75147, -9694.64746094], [-120.89036, 43.75858, -8984.9375]]], [[[-120.89871, 43.75682, -9780.57421875], [-120.89891, 43.74938, -10462.09960938], [-120.89106, 43.75147, -9694.64746094], [-120.89871, 43.75682, -9780.57421875]]], [[[-120.89096, 43.74451, -10421.93164062], [-120.89106, 43.75147, -9694.64746094], [-120.89891, 43.74938, -10462.09960938], [-120.89096, 43.74451, -10421.93164062]]], [[[-120.86317, 43.81762, -1333.8145752], [-120.8531, 43.81603, -765.7845459], [-120.86078, 43.82268, -690.08776855], [-120.86317, 43.81762, -1333.8145752]]], [[[-120.86317, 43.81762, -1333.8145752], [-120.86078, 43.82268, -690.08776855], [-120.86941, 43.82606, -954.01708984], [-120.86317, 43.81762, -1333.8145752]]], [[[-120.86317, 43.81762, -1333.8145752], [-120.86941, 43.82606, -954.01708984], [-120.87394, 43.82161, -1713.72070312], [-120.86317, 43.81762, -1333.8145752]]]]}}]}