{"type": "FeatureCollection", "features": [{"type": "Feature", "properties": {"name": "Willapa", "CFM_ID": 204, "region": "Offshore_WAOR", "primary_state/province": "WA", "secondary_state/province": null, "avg_dip": 90, "dip_dir": "vertical", "rake": 0, "slip_sense": "Sinistral", "fault_level": 1, "NSHM23_sliprates": null, "QFFDAgeCatBin": "undifferentiated Quaternary", "QFFDAgeBin": "<1.6 million", "upper_depth": -1.6, "upper_depth_constraint": "bathymetry", "lower_depth": -7.8, "lower_depth_constraint": "megathrust", "3D_model_constraints": "trace extended at constant dip", "reference": "Ledeczi et al. (2024); Carbotte et al. (2023)", "nshm23_id": null, "lineage": null, "usgs_qffd_#": "596", "comments": null, "id": "204"}, "geometry": {"type": "MultiPolygon", "coordinates": [[[[-125.49357, 46.31853, -6272.470703125], [-125.48679, 46.31801, -5425.94091796875], [-125.49235, 46.3186, -4664.76904296875], [-125.49357, 46.31853, -6272.470703125]]], [[[-125.16739, 46.307, -6834.2509765625], [-125.1744, 46.30734, -7671.955078125], [-125.16159, 46.307, -7725.7080078125], [-125.16739, 46.307, -6834.2509765625]]], [[[-125.39836, 46.31164, -2834.56982421875], [-125.40481, 46.31214, -1969.2294921875], [-125.4111, 46.31262, -2838.379150390625], [-125.39836, 46.31164, -2834.56982421875]]], [[[-125.22445, 46.308, -3556.963134765625], [-125.21817, 46.3083, -2568.285400390625], [-125.23137, 46.308, -2644.570556640625], [-125.22445, 46.308, -3556.963134765625]]], [[[-125.3087, 46.30966, -2578.06494140625], [-125.29591, 46.30901, -2559.050048828125], [-125.30253, 46.30919, -1702.880859375], [-125.3087, 46.30966, -2578.06494140625]]], [[[-125.54318, 46.312, -6143.90966796875], [-125.54959, 46.312, -5633.44482421875], [-125.556, 46.312, -6108.1220703125], [-125.54318, 46.312, -6143.90966796875]]], [[[-125.37285, 46.30968, -2838.331787109375], [-125.37928, 46.31018, -1962.7530517578125], [-125.38561, 46.31066, -2830.923828125], [-125.37285, 46.30968, -2838.331787109375]]], [[[-125.50761, 46.31573, -3600.78076171875], [-125.50043, 46.31729, -2729.58349609375], [-125.51266, 46.31489, -2695.5908203125], [-125.50761, 46.31573, -3600.78076171875]]], [[[-125.37285, 46.30968, -2838.331787109375], [-125.36652, 46.30919, -1959.514892578125], [-125.37928, 46.31018, -1962.7530517578125], [-125.37285, 46.30968, -2838.331787109375]]], [[[-125.14242, 46.306, -7282.4404296875], [-125.1488, 46.30637, -7771.07861328125], [-125.136, 46.306, -7822.123046875], [-125.14242, 46.306, -7282.4404296875]]], [[[-125.34628, 46.30904, -5947.56201171875], [-125.35336, 46.309, -6782.24560546875], [-125.34055, 46.30905, -6841.7412109375], [-125.34628, 46.30904, -5947.56201171875]]], [[[-125.38455, 46.31058, -5737.37548828125], [-125.39163, 46.31113, -6600.88330078125], [-125.37889, 46.31015, -6653.458984375], [-125.38455, 46.31058, -5737.37548828125]]], [[[-125.54357, 46.31199, -4660.13525390625], [-125.54959, 46.312, -5633.44482421875], [-125.54318, 46.312, -6143.90966796875], [-125.54357, 46.31199, -4660.13525390625]]], [[[-125.16739, 46.307, -6834.2509765625], [-125.18016, 46.30778, -6780.3369140625], [-125.1744, 46.30734, -7671.955078125], [-125.16739, 46.307, -6834.2509765625]]], [[[-125.27063, 46.309, -4391.11279296875], [-125.26264, 46.30892, -5394.54736328125], [-125.25803, 46.30877, -4425.0390625], [-125.27063, 46.309, -4391.11279296875]]], [[[-125.3517, 46.309, -5091.2822265625], [-125.36506, 46.30923, -4980.3232421875], [-125.35903, 46.309, -5885.984375], [-125.3517, 46.309, -5091.2822265625]]], [[[-125.20564, 46.30899, -6664.7529296875], [-125.21834, 46.30827, -6602.701171875], [-125.21271, 46.3087, -7499.3037109375], [-125.20564, 46.30899, -6664.7529296875]]], [[[-125.38957, 46.31097, -4769.6953125], [-125.38455, 46.31058, -5737.37548828125], [-125.3768, 46.30999, -4799.89404296875], [-125.38957, 46.31097, -4769.6953125]]], [[[-125.24539, 46.30801, -2648.793701171875], [-125.25125, 46.30825, -1759.635009765625], [-125.2583, 46.30878, -2593.9150390625], [-125.24539, 46.30801, -2648.793701171875]]], [[[-125.54357, 46.31199, -4660.13525390625], [-125.556, 46.312, -5122.97998046875], [-125.54959, 46.312, -5633.44482421875], [-125.54357, 46.31199, -4660.13525390625]]], [[[-125.54357, 46.31199, -4660.13525390625], [-125.556, 46.312, -4137.83740234375], [-125.556, 46.312, -5122.97998046875], [-125.54357, 46.31199, -4660.13525390625]]], [[[-125.42384, 46.3136, -2842.7021484375], [-125.41758, 46.31312, -1972.4676513671875], [-125.43034, 46.3141, -1976.580078125], [-125.42384, 46.3136, -2842.7021484375]]], [[[-125.2379, 46.308, -3567.451904296875], [-125.22445, 46.308, -3556.963134765625], [-125.23137, 46.308, -2644.570556640625], [-125.2379, 46.308, -3567.451904296875]]], [[[-125.23707, 46.308, -5535.09716796875], [-125.24988, 46.3082, -5445.5322265625], [-125.24384, 46.308, -6439.27587890625], [-125.23707, 46.308, -5535.09716796875]]], [[[-125.42304, 46.31354, -5618.5859375], [-125.43577, 46.31452, -5579.15576171875], [-125.42985, 46.31407, -6464.486328125], [-125.42304, 46.31354, -5618.5859375]]], [[[-125.18723, 46.30833, -1601.334228515625], [-125.20004, 46.309, -1604.4239501953125], [-125.19359, 46.3088, -2468.636962890625], [-125.18723, 46.30833, -1601.334228515625]]], [[[-125.14753, 46.30629, -5268.1123046875], [-125.136, 46.306, -5767.18505859375], [-125.136, 46.306, -4739.7158203125], [-125.14753, 46.30629, -5268.1123046875]]], [[[-125.54448, 46.312, -3658.175537109375], [-125.556, 46.312, -4137.83740234375], [-125.54357, 46.31199, -4660.13525390625], [-125.54448, 46.312, -3658.175537109375]]], [[[-125.27702, 46.309, -3422.517822265625], [-125.26487, 46.30898, -3454.385986328125], [-125.27082, 46.309, -2547.82763671875], [-125.27702, 46.309, -3422.517822265625]]], [[[-125.18016, 46.30778, -6780.3369140625], [-125.19283, 46.30876, -6724.197265625], [-125.18713, 46.30832, -7618.20556640625], [-125.18016, 46.30778, -6780.3369140625]]], [[[-125.24384, 46.308, -6439.27587890625], [-125.23827, 46.308, -7358.22607421875], [-125.23101, 46.30801, -6532.7158203125], [-125.24384, 46.308, -6439.27587890625]]], [[[-125.25183, 46.30832, -3517.07470703125], [-125.2379, 46.308, -3567.451904296875], [-125.24539, 46.30801, -2648.793701171875], [-125.25183, 46.30832, -3517.07470703125]]], [[[-125.32687, 46.3099, -3496.891357421875], [-125.3146, 46.30997, -3461.52587890625], [-125.32141, 46.30999, -2601.583740234375], [-125.32687, 46.3099, -3496.891357421875]]], [[[-125.39284, 46.31122, -3783.704345703125], [-125.38561, 46.31066, -2830.923828125], [-125.39836, 46.31164, -2834.56982421875], [-125.39284, 46.31122, -3783.704345703125]]], [[[-125.42304, 46.31354, -5618.5859375], [-125.42808, 46.31393, -4680.02294921875], [-125.43577, 46.31452, -5579.15576171875], [-125.42304, 46.31354, -5618.5859375]]], [[[-125.54448, 46.312, -3658.175537109375], [-125.556, 46.312, -3152.6953125], [-125.556, 46.312, -4137.83740234375], [-125.54448, 46.312, -3658.175537109375]]], [[[-125.18016, 46.30778, -6780.3369140625], [-125.18713, 46.30832, -7618.20556640625], [-125.1744, 46.30734, -7671.955078125], [-125.18016, 46.30778, -6780.3369140625]]], [[[-125.556, 46.312, -3152.6953125], [-125.54448, 46.312, -3658.175537109375], [-125.54681, 46.312, -2831.370849609375], [-125.556, 46.312, -3152.6953125]]], [[[-125.20582, 46.30899, -2496.79296875], [-125.21286, 46.3087, -1660.0924072265625], [-125.21817, 46.3083, -2568.285400390625], [-125.20582, 46.30899, -2496.79296875]]], [[[-125.19937, 46.30899, -3360.35498046875], [-125.18736, 46.30834, -3337.300537109375], [-125.19359, 46.3088, -2468.636962890625], [-125.19937, 46.30899, -3360.35498046875]]], [[[-125.14723, 46.3063, -4223.060546875], [-125.136, 46.306, -4739.7158203125], [-125.136, 46.306, -3712.2470703125], [-125.14723, 46.3063, -4223.060546875]]], [[[-125.15349, 46.30673, -6897.95751953125], [-125.16159, 46.307, -7725.7080078125], [-125.1488, 46.30637, -7771.07861328125], [-125.15349, 46.30673, -6897.95751953125]]], [[[-125.46968, 46.31624, -3740.39013671875], [-125.46658, 46.31612, -4604.19970703125], [-125.45636, 46.316, -3757.216796875], [-125.46968, 46.31624, -3740.39013671875]]], [[[-125.19937, 46.30899, -3360.35498046875], [-125.19359, 46.3088, -2468.636962890625], [-125.20582, 46.30899, -2496.79296875], [-125.19937, 46.30899, -3360.35498046875]]], [[[-125.54681, 46.312, -2831.370849609375], [-125.556, 46.312, -2167.552978515625], [-125.556, 46.312, -3152.6953125], [-125.54681, 46.312, -2831.370849609375]]], [[[-125.19333, 46.30875, -4208.533203125], [-125.19937, 46.30899, -3360.35498046875], [-125.20514, 46.30897, -4171.16162109375], [-125.19333, 46.30875, -4208.533203125]]], [[[-125.14723, 46.3063, -4223.060546875], [-125.136, 46.306, -3712.2470703125], [-125.14699, 46.30626, -3234.022705078125], [-125.14723, 46.3063, -4223.060546875]]], [[[-125.27702, 46.309, -3422.517822265625], [-125.27082, 46.309, -2547.82763671875], [-125.28306, 46.309, -2540.380615234375], [-125.27702, 46.309, -3422.517822265625]]], [[[-125.14723, 46.3063, -4223.060546875], [-125.14753, 46.30629, -5268.1123046875], [-125.136, 46.306, -4739.7158203125], [-125.14723, 46.3063, -4223.060546875]]], [[[-125.31947, 46.31, -4333.65625], [-125.32687, 46.3099, -3496.891357421875], [-125.33221, 46.30952, -4297.1669921875], [-125.31947, 46.31, -4333.65625]]], [[[-125.2583, 46.30878, -2593.9150390625], [-125.26402, 46.309, -1699.26806640625], [-125.27082, 46.309, -2547.82763671875], [-125.2583, 46.30878, -2593.9150390625]]], [[[-125.28296, 46.309, -4349.8359375], [-125.28928, 46.309, -3415.340087890625], [-125.29518, 46.30901, -4328.15234375], [-125.28296, 46.309, -4349.8359375]]], [[[-125.556, 46.312, -2167.552978515625], [-125.54681, 46.312, -2831.370849609375], [-125.54336, 46.312, -1992.5255126953125], [-125.556, 46.312, -2167.552978515625]]], [[[-125.15949, 46.30698, -5925.134765625], [-125.16739, 46.307, -6834.2509765625], [-125.15349, 46.30673, -6897.95751953125], [-125.15949, 46.30698, -5925.134765625]]], [[[-125.19283, 46.30876, -6724.197265625], [-125.19854, 46.30897, -5830.43408203125], [-125.20564, 46.30899, -6664.7529296875], [-125.19283, 46.30876, -6724.197265625]]], [[[-125.47961, 46.31708, -4568.88525390625], [-125.48679, 46.31801, -5425.94091796875], [-125.47411, 46.31652, -5461.71630859375], [-125.47961, 46.31708, -4568.88525390625]]], [[[-125.35903, 46.309, -5885.984375], [-125.36506, 46.30923, -4980.3232421875], [-125.3718, 46.30963, -5821.5283203125], [-125.35903, 46.309, -5885.984375]]], [[[-125.17316, 46.30727, -5943.103515625], [-125.16739, 46.307, -6834.2509765625], [-125.15949, 46.30698, -5925.134765625], [-125.17316, 46.30727, -5943.103515625]]], [[[-125.49927, 46.31744, -5389.94482421875], [-125.50578, 46.31607, -6239.01318359375], [-125.49357, 46.31853, -6272.470703125], [-125.49927, 46.31744, -5389.94482421875]]], [[[-125.18584, 46.30822, -5888.1494140625], [-125.18016, 46.30778, -6780.3369140625], [-125.17316, 46.30727, -5943.103515625], [-125.18584, 46.30822, -5888.1494140625]]], [[[-125.53238, 46.3111, -3516.823486328125], [-125.54336, 46.312, -1992.5255126953125], [-125.54681, 46.312, -2831.370849609375], [-125.53238, 46.3111, -3516.823486328125]]], [[[-125.21164, 46.30878, -3418.525146484375], [-125.20582, 46.30899, -2496.79296875], [-125.21817, 46.3083, -2568.285400390625], [-125.21164, 46.30878, -3418.525146484375]]], [[[-125.23137, 46.308, -2644.570556640625], [-125.2256, 46.308, -1751.8096923828125], [-125.23842, 46.308, -1808.0242919921875], [-125.23137, 46.308, -2644.570556640625]]], [[[-125.136, 46.306, -6794.65380859375], [-125.136, 46.306, -5767.18505859375], [-125.14691, 46.30624, -6232.9736328125], [-125.136, 46.306, -6794.65380859375]]], [[[-125.28296, 46.309, -4349.8359375], [-125.28816, 46.309, -5299.66064453125], [-125.27534, 46.309, -5348.3544921875], [-125.28296, 46.309, -4349.8359375]]], [[[-125.53238, 46.3111, -3516.823486328125], [-125.53082, 46.31104, -1808.1517333984375], [-125.54336, 46.312, -1992.5255126953125], [-125.53238, 46.3111, -3516.823486328125]]], [[[-125.24539, 46.30801, -2648.793701171875], [-125.23842, 46.308, -1808.0242919921875], [-125.25125, 46.30825, -1759.635009765625], [-125.24539, 46.30801, -2648.793701171875]]], [[[-125.19854, 46.30897, -5830.43408203125], [-125.19283, 46.30876, -6724.197265625], [-125.18584, 46.30822, -5888.1494140625], [-125.19854, 46.30897, -5830.43408203125]]], [[[-125.45636, 46.316, -3757.216796875], [-125.44356, 46.31512, -3752.835693359375], [-125.44915, 46.31555, -2868.02783203125], [-125.45636, 46.316, -3757.216796875]]], [[[-125.20582, 46.30899, -2496.79296875], [-125.19359, 46.3088, -2468.636962890625], [-125.20004, 46.309, -1604.4239501953125], [-125.20582, 46.30899, -2496.79296875]]], [[[-125.2444, 46.308, -4477.4130859375], [-125.25183, 46.30832, -3517.07470703125], [-125.25803, 46.30877, -4425.0390625], [-125.2444, 46.308, -4477.4130859375]]], [[[-125.53082, 46.31104, -1808.1517333984375], [-125.53238, 46.3111, -3516.823486328125], [-125.52505, 46.31237, -2696.539306640625], [-125.53082, 46.31104, -1808.1517333984375]]], [[[-125.20514, 46.30897, -4171.16162109375], [-125.19937, 46.30899, -3360.35498046875], [-125.21164, 46.30878, -3418.525146484375], [-125.20514, 46.30897, -4171.16162109375]]], [[[-125.23137, 46.308, -2644.570556640625], [-125.23842, 46.308, -1808.0242919921875], [-125.24539, 46.30801, -2648.793701171875], [-125.23137, 46.308, -2644.570556640625]]], [[[-125.19283, 46.30876, -6724.197265625], [-125.20564, 46.30899, -6664.7529296875], [-125.19991, 46.30899, -7558.82763671875], [-125.19283, 46.30876, -6724.197265625]]], [[[-125.34505, 46.30901, -4273.1015625], [-125.35786, 46.30903, -4391.14697265625], [-125.3517, 46.309, -5091.2822265625], [-125.34505, 46.30901, -4273.1015625]]], [[[-125.16745, 46.30699, -2555.6650390625], [-125.16164, 46.307, -1629.1014404296875], [-125.17447, 46.30734, -1615.1785888671875], [-125.16745, 46.30699, -2555.6650390625]]], [[[-125.30698, 46.30956, -4375.689453125], [-125.3146, 46.30997, -3461.52587890625], [-125.31947, 46.31, -4333.65625], [-125.30698, 46.30956, -4375.689453125]]], [[[-125.52505, 46.31237, -2696.539306640625], [-125.51864, 46.31385, -1817.3460693359375], [-125.53082, 46.31104, -1808.1517333984375], [-125.52505, 46.31237, -2696.539306640625]]], [[[-125.32779, 46.30982, -6899.10546875], [-125.33351, 46.30939, -6005.9326171875], [-125.34055, 46.30905, -6841.7412109375], [-125.32779, 46.30982, -6899.10546875]]], [[[-125.51266, 46.31489, -2695.5908203125], [-125.51864, 46.31385, -1817.3460693359375], [-125.52505, 46.31237, -2696.539306640625], [-125.51266, 46.31489, -2695.5908203125]]], [[[-125.21164, 46.30878, -3418.525146484375], [-125.19937, 46.30899, -3360.35498046875], [-125.20582, 46.30899, -2496.79296875], [-125.21164, 46.30878, -3418.525146484375]]], [[[-125.18584, 46.30822, -5888.1494140625], [-125.19283, 46.30876, -6724.197265625], [-125.18016, 46.30778, -6780.3369140625], [-125.18584, 46.30822, -5888.1494140625]]], [[[-125.21689, 46.30839, -4503.220703125], [-125.21164, 46.30878, -3418.525146484375], [-125.22445, 46.308, -3556.963134765625], [-125.21689, 46.30839, -4503.220703125]]], [[[-125.40241, 46.31195, -4736.654296875], [-125.38957, 46.31097, -4769.6953125], [-125.39284, 46.31122, -3783.704345703125], [-125.40241, 46.31195, -4736.654296875]]], [[[-125.17316, 46.30727, -5943.103515625], [-125.18016, 46.30778, -6780.3369140625], [-125.16739, 46.307, -6834.2509765625], [-125.17316, 46.30727, -5943.103515625]]], [[[-125.51266, 46.31489, -2695.5908203125], [-125.50617, 46.31597, -1844.3726806640625], [-125.51864, 46.31385, -1817.3460693359375], [-125.51266, 46.31489, -2695.5908203125]]], [[[-125.43577, 46.31452, -5579.15576171875], [-125.44085, 46.31491, -4656.02197265625], [-125.44852, 46.3155, -5539.314453125], [-125.43577, 46.31452, -5579.15576171875]]], [[[-125.2303, 46.308, -4608.49169921875], [-125.22445, 46.308, -3556.963134765625], [-125.2379, 46.308, -3567.451904296875], [-125.2303, 46.308, -4608.49169921875]]], [[[-125.37997, 46.31023, -3796.458251953125], [-125.36679, 46.30921, -3802.40087890625], [-125.37285, 46.30968, -2838.331787109375], [-125.37997, 46.31023, -3796.458251953125]]], [[[-125.22445, 46.308, -3556.963134765625], [-125.21164, 46.30878, -3418.525146484375], [-125.21817, 46.3083, -2568.285400390625], [-125.22445, 46.308, -3556.963134765625]]], [[[-125.21286, 46.3087, -1660.0924072265625], [-125.2256, 46.308, -1751.8096923828125], [-125.21817, 46.3083, -2568.285400390625], [-125.21286, 46.3087, -1660.0924072265625]]], [[[-125.51992, 46.31356, -3578.42333984375], [-125.51266, 46.31489, -2695.5908203125], [-125.52505, 46.31237, -2696.539306640625], [-125.51992, 46.31356, -3578.42333984375]]], [[[-125.21834, 46.30827, -6602.701171875], [-125.23101, 46.30801, -6532.7158203125], [-125.22548, 46.30802, -7434.125], [-125.21834, 46.30827, -6602.701171875]]], [[[-125.23137, 46.308, -2644.570556640625], [-125.21817, 46.3083, -2568.285400390625], [-125.2256, 46.308, -1751.8096923828125], [-125.23137, 46.308, -2644.570556640625]]], [[[-125.50617, 46.31597, -1844.3726806640625], [-125.51266, 46.31489, -2695.5908203125], [-125.50043, 46.31729, -2729.58349609375], [-125.50617, 46.31597, -1844.3726806640625]]], [[[-125.41833, 46.31318, -3759.217529296875], [-125.4111, 46.31262, -2838.379150390625], [-125.42384, 46.3136, -2842.7021484375], [-125.41833, 46.31318, -3759.217529296875]]], [[[-125.44356, 46.31512, -3752.835693359375], [-125.45636, 46.316, -3757.216796875], [-125.45363, 46.31572, -4635.880859375], [-125.44356, 46.31512, -3752.835693359375]]], [[[-125.4102, 46.31255, -5662.31884765625], [-125.41525, 46.31294, -4708.4443359375], [-125.42304, 46.31354, -5618.5859375], [-125.4102, 46.31255, -5662.31884765625]]], [[[-125.52409, 46.31273, -5327.2978515625], [-125.53041, 46.31115, -6177.75048828125], [-125.51824, 46.31394, -6206.41162109375], [-125.52409, 46.31273, -5327.2978515625]]], [[[-125.49398, 46.31877, -1880.370361328125], [-125.50617, 46.31597, -1844.3726806640625], [-125.50043, 46.31729, -2729.58349609375], [-125.49398, 46.31877, -1880.370361328125]]], [[[-125.27082, 46.309, -2547.82763671875], [-125.27685, 46.309, -1665.2493896484375], [-125.28306, 46.309, -2540.380615234375], [-125.27082, 46.309, -2547.82763671875]]], [[[-125.40557, 46.3122, -3767.5361328125], [-125.39284, 46.31122, -3783.704345703125], [-125.39836, 46.31164, -2834.56982421875], [-125.40557, 46.3122, -3767.5361328125]]], [[[-125.20582, 46.30899, -2496.79296875], [-125.20004, 46.309, -1604.4239501953125], [-125.21286, 46.3087, -1660.0924072265625], [-125.20582, 46.30899, -2496.79296875]]], [[[-125.15946, 46.30692, -3598.807861328125], [-125.14699, 46.30626, -3234.022705078125], [-125.15388, 46.30676, -2543.977294921875], [-125.15946, 46.30692, -3598.807861328125]]], [[[-125.38455, 46.31058, -5737.37548828125], [-125.39737, 46.31157, -5694.8154296875], [-125.39163, 46.31113, -6600.88330078125], [-125.38455, 46.31058, -5737.37548828125]]], [[[-125.49398, 46.31877, -1880.370361328125], [-125.50043, 46.31729, -2729.58349609375], [-125.49561, 46.3184, -3518.211181640625], [-125.49398, 46.31877, -1880.370361328125]]], [[[-125.21161, 46.30878, -5687.53466796875], [-125.21834, 46.30827, -6602.701171875], [-125.20564, 46.30899, -6664.7529296875], [-125.21161, 46.30878, -5687.53466796875]]], [[[-125.49398, 46.31877, -1880.370361328125], [-125.49561, 46.3184, -3518.211181640625], [-125.48875, 46.31828, -2787.663330078125], [-125.49398, 46.31877, -1880.370361328125]]], [[[-125.16745, 46.30699, -2555.6650390625], [-125.17447, 46.30734, -1615.1785888671875], [-125.18101, 46.30785, -2474.0009765625], [-125.16745, 46.30699, -2555.6650390625]]], [[[-125.48875, 46.31828, -2787.663330078125], [-125.48146, 46.31709, -1991.9908447265625], [-125.49398, 46.31877, -1880.370361328125], [-125.48875, 46.31828, -2787.663330078125]]], [[[-125.15946, 46.30692, -3598.807861328125], [-125.15388, 46.30676, -2543.977294921875], [-125.16745, 46.30699, -2555.6650390625], [-125.15946, 46.30692, -3598.807861328125]]], [[[-125.37997, 46.31023, -3796.458251953125], [-125.39284, 46.31122, -3783.704345703125], [-125.38957, 46.31097, -4769.6953125], [-125.37997, 46.31023, -3796.458251953125]]], [[[-125.3768, 46.30999, -4799.89404296875], [-125.3718, 46.30963, -5821.5283203125], [-125.36506, 46.30923, -4980.3232421875], [-125.3768, 46.30999, -4799.89404296875]]], [[[-125.47565, 46.31659, -2874.272705078125], [-125.48146, 46.31709, -1991.9908447265625], [-125.48875, 46.31828, -2787.663330078125], [-125.47565, 46.31659, -2874.272705078125]]], [[[-125.15949, 46.30698, -5925.134765625], [-125.15349, 46.30673, -6897.95751953125], [-125.14691, 46.30624, -6232.9736328125], [-125.15949, 46.30698, -5925.134765625]]], [[[-125.47565, 46.31659, -2874.272705078125], [-125.46872, 46.31606, -2032.542724609375], [-125.48146, 46.31709, -1991.9908447265625], [-125.47565, 46.31659, -2874.272705078125]]], [[[-125.46219, 46.316, -2888.666259765625], [-125.46872, 46.31606, -2032.542724609375], [-125.47565, 46.31659, -2874.272705078125], [-125.46219, 46.316, -2888.666259765625]]], [[[-125.27063, 46.309, -4391.11279296875], [-125.27534, 46.309, -5348.3544921875], [-125.26264, 46.30892, -5394.54736328125], [-125.27063, 46.309, -4391.11279296875]]], [[[-125.45363, 46.31572, -4635.880859375], [-125.44085, 46.31491, -4656.02197265625], [-125.44356, 46.31512, -3752.835693359375], [-125.45363, 46.31572, -4635.880859375]]], [[[-125.46219, 46.316, -2888.666259765625], [-125.45588, 46.31599, -2012.5506591796875], [-125.46872, 46.31606, -2032.542724609375], [-125.46219, 46.316, -2888.666259765625]]], [[[-125.20564, 46.30899, -6664.7529296875], [-125.21271, 46.3087, -7499.3037109375], [-125.19991, 46.30899, -7558.82763671875], [-125.20564, 46.30899, -6664.7529296875]]], [[[-125.25803, 46.30877, -4425.0390625], [-125.26264, 46.30892, -5394.54736328125], [-125.24988, 46.3082, -5445.5322265625], [-125.25803, 46.30877, -4425.0390625]]], [[[-125.44915, 46.31555, -2868.02783203125], [-125.45588, 46.31599, -2012.5506591796875], [-125.46219, 46.316, -2888.666259765625], [-125.44915, 46.31555, -2868.02783203125]]], [[[-125.19283, 46.30876, -6724.197265625], [-125.19991, 46.30899, -7558.82763671875], [-125.18713, 46.30832, -7618.20556640625], [-125.19283, 46.30876, -6724.197265625]]], [[[-125.15349, 46.30673, -6897.95751953125], [-125.16739, 46.307, -6834.2509765625], [-125.16159, 46.307, -7725.7080078125], [-125.15349, 46.30673, -6897.95751953125]]], [[[-125.44915, 46.31555, -2868.02783203125], [-125.4431, 46.31509, -1988.9345703125], [-125.45588, 46.31599, -2012.5506591796875], [-125.44915, 46.31555, -2868.02783203125]]], [[[-125.15349, 46.30673, -6897.95751953125], [-125.14242, 46.306, -7282.4404296875], [-125.14691, 46.30624, -6232.9736328125], [-125.15349, 46.30673, -6897.95751953125]]], [[[-125.32648, 46.30982, -5170.42626953125], [-125.33922, 46.30916, -5112.55615234375], [-125.33351, 46.30939, -6005.9326171875], [-125.32648, 46.30982, -5170.42626953125]]], [[[-125.43649, 46.31458, -2851.180419921875], [-125.4431, 46.31509, -1988.9345703125], [-125.44915, 46.31555, -2868.02783203125], [-125.43649, 46.31458, -2851.180419921875]]], [[[-125.45363, 46.31572, -4635.880859375], [-125.44852, 46.3155, -5539.314453125], [-125.44085, 46.31491, -4656.02197265625], [-125.45363, 46.31572, -4635.880859375]]], [[[-125.15349, 46.30673, -6897.95751953125], [-125.1488, 46.30637, -7771.07861328125], [-125.14242, 46.306, -7282.4404296875], [-125.15349, 46.30673, -6897.95751953125]]], [[[-125.43649, 46.31458, -2851.180419921875], [-125.43034, 46.3141, -1976.580078125], [-125.4431, 46.31509, -1988.9345703125], [-125.43649, 46.31458, -2851.180419921875]]], [[[-125.3087, 46.30966, -2578.06494140625], [-125.32141, 46.30999, -2601.583740234375], [-125.3146, 46.30997, -3461.52587890625], [-125.3087, 46.30966, -2578.06494140625]]], [[[-125.14699, 46.30626, -3234.022705078125], [-125.15946, 46.30692, -3598.807861328125], [-125.14723, 46.3063, -4223.060546875], [-125.14699, 46.30626, -3234.022705078125]]], [[[-125.46658, 46.31612, -4604.19970703125], [-125.47411, 46.31652, -5461.71630859375], [-125.46133, 46.31596, -5500.19873046875], [-125.46658, 46.31612, -4604.19970703125]]], [[[-125.39737, 46.31157, -5694.8154296875], [-125.4102, 46.31255, -5662.31884765625], [-125.40437, 46.31211, -6551.2626953125], [-125.39737, 46.31157, -5694.8154296875]]], [[[-125.136, 46.306, -6794.65380859375], [-125.14691, 46.30624, -6232.9736328125], [-125.14242, 46.306, -7282.4404296875], [-125.136, 46.306, -6794.65380859375]]], [[[-125.42384, 46.3136, -2842.7021484375], [-125.43034, 46.3141, -1976.580078125], [-125.43649, 46.31458, -2851.180419921875], [-125.42384, 46.3136, -2842.7021484375]]], [[[-125.39737, 46.31157, -5694.8154296875], [-125.40241, 46.31195, -4736.654296875], [-125.4102, 46.31255, -5662.31884765625], [-125.39737, 46.31157, -5694.8154296875]]], [[[-125.18101, 46.30785, -2474.0009765625], [-125.17447, 46.30734, -1615.1785888671875], [-125.18723, 46.30833, -1601.334228515625], [-125.18101, 46.30785, -2474.0009765625]]], [[[-125.3718, 46.30963, -5821.5283203125], [-125.37889, 46.31015, -6653.458984375], [-125.36616, 46.30922, -6717.91748046875], [-125.3718, 46.30963, -5821.5283203125]]], [[[-125.38957, 46.31097, -4769.6953125], [-125.3768, 46.30999, -4799.89404296875], [-125.37997, 46.31023, -3796.458251953125], [-125.38957, 46.31097, -4769.6953125]]], [[[-125.4111, 46.31262, -2838.379150390625], [-125.41758, 46.31312, -1972.4676513671875], [-125.42384, 46.3136, -2842.7021484375], [-125.4111, 46.31262, -2838.379150390625]]], [[[-125.28223, 46.309, -6233.67138671875], [-125.28941, 46.309, -7063.302734375], [-125.27661, 46.309, -7131.9140625], [-125.28223, 46.309, -6233.67138671875]]], [[[-125.30698, 46.30956, -4375.689453125], [-125.29518, 46.30901, -4328.15234375], [-125.30213, 46.30919, -3433.447998046875], [-125.30698, 46.30956, -4375.689453125]]], [[[-125.4111, 46.31262, -2838.379150390625], [-125.40481, 46.31214, -1969.2294921875], [-125.41758, 46.31312, -1972.4676513671875], [-125.4111, 46.31262, -2838.379150390625]]], [[[-125.47411, 46.31652, -5461.71630859375], [-125.48091, 46.31709, -6307.87353515625], [-125.46818, 46.3161, -6346.287109375], [-125.47411, 46.31652, -5461.71630859375]]], [[[-125.27534, 46.309, -5348.3544921875], [-125.26936, 46.30898, -6305.7001953125], [-125.26264, 46.30892, -5394.54736328125], [-125.27534, 46.309, -5348.3544921875]]], [[[-125.39836, 46.31164, -2834.56982421875], [-125.39205, 46.31116, -1965.9912109375], [-125.40481, 46.31214, -1969.2294921875], [-125.39836, 46.31164, -2834.56982421875]]], [[[-125.31373, 46.30986, -5226.6005859375], [-125.30799, 46.30964, -6118.42578125], [-125.301, 46.3092, -5280.78125], [-125.31373, 46.30986, -5226.6005859375]]], [[[-125.38561, 46.31066, -2830.923828125], [-125.39205, 46.31116, -1965.9912109375], [-125.39836, 46.31164, -2834.56982421875], [-125.38561, 46.31066, -2830.923828125]]], [[[-125.28223, 46.309, -6233.67138671875], [-125.28816, 46.309, -5299.66064453125], [-125.29521, 46.309, -6171.77197265625], [-125.28223, 46.309, -6233.67138671875]]], [[[-125.31373, 46.30986, -5226.6005859375], [-125.32074, 46.30997, -6063.41552734375], [-125.30799, 46.30964, -6118.42578125], [-125.31373, 46.30986, -5226.6005859375]]], [[[-125.31947, 46.31, -4333.65625], [-125.3146, 46.30997, -3461.52587890625], [-125.32687, 46.3099, -3496.891357421875], [-125.31947, 46.31, -4333.65625]]], [[[-125.41525, 46.31294, -4708.4443359375], [-125.40241, 46.31195, -4736.654296875], [-125.40557, 46.3122, -3767.5361328125], [-125.41525, 46.31294, -4708.4443359375]]], [[[-125.38561, 46.31066, -2830.923828125], [-125.37928, 46.31018, -1962.7530517578125], [-125.39205, 46.31116, -1965.9912109375], [-125.38561, 46.31066, -2830.923828125]]], [[[-125.26936, 46.30898, -6305.7001953125], [-125.27534, 46.309, -5348.3544921875], [-125.28223, 46.309, -6233.67138671875], [-125.26936, 46.30898, -6305.7001953125]]], [[[-125.431, 46.31415, -3753.190673828125], [-125.41833, 46.31318, -3759.217529296875], [-125.42384, 46.3136, -2842.7021484375], [-125.431, 46.31415, -3753.190673828125]]], [[[-125.21834, 46.30827, -6602.701171875], [-125.22377, 46.30807, -5589.20947265625], [-125.23101, 46.30801, -6532.7158203125], [-125.21834, 46.30827, -6602.701171875]]], [[[-125.3718, 46.30963, -5821.5283203125], [-125.38455, 46.31058, -5737.37548828125], [-125.37889, 46.31015, -6653.458984375], [-125.3718, 46.30963, -5821.5283203125]]], [[[-125.51165, 46.31506, -5357.11474609375], [-125.52409, 46.31273, -5327.2978515625], [-125.51824, 46.31394, -6206.41162109375], [-125.51165, 46.31506, -5357.11474609375]]], [[[-125.25657, 46.30868, -6380.8984375], [-125.26264, 46.30892, -5394.54736328125], [-125.26936, 46.30898, -6305.7001953125], [-125.25657, 46.30868, -6380.8984375]]], [[[-125.35961, 46.30901, -2801.860595703125], [-125.36652, 46.30919, -1959.514892578125], [-125.37285, 46.30968, -2838.331787109375], [-125.35961, 46.30901, -2801.860595703125]]], [[[-125.32074, 46.30997, -6063.41552734375], [-125.32779, 46.30982, -6899.10546875], [-125.31499, 46.30996, -6956.6728515625], [-125.32074, 46.30997, -6063.41552734375]]], [[[-125.42808, 46.31393, -4680.02294921875], [-125.41525, 46.31294, -4708.4443359375], [-125.41833, 46.31318, -3759.217529296875], [-125.42808, 46.31393, -4680.02294921875]]], [[[-125.35961, 46.30901, -2801.860595703125], [-125.35369, 46.309, -1914.8251953125], [-125.36652, 46.30919, -1959.514892578125], [-125.35961, 46.30901, -2801.860595703125]]], [[[-125.30698, 46.30956, -4375.689453125], [-125.31947, 46.31, -4333.65625], [-125.31373, 46.30986, -5226.6005859375], [-125.30698, 46.30956, -4375.689453125]]], [[[-125.43577, 46.31452, -5579.15576171875], [-125.44852, 46.3155, -5539.314453125], [-125.4426, 46.31505, -6424.4560546875], [-125.43577, 46.31452, -5579.15576171875]]], [[[-125.34633, 46.309, -2734.3271484375], [-125.35369, 46.309, -1914.8251953125], [-125.35961, 46.30901, -2801.860595703125], [-125.34633, 46.309, -2734.3271484375]]], [[[-125.45636, 46.316, -3757.216796875], [-125.44915, 46.31555, -2868.02783203125], [-125.46219, 46.316, -2888.666259765625], [-125.45636, 46.316, -3757.216796875]]], [[[-125.24384, 46.308, -6439.27587890625], [-125.25657, 46.30868, -6380.8984375], [-125.25106, 46.30826, -7282.0234375], [-125.24384, 46.308, -6439.27587890625]]], [[[-125.34633, 46.309, -2734.3271484375], [-125.3409, 46.309, -1828.80224609375], [-125.35369, 46.309, -1914.8251953125], [-125.34633, 46.309, -2734.3271484375]]], [[[-125.29518, 46.30901, -4328.15234375], [-125.301, 46.3092, -5280.78125], [-125.28816, 46.309, -5299.66064453125], [-125.29518, 46.30901, -4328.15234375]]], [[[-125.431, 46.31415, -3753.190673828125], [-125.44356, 46.31512, -3752.835693359375], [-125.44085, 46.31491, -4656.02197265625], [-125.431, 46.31415, -3753.190673828125]]], [[[-125.33363, 46.30942, -2652.765380859375], [-125.3409, 46.309, -1828.80224609375], [-125.34633, 46.309, -2734.3271484375], [-125.33363, 46.30942, -2652.765380859375]]], [[[-125.53238, 46.3111, -3516.823486328125], [-125.54357, 46.31199, -4660.13525390625], [-125.52983, 46.31184, -4448.57080078125], [-125.53238, 46.3111, -3516.823486328125]]], [[[-125.29518, 46.30901, -4328.15234375], [-125.28816, 46.309, -5299.66064453125], [-125.28296, 46.309, -4349.8359375], [-125.29518, 46.30901, -4328.15234375]]], [[[-125.33363, 46.30942, -2652.765380859375], [-125.32815, 46.30983, -1750.12353515625], [-125.3409, 46.309, -1828.80224609375], [-125.33363, 46.30942, -2652.765380859375]]], [[[-125.30799, 46.30964, -6118.42578125], [-125.31499, 46.30996, -6956.6728515625], [-125.30222, 46.30921, -7009.57275390625], [-125.30799, 46.30964, -6118.42578125]]], [[[-125.44085, 46.31491, -4656.02197265625], [-125.42808, 46.31393, -4680.02294921875], [-125.431, 46.31415, -3753.190673828125], [-125.44085, 46.31491, -4656.02197265625]]], [[[-125.32141, 46.30999, -2601.583740234375], [-125.32815, 46.30983, -1750.12353515625], [-125.33363, 46.30942, -2652.765380859375], [-125.32141, 46.30999, -2601.583740234375]]], [[[-125.44852, 46.3155, -5539.314453125], [-125.45536, 46.31592, -6384.77001953125], [-125.4426, 46.31505, -6424.4560546875], [-125.44852, 46.3155, -5539.314453125]]], [[[-125.32648, 46.30982, -5170.42626953125], [-125.31373, 46.30986, -5226.6005859375], [-125.31947, 46.31, -4333.65625], [-125.32648, 46.30982, -5170.42626953125]]], [[[-125.32141, 46.30999, -2601.583740234375], [-125.31532, 46.31, -1721.6322021484375], [-125.32815, 46.30983, -1750.12353515625], [-125.32141, 46.30999, -2601.583740234375]]], [[[-125.5172, 46.31407, -4464.04833984375], [-125.50761, 46.31573, -3600.78076171875], [-125.51992, 46.31356, -3578.42333984375], [-125.5172, 46.31407, -4464.04833984375]]], [[[-125.25803, 46.30877, -4425.0390625], [-125.24988, 46.3082, -5445.5322265625], [-125.2444, 46.308, -4477.4130859375], [-125.25803, 46.30877, -4425.0390625]]], [[[-125.3087, 46.30966, -2578.06494140625], [-125.31532, 46.31, -1721.6322021484375], [-125.32141, 46.30999, -2601.583740234375], [-125.3087, 46.30966, -2578.06494140625]]], [[[-125.44356, 46.31512, -3752.835693359375], [-125.43649, 46.31458, -2851.180419921875], [-125.44915, 46.31555, -2868.02783203125], [-125.44356, 46.31512, -3752.835693359375]]], [[[-125.3087, 46.30966, -2578.06494140625], [-125.30253, 46.30919, -1702.880859375], [-125.31532, 46.31, -1721.6322021484375], [-125.3087, 46.30966, -2578.06494140625]]], [[[-125.50761, 46.31573, -3600.78076171875], [-125.49561, 46.3184, -3518.211181640625], [-125.50043, 46.31729, -2729.58349609375], [-125.50761, 46.31573, -3600.78076171875]]], [[[-125.30698, 46.30956, -4375.689453125], [-125.301, 46.3092, -5280.78125], [-125.29518, 46.30901, -4328.15234375], [-125.30698, 46.30956, -4375.689453125]]], [[[-125.46658, 46.31612, -4604.19970703125], [-125.46133, 46.31596, -5500.19873046875], [-125.45363, 46.31572, -4635.880859375], [-125.46658, 46.31612, -4604.19970703125]]], [[[-125.30213, 46.30919, -3433.447998046875], [-125.29518, 46.30901, -4328.15234375], [-125.28928, 46.309, -3415.340087890625], [-125.30213, 46.30919, -3433.447998046875]]], [[[-125.30213, 46.30919, -3433.447998046875], [-125.29591, 46.30901, -2559.050048828125], [-125.3087, 46.30966, -2578.06494140625], [-125.30213, 46.30919, -3433.447998046875]]], [[[-125.38455, 46.31058, -5737.37548828125], [-125.38957, 46.31097, -4769.6953125], [-125.39737, 46.31157, -5694.8154296875], [-125.38455, 46.31058, -5737.37548828125]]], [[[-125.28928, 46.309, -3415.340087890625], [-125.29591, 46.30901, -2559.050048828125], [-125.30213, 46.30919, -3433.447998046875], [-125.28928, 46.309, -3415.340087890625]]], [[[-125.40241, 46.31195, -4736.654296875], [-125.39737, 46.31157, -5694.8154296875], [-125.38957, 46.31097, -4769.6953125], [-125.40241, 46.31195, -4736.654296875]]], [[[-125.28928, 46.309, -3415.340087890625], [-125.28306, 46.309, -2540.380615234375], [-125.29591, 46.30901, -2559.050048828125], [-125.28928, 46.309, -3415.340087890625]]], [[[-125.28928, 46.309, -3415.340087890625], [-125.27702, 46.309, -3422.517822265625], [-125.28306, 46.309, -2540.380615234375], [-125.28928, 46.309, -3415.340087890625]]], [[[-125.47961, 46.31708, -4568.88525390625], [-125.47411, 46.31652, -5461.71630859375], [-125.46658, 46.31612, -4604.19970703125], [-125.47961, 46.31708, -4568.88525390625]]], [[[-125.2444, 46.308, -4477.4130859375], [-125.24988, 46.3082, -5445.5322265625], [-125.23707, 46.308, -5535.09716796875], [-125.2444, 46.308, -4477.4130859375]]], [[[-125.28296, 46.309, -4349.8359375], [-125.27702, 46.309, -3422.517822265625], [-125.28928, 46.309, -3415.340087890625], [-125.28296, 46.309, -4349.8359375]]], [[[-125.47411, 46.31652, -5461.71630859375], [-125.48679, 46.31801, -5425.94091796875], [-125.48091, 46.31709, -6307.87353515625], [-125.47411, 46.31652, -5461.71630859375]]], [[[-125.23101, 46.30801, -6532.7158203125], [-125.23827, 46.308, -7358.22607421875], [-125.22548, 46.30802, -7434.125], [-125.23101, 46.30801, -6532.7158203125]]], [[[-125.24384, 46.308, -6439.27587890625], [-125.24988, 46.3082, -5445.5322265625], [-125.25657, 46.30868, -6380.8984375], [-125.24384, 46.308, -6439.27587890625]]], [[[-125.27063, 46.309, -4391.11279296875], [-125.27702, 46.309, -3422.517822265625], [-125.28296, 46.309, -4349.8359375], [-125.27063, 46.309, -4391.11279296875]]], [[[-125.30698, 46.30956, -4375.689453125], [-125.30213, 46.30919, -3433.447998046875], [-125.3146, 46.30997, -3461.52587890625], [-125.30698, 46.30956, -4375.689453125]]], [[[-125.27063, 46.309, -4391.11279296875], [-125.26487, 46.30898, -3454.385986328125], [-125.27702, 46.309, -3422.517822265625], [-125.27063, 46.309, -4391.11279296875]]], [[[-125.25803, 46.30877, -4425.0390625], [-125.26487, 46.30898, -3454.385986328125], [-125.27063, 46.309, -4391.11279296875], [-125.25803, 46.30877, -4425.0390625]]], [[[-125.25657, 46.30868, -6380.8984375], [-125.26381, 46.30898, -7206.56201171875], [-125.25106, 46.30826, -7282.0234375], [-125.25657, 46.30868, -6380.8984375]]], [[[-125.39284, 46.31122, -3783.704345703125], [-125.40557, 46.3122, -3767.5361328125], [-125.40241, 46.31195, -4736.654296875], [-125.39284, 46.31122, -3783.704345703125]]], [[[-125.25803, 46.30877, -4425.0390625], [-125.25183, 46.30832, -3517.07470703125], [-125.26487, 46.30898, -3454.385986328125], [-125.25803, 46.30877, -4425.0390625]]], [[[-125.29521, 46.309, -6171.77197265625], [-125.301, 46.3092, -5280.78125], [-125.30799, 46.30964, -6118.42578125], [-125.29521, 46.309, -6171.77197265625]]], [[[-125.42304, 46.31354, -5618.5859375], [-125.42985, 46.31407, -6464.486328125], [-125.41711, 46.31309, -6503.39404296875], [-125.42304, 46.31354, -5618.5859375]]], [[[-125.25657, 46.30868, -6380.8984375], [-125.26936, 46.30898, -6305.7001953125], [-125.26381, 46.30898, -7206.56201171875], [-125.25657, 46.30868, -6380.8984375]]], [[[-125.2444, 46.308, -4477.4130859375], [-125.2379, 46.308, -3567.451904296875], [-125.25183, 46.30832, -3517.07470703125], [-125.2444, 46.308, -4477.4130859375]]], [[[-125.2303, 46.308, -4608.49169921875], [-125.2379, 46.308, -3567.451904296875], [-125.2444, 46.308, -4477.4130859375], [-125.2303, 46.308, -4608.49169921875]]], [[[-125.29521, 46.309, -6171.77197265625], [-125.30799, 46.30964, -6118.42578125], [-125.30222, 46.30921, -7009.57275390625], [-125.29521, 46.309, -6171.77197265625]]], [[[-125.46133, 46.31596, -5500.19873046875], [-125.47411, 46.31652, -5461.71630859375], [-125.46818, 46.3161, -6346.287109375], [-125.46133, 46.31596, -5500.19873046875]]], [[[-125.20514, 46.30897, -4171.16162109375], [-125.21164, 46.30878, -3418.525146484375], [-125.21689, 46.30839, -4503.220703125], [-125.20514, 46.30897, -4171.16162109375]]], [[[-125.28296, 46.309, -4349.8359375], [-125.27534, 46.309, -5348.3544921875], [-125.27063, 46.309, -4391.11279296875], [-125.28296, 46.309, -4349.8359375]]], [[[-125.21689, 46.30839, -4503.220703125], [-125.22445, 46.308, -3556.963134765625], [-125.2303, 46.308, -4608.49169921875], [-125.21689, 46.30839, -4503.220703125]]], [[[-125.18101, 46.30785, -2474.0009765625], [-125.18723, 46.30833, -1601.334228515625], [-125.19359, 46.3088, -2468.636962890625], [-125.18101, 46.30785, -2474.0009765625]]], [[[-125.19937, 46.30899, -3360.35498046875], [-125.19333, 46.30875, -4208.533203125], [-125.18736, 46.30834, -3337.300537109375], [-125.19937, 46.30899, -3360.35498046875]]], [[[-125.35903, 46.309, -5885.984375], [-125.3718, 46.30963, -5821.5283203125], [-125.36616, 46.30922, -6717.91748046875], [-125.35903, 46.309, -5885.984375]]], [[[-125.44085, 46.31491, -4656.02197265625], [-125.43577, 46.31452, -5579.15576171875], [-125.42808, 46.31393, -4680.02294921875], [-125.44085, 46.31491, -4656.02197265625]]], [[[-125.49561, 46.3184, -3518.211181640625], [-125.50761, 46.31573, -3600.78076171875], [-125.50448, 46.31639, -4483.828125], [-125.49561, 46.3184, -3518.211181640625]]], [[[-125.28223, 46.309, -6233.67138671875], [-125.29521, 46.309, -6171.77197265625], [-125.28941, 46.309, -7063.302734375], [-125.28223, 46.309, -6233.67138671875]]], [[[-125.24384, 46.308, -6439.27587890625], [-125.25106, 46.30826, -7282.0234375], [-125.23827, 46.308, -7358.22607421875], [-125.24384, 46.308, -6439.27587890625]]], [[[-125.2379, 46.308, -3567.451904296875], [-125.23137, 46.308, -2644.570556640625], [-125.24539, 46.30801, -2648.793701171875], [-125.2379, 46.308, -3567.451904296875]]], [[[-125.41833, 46.31318, -3759.217529296875], [-125.431, 46.31415, -3753.190673828125], [-125.42808, 46.31393, -4680.02294921875], [-125.41833, 46.31318, -3759.217529296875]]], [[[-125.30213, 46.30919, -3433.447998046875], [-125.3087, 46.30966, -2578.06494140625], [-125.3146, 46.30997, -3461.52587890625], [-125.30213, 46.30919, -3433.447998046875]]], [[[-125.25183, 46.30832, -3517.07470703125], [-125.24539, 46.30801, -2648.793701171875], [-125.2583, 46.30878, -2593.9150390625], [-125.25183, 46.30832, -3517.07470703125]]], [[[-125.39284, 46.31122, -3783.704345703125], [-125.37997, 46.31023, -3796.458251953125], [-125.38561, 46.31066, -2830.923828125], [-125.39284, 46.31122, -3783.704345703125]]], [[[-125.26487, 46.30898, -3454.385986328125], [-125.25183, 46.30832, -3517.07470703125], [-125.2583, 46.30878, -2593.9150390625], [-125.26487, 46.30898, -3454.385986328125]]], [[[-125.26487, 46.30898, -3454.385986328125], [-125.2583, 46.30878, -2593.9150390625], [-125.27082, 46.309, -2547.82763671875], [-125.26487, 46.30898, -3454.385986328125]]], [[[-125.53238, 46.3111, -3516.823486328125], [-125.54448, 46.312, -3658.175537109375], [-125.54357, 46.31199, -4660.13525390625], [-125.53238, 46.3111, -3516.823486328125]]], [[[-125.15949, 46.30698, -5925.134765625], [-125.14691, 46.30624, -6232.9736328125], [-125.14753, 46.30629, -5268.1123046875], [-125.15949, 46.30698, -5925.134765625]]], [[[-125.26936, 46.30898, -6305.7001953125], [-125.28223, 46.309, -6233.67138671875], [-125.27661, 46.309, -7131.9140625], [-125.26936, 46.30898, -6305.7001953125]]], [[[-125.16745, 46.30699, -2555.6650390625], [-125.15388, 46.30676, -2543.977294921875], [-125.16164, 46.307, -1629.1014404296875], [-125.16745, 46.30699, -2555.6650390625]]], [[[-125.27082, 46.309, -2547.82763671875], [-125.26402, 46.309, -1699.26806640625], [-125.27685, 46.309, -1665.2493896484375], [-125.27082, 46.309, -2547.82763671875]]], [[[-125.2583, 46.30878, -2593.9150390625], [-125.25125, 46.30825, -1759.635009765625], [-125.26402, 46.309, -1699.26806640625], [-125.2583, 46.30878, -2593.9150390625]]], [[[-125.15796, 46.30689, -4741.43603515625], [-125.14753, 46.30629, -5268.1123046875], [-125.14723, 46.3063, -4223.060546875], [-125.15796, 46.30689, -4741.43603515625]]], [[[-125.15949, 46.30698, -5925.134765625], [-125.14753, 46.30629, -5268.1123046875], [-125.15796, 46.30689, -4741.43603515625], [-125.15949, 46.30698, -5925.134765625]]], [[[-125.14753, 46.30629, -5268.1123046875], [-125.14691, 46.30624, -6232.9736328125], [-125.136, 46.306, -5767.18505859375], [-125.14753, 46.30629, -5268.1123046875]]], [[[-125.4102, 46.31255, -5662.31884765625], [-125.41711, 46.31309, -6503.39404296875], [-125.40437, 46.31211, -6551.2626953125], [-125.4102, 46.31255, -5662.31884765625]]], [[[-125.136, 46.306, -6794.65380859375], [-125.14242, 46.306, -7282.4404296875], [-125.136, 46.306, -7822.123046875], [-125.136, 46.306, -6794.65380859375]]], [[[-125.22377, 46.30807, -5589.20947265625], [-125.21834, 46.30827, -6602.701171875], [-125.21161, 46.30878, -5687.53466796875], [-125.22377, 46.30807, -5589.20947265625]]], [[[-125.431, 46.31415, -3753.190673828125], [-125.42384, 46.3136, -2842.7021484375], [-125.43649, 46.31458, -2851.180419921875], [-125.431, 46.31415, -3753.190673828125]]], [[[-125.21834, 46.30827, -6602.701171875], [-125.22548, 46.30802, -7434.125], [-125.21271, 46.3087, -7499.3037109375], [-125.21834, 46.30827, -6602.701171875]]], [[[-125.49927, 46.31744, -5389.94482421875], [-125.50448, 46.31639, -4483.828125], [-125.51165, 46.31506, -5357.11474609375], [-125.49927, 46.31744, -5389.94482421875]]], [[[-125.45363, 46.31572, -4635.880859375], [-125.46133, 46.31596, -5500.19873046875], [-125.44852, 46.3155, -5539.314453125], [-125.45363, 46.31572, -4635.880859375]]], [[[-125.30698, 46.30956, -4375.689453125], [-125.31373, 46.30986, -5226.6005859375], [-125.301, 46.3092, -5280.78125], [-125.30698, 46.30956, -4375.689453125]]], [[[-125.41833, 46.31318, -3759.217529296875], [-125.40557, 46.3122, -3767.5361328125], [-125.4111, 46.31262, -2838.379150390625], [-125.41833, 46.31318, -3759.217529296875]]], [[[-125.52409, 46.31273, -5327.2978515625], [-125.53634, 46.31144, -5310.4755859375], [-125.53041, 46.31115, -6177.75048828125], [-125.52409, 46.31273, -5327.2978515625]]], [[[-125.33221, 46.30952, -4297.1669921875], [-125.32648, 46.30982, -5170.42626953125], [-125.31947, 46.31, -4333.65625], [-125.33221, 46.30952, -4297.1669921875]]], [[[-125.36679, 46.30921, -3802.40087890625], [-125.35961, 46.30901, -2801.860595703125], [-125.37285, 46.30968, -2838.331787109375], [-125.36679, 46.30921, -3802.40087890625]]], [[[-125.33922, 46.30916, -5112.55615234375], [-125.32648, 46.30982, -5170.42626953125], [-125.33221, 46.30952, -4297.1669921875], [-125.33922, 46.30916, -5112.55615234375]]], [[[-125.32648, 46.30982, -5170.42626953125], [-125.33351, 46.30939, -6005.9326171875], [-125.32074, 46.30997, -6063.41552734375], [-125.32648, 46.30982, -5170.42626953125]]], [[[-125.43577, 46.31452, -5579.15576171875], [-125.4426, 46.31505, -6424.4560546875], [-125.42985, 46.31407, -6464.486328125], [-125.43577, 46.31452, -5579.15576171875]]], [[[-125.32648, 46.30982, -5170.42626953125], [-125.32074, 46.30997, -6063.41552734375], [-125.31373, 46.30986, -5226.6005859375], [-125.32648, 46.30982, -5170.42626953125]]], [[[-125.40557, 46.3122, -3767.5361328125], [-125.41833, 46.31318, -3759.217529296875], [-125.41525, 46.31294, -4708.4443359375], [-125.40557, 46.3122, -3767.5361328125]]], [[[-125.46968, 46.31624, -3740.39013671875], [-125.48318, 46.31735, -3697.080078125], [-125.47961, 46.31708, -4568.88525390625], [-125.46968, 46.31624, -3740.39013671875]]], [[[-125.301, 46.3092, -5280.78125], [-125.29521, 46.309, -6171.77197265625], [-125.28816, 46.309, -5299.66064453125], [-125.301, 46.3092, -5280.78125]]], [[[-125.28816, 46.309, -5299.66064453125], [-125.28223, 46.309, -6233.67138671875], [-125.27534, 46.309, -5348.3544921875], [-125.28816, 46.309, -5299.66064453125]]], [[[-125.26264, 46.30892, -5394.54736328125], [-125.25657, 46.30868, -6380.8984375], [-125.24988, 46.3082, -5445.5322265625], [-125.26264, 46.30892, -5394.54736328125]]], [[[-125.42808, 46.31393, -4680.02294921875], [-125.42304, 46.31354, -5618.5859375], [-125.41525, 46.31294, -4708.4443359375], [-125.42808, 46.31393, -4680.02294921875]]], [[[-125.45636, 46.316, -3757.216796875], [-125.46658, 46.31612, -4604.19970703125], [-125.45363, 46.31572, -4635.880859375], [-125.45636, 46.316, -3757.216796875]]], [[[-125.26936, 46.30898, -6305.7001953125], [-125.27661, 46.309, -7131.9140625], [-125.26381, 46.30898, -7206.56201171875], [-125.26936, 46.30898, -6305.7001953125]]], [[[-125.29521, 46.309, -6171.77197265625], [-125.30222, 46.30921, -7009.57275390625], [-125.28941, 46.309, -7063.302734375], [-125.29521, 46.309, -6171.77197265625]]], [[[-125.44356, 46.31512, -3752.835693359375], [-125.431, 46.31415, -3753.190673828125], [-125.43649, 46.31458, -2851.180419921875], [-125.44356, 46.31512, -3752.835693359375]]], [[[-125.30799, 46.30964, -6118.42578125], [-125.32074, 46.30997, -6063.41552734375], [-125.31499, 46.30996, -6956.6728515625], [-125.30799, 46.30964, -6118.42578125]]], [[[-125.5172, 46.31407, -4464.04833984375], [-125.52983, 46.31184, -4448.57080078125], [-125.52409, 46.31273, -5327.2978515625], [-125.5172, 46.31407, -4464.04833984375]]], [[[-125.32074, 46.30997, -6063.41552734375], [-125.33351, 46.30939, -6005.9326171875], [-125.32779, 46.30982, -6899.10546875], [-125.32074, 46.30997, -6063.41552734375]]], [[[-125.34628, 46.30904, -5947.56201171875], [-125.34055, 46.30905, -6841.7412109375], [-125.33351, 46.30939, -6005.9326171875], [-125.34628, 46.30904, -5947.56201171875]]], [[[-125.18736, 46.30834, -3337.300537109375], [-125.18138, 46.30788, -4202.45166015625], [-125.17422, 46.30734, -3360.111328125], [-125.18736, 46.30834, -3337.300537109375]]], [[[-125.35903, 46.309, -5885.984375], [-125.35336, 46.309, -6782.24560546875], [-125.34628, 46.30904, -5947.56201171875], [-125.35903, 46.309, -5885.984375]]], [[[-125.32687, 46.3099, -3496.891357421875], [-125.32141, 46.30999, -2601.583740234375], [-125.33363, 46.30942, -2652.765380859375], [-125.32687, 46.3099, -3496.891357421875]]], [[[-125.35903, 46.309, -5885.984375], [-125.36616, 46.30922, -6717.91748046875], [-125.35336, 46.309, -6782.24560546875], [-125.35903, 46.309, -5885.984375]]], [[[-125.3517, 46.309, -5091.2822265625], [-125.35786, 46.30903, -4391.14697265625], [-125.36506, 46.30923, -4980.3232421875], [-125.3517, 46.309, -5091.2822265625]]], [[[-125.35786, 46.30903, -4391.14697265625], [-125.34505, 46.30901, -4273.1015625], [-125.3527, 46.309, -3590.906005859375], [-125.35786, 46.30903, -4391.14697265625]]], [[[-125.35786, 46.30903, -4391.14697265625], [-125.3527, 46.309, -3590.906005859375], [-125.36679, 46.30921, -3802.40087890625], [-125.35786, 46.30903, -4391.14697265625]]], [[[-125.35786, 46.30903, -4391.14697265625], [-125.36679, 46.30921, -3802.40087890625], [-125.36506, 46.30923, -4980.3232421875], [-125.35786, 46.30903, -4391.14697265625]]], [[[-125.3768, 46.30999, -4799.89404296875], [-125.36506, 46.30923, -4980.3232421875], [-125.36679, 46.30921, -3802.40087890625], [-125.3768, 46.30999, -4799.89404296875]]], [[[-125.3718, 46.30963, -5821.5283203125], [-125.3768, 46.30999, -4799.89404296875], [-125.38455, 46.31058, -5737.37548828125], [-125.3718, 46.30963, -5821.5283203125]]], [[[-125.39737, 46.31157, -5694.8154296875], [-125.40437, 46.31211, -6551.2626953125], [-125.39163, 46.31113, -6600.88330078125], [-125.39737, 46.31157, -5694.8154296875]]], [[[-125.4102, 46.31255, -5662.31884765625], [-125.42304, 46.31354, -5618.5859375], [-125.41711, 46.31309, -6503.39404296875], [-125.4102, 46.31255, -5662.31884765625]]], [[[-125.41525, 46.31294, -4708.4443359375], [-125.4102, 46.31255, -5662.31884765625], [-125.40241, 46.31195, -4736.654296875], [-125.41525, 46.31294, -4708.4443359375]]], [[[-125.49235, 46.3186, -4664.76904296875], [-125.48679, 46.31801, -5425.94091796875], [-125.47961, 46.31708, -4568.88525390625], [-125.49235, 46.3186, -4664.76904296875]]], [[[-125.48679, 46.31801, -5425.94091796875], [-125.49357, 46.31853, -6272.470703125], [-125.48091, 46.31709, -6307.87353515625], [-125.48679, 46.31801, -5425.94091796875]]], [[[-125.46133, 46.31596, -5500.19873046875], [-125.46818, 46.3161, -6346.287109375], [-125.45536, 46.31592, -6384.77001953125], [-125.46133, 46.31596, -5500.19873046875]]], [[[-125.44852, 46.3155, -5539.314453125], [-125.46133, 46.31596, -5500.19873046875], [-125.45536, 46.31592, -6384.77001953125], [-125.44852, 46.3155, -5539.314453125]]], [[[-125.49357, 46.31853, -6272.470703125], [-125.49235, 46.3186, -4664.76904296875], [-125.49927, 46.31744, -5389.94482421875], [-125.49357, 46.31853, -6272.470703125]]], [[[-125.49927, 46.31744, -5389.94482421875], [-125.51165, 46.31506, -5357.11474609375], [-125.50578, 46.31607, -6239.01318359375], [-125.49927, 46.31744, -5389.94482421875]]], [[[-125.50448, 46.31639, -4483.828125], [-125.49927, 46.31744, -5389.94482421875], [-125.49235, 46.3186, -4664.76904296875], [-125.50448, 46.31639, -4483.828125]]], [[[-125.50448, 46.31639, -4483.828125], [-125.49235, 46.3186, -4664.76904296875], [-125.49561, 46.3184, -3518.211181640625], [-125.50448, 46.31639, -4483.828125]]], [[[-125.50761, 46.31573, -3600.78076171875], [-125.51266, 46.31489, -2695.5908203125], [-125.51992, 46.31356, -3578.42333984375], [-125.50761, 46.31573, -3600.78076171875]]], [[[-125.50761, 46.31573, -3600.78076171875], [-125.5172, 46.31407, -4464.04833984375], [-125.50448, 46.31639, -4483.828125], [-125.50761, 46.31573, -3600.78076171875]]], [[[-125.50448, 46.31639, -4483.828125], [-125.5172, 46.31407, -4464.04833984375], [-125.51165, 46.31506, -5357.11474609375], [-125.50448, 46.31639, -4483.828125]]], [[[-125.5172, 46.31407, -4464.04833984375], [-125.52409, 46.31273, -5327.2978515625], [-125.51165, 46.31506, -5357.11474609375], [-125.5172, 46.31407, -4464.04833984375]]], [[[-125.52983, 46.31184, -4448.57080078125], [-125.5172, 46.31407, -4464.04833984375], [-125.51992, 46.31356, -3578.42333984375], [-125.52983, 46.31184, -4448.57080078125]]], [[[-125.52983, 46.31184, -4448.57080078125], [-125.51992, 46.31356, -3578.42333984375], [-125.53238, 46.3111, -3516.823486328125], [-125.52983, 46.31184, -4448.57080078125]]], [[[-125.53238, 46.3111, -3516.823486328125], [-125.54681, 46.312, -2831.370849609375], [-125.54448, 46.312, -3658.175537109375], [-125.53238, 46.3111, -3516.823486328125]]], [[[-125.52983, 46.31184, -4448.57080078125], [-125.54357, 46.31199, -4660.13525390625], [-125.53634, 46.31144, -5310.4755859375], [-125.52983, 46.31184, -4448.57080078125]]], [[[-125.52983, 46.31184, -4448.57080078125], [-125.53634, 46.31144, -5310.4755859375], [-125.52409, 46.31273, -5327.2978515625], [-125.52983, 46.31184, -4448.57080078125]]], [[[-125.51165, 46.31506, -5357.11474609375], [-125.51824, 46.31394, -6206.41162109375], [-125.50578, 46.31607, -6239.01318359375], [-125.51165, 46.31506, -5357.11474609375]]], [[[-125.53634, 46.31144, -5310.4755859375], [-125.54318, 46.312, -6143.90966796875], [-125.53041, 46.31115, -6177.75048828125], [-125.53634, 46.31144, -5310.4755859375]]], [[[-125.53634, 46.31144, -5310.4755859375], [-125.54357, 46.31199, -4660.13525390625], [-125.54318, 46.312, -6143.90966796875], [-125.53634, 46.31144, -5310.4755859375]]], [[[-125.51992, 46.31356, -3578.42333984375], [-125.52505, 46.31237, -2696.539306640625], [-125.53238, 46.3111, -3516.823486328125], [-125.51992, 46.31356, -3578.42333984375]]], [[[-125.49561, 46.3184, -3518.211181640625], [-125.49235, 46.3186, -4664.76904296875], [-125.48318, 46.31735, -3697.080078125], [-125.49561, 46.3184, -3518.211181640625]]], [[[-125.49561, 46.3184, -3518.211181640625], [-125.48318, 46.31735, -3697.080078125], [-125.48875, 46.31828, -2787.663330078125], [-125.49561, 46.3184, -3518.211181640625]]], [[[-125.48318, 46.31735, -3697.080078125], [-125.47565, 46.31659, -2874.272705078125], [-125.48875, 46.31828, -2787.663330078125], [-125.48318, 46.31735, -3697.080078125]]], [[[-125.48318, 46.31735, -3697.080078125], [-125.46968, 46.31624, -3740.39013671875], [-125.47565, 46.31659, -2874.272705078125], [-125.48318, 46.31735, -3697.080078125]]], [[[-125.46968, 46.31624, -3740.39013671875], [-125.47961, 46.31708, -4568.88525390625], [-125.46658, 46.31612, -4604.19970703125], [-125.46968, 46.31624, -3740.39013671875]]], [[[-125.46968, 46.31624, -3740.39013671875], [-125.45636, 46.316, -3757.216796875], [-125.46219, 46.316, -2888.666259765625], [-125.46968, 46.31624, -3740.39013671875]]], [[[-125.46968, 46.31624, -3740.39013671875], [-125.46219, 46.316, -2888.666259765625], [-125.47565, 46.31659, -2874.272705078125], [-125.46968, 46.31624, -3740.39013671875]]], [[[-125.48318, 46.31735, -3697.080078125], [-125.49235, 46.3186, -4664.76904296875], [-125.47961, 46.31708, -4568.88525390625], [-125.48318, 46.31735, -3697.080078125]]], [[[-125.40557, 46.3122, -3767.5361328125], [-125.39836, 46.31164, -2834.56982421875], [-125.4111, 46.31262, -2838.379150390625], [-125.40557, 46.3122, -3767.5361328125]]], [[[-125.37997, 46.31023, -3796.458251953125], [-125.37285, 46.30968, -2838.331787109375], [-125.38561, 46.31066, -2830.923828125], [-125.37997, 46.31023, -3796.458251953125]]], [[[-125.36679, 46.30921, -3802.40087890625], [-125.37997, 46.31023, -3796.458251953125], [-125.3768, 46.30999, -4799.89404296875], [-125.36679, 46.30921, -3802.40087890625]]], [[[-125.36679, 46.30921, -3802.40087890625], [-125.3527, 46.309, -3590.906005859375], [-125.35961, 46.30901, -2801.860595703125], [-125.36679, 46.30921, -3802.40087890625]]], [[[-125.3527, 46.309, -3590.906005859375], [-125.34633, 46.309, -2734.3271484375], [-125.35961, 46.30901, -2801.860595703125], [-125.3527, 46.309, -3590.906005859375]]], [[[-125.3527, 46.309, -3590.906005859375], [-125.33913, 46.30907, -3520.84228515625], [-125.34633, 46.309, -2734.3271484375], [-125.3527, 46.309, -3590.906005859375]]], [[[-125.3527, 46.309, -3590.906005859375], [-125.34505, 46.30901, -4273.1015625], [-125.33913, 46.30907, -3520.84228515625], [-125.3527, 46.309, -3590.906005859375]]], [[[-125.34505, 46.30901, -4273.1015625], [-125.33221, 46.30952, -4297.1669921875], [-125.33913, 46.30907, -3520.84228515625], [-125.34505, 46.30901, -4273.1015625]]], [[[-125.33221, 46.30952, -4297.1669921875], [-125.34505, 46.30901, -4273.1015625], [-125.33922, 46.30916, -5112.55615234375], [-125.33221, 46.30952, -4297.1669921875]]], [[[-125.34505, 46.30901, -4273.1015625], [-125.3517, 46.309, -5091.2822265625], [-125.33922, 46.30916, -5112.55615234375], [-125.34505, 46.30901, -4273.1015625]]], [[[-125.33922, 46.30916, -5112.55615234375], [-125.3517, 46.309, -5091.2822265625], [-125.34628, 46.30904, -5947.56201171875], [-125.33922, 46.30916, -5112.55615234375]]], [[[-125.33922, 46.30916, -5112.55615234375], [-125.34628, 46.30904, -5947.56201171875], [-125.33351, 46.30939, -6005.9326171875], [-125.33922, 46.30916, -5112.55615234375]]], [[[-125.3517, 46.309, -5091.2822265625], [-125.35903, 46.309, -5885.984375], [-125.34628, 46.30904, -5947.56201171875], [-125.3517, 46.309, -5091.2822265625]]], [[[-125.33221, 46.30952, -4297.1669921875], [-125.32687, 46.3099, -3496.891357421875], [-125.33913, 46.30907, -3520.84228515625], [-125.33221, 46.30952, -4297.1669921875]]], [[[-125.33363, 46.30942, -2652.765380859375], [-125.33913, 46.30907, -3520.84228515625], [-125.32687, 46.3099, -3496.891357421875], [-125.33363, 46.30942, -2652.765380859375]]], [[[-125.33913, 46.30907, -3520.84228515625], [-125.33363, 46.30942, -2652.765380859375], [-125.34633, 46.309, -2734.3271484375], [-125.33913, 46.30907, -3520.84228515625]]], [[[-125.2444, 46.308, -4477.4130859375], [-125.23707, 46.308, -5535.09716796875], [-125.2303, 46.308, -4608.49169921875], [-125.2444, 46.308, -4477.4130859375]]], [[[-125.23707, 46.308, -5535.09716796875], [-125.22377, 46.30807, -5589.20947265625], [-125.2303, 46.308, -4608.49169921875], [-125.23707, 46.308, -5535.09716796875]]], [[[-125.23707, 46.308, -5535.09716796875], [-125.23101, 46.30801, -6532.7158203125], [-125.22377, 46.30807, -5589.20947265625], [-125.23707, 46.308, -5535.09716796875]]], [[[-125.23707, 46.308, -5535.09716796875], [-125.24384, 46.308, -6439.27587890625], [-125.23101, 46.30801, -6532.7158203125], [-125.23707, 46.308, -5535.09716796875]]], [[[-125.21689, 46.30839, -4503.220703125], [-125.2303, 46.308, -4608.49169921875], [-125.22377, 46.30807, -5589.20947265625], [-125.21689, 46.30839, -4503.220703125]]], [[[-125.21689, 46.30839, -4503.220703125], [-125.22377, 46.30807, -5589.20947265625], [-125.21161, 46.30878, -5687.53466796875], [-125.21689, 46.30839, -4503.220703125]]], [[[-125.20423, 46.30898, -4944.9462890625], [-125.21689, 46.30839, -4503.220703125], [-125.21161, 46.30878, -5687.53466796875], [-125.20423, 46.30898, -4944.9462890625]]], [[[-125.20423, 46.30898, -4944.9462890625], [-125.20514, 46.30897, -4171.16162109375], [-125.21689, 46.30839, -4503.220703125], [-125.20423, 46.30898, -4944.9462890625]]], [[[-125.20423, 46.30898, -4944.9462890625], [-125.19333, 46.30875, -4208.533203125], [-125.20514, 46.30897, -4171.16162109375], [-125.20423, 46.30898, -4944.9462890625]]], [[[-125.19126, 46.30861, -5013.638671875], [-125.19333, 46.30875, -4208.533203125], [-125.20423, 46.30898, -4944.9462890625], [-125.19126, 46.30861, -5013.638671875]]], [[[-125.19126, 46.30861, -5013.638671875], [-125.18138, 46.30788, -4202.45166015625], [-125.19333, 46.30875, -4208.533203125], [-125.19126, 46.30861, -5013.638671875]]], [[[-125.1788, 46.30768, -5055.40185546875], [-125.18138, 46.30788, -4202.45166015625], [-125.19126, 46.30861, -5013.638671875], [-125.1788, 46.30768, -5055.40185546875]]], [[[-125.1788, 46.30768, -5055.40185546875], [-125.16939, 46.30705, -4262.44140625], [-125.18138, 46.30788, -4202.45166015625], [-125.1788, 46.30768, -5055.40185546875]]], [[[-125.16939, 46.30705, -4262.44140625], [-125.1788, 46.30768, -5055.40185546875], [-125.16687, 46.30711, -5165.5556640625], [-125.16939, 46.30705, -4262.44140625]]], [[[-125.16939, 46.30705, -4262.44140625], [-125.16687, 46.30711, -5165.5556640625], [-125.15796, 46.30689, -4741.43603515625], [-125.16939, 46.30705, -4262.44140625]]], [[[-125.16939, 46.30705, -4262.44140625], [-125.15796, 46.30689, -4741.43603515625], [-125.15946, 46.30692, -3598.807861328125], [-125.16939, 46.30705, -4262.44140625]]], [[[-125.16939, 46.30705, -4262.44140625], [-125.15946, 46.30692, -3598.807861328125], [-125.17422, 46.30734, -3360.111328125], [-125.16939, 46.30705, -4262.44140625]]], [[[-125.16939, 46.30705, -4262.44140625], [-125.17422, 46.30734, -3360.111328125], [-125.18138, 46.30788, -4202.45166015625], [-125.16939, 46.30705, -4262.44140625]]], [[[-125.18138, 46.30788, -4202.45166015625], [-125.18736, 46.30834, -3337.300537109375], [-125.19333, 46.30875, -4208.533203125], [-125.18138, 46.30788, -4202.45166015625]]], [[[-125.18736, 46.30834, -3337.300537109375], [-125.17422, 46.30734, -3360.111328125], [-125.18101, 46.30785, -2474.0009765625], [-125.18736, 46.30834, -3337.300537109375]]], [[[-125.18736, 46.30834, -3337.300537109375], [-125.18101, 46.30785, -2474.0009765625], [-125.19359, 46.3088, -2468.636962890625], [-125.18736, 46.30834, -3337.300537109375]]], [[[-125.17422, 46.30734, -3360.111328125], [-125.16745, 46.30699, -2555.6650390625], [-125.18101, 46.30785, -2474.0009765625], [-125.17422, 46.30734, -3360.111328125]]], [[[-125.17422, 46.30734, -3360.111328125], [-125.15946, 46.30692, -3598.807861328125], [-125.16745, 46.30699, -2555.6650390625], [-125.17422, 46.30734, -3360.111328125]]], [[[-125.15796, 46.30689, -4741.43603515625], [-125.14723, 46.3063, -4223.060546875], [-125.15946, 46.30692, -3598.807861328125], [-125.15796, 46.30689, -4741.43603515625]]], [[[-125.16687, 46.30711, -5165.5556640625], [-125.15949, 46.30698, -5925.134765625], [-125.15796, 46.30689, -4741.43603515625], [-125.16687, 46.30711, -5165.5556640625]]], [[[-125.15949, 46.30698, -5925.134765625], [-125.16687, 46.30711, -5165.5556640625], [-125.17316, 46.30727, -5943.103515625], [-125.15949, 46.30698, -5925.134765625]]], [[[-125.1788, 46.30768, -5055.40185546875], [-125.17316, 46.30727, -5943.103515625], [-125.16687, 46.30711, -5165.5556640625], [-125.1788, 46.30768, -5055.40185546875]]], [[[-125.1788, 46.30768, -5055.40185546875], [-125.18584, 46.30822, -5888.1494140625], [-125.17316, 46.30727, -5943.103515625], [-125.1788, 46.30768, -5055.40185546875]]], [[[-125.1788, 46.30768, -5055.40185546875], [-125.19126, 46.30861, -5013.638671875], [-125.18584, 46.30822, -5888.1494140625], [-125.1788, 46.30768, -5055.40185546875]]], [[[-125.19126, 46.30861, -5013.638671875], [-125.19854, 46.30897, -5830.43408203125], [-125.18584, 46.30822, -5888.1494140625], [-125.19126, 46.30861, -5013.638671875]]], [[[-125.19126, 46.30861, -5013.638671875], [-125.20423, 46.30898, -4944.9462890625], [-125.19854, 46.30897, -5830.43408203125], [-125.19126, 46.30861, -5013.638671875]]], [[[-125.20423, 46.30898, -4944.9462890625], [-125.21161, 46.30878, -5687.53466796875], [-125.19854, 46.30897, -5830.43408203125], [-125.20423, 46.30898, -4944.9462890625]]], [[[-125.21161, 46.30878, -5687.53466796875], [-125.20564, 46.30899, -6664.7529296875], [-125.19854, 46.30897, -5830.43408203125], [-125.21161, 46.30878, -5687.53466796875]]], [[[-125.136, 46.306, -2684.778076171875], [-125.14699, 46.30626, -3234.022705078125], [-125.136, 46.306, -3712.2470703125], [-125.136, 46.306, -2684.778076171875]]], [[[-125.136, 46.306, -2684.778076171875], [-125.14244, 46.306, -2163.382080078125], [-125.14699, 46.30626, -3234.022705078125], [-125.136, 46.306, -2684.778076171875]]], [[[-125.136, 46.306, -1657.3089599609375], [-125.14244, 46.306, -2163.382080078125], [-125.136, 46.306, -2684.778076171875], [-125.136, 46.306, -1657.3089599609375]]], [[[-125.136, 46.306, -1657.3089599609375], [-125.14883, 46.30637, -1643.0], [-125.14244, 46.306, -2163.382080078125], [-125.136, 46.306, -1657.3089599609375]]], [[[-125.15388, 46.30676, -2543.977294921875], [-125.14244, 46.306, -2163.382080078125], [-125.14883, 46.30637, -1643.0], [-125.15388, 46.30676, -2543.977294921875]]], [[[-125.15388, 46.30676, -2543.977294921875], [-125.14699, 46.30626, -3234.022705078125], [-125.14244, 46.306, -2163.382080078125], [-125.15388, 46.30676, -2543.977294921875]]], [[[-125.15388, 46.30676, -2543.977294921875], [-125.14883, 46.30637, -1643.0], [-125.16164, 46.307, -1629.1014404296875], [-125.15388, 46.30676, -2543.977294921875]]], [[[-125.28306, 46.309, -2540.380615234375], [-125.27685, 46.309, -1665.2493896484375], [-125.28969, 46.309, -1684.0673828125], [-125.28306, 46.309, -2540.380615234375]]], [[[-125.28306, 46.309, -2540.380615234375], [-125.28969, 46.309, -1684.0673828125], [-125.29591, 46.30901, -2559.050048828125], [-125.28306, 46.309, -2540.380615234375]]], [[[-125.28969, 46.309, -1684.0673828125], [-125.30253, 46.30919, -1702.880859375], [-125.29591, 46.30901, -2559.050048828125], [-125.28969, 46.309, -1684.0673828125]]], [[[-125.54959, 46.312, -5633.44482421875], [-125.556, 46.312, -5122.97998046875], [-125.556, 46.312, -6108.1220703125], [-125.54959, 46.312, -5633.44482421875]]]]}}]}