{"type": "FeatureCollection", "features": [{"type": "Feature", "properties": {"name": "Yaquina", "CFM_ID": 209, "region": "ForearcIntraarc_OR", "primary_state/province": "OR", "secondary_state/province": null, "avg_dip": 60.0, "dip_dir": "N", "rake": 90, "slip_sense": "Reverse", "fault_level": 1, "NSHM23_sliprates": 0.61, "QFFDAgeCatBin": "late Quaternary", "QFFDAgeBin": "<130,000", "upper_depth": 0.1, "upper_depth_constraint": "topography", "lower_depth": -24.9, "lower_depth_constraint": "Slab2", "3D_model_constraints": "trace extended at constant dip", "reference": "US NSHM 2023", "nshm23_id": 2545.0, "lineage": "unmodified", "usgs_qffd_#": "885", "comments": null, "id": "209"}, "geometry": {"type": "MultiPolygon", "coordinates": [[[[-124.04387, 44.63123, -750.4876098632812], [-124.05158, 44.63153, -1447.5345458984375], [-124.05448, 44.62533, -780.9072875976562], [-124.04387, 44.63123, -750.4876098632812]]], [[[-124.05229, 44.71635, -16630.75390625], [-124.04947, 44.71238, -15772.0751953125], [-124.04064, 44.71675, -16276.47265625], [-124.05229, 44.71635, -16630.75390625]]], [[[-124.14367, 44.71839, -22714.986328125], [-124.14466, 44.72293, -23515.447265625], [-124.15443, 44.71687, -23331.4765625], [-124.14367, 44.71839, -22714.986328125]]], [[[-124.03865, 44.68045, -9243.3984375], [-124.02974, 44.68461, -9761.3232421875], [-124.04147, 44.68442, -10101.9990234375], [-124.03865, 44.68045, -9243.3984375]]], [[[-124.01894, 44.65267, -3233.196044921875], [-124.01003, 44.65684, -3750.570068359375], [-124.02175, 44.65664, -4091.79638671875], [-124.01894, 44.65267, -3233.196044921875]]], [[[-124.09291, 44.73585, -21842.654296875], [-124.09497, 44.74025, -22746.0546875], [-124.10578, 44.73622, -22530.423828125], [-124.09291, 44.73585, -21842.654296875]]], [[[-124.13497, 44.72394, -22881.134765625], [-124.14466, 44.72293, -23515.447265625], [-124.14367, 44.71839, -22714.986328125], [-124.13497, 44.72394, -22881.134765625]]], [[[-124.07021, 44.70758, -15613.4287109375], [-124.05839, 44.70823, -15253.6005859375], [-124.06121, 44.71219, -16112.201171875], [-124.07021, 44.70758, -15613.4287109375]]], [[[-124.02411, 44.67668, -8043.96533203125], [-124.02129, 44.67271, -7185.2861328125], [-124.01239, 44.67688, -7702.193359375], [-124.02411, 44.67668, -8043.96533203125]]], [[[-124.07892, 44.73606, -21302.630859375], [-124.07532, 44.73203, -20405.203125], [-124.06639, 44.73618, -20924.1484375], [-124.07892, 44.73606, -21302.630859375]]], [[[-124.13497, 44.72394, -22881.134765625], [-124.13519, 44.72922, -23694.578125], [-124.14466, 44.72293, -23515.447265625], [-124.13497, 44.72394, -22881.134765625]]], [[[-124.02692, 44.68065, -8902.64453125], [-124.02411, 44.67668, -8043.96533203125], [-124.01521, 44.68087, -8559.62109375], [-124.02692, 44.68065, -8902.64453125]]], [[[-124.03153, 44.63594, -703.3670654296875], [-124.02391, 44.63377, 70.99528503417969], [-124.01957, 44.639, -696.478515625], [-124.03153, 44.63594, -703.3670654296875]]], [[[-124.02457, 44.66061, -4950.39697265625], [-124.01284, 44.66081, -4609.2490234375], [-124.01566, 44.66478, -5467.92822265625], [-124.02457, 44.66061, -4950.39697265625]]], [[[-124.12571, 44.73045, -23043.8515625], [-124.13519, 44.72922, -23694.578125], [-124.13497, 44.72394, -22881.134765625], [-124.12571, 44.73045, -23043.8515625]]], [[[-124.07025, 44.63345, -3377.864990234375], [-124.07794, 44.62723, -2997.057373046875], [-124.06735, 44.62943, -2507.83056640625], [-124.07025, 44.63345, -3377.864990234375]]], [[[-124.12571, 44.73045, -23043.8515625], [-124.1258, 44.73559, -23868.0390625], [-124.13519, 44.72922, -23694.578125], [-124.12571, 44.73045, -23043.8515625]]], [[[-124.06739, 44.70361, -14754.90625], [-124.06457, 44.69965, -13896.3896484375], [-124.05557, 44.70426, -14395.0009765625], [-124.06739, 44.70361, -14754.90625]]], [[[-124.03819, 44.69651, -12337.359375], [-124.02651, 44.69682, -11989.3330078125], [-124.02933, 44.7008, -12846.7607421875], [-124.03819, 44.69651, -12337.359375]]], [[[-124.01957, 44.639, -696.478515625], [-124.01185, 44.63679, 53.96658706665039], [-124.00631, 44.64157, -674.4408569335938], [-124.01957, 44.639, -696.478515625]]], [[[-124.05839, 44.70823, -15253.6005859375], [-124.04947, 44.71238, -15772.0751953125], [-124.06121, 44.71219, -16112.201171875], [-124.05839, 44.70823, -15253.6005859375]]], [[[-124.11612, 44.73634, -23217.560546875], [-124.1258, 44.73559, -23868.0390625], [-124.12571, 44.73045, -23043.8515625], [-124.11612, 44.73634, -23217.560546875]]], [[[-124.02739, 44.66458, -5808.9970703125], [-124.01566, 44.66478, -5467.92822265625], [-124.01847, 44.66874, -6326.60693359375], [-124.02739, 44.66458, -5808.9970703125]]], [[[-124.05155, 44.66243, -6489.9560546875], [-124.042, 44.66789, -7028.16552734375], [-124.05438, 44.66641, -7350.021484375], [-124.05155, 44.66243, -6489.9560546875]]], [[[-124.07479, 44.74828, -23538.2265625], [-124.07204, 44.74411, -22641.505859375], [-124.06326, 44.74863, -23135.896484375], [-124.07479, 44.74828, -23538.2265625]]], [[[-124.11612, 44.73634, -23217.560546875], [-124.1159, 44.74154, -24049.826171875], [-124.1258, 44.73559, -23868.0390625], [-124.11612, 44.73634, -23217.560546875]]], [[[-124.03256, 44.68858, -10620.001953125], [-124.02086, 44.68884, -10274.4775390625], [-124.02368, 44.69283, -11131.9052734375], [-124.03256, 44.68858, -10620.001953125]]], [[[-124.04147, 44.68442, -10101.9990234375], [-124.03256, 44.68858, -10620.001953125], [-124.04429, 44.68839, -10960.599609375], [-124.04147, 44.68442, -10101.9990234375]]], [[[-124.07311, 44.63745, -4240.94091796875], [-124.08366, 44.63523, -4723.20947265625], [-124.0808, 44.63123, -3860.133544921875], [-124.07311, 44.63745, -4240.94091796875]]], [[[-124.11612, 44.73634, -23217.560546875], [-124.10597, 44.74108, -23416.6484375], [-124.1159, 44.74154, -24049.826171875], [-124.11612, 44.73634, -23217.560546875]]], [[[-124.04101, 44.70048, -13196.0380859375], [-124.03819, 44.69651, -12337.359375], [-124.02933, 44.7008, -12846.7607421875], [-124.04101, 44.70048, -13196.0380859375]]], [[[-124.04387, 44.63123, -750.4876098632812], [-124.05448, 44.62533, -780.9072875976562], [-124.04621, 44.62527, -21.58445930480957], [-124.04387, 44.63123, -750.4876098632812]]], [[[-124.11612, 44.73634, -23217.560546875], [-124.10578, 44.73622, -22530.423828125], [-124.10597, 44.74108, -23416.6484375], [-124.11612, 44.73634, -23217.560546875]]], [[[-124.04147, 44.68442, -10101.9990234375], [-124.02974, 44.68461, -9761.3232421875], [-124.03256, 44.68858, -10620.001953125], [-124.04147, 44.68442, -10101.9990234375]]], [[[-124.03819, 44.69651, -12337.359375], [-124.03537, 44.69255, -11478.6806640625], [-124.02651, 44.69682, -11989.3330078125], [-124.03819, 44.69651, -12337.359375]]], [[[-124.02129, 44.67271, -7185.2861328125], [-124.00957, 44.6729, -6844.765625], [-124.01239, 44.67688, -7702.193359375], [-124.02129, 44.67271, -7185.2861328125]]], [[[-124.1163, 44.73065, -22318.140625], [-124.10578, 44.73622, -22530.423828125], [-124.11612, 44.73634, -23217.560546875], [-124.1163, 44.73065, -22318.140625]]], [[[-124.10597, 44.74108, -23416.6484375], [-124.09484, 44.74499, -23618.41015625], [-124.10468, 44.74604, -24252.607421875], [-124.10597, 44.74108, -23416.6484375]]], [[[-124.10708, 44.73115, -21698.412109375], [-124.10578, 44.73622, -22530.423828125], [-124.1163, 44.73065, -22318.140625], [-124.10708, 44.73115, -21698.412109375]]], [[[-124.10708, 44.73115, -21698.412109375], [-124.09291, 44.73585, -21842.654296875], [-124.10578, 44.73622, -22530.423828125], [-124.10708, 44.73115, -21698.412109375]]], [[[-124.09685, 44.73109, -21157.291015625], [-124.09291, 44.73585, -21842.654296875], [-124.10708, 44.73115, -21698.412109375], [-124.09685, 44.73109, -21157.291015625]]], [[[-124.05448, 44.62533, -780.9072875976562], [-124.05606, 44.61947, -27.879730224609375], [-124.04621, 44.62527, -21.58445930480957], [-124.05448, 44.62533, -780.9072875976562]]], [[[-124.05275, 44.70029, -13536.400390625], [-124.04101, 44.70048, -13196.0380859375], [-124.04383, 44.70445, -14054.7177734375], [-124.05275, 44.70029, -13536.400390625]]], [[[-124.02974, 44.68461, -9761.3232421875], [-124.02692, 44.68065, -8902.64453125], [-124.01804, 44.68486, -9417.048828125], [-124.02974, 44.68461, -9761.3232421875]]], [[[-124.042, 44.66789, -7028.16552734375], [-124.0302, 44.66855, -6667.59765625], [-124.03302, 44.67252, -7526.19775390625], [-124.042, 44.66789, -7028.16552734375]]], [[[-124.02457, 44.66061, -4950.39697265625], [-124.01566, 44.66478, -5467.92822265625], [-124.02739, 44.66458, -5808.9970703125], [-124.02457, 44.66061, -4950.39697265625]]], [[[-124.09291, 44.73585, -21842.654296875], [-124.09685, 44.73109, -21157.291015625], [-124.08695, 44.73163, -20798.3046875], [-124.09291, 44.73585, -21842.654296875]]], [[[-124.04665, 44.70841, -14913.396484375], [-124.04383, 44.70445, -14054.7177734375], [-124.03499, 44.70877, -14561.6171875], [-124.04665, 44.70841, -14913.396484375]]], [[[-124.08695, 44.73163, -20798.3046875], [-124.07892, 44.73606, -21302.630859375], [-124.09291, 44.73585, -21842.654296875], [-124.08695, 44.73163, -20798.3046875]]], [[[-124.07025, 44.63345, -3377.864990234375], [-124.0808, 44.63123, -3860.133544921875], [-124.07794, 44.62723, -2997.057373046875], [-124.07025, 44.63345, -3377.864990234375]]], [[[-124.08695, 44.73163, -20798.3046875], [-124.07532, 44.73203, -20405.203125], [-124.07892, 44.73606, -21302.630859375], [-124.08695, 44.73163, -20798.3046875]]], [[[-124.06685, 44.72013, -17829.40234375], [-124.05511, 44.72031, -17489.43359375], [-124.05793, 44.72428, -18348.111328125], [-124.06685, 44.72013, -17829.40234375]]], [[[-124.08437, 44.72745, -19910.853515625], [-124.07532, 44.73203, -20405.203125], [-124.08695, 44.73163, -20798.3046875], [-124.08437, 44.72745, -19910.853515625]]], [[[-124.08437, 44.72745, -19910.853515625], [-124.0725, 44.72806, -19546.603515625], [-124.07532, 44.73203, -20405.203125], [-124.08437, 44.72745, -19910.853515625]]], [[[-124.06326, 44.74863, -23135.896484375], [-124.07204, 44.74411, -22641.505859375], [-124.06043, 44.74465, -22278.46875], [-124.06326, 44.74863, -23135.896484375]]], [[[-124.06298, 44.62565, -1559.2164306640625], [-124.07477, 44.62327, -2115.228759765625], [-124.07205, 44.61889, -1202.716796875], [-124.06298, 44.62565, -1559.2164306640625]]], [[[-124.06175, 44.69568, -13037.87109375], [-124.05892, 44.69171, -12179.3515625], [-124.04993, 44.69632, -12677.7998046875], [-124.06175, 44.69568, -13037.87109375]]], [[[-124.08437, 44.72745, -19910.853515625], [-124.08152, 44.72346, -19047.974609375], [-124.0725, 44.72806, -19546.603515625], [-124.08437, 44.72745, -19910.853515625]]], [[[-123.987, 44.641, 14.657999992370605], [-123.98982, 44.64499, -842.7699584960938], [-123.99462, 44.64195, -389.7891540527344], [-123.987, 44.641, 14.657999992370605]]], [[[-124.08152, 44.72346, -19047.974609375], [-124.08437, 44.72745, -19910.853515625], [-124.09405, 44.72207, -19387.55078125], [-124.08152, 44.72346, -19047.974609375]]], [[[-124.03302, 44.67252, -7526.19775390625], [-124.02129, 44.67271, -7185.2861328125], [-124.02411, 44.67668, -8043.96533203125], [-124.03302, 44.67252, -7526.19775390625]]], [[[-124.05839, 44.70823, -15253.6005859375], [-124.04665, 44.70841, -14913.396484375], [-124.04947, 44.71238, -15772.0751953125], [-124.05839, 44.70823, -15253.6005859375]]], [[[-124.06298, 44.62565, -1559.2164306640625], [-124.06383, 44.62009, -741.0285034179688], [-124.05448, 44.62533, -780.9072875976562], [-124.06298, 44.62565, -1559.2164306640625]]], [[[-124.09118, 44.71808, -18522.5546875], [-124.08152, 44.72346, -19047.974609375], [-124.09405, 44.72207, -19387.55078125], [-124.09118, 44.71808, -18522.5546875]]], [[[-124.09118, 44.71808, -18522.5546875], [-124.07869, 44.71949, -18189.021484375], [-124.08152, 44.72346, -19047.974609375], [-124.09118, 44.71808, -18522.5546875]]], [[[-124.08835, 44.7141, -17662.189453125], [-124.07869, 44.71949, -18189.021484375], [-124.09118, 44.71808, -18522.5546875], [-124.08835, 44.7141, -17662.189453125]]], [[[-124.05448, 44.62533, -780.9072875976562], [-124.06383, 44.62009, -741.0285034179688], [-124.05606, 44.61947, -27.879730224609375], [-124.05448, 44.62533, -780.9072875976562]]], [[[-124.07304, 44.71155, -16471.939453125], [-124.07021, 44.70758, -15613.4287109375], [-124.06121, 44.71219, -16112.201171875], [-124.07304, 44.71155, -16471.939453125]]], [[[-124.05557, 44.70426, -14395.0009765625], [-124.04665, 44.70841, -14913.396484375], [-124.05839, 44.70823, -15253.6005859375], [-124.05557, 44.70426, -14395.0009765625]]], [[[-124.08835, 44.7141, -17662.189453125], [-124.07586, 44.71552, -17330.46875], [-124.07869, 44.71949, -18189.021484375], [-124.08835, 44.7141, -17662.189453125]]], [[[-124.08551, 44.71012, -16802.65625], [-124.07586, 44.71552, -17330.46875], [-124.08835, 44.7141, -17662.189453125], [-124.08551, 44.71012, -16802.65625]]], [[[-124.07479, 44.74828, -23538.2265625], [-124.06609, 44.75262, -23993.32421875], [-124.07339, 44.75266, -24334.212890625], [-124.07479, 44.74828, -23538.2265625]]], [[[-124.08551, 44.71012, -16802.65625], [-124.07304, 44.71155, -16471.939453125], [-124.07586, 44.71552, -17330.46875], [-124.08551, 44.71012, -16802.65625]]], [[[-124.02411, 44.67668, -8043.96533203125], [-124.01239, 44.67688, -7702.193359375], [-124.01521, 44.68087, -8559.62109375], [-124.02411, 44.67668, -8043.96533203125]]], [[[-124.05511, 44.72031, -17489.43359375], [-124.05229, 44.71635, -16630.75390625], [-124.04346, 44.72073, -17133.900390625], [-124.05511, 44.72031, -17489.43359375]]], [[[-124.07479, 44.74828, -23538.2265625], [-124.06326, 44.74863, -23135.896484375], [-124.06609, 44.75262, -23993.32421875], [-124.07479, 44.74828, -23538.2265625]]], [[[-124.07021, 44.70758, -15613.4287109375], [-124.06739, 44.70361, -14754.90625], [-124.05839, 44.70823, -15253.6005859375], [-124.07021, 44.70758, -15613.4287109375]]], [[[-124.08268, 44.70615, -15943.154296875], [-124.07304, 44.71155, -16471.939453125], [-124.08551, 44.71012, -16802.65625], [-124.08268, 44.70615, -15943.154296875]]], [[[-124.06685, 44.72013, -17829.40234375], [-124.05793, 44.72428, -18348.111328125], [-124.06967, 44.7241, -18688.001953125], [-124.06685, 44.72013, -17829.40234375]]], [[[-124.03584, 44.67648, -8384.7978515625], [-124.02411, 44.67668, -8043.96533203125], [-124.02692, 44.68065, -8902.64453125], [-124.03584, 44.67648, -8384.7978515625]]], [[[-124.08268, 44.70615, -15943.154296875], [-124.07021, 44.70758, -15613.4287109375], [-124.07304, 44.71155, -16471.939453125], [-124.08268, 44.70615, -15943.154296875]]], [[[-124.07985, 44.70218, -15083.9052734375], [-124.07021, 44.70758, -15613.4287109375], [-124.08268, 44.70615, -15943.154296875], [-124.07985, 44.70218, -15083.9052734375]]], [[[-124.07586, 44.71552, -17330.46875], [-124.07304, 44.71155, -16471.939453125], [-124.06403, 44.71616, -16970.802734375], [-124.07586, 44.71552, -17330.46875]]], [[[-124.04429, 44.68839, -10960.599609375], [-124.03537, 44.69255, -11478.6806640625], [-124.04711, 44.69236, -11819.19921875], [-124.04429, 44.68839, -10960.599609375]]], [[[-124.07985, 44.70218, -15083.9052734375], [-124.06739, 44.70361, -14754.90625], [-124.07021, 44.70758, -15613.4287109375], [-124.07985, 44.70218, -15083.9052734375]]], [[[-124.07701, 44.6982, -14224.640625], [-124.06739, 44.70361, -14754.90625], [-124.07985, 44.70218, -15083.9052734375], [-124.07701, 44.6982, -14224.640625]]], [[[-124.07701, 44.6982, -14224.640625], [-124.06457, 44.69965, -13896.3896484375], [-124.06739, 44.70361, -14754.90625], [-124.07701, 44.6982, -14224.640625]]], [[[-124.07418, 44.69423, -13365.3212890625], [-124.06457, 44.69965, -13896.3896484375], [-124.07701, 44.6982, -14224.640625], [-124.07418, 44.69423, -13365.3212890625]]], [[[-124.01284, 44.66081, -4609.2490234375], [-124.01003, 44.65684, -3750.570068359375], [-124.0011, 44.66094, -4272.4814453125], [-124.01284, 44.66081, -4609.2490234375]]], [[[-124.07418, 44.69423, -13365.3212890625], [-124.06175, 44.69568, -13037.87109375], [-124.06457, 44.69965, -13896.3896484375], [-124.07418, 44.69423, -13365.3212890625]]], [[[-124.06075, 44.72825, -19206.791015625], [-124.06967, 44.7241, -18688.001953125], [-124.05793, 44.72428, -18348.111328125], [-124.06075, 44.72825, -19206.791015625]]], [[[-124.07135, 44.69026, -12505.9873046875], [-124.06175, 44.69568, -13037.87109375], [-124.07418, 44.69423, -13365.3212890625], [-124.07135, 44.69026, -12505.9873046875]]], [[[-124.07135, 44.69026, -12505.9873046875], [-124.05892, 44.69171, -12179.3515625], [-124.06175, 44.69568, -13037.87109375], [-124.07135, 44.69026, -12505.9873046875]]], [[[-124.10597, 44.74108, -23416.6484375], [-124.10468, 44.74604, -24252.607421875], [-124.1159, 44.74154, -24049.826171875], [-124.10597, 44.74108, -23416.6484375]]], [[[-124.06852, 44.68628, -11646.650390625], [-124.05892, 44.69171, -12179.3515625], [-124.07135, 44.69026, -12505.9873046875], [-124.06852, 44.68628, -11646.650390625]]], [[[-124.06921, 44.74014, -21782.828125], [-124.06639, 44.73618, -20924.1484375], [-124.05761, 44.74066, -21421.041015625], [-124.06921, 44.74014, -21782.828125]]], [[[-124.06852, 44.68628, -11646.650390625], [-124.0561, 44.68774, -11320.8330078125], [-124.05892, 44.69171, -12179.3515625], [-124.06852, 44.68628, -11646.650390625]]], [[[-124.07892, 44.73606, -21302.630859375], [-124.06921, 44.74014, -21782.828125], [-124.08187, 44.73996, -22152.48828125], [-124.07892, 44.73606, -21302.630859375]]], [[[-124.03722, 44.64286, -2238.0361328125], [-124.02805, 44.64824, -2779.5576171875], [-124.03914, 44.64725, -3126.078369140625], [-124.03722, 44.64286, -2238.0361328125]]], [[[-124.06569, 44.68231, -10787.3154296875], [-124.0561, 44.68774, -11320.8330078125], [-124.06852, 44.68628, -11646.650390625], [-124.06569, 44.68231, -10787.3154296875]]], [[[-124.06852, 44.64802, -5461.9853515625], [-124.07884, 44.64544, -5967.0927734375], [-124.07598, 44.64144, -5104.0166015625], [-124.06852, 44.64802, -5461.9853515625]]], [[[-124.06569, 44.68231, -10787.3154296875], [-124.05328, 44.68377, -10462.3134765625], [-124.0561, 44.68774, -11320.8330078125], [-124.06569, 44.68231, -10787.3154296875]]], [[[-124.06286, 44.67833, -9927.984375], [-124.05328, 44.68377, -10462.3134765625], [-124.06569, 44.68231, -10787.3154296875], [-124.06286, 44.67833, -9927.984375]]], [[[-124.06121, 44.71219, -16112.201171875], [-124.05229, 44.71635, -16630.75390625], [-124.06403, 44.71616, -16970.802734375], [-124.06121, 44.71219, -16112.201171875]]], [[[-124.06286, 44.67833, -9927.984375], [-124.05046, 44.6798, -9603.796875], [-124.05328, 44.68377, -10462.3134765625], [-124.06286, 44.67833, -9927.984375]]], [[[-124.01397, 44.64442, -1477.486083984375], [-124.00125, 44.64524, -1223.3824462890625], [-124.0044, 44.64891, -2033.2120361328125], [-124.01397, 44.64442, -1477.486083984375]]], [[[-124.06003, 44.67436, -9068.6923828125], [-124.05046, 44.6798, -9603.796875], [-124.06286, 44.67833, -9927.984375], [-124.06003, 44.67436, -9068.6923828125]]], [[[-124.06003, 44.67436, -9068.6923828125], [-124.04764, 44.67583, -8745.2861328125], [-124.05046, 44.6798, -9603.796875], [-124.06003, 44.67436, -9068.6923828125]]], [[[-124.06403, 44.71616, -16970.802734375], [-124.05511, 44.72031, -17489.43359375], [-124.06685, 44.72013, -17829.40234375], [-124.06403, 44.71616, -16970.802734375]]], [[[-124.03153, 44.63594, -703.3670654296875], [-124.03583, 44.63058, 11.258562088012695], [-124.02391, 44.63377, 70.99528503417969], [-124.03153, 44.63594, -703.3670654296875]]], [[[-124.0572, 44.67039, -8209.5322265625], [-124.04764, 44.67583, -8745.2861328125], [-124.06003, 44.67436, -9068.6923828125], [-124.0572, 44.67039, -8209.5322265625]]], [[[-124.0572, 44.67039, -8209.5322265625], [-124.04482, 44.67186, -7886.74853515625], [-124.04764, 44.67583, -8745.2861328125], [-124.0572, 44.67039, -8209.5322265625]]], [[[-124.02445, 44.64547, -2107.75732421875], [-124.01567, 44.64881, -2380.0234375], [-124.02805, 44.64824, -2779.5576171875], [-124.02445, 44.64547, -2107.75732421875]]], [[[-124.05438, 44.66641, -7350.021484375], [-124.04482, 44.67186, -7886.74853515625], [-124.0572, 44.67039, -8209.5322265625], [-124.05438, 44.66641, -7350.021484375]]], [[[-124.01566, 44.66478, -5467.92822265625], [-124.01284, 44.66081, -4609.2490234375], [-124.00392, 44.66492, -5129.90966796875], [-124.01566, 44.66478, -5467.92822265625]]], [[[-124.05438, 44.66641, -7350.021484375], [-124.042, 44.66789, -7028.16552734375], [-124.04482, 44.67186, -7886.74853515625], [-124.05438, 44.66641, -7350.021484375]]], [[[-124.03584, 44.67648, -8384.7978515625], [-124.02692, 44.68065, -8902.64453125], [-124.03865, 44.68045, -9243.3984375], [-124.03584, 44.67648, -8384.7978515625]]], [[[-124.03918, 44.66391, -6169.0595703125], [-124.03648, 44.6599, -5306.9501953125], [-124.02739, 44.66458, -5808.9970703125], [-124.03918, 44.66391, -6169.0595703125]]], [[[-124.05155, 44.66243, -6489.9560546875], [-124.03918, 44.66391, -6169.0595703125], [-124.042, 44.66789, -7028.16552734375], [-124.05155, 44.66243, -6489.9560546875]]], [[[-124.06735, 44.62943, -2507.83056640625], [-124.07794, 44.62723, -2997.057373046875], [-124.07477, 44.62327, -2115.228759765625], [-124.06735, 44.62943, -2507.83056640625]]], [[[-124.04872, 44.65843, -5624.703125], [-124.03918, 44.66391, -6169.0595703125], [-124.05155, 44.66243, -6489.9560546875], [-124.04872, 44.65843, -5624.703125]]], [[[-124.04872, 44.65843, -5624.703125], [-124.03648, 44.6599, -5306.9501953125], [-124.03918, 44.66391, -6169.0595703125], [-124.04872, 44.65843, -5624.703125]]], [[[-124.09497, 44.74025, -22746.0546875], [-124.09484, 44.74499, -23618.41015625], [-124.10597, 44.74108, -23416.6484375], [-124.09497, 44.74025, -22746.0546875]]], [[[-124.04609, 44.65421, -4731.98095703125], [-124.03648, 44.6599, -5306.9501953125], [-124.04872, 44.65843, -5624.703125], [-124.04609, 44.65421, -4731.98095703125]]], [[[-124.06967, 44.7241, -18688.001953125], [-124.06075, 44.72825, -19206.791015625], [-124.0725, 44.72806, -19546.603515625], [-124.06967, 44.7241, -18688.001953125]]], [[[-124.04609, 44.65421, -4731.98095703125], [-124.03333, 44.65606, -4458.001953125], [-124.03648, 44.6599, -5306.9501953125], [-124.04609, 44.65421, -4731.98095703125]]], [[[-124.06121, 44.71219, -16112.201171875], [-124.04947, 44.71238, -15772.0751953125], [-124.05229, 44.71635, -16630.75390625], [-124.06121, 44.71219, -16112.201171875]]], [[[-124.04082, 44.65158, -3992.8876953125], [-124.03333, 44.65606, -4458.001953125], [-124.04609, 44.65421, -4731.98095703125], [-124.04082, 44.65158, -3992.8876953125]]], [[[-124.04082, 44.65158, -3992.8876953125], [-124.03051, 44.65209, -3599.5390625], [-124.03333, 44.65606, -4458.001953125], [-124.04082, 44.65158, -3992.8876953125]]], [[[-124.03914, 44.64725, -3126.078369140625], [-124.03051, 44.65209, -3599.5390625], [-124.04082, 44.65158, -3992.8876953125], [-124.03914, 44.64725, -3126.078369140625]]], [[[-124.03914, 44.64725, -3126.078369140625], [-124.02805, 44.64824, -2779.5576171875], [-124.03051, 44.65209, -3599.5390625], [-124.03914, 44.64725, -3126.078369140625]]], [[[-124.02445, 44.64547, -2107.75732421875], [-124.02805, 44.64824, -2779.5576171875], [-124.03722, 44.64286, -2238.0361328125], [-124.02445, 44.64547, -2107.75732421875]]], [[[-124.09484, 44.74499, -23618.41015625], [-124.09294, 44.7499, -24450.17578125], [-124.10468, 44.74604, -24252.607421875], [-124.09484, 44.74499, -23618.41015625]]], [[[-124.01397, 44.64442, -1477.486083984375], [-124.01567, 44.64881, -2380.0234375], [-124.02445, 44.64547, -2107.75732421875], [-124.01397, 44.64442, -1477.486083984375]]], [[[-124.05793, 44.72428, -18348.111328125], [-124.05511, 44.72031, -17489.43359375], [-124.04629, 44.72472, -17991.328125], [-124.05793, 44.72428, -18348.111328125]]], [[[-124.01397, 44.64442, -1477.486083984375], [-124.0044, 44.64891, -2033.2120361328125], [-124.01567, 44.64881, -2380.0234375], [-124.01397, 44.64442, -1477.486083984375]]], [[[-124.01397, 44.64442, -1477.486083984375], [-124.00631, 44.64157, -674.4408569335938], [-124.00125, 44.64524, -1223.3824462890625], [-124.01397, 44.64442, -1477.486083984375]]], [[[-124.05275, 44.70029, -13536.400390625], [-124.04383, 44.70445, -14054.7177734375], [-124.05557, 44.70426, -14395.0009765625], [-124.05275, 44.70029, -13536.400390625]]], [[[-124.07339, 44.75266, -24334.212890625], [-124.06893, 44.7566, -24850.751953125], [-124.08082, 44.75307, -24651.498046875], [-124.07339, 44.75266, -24334.212890625]]], [[[-124.01397, 44.64442, -1477.486083984375], [-124.01957, 44.639, -696.478515625], [-124.00631, 44.64157, -674.4408569335938], [-124.01397, 44.64442, -1477.486083984375]]], [[[-124.04101, 44.70048, -13196.0380859375], [-124.02933, 44.7008, -12846.7607421875], [-124.03216, 44.70479, -13704.1884765625], [-124.04101, 44.70048, -13196.0380859375]]], [[[-124.07479, 44.74828, -23538.2265625], [-124.07339, 44.75266, -24334.212890625], [-124.08416, 44.74837, -23849.916015625], [-124.07479, 44.74828, -23538.2265625]]], [[[-124.02734, 44.64118, -1442.94287109375], [-124.01957, 44.639, -696.478515625], [-124.01397, 44.64442, -1477.486083984375], [-124.02734, 44.64118, -1442.94287109375]]], [[[-124.05229, 44.71635, -16630.75390625], [-124.04064, 44.71675, -16276.47265625], [-124.04346, 44.72073, -17133.900390625], [-124.05229, 44.71635, -16630.75390625]]], [[[-124.02734, 44.64118, -1442.94287109375], [-124.03153, 44.63594, -703.3670654296875], [-124.01957, 44.639, -696.478515625], [-124.02734, 44.64118, -1442.94287109375]]], [[[-124.0401, 44.63742, -1413.7227783203125], [-124.03153, 44.63594, -703.3670654296875], [-124.02734, 44.64118, -1442.94287109375], [-124.0401, 44.63742, -1413.7227783203125]]], [[[-124.08416, 44.74837, -23849.916015625], [-124.09294, 44.7499, -24450.17578125], [-124.09484, 44.74499, -23618.41015625], [-124.08416, 44.74837, -23849.916015625]]], [[[-124.0401, 44.63742, -1413.7227783203125], [-124.04387, 44.63123, -750.4876098632812], [-124.03153, 44.63594, -703.3670654296875], [-124.0401, 44.63742, -1413.7227783203125]]], [[[-124.05158, 44.63153, -1447.5345458984375], [-124.04387, 44.63123, -750.4876098632812], [-124.0401, 44.63742, -1413.7227783203125], [-124.05158, 44.63153, -1447.5345458984375]]], [[[-124.04387, 44.63123, -750.4876098632812], [-124.04621, 44.62527, -21.58445930480957], [-124.03583, 44.63058, 11.258562088012695], [-124.04387, 44.63123, -750.4876098632812]]], [[[-124.03153, 44.63594, -703.3670654296875], [-124.04387, 44.63123, -750.4876098632812], [-124.03583, 44.63058, 11.258562088012695], [-124.03153, 44.63594, -703.3670654296875]]], [[[-124.01957, 44.639, -696.478515625], [-124.02391, 44.63377, 70.99528503417969], [-124.01185, 44.63679, 53.96658706665039], [-124.01957, 44.639, -696.478515625]]], [[[-123.99943, 44.63893, 63.91749954223633], [-124.00631, 44.64157, -674.4408569335938], [-124.01185, 44.63679, 53.96658706665039], [-123.99943, 44.63893, 63.91749954223633]]], [[[-124.01003, 44.65684, -3750.570068359375], [-124.00721, 44.65287, -2891.89111328125], [-123.99828, 44.65695, -3415.0537109375], [-124.01003, 44.65684, -3750.570068359375]]], [[[-124.00631, 44.64157, -674.4408569335938], [-123.99943, 44.63893, 63.91749954223633], [-123.99462, 44.64195, -389.7891540527344], [-124.00631, 44.64157, -674.4408569335938]]], [[[-124.03256, 44.68858, -10620.001953125], [-124.02974, 44.68461, -9761.3232421875], [-124.02086, 44.68884, -10274.4775390625], [-124.03256, 44.68858, -10620.001953125]]], [[[-124.00631, 44.64157, -674.4408569335938], [-123.99462, 44.64195, -389.7891540527344], [-124.00125, 44.64524, -1223.3824462890625], [-124.00631, 44.64157, -674.4408569335938]]], [[[-123.98982, 44.64499, -842.7699584960938], [-124.00125, 44.64524, -1223.3824462890625], [-123.99462, 44.64195, -389.7891540527344], [-123.98982, 44.64499, -842.7699584960938]]], [[[-124.03302, 44.67252, -7526.19775390625], [-124.02411, 44.67668, -8043.96533203125], [-124.03584, 44.67648, -8384.7978515625], [-124.03302, 44.67252, -7526.19775390625]]], [[[-124.00125, 44.64524, -1223.3824462890625], [-123.98982, 44.64499, -842.7699584960938], [-123.99264, 44.64897, -1700.1978759765625], [-124.00125, 44.64524, -1223.3824462890625]]], [[[-124.0044, 44.64891, -2033.2120361328125], [-124.00125, 44.64524, -1223.3824462890625], [-123.99264, 44.64897, -1700.1978759765625], [-124.0044, 44.64891, -2033.2120361328125]]], [[[-124.02974, 44.68461, -9761.3232421875], [-124.01804, 44.68486, -9417.048828125], [-124.02086, 44.68884, -10274.4775390625], [-124.02974, 44.68461, -9761.3232421875]]], [[[-124.0044, 44.64891, -2033.2120361328125], [-123.99264, 44.64897, -1700.1978759765625], [-123.99546, 44.65296, -2557.625732421875], [-124.0044, 44.64891, -2033.2120361328125]]], [[[-124.02129, 44.67271, -7185.2861328125], [-124.01847, 44.66874, -6326.60693359375], [-124.00957, 44.6729, -6844.765625], [-124.02129, 44.67271, -7185.2861328125]]], [[[-124.00721, 44.65287, -2891.89111328125], [-124.0044, 44.64891, -2033.2120361328125], [-123.99546, 44.65296, -2557.625732421875], [-124.00721, 44.65287, -2891.89111328125]]], [[[-124.01284, 44.66081, -4609.2490234375], [-124.0011, 44.66094, -4272.4814453125], [-124.00392, 44.66492, -5129.90966796875], [-124.01284, 44.66081, -4609.2490234375]]], [[[-124.01567, 44.64881, -2380.0234375], [-124.0044, 44.64891, -2033.2120361328125], [-124.00721, 44.65287, -2891.89111328125], [-124.01567, 44.64881, -2380.0234375]]], [[[-124.05511, 44.72031, -17489.43359375], [-124.04346, 44.72073, -17133.900390625], [-124.04629, 44.72472, -17991.328125], [-124.05511, 44.72031, -17489.43359375]]], [[[-124.01567, 44.64881, -2380.0234375], [-124.00721, 44.65287, -2891.89111328125], [-124.01894, 44.65267, -3233.196044921875], [-124.01567, 44.64881, -2380.0234375]]], [[[-124.02805, 44.64824, -2779.5576171875], [-124.01567, 44.64881, -2380.0234375], [-124.01894, 44.65267, -3233.196044921875], [-124.02805, 44.64824, -2779.5576171875]]], [[[-124.03051, 44.65209, -3599.5390625], [-124.02805, 44.64824, -2779.5576171875], [-124.01894, 44.65267, -3233.196044921875], [-124.03051, 44.65209, -3599.5390625]]], [[[-124.08187, 44.73996, -22152.48828125], [-124.06921, 44.74014, -21782.828125], [-124.07204, 44.74411, -22641.505859375], [-124.08187, 44.73996, -22152.48828125]]], [[[-124.03051, 44.65209, -3599.5390625], [-124.01894, 44.65267, -3233.196044921875], [-124.02175, 44.65664, -4091.79638671875], [-124.03051, 44.65209, -3599.5390625]]], [[[-124.03333, 44.65606, -4458.001953125], [-124.03051, 44.65209, -3599.5390625], [-124.02175, 44.65664, -4091.79638671875], [-124.03333, 44.65606, -4458.001953125]]], [[[-124.03333, 44.65606, -4458.001953125], [-124.02175, 44.65664, -4091.79638671875], [-124.02457, 44.66061, -4950.39697265625], [-124.03333, 44.65606, -4458.001953125]]], [[[-124.03648, 44.6599, -5306.9501953125], [-124.03333, 44.65606, -4458.001953125], [-124.02457, 44.66061, -4950.39697265625], [-124.03648, 44.6599, -5306.9501953125]]], [[[-124.03648, 44.6599, -5306.9501953125], [-124.02457, 44.66061, -4950.39697265625], [-124.02739, 44.66458, -5808.9970703125], [-124.03648, 44.6599, -5306.9501953125]]], [[[-124.07869, 44.71949, -18189.021484375], [-124.07586, 44.71552, -17330.46875], [-124.06685, 44.72013, -17829.40234375], [-124.07869, 44.71949, -18189.021484375]]], [[[-124.03918, 44.66391, -6169.0595703125], [-124.02739, 44.66458, -5808.9970703125], [-124.0302, 44.66855, -6667.59765625], [-124.03918, 44.66391, -6169.0595703125]]], [[[-124.01847, 44.66874, -6326.60693359375], [-124.00674, 44.66891, -5987.33740234375], [-124.00957, 44.6729, -6844.765625], [-124.01847, 44.66874, -6326.60693359375]]], [[[-124.042, 44.66789, -7028.16552734375], [-124.03918, 44.66391, -6169.0595703125], [-124.0302, 44.66855, -6667.59765625], [-124.042, 44.66789, -7028.16552734375]]], [[[-124.04482, 44.67186, -7886.74853515625], [-124.042, 44.66789, -7028.16552734375], [-124.03302, 44.67252, -7526.19775390625], [-124.04482, 44.67186, -7886.74853515625]]], [[[-124.02739, 44.66458, -5808.9970703125], [-124.01847, 44.66874, -6326.60693359375], [-124.0302, 44.66855, -6667.59765625], [-124.02739, 44.66458, -5808.9970703125]]], [[[-124.02692, 44.68065, -8902.64453125], [-124.01521, 44.68087, -8559.62109375], [-124.01804, 44.68486, -9417.048828125], [-124.02692, 44.68065, -8902.64453125]]], [[[-124.04482, 44.67186, -7886.74853515625], [-124.03302, 44.67252, -7526.19775390625], [-124.03584, 44.67648, -8384.7978515625], [-124.04482, 44.67186, -7886.74853515625]]], [[[-124.04711, 44.69236, -11819.19921875], [-124.03819, 44.69651, -12337.359375], [-124.04993, 44.69632, -12677.7998046875], [-124.04711, 44.69236, -11819.19921875]]], [[[-124.04764, 44.67583, -8745.2861328125], [-124.04482, 44.67186, -7886.74853515625], [-124.03584, 44.67648, -8384.7978515625], [-124.04764, 44.67583, -8745.2861328125]]], [[[-124.04764, 44.67583, -8745.2861328125], [-124.03584, 44.67648, -8384.7978515625], [-124.03865, 44.68045, -9243.3984375], [-124.04764, 44.67583, -8745.2861328125]]], [[[-124.05046, 44.6798, -9603.796875], [-124.04764, 44.67583, -8745.2861328125], [-124.03865, 44.68045, -9243.3984375], [-124.05046, 44.6798, -9603.796875]]], [[[-124.05046, 44.6798, -9603.796875], [-124.03865, 44.68045, -9243.3984375], [-124.04147, 44.68442, -10101.9990234375], [-124.05046, 44.6798, -9603.796875]]], [[[-124.07586, 44.71552, -17330.46875], [-124.06403, 44.71616, -16970.802734375], [-124.06685, 44.72013, -17829.40234375], [-124.07586, 44.71552, -17330.46875]]], [[[-124.05328, 44.68377, -10462.3134765625], [-124.05046, 44.6798, -9603.796875], [-124.04147, 44.68442, -10101.9990234375], [-124.05328, 44.68377, -10462.3134765625]]], [[[-124.04665, 44.70841, -14913.396484375], [-124.03499, 44.70877, -14561.6171875], [-124.03781, 44.71276, -15419.044921875], [-124.04665, 44.70841, -14913.396484375]]], [[[-124.05328, 44.68377, -10462.3134765625], [-124.04147, 44.68442, -10101.9990234375], [-124.04429, 44.68839, -10960.599609375], [-124.05328, 44.68377, -10462.3134765625]]], [[[-124.0561, 44.68774, -11320.8330078125], [-124.05328, 44.68377, -10462.3134765625], [-124.04429, 44.68839, -10960.599609375], [-124.0561, 44.68774, -11320.8330078125]]], [[[-124.06357, 44.73221, -20065.46875], [-124.05478, 44.73667, -20563.61328125], [-124.06639, 44.73618, -20924.1484375], [-124.06357, 44.73221, -20065.46875]]], [[[-124.0561, 44.68774, -11320.8330078125], [-124.04429, 44.68839, -10960.599609375], [-124.04711, 44.69236, -11819.19921875], [-124.0561, 44.68774, -11320.8330078125]]], [[[-124.05892, 44.69171, -12179.3515625], [-124.0561, 44.68774, -11320.8330078125], [-124.04711, 44.69236, -11819.19921875], [-124.05892, 44.69171, -12179.3515625]]], [[[-124.05892, 44.69171, -12179.3515625], [-124.04711, 44.69236, -11819.19921875], [-124.04993, 44.69632, -12677.7998046875], [-124.05892, 44.69171, -12179.3515625]]], [[[-124.08416, 44.74837, -23849.916015625], [-124.08082, 44.75307, -24651.498046875], [-124.09294, 44.7499, -24450.17578125], [-124.08416, 44.74837, -23849.916015625]]], [[[-124.06175, 44.69568, -13037.87109375], [-124.04993, 44.69632, -12677.7998046875], [-124.05275, 44.70029, -13536.400390625], [-124.06175, 44.69568, -13037.87109375]]], [[[-124.09291, 44.73585, -21842.654296875], [-124.08187, 44.73996, -22152.48828125], [-124.09497, 44.74025, -22746.0546875], [-124.09291, 44.73585, -21842.654296875]]], [[[-124.06457, 44.69965, -13896.3896484375], [-124.06175, 44.69568, -13037.87109375], [-124.05275, 44.70029, -13536.400390625], [-124.06457, 44.69965, -13896.3896484375]]], [[[-124.08152, 44.72346, -19047.974609375], [-124.07869, 44.71949, -18189.021484375], [-124.06967, 44.7241, -18688.001953125], [-124.08152, 44.72346, -19047.974609375]]], [[[-124.06457, 44.69965, -13896.3896484375], [-124.05275, 44.70029, -13536.400390625], [-124.05557, 44.70426, -14395.0009765625], [-124.06457, 44.69965, -13896.3896484375]]], [[[-124.06739, 44.70361, -14754.90625], [-124.05557, 44.70426, -14395.0009765625], [-124.05839, 44.70823, -15253.6005859375], [-124.06739, 44.70361, -14754.90625]]], [[[-124.00721, 44.65287, -2891.89111328125], [-123.99546, 44.65296, -2557.625732421875], [-123.99828, 44.65695, -3415.0537109375], [-124.00721, 44.65287, -2891.89111328125]]], [[[-124.07304, 44.71155, -16471.939453125], [-124.06121, 44.71219, -16112.201171875], [-124.06403, 44.71616, -16970.802734375], [-124.07304, 44.71155, -16471.939453125]]], [[[-124.07869, 44.71949, -18189.021484375], [-124.06685, 44.72013, -17829.40234375], [-124.06967, 44.7241, -18688.001953125], [-124.07869, 44.71949, -18189.021484375]]], [[[-124.06735, 44.62943, -2507.83056640625], [-124.07477, 44.62327, -2115.228759765625], [-124.06298, 44.62565, -1559.2164306640625], [-124.06735, 44.62943, -2507.83056640625]]], [[[-124.04993, 44.69632, -12677.7998046875], [-124.03819, 44.69651, -12337.359375], [-124.04101, 44.70048, -13196.0380859375], [-124.04993, 44.69632, -12677.7998046875]]], [[[-124.06298, 44.62565, -1559.2164306640625], [-124.07205, 44.61889, -1202.716796875], [-124.06383, 44.62009, -741.0285034179688], [-124.06298, 44.62565, -1559.2164306640625]]], [[[-124.08152, 44.72346, -19047.974609375], [-124.06967, 44.7241, -18688.001953125], [-124.0725, 44.72806, -19546.603515625], [-124.08152, 44.72346, -19047.974609375]]], [[[-124.04947, 44.71238, -15772.0751953125], [-124.04665, 44.70841, -14913.396484375], [-124.03781, 44.71276, -15419.044921875], [-124.04947, 44.71238, -15772.0751953125]]], [[[-124.06075, 44.72825, -19206.791015625], [-124.05793, 44.72428, -18348.111328125], [-124.04912, 44.7287, -18848.755859375], [-124.06075, 44.72825, -19206.791015625]]], [[[-124.06075, 44.72825, -19206.791015625], [-124.04912, 44.7287, -18848.755859375], [-124.05195, 44.73269, -19706.18359375], [-124.06075, 44.72825, -19206.791015625]]], [[[-124.06357, 44.73221, -20065.46875], [-124.06075, 44.72825, -19206.791015625], [-124.05195, 44.73269, -19706.18359375], [-124.06357, 44.73221, -20065.46875]]], [[[-124.06357, 44.73221, -20065.46875], [-124.0725, 44.72806, -19546.603515625], [-124.06075, 44.72825, -19206.791015625], [-124.06357, 44.73221, -20065.46875]]], [[[-124.07532, 44.73203, -20405.203125], [-124.0725, 44.72806, -19546.603515625], [-124.06357, 44.73221, -20065.46875], [-124.07532, 44.73203, -20405.203125]]], [[[-124.05793, 44.72428, -18348.111328125], [-124.04629, 44.72472, -17991.328125], [-124.04912, 44.7287, -18848.755859375], [-124.05793, 44.72428, -18348.111328125]]], [[[-124.04429, 44.68839, -10960.599609375], [-124.03256, 44.68858, -10620.001953125], [-124.03537, 44.69255, -11478.6806640625], [-124.04429, 44.68839, -10960.599609375]]], [[[-124.07532, 44.73203, -20405.203125], [-124.06357, 44.73221, -20065.46875], [-124.06639, 44.73618, -20924.1484375], [-124.07532, 44.73203, -20405.203125]]], [[[-124.07892, 44.73606, -21302.630859375], [-124.06639, 44.73618, -20924.1484375], [-124.06921, 44.74014, -21782.828125], [-124.07892, 44.73606, -21302.630859375]]], [[[-124.09291, 44.73585, -21842.654296875], [-124.07892, 44.73606, -21302.630859375], [-124.08187, 44.73996, -22152.48828125], [-124.09291, 44.73585, -21842.654296875]]], [[[-124.07479, 44.74828, -23538.2265625], [-124.08377, 44.74387, -22967.849609375], [-124.07204, 44.74411, -22641.505859375], [-124.07479, 44.74828, -23538.2265625]]], [[[-124.09497, 44.74025, -22746.0546875], [-124.10597, 44.74108, -23416.6484375], [-124.10578, 44.73622, -22530.423828125], [-124.09497, 44.74025, -22746.0546875]]], [[[-124.09497, 44.74025, -22746.0546875], [-124.08377, 44.74387, -22967.849609375], [-124.09484, 44.74499, -23618.41015625], [-124.09497, 44.74025, -22746.0546875]]], [[[-124.09497, 44.74025, -22746.0546875], [-124.08187, 44.73996, -22152.48828125], [-124.08377, 44.74387, -22967.849609375], [-124.09497, 44.74025, -22746.0546875]]], [[[-124.08187, 44.73996, -22152.48828125], [-124.07204, 44.74411, -22641.505859375], [-124.08377, 44.74387, -22967.849609375], [-124.08187, 44.73996, -22152.48828125]]], [[[-124.06921, 44.74014, -21782.828125], [-124.06043, 44.74465, -22278.46875], [-124.07204, 44.74411, -22641.505859375], [-124.06921, 44.74014, -21782.828125]]], [[[-124.06921, 44.74014, -21782.828125], [-124.05761, 44.74066, -21421.041015625], [-124.06043, 44.74465, -22278.46875], [-124.06921, 44.74014, -21782.828125]]], [[[-124.06639, 44.73618, -20924.1484375], [-124.05478, 44.73667, -20563.61328125], [-124.05761, 44.74066, -21421.041015625], [-124.06639, 44.73618, -20924.1484375]]], [[[-124.06357, 44.73221, -20065.46875], [-124.05195, 44.73269, -19706.18359375], [-124.05478, 44.73667, -20563.61328125], [-124.06357, 44.73221, -20065.46875]]], [[[-124.08377, 44.74387, -22967.849609375], [-124.07479, 44.74828, -23538.2265625], [-124.08416, 44.74837, -23849.916015625], [-124.08377, 44.74387, -22967.849609375]]], [[[-124.09484, 44.74499, -23618.41015625], [-124.08377, 44.74387, -22967.849609375], [-124.08416, 44.74837, -23849.916015625], [-124.09484, 44.74499, -23618.41015625]]], [[[-124.08082, 44.75307, -24651.498046875], [-124.08416, 44.74837, -23849.916015625], [-124.07339, 44.75266, -24334.212890625], [-124.08082, 44.75307, -24651.498046875]]], [[[-124.06609, 44.75262, -23993.32421875], [-124.06893, 44.7566, -24850.751953125], [-124.07339, 44.75266, -24334.212890625], [-124.06609, 44.75262, -23993.32421875]]], [[[-124.06403, 44.71616, -16970.802734375], [-124.05229, 44.71635, -16630.75390625], [-124.05511, 44.72031, -17489.43359375], [-124.06403, 44.71616, -16970.802734375]]], [[[-124.05557, 44.70426, -14395.0009765625], [-124.04383, 44.70445, -14054.7177734375], [-124.04665, 44.70841, -14913.396484375], [-124.05557, 44.70426, -14395.0009765625]]], [[[-124.04993, 44.69632, -12677.7998046875], [-124.04101, 44.70048, -13196.0380859375], [-124.05275, 44.70029, -13536.400390625], [-124.04993, 44.69632, -12677.7998046875]]], [[[-124.04711, 44.69236, -11819.19921875], [-124.03537, 44.69255, -11478.6806640625], [-124.03819, 44.69651, -12337.359375], [-124.04711, 44.69236, -11819.19921875]]], [[[-124.01003, 44.65684, -3750.570068359375], [-123.99828, 44.65695, -3415.0537109375], [-124.0011, 44.66094, -4272.4814453125], [-124.01003, 44.65684, -3750.570068359375]]], [[[-124.03865, 44.68045, -9243.3984375], [-124.02692, 44.68065, -8902.64453125], [-124.02974, 44.68461, -9761.3232421875], [-124.03865, 44.68045, -9243.3984375]]], [[[-124.0302, 44.66855, -6667.59765625], [-124.02129, 44.67271, -7185.2861328125], [-124.03302, 44.67252, -7526.19775390625], [-124.0302, 44.66855, -6667.59765625]]], [[[-124.0302, 44.66855, -6667.59765625], [-124.01847, 44.66874, -6326.60693359375], [-124.02129, 44.67271, -7185.2861328125], [-124.0302, 44.66855, -6667.59765625]]], [[[-123.987, 44.641, 14.657999992370605], [-123.99462, 44.64195, -389.7891540527344], [-123.99943, 44.63893, 63.91749954223633], [-123.987, 44.641, 14.657999992370605]]], [[[-124.02175, 44.65664, -4091.79638671875], [-124.01284, 44.66081, -4609.2490234375], [-124.02457, 44.66061, -4950.39697265625], [-124.02175, 44.65664, -4091.79638671875]]], [[[-124.02175, 44.65664, -4091.79638671875], [-124.01003, 44.65684, -3750.570068359375], [-124.01284, 44.66081, -4609.2490234375], [-124.02175, 44.65664, -4091.79638671875]]], [[[-124.01894, 44.65267, -3233.196044921875], [-124.00721, 44.65287, -2891.89111328125], [-124.01003, 44.65684, -3750.570068359375], [-124.01894, 44.65267, -3233.196044921875]]], [[[-124.01566, 44.66478, -5467.92822265625], [-124.00392, 44.66492, -5129.90966796875], [-124.00674, 44.66891, -5987.33740234375], [-124.01566, 44.66478, -5467.92822265625]]], [[[-124.01847, 44.66874, -6326.60693359375], [-124.01566, 44.66478, -5467.92822265625], [-124.00674, 44.66891, -5987.33740234375], [-124.01847, 44.66874, -6326.60693359375]]], [[[-124.03537, 44.69255, -11478.6806640625], [-124.03256, 44.68858, -10620.001953125], [-124.02368, 44.69283, -11131.9052734375], [-124.03537, 44.69255, -11478.6806640625]]], [[[-124.03537, 44.69255, -11478.6806640625], [-124.02368, 44.69283, -11131.9052734375], [-124.02651, 44.69682, -11989.3330078125], [-124.03537, 44.69255, -11478.6806640625]]], [[[-124.04383, 44.70445, -14054.7177734375], [-124.04101, 44.70048, -13196.0380859375], [-124.03216, 44.70479, -13704.1884765625], [-124.04383, 44.70445, -14054.7177734375]]], [[[-124.04383, 44.70445, -14054.7177734375], [-124.03216, 44.70479, -13704.1884765625], [-124.03499, 44.70877, -14561.6171875], [-124.04383, 44.70445, -14054.7177734375]]], [[[-124.04947, 44.71238, -15772.0751953125], [-124.03781, 44.71276, -15419.044921875], [-124.04064, 44.71675, -16276.47265625], [-124.04947, 44.71238, -15772.0751953125]]], [[[-124.07311, 44.63745, -4240.94091796875], [-124.0808, 44.63123, -3860.133544921875], [-124.07025, 44.63345, -3377.864990234375], [-124.07311, 44.63745, -4240.94091796875]]], [[[-124.07598, 44.64144, -5104.0166015625], [-124.08366, 44.63523, -4723.20947265625], [-124.07311, 44.63745, -4240.94091796875], [-124.07598, 44.64144, -5104.0166015625]]], [[[-124.07598, 44.64144, -5104.0166015625], [-124.08653, 44.63922, -5586.28564453125], [-124.08366, 44.63523, -4723.20947265625], [-124.07598, 44.64144, -5104.0166015625]]], [[[-124.07884, 44.64544, -5967.0927734375], [-124.08653, 44.63922, -5586.28564453125], [-124.07598, 44.64144, -5104.0166015625], [-124.07884, 44.64544, -5967.0927734375]]], [[[-124.07884, 44.64544, -5967.0927734375], [-124.08939, 44.64322, -6449.36181640625], [-124.08653, 44.63922, -5586.28564453125], [-124.07884, 44.64544, -5967.0927734375]]], [[[-124.0817, 44.64943, -6830.16845703125], [-124.08939, 44.64322, -6449.36181640625], [-124.07884, 44.64544, -5967.0927734375], [-124.0817, 44.64943, -6830.16845703125]]], [[[-124.0817, 44.64943, -6830.16845703125], [-124.09226, 44.64721, -7312.43798828125], [-124.08939, 44.64322, -6449.36181640625], [-124.0817, 44.64943, -6830.16845703125]]], [[[-124.0817, 44.64943, -6830.16845703125], [-124.08457, 44.65343, -7693.24462890625], [-124.09226, 44.64721, -7312.43798828125], [-124.0817, 44.64943, -6830.16845703125]]], [[[-124.0817, 44.64943, -6830.16845703125], [-124.07427, 44.65603, -7186.345703125], [-124.08457, 44.65343, -7693.24462890625], [-124.0817, 44.64943, -6830.16845703125]]], [[[-124.0817, 44.64943, -6830.16845703125], [-124.0714, 44.65203, -6324.2041015625], [-124.07427, 44.65603, -7186.345703125], [-124.0817, 44.64943, -6830.16845703125]]], [[[-124.0714, 44.65203, -6324.2041015625], [-124.0817, 44.64943, -6830.16845703125], [-124.07884, 44.64544, -5967.0927734375], [-124.0714, 44.65203, -6324.2041015625]]], [[[-124.06852, 44.64802, -5461.9853515625], [-124.0714, 44.65203, -6324.2041015625], [-124.07884, 44.64544, -5967.0927734375], [-124.06852, 44.64802, -5461.9853515625]]], [[[-124.06035, 44.65522, -5873.25048828125], [-124.0714, 44.65203, -6324.2041015625], [-124.06852, 44.64802, -5461.9853515625], [-124.06035, 44.65522, -5873.25048828125]]], [[[-124.06321, 44.65921, -6736.43896484375], [-124.0714, 44.65203, -6324.2041015625], [-124.06035, 44.65522, -5873.25048828125], [-124.06321, 44.65921, -6736.43896484375]]], [[[-124.06321, 44.65921, -6736.43896484375], [-124.07427, 44.65603, -7186.345703125], [-124.0714, 44.65203, -6324.2041015625], [-124.06321, 44.65921, -6736.43896484375]]], [[[-124.06321, 44.65921, -6736.43896484375], [-124.06608, 44.66322, -7600.5], [-124.07427, 44.65603, -7186.345703125], [-124.06321, 44.65921, -6736.43896484375]]], [[[-124.06608, 44.66322, -7600.5], [-124.06321, 44.65921, -6736.43896484375], [-124.05438, 44.66641, -7350.021484375], [-124.06608, 44.66322, -7600.5]]], [[[-124.06608, 44.66322, -7600.5], [-124.05438, 44.66641, -7350.021484375], [-124.0572, 44.67039, -8209.5322265625], [-124.06608, 44.66322, -7600.5]]], [[[-124.06608, 44.66322, -7600.5], [-124.0572, 44.67039, -8209.5322265625], [-124.06892, 44.6672, -8460.814453125], [-124.06608, 44.66322, -7600.5]]], [[[-124.06608, 44.66322, -7600.5], [-124.06892, 44.6672, -8460.814453125], [-124.07715, 44.66004, -8048.69775390625], [-124.06608, 44.66322, -7600.5]]], [[[-124.06608, 44.66322, -7600.5], [-124.07715, 44.66004, -8048.69775390625], [-124.07427, 44.65603, -7186.345703125], [-124.06608, 44.66322, -7600.5]]], [[[-124.07715, 44.66004, -8048.69775390625], [-124.08457, 44.65343, -7693.24462890625], [-124.07427, 44.65603, -7186.345703125], [-124.07715, 44.66004, -8048.69775390625]]], [[[-124.07715, 44.66004, -8048.69775390625], [-124.08743, 44.65743, -8556.3203125], [-124.08457, 44.65343, -7693.24462890625], [-124.07715, 44.66004, -8048.69775390625]]], [[[-124.08002, 44.66405, -8910.88671875], [-124.08743, 44.65743, -8556.3203125], [-124.07715, 44.66004, -8048.69775390625], [-124.08002, 44.66405, -8910.88671875]]], [[[-124.08002, 44.66405, -8910.88671875], [-124.0903, 44.66142, -9419.396484375], [-124.08743, 44.65743, -8556.3203125], [-124.08002, 44.66405, -8910.88671875]]], [[[-124.0829, 44.66805, -9773.1015625], [-124.0903, 44.66142, -9419.396484375], [-124.08002, 44.66405, -8910.88671875], [-124.0829, 44.66805, -9773.1015625]]], [[[-124.0903, 44.66142, -9419.396484375], [-124.0829, 44.66805, -9773.1015625], [-124.09317, 44.66542, -10282.4716796875], [-124.0903, 44.66142, -9419.396484375]]], [[[-124.0903, 44.66142, -9419.396484375], [-124.09317, 44.66542, -10282.4716796875], [-124.10085, 44.6592, -9901.666015625], [-124.0903, 44.66142, -9419.396484375]]], [[[-124.0903, 44.66142, -9419.396484375], [-124.10085, 44.6592, -9901.666015625], [-124.09799, 44.6552, -9038.58984375], [-124.0903, 44.66142, -9419.396484375]]], [[[-124.08743, 44.65743, -8556.3203125], [-124.0903, 44.66142, -9419.396484375], [-124.09799, 44.6552, -9038.58984375], [-124.08743, 44.65743, -8556.3203125]]], [[[-124.08743, 44.65743, -8556.3203125], [-124.09799, 44.6552, -9038.58984375], [-124.09512, 44.65121, -8175.51416015625], [-124.08743, 44.65743, -8556.3203125]]], [[[-124.08457, 44.65343, -7693.24462890625], [-124.08743, 44.65743, -8556.3203125], [-124.09512, 44.65121, -8175.51416015625], [-124.08457, 44.65343, -7693.24462890625]]], [[[-124.08457, 44.65343, -7693.24462890625], [-124.09512, 44.65121, -8175.51416015625], [-124.09226, 44.64721, -7312.43798828125], [-124.08457, 44.65343, -7693.24462890625]]], [[[-124.09512, 44.65121, -8175.51416015625], [-124.10278, 44.64496, -7796.7587890625], [-124.09226, 44.64721, -7312.43798828125], [-124.09512, 44.65121, -8175.51416015625]]], [[[-124.09512, 44.65121, -8175.51416015625], [-124.10564, 44.64896, -8659.798828125], [-124.10278, 44.64496, -7796.7587890625], [-124.09512, 44.65121, -8175.51416015625]]], [[[-124.09799, 44.6552, -9038.58984375], [-124.10564, 44.64896, -8659.798828125], [-124.09512, 44.65121, -8175.51416015625], [-124.09799, 44.6552, -9038.58984375]]], [[[-124.09799, 44.6552, -9038.58984375], [-124.10851, 44.65295, -9522.8388671875], [-124.10564, 44.64896, -8659.798828125], [-124.09799, 44.6552, -9038.58984375]]], [[[-124.10085, 44.6592, -9901.666015625], [-124.10851, 44.65295, -9522.8388671875], [-124.09799, 44.6552, -9038.58984375], [-124.10085, 44.6592, -9901.666015625]]], [[[-124.10085, 44.6592, -9901.666015625], [-124.11138, 44.65695, -10385.87890625], [-124.10851, 44.65295, -9522.8388671875], [-124.10085, 44.6592, -9901.666015625]]], [[[-124.10372, 44.66319, -10764.7421875], [-124.11138, 44.65695, -10385.87890625], [-124.10085, 44.6592, -9901.666015625], [-124.10372, 44.66319, -10764.7421875]]], [[[-124.10372, 44.66319, -10764.7421875], [-124.11425, 44.66095, -11248.91796875], [-124.11138, 44.65695, -10385.87890625], [-124.10372, 44.66319, -10764.7421875]]], [[[-124.10659, 44.66719, -11627.818359375], [-124.11425, 44.66095, -11248.91796875], [-124.10372, 44.66319, -10764.7421875], [-124.10659, 44.66719, -11627.818359375]]], [[[-124.10659, 44.66719, -11627.818359375], [-124.11711, 44.66494, -12111.9580078125], [-124.11425, 44.66095, -11248.91796875], [-124.10659, 44.66719, -11627.818359375]]], [[[-124.10945, 44.67118, -12490.89453125], [-124.11711, 44.66494, -12111.9580078125], [-124.10659, 44.66719, -11627.818359375], [-124.10945, 44.67118, -12490.89453125]]], [[[-124.10945, 44.67118, -12490.89453125], [-124.11998, 44.66894, -12974.998046875], [-124.11711, 44.66494, -12111.9580078125], [-124.10945, 44.67118, -12490.89453125]]], [[[-124.11232, 44.67518, -13353.970703125], [-124.11998, 44.66894, -12974.998046875], [-124.10945, 44.67118, -12490.89453125], [-124.11232, 44.67518, -13353.970703125]]], [[[-124.11232, 44.67518, -13353.970703125], [-124.12285, 44.67293, -13838.0380859375], [-124.11998, 44.66894, -12974.998046875], [-124.11232, 44.67518, -13353.970703125]]], [[[-124.11519, 44.67917, -14217.0458984375], [-124.12285, 44.67293, -13838.0380859375], [-124.11232, 44.67518, -13353.970703125], [-124.11519, 44.67917, -14217.0458984375]]], [[[-124.11519, 44.67917, -14217.0458984375], [-124.12572, 44.67693, -14701.078125], [-124.12285, 44.67293, -13838.0380859375], [-124.11519, 44.67917, -14217.0458984375]]], [[[-124.11806, 44.68317, -15080.1220703125], [-124.12572, 44.67693, -14701.078125], [-124.11519, 44.67917, -14217.0458984375], [-124.11806, 44.68317, -15080.1220703125]]], [[[-124.11806, 44.68317, -15080.1220703125], [-124.12859, 44.68092, -15564.1181640625], [-124.12572, 44.67693, -14701.078125], [-124.11806, 44.68317, -15080.1220703125]]], [[[-124.11806, 44.68317, -15080.1220703125], [-124.12093, 44.68716, -15943.197265625], [-124.12859, 44.68092, -15564.1181640625], [-124.11806, 44.68317, -15080.1220703125]]], [[[-124.11037, 44.68939, -15460.927734375], [-124.12093, 44.68716, -15943.197265625], [-124.11806, 44.68317, -15080.1220703125], [-124.11037, 44.68939, -15460.927734375]]], [[[-124.11324, 44.69338, -16324.0029296875], [-124.12093, 44.68716, -15943.197265625], [-124.11037, 44.68939, -15460.927734375], [-124.11324, 44.69338, -16324.0029296875]]], [[[-124.11324, 44.69338, -16324.0029296875], [-124.12379, 44.69116, -16806.2734375], [-124.12093, 44.68716, -15943.197265625], [-124.11324, 44.69338, -16324.0029296875]]], [[[-124.11611, 44.69738, -17186.435546875], [-124.12379, 44.69116, -16806.2734375], [-124.11324, 44.69338, -16324.0029296875], [-124.11611, 44.69738, -17186.435546875]]], [[[-124.11611, 44.69738, -17186.435546875], [-124.12666, 44.69515, -17669.349609375], [-124.12379, 44.69116, -16806.2734375], [-124.11611, 44.69738, -17186.435546875]]], [[[-124.119, 44.70139, -18048.689453125], [-124.12666, 44.69515, -17669.349609375], [-124.11611, 44.69738, -17186.435546875], [-124.119, 44.70139, -18048.689453125]]], [[[-124.119, 44.70139, -18048.689453125], [-124.12953, 44.69915, -18532.423828125], [-124.12666, 44.69515, -17669.349609375], [-124.119, 44.70139, -18048.689453125]]], [[[-124.12188, 44.70539, -18910.94140625], [-124.12953, 44.69915, -18532.423828125], [-124.119, 44.70139, -18048.689453125], [-124.12188, 44.70539, -18910.94140625]]], [[[-124.12188, 44.70539, -18910.94140625], [-124.1324, 44.70314, -19395.5], [-124.12953, 44.69915, -18532.423828125], [-124.12188, 44.70539, -18910.94140625]]], [[[-124.12476, 44.7094, -19773.1953125], [-124.1324, 44.70314, -19395.5], [-124.12188, 44.70539, -18910.94140625], [-124.12476, 44.7094, -19773.1953125]]], [[[-124.12476, 44.7094, -19773.1953125], [-124.13528, 44.70713, -20258.576171875], [-124.1324, 44.70314, -19395.5], [-124.12476, 44.7094, -19773.1953125]]], [[[-124.12705, 44.71401, -20673.966796875], [-124.13528, 44.70713, -20258.576171875], [-124.12476, 44.7094, -19773.1953125], [-124.12705, 44.71401, -20673.966796875]]], [[[-124.12705, 44.71401, -20673.966796875], [-124.13815, 44.71113, -21121.65234375], [-124.13528, 44.70713, -20258.576171875], [-124.12705, 44.71401, -20673.966796875]]], [[[-124.12705, 44.71401, -20673.966796875], [-124.13021, 44.71712, -21426.73046875], [-124.13815, 44.71113, -21121.65234375], [-124.12705, 44.71401, -20673.966796875]]], [[[-124.11939, 44.72287, -21336.00390625], [-124.13021, 44.71712, -21426.73046875], [-124.12705, 44.71401, -20673.966796875], [-124.11939, 44.72287, -21336.00390625]]], [[[-124.13176, 44.72048, -22071.271484375], [-124.13021, 44.71712, -21426.73046875], [-124.11939, 44.72287, -21336.00390625], [-124.13176, 44.72048, -22071.271484375]]], [[[-124.13021, 44.71712, -21426.73046875], [-124.13176, 44.72048, -22071.271484375], [-124.14092, 44.71501, -21959.259765625], [-124.13021, 44.71712, -21426.73046875]]], [[[-124.13021, 44.71712, -21426.73046875], [-124.14092, 44.71501, -21959.259765625], [-124.13815, 44.71113, -21121.65234375], [-124.13021, 44.71712, -21426.73046875]]], [[[-124.13815, 44.71113, -21121.65234375], [-124.14092, 44.71501, -21959.259765625], [-124.14869, 44.70888, -21605.396484375], [-124.13815, 44.71113, -21121.65234375]]], [[[-124.13815, 44.71113, -21121.65234375], [-124.14869, 44.70888, -21605.396484375], [-124.14581, 44.70489, -20742.357421875], [-124.13815, 44.71113, -21121.65234375]]], [[[-124.13528, 44.70713, -20258.576171875], [-124.13815, 44.71113, -21121.65234375], [-124.14581, 44.70489, -20742.357421875], [-124.13528, 44.70713, -20258.576171875]]], [[[-124.13528, 44.70713, -20258.576171875], [-124.14581, 44.70489, -20742.357421875], [-124.14294, 44.70089, -19879.31640625], [-124.13528, 44.70713, -20258.576171875]]], [[[-124.1324, 44.70314, -19395.5], [-124.13528, 44.70713, -20258.576171875], [-124.14294, 44.70089, -19879.31640625], [-124.1324, 44.70314, -19395.5]]], [[[-124.1324, 44.70314, -19395.5], [-124.14294, 44.70089, -19879.31640625], [-124.14007, 44.6969, -19016.27734375], [-124.1324, 44.70314, -19395.5]]], [[[-124.12953, 44.69915, -18532.423828125], [-124.1324, 44.70314, -19395.5], [-124.14007, 44.6969, -19016.27734375], [-124.12953, 44.69915, -18532.423828125]]], [[[-124.12953, 44.69915, -18532.423828125], [-124.14007, 44.6969, -19016.27734375], [-124.1372, 44.69291, -18153.23828125], [-124.12953, 44.69915, -18532.423828125]]], [[[-124.12666, 44.69515, -17669.349609375], [-124.12953, 44.69915, -18532.423828125], [-124.1372, 44.69291, -18153.23828125], [-124.12666, 44.69515, -17669.349609375]]], [[[-124.12666, 44.69515, -17669.349609375], [-124.1372, 44.69291, -18153.23828125], [-124.13433, 44.68891, -17290.197265625], [-124.12666, 44.69515, -17669.349609375]]], [[[-124.12379, 44.69116, -16806.2734375], [-124.12666, 44.69515, -17669.349609375], [-124.13433, 44.68891, -17290.197265625], [-124.12379, 44.69116, -16806.2734375]]], [[[-124.12379, 44.69116, -16806.2734375], [-124.13433, 44.68891, -17290.197265625], [-124.13146, 44.68492, -16427.158203125], [-124.12379, 44.69116, -16806.2734375]]], [[[-124.12093, 44.68716, -15943.197265625], [-124.12379, 44.69116, -16806.2734375], [-124.13146, 44.68492, -16427.158203125], [-124.12093, 44.68716, -15943.197265625]]], [[[-124.12093, 44.68716, -15943.197265625], [-124.13146, 44.68492, -16427.158203125], [-124.12859, 44.68092, -15564.1181640625], [-124.12093, 44.68716, -15943.197265625]]], [[[-124.14092, 44.71501, -21959.259765625], [-124.15156, 44.71288, -22468.4375], [-124.14869, 44.70888, -21605.396484375], [-124.14092, 44.71501, -21959.259765625]]], [[[-124.14092, 44.71501, -21959.259765625], [-124.14367, 44.71839, -22714.986328125], [-124.15156, 44.71288, -22468.4375], [-124.14092, 44.71501, -21959.259765625]]], [[[-124.14367, 44.71839, -22714.986328125], [-124.14092, 44.71501, -21959.259765625], [-124.13176, 44.72048, -22071.271484375], [-124.14367, 44.71839, -22714.986328125]]], [[[-124.14367, 44.71839, -22714.986328125], [-124.13176, 44.72048, -22071.271484375], [-124.13497, 44.72394, -22881.134765625], [-124.14367, 44.71839, -22714.986328125]]], [[[-124.12507, 44.7256, -22234.845703125], [-124.13497, 44.72394, -22881.134765625], [-124.13176, 44.72048, -22071.271484375], [-124.12507, 44.7256, -22234.845703125]]], [[[-124.13497, 44.72394, -22881.134765625], [-124.12507, 44.7256, -22234.845703125], [-124.12571, 44.73045, -23043.8515625], [-124.13497, 44.72394, -22881.134765625]]], [[[-124.1163, 44.73065, -22318.140625], [-124.12571, 44.73045, -23043.8515625], [-124.12507, 44.7256, -22234.845703125], [-124.1163, 44.73065, -22318.140625]]], [[[-124.1163, 44.73065, -22318.140625], [-124.11612, 44.73634, -23217.560546875], [-124.12571, 44.73045, -23043.8515625], [-124.1163, 44.73065, -22318.140625]]], [[[-124.07205, 44.61889, -1202.716796875], [-124.08273, 44.61699, -1755.479736328125], [-124.07986, 44.613, -892.4398803710938], [-124.07205, 44.61889, -1202.716796875]]], [[[-124.12507, 44.7256, -22234.845703125], [-124.11939, 44.72287, -21336.00390625], [-124.1163, 44.73065, -22318.140625], [-124.12507, 44.7256, -22234.845703125]]], [[[-124.13176, 44.72048, -22071.271484375], [-124.11939, 44.72287, -21336.00390625], [-124.12507, 44.7256, -22234.845703125], [-124.13176, 44.72048, -22071.271484375]]], [[[-124.02445, 44.64547, -2107.75732421875], [-124.03722, 44.64286, -2238.0361328125], [-124.02734, 44.64118, -1442.94287109375], [-124.02445, 44.64547, -2107.75732421875]]], [[[-124.11939, 44.72287, -21336.00390625], [-124.10708, 44.73115, -21698.412109375], [-124.1163, 44.73065, -22318.140625], [-124.11939, 44.72287, -21336.00390625]]], [[[-124.10649, 44.72675, -20936.482421875], [-124.10708, 44.73115, -21698.412109375], [-124.11939, 44.72287, -21336.00390625], [-124.10649, 44.72675, -20936.482421875]]], [[[-124.07205, 44.61889, -1202.716796875], [-124.07477, 44.62327, -2115.228759765625], [-124.08273, 44.61699, -1755.479736328125], [-124.07205, 44.61889, -1202.716796875]]], [[[-124.10649, 44.72675, -20936.482421875], [-124.09685, 44.73109, -21157.291015625], [-124.10708, 44.73115, -21698.412109375], [-124.10649, 44.72675, -20936.482421875]]], [[[-124.077, 44.609, -29.399999618530273], [-124.07321, 44.61363, -456.8583984375], [-124.07986, 44.613, -892.4398803710938], [-124.077, 44.609, -29.399999618530273]]], [[[-124.10649, 44.72675, -20936.482421875], [-124.0971, 44.72611, -20269.123046875], [-124.09685, 44.73109, -21157.291015625], [-124.10649, 44.72675, -20936.482421875]]], [[[-124.11075, 44.72219, -20533.244140625], [-124.0971, 44.72611, -20269.123046875], [-124.10649, 44.72675, -20936.482421875], [-124.11075, 44.72219, -20533.244140625]]], [[[-124.05044, 44.64239, -3043.9912109375], [-124.04849, 44.63784, -2168.69287109375], [-124.03722, 44.64286, -2238.0361328125], [-124.05044, 44.64239, -3043.9912109375]]], [[[-124.11075, 44.72219, -20533.244140625], [-124.10618, 44.7192, -19689.423828125], [-124.0971, 44.72611, -20269.123046875], [-124.11075, 44.72219, -20533.244140625]]], [[[-124.06035, 44.65522, -5873.25048828125], [-124.05155, 44.66243, -6489.9560546875], [-124.06321, 44.65921, -6736.43896484375], [-124.06035, 44.65522, -5873.25048828125]]], [[[-124.11075, 44.72219, -20533.244140625], [-124.1176, 44.71656, -20200.5546875], [-124.10618, 44.7192, -19689.423828125], [-124.11075, 44.72219, -20533.244140625]]], [[[-124.11075, 44.72219, -20533.244140625], [-124.11939, 44.72287, -21336.00390625], [-124.1176, 44.71656, -20200.5546875], [-124.11075, 44.72219, -20533.244140625]]], [[[-124.06574, 44.64395, -4598.62109375], [-124.07598, 44.64144, -5104.0166015625], [-124.07311, 44.63745, -4240.94091796875], [-124.06574, 44.64395, -4598.62109375]]], [[[-124.10649, 44.72675, -20936.482421875], [-124.11939, 44.72287, -21336.00390625], [-124.11075, 44.72219, -20533.244140625], [-124.10649, 44.72675, -20936.482421875]]], [[[-124.1176, 44.71656, -20200.5546875], [-124.11939, 44.72287, -21336.00390625], [-124.12705, 44.71401, -20673.966796875], [-124.1176, 44.71656, -20200.5546875]]], [[[-124.1176, 44.71656, -20200.5546875], [-124.12705, 44.71401, -20673.966796875], [-124.12476, 44.7094, -19773.1953125], [-124.1176, 44.71656, -20200.5546875]]], [[[-124.11451, 44.71221, -19268.126953125], [-124.1176, 44.71656, -20200.5546875], [-124.12476, 44.7094, -19773.1953125], [-124.11451, 44.71221, -19268.126953125]]], [[[-124.10618, 44.7192, -19689.423828125], [-124.1176, 44.71656, -20200.5546875], [-124.11451, 44.71221, -19268.126953125], [-124.10618, 44.7192, -19689.423828125]]], [[[-124.10618, 44.7192, -19689.423828125], [-124.11451, 44.71221, -19268.126953125], [-124.10325, 44.71514, -18810.681640625], [-124.10618, 44.7192, -19689.423828125]]], [[[-124.10325, 44.71514, -18810.681640625], [-124.09405, 44.72207, -19387.55078125], [-124.10618, 44.7192, -19689.423828125], [-124.10325, 44.71514, -18810.681640625]]], [[[-124.09118, 44.71808, -18522.5546875], [-124.09405, 44.72207, -19387.55078125], [-124.10325, 44.71514, -18810.681640625], [-124.09118, 44.71808, -18522.5546875]]], [[[-124.10038, 44.71113, -17944.4375], [-124.09118, 44.71808, -18522.5546875], [-124.10325, 44.71514, -18810.681640625], [-124.10038, 44.71113, -17944.4375]]], [[[-124.08835, 44.7141, -17662.189453125], [-124.09118, 44.71808, -18522.5546875], [-124.10038, 44.71113, -17944.4375], [-124.08835, 44.7141, -17662.189453125]]], [[[-124.09751, 44.70713, -17081.6953125], [-124.08835, 44.7141, -17662.189453125], [-124.10038, 44.71113, -17944.4375], [-124.09751, 44.70713, -17081.6953125]]], [[[-124.04825, 44.64812, -3767.050537109375], [-124.03914, 44.64725, -3126.078369140625], [-124.04082, 44.65158, -3992.8876953125], [-124.04825, 44.64812, -3767.050537109375]]], [[[-124.08551, 44.71012, -16802.65625], [-124.08835, 44.7141, -17662.189453125], [-124.09751, 44.70713, -17081.6953125], [-124.08551, 44.71012, -16802.65625]]], [[[-124.09465, 44.70314, -16219.1767578125], [-124.08551, 44.71012, -16802.65625], [-124.09751, 44.70713, -17081.6953125], [-124.09465, 44.70314, -16219.1767578125]]], [[[-124.05752, 44.65118, -5007.1357421875], [-124.06852, 44.64802, -5461.9853515625], [-124.06574, 44.64395, -4598.62109375], [-124.05752, 44.65118, -5007.1357421875]]], [[[-124.08268, 44.70615, -15943.154296875], [-124.08551, 44.71012, -16802.65625], [-124.09465, 44.70314, -16219.1767578125], [-124.08268, 44.70615, -15943.154296875]]], [[[-124.09179, 44.69914, -15355.537109375], [-124.08268, 44.70615, -15943.154296875], [-124.09465, 44.70314, -16219.1767578125], [-124.09179, 44.69914, -15355.537109375]]], [[[-124.05963, 44.63608, -2862.482177734375], [-124.06232, 44.64008, -3706.888427734375], [-124.07025, 44.63345, -3377.864990234375], [-124.05963, 44.63608, -2862.482177734375]]], [[[-124.07985, 44.70218, -15083.9052734375], [-124.08268, 44.70615, -15943.154296875], [-124.09179, 44.69914, -15355.537109375], [-124.07985, 44.70218, -15083.9052734375]]], [[[-124.08893, 44.69515, -14494.91015625], [-124.07985, 44.70218, -15083.9052734375], [-124.09179, 44.69914, -15355.537109375], [-124.08893, 44.69515, -14494.91015625]]], [[[-124.05764, 44.63215, -2091.052490234375], [-124.04849, 44.63784, -2168.69287109375], [-124.05963, 44.63608, -2862.482177734375], [-124.05764, 44.63215, -2091.052490234375]]], [[[-124.08893, 44.69515, -14494.91015625], [-124.07701, 44.6982, -14224.640625], [-124.07985, 44.70218, -15083.9052734375], [-124.08893, 44.69515, -14494.91015625]]], [[[-124.08607, 44.69116, -13633.1318359375], [-124.07701, 44.6982, -14224.640625], [-124.08893, 44.69515, -14494.91015625], [-124.08607, 44.69116, -13633.1318359375]]], [[[-124.01397, 44.64442, -1477.486083984375], [-124.02445, 44.64547, -2107.75732421875], [-124.02734, 44.64118, -1442.94287109375], [-124.01397, 44.64442, -1477.486083984375]]], [[[-124.08607, 44.69116, -13633.1318359375], [-124.07418, 44.69423, -13365.3212890625], [-124.07701, 44.6982, -14224.640625], [-124.08607, 44.69116, -13633.1318359375]]], [[[-124.08321, 44.68717, -12771.0634765625], [-124.07418, 44.69423, -13365.3212890625], [-124.08607, 44.69116, -13633.1318359375], [-124.08321, 44.68717, -12771.0634765625]]], [[[-124.07205, 44.61889, -1202.716796875], [-124.07986, 44.613, -892.4398803710938], [-124.07321, 44.61363, -456.8583984375], [-124.07205, 44.61889, -1202.716796875]]], [[[-124.08321, 44.68717, -12771.0634765625], [-124.07135, 44.69026, -12505.9873046875], [-124.07418, 44.69423, -13365.3212890625], [-124.08321, 44.68717, -12771.0634765625]]], [[[-124.08035, 44.68317, -11908.939453125], [-124.07135, 44.69026, -12505.9873046875], [-124.08321, 44.68717, -12771.0634765625], [-124.08035, 44.68317, -11908.939453125]]], [[[-124.08035, 44.68317, -11908.939453125], [-124.06852, 44.68628, -11646.650390625], [-124.07135, 44.69026, -12505.9873046875], [-124.08035, 44.68317, -11908.939453125]]], [[[-124.0775, 44.67918, -11046.8056640625], [-124.06852, 44.68628, -11646.650390625], [-124.08035, 44.68317, -11908.939453125], [-124.0775, 44.67918, -11046.8056640625]]], [[[-124.0775, 44.67918, -11046.8056640625], [-124.06569, 44.68231, -10787.3154296875], [-124.06852, 44.68628, -11646.650390625], [-124.0775, 44.67918, -11046.8056640625]]], [[[-124.07464, 44.67519, -10184.6728515625], [-124.06569, 44.68231, -10787.3154296875], [-124.0775, 44.67918, -11046.8056640625], [-124.07464, 44.67519, -10184.6728515625]]], [[[-124.07464, 44.67519, -10184.6728515625], [-124.06286, 44.67833, -9927.984375], [-124.06569, 44.68231, -10787.3154296875], [-124.07464, 44.67519, -10184.6728515625]]], [[[-124.07178, 44.67119, -9322.5771484375], [-124.06286, 44.67833, -9927.984375], [-124.07464, 44.67519, -10184.6728515625], [-124.07178, 44.67119, -9322.5771484375]]], [[[-124.04849, 44.63784, -2168.69287109375], [-124.05158, 44.63153, -1447.5345458984375], [-124.0401, 44.63742, -1413.7227783203125], [-124.04849, 44.63784, -2168.69287109375]]], [[[-124.07178, 44.67119, -9322.5771484375], [-124.06003, 44.67436, -9068.6923828125], [-124.06286, 44.67833, -9927.984375], [-124.07178, 44.67119, -9322.5771484375]]], [[[-124.06892, 44.6672, -8460.814453125], [-124.06003, 44.67436, -9068.6923828125], [-124.07178, 44.67119, -9322.5771484375], [-124.06892, 44.6672, -8460.814453125]]], [[[-124.06892, 44.6672, -8460.814453125], [-124.0572, 44.67039, -8209.5322265625], [-124.06003, 44.67436, -9068.6923828125], [-124.06892, 44.6672, -8460.814453125]]], [[[-124.06892, 44.6672, -8460.814453125], [-124.07178, 44.67119, -9322.5771484375], [-124.08002, 44.66405, -8910.88671875], [-124.06892, 44.6672, -8460.814453125]]], [[[-124.06892, 44.6672, -8460.814453125], [-124.08002, 44.66405, -8910.88671875], [-124.07715, 44.66004, -8048.69775390625], [-124.06892, 44.6672, -8460.814453125]]], [[[-124.07178, 44.67119, -9322.5771484375], [-124.0829, 44.66805, -9773.1015625], [-124.08002, 44.66405, -8910.88671875], [-124.07178, 44.67119, -9322.5771484375]]], [[[-124.07178, 44.67119, -9322.5771484375], [-124.07464, 44.67519, -10184.6728515625], [-124.0829, 44.66805, -9773.1015625], [-124.07178, 44.67119, -9322.5771484375]]], [[[-124.07464, 44.67519, -10184.6728515625], [-124.08577, 44.67206, -10635.322265625], [-124.0829, 44.66805, -9773.1015625], [-124.07464, 44.67519, -10184.6728515625]]], [[[-124.07464, 44.67519, -10184.6728515625], [-124.0775, 44.67918, -11046.8056640625], [-124.08577, 44.67206, -10635.322265625], [-124.07464, 44.67519, -10184.6728515625]]], [[[-124.0775, 44.67918, -11046.8056640625], [-124.08865, 44.67606, -11497.5439453125], [-124.08577, 44.67206, -10635.322265625], [-124.0775, 44.67918, -11046.8056640625]]], [[[-124.0775, 44.67918, -11046.8056640625], [-124.08035, 44.68317, -11908.939453125], [-124.08865, 44.67606, -11497.5439453125], [-124.0775, 44.67918, -11046.8056640625]]], [[[-124.08035, 44.68317, -11908.939453125], [-124.09153, 44.68007, -12359.765625], [-124.08865, 44.67606, -11497.5439453125], [-124.08035, 44.68317, -11908.939453125]]], [[[-124.08035, 44.68317, -11908.939453125], [-124.08321, 44.68717, -12771.0634765625], [-124.09153, 44.68007, -12359.765625], [-124.08035, 44.68317, -11908.939453125]]], [[[-124.08321, 44.68717, -12771.0634765625], [-124.0944, 44.68408, -13221.986328125], [-124.09153, 44.68007, -12359.765625], [-124.08321, 44.68717, -12771.0634765625]]], [[[-124.08321, 44.68717, -12771.0634765625], [-124.08607, 44.69116, -13633.1318359375], [-124.0944, 44.68408, -13221.986328125], [-124.08321, 44.68717, -12771.0634765625]]], [[[-124.05548, 44.64666, -4128.95947265625], [-124.06232, 44.64008, -3706.888427734375], [-124.05044, 44.64239, -3043.9912109375], [-124.05548, 44.64666, -4128.95947265625]]], [[[-124.08607, 44.69116, -13633.1318359375], [-124.09728, 44.68808, -14084.201171875], [-124.0944, 44.68408, -13221.986328125], [-124.08607, 44.69116, -13633.1318359375]]], [[[-124.08607, 44.69116, -13633.1318359375], [-124.08893, 44.69515, -14494.91015625], [-124.09728, 44.68808, -14084.201171875], [-124.08607, 44.69116, -13633.1318359375]]], [[[-124.08893, 44.69515, -14494.91015625], [-124.10016, 44.69209, -14946.50390625], [-124.09728, 44.68808, -14084.201171875], [-124.08893, 44.69515, -14494.91015625]]], [[[-124.08893, 44.69515, -14494.91015625], [-124.09179, 44.69914, -15355.537109375], [-124.10016, 44.69209, -14946.50390625], [-124.08893, 44.69515, -14494.91015625]]], [[[-124.05963, 44.63608, -2862.482177734375], [-124.06735, 44.62943, -2507.83056640625], [-124.05764, 44.63215, -2091.052490234375], [-124.05963, 44.63608, -2862.482177734375]]], [[[-124.09179, 44.69914, -15355.537109375], [-124.10304, 44.69609, -15808.611328125], [-124.10016, 44.69209, -14946.50390625], [-124.09179, 44.69914, -15355.537109375]]], [[[-124.04849, 44.63784, -2168.69287109375], [-124.05764, 44.63215, -2091.052490234375], [-124.05158, 44.63153, -1447.5345458984375], [-124.04849, 44.63784, -2168.69287109375]]], [[[-124.09465, 44.70314, -16219.1767578125], [-124.10304, 44.69609, -15808.611328125], [-124.09179, 44.69914, -15355.537109375], [-124.09465, 44.70314, -16219.1767578125]]], [[[-124.09465, 44.70314, -16219.1767578125], [-124.10592, 44.7001, -16670.87109375], [-124.10304, 44.69609, -15808.611328125], [-124.09465, 44.70314, -16219.1767578125]]], [[[-124.09751, 44.70713, -17081.6953125], [-124.10592, 44.7001, -16670.87109375], [-124.09465, 44.70314, -16219.1767578125], [-124.09751, 44.70713, -17081.6953125]]], [[[-124.04825, 44.64812, -3767.050537109375], [-124.05044, 44.64239, -3043.9912109375], [-124.03914, 44.64725, -3126.078369140625], [-124.04825, 44.64812, -3767.050537109375]]], [[[-124.09751, 44.70713, -17081.6953125], [-124.1088, 44.7041, -17533.158203125], [-124.10592, 44.7001, -16670.87109375], [-124.09751, 44.70713, -17081.6953125]]], [[[-124.10038, 44.71113, -17944.4375], [-124.1088, 44.7041, -17533.158203125], [-124.09751, 44.70713, -17081.6953125], [-124.10038, 44.71113, -17944.4375]]], [[[-124.10038, 44.71113, -17944.4375], [-124.11168, 44.70811, -18396.16796875], [-124.1088, 44.7041, -17533.158203125], [-124.10038, 44.71113, -17944.4375]]], [[[-124.05548, 44.64666, -4128.95947265625], [-124.06574, 44.64395, -4598.62109375], [-124.06232, 44.64008, -3706.888427734375], [-124.05548, 44.64666, -4128.95947265625]]], [[[-124.10325, 44.71514, -18810.681640625], [-124.11168, 44.70811, -18396.16796875], [-124.10038, 44.71113, -17944.4375], [-124.10325, 44.71514, -18810.681640625]]], [[[-124.06383, 44.62009, -741.0285034179688], [-124.06653, 44.61423, -22.918170928955078], [-124.05606, 44.61947, -27.879730224609375], [-124.06383, 44.62009, -741.0285034179688]]], [[[-124.10325, 44.71514, -18810.681640625], [-124.11451, 44.71221, -19268.126953125], [-124.11168, 44.70811, -18396.16796875], [-124.10325, 44.71514, -18810.681640625]]], [[[-124.06383, 44.62009, -741.0285034179688], [-124.07205, 44.61889, -1202.716796875], [-124.06653, 44.61423, -22.918170928955078], [-124.06383, 44.62009, -741.0285034179688]]], [[[-124.11168, 44.70811, -18396.16796875], [-124.11451, 44.71221, -19268.126953125], [-124.12188, 44.70539, -18910.94140625], [-124.11168, 44.70811, -18396.16796875]]], [[[-124.11168, 44.70811, -18396.16796875], [-124.12188, 44.70539, -18910.94140625], [-124.119, 44.70139, -18048.689453125], [-124.11168, 44.70811, -18396.16796875]]], [[[-124.1088, 44.7041, -17533.158203125], [-124.11168, 44.70811, -18396.16796875], [-124.119, 44.70139, -18048.689453125], [-124.1088, 44.7041, -17533.158203125]]], [[[-124.1088, 44.7041, -17533.158203125], [-124.119, 44.70139, -18048.689453125], [-124.11611, 44.69738, -17186.435546875], [-124.1088, 44.7041, -17533.158203125]]], [[[-124.10592, 44.7001, -16670.87109375], [-124.1088, 44.7041, -17533.158203125], [-124.11611, 44.69738, -17186.435546875], [-124.10592, 44.7001, -16670.87109375]]], [[[-124.10592, 44.7001, -16670.87109375], [-124.11611, 44.69738, -17186.435546875], [-124.11324, 44.69338, -16324.0029296875], [-124.10592, 44.7001, -16670.87109375]]], [[[-124.10304, 44.69609, -15808.611328125], [-124.10592, 44.7001, -16670.87109375], [-124.11324, 44.69338, -16324.0029296875], [-124.10304, 44.69609, -15808.611328125]]], [[[-124.10304, 44.69609, -15808.611328125], [-124.11324, 44.69338, -16324.0029296875], [-124.11037, 44.68939, -15460.927734375], [-124.10304, 44.69609, -15808.611328125]]], [[[-124.10016, 44.69209, -14946.50390625], [-124.10304, 44.69609, -15808.611328125], [-124.11037, 44.68939, -15460.927734375], [-124.10016, 44.69209, -14946.50390625]]], [[[-124.1075, 44.68539, -14597.8515625], [-124.10016, 44.69209, -14946.50390625], [-124.11037, 44.68939, -15460.927734375], [-124.1075, 44.68539, -14597.8515625]]], [[[-124.10016, 44.69209, -14946.50390625], [-124.1075, 44.68539, -14597.8515625], [-124.09728, 44.68808, -14084.201171875], [-124.10016, 44.69209, -14946.50390625]]], [[[-124.10463, 44.6814, -13734.775390625], [-124.09728, 44.68808, -14084.201171875], [-124.1075, 44.68539, -14597.8515625], [-124.10463, 44.6814, -13734.775390625]]], [[[-124.09728, 44.68808, -14084.201171875], [-124.10463, 44.6814, -13734.775390625], [-124.0944, 44.68408, -13221.986328125], [-124.09728, 44.68808, -14084.201171875]]], [[[-124.10177, 44.6774, -12871.7001953125], [-124.0944, 44.68408, -13221.986328125], [-124.10463, 44.6814, -13734.775390625], [-124.10177, 44.6774, -12871.7001953125]]], [[[-124.0944, 44.68408, -13221.986328125], [-124.10177, 44.6774, -12871.7001953125], [-124.09153, 44.68007, -12359.765625], [-124.0944, 44.68408, -13221.986328125]]], [[[-124.0989, 44.67341, -12008.6240234375], [-124.09153, 44.68007, -12359.765625], [-124.10177, 44.6774, -12871.7001953125], [-124.0989, 44.67341, -12008.6240234375]]], [[[-124.09153, 44.68007, -12359.765625], [-124.0989, 44.67341, -12008.6240234375], [-124.08865, 44.67606, -11497.5439453125], [-124.09153, 44.68007, -12359.765625]]], [[[-124.09603, 44.66941, -11145.5478515625], [-124.08865, 44.67606, -11497.5439453125], [-124.0989, 44.67341, -12008.6240234375], [-124.09603, 44.66941, -11145.5478515625]]], [[[-124.08865, 44.67606, -11497.5439453125], [-124.09603, 44.66941, -11145.5478515625], [-124.08577, 44.67206, -10635.322265625], [-124.08865, 44.67606, -11497.5439453125]]], [[[-124.09317, 44.66542, -10282.4716796875], [-124.08577, 44.67206, -10635.322265625], [-124.09603, 44.66941, -11145.5478515625], [-124.09317, 44.66542, -10282.4716796875]]], [[[-124.08577, 44.67206, -10635.322265625], [-124.09317, 44.66542, -10282.4716796875], [-124.0829, 44.66805, -9773.1015625], [-124.08577, 44.67206, -10635.322265625]]], [[[-124.09317, 44.66542, -10282.4716796875], [-124.09603, 44.66941, -11145.5478515625], [-124.10372, 44.66319, -10764.7421875], [-124.09317, 44.66542, -10282.4716796875]]], [[[-124.09317, 44.66542, -10282.4716796875], [-124.10372, 44.66319, -10764.7421875], [-124.10085, 44.6592, -9901.666015625], [-124.09317, 44.66542, -10282.4716796875]]], [[[-124.09603, 44.66941, -11145.5478515625], [-124.10659, 44.66719, -11627.818359375], [-124.10372, 44.66319, -10764.7421875], [-124.09603, 44.66941, -11145.5478515625]]], [[[-124.09603, 44.66941, -11145.5478515625], [-124.0989, 44.67341, -12008.6240234375], [-124.10659, 44.66719, -11627.818359375], [-124.09603, 44.66941, -11145.5478515625]]], [[[-124.0989, 44.67341, -12008.6240234375], [-124.10945, 44.67118, -12490.89453125], [-124.10659, 44.66719, -11627.818359375], [-124.0989, 44.67341, -12008.6240234375]]], [[[-124.0989, 44.67341, -12008.6240234375], [-124.10177, 44.6774, -12871.7001953125], [-124.10945, 44.67118, -12490.89453125], [-124.0989, 44.67341, -12008.6240234375]]], [[[-124.10177, 44.6774, -12871.7001953125], [-124.11232, 44.67518, -13353.970703125], [-124.10945, 44.67118, -12490.89453125], [-124.10177, 44.6774, -12871.7001953125]]], [[[-124.10177, 44.6774, -12871.7001953125], [-124.10463, 44.6814, -13734.775390625], [-124.11232, 44.67518, -13353.970703125], [-124.10177, 44.6774, -12871.7001953125]]], [[[-124.10463, 44.6814, -13734.775390625], [-124.11519, 44.67917, -14217.0458984375], [-124.11232, 44.67518, -13353.970703125], [-124.10463, 44.6814, -13734.775390625]]], [[[-124.10463, 44.6814, -13734.775390625], [-124.1075, 44.68539, -14597.8515625], [-124.11519, 44.67917, -14217.0458984375], [-124.10463, 44.6814, -13734.775390625]]], [[[-124.1075, 44.68539, -14597.8515625], [-124.11806, 44.68317, -15080.1220703125], [-124.11519, 44.67917, -14217.0458984375], [-124.1075, 44.68539, -14597.8515625]]], [[[-124.1075, 44.68539, -14597.8515625], [-124.11037, 44.68939, -15460.927734375], [-124.11806, 44.68317, -15080.1220703125], [-124.1075, 44.68539, -14597.8515625]]], [[[-124.11451, 44.71221, -19268.126953125], [-124.12476, 44.7094, -19773.1953125], [-124.12188, 44.70539, -18910.94140625], [-124.11451, 44.71221, -19268.126953125]]], [[[-124.09405, 44.72207, -19387.55078125], [-124.0971, 44.72611, -20269.123046875], [-124.10618, 44.7192, -19689.423828125], [-124.09405, 44.72207, -19387.55078125]]], [[[-124.04609, 44.65421, -4731.98095703125], [-124.04872, 44.65843, -5624.703125], [-124.05752, 44.65118, -5007.1357421875], [-124.04609, 44.65421, -4731.98095703125]]], [[[-124.08437, 44.72745, -19910.853515625], [-124.0971, 44.72611, -20269.123046875], [-124.09405, 44.72207, -19387.55078125], [-124.08437, 44.72745, -19910.853515625]]], [[[-124.06574, 44.64395, -4598.62109375], [-124.06852, 44.64802, -5461.9853515625], [-124.07598, 44.64144, -5104.0166015625], [-124.06574, 44.64395, -4598.62109375]]], [[[-124.0971, 44.72611, -20269.123046875], [-124.08437, 44.72745, -19910.853515625], [-124.08695, 44.73163, -20798.3046875], [-124.0971, 44.72611, -20269.123046875]]], [[[-124.09685, 44.73109, -21157.291015625], [-124.0971, 44.72611, -20269.123046875], [-124.08695, 44.73163, -20798.3046875], [-124.09685, 44.73109, -21157.291015625]]], [[[-124.14367, 44.71839, -22714.986328125], [-124.15443, 44.71687, -23331.4765625], [-124.15156, 44.71288, -22468.4375], [-124.14367, 44.71839, -22714.986328125]]], [[[-124.09991, 44.64097, -6933.71875], [-124.09226, 44.64721, -7312.43798828125], [-124.10278, 44.64496, -7796.7587890625], [-124.09991, 44.64097, -6933.71875]]], [[[-124.08939, 44.64322, -6449.36181640625], [-124.09226, 44.64721, -7312.43798828125], [-124.09991, 44.64097, -6933.71875], [-124.08939, 44.64322, -6449.36181640625]]], [[[-124.08939, 44.64322, -6449.36181640625], [-124.09991, 44.64097, -6933.71875], [-124.09705, 44.63697, -6070.67919921875], [-124.08939, 44.64322, -6449.36181640625]]], [[[-124.08653, 44.63922, -5586.28564453125], [-124.08939, 44.64322, -6449.36181640625], [-124.09705, 44.63697, -6070.67919921875], [-124.08653, 44.63922, -5586.28564453125]]], [[[-124.08653, 44.63922, -5586.28564453125], [-124.09705, 44.63697, -6070.67919921875], [-124.09418, 44.63298, -5207.63916015625], [-124.08653, 44.63922, -5586.28564453125]]], [[[-124.08653, 44.63922, -5586.28564453125], [-124.09418, 44.63298, -5207.63916015625], [-124.08366, 44.63523, -4723.20947265625], [-124.08653, 44.63922, -5586.28564453125]]], [[[-124.09132, 44.62898, -4344.59912109375], [-124.08366, 44.63523, -4723.20947265625], [-124.09418, 44.63298, -5207.63916015625], [-124.09132, 44.62898, -4344.59912109375]]], [[[-124.0808, 44.63123, -3860.133544921875], [-124.08366, 44.63523, -4723.20947265625], [-124.09132, 44.62898, -4344.59912109375], [-124.0808, 44.63123, -3860.133544921875]]], [[[-124.0808, 44.63123, -3860.133544921875], [-124.09132, 44.62898, -4344.59912109375], [-124.08845, 44.62498, -3481.5595703125], [-124.0808, 44.63123, -3860.133544921875]]], [[[-124.07794, 44.62723, -2997.057373046875], [-124.0808, 44.63123, -3860.133544921875], [-124.08845, 44.62498, -3481.5595703125], [-124.07794, 44.62723, -2997.057373046875]]], [[[-124.07794, 44.62723, -2997.057373046875], [-124.08845, 44.62498, -3481.5595703125], [-124.08559, 44.62099, -2618.51953125], [-124.07794, 44.62723, -2997.057373046875]]], [[[-124.07477, 44.62327, -2115.228759765625], [-124.07794, 44.62723, -2997.057373046875], [-124.08559, 44.62099, -2618.51953125], [-124.07477, 44.62327, -2115.228759765625]]], [[[-124.07477, 44.62327, -2115.228759765625], [-124.08559, 44.62099, -2618.51953125], [-124.08273, 44.61699, -1755.479736328125], [-124.07477, 44.62327, -2115.228759765625]]], [[[-124.07205, 44.61889, -1202.716796875], [-124.07321, 44.61363, -456.8583984375], [-124.06653, 44.61423, -22.918170928955078], [-124.07205, 44.61889, -1202.716796875]]], [[[-124.077, 44.609, -29.399999618530273], [-124.06653, 44.61423, -22.918170928955078], [-124.07321, 44.61363, -456.8583984375], [-124.077, 44.609, -29.399999618530273]]], [[[-124.05155, 44.66243, -6489.9560546875], [-124.05438, 44.66641, -7350.021484375], [-124.06321, 44.65921, -6736.43896484375], [-124.05155, 44.66243, -6489.9560546875]]], [[[-124.04872, 44.65843, -5624.703125], [-124.05155, 44.66243, -6489.9560546875], [-124.06035, 44.65522, -5873.25048828125], [-124.04872, 44.65843, -5624.703125]]], [[[-124.05752, 44.65118, -5007.1357421875], [-124.04872, 44.65843, -5624.703125], [-124.06035, 44.65522, -5873.25048828125], [-124.05752, 44.65118, -5007.1357421875]]], [[[-124.05548, 44.64666, -4128.95947265625], [-124.04609, 44.65421, -4731.98095703125], [-124.05752, 44.65118, -5007.1357421875], [-124.05548, 44.64666, -4128.95947265625]]], [[[-124.04825, 44.64812, -3767.050537109375], [-124.04609, 44.65421, -4731.98095703125], [-124.05548, 44.64666, -4128.95947265625], [-124.04825, 44.64812, -3767.050537109375]]], [[[-124.04825, 44.64812, -3767.050537109375], [-124.04082, 44.65158, -3992.8876953125], [-124.04609, 44.65421, -4731.98095703125], [-124.04825, 44.64812, -3767.050537109375]]], [[[-124.05548, 44.64666, -4128.95947265625], [-124.05044, 44.64239, -3043.9912109375], [-124.04825, 44.64812, -3767.050537109375], [-124.05548, 44.64666, -4128.95947265625]]], [[[-124.05752, 44.65118, -5007.1357421875], [-124.06574, 44.64395, -4598.62109375], [-124.05548, 44.64666, -4128.95947265625], [-124.05752, 44.65118, -5007.1357421875]]], [[[-124.06035, 44.65522, -5873.25048828125], [-124.06852, 44.64802, -5461.9853515625], [-124.05752, 44.65118, -5007.1357421875], [-124.06035, 44.65522, -5873.25048828125]]], [[[-124.06232, 44.64008, -3706.888427734375], [-124.06574, 44.64395, -4598.62109375], [-124.07311, 44.63745, -4240.94091796875], [-124.06232, 44.64008, -3706.888427734375]]], [[[-124.06232, 44.64008, -3706.888427734375], [-124.07311, 44.63745, -4240.94091796875], [-124.07025, 44.63345, -3377.864990234375], [-124.06232, 44.64008, -3706.888427734375]]], [[[-124.05963, 44.63608, -2862.482177734375], [-124.05044, 44.64239, -3043.9912109375], [-124.06232, 44.64008, -3706.888427734375], [-124.05963, 44.63608, -2862.482177734375]]], [[[-124.05044, 44.64239, -3043.9912109375], [-124.05963, 44.63608, -2862.482177734375], [-124.04849, 44.63784, -2168.69287109375], [-124.05044, 44.64239, -3043.9912109375]]], [[[-124.03914, 44.64725, -3126.078369140625], [-124.05044, 44.64239, -3043.9912109375], [-124.03722, 44.64286, -2238.0361328125], [-124.03914, 44.64725, -3126.078369140625]]], [[[-124.03722, 44.64286, -2238.0361328125], [-124.04849, 44.63784, -2168.69287109375], [-124.0401, 44.63742, -1413.7227783203125], [-124.03722, 44.64286, -2238.0361328125]]], [[[-124.03722, 44.64286, -2238.0361328125], [-124.0401, 44.63742, -1413.7227783203125], [-124.02734, 44.64118, -1442.94287109375], [-124.03722, 44.64286, -2238.0361328125]]], [[[-124.05963, 44.63608, -2862.482177734375], [-124.07025, 44.63345, -3377.864990234375], [-124.06735, 44.62943, -2507.83056640625], [-124.05963, 44.63608, -2862.482177734375]]], [[[-124.06298, 44.62565, -1559.2164306640625], [-124.05764, 44.63215, -2091.052490234375], [-124.06735, 44.62943, -2507.83056640625], [-124.06298, 44.62565, -1559.2164306640625]]], [[[-124.05764, 44.63215, -2091.052490234375], [-124.06298, 44.62565, -1559.2164306640625], [-124.05158, 44.63153, -1447.5345458984375], [-124.05764, 44.63215, -2091.052490234375]]], [[[-124.06298, 44.62565, -1559.2164306640625], [-124.05448, 44.62533, -780.9072875976562], [-124.05158, 44.63153, -1447.5345458984375], [-124.06298, 44.62565, -1559.2164306640625]]]]}}]}