{"type": "FeatureCollection", "features": [{"type": "Feature", "properties": {"name": "AW_CORE_2", "CFM_ID": 211, "region": "Offshore_OR", "primary_state/province": "OR", "secondary_state/province": null, "avg_dip": 23, "dip_dir": "W", "rake": 90, "slip_sense": "Reverse", "fault_level": 2, "NSHM23_sliprates": null, "QFFDAgeCatBin": null, "QFFDAgeBin": null, "upper_depth": -1.6, "upper_depth_constraint": "seismic imaging", "lower_depth": -3.4, "lower_depth_constraint": "seismic imaging", "3D_model_constraints": "trace and 1 MCS line", "reference": "Lucas et al. (2025); Carbotte et al. (2023)", "nshm23_id": null, "lineage": null, "usgs_qffd_#": null, "comments": "fault depth interpretation from Lucas et al. (2025); Carbotte et al. (2023) used to aid in model building", "id": "211"}, "geometry": {"type": "MultiPolygon", "coordinates": [[[[-125.18884, 44.77071, -1933.0179443359375], [-125.1799, 44.76502, -1603.550048828125], [-125.17766, 44.77387, -1603.550048828125], [-125.18884, 44.77071, -1933.0179443359375]]], [[[-125.18089, 45.02734, -1922.4117431640625], [-125.17093, 45.03205, -1603.550048828125], [-125.18184, 45.0356, -1924.897216796875], [-125.18089, 45.02734, -1922.4117431640625]]], [[[-125.20237, 44.79226, -2538.169921875], [-125.19452, 44.79903, -2286.374267578125], [-125.20729, 44.80066, -2677.990478515625], [-125.20237, 44.79226, -2538.169921875]]], [[[-125.18415, 44.78796, -1931.563232421875], [-125.19286, 44.79226, -2237.7607421875], [-125.19668, 44.7846, -2297.780517578125], [-125.18415, 44.78796, -1931.563232421875]]], [[[-125.18234, 44.938, -1924.9705810546875], [-125.17248, 44.93316, -1603.550048828125], [-125.17186, 44.94214, -1603.550048828125], [-125.18234, 44.938, -1924.9705810546875]]], [[[-125.20182, 45.02671, -2581.091064453125], [-125.19168, 45.03084, -2256.840576171875], [-125.2051, 45.0331, -2667.419677734375], [-125.20182, 45.02671, -2581.091064453125]]], [[[-125.19641, 44.83898, -2270.4375], [-125.20513, 44.84422, -2613.549072265625], [-125.20967, 44.83841, -2686.4541015625], [-125.19641, 44.83898, -2270.4375]]], [[[-125.2088, 44.78737, -2711.51806640625], [-125.21631, 44.79419, -3016.1669921875], [-125.21864, 44.78406, -3034.2724609375], [-125.2088, 44.78737, -2711.51806640625]]], [[[-125.21588, 44.94485, -3041.8798828125], [-125.21513, 44.95375, -3041.70166015625], [-125.22536, 44.94971, -3422.239990234375], [-125.21588, 44.94485, -3041.8798828125]]], [[[-125.21437, 44.97219, -3039.358154296875], [-125.21446, 44.98122, -3035.778076171875], [-125.22441, 44.97664, -3422.239990234375], [-125.21437, 44.97219, -3039.358154296875]]], [[[-125.18299, 44.79582, -1924.0670166015625], [-125.1729, 44.80029, -1603.550048828125], [-125.18435, 44.8035, -1932.774658203125], [-125.18299, 44.79582, -1924.0670166015625]]], [[[-125.1729, 44.80029, -1603.550048828125], [-125.17547, 44.8091, -1603.550048828125], [-125.18435, 44.8035, -1932.774658203125], [-125.1729, 44.80029, -1603.550048828125]]], [[[-125.2229, 44.82766, -3005.5966796875], [-125.21194, 44.82948, -2639.234130859375], [-125.22013, 44.83602, -3024.15673828125], [-125.2229, 44.82766, -3005.5966796875]]], [[[-125.20237, 44.79226, -2538.169921875], [-125.21631, 44.79419, -3016.1669921875], [-125.2088, 44.78737, -2711.51806640625], [-125.20237, 44.79226, -2538.169921875]]], [[[-125.18296, 44.92902, -1924.95654296875], [-125.17248, 44.93316, -1603.550048828125], [-125.18234, 44.938, -1924.9705810546875], [-125.18296, 44.92902, -1924.95654296875]]], [[[-125.22101, 44.77528, -3035.310546875], [-125.21864, 44.78406, -3034.2724609375], [-125.22954, 44.78092, -3422.239990234375], [-125.22101, 44.77528, -3035.310546875]]], [[[-125.20916, 44.77888, -2645.535888671875], [-125.22101, 44.77528, -3035.310546875], [-125.21132, 44.77018, -2644.413330078125], [-125.20916, 44.77888, -2645.535888671875]]], [[[-125.21595, 44.85521, -3042.496337890625], [-125.22543, 44.86006, -3422.239990234375], [-125.2261, 44.85109, -3422.239990234375], [-125.21595, 44.85521, -3042.496337890625]]], [[[-125.24681, 45.09622, -2554.05615234375], [-125.23982, 45.08832, -2657.220947265625], [-125.2374, 45.09649, -2257.8974609375], [-125.24681, 45.09622, -2554.05615234375]]], [[[-125.18296, 44.92902, -1924.95654296875], [-125.1731, 44.92417, -1603.550048828125], [-125.17248, 44.93316, -1603.550048828125], [-125.18296, 44.92902, -1924.95654296875]]], [[[-125.2041, 45.00299, -2644.311767578125], [-125.20409, 45.01176, -2647.705810546875], [-125.21527, 45.00795, -3038.800537109375], [-125.2041, 45.00299, -2644.311767578125]]], [[[-125.21513, 44.95375, -3041.70166015625], [-125.21455, 44.96301, -3042.907958984375], [-125.22454, 44.95868, -3422.239990234375], [-125.21513, 44.95375, -3041.70166015625]]], [[[-125.20579, 44.85105, -2667.508056640625], [-125.21595, 44.85521, -3042.496337890625], [-125.2168, 44.84578, -3031.792724609375], [-125.20579, 44.85105, -2667.508056640625]]], [[[-125.18299, 44.79582, -1924.0670166015625], [-125.17275, 44.79152, -1603.550048828125], [-125.1729, 44.80029, -1603.550048828125], [-125.18299, 44.79582, -1924.0670166015625]]], [[[-125.2168, 44.84578, -3031.792724609375], [-125.20513, 44.84422, -2613.549072265625], [-125.20579, 44.85105, -2667.508056640625], [-125.2168, 44.84578, -3031.792724609375]]], [[[-125.20182, 45.02671, -2581.091064453125], [-125.19156, 45.02288, -2263.488037109375], [-125.19168, 45.03084, -2256.840576171875], [-125.20182, 45.02671, -2581.091064453125]]], [[[-125.18884, 44.77071, -1933.0179443359375], [-125.17766, 44.77387, -1603.550048828125], [-125.18662, 44.77954, -1933.55419921875], [-125.18884, 44.77071, -1933.0179443359375]]], [[[-125.19321, 44.86216, -2292.6787109375], [-125.19207, 44.86987, -2247.432373046875], [-125.20406, 44.86958, -2626.068115234375], [-125.19321, 44.86216, -2292.6787109375]]], [[[-125.18356, 44.92, -1924.859375], [-125.1731, 44.92417, -1603.550048828125], [-125.18296, 44.92902, -1924.95654296875], [-125.18356, 44.92, -1924.859375]]], [[[-125.1894, 44.83173, -1945.7462158203125], [-125.18518, 44.84089, -1941.138671875], [-125.19641, 44.83898, -2270.4375], [-125.1894, 44.83173, -1945.7462158203125]]], [[[-125.18371, 44.73821, -1603.550048828125], [-125.19435, 44.74245, -1948.84423828125], [-125.19367, 44.7325, -1931.14697265625], [-125.18371, 44.73821, -1603.550048828125]]], [[[-125.21132, 44.77018, -2644.413330078125], [-125.22101, 44.77528, -3035.310546875], [-125.22324, 44.76644, -3035.102294921875], [-125.21132, 44.77018, -2644.413330078125]]], [[[-125.18281, 44.84886, -1928.303955078125], [-125.17201, 44.85234, -1603.550048828125], [-125.18191, 44.85725, -1928.2685546875], [-125.18281, 44.84886, -1928.303955078125]]], [[[-125.18415, 44.78796, -1931.563232421875], [-125.17275, 44.79152, -1603.550048828125], [-125.18299, 44.79582, -1924.0670166015625], [-125.18415, 44.78796, -1931.563232421875]]], [[[-125.18356, 44.92, -1924.859375], [-125.17367, 44.91518, -1603.550048828125], [-125.1731, 44.92417, -1603.550048828125], [-125.18356, 44.92, -1924.859375]]], [[[-125.22427, 44.82082, -3046.811767578125], [-125.2229, 44.82766, -3005.5966796875], [-125.2346, 44.82496, -3422.239990234375], [-125.22427, 44.82082, -3046.811767578125]]], [[[-125.21455, 44.96301, -3042.907958984375], [-125.21437, 44.97219, -3039.358154296875], [-125.22426, 44.96766, -3422.239990234375], [-125.21455, 44.96301, -3042.907958984375]]], [[[-125.18164, 44.86562, -1924.0093994140625], [-125.18191, 44.85725, -1928.2685546875], [-125.17129, 44.86131, -1603.550048828125], [-125.18164, 44.86562, -1924.0093994140625]]], [[[-125.20727, 44.90409, -2644.7041015625], [-125.20689, 44.9129, -2648.134765625], [-125.21813, 44.90906, -3038.04638671875], [-125.20727, 44.90409, -2644.7041015625]]], [[[-125.18356, 44.92, -1924.859375], [-125.1841, 44.91097, -1924.764892578125], [-125.17367, 44.91518, -1603.550048828125], [-125.18356, 44.92, -1924.859375]]], [[[-125.23291, 45.10385, -1943.7591552734375], [-125.22114, 45.10259, -1603.550048828125], [-125.22608, 45.11078, -1603.550048828125], [-125.23291, 45.10385, -1943.7591552734375]]], [[[-125.20268, 44.75746, -2268.055419921875], [-125.19289, 44.7522, -1931.0487060546875], [-125.19096, 44.76184, -1929.7030029296875], [-125.20268, 44.75746, -2268.055419921875]]], [[[-125.20518, 44.93978, -2650.105712890625], [-125.21652, 44.93592, -3042.0107421875], [-125.20579, 44.93085, -2650.14404296875], [-125.20518, 44.93978, -2650.105712890625]]], [[[-125.21713, 44.92695, -3041.992431640625], [-125.20579, 44.93085, -2650.14404296875], [-125.21652, 44.93592, -3042.0107421875], [-125.21713, 44.92695, -3041.992431640625]]], [[[-125.19289, 44.7522, -1931.0487060546875], [-125.18209, 44.75616, -1603.550048828125], [-125.19096, 44.76184, -1929.7030029296875], [-125.19289, 44.7522, -1931.0487060546875]]], [[[-125.19452, 44.79903, -2286.374267578125], [-125.19286, 44.79226, -2237.7607421875], [-125.18299, 44.79582, -1924.0670166015625], [-125.19452, 44.79903, -2286.374267578125]]], [[[-125.23187, 45.06503, -3131.91015625], [-125.22641, 45.07327, -2715.7900390625], [-125.23794, 45.07293, -3131.91015625], [-125.23187, 45.06503, -3131.91015625]]], [[[-125.1841, 44.91097, -1924.764892578125], [-125.18356, 44.92, -1924.859375], [-125.195, 44.91601, -2277.943115234375], [-125.1841, 44.91097, -1924.764892578125]]], [[[-125.21334, 44.76146, -2639.050537109375], [-125.22324, 44.76644, -3035.102294921875], [-125.22529, 44.75768, -3030.705322265625], [-125.21334, 44.76146, -2639.050537109375]]], [[[-125.2229, 44.82766, -3005.5966796875], [-125.23146, 44.83366, -3422.239990234375], [-125.2346, 44.82496, -3422.239990234375], [-125.2229, 44.82766, -3005.5966796875]]], [[[-125.19234, 44.9965, -2281.91845703125], [-125.18097, 44.99145, -1930.2890625], [-125.1813, 45.00047, -1929.9278564453125], [-125.19234, 44.9965, -2281.91845703125]]], [[[-125.19009, 44.82113, -1927.657470703125], [-125.17918, 44.81766, -1603.550048828125], [-125.18061, 44.8262, -1603.550048828125], [-125.19009, 44.82113, -1927.657470703125]]], [[[-125.2041, 45.00299, -2644.311767578125], [-125.21503, 44.99916, -3033.626708984375], [-125.2038, 44.99415, -2645.302734375], [-125.2041, 45.00299, -2644.311767578125]]], [[[-125.19541, 44.90679, -2274.38720703125], [-125.1841, 44.91097, -1924.764892578125], [-125.195, 44.91601, -2277.943115234375], [-125.19541, 44.90679, -2274.38720703125]]], [[[-125.22529, 44.75768, -3030.705322265625], [-125.23615, 44.75439, -3422.239990234375], [-125.22672, 44.74932, -3035.453369140625], [-125.22529, 44.75768, -3030.705322265625]]], [[[-125.20237, 44.79226, -2538.169921875], [-125.20729, 44.80066, -2677.990478515625], [-125.21631, 44.79419, -3016.1669921875], [-125.20237, 44.79226, -2538.169921875]]], [[[-125.18662, 44.77954, -1933.55419921875], [-125.17542, 44.78273, -1603.550048828125], [-125.18415, 44.78796, -1931.563232421875], [-125.18662, 44.77954, -1933.55419921875]]], [[[-125.19442, 44.92508, -2277.9658203125], [-125.19379, 44.9341, -2277.69775390625], [-125.20579, 44.93085, -2650.14404296875], [-125.19442, 44.92508, -2277.9658203125]]], [[[-125.22376, 44.72645, -2922.847900390625], [-125.22893, 44.7188, -3131.91015625], [-125.21747, 44.71913, -2715.7900390625], [-125.22376, 44.72645, -2922.847900390625]]], [[[-125.18089, 45.02734, -1922.4117431640625], [-125.18096, 45.01887, -1926.082275390625], [-125.17055, 45.02308, -1603.550048828125], [-125.18089, 45.02734, -1922.4117431640625]]], [[[-125.19404, 44.71978, -1974.2880859375], [-125.20085, 44.72728, -2170.754150390625], [-125.20577, 44.71947, -2345.0390625], [-125.19404, 44.71978, -1974.2880859375]]], [[[-125.19541, 44.90679, -2274.38720703125], [-125.195, 44.91601, -2277.943115234375], [-125.20689, 44.9129, -2648.134765625], [-125.19541, 44.90679, -2274.38720703125]]], [[[-125.21207, 44.72727, -2524.902099609375], [-125.20577, 44.71947, -2345.0390625], [-125.20085, 44.72728, -2170.754150390625], [-125.21207, 44.72727, -2524.902099609375]]], [[[-125.19452, 44.79903, -2286.374267578125], [-125.18299, 44.79582, -1924.0670166015625], [-125.18435, 44.8035, -1932.774658203125], [-125.19452, 44.79903, -2286.374267578125]]], [[[-125.20182, 45.02671, -2581.091064453125], [-125.20417, 45.02021, -2658.945556640625], [-125.19156, 45.02288, -2263.488037109375], [-125.20182, 45.02671, -2581.091064453125]]], [[[-125.20602, 44.73656, -2310.889404296875], [-125.2162, 44.74383, -2644.499267578125], [-125.21829, 44.73482, -2702.83154296875], [-125.20602, 44.73656, -2310.889404296875]]], [[[-125.19176, 44.97859, -2282.030029296875], [-125.18049, 44.97358, -1930.2235107421875], [-125.18067, 44.98251, -1930.064697265625], [-125.19176, 44.97859, -2282.030029296875]]], [[[-125.1841, 44.91097, -1924.764892578125], [-125.19541, 44.90679, -2274.38720703125], [-125.18487, 44.90176, -1932.9261474609375], [-125.1841, 44.91097, -1924.764892578125]]], [[[-125.20349, 44.9852, -2646.0478515625], [-125.20333, 44.97618, -2648.2041015625], [-125.19176, 44.97859, -2282.030029296875], [-125.20349, 44.9852, -2646.0478515625]]], [[[-125.19869, 44.77581, -2287.1796875], [-125.21132, 44.77018, -2644.413330078125], [-125.20085, 44.76681, -2283.72119140625], [-125.19869, 44.77581, -2287.1796875]]], [[[-125.19442, 44.92508, -2277.9658203125], [-125.18356, 44.92, -1924.859375], [-125.18296, 44.92902, -1924.95654296875], [-125.19442, 44.92508, -2277.9658203125]]], [[[-125.20333, 44.97618, -2648.2041015625], [-125.20341, 44.96708, -2653.537353515625], [-125.19172, 44.96978, -2285.33544921875], [-125.20333, 44.97618, -2648.2041015625]]], [[[-125.19176, 44.97859, -2282.030029296875], [-125.192, 44.9875, -2281.80859375], [-125.20349, 44.9852, -2646.0478515625], [-125.19176, 44.97859, -2282.030029296875]]], [[[-125.18415, 44.78796, -1931.563232421875], [-125.17542, 44.78273, -1603.550048828125], [-125.17275, 44.79152, -1603.550048828125], [-125.18415, 44.78796, -1931.563232421875]]], [[[-125.20284, 45.07392, -1974.2880859375], [-125.1971, 45.08211, -1603.550048828125], [-125.20891, 45.08182, -1974.2880859375], [-125.20284, 45.07392, -1974.2880859375]]], [[[-125.23794, 45.07293, -3131.91015625], [-125.24536, 45.07266, -3422.239990234375], [-125.23928, 45.06476, -3422.239990234375], [-125.23794, 45.07293, -3131.91015625]]], [[[-125.17417, 44.90619, -1603.550048828125], [-125.1841, 44.91097, -1924.764892578125], [-125.18487, 44.90176, -1932.9261474609375], [-125.17417, 44.90619, -1603.550048828125]]], [[[-125.19198, 44.96103, -2286.389892578125], [-125.18091, 44.9561, -1925.3883056640625], [-125.18048, 44.9648, -1927.963623046875], [-125.19198, 44.96103, -2286.389892578125]]], [[[-125.21513, 44.95375, -3041.70166015625], [-125.22454, 44.95868, -3422.239990234375], [-125.22536, 44.94971, -3422.239990234375], [-125.21513, 44.95375, -3041.70166015625]]], [[[-125.19289, 44.7522, -1931.0487060546875], [-125.1831, 44.74719, -1603.550048828125], [-125.18209, 44.75616, -1603.550048828125], [-125.19289, 44.7522, -1931.0487060546875]]], [[[-125.2374, 45.09649, -2257.8974609375], [-125.22868, 45.08863, -2307.15673828125], [-125.22618, 45.09536, -1941.6611328125], [-125.2374, 45.09649, -2257.8974609375]]], [[[-125.1841, 44.91097, -1924.764892578125], [-125.17417, 44.90619, -1603.550048828125], [-125.17367, 44.91518, -1603.550048828125], [-125.1841, 44.91097, -1924.764892578125]]], [[[-125.26118, 45.1144, -2657.12060546875], [-125.273, 45.11489, -3064.667236328125], [-125.26905, 45.10789, -3025.21875], [-125.26118, 45.1144, -2657.12060546875]]], [[[-125.22101, 44.77528, -3035.310546875], [-125.22954, 44.78092, -3422.239990234375], [-125.23177, 44.77208, -3422.239990234375], [-125.22101, 44.77528, -3035.310546875]]], [[[-125.21334, 44.76146, -2639.050537109375], [-125.22529, 44.75768, -3030.705322265625], [-125.21502, 44.75276, -2635.31103515625], [-125.21334, 44.76146, -2639.050537109375]]], [[[-125.2229, 44.82766, -3005.5966796875], [-125.22013, 44.83602, -3024.15673828125], [-125.23146, 44.83366, -3422.239990234375], [-125.2229, 44.82766, -3005.5966796875]]], [[[-125.21446, 44.98122, -3035.778076171875], [-125.20349, 44.9852, -2646.0478515625], [-125.21468, 44.99022, -3033.442626953125], [-125.21446, 44.98122, -3035.778076171875]]], [[[-125.17468, 44.8972, -1603.550048828125], [-125.17417, 44.90619, -1603.550048828125], [-125.18487, 44.90176, -1932.9261474609375], [-125.17468, 44.8972, -1603.550048828125]]], [[[-125.21829, 44.73482, -2702.83154296875], [-125.22376, 44.72645, -2922.847900390625], [-125.21207, 44.72727, -2524.902099609375], [-125.21829, 44.73482, -2702.83154296875]]], [[[-125.24948, 45.0884, -2978.598876953125], [-125.25782, 45.09464, -2964.6015625], [-125.25993, 45.0872, -3422.239990234375], [-125.24948, 45.0884, -2978.598876953125]]], [[[-125.20349, 44.9852, -2646.0478515625], [-125.21446, 44.98122, -3035.778076171875], [-125.20333, 44.97618, -2648.2041015625], [-125.20349, 44.9852, -2646.0478515625]]], [[[-125.20268, 44.75746, -2268.055419921875], [-125.2043, 44.74757, -2276.42333984375], [-125.19289, 44.7522, -1931.0487060546875], [-125.20268, 44.75746, -2268.055419921875]]], [[[-125.22529, 44.75768, -3030.705322265625], [-125.234, 44.76324, -3422.239990234375], [-125.23615, 44.75439, -3422.239990234375], [-125.22529, 44.75768, -3030.705322265625]]], [[[-125.18067, 44.98251, -1930.064697265625], [-125.1704, 44.98709, -1603.550048828125], [-125.18097, 44.99145, -1930.2890625], [-125.18067, 44.98251, -1930.064697265625]]], [[[-125.2214, 44.81326, -3020.116943359375], [-125.22951, 44.80747, -3422.239990234375], [-125.21851, 44.80429, -3037.83984375], [-125.2214, 44.81326, -3020.116943359375]]], [[[-125.20406, 44.86958, -2626.068115234375], [-125.21544, 44.8647, -3031.470458984375], [-125.20499, 44.85972, -2664.94775390625], [-125.20406, 44.86958, -2626.068115234375]]], [[[-125.23739, 45.11322, -1929.061279296875], [-125.22608, 45.11078, -1603.550048828125], [-125.22909, 45.11952, -1603.550048828125], [-125.23739, 45.11322, -1929.061279296875]]], [[[-125.18452, 44.89215, -1934.1904296875], [-125.17468, 44.8972, -1603.550048828125], [-125.18487, 44.90176, -1932.9261474609375], [-125.18452, 44.89215, -1934.1904296875]]], [[[-125.22868, 45.08863, -2307.15673828125], [-125.21717, 45.08789, -1989.662841796875], [-125.22618, 45.09536, -1941.6611328125], [-125.22868, 45.08863, -2307.15673828125]]], [[[-125.2162, 44.74383, -2644.499267578125], [-125.2276, 44.74063, -3040.9111328125], [-125.21829, 44.73482, -2702.83154296875], [-125.2162, 44.74383, -2644.499267578125]]], [[[-125.22672, 44.74932, -3035.453369140625], [-125.23615, 44.75439, -3422.239990234375], [-125.23713, 44.74544, -3422.239990234375], [-125.22672, 44.74932, -3035.453369140625]]], [[[-125.21334, 44.76146, -2639.050537109375], [-125.21132, 44.77018, -2644.413330078125], [-125.22324, 44.76644, -3035.102294921875], [-125.21334, 44.76146, -2639.050537109375]]], [[[-125.18452, 44.89215, -1934.1904296875], [-125.17344, 44.88825, -1603.550048828125], [-125.17468, 44.8972, -1603.550048828125], [-125.18452, 44.89215, -1934.1904296875]]], [[[-125.18204, 44.87454, -1923.8907470703125], [-125.1721, 44.8793, -1603.550048828125], [-125.18302, 44.88303, -1928.7025146484375], [-125.18204, 44.87454, -1923.8907470703125]]], [[[-125.20602, 44.73656, -2310.889404296875], [-125.19367, 44.7325, -1931.14697265625], [-125.19435, 44.74245, -1948.84423828125], [-125.20602, 44.73656, -2310.889404296875]]], [[[-125.18452, 44.89215, -1934.1904296875], [-125.18302, 44.88303, -1928.7025146484375], [-125.17344, 44.88825, -1603.550048828125], [-125.18452, 44.89215, -1934.1904296875]]], [[[-125.192, 44.9875, -2281.80859375], [-125.18067, 44.98251, -1930.064697265625], [-125.18097, 44.99145, -1930.2890625], [-125.192, 44.9875, -2281.80859375]]], [[[-125.19474, 44.88667, -2279.331787109375], [-125.18302, 44.88303, -1928.7025146484375], [-125.18452, 44.89215, -1934.1904296875], [-125.19474, 44.88667, -2279.331787109375]]], [[[-125.26118, 45.1144, -2657.12060546875], [-125.27005, 45.12096, -2881.8330078125], [-125.273, 45.11489, -3064.667236328125], [-125.26118, 45.1144, -2657.12060546875]]], [[[-125.20602, 44.73656, -2310.889404296875], [-125.19435, 44.74245, -1948.84423828125], [-125.2043, 44.74757, -2276.42333984375], [-125.20602, 44.73656, -2310.889404296875]]], [[[-125.1894, 44.83173, -1945.7462158203125], [-125.18061, 44.8262, -1603.550048828125], [-125.1775, 44.8349, -1603.550048828125], [-125.1894, 44.83173, -1945.7462158203125]]], [[[-125.2162, 44.74383, -2644.499267578125], [-125.20602, 44.73656, -2310.889404296875], [-125.2043, 44.74757, -2276.42333984375], [-125.2162, 44.74383, -2644.499267578125]]], [[[-125.26411, 45.10069, -3009.908203125], [-125.27552, 45.10108, -3422.239990234375], [-125.26914, 45.09334, -3422.239990234375], [-125.26411, 45.10069, -3009.908203125]]], [[[-125.19474, 44.88667, -2279.331787109375], [-125.19381, 44.87778, -2289.19482421875], [-125.18302, 44.88303, -1928.7025146484375], [-125.19474, 44.88667, -2279.331787109375]]], [[[-125.19361, 44.85411, -2290.46533203125], [-125.1943, 44.84668, -2281.8310546875], [-125.18281, 44.84886, -1928.303955078125], [-125.19361, 44.85411, -2290.46533203125]]], [[[-125.19474, 44.88667, -2279.331787109375], [-125.20564, 44.87945, -2656.478515625], [-125.19381, 44.87778, -2289.19482421875], [-125.19474, 44.88667, -2279.331787109375]]], [[[-125.2038, 44.99415, -2645.302734375], [-125.21468, 44.99022, -3033.442626953125], [-125.20349, 44.9852, -2646.0478515625], [-125.2038, 44.99415, -2645.302734375]]], [[[-125.21631, 44.79419, -3016.1669921875], [-125.21851, 44.80429, -3037.83984375], [-125.22696, 44.79868, -3422.239990234375], [-125.21631, 44.79419, -3016.1669921875]]], [[[-125.25744, 45.10749, -2634.28857421875], [-125.26905, 45.10789, -3025.21875], [-125.26411, 45.10069, -3009.908203125], [-125.25744, 45.10749, -2634.28857421875]]], [[[-125.25271, 45.12868, -2230.69970703125], [-125.2594, 45.13627, -2345.0390625], [-125.26479, 45.12866, -2606.318359375], [-125.25271, 45.12868, -2230.69970703125]]], [[[-125.19009, 44.82113, -1927.657470703125], [-125.18061, 44.8262, -1603.550048828125], [-125.1894, 44.83173, -1945.7462158203125], [-125.19009, 44.82113, -1927.657470703125]]], [[[-125.2276, 44.74063, -3040.9111328125], [-125.23713, 44.74544, -3422.239990234375], [-125.23771, 44.73646, -3422.239990234375], [-125.2276, 44.74063, -3040.9111328125]]], [[[-125.22529, 44.75768, -3030.705322265625], [-125.22324, 44.76644, -3035.102294921875], [-125.234, 44.76324, -3422.239990234375], [-125.22529, 44.75768, -3030.705322265625]]], [[[-125.20564, 44.87945, -2656.478515625], [-125.19474, 44.88667, -2279.331787109375], [-125.20661, 44.88855, -2644.139404296875], [-125.20564, 44.87945, -2656.478515625]]], [[[-125.21502, 44.75276, -2635.31103515625], [-125.2162, 44.74383, -2644.499267578125], [-125.2043, 44.74757, -2276.42333984375], [-125.21502, 44.75276, -2635.31103515625]]], [[[-125.21207, 44.72727, -2524.902099609375], [-125.21747, 44.71913, -2715.7900390625], [-125.20577, 44.71947, -2345.0390625], [-125.21207, 44.72727, -2524.902099609375]]], [[[-125.2088, 44.78737, -2711.51806640625], [-125.21864, 44.78406, -3034.2724609375], [-125.20916, 44.77888, -2645.535888671875], [-125.2088, 44.78737, -2711.51806640625]]], [[[-125.21544, 44.8647, -3031.470458984375], [-125.22578, 44.86904, -3422.239990234375], [-125.22543, 44.86006, -3422.239990234375], [-125.21544, 44.8647, -3031.470458984375]]], [[[-125.23794, 45.07293, -3131.91015625], [-125.23249, 45.08117, -2715.7900390625], [-125.24402, 45.08083, -3131.91015625], [-125.23794, 45.07293, -3131.91015625]]], [[[-125.20564, 44.87945, -2656.478515625], [-125.20661, 44.88855, -2644.139404296875], [-125.21718, 44.88322, -3043.3828125], [-125.20564, 44.87945, -2656.478515625]]], [[[-125.20602, 44.73656, -2310.889404296875], [-125.21829, 44.73482, -2702.83154296875], [-125.21207, 44.72727, -2524.902099609375], [-125.20602, 44.73656, -2310.889404296875]]], [[[-125.21468, 44.99022, -3033.442626953125], [-125.22499, 44.99459, -3422.239990234375], [-125.22464, 44.98562, -3422.239990234375], [-125.21468, 44.99022, -3033.442626953125]]], [[[-125.28272, 45.13559, -3131.91015625], [-125.29015, 45.13532, -3422.239990234375], [-125.28673, 45.12669, -3422.239990234375], [-125.28272, 45.13559, -3131.91015625]]], [[[-125.2041, 45.00299, -2644.311767578125], [-125.19249, 45.00555, -2277.4619140625], [-125.20409, 45.01176, -2647.705810546875], [-125.2041, 45.00299, -2644.311767578125]]], [[[-125.1894, 44.83173, -1945.7462158203125], [-125.1775, 44.8349, -1603.550048828125], [-125.18518, 44.84089, -1941.138671875], [-125.1894, 44.83173, -1945.7462158203125]]], [[[-125.20564, 44.87945, -2656.478515625], [-125.21718, 44.88322, -3043.3828125], [-125.21584, 44.87387, -3030.9541015625], [-125.20564, 44.87945, -2656.478515625]]], [[[-125.21631, 44.79419, -3016.1669921875], [-125.22689, 44.7897, -3422.239990234375], [-125.21864, 44.78406, -3034.2724609375], [-125.21631, 44.79419, -3016.1669921875]]], [[[-125.26905, 45.10789, -3025.21875], [-125.273, 45.11489, -3064.667236328125], [-125.28048, 45.10932, -3422.239990234375], [-125.26905, 45.10789, -3025.21875]]], [[[-125.19321, 44.86216, -2292.6787109375], [-125.19361, 44.85411, -2290.46533203125], [-125.18191, 44.85725, -1928.2685546875], [-125.19321, 44.86216, -2292.6787109375]]], [[[-125.20564, 44.87945, -2656.478515625], [-125.21584, 44.87387, -3030.9541015625], [-125.20406, 44.86958, -2626.068115234375], [-125.20564, 44.87945, -2656.478515625]]], [[[-125.21864, 44.78406, -3034.2724609375], [-125.22689, 44.7897, -3422.239990234375], [-125.22954, 44.78092, -3422.239990234375], [-125.21864, 44.78406, -3034.2724609375]]], [[[-125.22427, 44.82082, -3046.811767578125], [-125.2346, 44.82496, -3422.239990234375], [-125.23323, 44.81605, -3422.239990234375], [-125.22427, 44.82082, -3046.811767578125]]], [[[-125.1971, 45.08211, -1603.550048828125], [-125.2055, 45.0887, -1603.550048828125], [-125.20891, 45.08182, -1974.2880859375], [-125.1971, 45.08211, -1603.550048828125]]], [[[-125.19381, 44.87778, -2289.19482421875], [-125.20564, 44.87945, -2656.478515625], [-125.20406, 44.86958, -2626.068115234375], [-125.19381, 44.87778, -2289.19482421875]]], [[[-125.22847, 44.73267, -3075.703125], [-125.23771, 44.73646, -3422.239990234375], [-125.237, 44.7275, -3422.239990234375], [-125.22847, 44.73267, -3075.703125]]], [[[-125.19381, 44.87778, -2289.19482421875], [-125.20406, 44.86958, -2626.068115234375], [-125.19207, 44.86987, -2247.432373046875], [-125.19381, 44.87778, -2289.19482421875]]], [[[-125.20916, 44.77888, -2645.535888671875], [-125.21864, 44.78406, -3034.2724609375], [-125.22101, 44.77528, -3035.310546875], [-125.20916, 44.77888, -2645.535888671875]]], [[[-125.19381, 44.87778, -2289.19482421875], [-125.19207, 44.86987, -2247.432373046875], [-125.18204, 44.87454, -1923.8907470703125], [-125.19381, 44.87778, -2289.19482421875]]], [[[-125.21455, 44.96301, -3042.907958984375], [-125.20341, 44.96708, -2653.537353515625], [-125.21437, 44.97219, -3039.358154296875], [-125.21455, 44.96301, -3042.907958984375]]], [[[-125.21713, 44.92695, -3041.992431640625], [-125.21652, 44.93592, -3042.0107421875], [-125.22666, 44.93178, -3422.239990234375], [-125.21713, 44.92695, -3041.992431640625]]], [[[-125.19435, 44.74245, -1948.84423828125], [-125.18371, 44.73821, -1603.550048828125], [-125.1831, 44.74719, -1603.550048828125], [-125.19435, 44.74245, -1948.84423828125]]], [[[-125.20602, 44.73656, -2310.889404296875], [-125.20085, 44.72728, -2170.754150390625], [-125.19367, 44.7325, -1931.14697265625], [-125.20602, 44.73656, -2310.889404296875]]], [[[-125.19381, 44.87778, -2289.19482421875], [-125.18204, 44.87454, -1923.8907470703125], [-125.18302, 44.88303, -1928.7025146484375], [-125.19381, 44.87778, -2289.19482421875]]], [[[-125.2162, 44.74383, -2644.499267578125], [-125.22672, 44.74932, -3035.453369140625], [-125.2276, 44.74063, -3040.9111328125], [-125.2162, 44.74383, -2644.499267578125]]], [[[-125.21455, 44.96301, -3042.907958984375], [-125.22426, 44.96766, -3422.239990234375], [-125.22454, 44.95868, -3422.239990234375], [-125.21455, 44.96301, -3042.907958984375]]], [[[-125.2162, 44.74383, -2644.499267578125], [-125.21502, 44.75276, -2635.31103515625], [-125.22672, 44.74932, -3035.453369140625], [-125.2162, 44.74383, -2644.499267578125]]], [[[-125.19435, 44.74245, -1948.84423828125], [-125.1831, 44.74719, -1603.550048828125], [-125.19289, 44.7522, -1931.0487060546875], [-125.19435, 44.74245, -1948.84423828125]]], [[[-125.27005, 45.12096, -2881.8330078125], [-125.27637, 45.1276, -3018.2587890625], [-125.28348, 45.11803, -3422.239990234375], [-125.27005, 45.12096, -2881.8330078125]]], [[[-125.20513, 44.84422, -2613.549072265625], [-125.1943, 44.84668, -2281.8310546875], [-125.20579, 44.85105, -2667.508056640625], [-125.20513, 44.84422, -2613.549072265625]]], [[[-125.18204, 44.87454, -1923.8907470703125], [-125.17163, 44.87031, -1603.550048828125], [-125.1721, 44.8793, -1603.550048828125], [-125.18204, 44.87454, -1923.8907470703125]]], [[[-125.24272, 45.13012, -1902.4014892578125], [-125.23576, 45.13688, -1603.550048828125], [-125.24759, 45.13659, -1974.2880859375], [-125.24272, 45.13012, -1902.4014892578125]]], [[[-125.20268, 44.75746, -2268.055419921875], [-125.21502, 44.75276, -2635.31103515625], [-125.2043, 44.74757, -2276.42333984375], [-125.20268, 44.75746, -2268.055419921875]]], [[[-125.18164, 44.86562, -1924.0093994140625], [-125.17163, 44.87031, -1603.550048828125], [-125.18204, 44.87454, -1923.8907470703125], [-125.18164, 44.86562, -1924.0093994140625]]], [[[-125.25271, 45.12868, -2230.69970703125], [-125.24759, 45.13659, -1974.2880859375], [-125.2594, 45.13627, -2345.0390625], [-125.25271, 45.12868, -2230.69970703125]]], [[[-125.18164, 44.86562, -1924.0093994140625], [-125.17129, 44.86131, -1603.550048828125], [-125.17163, 44.87031, -1603.550048828125], [-125.18164, 44.86562, -1924.0093994140625]]], [[[-125.25782, 45.09464, -2964.6015625], [-125.26914, 45.09334, -3422.239990234375], [-125.25993, 45.0872, -3422.239990234375], [-125.25782, 45.09464, -2964.6015625]]], [[[-125.20085, 44.76681, -2283.72119140625], [-125.21132, 44.77018, -2644.413330078125], [-125.21334, 44.76146, -2639.050537109375], [-125.20085, 44.76681, -2283.72119140625]]], [[[-125.20967, 44.83841, -2686.4541015625], [-125.2168, 44.84578, -3031.792724609375], [-125.22013, 44.83602, -3024.15673828125], [-125.20967, 44.83841, -2686.4541015625]]], [[[-125.19321, 44.86216, -2292.6787109375], [-125.18191, 44.85725, -1928.2685546875], [-125.18164, 44.86562, -1924.0093994140625], [-125.19321, 44.86216, -2292.6787109375]]], [[[-125.19361, 44.85411, -2290.46533203125], [-125.19321, 44.86216, -2292.6787109375], [-125.20499, 44.85972, -2664.94775390625], [-125.19361, 44.85411, -2290.46533203125]]], [[[-125.24417, 45.10559, -2259.162109375], [-125.24681, 45.09622, -2554.05615234375], [-125.2374, 45.09649, -2257.8974609375], [-125.24417, 45.10559, -2259.162109375]]], [[[-125.20579, 44.85105, -2667.508056640625], [-125.19361, 44.85411, -2290.46533203125], [-125.20499, 44.85972, -2664.94775390625], [-125.20579, 44.85105, -2667.508056640625]]], [[[-125.19361, 44.85411, -2290.46533203125], [-125.20579, 44.85105, -2667.508056640625], [-125.1943, 44.84668, -2281.8310546875], [-125.19361, 44.85411, -2290.46533203125]]], [[[-125.22868, 45.08863, -2307.15673828125], [-125.2374, 45.09649, -2257.8974609375], [-125.23982, 45.08832, -2657.220947265625], [-125.22868, 45.08863, -2307.15673828125]]], [[[-125.21502, 44.75276, -2635.31103515625], [-125.20268, 44.75746, -2268.055419921875], [-125.21334, 44.76146, -2639.050537109375], [-125.21502, 44.75276, -2635.31103515625]]], [[[-125.20579, 44.93085, -2650.14404296875], [-125.19379, 44.9341, -2277.69775390625], [-125.20518, 44.93978, -2650.105712890625], [-125.20579, 44.93085, -2650.14404296875]]], [[[-125.19361, 44.85411, -2290.46533203125], [-125.18281, 44.84886, -1928.303955078125], [-125.18191, 44.85725, -1928.2685546875], [-125.19361, 44.85411, -2290.46533203125]]], [[[-125.22618, 45.09536, -1941.6611328125], [-125.22114, 45.10259, -1603.550048828125], [-125.23291, 45.10385, -1943.7591552734375], [-125.22618, 45.09536, -1941.6611328125]]], [[[-125.19172, 44.96978, -2285.33544921875], [-125.18048, 44.9648, -1927.963623046875], [-125.18049, 44.97358, -1930.2235107421875], [-125.19172, 44.96978, -2285.33544921875]]], [[[-125.22324, 44.76644, -3035.102294921875], [-125.22101, 44.77528, -3035.310546875], [-125.23177, 44.77208, -3422.239990234375], [-125.22324, 44.76644, -3035.102294921875]]], [[[-125.18281, 44.84886, -1928.303955078125], [-125.17338, 44.84341, -1603.550048828125], [-125.17201, 44.85234, -1603.550048828125], [-125.18281, 44.84886, -1928.303955078125]]], [[[-125.22847, 44.73267, -3075.703125], [-125.21829, 44.73482, -2702.83154296875], [-125.2276, 44.74063, -3040.9111328125], [-125.22847, 44.73267, -3075.703125]]], [[[-125.25307, 45.10175, -2606.316650390625], [-125.24417, 45.10559, -2259.162109375], [-125.25744, 45.10749, -2634.28857421875], [-125.25307, 45.10175, -2606.316650390625]]], [[[-125.18518, 44.84089, -1941.138671875], [-125.17338, 44.84341, -1603.550048828125], [-125.18281, 44.84886, -1928.303955078125], [-125.18518, 44.84089, -1941.138671875]]], [[[-125.21132, 44.77018, -2644.413330078125], [-125.19869, 44.77581, -2287.1796875], [-125.20916, 44.77888, -2645.535888671875], [-125.21132, 44.77018, -2644.413330078125]]], [[[-125.27005, 45.12096, -2881.8330078125], [-125.28348, 45.11803, -3422.239990234375], [-125.273, 45.11489, -3064.667236328125], [-125.27005, 45.12096, -2881.8330078125]]], [[[-125.19234, 44.9965, -2281.91845703125], [-125.192, 44.9875, -2281.80859375], [-125.18097, 44.99145, -1930.2890625], [-125.19234, 44.9965, -2281.91845703125]]], [[[-125.18518, 44.84089, -1941.138671875], [-125.1775, 44.8349, -1603.550048828125], [-125.17338, 44.84341, -1603.550048828125], [-125.18518, 44.84089, -1941.138671875]]], [[[-125.21631, 44.79419, -3016.1669921875], [-125.20729, 44.80066, -2677.990478515625], [-125.21851, 44.80429, -3037.83984375], [-125.21631, 44.79419, -3016.1669921875]]], [[[-125.21194, 44.82948, -2639.234130859375], [-125.20967, 44.83841, -2686.4541015625], [-125.22013, 44.83602, -3024.15673828125], [-125.21194, 44.82948, -2639.234130859375]]], [[[-125.19009, 44.82113, -1927.657470703125], [-125.18722, 44.81161, -1936.3785400390625], [-125.17918, 44.81766, -1603.550048828125], [-125.19009, 44.82113, -1927.657470703125]]], [[[-125.21718, 44.88322, -3043.3828125], [-125.22763, 44.88694, -3422.239990234375], [-125.22628, 44.87801, -3422.239990234375], [-125.21718, 44.88322, -3043.3828125]]], [[[-125.18722, 44.81161, -1936.3785400390625], [-125.19009, 44.82113, -1927.657470703125], [-125.19943, 44.81548, -2264.98681640625], [-125.18722, 44.81161, -1936.3785400390625]]], [[[-125.20644, 44.9219, -2651.345458984375], [-125.20689, 44.9129, -2648.134765625], [-125.195, 44.91601, -2277.943115234375], [-125.20644, 44.9219, -2651.345458984375]]], [[[-125.24681, 45.09622, -2554.05615234375], [-125.25782, 45.09464, -2964.6015625], [-125.24948, 45.0884, -2978.598876953125], [-125.24681, 45.09622, -2554.05615234375]]], [[[-125.19704, 44.80643, -2303.601806640625], [-125.18722, 44.81161, -1936.3785400390625], [-125.19943, 44.81548, -2264.98681640625], [-125.19704, 44.80643, -2303.601806640625]]], [[[-125.21772, 44.91801, -3042.061767578125], [-125.22727, 44.9228, -3422.239990234375], [-125.22783, 44.91383, -3422.239990234375], [-125.21772, 44.91801, -3042.061767578125]]], [[[-125.21468, 44.99022, -3033.442626953125], [-125.2038, 44.99415, -2645.302734375], [-125.21503, 44.99916, -3033.626708984375], [-125.21468, 44.99022, -3033.442626953125]]], [[[-125.19704, 44.80643, -2303.601806640625], [-125.18435, 44.8035, -1932.774658203125], [-125.18722, 44.81161, -1936.3785400390625], [-125.19704, 44.80643, -2303.601806640625]]], [[[-125.21588, 44.94485, -3041.8798828125], [-125.22536, 44.94971, -3422.239990234375], [-125.22605, 44.94075, -3422.239990234375], [-125.21588, 44.94485, -3041.8798828125]]], [[[-125.21838, 44.89196, -3041.2265625], [-125.22882, 44.89588, -3422.239990234375], [-125.22763, 44.88694, -3422.239990234375], [-125.21838, 44.89196, -3041.2265625]]], [[[-125.21851, 44.80429, -3037.83984375], [-125.22951, 44.80747, -3422.239990234375], [-125.22696, 44.79868, -3422.239990234375], [-125.21851, 44.80429, -3037.83984375]]], [[[-125.19704, 44.80643, -2303.601806640625], [-125.19452, 44.79903, -2286.374267578125], [-125.18435, 44.8035, -1932.774658203125], [-125.19704, 44.80643, -2303.601806640625]]], [[[-125.2038, 44.99415, -2645.302734375], [-125.20349, 44.9852, -2646.0478515625], [-125.192, 44.9875, -2281.80859375], [-125.2038, 44.99415, -2645.302734375]]], [[[-125.21713, 44.92695, -3041.992431640625], [-125.22666, 44.93178, -3422.239990234375], [-125.22727, 44.9228, -3422.239990234375], [-125.21713, 44.92695, -3041.992431640625]]], [[[-125.22324, 44.76644, -3035.102294921875], [-125.23177, 44.77208, -3422.239990234375], [-125.234, 44.76324, -3422.239990234375], [-125.22324, 44.76644, -3035.102294921875]]], [[[-125.20729, 44.80066, -2677.990478515625], [-125.19452, 44.79903, -2286.374267578125], [-125.19704, 44.80643, -2303.601806640625], [-125.20729, 44.80066, -2677.990478515625]]], [[[-125.21772, 44.91801, -3042.061767578125], [-125.22783, 44.91383, -3422.239990234375], [-125.21813, 44.90906, -3038.04638671875], [-125.21772, 44.91801, -3042.061767578125]]], [[[-125.2214, 44.81326, -3020.116943359375], [-125.23323, 44.81605, -3422.239990234375], [-125.22951, 44.80747, -3422.239990234375], [-125.2214, 44.81326, -3020.116943359375]]], [[[-125.18378, 45.04374, -1928.344482421875], [-125.19408, 45.03824, -2293.132568359375], [-125.18184, 45.0356, -1924.897216796875], [-125.18378, 45.04374, -1928.344482421875]]], [[[-125.20237, 44.79226, -2538.169921875], [-125.19286, 44.79226, -2237.7607421875], [-125.19452, 44.79903, -2286.374267578125], [-125.20237, 44.79226, -2538.169921875]]], [[[-125.25939, 45.12241, -2512.037841796875], [-125.26479, 45.12866, -2606.318359375], [-125.27005, 45.12096, -2881.8330078125], [-125.25939, 45.12241, -2512.037841796875]]], [[[-125.20644, 44.9219, -2651.345458984375], [-125.20579, 44.93085, -2650.14404296875], [-125.21713, 44.92695, -3041.992431640625], [-125.20644, 44.9219, -2651.345458984375]]], [[[-125.19168, 45.03084, -2256.840576171875], [-125.19156, 45.02288, -2263.488037109375], [-125.18089, 45.02734, -1922.4117431640625], [-125.19168, 45.03084, -2256.840576171875]]], [[[-125.24948, 45.0884, -2978.598876953125], [-125.25993, 45.0872, -3422.239990234375], [-125.25143, 45.08056, -3422.239990234375], [-125.24948, 45.0884, -2978.598876953125]]], [[[-125.19668, 44.7846, -2297.780517578125], [-125.19286, 44.79226, -2237.7607421875], [-125.20237, 44.79226, -2538.169921875], [-125.19668, 44.7846, -2297.780517578125]]], [[[-125.21631, 44.79419, -3016.1669921875], [-125.22696, 44.79868, -3422.239990234375], [-125.22689, 44.7897, -3422.239990234375], [-125.21631, 44.79419, -3016.1669921875]]], [[[-125.20644, 44.9219, -2651.345458984375], [-125.195, 44.91601, -2277.943115234375], [-125.19442, 44.92508, -2277.9658203125], [-125.20644, 44.9219, -2651.345458984375]]], [[[-125.18662, 44.77954, -1933.55419921875], [-125.19869, 44.77581, -2287.1796875], [-125.18884, 44.77071, -1933.0179443359375], [-125.18662, 44.77954, -1933.55419921875]]], [[[-125.2214, 44.81326, -3020.116943359375], [-125.22427, 44.82082, -3046.811767578125], [-125.23323, 44.81605, -3422.239990234375], [-125.2214, 44.81326, -3020.116943359375]]], [[[-125.20406, 44.86958, -2626.068115234375], [-125.21584, 44.87387, -3030.9541015625], [-125.21544, 44.8647, -3031.470458984375], [-125.20406, 44.86958, -2626.068115234375]]], [[[-125.19286, 44.79226, -2237.7607421875], [-125.18415, 44.78796, -1931.563232421875], [-125.18299, 44.79582, -1924.0670166015625], [-125.19286, 44.79226, -2237.7607421875]]], [[[-125.22672, 44.74932, -3035.453369140625], [-125.23713, 44.74544, -3422.239990234375], [-125.2276, 44.74063, -3040.9111328125], [-125.22672, 44.74932, -3035.453369140625]]], [[[-125.20085, 44.76681, -2283.72119140625], [-125.21334, 44.76146, -2639.050537109375], [-125.20268, 44.75746, -2268.055419921875], [-125.20085, 44.76681, -2283.72119140625]]], [[[-125.21595, 44.85521, -3042.496337890625], [-125.2261, 44.85109, -3422.239990234375], [-125.2168, 44.84578, -3031.792724609375], [-125.21595, 44.85521, -3042.496337890625]]], [[[-125.21875, 44.90016, -3042.50634765625], [-125.22882, 44.89588, -3422.239990234375], [-125.21838, 44.89196, -3041.2265625], [-125.21875, 44.90016, -3042.50634765625]]], [[[-125.19442, 44.92508, -2277.9658203125], [-125.195, 44.91601, -2277.943115234375], [-125.18356, 44.92, -1924.859375], [-125.19442, 44.92508, -2277.9658203125]]], [[[-125.2168, 44.84578, -3031.792724609375], [-125.22744, 44.84216, -3422.239990234375], [-125.22013, 44.83602, -3024.15673828125], [-125.2168, 44.84578, -3031.792724609375]]], [[[-125.17093, 45.03205, -1603.550048828125], [-125.17252, 45.04097, -1603.550048828125], [-125.18184, 45.0356, -1924.897216796875], [-125.17093, 45.03205, -1603.550048828125]]], [[[-125.18662, 44.77954, -1933.55419921875], [-125.17766, 44.77387, -1603.550048828125], [-125.17542, 44.78273, -1603.550048828125], [-125.18662, 44.77954, -1933.55419921875]]], [[[-125.21544, 44.8647, -3031.470458984375], [-125.21584, 44.87387, -3030.9541015625], [-125.22578, 44.86904, -3422.239990234375], [-125.21544, 44.8647, -3031.470458984375]]], [[[-125.22034, 45.06536, -2715.7900390625], [-125.21464, 45.0736, -2345.0390625], [-125.22641, 45.07327, -2715.7900390625], [-125.22034, 45.06536, -2715.7900390625]]], [[[-125.19435, 44.74245, -1948.84423828125], [-125.19289, 44.7522, -1931.0487060546875], [-125.2043, 44.74757, -2276.42333984375], [-125.19435, 44.74245, -1948.84423828125]]], [[[-125.18884, 44.77071, -1933.0179443359375], [-125.19096, 44.76184, -1929.7030029296875], [-125.1799, 44.76502, -1603.550048828125], [-125.18884, 44.77071, -1933.0179443359375]]], [[[-125.20085, 44.76681, -2283.72119140625], [-125.19096, 44.76184, -1929.7030029296875], [-125.18884, 44.77071, -1933.0179443359375], [-125.20085, 44.76681, -2283.72119140625]]], [[[-125.18111, 45.00967, -1922.2772216796875], [-125.17108, 45.00508, -1603.550048828125], [-125.17087, 45.01408, -1603.550048828125], [-125.18111, 45.00967, -1922.2772216796875]]], [[[-125.20085, 44.76681, -2283.72119140625], [-125.20268, 44.75746, -2268.055419921875], [-125.19096, 44.76184, -1929.7030029296875], [-125.20085, 44.76681, -2283.72119140625]]], [[[-125.20579, 44.85105, -2667.508056640625], [-125.20499, 44.85972, -2664.94775390625], [-125.21595, 44.85521, -3042.496337890625], [-125.20579, 44.85105, -2667.508056640625]]], [[[-125.21875, 44.90016, -3042.50634765625], [-125.21813, 44.90906, -3038.04638671875], [-125.22833, 44.90486, -3422.239990234375], [-125.21875, 44.90016, -3042.50634765625]]], [[[-125.19367, 44.7325, -1931.14697265625], [-125.18301, 44.72923, -1603.550048828125], [-125.18371, 44.73821, -1603.550048828125], [-125.19367, 44.7325, -1931.14697265625]]], [[[-125.2168, 44.84578, -3031.792724609375], [-125.20967, 44.83841, -2686.4541015625], [-125.20513, 44.84422, -2613.549072265625], [-125.2168, 44.84578, -3031.792724609375]]], [[[-125.20448, 44.94875, -2649.215087890625], [-125.21513, 44.95375, -3041.70166015625], [-125.21588, 44.94485, -3041.8798828125], [-125.20448, 44.94875, -2649.215087890625]]], [[[-125.24115, 45.12192, -1950.3094482421875], [-125.24893, 45.11347, -2285.502197265625], [-125.23739, 45.11322, -1929.061279296875], [-125.24115, 45.12192, -1950.3094482421875]]], [[[-125.19404, 44.71978, -1974.2880859375], [-125.19367, 44.7325, -1931.14697265625], [-125.20085, 44.72728, -2170.754150390625], [-125.19404, 44.71978, -1974.2880859375]]], [[[-125.21207, 44.72727, -2524.902099609375], [-125.22376, 44.72645, -2922.847900390625], [-125.21747, 44.71913, -2715.7900390625], [-125.21207, 44.72727, -2524.902099609375]]], [[[-125.22376, 44.72645, -2922.847900390625], [-125.21829, 44.73482, -2702.83154296875], [-125.22847, 44.73267, -3075.703125], [-125.22376, 44.72645, -2922.847900390625]]], [[[-125.24115, 45.12192, -1950.3094482421875], [-125.23234, 45.12822, -1603.550048828125], [-125.24272, 45.13012, -1902.4014892578125], [-125.24115, 45.12192, -1950.3094482421875]]], [[[-125.25939, 45.12241, -2512.037841796875], [-125.27005, 45.12096, -2881.8330078125], [-125.26118, 45.1144, -2657.12060546875], [-125.25939, 45.12241, -2512.037841796875]]], [[[-125.22847, 44.73267, -3075.703125], [-125.2276, 44.74063, -3040.9111328125], [-125.23771, 44.73646, -3422.239990234375], [-125.22847, 44.73267, -3075.703125]]], [[[-125.20602, 44.73656, -2310.889404296875], [-125.21207, 44.72727, -2524.902099609375], [-125.20085, 44.72728, -2170.754150390625], [-125.20602, 44.73656, -2310.889404296875]]], [[[-125.21464, 45.0736, -2345.0390625], [-125.20891, 45.08182, -1974.2880859375], [-125.22071, 45.08151, -2345.0390625], [-125.21464, 45.0736, -2345.0390625]]], [[[-125.21446, 44.98122, -3035.778076171875], [-125.22464, 44.98562, -3422.239990234375], [-125.22441, 44.97664, -3422.239990234375], [-125.21446, 44.98122, -3035.778076171875]]], [[[-125.21502, 44.75276, -2635.31103515625], [-125.22529, 44.75768, -3030.705322265625], [-125.22672, 44.74932, -3035.453369140625], [-125.21502, 44.75276, -2635.31103515625]]], [[[-125.2041, 45.00299, -2644.311767578125], [-125.2038, 44.99415, -2645.302734375], [-125.19234, 44.9965, -2281.91845703125], [-125.2041, 45.00299, -2644.311767578125]]], [[[-125.21464, 45.0736, -2345.0390625], [-125.22071, 45.08151, -2345.0390625], [-125.22641, 45.07327, -2715.7900390625], [-125.21464, 45.0736, -2345.0390625]]], [[[-125.18209, 44.75616, -1603.550048828125], [-125.1799, 44.76502, -1603.550048828125], [-125.19096, 44.76184, -1929.7030029296875], [-125.18209, 44.75616, -1603.550048828125]]], [[[-125.22427, 44.82082, -3046.811767578125], [-125.2214, 44.81326, -3020.116943359375], [-125.21226, 44.81991, -2631.429443359375], [-125.22427, 44.82082, -3046.811767578125]]], [[[-125.25271, 45.12868, -2230.69970703125], [-125.24115, 45.12192, -1950.3094482421875], [-125.24272, 45.13012, -1902.4014892578125], [-125.25271, 45.12868, -2230.69970703125]]], [[[-125.21226, 44.81991, -2631.429443359375], [-125.2229, 44.82766, -3005.5966796875], [-125.22427, 44.82082, -3046.811767578125], [-125.21226, 44.81991, -2631.429443359375]]], [[[-125.19176, 44.97859, -2282.030029296875], [-125.19172, 44.96978, -2285.33544921875], [-125.18049, 44.97358, -1930.2235107421875], [-125.19176, 44.97859, -2282.030029296875]]], [[[-125.21226, 44.81991, -2631.429443359375], [-125.21194, 44.82948, -2639.234130859375], [-125.2229, 44.82766, -3005.5966796875], [-125.21226, 44.81991, -2631.429443359375]]], [[[-125.21437, 44.97219, -3039.358154296875], [-125.22441, 44.97664, -3422.239990234375], [-125.22426, 44.96766, -3422.239990234375], [-125.21437, 44.97219, -3039.358154296875]]], [[[-125.23739, 45.11322, -1929.061279296875], [-125.22909, 45.11952, -1603.550048828125], [-125.24115, 45.12192, -1950.3094482421875], [-125.23739, 45.11322, -1929.061279296875]]], [[[-125.21194, 44.82948, -2639.234130859375], [-125.21226, 44.81991, -2631.429443359375], [-125.20032, 44.82538, -2226.785400390625], [-125.21194, 44.82948, -2639.234130859375]]], [[[-125.20147, 44.83305, -2345.4677734375], [-125.21194, 44.82948, -2639.234130859375], [-125.20032, 44.82538, -2226.785400390625], [-125.20147, 44.83305, -2345.4677734375]]], [[[-125.21652, 44.93592, -3042.0107421875], [-125.22605, 44.94075, -3422.239990234375], [-125.22666, 44.93178, -3422.239990234375], [-125.21652, 44.93592, -3042.0107421875]]], [[[-125.25782, 45.09464, -2964.6015625], [-125.26411, 45.10069, -3009.908203125], [-125.26914, 45.09334, -3422.239990234375], [-125.25782, 45.09464, -2964.6015625]]], [[[-125.20147, 44.83305, -2345.4677734375], [-125.20967, 44.83841, -2686.4541015625], [-125.21194, 44.82948, -2639.234130859375], [-125.20147, 44.83305, -2345.4677734375]]], [[[-125.2374, 45.09649, -2257.8974609375], [-125.22618, 45.09536, -1941.6611328125], [-125.23291, 45.10385, -1943.7591552734375], [-125.2374, 45.09649, -2257.8974609375]]], [[[-125.19641, 44.83898, -2270.4375], [-125.20967, 44.83841, -2686.4541015625], [-125.20147, 44.83305, -2345.4677734375], [-125.19641, 44.83898, -2270.4375]]], [[[-125.20961, 44.81028, -2653.312744140625], [-125.2214, 44.81326, -3020.116943359375], [-125.21851, 44.80429, -3037.83984375], [-125.20961, 44.81028, -2653.312744140625]]], [[[-125.20518, 44.93978, -2650.105712890625], [-125.21588, 44.94485, -3041.8798828125], [-125.21652, 44.93592, -3042.0107421875], [-125.20518, 44.93978, -2650.105712890625]]], [[[-125.19156, 45.02288, -2263.488037109375], [-125.19221, 45.01451, -2275.352294921875], [-125.18096, 45.01887, -1926.082275390625], [-125.19156, 45.02288, -2263.488037109375]]], [[[-125.20513, 44.84422, -2613.549072265625], [-125.19641, 44.83898, -2270.4375], [-125.1943, 44.84668, -2281.8310546875], [-125.20513, 44.84422, -2613.549072265625]]], [[[-125.22013, 44.83602, -3024.15673828125], [-125.22744, 44.84216, -3422.239990234375], [-125.23146, 44.83366, -3422.239990234375], [-125.22013, 44.83602, -3024.15673828125]]], [[[-125.2168, 44.84578, -3031.792724609375], [-125.2261, 44.85109, -3422.239990234375], [-125.22744, 44.84216, -3422.239990234375], [-125.2168, 44.84578, -3031.792724609375]]], [[[-125.18662, 44.77954, -1933.55419921875], [-125.19668, 44.7846, -2297.780517578125], [-125.19869, 44.77581, -2287.1796875], [-125.18662, 44.77954, -1933.55419921875]]], [[[-125.21595, 44.85521, -3042.496337890625], [-125.21544, 44.8647, -3031.470458984375], [-125.22543, 44.86006, -3422.239990234375], [-125.21595, 44.85521, -3042.496337890625]]], [[[-125.21595, 44.85521, -3042.496337890625], [-125.20499, 44.85972, -2664.94775390625], [-125.21544, 44.8647, -3031.470458984375], [-125.21595, 44.85521, -3042.496337890625]]], [[[-125.19624, 44.89668, -2282.993896484375], [-125.20812, 44.8963, -2657.83544921875], [-125.20661, 44.88855, -2644.139404296875], [-125.19624, 44.89668, -2282.993896484375]]], [[[-125.21584, 44.87387, -3030.9541015625], [-125.22628, 44.87801, -3422.239990234375], [-125.22578, 44.86904, -3422.239990234375], [-125.21584, 44.87387, -3030.9541015625]]], [[[-125.21584, 44.87387, -3030.9541015625], [-125.21718, 44.88322, -3043.3828125], [-125.22628, 44.87801, -3422.239990234375], [-125.21584, 44.87387, -3030.9541015625]]], [[[-125.20406, 44.86958, -2626.068115234375], [-125.20499, 44.85972, -2664.94775390625], [-125.19321, 44.86216, -2292.6787109375], [-125.20406, 44.86958, -2626.068115234375]]], [[[-125.21838, 44.89196, -3041.2265625], [-125.22763, 44.88694, -3422.239990234375], [-125.21718, 44.88322, -3043.3828125], [-125.21838, 44.89196, -3041.2265625]]], [[[-125.1894, 44.83173, -1945.7462158203125], [-125.19641, 44.83898, -2270.4375], [-125.20147, 44.83305, -2345.4677734375], [-125.1894, 44.83173, -1945.7462158203125]]], [[[-125.21875, 44.90016, -3042.50634765625], [-125.22833, 44.90486, -3422.239990234375], [-125.22882, 44.89588, -3422.239990234375], [-125.21875, 44.90016, -3042.50634765625]]], [[[-125.20727, 44.90409, -2644.7041015625], [-125.21813, 44.90906, -3038.04638671875], [-125.21875, 44.90016, -3042.50634765625], [-125.20727, 44.90409, -2644.7041015625]]], [[[-125.20661, 44.88855, -2644.139404296875], [-125.21838, 44.89196, -3041.2265625], [-125.21718, 44.88322, -3043.3828125], [-125.20661, 44.88855, -2644.139404296875]]], [[[-125.19541, 44.90679, -2274.38720703125], [-125.20689, 44.9129, -2648.134765625], [-125.20727, 44.90409, -2644.7041015625], [-125.19541, 44.90679, -2274.38720703125]]], [[[-125.20689, 44.9129, -2648.134765625], [-125.20644, 44.9219, -2651.345458984375], [-125.21772, 44.91801, -3042.061767578125], [-125.20689, 44.9129, -2648.134765625]]], [[[-125.20727, 44.90409, -2644.7041015625], [-125.21875, 44.90016, -3042.50634765625], [-125.20812, 44.8963, -2657.83544921875], [-125.20727, 44.90409, -2644.7041015625]]], [[[-125.20689, 44.9129, -2648.134765625], [-125.21772, 44.91801, -3042.061767578125], [-125.21813, 44.90906, -3038.04638671875], [-125.20689, 44.9129, -2648.134765625]]], [[[-125.21713, 44.92695, -3041.992431640625], [-125.22727, 44.9228, -3422.239990234375], [-125.21772, 44.91801, -3042.061767578125], [-125.21713, 44.92695, -3041.992431640625]]], [[[-125.20644, 44.9219, -2651.345458984375], [-125.19442, 44.92508, -2277.9658203125], [-125.20579, 44.93085, -2650.14404296875], [-125.20644, 44.9219, -2651.345458984375]]], [[[-125.19207, 44.86987, -2247.432373046875], [-125.19321, 44.86216, -2292.6787109375], [-125.18164, 44.86562, -1924.0093994140625], [-125.19207, 44.86987, -2247.432373046875]]], [[[-125.19379, 44.9341, -2277.69775390625], [-125.19442, 44.92508, -2277.9658203125], [-125.18296, 44.92902, -1924.95654296875], [-125.19379, 44.9341, -2277.69775390625]]], [[[-125.21226, 44.81991, -2631.429443359375], [-125.20961, 44.81028, -2653.312744140625], [-125.19943, 44.81548, -2264.98681640625], [-125.21226, 44.81991, -2631.429443359375]]], [[[-125.20448, 44.94875, -2649.215087890625], [-125.21588, 44.94485, -3041.8798828125], [-125.20518, 44.93978, -2650.105712890625], [-125.20448, 44.94875, -2649.215087890625]]], [[[-125.18518, 44.84089, -1941.138671875], [-125.1943, 44.84668, -2281.8310546875], [-125.19641, 44.83898, -2270.4375], [-125.18518, 44.84089, -1941.138671875]]], [[[-125.20385, 44.95789, -2655.318603515625], [-125.21513, 44.95375, -3041.70166015625], [-125.20448, 44.94875, -2649.215087890625], [-125.20385, 44.95789, -2655.318603515625]]], [[[-125.20812, 44.8963, -2657.83544921875], [-125.21875, 44.90016, -3042.50634765625], [-125.21838, 44.89196, -3041.2265625], [-125.20812, 44.8963, -2657.83544921875]]], [[[-125.20385, 44.95789, -2655.318603515625], [-125.21455, 44.96301, -3042.907958984375], [-125.21513, 44.95375, -3041.70166015625], [-125.20385, 44.95789, -2655.318603515625]]], [[[-125.27005, 45.12096, -2881.8330078125], [-125.26479, 45.12866, -2606.318359375], [-125.27637, 45.1276, -3018.2587890625], [-125.27005, 45.12096, -2881.8330078125]]], [[[-125.20341, 44.96708, -2653.537353515625], [-125.21455, 44.96301, -3042.907958984375], [-125.20385, 44.95789, -2655.318603515625], [-125.20341, 44.96708, -2653.537353515625]]], [[[-125.21652, 44.93592, -3042.0107421875], [-125.21588, 44.94485, -3041.8798828125], [-125.22605, 44.94075, -3422.239990234375], [-125.21652, 44.93592, -3042.0107421875]]], [[[-125.21437, 44.97219, -3039.358154296875], [-125.20333, 44.97618, -2648.2041015625], [-125.21446, 44.98122, -3035.778076171875], [-125.21437, 44.97219, -3039.358154296875]]], [[[-125.20333, 44.97618, -2648.2041015625], [-125.21437, 44.97219, -3039.358154296875], [-125.20341, 44.96708, -2653.537353515625], [-125.20333, 44.97618, -2648.2041015625]]], [[[-125.19172, 44.96978, -2285.33544921875], [-125.19176, 44.97859, -2282.030029296875], [-125.20333, 44.97618, -2648.2041015625], [-125.19172, 44.96978, -2285.33544921875]]], [[[-125.192, 44.9875, -2281.80859375], [-125.19176, 44.97859, -2282.030029296875], [-125.18067, 44.98251, -1930.064697265625], [-125.192, 44.9875, -2281.80859375]]], [[[-125.21446, 44.98122, -3035.778076171875], [-125.21468, 44.99022, -3033.442626953125], [-125.22464, 44.98562, -3422.239990234375], [-125.21446, 44.98122, -3035.778076171875]]], [[[-125.21468, 44.99022, -3033.442626953125], [-125.21503, 44.99916, -3033.626708984375], [-125.22499, 44.99459, -3422.239990234375], [-125.21468, 44.99022, -3033.442626953125]]], [[[-125.19234, 44.9965, -2281.91845703125], [-125.2038, 44.99415, -2645.302734375], [-125.192, 44.9875, -2281.80859375], [-125.19234, 44.9965, -2281.91845703125]]], [[[-125.2041, 45.00299, -2644.311767578125], [-125.21527, 45.00795, -3038.800537109375], [-125.21503, 44.99916, -3033.626708984375], [-125.2041, 45.00299, -2644.311767578125]]], [[[-125.2041, 45.00299, -2644.311767578125], [-125.19234, 44.9965, -2281.91845703125], [-125.19249, 45.00555, -2277.4619140625], [-125.2041, 45.00299, -2644.311767578125]]], [[[-125.19234, 44.9965, -2281.91845703125], [-125.1813, 45.00047, -1929.9278564453125], [-125.19249, 45.00555, -2277.4619140625], [-125.19234, 44.9965, -2281.91845703125]]], [[[-125.18067, 44.98251, -1930.064697265625], [-125.17017, 44.9781, -1603.550048828125], [-125.1704, 44.98709, -1603.550048828125], [-125.18067, 44.98251, -1930.064697265625]]], [[[-125.18049, 44.97358, -1930.2235107421875], [-125.17017, 44.9781, -1603.550048828125], [-125.18067, 44.98251, -1930.064697265625], [-125.18049, 44.97358, -1930.2235107421875]]], [[[-125.18049, 44.97358, -1930.2235107421875], [-125.17003, 44.9691, -1603.550048828125], [-125.17017, 44.9781, -1603.550048828125], [-125.18049, 44.97358, -1930.2235107421875]]], [[[-125.18048, 44.9648, -1927.963623046875], [-125.17003, 44.9691, -1603.550048828125], [-125.18049, 44.97358, -1930.2235107421875], [-125.18048, 44.9648, -1927.963623046875]]], [[[-125.18048, 44.9648, -1927.963623046875], [-125.17033, 44.96011, -1603.550048828125], [-125.17003, 44.9691, -1603.550048828125], [-125.18048, 44.9648, -1927.963623046875]]], [[[-125.18091, 44.9561, -1925.3883056640625], [-125.17033, 44.96011, -1603.550048828125], [-125.18048, 44.9648, -1927.963623046875], [-125.18091, 44.9561, -1925.3883056640625]]], [[[-125.18091, 44.9561, -1925.3883056640625], [-125.17116, 44.95113, -1603.550048828125], [-125.17033, 44.96011, -1603.550048828125], [-125.18091, 44.9561, -1925.3883056640625]]], [[[-125.18168, 44.94703, -1925.08349609375], [-125.17116, 44.95113, -1603.550048828125], [-125.18091, 44.9561, -1925.3883056640625], [-125.18168, 44.94703, -1925.08349609375]]], [[[-125.18168, 44.94703, -1925.08349609375], [-125.17186, 44.94214, -1603.550048828125], [-125.17116, 44.95113, -1603.550048828125], [-125.18168, 44.94703, -1925.08349609375]]], [[[-125.17186, 44.94214, -1603.550048828125], [-125.18168, 44.94703, -1925.08349609375], [-125.18234, 44.938, -1924.9705810546875], [-125.17186, 44.94214, -1603.550048828125]]], [[[-125.19315, 44.94311, -2277.53955078125], [-125.18234, 44.938, -1924.9705810546875], [-125.18168, 44.94703, -1925.08349609375], [-125.19315, 44.94311, -2277.53955078125]]], [[[-125.19315, 44.94311, -2277.53955078125], [-125.19379, 44.9341, -2277.69775390625], [-125.18234, 44.938, -1924.9705810546875], [-125.19315, 44.94311, -2277.53955078125]]], [[[-125.19315, 44.94311, -2277.53955078125], [-125.20518, 44.93978, -2650.105712890625], [-125.19379, 44.9341, -2277.69775390625], [-125.19315, 44.94311, -2277.53955078125]]], [[[-125.19315, 44.94311, -2277.53955078125], [-125.20448, 44.94875, -2649.215087890625], [-125.20518, 44.93978, -2650.105712890625], [-125.19315, 44.94311, -2277.53955078125]]], [[[-125.19315, 44.94311, -2277.53955078125], [-125.19248, 44.95213, -2278.99560546875], [-125.20448, 44.94875, -2649.215087890625], [-125.19315, 44.94311, -2277.53955078125]]], [[[-125.19315, 44.94311, -2277.53955078125], [-125.18168, 44.94703, -1925.08349609375], [-125.19248, 44.95213, -2278.99560546875], [-125.19315, 44.94311, -2277.53955078125]]], [[[-125.19248, 44.95213, -2278.99560546875], [-125.18168, 44.94703, -1925.08349609375], [-125.18091, 44.9561, -1925.3883056640625], [-125.19248, 44.95213, -2278.99560546875]]], [[[-125.19198, 44.96103, -2286.389892578125], [-125.19248, 44.95213, -2278.99560546875], [-125.18091, 44.9561, -1925.3883056640625], [-125.19198, 44.96103, -2286.389892578125]]], [[[-125.19248, 44.95213, -2278.99560546875], [-125.19198, 44.96103, -2286.389892578125], [-125.20385, 44.95789, -2655.318603515625], [-125.19248, 44.95213, -2278.99560546875]]], [[[-125.20448, 44.94875, -2649.215087890625], [-125.19248, 44.95213, -2278.99560546875], [-125.20385, 44.95789, -2655.318603515625], [-125.20448, 44.94875, -2649.215087890625]]], [[[-125.20341, 44.96708, -2653.537353515625], [-125.20385, 44.95789, -2655.318603515625], [-125.19198, 44.96103, -2286.389892578125], [-125.20341, 44.96708, -2653.537353515625]]], [[[-125.19198, 44.96103, -2286.389892578125], [-125.19172, 44.96978, -2285.33544921875], [-125.20341, 44.96708, -2653.537353515625], [-125.19198, 44.96103, -2286.389892578125]]], [[[-125.19172, 44.96978, -2285.33544921875], [-125.19198, 44.96103, -2286.389892578125], [-125.18048, 44.9648, -1927.963623046875], [-125.19172, 44.96978, -2285.33544921875]]], [[[-125.19624, 44.89668, -2282.993896484375], [-125.19541, 44.90679, -2274.38720703125], [-125.20727, 44.90409, -2644.7041015625], [-125.19624, 44.89668, -2282.993896484375]]], [[[-125.19379, 44.9341, -2277.69775390625], [-125.18296, 44.92902, -1924.95654296875], [-125.18234, 44.938, -1924.9705810546875], [-125.19379, 44.9341, -2277.69775390625]]], [[[-125.19668, 44.7846, -2297.780517578125], [-125.20237, 44.79226, -2538.169921875], [-125.2088, 44.78737, -2711.51806640625], [-125.19668, 44.7846, -2297.780517578125]]], [[[-125.1704, 44.98709, -1603.550048828125], [-125.17074, 44.99609, -1603.550048828125], [-125.18097, 44.99145, -1930.2890625], [-125.1704, 44.98709, -1603.550048828125]]], [[[-125.17074, 44.99609, -1603.550048828125], [-125.1813, 45.00047, -1929.9278564453125], [-125.18097, 44.99145, -1930.2890625], [-125.17074, 44.99609, -1603.550048828125]]], [[[-125.1813, 45.00047, -1929.9278564453125], [-125.17074, 44.99609, -1603.550048828125], [-125.17108, 45.00508, -1603.550048828125], [-125.1813, 45.00047, -1929.9278564453125]]], [[[-125.18111, 45.00967, -1922.2772216796875], [-125.1813, 45.00047, -1929.9278564453125], [-125.17108, 45.00508, -1603.550048828125], [-125.18111, 45.00967, -1922.2772216796875]]], [[[-125.1813, 45.00047, -1929.9278564453125], [-125.18111, 45.00967, -1922.2772216796875], [-125.19249, 45.00555, -2277.4619140625], [-125.1813, 45.00047, -1929.9278564453125]]], [[[-125.19221, 45.01451, -2275.352294921875], [-125.19249, 45.00555, -2277.4619140625], [-125.18111, 45.00967, -1922.2772216796875], [-125.19221, 45.01451, -2275.352294921875]]], [[[-125.20409, 45.01176, -2647.705810546875], [-125.19249, 45.00555, -2277.4619140625], [-125.19221, 45.01451, -2275.352294921875], [-125.20409, 45.01176, -2647.705810546875]]], [[[-125.20409, 45.01176, -2647.705810546875], [-125.19221, 45.01451, -2275.352294921875], [-125.20417, 45.02021, -2658.945556640625], [-125.20409, 45.01176, -2647.705810546875]]], [[[-125.20409, 45.01176, -2647.705810546875], [-125.20417, 45.02021, -2658.945556640625], [-125.21513, 45.01687, -3042.906005859375], [-125.20409, 45.01176, -2647.705810546875]]], [[[-125.20409, 45.01176, -2647.705810546875], [-125.21513, 45.01687, -3042.906005859375], [-125.21527, 45.00795, -3038.800537109375], [-125.20409, 45.01176, -2647.705810546875]]], [[[-125.21513, 45.01687, -3042.906005859375], [-125.22514, 45.01255, -3422.239990234375], [-125.21527, 45.00795, -3038.800537109375], [-125.21513, 45.01687, -3042.906005859375]]], [[[-125.21513, 45.01687, -3042.906005859375], [-125.22482, 45.02153, -3422.239990234375], [-125.22514, 45.01255, -3422.239990234375], [-125.21513, 45.01687, -3042.906005859375]]], [[[-125.21513, 45.01687, -3042.906005859375], [-125.21445, 45.02632, -3017.762451171875], [-125.22482, 45.02153, -3422.239990234375], [-125.21513, 45.01687, -3042.906005859375]]], [[[-125.21513, 45.01687, -3042.906005859375], [-125.20417, 45.02021, -2658.945556640625], [-125.21445, 45.02632, -3017.762451171875], [-125.21513, 45.01687, -3042.906005859375]]], [[[-125.21445, 45.02632, -3017.762451171875], [-125.20417, 45.02021, -2658.945556640625], [-125.20182, 45.02671, -2581.091064453125], [-125.21445, 45.02632, -3017.762451171875]]], [[[-125.21445, 45.02632, -3017.762451171875], [-125.20182, 45.02671, -2581.091064453125], [-125.2051, 45.0331, -2667.419677734375], [-125.21445, 45.02632, -3017.762451171875]]], [[[-125.2051, 45.0331, -2667.419677734375], [-125.21616, 45.03589, -3039.9501953125], [-125.21445, 45.02632, -3017.762451171875], [-125.2051, 45.0331, -2667.419677734375]]], [[[-125.2051, 45.0331, -2667.419677734375], [-125.20653, 45.04243, -2650.964111328125], [-125.21616, 45.03589, -3039.9501953125], [-125.2051, 45.0331, -2667.419677734375]]], [[[-125.19408, 45.03824, -2293.132568359375], [-125.20653, 45.04243, -2650.964111328125], [-125.2051, 45.0331, -2667.419677734375], [-125.19408, 45.03824, -2293.132568359375]]], [[[-125.20653, 45.04243, -2650.964111328125], [-125.19408, 45.03824, -2293.132568359375], [-125.19547, 45.04523, -2279.115234375], [-125.20653, 45.04243, -2650.964111328125]]], [[[-125.19547, 45.04523, -2279.115234375], [-125.19912, 45.0518, -2308.112548828125], [-125.20653, 45.04243, -2650.964111328125], [-125.19547, 45.04523, -2279.115234375]]], [[[-125.19547, 45.04523, -2279.115234375], [-125.18695, 45.05124, -1941.216552734375], [-125.19912, 45.0518, -2308.112548828125], [-125.19547, 45.04523, -2279.115234375]]], [[[-125.18695, 45.05124, -1941.216552734375], [-125.19547, 45.04523, -2279.115234375], [-125.18378, 45.04374, -1928.344482421875], [-125.18695, 45.05124, -1941.216552734375]]], [[[-125.18695, 45.05124, -1941.216552734375], [-125.18378, 45.04374, -1928.344482421875], [-125.17516, 45.04971, -1603.550048828125], [-125.18695, 45.05124, -1941.216552734375]]], [[[-125.18695, 45.05124, -1941.216552734375], [-125.17516, 45.04971, -1603.550048828125], [-125.17998, 45.05803, -1603.550048828125], [-125.18695, 45.05124, -1941.216552734375]]], [[[-125.18695, 45.05124, -1941.216552734375], [-125.17998, 45.05803, -1603.550048828125], [-125.1914, 45.05908, -1937.2646484375], [-125.18695, 45.05124, -1941.216552734375]]], [[[-125.19912, 45.0518, -2308.112548828125], [-125.18695, 45.05124, -1941.216552734375], [-125.1914, 45.05908, -1937.2646484375], [-125.19912, 45.0518, -2308.112548828125]]], [[[-125.19912, 45.0518, -2308.112548828125], [-125.1914, 45.05908, -1937.2646484375], [-125.20249, 45.05854, -2290.344482421875], [-125.19912, 45.0518, -2308.112548828125]]], [[[-125.21099, 45.05142, -2682.3955078125], [-125.19912, 45.0518, -2308.112548828125], [-125.20249, 45.05854, -2290.344482421875], [-125.21099, 45.05142, -2682.3955078125]]], [[[-125.20653, 45.04243, -2650.964111328125], [-125.19912, 45.0518, -2308.112548828125], [-125.21099, 45.05142, -2682.3955078125], [-125.20653, 45.04243, -2650.964111328125]]], [[[-125.20653, 45.04243, -2650.964111328125], [-125.21099, 45.05142, -2682.3955078125], [-125.21853, 45.04528, -3039.92529296875], [-125.20653, 45.04243, -2650.964111328125]]], [[[-125.20653, 45.04243, -2650.964111328125], [-125.21853, 45.04528, -3039.92529296875], [-125.21616, 45.03589, -3039.9501953125], [-125.20653, 45.04243, -2650.964111328125]]], [[[-125.21616, 45.03589, -3039.9501953125], [-125.21853, 45.04528, -3039.92529296875], [-125.22681, 45.03942, -3422.239990234375], [-125.21616, 45.03589, -3039.9501953125]]], [[[-125.21616, 45.03589, -3039.9501953125], [-125.22681, 45.03942, -3422.239990234375], [-125.22521, 45.03051, -3422.239990234375], [-125.21616, 45.03589, -3039.9501953125]]], [[[-125.21445, 45.02632, -3017.762451171875], [-125.21616, 45.03589, -3039.9501953125], [-125.22521, 45.03051, -3422.239990234375], [-125.21445, 45.02632, -3017.762451171875]]], [[[-125.21445, 45.02632, -3017.762451171875], [-125.22521, 45.03051, -3422.239990234375], [-125.22482, 45.02153, -3422.239990234375], [-125.21445, 45.02632, -3017.762451171875]]], [[[-125.21853, 45.04528, -3039.92529296875], [-125.22948, 45.0482, -3422.239990234375], [-125.22681, 45.03942, -3422.239990234375], [-125.21853, 45.04528, -3039.92529296875]]], [[[-125.21853, 45.04528, -3039.92529296875], [-125.22315, 45.05544, -3026.36376953125], [-125.22948, 45.0482, -3422.239990234375], [-125.21853, 45.04528, -3039.92529296875]]], [[[-125.21099, 45.05142, -2682.3955078125], [-125.22315, 45.05544, -3026.36376953125], [-125.21853, 45.04528, -3039.92529296875], [-125.21099, 45.05142, -2682.3955078125]]], [[[-125.21099, 45.05142, -2682.3955078125], [-125.21354, 45.05861, -2631.062744140625], [-125.22315, 45.05544, -3026.36376953125], [-125.21099, 45.05142, -2682.3955078125]]], [[[-125.21099, 45.05142, -2682.3955078125], [-125.20249, 45.05854, -2290.344482421875], [-125.21354, 45.05861, -2631.062744140625], [-125.21099, 45.05142, -2682.3955078125]]], [[[-125.20249, 45.05854, -2290.344482421875], [-125.20857, 45.0657, -2345.0390625], [-125.21354, 45.05861, -2631.062744140625], [-125.20249, 45.05854, -2290.344482421875]]], [[[-125.20249, 45.05854, -2290.344482421875], [-125.19677, 45.06601, -1974.2880859375], [-125.20857, 45.0657, -2345.0390625], [-125.20249, 45.05854, -2290.344482421875]]], [[[-125.20249, 45.05854, -2290.344482421875], [-125.1914, 45.05908, -1937.2646484375], [-125.19677, 45.06601, -1974.2880859375], [-125.20249, 45.05854, -2290.344482421875]]], [[[-125.1914, 45.05908, -1937.2646484375], [-125.18496, 45.0663, -1603.550048828125], [-125.19677, 45.06601, -1974.2880859375], [-125.1914, 45.05908, -1937.2646484375]]], [[[-125.1914, 45.05908, -1937.2646484375], [-125.17998, 45.05803, -1603.550048828125], [-125.18496, 45.0663, -1603.550048828125], [-125.1914, 45.05908, -1937.2646484375]]], [[[-125.19677, 45.06601, -1974.2880859375], [-125.18496, 45.0663, -1603.550048828125], [-125.19103, 45.07421, -1603.550048828125], [-125.19677, 45.06601, -1974.2880859375]]], [[[-125.19677, 45.06601, -1974.2880859375], [-125.19103, 45.07421, -1603.550048828125], [-125.20284, 45.07392, -1974.2880859375], [-125.19677, 45.06601, -1974.2880859375]]], [[[-125.20284, 45.07392, -1974.2880859375], [-125.20857, 45.0657, -2345.0390625], [-125.19677, 45.06601, -1974.2880859375], [-125.20284, 45.07392, -1974.2880859375]]], [[[-125.20857, 45.0657, -2345.0390625], [-125.20284, 45.07392, -1974.2880859375], [-125.21464, 45.0736, -2345.0390625], [-125.20857, 45.0657, -2345.0390625]]], [[[-125.20857, 45.0657, -2345.0390625], [-125.21464, 45.0736, -2345.0390625], [-125.22034, 45.06536, -2715.7900390625], [-125.20857, 45.0657, -2345.0390625]]], [[[-125.21354, 45.05861, -2631.062744140625], [-125.20857, 45.0657, -2345.0390625], [-125.22034, 45.06536, -2715.7900390625], [-125.21354, 45.05861, -2631.062744140625]]], [[[-125.21354, 45.05861, -2631.062744140625], [-125.22034, 45.06536, -2715.7900390625], [-125.22315, 45.05544, -3026.36376953125], [-125.21354, 45.05861, -2631.062744140625]]], [[[-125.22315, 45.05544, -3026.36376953125], [-125.22034, 45.06536, -2715.7900390625], [-125.23187, 45.06503, -3131.91015625], [-125.22315, 45.05544, -3026.36376953125]]], [[[-125.22315, 45.05544, -3026.36376953125], [-125.23187, 45.06503, -3131.91015625], [-125.2343, 45.0565, -3422.239990234375], [-125.22315, 45.05544, -3026.36376953125]]], [[[-125.22315, 45.05544, -3026.36376953125], [-125.2343, 45.0565, -3422.239990234375], [-125.22948, 45.0482, -3422.239990234375], [-125.22315, 45.05544, -3026.36376953125]]], [[[-125.23187, 45.06503, -3131.91015625], [-125.23928, 45.06476, -3422.239990234375], [-125.2343, 45.0565, -3422.239990234375], [-125.23187, 45.06503, -3131.91015625]]], [[[-125.23187, 45.06503, -3131.91015625], [-125.23794, 45.07293, -3131.91015625], [-125.23928, 45.06476, -3422.239990234375], [-125.23187, 45.06503, -3131.91015625]]], [[[-125.22034, 45.06536, -2715.7900390625], [-125.22641, 45.07327, -2715.7900390625], [-125.23187, 45.06503, -3131.91015625], [-125.22034, 45.06536, -2715.7900390625]]], [[[-125.20891, 45.08182, -1974.2880859375], [-125.21464, 45.0736, -2345.0390625], [-125.20284, 45.07392, -1974.2880859375], [-125.20891, 45.08182, -1974.2880859375]]], [[[-125.20284, 45.07392, -1974.2880859375], [-125.19103, 45.07421, -1603.550048828125], [-125.1971, 45.08211, -1603.550048828125], [-125.20284, 45.07392, -1974.2880859375]]], [[[-125.21717, 45.08789, -1989.662841796875], [-125.20891, 45.08182, -1974.2880859375], [-125.2055, 45.0887, -1603.550048828125], [-125.21717, 45.08789, -1989.662841796875]]], [[[-125.20891, 45.08182, -1974.2880859375], [-125.21717, 45.08789, -1989.662841796875], [-125.22071, 45.08151, -2345.0390625], [-125.20891, 45.08182, -1974.2880859375]]], [[[-125.21717, 45.08789, -1989.662841796875], [-125.22868, 45.08863, -2307.15673828125], [-125.22071, 45.08151, -2345.0390625], [-125.21717, 45.08789, -1989.662841796875]]], [[[-125.22868, 45.08863, -2307.15673828125], [-125.23982, 45.08832, -2657.220947265625], [-125.23249, 45.08117, -2715.7900390625], [-125.22868, 45.08863, -2307.15673828125]]], [[[-125.22071, 45.08151, -2345.0390625], [-125.22868, 45.08863, -2307.15673828125], [-125.23249, 45.08117, -2715.7900390625], [-125.22071, 45.08151, -2345.0390625]]], [[[-125.22641, 45.07327, -2715.7900390625], [-125.22071, 45.08151, -2345.0390625], [-125.23249, 45.08117, -2715.7900390625], [-125.22641, 45.07327, -2715.7900390625]]], [[[-125.22641, 45.07327, -2715.7900390625], [-125.23249, 45.08117, -2715.7900390625], [-125.23794, 45.07293, -3131.91015625], [-125.22641, 45.07327, -2715.7900390625]]], [[[-125.23794, 45.07293, -3131.91015625], [-125.24402, 45.08083, -3131.91015625], [-125.24536, 45.07266, -3422.239990234375], [-125.23794, 45.07293, -3131.91015625]]], [[[-125.24402, 45.08083, -3131.91015625], [-125.25143, 45.08056, -3422.239990234375], [-125.24536, 45.07266, -3422.239990234375], [-125.24402, 45.08083, -3131.91015625]]], [[[-125.24948, 45.0884, -2978.598876953125], [-125.25143, 45.08056, -3422.239990234375], [-125.24402, 45.08083, -3131.91015625], [-125.24948, 45.0884, -2978.598876953125]]], [[[-125.25307, 45.10175, -2606.316650390625], [-125.25782, 45.09464, -2964.6015625], [-125.24681, 45.09622, -2554.05615234375], [-125.25307, 45.10175, -2606.316650390625]]], [[[-125.25307, 45.10175, -2606.316650390625], [-125.26411, 45.10069, -3009.908203125], [-125.25782, 45.09464, -2964.6015625], [-125.25307, 45.10175, -2606.316650390625]]], [[[-125.25307, 45.10175, -2606.316650390625], [-125.25744, 45.10749, -2634.28857421875], [-125.26411, 45.10069, -3009.908203125], [-125.25307, 45.10175, -2606.316650390625]]], [[[-125.25307, 45.10175, -2606.316650390625], [-125.24681, 45.09622, -2554.05615234375], [-125.24417, 45.10559, -2259.162109375], [-125.25307, 45.10175, -2606.316650390625]]], [[[-125.24417, 45.10559, -2259.162109375], [-125.2374, 45.09649, -2257.8974609375], [-125.23291, 45.10385, -1943.7591552734375], [-125.24417, 45.10559, -2259.162109375]]], [[[-125.24417, 45.10559, -2259.162109375], [-125.23291, 45.10385, -1943.7591552734375], [-125.23739, 45.11322, -1929.061279296875], [-125.24417, 45.10559, -2259.162109375]]], [[[-125.24893, 45.11347, -2285.502197265625], [-125.24417, 45.10559, -2259.162109375], [-125.23739, 45.11322, -1929.061279296875], [-125.24893, 45.11347, -2285.502197265625]]], [[[-125.25744, 45.10749, -2634.28857421875], [-125.24417, 45.10559, -2259.162109375], [-125.24893, 45.11347, -2285.502197265625], [-125.25744, 45.10749, -2634.28857421875]]], [[[-125.24893, 45.11347, -2285.502197265625], [-125.26118, 45.1144, -2657.12060546875], [-125.25744, 45.10749, -2634.28857421875], [-125.24893, 45.11347, -2285.502197265625]]], [[[-125.26118, 45.1144, -2657.12060546875], [-125.24893, 45.11347, -2285.502197265625], [-125.2513, 45.1199, -2289.494140625], [-125.26118, 45.1144, -2657.12060546875]]], [[[-125.26118, 45.1144, -2657.12060546875], [-125.2513, 45.1199, -2289.494140625], [-125.25939, 45.12241, -2512.037841796875], [-125.26118, 45.1144, -2657.12060546875]]], [[[-125.25271, 45.12868, -2230.69970703125], [-125.26479, 45.12866, -2606.318359375], [-125.25939, 45.12241, -2512.037841796875], [-125.25271, 45.12868, -2230.69970703125]]], [[[-125.25271, 45.12868, -2230.69970703125], [-125.24272, 45.13012, -1902.4014892578125], [-125.24759, 45.13659, -1974.2880859375], [-125.25271, 45.12868, -2230.69970703125]]], [[[-125.24115, 45.12192, -1950.3094482421875], [-125.25271, 45.12868, -2230.69970703125], [-125.2513, 45.1199, -2289.494140625], [-125.24115, 45.12192, -1950.3094482421875]]], [[[-125.24115, 45.12192, -1950.3094482421875], [-125.2513, 45.1199, -2289.494140625], [-125.24893, 45.11347, -2285.502197265625], [-125.24115, 45.12192, -1950.3094482421875]]], [[[-125.23291, 45.10385, -1943.7591552734375], [-125.22608, 45.11078, -1603.550048828125], [-125.23739, 45.11322, -1929.061279296875], [-125.23291, 45.10385, -1943.7591552734375]]], [[[-125.22618, 45.09536, -1941.6611328125], [-125.21473, 45.09482, -1603.550048828125], [-125.22114, 45.10259, -1603.550048828125], [-125.22618, 45.09536, -1941.6611328125]]], [[[-125.22618, 45.09536, -1941.6611328125], [-125.21717, 45.08789, -1989.662841796875], [-125.21473, 45.09482, -1603.550048828125], [-125.22618, 45.09536, -1941.6611328125]]], [[[-125.21717, 45.08789, -1989.662841796875], [-125.2055, 45.0887, -1603.550048828125], [-125.21473, 45.09482, -1603.550048828125], [-125.21717, 45.08789, -1989.662841796875]]], [[[-125.24115, 45.12192, -1950.3094482421875], [-125.22909, 45.11952, -1603.550048828125], [-125.23234, 45.12822, -1603.550048828125], [-125.24115, 45.12192, -1950.3094482421875]]], [[[-125.23576, 45.13688, -1603.550048828125], [-125.24272, 45.13012, -1902.4014892578125], [-125.23234, 45.12822, -1603.550048828125], [-125.23576, 45.13688, -1603.550048828125]]], [[[-125.25271, 45.12868, -2230.69970703125], [-125.25939, 45.12241, -2512.037841796875], [-125.2513, 45.1199, -2289.494140625], [-125.25271, 45.12868, -2230.69970703125]]], [[[-125.26479, 45.12866, -2606.318359375], [-125.2594, 45.13627, -2345.0390625], [-125.27118, 45.13593, -2715.7900390625], [-125.26479, 45.12866, -2606.318359375]]], [[[-125.26479, 45.12866, -2606.318359375], [-125.27118, 45.13593, -2715.7900390625], [-125.27637, 45.1276, -3018.2587890625], [-125.26479, 45.12866, -2606.318359375]]], [[[-125.25744, 45.10749, -2634.28857421875], [-125.26118, 45.1144, -2657.12060546875], [-125.26905, 45.10789, -3025.21875], [-125.25744, 45.10749, -2634.28857421875]]], [[[-125.26905, 45.10789, -3025.21875], [-125.27552, 45.10108, -3422.239990234375], [-125.26411, 45.10069, -3009.908203125], [-125.26905, 45.10789, -3025.21875]]], [[[-125.26905, 45.10789, -3025.21875], [-125.28048, 45.10932, -3422.239990234375], [-125.27552, 45.10108, -3422.239990234375], [-125.26905, 45.10789, -3025.21875]]], [[[-125.273, 45.11489, -3064.667236328125], [-125.28348, 45.11803, -3422.239990234375], [-125.28048, 45.10932, -3422.239990234375], [-125.273, 45.11489, -3064.667236328125]]], [[[-125.27637, 45.1276, -3018.2587890625], [-125.28673, 45.12669, -3422.239990234375], [-125.28348, 45.11803, -3422.239990234375], [-125.27637, 45.1276, -3018.2587890625]]], [[[-125.27637, 45.1276, -3018.2587890625], [-125.27118, 45.13593, -2715.7900390625], [-125.28272, 45.13559, -3131.91015625], [-125.27637, 45.1276, -3018.2587890625]]], [[[-125.24681, 45.09622, -2554.05615234375], [-125.24948, 45.0884, -2978.598876953125], [-125.23982, 45.08832, -2657.220947265625], [-125.24681, 45.09622, -2554.05615234375]]], [[[-125.23982, 45.08832, -2657.220947265625], [-125.24948, 45.0884, -2978.598876953125], [-125.24402, 45.08083, -3131.91015625], [-125.23982, 45.08832, -2657.220947265625]]], [[[-125.23982, 45.08832, -2657.220947265625], [-125.24402, 45.08083, -3131.91015625], [-125.23249, 45.08117, -2715.7900390625], [-125.23982, 45.08832, -2657.220947265625]]], [[[-125.18378, 45.04374, -1928.344482421875], [-125.17252, 45.04097, -1603.550048828125], [-125.17516, 45.04971, -1603.550048828125], [-125.18378, 45.04374, -1928.344482421875]]], [[[-125.17252, 45.04097, -1603.550048828125], [-125.18378, 45.04374, -1928.344482421875], [-125.18184, 45.0356, -1924.897216796875], [-125.17252, 45.04097, -1603.550048828125]]], [[[-125.18089, 45.02734, -1922.4117431640625], [-125.17055, 45.02308, -1603.550048828125], [-125.17093, 45.03205, -1603.550048828125], [-125.18089, 45.02734, -1922.4117431640625]]], [[[-125.19156, 45.02288, -2263.488037109375], [-125.18096, 45.01887, -1926.082275390625], [-125.18089, 45.02734, -1922.4117431640625], [-125.19156, 45.02288, -2263.488037109375]]], [[[-125.19221, 45.01451, -2275.352294921875], [-125.19156, 45.02288, -2263.488037109375], [-125.20417, 45.02021, -2658.945556640625], [-125.19221, 45.01451, -2275.352294921875]]], [[[-125.19168, 45.03084, -2256.840576171875], [-125.19408, 45.03824, -2293.132568359375], [-125.2051, 45.0331, -2667.419677734375], [-125.19168, 45.03084, -2256.840576171875]]], [[[-125.19408, 45.03824, -2293.132568359375], [-125.19168, 45.03084, -2256.840576171875], [-125.18184, 45.0356, -1924.897216796875], [-125.19408, 45.03824, -2293.132568359375]]], [[[-125.19408, 45.03824, -2293.132568359375], [-125.18378, 45.04374, -1928.344482421875], [-125.19547, 45.04523, -2279.115234375], [-125.19408, 45.03824, -2293.132568359375]]], [[[-125.19168, 45.03084, -2256.840576171875], [-125.18089, 45.02734, -1922.4117431640625], [-125.18184, 45.0356, -1924.897216796875], [-125.19168, 45.03084, -2256.840576171875]]], [[[-125.19221, 45.01451, -2275.352294921875], [-125.18111, 45.00967, -1922.2772216796875], [-125.18096, 45.01887, -1926.082275390625], [-125.19221, 45.01451, -2275.352294921875]]], [[[-125.18111, 45.00967, -1922.2772216796875], [-125.17087, 45.01408, -1603.550048828125], [-125.18096, 45.01887, -1926.082275390625], [-125.18111, 45.00967, -1922.2772216796875]]], [[[-125.18096, 45.01887, -1926.082275390625], [-125.17087, 45.01408, -1603.550048828125], [-125.17055, 45.02308, -1603.550048828125], [-125.18096, 45.01887, -1926.082275390625]]], [[[-125.21527, 45.00795, -3038.800537109375], [-125.22514, 45.01255, -3422.239990234375], [-125.22534, 45.00357, -3422.239990234375], [-125.21527, 45.00795, -3038.800537109375]]], [[[-125.21503, 44.99916, -3033.626708984375], [-125.21527, 45.00795, -3038.800537109375], [-125.22534, 45.00357, -3422.239990234375], [-125.21503, 44.99916, -3033.626708984375]]], [[[-125.21503, 44.99916, -3033.626708984375], [-125.22534, 45.00357, -3422.239990234375], [-125.22499, 44.99459, -3422.239990234375], [-125.21503, 44.99916, -3033.626708984375]]], [[[-125.20644, 44.9219, -2651.345458984375], [-125.21713, 44.92695, -3041.992431640625], [-125.21772, 44.91801, -3042.061767578125], [-125.20644, 44.9219, -2651.345458984375]]], [[[-125.21813, 44.90906, -3038.04638671875], [-125.22783, 44.91383, -3422.239990234375], [-125.22833, 44.90486, -3422.239990234375], [-125.21813, 44.90906, -3038.04638671875]]], [[[-125.19624, 44.89668, -2282.993896484375], [-125.18487, 44.90176, -1932.9261474609375], [-125.19541, 44.90679, -2274.38720703125], [-125.19624, 44.89668, -2282.993896484375]]], [[[-125.19624, 44.89668, -2282.993896484375], [-125.18452, 44.89215, -1934.1904296875], [-125.18487, 44.90176, -1932.9261474609375], [-125.19624, 44.89668, -2282.993896484375]]], [[[-125.19474, 44.88667, -2279.331787109375], [-125.18452, 44.89215, -1934.1904296875], [-125.19624, 44.89668, -2282.993896484375], [-125.19474, 44.88667, -2279.331787109375]]], [[[-125.19624, 44.89668, -2282.993896484375], [-125.20661, 44.88855, -2644.139404296875], [-125.19474, 44.88667, -2279.331787109375], [-125.19624, 44.89668, -2282.993896484375]]], [[[-125.20727, 44.90409, -2644.7041015625], [-125.20812, 44.8963, -2657.83544921875], [-125.19624, 44.89668, -2282.993896484375], [-125.20727, 44.90409, -2644.7041015625]]], [[[-125.20661, 44.88855, -2644.139404296875], [-125.20812, 44.8963, -2657.83544921875], [-125.21838, 44.89196, -3041.2265625], [-125.20661, 44.88855, -2644.139404296875]]], [[[-125.19207, 44.86987, -2247.432373046875], [-125.18164, 44.86562, -1924.0093994140625], [-125.18204, 44.87454, -1923.8907470703125], [-125.19207, 44.86987, -2247.432373046875]]], [[[-125.1943, 44.84668, -2281.8310546875], [-125.18518, 44.84089, -1941.138671875], [-125.18281, 44.84886, -1928.303955078125], [-125.1943, 44.84668, -2281.8310546875]]], [[[-125.1894, 44.83173, -1945.7462158203125], [-125.20147, 44.83305, -2345.4677734375], [-125.20032, 44.82538, -2226.785400390625], [-125.1894, 44.83173, -1945.7462158203125]]], [[[-125.19009, 44.82113, -1927.657470703125], [-125.1894, 44.83173, -1945.7462158203125], [-125.20032, 44.82538, -2226.785400390625], [-125.19009, 44.82113, -1927.657470703125]]], [[[-125.19943, 44.81548, -2264.98681640625], [-125.19009, 44.82113, -1927.657470703125], [-125.20032, 44.82538, -2226.785400390625], [-125.19943, 44.81548, -2264.98681640625]]], [[[-125.20032, 44.82538, -2226.785400390625], [-125.21226, 44.81991, -2631.429443359375], [-125.19943, 44.81548, -2264.98681640625], [-125.20032, 44.82538, -2226.785400390625]]], [[[-125.20961, 44.81028, -2653.312744140625], [-125.21226, 44.81991, -2631.429443359375], [-125.2214, 44.81326, -3020.116943359375], [-125.20961, 44.81028, -2653.312744140625]]], [[[-125.20729, 44.80066, -2677.990478515625], [-125.20961, 44.81028, -2653.312744140625], [-125.21851, 44.80429, -3037.83984375], [-125.20729, 44.80066, -2677.990478515625]]], [[[-125.19704, 44.80643, -2303.601806640625], [-125.20961, 44.81028, -2653.312744140625], [-125.20729, 44.80066, -2677.990478515625], [-125.19704, 44.80643, -2303.601806640625]]], [[[-125.20961, 44.81028, -2653.312744140625], [-125.19704, 44.80643, -2303.601806640625], [-125.19943, 44.81548, -2264.98681640625], [-125.20961, 44.81028, -2653.312744140625]]], [[[-125.20916, 44.77888, -2645.535888671875], [-125.19668, 44.7846, -2297.780517578125], [-125.2088, 44.78737, -2711.51806640625], [-125.20916, 44.77888, -2645.535888671875]]], [[[-125.20916, 44.77888, -2645.535888671875], [-125.19869, 44.77581, -2287.1796875], [-125.19668, 44.7846, -2297.780517578125], [-125.20916, 44.77888, -2645.535888671875]]], [[[-125.19668, 44.7846, -2297.780517578125], [-125.18662, 44.77954, -1933.55419921875], [-125.18415, 44.78796, -1931.563232421875], [-125.19668, 44.7846, -2297.780517578125]]], [[[-125.20085, 44.76681, -2283.72119140625], [-125.18884, 44.77071, -1933.0179443359375], [-125.19869, 44.77581, -2287.1796875], [-125.20085, 44.76681, -2283.72119140625]]], [[[-125.17547, 44.8091, -1603.550048828125], [-125.18722, 44.81161, -1936.3785400390625], [-125.18435, 44.8035, -1932.774658203125], [-125.17547, 44.8091, -1603.550048828125]]], [[[-125.18722, 44.81161, -1936.3785400390625], [-125.17547, 44.8091, -1603.550048828125], [-125.17918, 44.81766, -1603.550048828125], [-125.18722, 44.81161, -1936.3785400390625]]], [[[-125.18191, 44.85725, -1928.2685546875], [-125.17201, 44.85234, -1603.550048828125], [-125.17129, 44.86131, -1603.550048828125], [-125.18191, 44.85725, -1928.2685546875]]], [[[-125.1721, 44.8793, -1603.550048828125], [-125.17344, 44.88825, -1603.550048828125], [-125.18302, 44.88303, -1928.7025146484375], [-125.1721, 44.8793, -1603.550048828125]]], [[[-125.237, 44.7275, -3422.239990234375], [-125.2363, 44.71853, -3422.239990234375], [-125.22893, 44.7188, -3131.91015625], [-125.237, 44.7275, -3422.239990234375]]], [[[-125.22376, 44.72645, -2922.847900390625], [-125.237, 44.7275, -3422.239990234375], [-125.22893, 44.7188, -3131.91015625], [-125.22376, 44.72645, -2922.847900390625]]], [[[-125.22847, 44.73267, -3075.703125], [-125.237, 44.7275, -3422.239990234375], [-125.22376, 44.72645, -2922.847900390625], [-125.22847, 44.73267, -3075.703125]]], [[[-125.19367, 44.7325, -1931.14697265625], [-125.19404, 44.71978, -1974.2880859375], [-125.18301, 44.72923, -1603.550048828125], [-125.19367, 44.7325, -1931.14697265625]]], [[[-125.18301, 44.72923, -1603.550048828125], [-125.19404, 44.71978, -1974.2880859375], [-125.1823, 44.72006, -1603.550048828125], [-125.18301, 44.72923, -1603.550048828125]]], [[[-125.27637, 45.1276, -3018.2587890625], [-125.28272, 45.13559, -3131.91015625], [-125.28673, 45.12669, -3422.239990234375], [-125.27637, 45.1276, -3018.2587890625]]]]}}]}