{"type": "FeatureCollection", "features": [{"type": "Feature", "properties": {"name": "AW_CORE_4", "CFM_ID": 213, "region": "Offshore_OR", "primary_state/province": "OR", "secondary_state/province": null, "avg_dip": 18.0, "dip_dir": "E", "rake": 90, "slip_sense": "Reverse", "fault_level": 2, "NSHM23_sliprates": null, "QFFDAgeCatBin": null, "QFFDAgeBin": null, "upper_depth": -2.8, "upper_depth_constraint": "seismic imaging", "lower_depth": -5.1, "lower_depth_constraint": "megathrust", "3D_model_constraints": "trace and 1 MCS line", "reference": "Goldfinger et al. (2023); Carbotte et al. (2023)", "nshm23_id": null, "lineage": null, "usgs_qffd_#": null, "comments": null, "id": "213"}, "geometry": {"type": "MultiPolygon", "coordinates": [[[[-125.33871, 44.81554, -3715.02392578125], [-125.32732, 44.82334, -3926.274169921875], [-125.3409, 44.82469, -3706.80126953125], [-125.33871, 44.81554, -3715.02392578125]]], [[[-125.33013, 44.60691, -3567.740966796875], [-125.34155, 44.60778, -3169.951904296875], [-125.33975, 44.59887, -3169.951904296875], [-125.33013, 44.60691, -3567.740966796875]]], [[[-125.31735, 44.81431, -4099.876953125], [-125.32707, 44.81614, -3915.70849609375], [-125.32882, 44.80904, -3860.34619140625], [-125.31735, 44.81431, -4099.876953125]]], [[[-125.3397, 44.63949, -3123.10205078125], [-125.34961, 44.64426, -2825.43994140625], [-125.35013, 44.63532, -2825.43994140625], [-125.3397, 44.63949, -3123.10205078125]]], [[[-125.37414, 44.84341, -2825.43994140625], [-125.37409, 44.83228, -2825.43994140625], [-125.36822, 44.83739, -2997.69580078125], [-125.37414, 44.84341, -2825.43994140625]]], [[[-125.33969, 44.6491, -3127.544189453125], [-125.34029, 44.65809, -3127.54541015625], [-125.35021, 44.65325, -2825.43994140625], [-125.33969, 44.6491, -3127.544189453125]]], [[[-125.32444, 44.62356, -3641.847900390625], [-125.31901, 44.61488, -3754.386962890625], [-125.31151, 44.6227, -3845.15380859375], [-125.32444, 44.62356, -3641.847900390625]]], [[[-125.33823, 44.80412, -3690.2890625], [-125.33871, 44.81554, -3715.02392578125], [-125.34905, 44.80773, -3498.434326171875], [-125.33823, 44.80412, -3690.2890625]]], [[[-125.37414, 44.84341, -2825.43994140625], [-125.36822, 44.83739, -2997.69580078125], [-125.36235, 44.84249, -3169.951904296875], [-125.37414, 44.84341, -2825.43994140625]]], [[[-125.35507, 44.77467, -3128.498779296875], [-125.35595, 44.78365, -3128.486328125], [-125.36573, 44.77865, -2825.43994140625], [-125.35507, 44.77467, -3128.498779296875]]], [[[-125.29913, 44.62133, -4070.1142578125], [-125.29471, 44.613, -4193.91015625], [-125.28393, 44.62129, -4525.173828125], [-125.29913, 44.62133, -4070.1142578125]]], [[[-125.34905, 44.80773, -3498.434326171875], [-125.35861, 44.80197, -3131.865478515625], [-125.3479, 44.79825, -3478.70654296875], [-125.34905, 44.80773, -3498.434326171875]]], [[[-125.35837, 44.83431, -3308.001708984375], [-125.36235, 44.84249, -3169.951904296875], [-125.36822, 44.83739, -2997.69580078125], [-125.35837, 44.83431, -3308.001708984375]]], [[[-125.32997, 44.65393, -3471.55322265625], [-125.33969, 44.6491, -3127.544189453125], [-125.32996, 44.64412, -3450.570068359375], [-125.32997, 44.65393, -3471.55322265625]]], [[[-125.3479, 44.79825, -3478.70654296875], [-125.3571, 44.79287, -3130.309326171875], [-125.34653, 44.78889, -3474.45458984375], [-125.3479, 44.79825, -3478.70654296875]]], [[[-125.36373, 44.82818, -3114.8818359375], [-125.35276, 44.82547, -3475.427734375], [-125.35837, 44.83431, -3308.001708984375], [-125.36373, 44.82818, -3114.8818359375]]], [[[-125.29352, 44.6041, -4193.91015625], [-125.28467, 44.60343, -4532.1611328125], [-125.28591, 44.6124, -4526.98388671875], [-125.29352, 44.6041, -4193.91015625]]], [[[-125.35079, 44.72974, -3128.29443359375], [-125.3516, 44.73872, -3128.302734375], [-125.36141, 44.73376, -2825.43994140625], [-125.35079, 44.72974, -3128.29443359375]]], [[[-125.30565, 44.60503, -3956.18994140625], [-125.31604, 44.59708, -3754.386962890625], [-125.30387, 44.59612, -3956.18994140625], [-125.30565, 44.60503, -3956.18994140625]]], [[[-125.32033, 44.64912, -3658.851806640625], [-125.32116, 44.63931, -3638.362548828125], [-125.31154, 44.64476, -3803.69580078125], [-125.32033, 44.64912, -3658.851806640625]]], [[[-125.33871, 44.81554, -3715.02392578125], [-125.35066, 44.81675, -3499.535400390625], [-125.34905, 44.80773, -3498.434326171875], [-125.33871, 44.81554, -3715.02392578125]]], [[[-125.35837, 44.83431, -3308.001708984375], [-125.35089, 44.84163, -3567.740966796875], [-125.36235, 44.84249, -3169.951904296875], [-125.35837, 44.83431, -3308.001708984375]]], [[[-125.29242, 44.62709, -4182.029296875], [-125.28393, 44.62129, -4525.173828125], [-125.28178, 44.63017, -4538.49560546875], [-125.29242, 44.62709, -4182.029296875]]], [[[-125.34582, 44.83342, -3643.97998046875], [-125.35089, 44.84163, -3567.740966796875], [-125.35837, 44.83431, -3308.001708984375], [-125.34582, 44.83342, -3643.97998046875]]], [[[-125.36023, 44.81089, -3131.849853515625], [-125.3712, 44.81442, -2825.43994140625], [-125.36957, 44.80549, -2825.43994140625], [-125.36023, 44.81089, -3131.849853515625]]], [[[-125.32167, 44.67764, -3677.459228515625], [-125.32207, 44.68727, -3706.009521484375], [-125.33267, 44.68177, -3473.17041015625], [-125.32167, 44.67764, -3677.459228515625]]], [[[-125.31809, 44.63062, -3707.7802734375], [-125.31151, 44.6227, -3845.15380859375], [-125.30343, 44.63091, -3950.661376953125], [-125.31809, 44.63062, -3707.7802734375]]], [[[-125.35595, 44.78365, -3128.486328125], [-125.3571, 44.79287, -3130.309326171875], [-125.36661, 44.78763, -2825.43994140625], [-125.35595, 44.78365, -3128.486328125]]], [[[-125.33674, 44.62417, -3312.848388671875], [-125.33047, 44.63342, -3451.2470703125], [-125.34151, 44.63047, -3107.827392578125], [-125.33674, 44.62417, -3312.848388671875]]], [[[-125.35066, 44.81675, -3499.535400390625], [-125.36185, 44.81982, -3131.857666015625], [-125.36023, 44.81089, -3131.849853515625], [-125.35066, 44.81675, -3499.535400390625]]], [[[-125.29913, 44.62133, -4070.1142578125], [-125.31151, 44.6227, -3845.15380859375], [-125.30684, 44.61392, -3956.18994140625], [-125.29913, 44.62133, -4070.1142578125]]], [[[-125.29471, 44.613, -4193.91015625], [-125.29913, 44.62133, -4070.1142578125], [-125.30684, 44.61392, -3956.18994140625], [-125.29471, 44.613, -4193.91015625]]], [[[-125.3115, 44.63668, -3804.76220703125], [-125.31154, 44.64476, -3803.69580078125], [-125.32116, 44.63931, -3638.362548828125], [-125.3115, 44.63668, -3804.76220703125]]], [[[-125.33871, 44.81554, -3715.02392578125], [-125.3409, 44.82469, -3706.80126953125], [-125.35066, 44.81675, -3499.535400390625], [-125.33871, 44.81554, -3715.02392578125]]], [[[-125.29019, 44.65278, -4218.34130859375], [-125.29041, 44.64387, -4202.28173828125], [-125.28037, 44.64814, -4581.2373046875], [-125.29019, 44.65278, -4218.34130859375]]], [[[-125.30343, 44.63091, -3950.661376953125], [-125.29242, 44.62709, -4182.029296875], [-125.29109, 44.63535, -4186.30859375], [-125.30343, 44.63091, -3950.661376953125]]], [[[-125.29913, 44.62133, -4070.1142578125], [-125.28393, 44.62129, -4525.173828125], [-125.29242, 44.62709, -4182.029296875], [-125.29913, 44.62133, -4070.1142578125]]], [[[-125.34582, 44.83342, -3643.97998046875], [-125.33854, 44.84071, -3754.386962890625], [-125.35089, 44.84163, -3567.740966796875], [-125.34582, 44.83342, -3643.97998046875]]], [[[-125.3397, 44.63949, -3123.10205078125], [-125.33969, 44.6491, -3127.544189453125], [-125.34961, 44.64426, -2825.43994140625], [-125.3397, 44.63949, -3123.10205078125]]], [[[-125.29109, 44.63535, -4186.30859375], [-125.28064, 44.63913, -4557.78759765625], [-125.29041, 44.64387, -4202.28173828125], [-125.29109, 44.63535, -4186.30859375]]], [[[-125.36373, 44.82818, -3114.8818359375], [-125.37409, 44.83228, -2825.43994140625], [-125.37282, 44.82334, -2825.43994140625], [-125.36373, 44.82818, -3114.8818359375]]], [[[-125.36023, 44.81089, -3131.849853515625], [-125.36185, 44.81982, -3131.857666015625], [-125.3712, 44.81442, -2825.43994140625], [-125.36023, 44.81089, -3131.849853515625]]], [[[-125.3571, 44.79287, -3130.309326171875], [-125.3479, 44.79825, -3478.70654296875], [-125.35861, 44.80197, -3131.865478515625], [-125.3571, 44.79287, -3130.309326171875]]], [[[-125.33047, 44.63342, -3451.2470703125], [-125.3397, 44.63949, -3123.10205078125], [-125.34151, 44.63047, -3107.827392578125], [-125.33047, 44.63342, -3451.2470703125]]], [[[-125.33338, 44.83228, -3839.171630859375], [-125.33854, 44.84071, -3754.386962890625], [-125.34582, 44.83342, -3643.97998046875], [-125.33338, 44.83228, -3839.171630859375]]], [[[-125.33823, 44.80412, -3690.2890625], [-125.34905, 44.80773, -3498.434326171875], [-125.3479, 44.79825, -3478.70654296875], [-125.33823, 44.80412, -3690.2890625]]], [[[-125.33338, 44.83228, -3839.171630859375], [-125.32631, 44.83975, -3956.18994140625], [-125.33854, 44.84071, -3754.386962890625], [-125.33338, 44.83228, -3839.171630859375]]], [[[-125.33969, 44.6491, -3127.544189453125], [-125.32997, 44.65393, -3471.55322265625], [-125.34029, 44.65809, -3127.54541015625], [-125.33969, 44.6491, -3127.544189453125]]], [[[-125.35837, 44.83431, -3308.001708984375], [-125.36822, 44.83739, -2997.69580078125], [-125.37409, 44.83228, -2825.43994140625], [-125.35837, 44.83431, -3308.001708984375]]], [[[-125.30343, 44.63091, -3950.661376953125], [-125.31151, 44.6227, -3845.15380859375], [-125.29913, 44.62133, -4070.1142578125], [-125.30343, 44.63091, -3950.661376953125]]], [[[-125.33047, 44.63342, -3451.2470703125], [-125.33674, 44.62417, -3312.848388671875], [-125.32444, 44.62356, -3641.847900390625], [-125.33047, 44.63342, -3451.2470703125]]], [[[-125.31338, 44.70474, -3910.699462890625], [-125.31528, 44.71467, -3905.554443359375], [-125.32544, 44.70603, -3708.17529296875], [-125.31338, 44.70474, -3910.699462890625]]], [[[-125.33969, 44.6491, -3127.544189453125], [-125.35021, 44.65325, -2825.43994140625], [-125.34961, 44.64426, -2825.43994140625], [-125.33969, 44.6491, -3127.544189453125]]], [[[-125.32051, 44.83078, -4069.050537109375], [-125.32631, 44.83975, -3956.18994140625], [-125.33338, 44.83228, -3839.171630859375], [-125.32051, 44.83078, -4069.050537109375]]], [[[-125.32116, 44.63931, -3638.362548828125], [-125.33047, 44.63342, -3451.2470703125], [-125.31809, 44.63062, -3707.7802734375], [-125.32116, 44.63931, -3638.362548828125]]], [[[-125.29109, 44.63535, -4186.30859375], [-125.28178, 44.63017, -4538.49560546875], [-125.28064, 44.63913, -4557.78759765625], [-125.29109, 44.63535, -4186.30859375]]], [[[-125.32444, 44.62356, -3641.847900390625], [-125.33132, 44.61581, -3567.740966796875], [-125.31901, 44.61488, -3754.386962890625], [-125.32444, 44.62356, -3641.847900390625]]], [[[-125.31528, 44.71467, -3905.554443359375], [-125.30362, 44.7198, -4150.0498046875], [-125.31521, 44.72463, -3926.8486328125], [-125.31528, 44.71467, -3905.554443359375]]], [[[-125.31809, 44.63062, -3707.7802734375], [-125.32444, 44.62356, -3641.847900390625], [-125.31151, 44.6227, -3845.15380859375], [-125.31809, 44.63062, -3707.7802734375]]], [[[-125.32051, 44.83078, -4069.050537109375], [-125.31414, 44.83883, -4193.91015625], [-125.32631, 44.83975, -3956.18994140625], [-125.32051, 44.83078, -4069.050537109375]]], [[[-125.3468, 44.70348, -3132.63916015625], [-125.34858, 44.7124, -3132.627685546875], [-125.3578, 44.70691, -2825.43994140625], [-125.3468, 44.70348, -3132.63916015625]]], [[[-125.30565, 44.60503, -3956.18994140625], [-125.29352, 44.6041, -4193.91015625], [-125.29471, 44.613, -4193.91015625], [-125.30565, 44.60503, -3956.18994140625]]], [[[-125.33602, 44.70004, -3482.536376953125], [-125.3468, 44.70348, -3132.63916015625], [-125.34502, 44.69457, -3132.638427734375], [-125.33602, 44.70004, -3482.536376953125]]], [[[-125.31783, 44.60598, -3754.386962890625], [-125.30565, 44.60503, -3956.18994140625], [-125.30684, 44.61392, -3956.18994140625], [-125.31783, 44.60598, -3754.386962890625]]], [[[-125.32051, 44.83078, -4069.050537109375], [-125.30887, 44.83036, -4390.14697265625], [-125.31414, 44.83883, -4193.91015625], [-125.32051, 44.83078, -4069.050537109375]]], [[[-125.32996, 44.64412, -3450.570068359375], [-125.33969, 44.6491, -3127.544189453125], [-125.3397, 44.63949, -3123.10205078125], [-125.32996, 44.64412, -3450.570068359375]]], [[[-125.35418, 44.7657, -3128.563720703125], [-125.36484, 44.76967, -2825.43994140625], [-125.36396, 44.7607, -2825.43994140625], [-125.35418, 44.7657, -3128.563720703125]]], [[[-125.30343, 44.63091, -3950.661376953125], [-125.29913, 44.62133, -4070.1142578125], [-125.29242, 44.62709, -4182.029296875], [-125.30343, 44.63091, -3950.661376953125]]], [[[-125.31528, 44.71467, -3905.554443359375], [-125.31338, 44.70474, -3910.699462890625], [-125.30289, 44.71033, -4142.34423828125], [-125.31528, 44.71467, -3905.554443359375]]], [[[-125.34274, 44.61667, -3169.951904296875], [-125.33132, 44.61581, -3567.740966796875], [-125.33674, 44.62417, -3312.848388671875], [-125.34274, 44.61667, -3169.951904296875]]], [[[-125.29242, 44.62709, -4182.029296875], [-125.28178, 44.63017, -4538.49560546875], [-125.29109, 44.63535, -4186.30859375], [-125.29242, 44.62709, -4182.029296875]]], [[[-125.30887, 44.83036, -4390.14697265625], [-125.32051, 44.83078, -4069.050537109375], [-125.31136, 44.82126, -4266.21337890625], [-125.30887, 44.83036, -4390.14697265625]]], [[[-125.32882, 44.80904, -3860.34619140625], [-125.32707, 44.79983, -3863.32666015625], [-125.31748, 44.80437, -4059.942626953125], [-125.32882, 44.80904, -3860.34619140625]]], [[[-125.33267, 44.68177, -3473.17041015625], [-125.34324, 44.68566, -3132.687255859375], [-125.34175, 44.67631, -3128.989501953125], [-125.33267, 44.68177, -3473.17041015625]]], [[[-125.31735, 44.81431, -4099.876953125], [-125.32882, 44.80904, -3860.34619140625], [-125.31748, 44.80437, -4059.942626953125], [-125.31735, 44.81431, -4099.876953125]]], [[[-125.31136, 44.82126, -4266.21337890625], [-125.29943, 44.82323, -4684.166015625], [-125.30887, 44.83036, -4390.14697265625], [-125.31136, 44.82126, -4266.21337890625]]], [[[-125.34029, 44.65809, -3127.54541015625], [-125.35081, 44.66224, -2825.43994140625], [-125.35021, 44.65325, -2825.43994140625], [-125.34029, 44.65809, -3127.54541015625]]], [[[-125.3105, 44.67166, -3851.924072265625], [-125.31087, 44.67957, -3866.1806640625], [-125.32167, 44.67764, -3677.459228515625], [-125.3105, 44.67166, -3851.924072265625]]], [[[-125.32758, 44.71402, -3700.760009765625], [-125.33917, 44.71745, -3483.628173828125], [-125.3378, 44.70895, -3482.63330078125], [-125.32758, 44.71402, -3700.760009765625]]], [[[-125.31136, 44.82126, -4266.21337890625], [-125.29909, 44.81449, -4658.4697265625], [-125.29943, 44.82323, -4684.166015625], [-125.31136, 44.82126, -4266.21337890625]]], [[[-125.35243, 44.74772, -3128.410888671875], [-125.3533, 44.75672, -3128.578857421875], [-125.36308, 44.75172, -2825.43994140625], [-125.35243, 44.74772, -3128.410888671875]]], [[[-125.33917, 44.71745, -3483.628173828125], [-125.32758, 44.71402, -3700.760009765625], [-125.32748, 44.72187, -3714.575439453125], [-125.33917, 44.71745, -3483.628173828125]]], [[[-125.35149, 44.59979, -2825.43994140625], [-125.34155, 44.60778, -3169.951904296875], [-125.35328, 44.6087, -2825.43994140625], [-125.35149, 44.59979, -2825.43994140625]]], [[[-125.30784, 44.80969, -4319.8720703125], [-125.29909, 44.81449, -4658.4697265625], [-125.31136, 44.82126, -4266.21337890625], [-125.30784, 44.80969, -4319.8720703125]]], [[[-125.35276, 44.82547, -3475.427734375], [-125.36373, 44.82818, -3114.8818359375], [-125.36185, 44.81982, -3131.857666015625], [-125.35276, 44.82547, -3475.427734375]]], [[[-125.31528, 44.71467, -3905.554443359375], [-125.30289, 44.71033, -4142.34423828125], [-125.30362, 44.7198, -4150.0498046875], [-125.31528, 44.71467, -3905.554443359375]]], [[[-125.32707, 44.81614, -3915.70849609375], [-125.32732, 44.82334, -3926.274169921875], [-125.33871, 44.81554, -3715.02392578125], [-125.32707, 44.81614, -3915.70849609375]]], [[[-125.30784, 44.80969, -4319.8720703125], [-125.29713, 44.80487, -4673.466796875], [-125.29909, 44.81449, -4658.4697265625], [-125.30784, 44.80969, -4319.8720703125]]], [[[-125.34373, 44.7617, -3473.658203125], [-125.35418, 44.7657, -3128.563720703125], [-125.3533, 44.75672, -3128.578857421875], [-125.34373, 44.7617, -3473.658203125]]], [[[-125.34155, 44.60778, -3169.951904296875], [-125.33132, 44.61581, -3567.740966796875], [-125.34274, 44.61667, -3169.951904296875], [-125.34155, 44.60778, -3169.951904296875]]], [[[-125.33267, 44.68177, -3473.17041015625], [-125.34175, 44.67631, -3128.989501953125], [-125.33132, 44.67217, -3471.682861328125], [-125.33267, 44.68177, -3473.17041015625]]], [[[-125.34549, 44.77966, -3473.52783203125], [-125.35507, 44.77467, -3128.498779296875], [-125.34461, 44.77068, -3473.64306640625], [-125.34549, 44.77966, -3473.52783203125]]], [[[-125.30784, 44.80969, -4319.8720703125], [-125.30645, 44.79978, -4305.5029296875], [-125.29713, 44.80487, -4673.466796875], [-125.30784, 44.80969, -4319.8720703125]]], [[[-125.32444, 44.62356, -3641.847900390625], [-125.33674, 44.62417, -3312.848388671875], [-125.33132, 44.61581, -3567.740966796875], [-125.32444, 44.62356, -3641.847900390625]]], [[[-125.33602, 44.70004, -3482.536376953125], [-125.3378, 44.70895, -3482.63330078125], [-125.3468, 44.70348, -3132.63916015625], [-125.33602, 44.70004, -3482.536376953125]]], [[[-125.34858, 44.7124, -3132.627685546875], [-125.33917, 44.71745, -3483.628173828125], [-125.34989, 44.72089, -3128.869384765625], [-125.34858, 44.7124, -3132.627685546875]]], [[[-125.3516, 44.73872, -3128.302734375], [-125.36223, 44.74274, -2825.43994140625], [-125.36141, 44.73376, -2825.43994140625], [-125.3516, 44.73872, -3128.302734375]]], [[[-125.31151, 44.6227, -3845.15380859375], [-125.31901, 44.61488, -3754.386962890625], [-125.30684, 44.61392, -3956.18994140625], [-125.31151, 44.6227, -3845.15380859375]]], [[[-125.31748, 44.80437, -4059.942626953125], [-125.30645, 44.79978, -4305.5029296875], [-125.30784, 44.80969, -4319.8720703125], [-125.31748, 44.80437, -4059.942626953125]]], [[[-125.31627, 44.79482, -4044.877197265625], [-125.30645, 44.79978, -4305.5029296875], [-125.31748, 44.80437, -4059.942626953125], [-125.31627, 44.79482, -4044.877197265625]]], [[[-125.31627, 44.79482, -4044.877197265625], [-125.30533, 44.79099, -4289.767578125], [-125.30645, 44.79978, -4305.5029296875], [-125.31627, 44.79482, -4044.877197265625]]], [[[-125.34502, 44.69457, -3132.638427734375], [-125.3468, 44.70348, -3132.63916015625], [-125.35602, 44.698, -2825.43994140625], [-125.34502, 44.69457, -3132.638427734375]]], [[[-125.31528, 44.71467, -3905.554443359375], [-125.32748, 44.72187, -3714.575439453125], [-125.32758, 44.71402, -3700.760009765625], [-125.31528, 44.71467, -3905.554443359375]]], [[[-125.31549, 44.7863, -4031.8916015625], [-125.30533, 44.79099, -4289.767578125], [-125.31627, 44.79482, -4044.877197265625], [-125.31549, 44.7863, -4031.8916015625]]], [[[-125.30533, 44.79099, -4289.767578125], [-125.31549, 44.7863, -4031.8916015625], [-125.30454, 44.78246, -4274.2939453125], [-125.30533, 44.79099, -4289.767578125]]], [[[-125.3516, 44.73872, -3128.302734375], [-125.35243, 44.74772, -3128.410888671875], [-125.36223, 44.74274, -2825.43994140625], [-125.3516, 44.73872, -3128.302734375]]], [[[-125.3205, 44.668, -3681.538330078125], [-125.33132, 44.67217, -3471.682861328125], [-125.33057, 44.66292, -3471.393798828125], [-125.3205, 44.668, -3681.538330078125]]], [[[-125.35328, 44.6087, -2825.43994140625], [-125.34274, 44.61667, -3169.951904296875], [-125.35447, 44.61759, -2825.43994140625], [-125.35328, 44.6087, -2825.43994140625]]], [[[-125.35276, 44.82547, -3475.427734375], [-125.36185, 44.81982, -3131.857666015625], [-125.35066, 44.81675, -3499.535400390625], [-125.35276, 44.82547, -3475.427734375]]], [[[-125.30533, 44.79099, -4289.767578125], [-125.30454, 44.78246, -4274.2939453125], [-125.295, 44.78707, -4656.65625], [-125.30533, 44.79099, -4289.767578125]]], [[[-125.29019, 44.65278, -4218.34130859375], [-125.28037, 44.64814, -4581.2373046875], [-125.28028, 44.65715, -4607.5224609375], [-125.29019, 44.65278, -4218.34130859375]]], [[[-125.30533, 44.79099, -4289.767578125], [-125.295, 44.78707, -4656.65625], [-125.29598, 44.7959, -4665.15869140625], [-125.30533, 44.79099, -4289.767578125]]], [[[-125.30645, 44.79978, -4305.5029296875], [-125.30533, 44.79099, -4289.767578125], [-125.29598, 44.7959, -4665.15869140625], [-125.30645, 44.79978, -4305.5029296875]]], [[[-125.33425, 44.69113, -3482.536865234375], [-125.34502, 44.69457, -3132.638427734375], [-125.34324, 44.68566, -3132.687255859375], [-125.33425, 44.69113, -3482.536865234375]]], [[[-125.32167, 44.67764, -3677.459228515625], [-125.33267, 44.68177, -3473.17041015625], [-125.33132, 44.67217, -3471.682861328125], [-125.32167, 44.67764, -3677.459228515625]]], [[[-125.30645, 44.79978, -4305.5029296875], [-125.29598, 44.7959, -4665.15869140625], [-125.29713, 44.80487, -4673.466796875], [-125.30645, 44.79978, -4305.5029296875]]], [[[-125.3378, 44.70895, -3482.63330078125], [-125.34858, 44.7124, -3132.627685546875], [-125.3468, 44.70348, -3132.63916015625], [-125.3378, 44.70895, -3482.63330078125]]], [[[-125.29471, 44.613, -4193.91015625], [-125.28591, 44.6124, -4526.98388671875], [-125.28393, 44.62129, -4525.173828125], [-125.29471, 44.613, -4193.91015625]]], [[[-125.29598, 44.7959, -4665.15869140625], [-125.28668, 44.801, -5040.248046875], [-125.29713, 44.80487, -4673.466796875], [-125.29598, 44.7959, -4665.15869140625]]], [[[-125.32707, 44.81614, -3915.70849609375], [-125.33871, 44.81554, -3715.02392578125], [-125.32882, 44.80904, -3860.34619140625], [-125.32707, 44.81614, -3915.70849609375]]], [[[-125.33013, 44.60691, -3567.740966796875], [-125.31783, 44.60598, -3754.386962890625], [-125.31901, 44.61488, -3754.386962890625], [-125.33013, 44.60691, -3567.740966796875]]], [[[-125.29041, 44.64387, -4202.28173828125], [-125.28064, 44.63913, -4557.78759765625], [-125.28037, 44.64814, -4581.2373046875], [-125.29041, 44.64387, -4202.28173828125]]], [[[-125.31528, 44.71467, -3905.554443359375], [-125.31521, 44.72463, -3926.8486328125], [-125.32748, 44.72187, -3714.575439453125], [-125.31528, 44.71467, -3905.554443359375]]], [[[-125.29598, 44.7959, -4665.15869140625], [-125.28548, 44.79203, -5022.61181640625], [-125.28668, 44.801, -5040.248046875], [-125.29598, 44.7959, -4665.15869140625]]], [[[-125.32167, 44.67764, -3677.459228515625], [-125.31087, 44.67957, -3866.1806640625], [-125.32207, 44.68727, -3706.009521484375], [-125.32167, 44.67764, -3677.459228515625]]], [[[-125.33823, 44.80412, -3690.2890625], [-125.32882, 44.80904, -3860.34619140625], [-125.33871, 44.81554, -3715.02392578125], [-125.33823, 44.80412, -3690.2890625]]], [[[-125.295, 44.78707, -4656.65625], [-125.28548, 44.79203, -5022.61181640625], [-125.29598, 44.7959, -4665.15869140625], [-125.295, 44.78707, -4656.65625]]], [[[-125.295, 44.78707, -4656.65625], [-125.28457, 44.78304, -5002.73388671875], [-125.28548, 44.79203, -5022.61181640625], [-125.295, 44.78707, -4656.65625]]], [[[-125.34155, 44.60778, -3169.951904296875], [-125.33013, 44.60691, -3567.740966796875], [-125.33132, 44.61581, -3567.740966796875], [-125.34155, 44.60778, -3169.951904296875]]], [[[-125.29444, 44.77838, -4646.458984375], [-125.28457, 44.78304, -5002.73388671875], [-125.295, 44.78707, -4656.65625], [-125.29444, 44.77838, -4646.458984375]]], [[[-125.35243, 44.74772, -3128.410888671875], [-125.36308, 44.75172, -2825.43994140625], [-125.36223, 44.74274, -2825.43994140625], [-125.35243, 44.74772, -3128.410888671875]]], [[[-125.34155, 44.60778, -3169.951904296875], [-125.35149, 44.59979, -2825.43994140625], [-125.33975, 44.59887, -3169.951904296875], [-125.34155, 44.60778, -3169.951904296875]]], [[[-125.29444, 44.77838, -4646.458984375], [-125.28417, 44.77403, -4977.0419921875], [-125.28457, 44.78304, -5002.73388671875], [-125.29444, 44.77838, -4646.458984375]]], [[[-125.33057, 44.66292, -3471.393798828125], [-125.33132, 44.67217, -3471.682861328125], [-125.34088, 44.66708, -3127.59423828125], [-125.33057, 44.66292, -3471.393798828125]]], [[[-125.31783, 44.60598, -3754.386962890625], [-125.32834, 44.598, -3567.740966796875], [-125.31604, 44.59708, -3754.386962890625], [-125.31783, 44.60598, -3754.386962890625]]], [[[-125.29414, 44.76944, -4624.427734375], [-125.28417, 44.77403, -4977.0419921875], [-125.29444, 44.77838, -4646.458984375], [-125.29414, 44.76944, -4624.427734375]]], [[[-125.34155, 44.60778, -3169.951904296875], [-125.34274, 44.61667, -3169.951904296875], [-125.35328, 44.6087, -2825.43994140625], [-125.34155, 44.60778, -3169.951904296875]]], [[[-125.36185, 44.81982, -3131.857666015625], [-125.37282, 44.82334, -2825.43994140625], [-125.3712, 44.81442, -2825.43994140625], [-125.36185, 44.81982, -3131.857666015625]]], [[[-125.29414, 44.76944, -4624.427734375], [-125.2839, 44.76502, -4950.833984375], [-125.28417, 44.77403, -4977.0419921875], [-125.29414, 44.76944, -4624.427734375]]], [[[-125.29388, 44.76044, -4600.2822265625], [-125.2839, 44.76502, -4950.833984375], [-125.29414, 44.76944, -4624.427734375], [-125.29388, 44.76044, -4600.2822265625]]], [[[-125.31783, 44.60598, -3754.386962890625], [-125.33013, 44.60691, -3567.740966796875], [-125.32834, 44.598, -3567.740966796875], [-125.31783, 44.60598, -3754.386962890625]]], [[[-125.29388, 44.76044, -4600.2822265625], [-125.28364, 44.75601, -4924.16015625], [-125.2839, 44.76502, -4950.833984375], [-125.29388, 44.76044, -4600.2822265625]]], [[[-125.29352, 44.6041, -4193.91015625], [-125.30387, 44.59612, -3956.18994140625], [-125.29174, 44.5952, -4193.91015625], [-125.29352, 44.6041, -4193.91015625]]], [[[-125.34082, 44.73471, -3485.75146484375], [-125.3516, 44.73872, -3128.302734375], [-125.35079, 44.72974, -3128.29443359375], [-125.34082, 44.73471, -3485.75146484375]]], [[[-125.33674, 44.62417, -3312.848388671875], [-125.3523, 44.62646, -2825.43994140625], [-125.34274, 44.61667, -3169.951904296875], [-125.33674, 44.62417, -3312.848388671875]]], [[[-125.29366, 44.75148, -4574.84814453125], [-125.28364, 44.75601, -4924.16015625], [-125.29388, 44.76044, -4600.2822265625], [-125.29366, 44.75148, -4574.84814453125]]], [[[-125.34151, 44.63047, -3107.827392578125], [-125.35013, 44.63532, -2825.43994140625], [-125.3523, 44.62646, -2825.43994140625], [-125.34151, 44.63047, -3107.827392578125]]], [[[-125.34007, 44.72588, -3483.85693359375], [-125.35079, 44.72974, -3128.29443359375], [-125.34989, 44.72089, -3128.869384765625], [-125.34007, 44.72588, -3483.85693359375]]], [[[-125.29366, 44.75148, -4574.84814453125], [-125.28344, 44.747, -4894.85546875], [-125.28364, 44.75601, -4924.16015625], [-125.29366, 44.75148, -4574.84814453125]]], [[[-125.34088, 44.66708, -3127.59423828125], [-125.35141, 44.67123, -2825.43994140625], [-125.35081, 44.66224, -2825.43994140625], [-125.34088, 44.66708, -3127.59423828125]]], [[[-125.29347, 44.74247, -4549.25048828125], [-125.28344, 44.747, -4894.85546875], [-125.29366, 44.75148, -4574.84814453125], [-125.29347, 44.74247, -4549.25048828125]]], [[[-125.34082, 44.73471, -3485.75146484375], [-125.35079, 44.72974, -3128.29443359375], [-125.34007, 44.72588, -3483.85693359375], [-125.34082, 44.73471, -3485.75146484375]]], [[[-125.29347, 44.74247, -4549.25048828125], [-125.28325, 44.73799, -4866.8662109375], [-125.28344, 44.747, -4894.85546875], [-125.29347, 44.74247, -4549.25048828125]]], [[[-125.29331, 44.73353, -4518.44580078125], [-125.28325, 44.73799, -4866.8662109375], [-125.29347, 44.74247, -4549.25048828125], [-125.29331, 44.73353, -4518.44580078125]]], [[[-125.29331, 44.73353, -4518.44580078125], [-125.28314, 44.72898, -4835.8837890625], [-125.28325, 44.73799, -4866.8662109375], [-125.29331, 44.73353, -4518.44580078125]]], [[[-125.29325, 44.72448, -4495.0126953125], [-125.28314, 44.72898, -4835.8837890625], [-125.29331, 44.73353, -4518.44580078125], [-125.29325, 44.72448, -4495.0126953125]]], [[[-125.29325, 44.72448, -4495.0126953125], [-125.28302, 44.71997, -4806.09814453125], [-125.28314, 44.72898, -4835.8837890625], [-125.29325, 44.72448, -4495.0126953125]]], [[[-125.34373, 44.7617, -3473.658203125], [-125.3533, 44.75672, -3128.578857421875], [-125.34283, 44.7527, -3474.1806640625], [-125.34373, 44.7617, -3473.658203125]]], [[[-125.29304, 44.71538, -4471.22412109375], [-125.28302, 44.71997, -4806.09814453125], [-125.29325, 44.72448, -4495.0126953125], [-125.29304, 44.71538, -4471.22412109375]]], [[[-125.29304, 44.71538, -4471.22412109375], [-125.28272, 44.71097, -4776.58837890625], [-125.28302, 44.71997, -4806.09814453125], [-125.29304, 44.71538, -4471.22412109375]]], [[[-125.29224, 44.70591, -4444.62109375], [-125.28272, 44.71097, -4776.58837890625], [-125.29304, 44.71538, -4471.22412109375], [-125.29224, 44.70591, -4444.62109375]]], [[[-125.34549, 44.77966, -3473.52783203125], [-125.35595, 44.78365, -3128.486328125], [-125.35507, 44.77467, -3128.498779296875], [-125.34549, 44.77966, -3473.52783203125]]], [[[-125.29224, 44.70591, -4444.62109375], [-125.28159, 44.70199, -4752.18212890625], [-125.28272, 44.71097, -4776.58837890625], [-125.29224, 44.70591, -4444.62109375]]], [[[-125.34175, 44.67631, -3128.989501953125], [-125.35247, 44.68018, -2825.43994140625], [-125.35141, 44.67123, -2825.43994140625], [-125.34175, 44.67631, -3128.989501953125]]], [[[-125.29108, 44.69687, -4419.69287109375], [-125.28159, 44.70199, -4752.18212890625], [-125.29224, 44.70591, -4444.62109375], [-125.29108, 44.69687, -4419.69287109375]]], [[[-125.29108, 44.69687, -4419.69287109375], [-125.28033, 44.69303, -4729.51318359375], [-125.28159, 44.70199, -4752.18212890625], [-125.29108, 44.69687, -4419.69287109375]]], [[[-125.28987, 44.68795, -4398.12548828125], [-125.28033, 44.69303, -4729.51318359375], [-125.29108, 44.69687, -4419.69287109375], [-125.28987, 44.68795, -4398.12548828125]]], [[[-125.28987, 44.68795, -4398.12548828125], [-125.27917, 44.68405, -4702.09033203125], [-125.28033, 44.69303, -4729.51318359375], [-125.28987, 44.68795, -4398.12548828125]]], [[[-125.34502, 44.69457, -3132.638427734375], [-125.35602, 44.698, -2825.43994140625], [-125.35424, 44.68909, -2825.43994140625], [-125.34502, 44.69457, -3132.638427734375]]], [[[-125.28987, 44.68795, -4398.12548828125], [-125.28871, 44.67917, -4375.15087890625], [-125.27917, 44.68405, -4702.09033203125], [-125.28987, 44.68795, -4398.12548828125]]], [[[-125.35079, 44.72974, -3128.29443359375], [-125.36141, 44.73376, -2825.43994140625], [-125.3606, 44.72478, -2825.43994140625], [-125.35079, 44.72974, -3128.29443359375]]], [[[-125.29949, 44.68312, -4089.37744140625], [-125.28871, 44.67917, -4375.15087890625], [-125.28987, 44.68795, -4398.12548828125], [-125.29949, 44.68312, -4089.37744140625]]], [[[-125.29949, 44.68312, -4089.37744140625], [-125.29947, 44.67546, -4062.05615234375], [-125.28871, 44.67917, -4375.15087890625], [-125.29949, 44.68312, -4089.37744140625]]], [[[-125.31087, 44.67957, -3866.1806640625], [-125.29947, 44.67546, -4062.05615234375], [-125.29949, 44.68312, -4089.37744140625], [-125.31087, 44.67957, -3866.1806640625]]], [[[-125.34192, 44.74364, -3475.994140625], [-125.3516, 44.73872, -3128.302734375], [-125.34082, 44.73471, -3485.75146484375], [-125.34192, 44.74364, -3475.994140625]]], [[[-125.3105, 44.67166, -3851.924072265625], [-125.29947, 44.67546, -4062.05615234375], [-125.31087, 44.67957, -3866.1806640625], [-125.3105, 44.67166, -3851.924072265625]]], [[[-125.34989, 44.72089, -3128.869384765625], [-125.3606, 44.72478, -2825.43994140625], [-125.35958, 44.71582, -2825.43994140625], [-125.34989, 44.72089, -3128.869384765625]]], [[[-125.29947, 44.67546, -4062.05615234375], [-125.3105, 44.67166, -3851.924072265625], [-125.29962, 44.66726, -4040.285888671875], [-125.29947, 44.67546, -4062.05615234375]]], [[[-125.29947, 44.67546, -4062.05615234375], [-125.29962, 44.66726, -4040.285888671875], [-125.28883, 44.67121, -4339.45068359375], [-125.29947, 44.67546, -4062.05615234375]]], [[[-125.29947, 44.67546, -4062.05615234375], [-125.28883, 44.67121, -4339.45068359375], [-125.28871, 44.67917, -4375.15087890625], [-125.29947, 44.67546, -4062.05615234375]]], [[[-125.28883, 44.67121, -4339.45068359375], [-125.27808, 44.67507, -4677.97119140625], [-125.28871, 44.67917, -4375.15087890625], [-125.28883, 44.67121, -4339.45068359375]]], [[[-125.34989, 44.72089, -3128.869384765625], [-125.35079, 44.72974, -3128.29443359375], [-125.3606, 44.72478, -2825.43994140625], [-125.34989, 44.72089, -3128.869384765625]]], [[[-125.28883, 44.67121, -4339.45068359375], [-125.27931, 44.66612, -4641.64794921875], [-125.27808, 44.67507, -4677.97119140625], [-125.28883, 44.67121, -4339.45068359375]]], [[[-125.28965, 44.6623, -4258.67236328125], [-125.27931, 44.66612, -4641.64794921875], [-125.28883, 44.67121, -4339.45068359375], [-125.28965, 44.6623, -4258.67236328125]]], [[[-125.28965, 44.6623, -4258.67236328125], [-125.28028, 44.65715, -4607.5224609375], [-125.27931, 44.66612, -4641.64794921875], [-125.28965, 44.6623, -4258.67236328125]]], [[[-125.34175, 44.67631, -3128.989501953125], [-125.35141, 44.67123, -2825.43994140625], [-125.34088, 44.66708, -3127.59423828125], [-125.34175, 44.67631, -3128.989501953125]]], [[[-125.33132, 44.67217, -3471.682861328125], [-125.34175, 44.67631, -3128.989501953125], [-125.34088, 44.66708, -3127.59423828125], [-125.33132, 44.67217, -3471.682861328125]]], [[[-125.31901, 44.61488, -3754.386962890625], [-125.33132, 44.61581, -3567.740966796875], [-125.33013, 44.60691, -3567.740966796875], [-125.31901, 44.61488, -3754.386962890625]]], [[[-125.28965, 44.6623, -4258.67236328125], [-125.29019, 44.65278, -4218.34130859375], [-125.28028, 44.65715, -4607.5224609375], [-125.28965, 44.6623, -4258.67236328125]]], [[[-125.30027, 44.6579, -4012.406005859375], [-125.29019, 44.65278, -4218.34130859375], [-125.28965, 44.6623, -4258.67236328125], [-125.30027, 44.6579, -4012.406005859375]]], [[[-125.30079, 44.64847, -3991.755126953125], [-125.29019, 44.65278, -4218.34130859375], [-125.30027, 44.6579, -4012.406005859375], [-125.30079, 44.64847, -3991.755126953125]]], [[[-125.32544, 44.70603, -3708.17529296875], [-125.3378, 44.70895, -3482.63330078125], [-125.33602, 44.70004, -3482.536376953125], [-125.32544, 44.70603, -3708.17529296875]]], [[[-125.35861, 44.80197, -3131.865478515625], [-125.34905, 44.80773, -3498.434326171875], [-125.36023, 44.81089, -3131.849853515625], [-125.35861, 44.80197, -3131.865478515625]]], [[[-125.34283, 44.7527, -3474.1806640625], [-125.35243, 44.74772, -3128.410888671875], [-125.34192, 44.74364, -3475.994140625], [-125.34283, 44.7527, -3474.1806640625]]], [[[-125.34324, 44.68566, -3132.687255859375], [-125.34502, 44.69457, -3132.638427734375], [-125.35424, 44.68909, -2825.43994140625], [-125.34324, 44.68566, -3132.687255859375]]], [[[-125.30079, 44.64847, -3991.755126953125], [-125.29041, 44.64387, -4202.28173828125], [-125.29019, 44.65278, -4218.34130859375], [-125.30079, 44.64847, -3991.755126953125]]], [[[-125.30079, 44.64847, -3991.755126953125], [-125.30143, 44.64005, -3973.955322265625], [-125.29041, 44.64387, -4202.28173828125], [-125.30079, 44.64847, -3991.755126953125]]], [[[-125.30079, 44.64847, -3991.755126953125], [-125.31154, 44.64476, -3803.69580078125], [-125.30143, 44.64005, -3973.955322265625], [-125.30079, 44.64847, -3991.755126953125]]], [[[-125.31067, 44.65369, -3826.255615234375], [-125.31154, 44.64476, -3803.69580078125], [-125.30079, 44.64847, -3991.755126953125], [-125.31067, 44.65369, -3826.255615234375]]], [[[-125.33917, 44.71745, -3483.628173828125], [-125.34858, 44.7124, -3132.627685546875], [-125.3378, 44.70895, -3482.63330078125], [-125.33917, 44.71745, -3483.628173828125]]], [[[-125.35595, 44.78365, -3128.486328125], [-125.36661, 44.78763, -2825.43994140625], [-125.36573, 44.77865, -2825.43994140625], [-125.35595, 44.78365, -3128.486328125]]], [[[-125.31067, 44.65369, -3826.255615234375], [-125.32033, 44.64912, -3658.851806640625], [-125.31154, 44.64476, -3803.69580078125], [-125.31067, 44.65369, -3826.255615234375]]], [[[-125.3571, 44.79287, -3130.309326171875], [-125.35861, 44.80197, -3131.865478515625], [-125.36795, 44.79657, -2825.43994140625], [-125.3571, 44.79287, -3130.309326171875]]], [[[-125.3205, 44.668, -3681.538330078125], [-125.32167, 44.67764, -3677.459228515625], [-125.33132, 44.67217, -3471.682861328125], [-125.3205, 44.668, -3681.538330078125]]], [[[-125.32033, 44.64912, -3658.851806640625], [-125.31067, 44.65369, -3826.255615234375], [-125.31983, 44.65877, -3677.6748046875], [-125.32033, 44.64912, -3658.851806640625]]], [[[-125.32033, 44.64912, -3658.851806640625], [-125.31983, 44.65877, -3677.6748046875], [-125.32997, 44.65393, -3471.55322265625], [-125.32033, 44.64912, -3658.851806640625]]], [[[-125.3105, 44.67166, -3851.924072265625], [-125.32167, 44.67764, -3677.459228515625], [-125.3205, 44.668, -3681.538330078125], [-125.3105, 44.67166, -3851.924072265625]]], [[[-125.35066, 44.81675, -3499.535400390625], [-125.36023, 44.81089, -3131.849853515625], [-125.34905, 44.80773, -3498.434326171875], [-125.35066, 44.81675, -3499.535400390625]]], [[[-125.33057, 44.66292, -3471.393798828125], [-125.34088, 44.66708, -3127.59423828125], [-125.34029, 44.65809, -3127.54541015625], [-125.33057, 44.66292, -3471.393798828125]]], [[[-125.32033, 44.64912, -3658.851806640625], [-125.32997, 44.65393, -3471.55322265625], [-125.32996, 44.64412, -3450.570068359375], [-125.32033, 44.64912, -3658.851806640625]]], [[[-125.35861, 44.80197, -3131.865478515625], [-125.36957, 44.80549, -2825.43994140625], [-125.36795, 44.79657, -2825.43994140625], [-125.35861, 44.80197, -3131.865478515625]]], [[[-125.34151, 44.63047, -3107.827392578125], [-125.3397, 44.63949, -3123.10205078125], [-125.35013, 44.63532, -2825.43994140625], [-125.34151, 44.63047, -3107.827392578125]]], [[[-125.32116, 44.63931, -3638.362548828125], [-125.32033, 44.64912, -3658.851806640625], [-125.32996, 44.64412, -3450.570068359375], [-125.32116, 44.63931, -3638.362548828125]]], [[[-125.34461, 44.77068, -3473.64306640625], [-125.35507, 44.77467, -3128.498779296875], [-125.35418, 44.7657, -3128.563720703125], [-125.34461, 44.77068, -3473.64306640625]]], [[[-125.31154, 44.64476, -3803.69580078125], [-125.3115, 44.63668, -3804.76220703125], [-125.30143, 44.64005, -3973.955322265625], [-125.31154, 44.64476, -3803.69580078125]]], [[[-125.3115, 44.63668, -3804.76220703125], [-125.30343, 44.63091, -3950.661376953125], [-125.30143, 44.64005, -3973.955322265625], [-125.3115, 44.63668, -3804.76220703125]]], [[[-125.3115, 44.63668, -3804.76220703125], [-125.31809, 44.63062, -3707.7802734375], [-125.30343, 44.63091, -3950.661376953125], [-125.3115, 44.63668, -3804.76220703125]]], [[[-125.33602, 44.70004, -3482.536376953125], [-125.34502, 44.69457, -3132.638427734375], [-125.33425, 44.69113, -3482.536865234375], [-125.33602, 44.70004, -3482.536376953125]]], [[[-125.34175, 44.67631, -3128.989501953125], [-125.34324, 44.68566, -3132.687255859375], [-125.35247, 44.68018, -2825.43994140625], [-125.34175, 44.67631, -3128.989501953125]]], [[[-125.34192, 44.74364, -3475.994140625], [-125.35243, 44.74772, -3128.410888671875], [-125.3516, 44.73872, -3128.302734375], [-125.34192, 44.74364, -3475.994140625]]], [[[-125.32116, 44.63931, -3638.362548828125], [-125.31809, 44.63062, -3707.7802734375], [-125.3115, 44.63668, -3804.76220703125], [-125.32116, 44.63931, -3638.362548828125]]], [[[-125.34029, 44.65809, -3127.54541015625], [-125.34088, 44.66708, -3127.59423828125], [-125.35081, 44.66224, -2825.43994140625], [-125.34029, 44.65809, -3127.54541015625]]], [[[-125.34653, 44.78889, -3474.45458984375], [-125.35595, 44.78365, -3128.486328125], [-125.34549, 44.77966, -3473.52783203125], [-125.34653, 44.78889, -3474.45458984375]]], [[[-125.30684, 44.61392, -3956.18994140625], [-125.30565, 44.60503, -3956.18994140625], [-125.29471, 44.613, -4193.91015625], [-125.30684, 44.61392, -3956.18994140625]]], [[[-125.35507, 44.77467, -3128.498779296875], [-125.36573, 44.77865, -2825.43994140625], [-125.36484, 44.76967, -2825.43994140625], [-125.35507, 44.77467, -3128.498779296875]]], [[[-125.32116, 44.63931, -3638.362548828125], [-125.32996, 44.64412, -3450.570068359375], [-125.33047, 44.63342, -3451.2470703125], [-125.32116, 44.63931, -3638.362548828125]]], [[[-125.32996, 44.64412, -3450.570068359375], [-125.3397, 44.63949, -3123.10205078125], [-125.33047, 44.63342, -3451.2470703125], [-125.32996, 44.64412, -3450.570068359375]]], [[[-125.32544, 44.70603, -3708.17529296875], [-125.32758, 44.71402, -3700.760009765625], [-125.3378, 44.70895, -3482.63330078125], [-125.32544, 44.70603, -3708.17529296875]]], [[[-125.3533, 44.75672, -3128.578857421875], [-125.35418, 44.7657, -3128.563720703125], [-125.36396, 44.7607, -2825.43994140625], [-125.3533, 44.75672, -3128.578857421875]]], [[[-125.30565, 44.60503, -3956.18994140625], [-125.31783, 44.60598, -3754.386962890625], [-125.31604, 44.59708, -3754.386962890625], [-125.30565, 44.60503, -3956.18994140625]]], [[[-125.34858, 44.7124, -3132.627685546875], [-125.34989, 44.72089, -3128.869384765625], [-125.35958, 44.71582, -2825.43994140625], [-125.34858, 44.7124, -3132.627685546875]]], [[[-125.34858, 44.7124, -3132.627685546875], [-125.35958, 44.71582, -2825.43994140625], [-125.3578, 44.70691, -2825.43994140625], [-125.34858, 44.7124, -3132.627685546875]]], [[[-125.34653, 44.78889, -3474.45458984375], [-125.3571, 44.79287, -3130.309326171875], [-125.35595, 44.78365, -3128.486328125], [-125.34653, 44.78889, -3474.45458984375]]], [[[-125.3571, 44.79287, -3130.309326171875], [-125.36795, 44.79657, -2825.43994140625], [-125.36661, 44.78763, -2825.43994140625], [-125.3571, 44.79287, -3130.309326171875]]], [[[-125.3533, 44.75672, -3128.578857421875], [-125.36396, 44.7607, -2825.43994140625], [-125.36308, 44.75172, -2825.43994140625], [-125.3533, 44.75672, -3128.578857421875]]], [[[-125.36373, 44.82818, -3114.8818359375], [-125.35837, 44.83431, -3308.001708984375], [-125.37409, 44.83228, -2825.43994140625], [-125.36373, 44.82818, -3114.8818359375]]], [[[-125.32444, 44.62356, -3641.847900390625], [-125.31809, 44.63062, -3707.7802734375], [-125.33047, 44.63342, -3451.2470703125], [-125.32444, 44.62356, -3641.847900390625]]], [[[-125.30143, 44.64005, -3973.955322265625], [-125.30343, 44.63091, -3950.661376953125], [-125.29109, 44.63535, -4186.30859375], [-125.30143, 44.64005, -3973.955322265625]]], [[[-125.30143, 44.64005, -3973.955322265625], [-125.29109, 44.63535, -4186.30859375], [-125.29041, 44.64387, -4202.28173828125], [-125.30143, 44.64005, -3973.955322265625]]], [[[-125.35861, 44.80197, -3131.865478515625], [-125.36023, 44.81089, -3131.849853515625], [-125.36957, 44.80549, -2825.43994140625], [-125.35861, 44.80197, -3131.865478515625]]], [[[-125.29352, 44.6041, -4193.91015625], [-125.30565, 44.60503, -3956.18994140625], [-125.30387, 44.59612, -3956.18994140625], [-125.29352, 44.6041, -4193.91015625]]], [[[-125.29352, 44.6041, -4193.91015625], [-125.28591, 44.6124, -4526.98388671875], [-125.29471, 44.613, -4193.91015625], [-125.29352, 44.6041, -4193.91015625]]], [[[-125.36185, 44.81982, -3131.857666015625], [-125.36373, 44.82818, -3114.8818359375], [-125.37282, 44.82334, -2825.43994140625], [-125.36185, 44.81982, -3131.857666015625]]], [[[-125.35418, 44.7657, -3128.563720703125], [-125.35507, 44.77467, -3128.498779296875], [-125.36484, 44.76967, -2825.43994140625], [-125.35418, 44.7657, -3128.563720703125]]], [[[-125.32834, 44.598, -3567.740966796875], [-125.33013, 44.60691, -3567.740966796875], [-125.33975, 44.59887, -3169.951904296875], [-125.32834, 44.598, -3567.740966796875]]], [[[-125.34274, 44.61667, -3169.951904296875], [-125.3523, 44.62646, -2825.43994140625], [-125.35447, 44.61759, -2825.43994140625], [-125.34274, 44.61667, -3169.951904296875]]], [[[-125.32544, 44.70603, -3708.17529296875], [-125.31528, 44.71467, -3905.554443359375], [-125.32758, 44.71402, -3700.760009765625], [-125.32544, 44.70603, -3708.17529296875]]], [[[-125.33674, 44.62417, -3312.848388671875], [-125.34151, 44.63047, -3107.827392578125], [-125.3523, 44.62646, -2825.43994140625], [-125.33674, 44.62417, -3312.848388671875]]], [[[-125.30684, 44.61392, -3956.18994140625], [-125.31901, 44.61488, -3754.386962890625], [-125.31783, 44.60598, -3754.386962890625], [-125.30684, 44.61392, -3956.18994140625]]], [[[-125.33425, 44.69113, -3482.536865234375], [-125.34324, 44.68566, -3132.687255859375], [-125.33267, 44.68177, -3473.17041015625], [-125.33425, 44.69113, -3482.536865234375]]], [[[-125.34324, 44.68566, -3132.687255859375], [-125.35424, 44.68909, -2825.43994140625], [-125.35247, 44.68018, -2825.43994140625], [-125.34324, 44.68566, -3132.687255859375]]], [[[-125.3468, 44.70348, -3132.63916015625], [-125.3578, 44.70691, -2825.43994140625], [-125.35602, 44.698, -2825.43994140625], [-125.3468, 44.70348, -3132.63916015625]]], [[[-125.32707, 44.81614, -3915.70849609375], [-125.31735, 44.81431, -4099.876953125], [-125.32732, 44.82334, -3926.274169921875], [-125.32707, 44.81614, -3915.70849609375]]], [[[-125.34283, 44.7527, -3474.1806640625], [-125.3533, 44.75672, -3128.578857421875], [-125.35243, 44.74772, -3128.410888671875], [-125.34283, 44.7527, -3474.1806640625]]], [[[-125.34461, 44.77068, -3473.64306640625], [-125.35418, 44.7657, -3128.563720703125], [-125.34373, 44.7617, -3473.658203125], [-125.34461, 44.77068, -3473.64306640625]]], [[[-125.32707, 44.79983, -3863.32666015625], [-125.32882, 44.80904, -3860.34619140625], [-125.33823, 44.80412, -3690.2890625], [-125.32707, 44.79983, -3863.32666015625]]], [[[-125.35276, 44.82547, -3475.427734375], [-125.34582, 44.83342, -3643.97998046875], [-125.35837, 44.83431, -3308.001708984375], [-125.35276, 44.82547, -3475.427734375]]], [[[-125.3409, 44.82469, -3706.80126953125], [-125.34582, 44.83342, -3643.97998046875], [-125.35276, 44.82547, -3475.427734375], [-125.3409, 44.82469, -3706.80126953125]]], [[[-125.3409, 44.82469, -3706.80126953125], [-125.33338, 44.83228, -3839.171630859375], [-125.34582, 44.83342, -3643.97998046875], [-125.3409, 44.82469, -3706.80126953125]]], [[[-125.3409, 44.82469, -3706.80126953125], [-125.32732, 44.82334, -3926.274169921875], [-125.33338, 44.83228, -3839.171630859375], [-125.3409, 44.82469, -3706.80126953125]]], [[[-125.32732, 44.82334, -3926.274169921875], [-125.32051, 44.83078, -4069.050537109375], [-125.33338, 44.83228, -3839.171630859375], [-125.32732, 44.82334, -3926.274169921875]]], [[[-125.32732, 44.82334, -3926.274169921875], [-125.31136, 44.82126, -4266.21337890625], [-125.32051, 44.83078, -4069.050537109375], [-125.32732, 44.82334, -3926.274169921875]]], [[[-125.31735, 44.81431, -4099.876953125], [-125.31136, 44.82126, -4266.21337890625], [-125.32732, 44.82334, -3926.274169921875], [-125.31735, 44.81431, -4099.876953125]]], [[[-125.31735, 44.81431, -4099.876953125], [-125.30784, 44.80969, -4319.8720703125], [-125.31136, 44.82126, -4266.21337890625], [-125.31735, 44.81431, -4099.876953125]]], [[[-125.31735, 44.81431, -4099.876953125], [-125.31748, 44.80437, -4059.942626953125], [-125.30784, 44.80969, -4319.8720703125], [-125.31735, 44.81431, -4099.876953125]]], [[[-125.3409, 44.82469, -3706.80126953125], [-125.35276, 44.82547, -3475.427734375], [-125.35066, 44.81675, -3499.535400390625], [-125.3409, 44.82469, -3706.80126953125]]], [[[-125.32707, 44.79983, -3863.32666015625], [-125.31627, 44.79482, -4044.877197265625], [-125.31748, 44.80437, -4059.942626953125], [-125.32707, 44.79983, -3863.32666015625]]], [[[-125.32707, 44.79983, -3863.32666015625], [-125.32563, 44.79035, -3858.772705078125], [-125.31627, 44.79482, -4044.877197265625], [-125.32707, 44.79983, -3863.32666015625]]], [[[-125.32563, 44.79035, -3858.772705078125], [-125.32707, 44.79983, -3863.32666015625], [-125.3368, 44.79433, -3681.929443359375], [-125.32563, 44.79035, -3858.772705078125]]], [[[-125.32563, 44.79035, -3858.772705078125], [-125.3368, 44.79433, -3681.929443359375], [-125.33567, 44.78498, -3678.66748046875], [-125.32563, 44.79035, -3858.772705078125]]], [[[-125.32563, 44.79035, -3858.772705078125], [-125.33567, 44.78498, -3678.66748046875], [-125.32566, 44.78148, -3839.4775390625], [-125.32563, 44.79035, -3858.772705078125]]], [[[-125.32563, 44.79035, -3858.772705078125], [-125.32566, 44.78148, -3839.4775390625], [-125.31549, 44.7863, -4031.8916015625], [-125.32563, 44.79035, -3858.772705078125]]], [[[-125.32563, 44.79035, -3858.772705078125], [-125.31549, 44.7863, -4031.8916015625], [-125.31627, 44.79482, -4044.877197265625], [-125.32563, 44.79035, -3858.772705078125]]], [[[-125.31549, 44.7863, -4031.8916015625], [-125.32566, 44.78148, -3839.4775390625], [-125.31484, 44.77788, -4024.487548828125], [-125.31549, 44.7863, -4031.8916015625]]], [[[-125.31484, 44.77788, -4024.487548828125], [-125.30454, 44.78246, -4274.2939453125], [-125.31549, 44.7863, -4031.8916015625], [-125.31484, 44.77788, -4024.487548828125]]], [[[-125.31484, 44.77788, -4024.487548828125], [-125.30403, 44.77383, -4262.70068359375], [-125.30454, 44.78246, -4274.2939453125], [-125.31484, 44.77788, -4024.487548828125]]], [[[-125.31401, 44.76914, -4023.92578125], [-125.30403, 44.77383, -4262.70068359375], [-125.31484, 44.77788, -4024.487548828125], [-125.31401, 44.76914, -4023.92578125]]], [[[-125.31401, 44.76914, -4023.92578125], [-125.30387, 44.76489, -4245.6572265625], [-125.30403, 44.77383, -4262.70068359375], [-125.31401, 44.76914, -4023.92578125]]], [[[-125.31421, 44.76031, -4004.170166015625], [-125.30387, 44.76489, -4245.6572265625], [-125.31401, 44.76914, -4023.92578125], [-125.31421, 44.76031, -4004.170166015625]]], [[[-125.31421, 44.76031, -4004.170166015625], [-125.30366, 44.75593, -4232.009765625], [-125.30387, 44.76489, -4245.6572265625], [-125.31421, 44.76031, -4004.170166015625]]], [[[-125.31411, 44.75143, -3989.973876953125], [-125.30366, 44.75593, -4232.009765625], [-125.31421, 44.76031, -4004.170166015625], [-125.31411, 44.75143, -3989.973876953125]]], [[[-125.31411, 44.75143, -3989.973876953125], [-125.30357, 44.74695, -4209.70703125], [-125.30366, 44.75593, -4232.009765625], [-125.31411, 44.75143, -3989.973876953125]]], [[[-125.31459, 44.74229, -3967.894775390625], [-125.30357, 44.74695, -4209.70703125], [-125.31411, 44.75143, -3989.973876953125], [-125.31459, 44.74229, -3967.894775390625]]], [[[-125.31459, 44.74229, -3967.894775390625], [-125.30347, 44.73798, -4188.70361328125], [-125.30357, 44.74695, -4209.70703125], [-125.31459, 44.74229, -3967.894775390625]]], [[[-125.31569, 44.73378, -3928.7548828125], [-125.30347, 44.73798, -4188.70361328125], [-125.31459, 44.74229, -3967.894775390625], [-125.31569, 44.73378, -3928.7548828125]]], [[[-125.31569, 44.73378, -3928.7548828125], [-125.30364, 44.72903, -4166.53271484375], [-125.30347, 44.73798, -4188.70361328125], [-125.31569, 44.73378, -3928.7548828125]]], [[[-125.31521, 44.72463, -3926.8486328125], [-125.30364, 44.72903, -4166.53271484375], [-125.31569, 44.73378, -3928.7548828125], [-125.31521, 44.72463, -3926.8486328125]]], [[[-125.31521, 44.72463, -3926.8486328125], [-125.30362, 44.7198, -4150.0498046875], [-125.30364, 44.72903, -4166.53271484375], [-125.31521, 44.72463, -3926.8486328125]]], [[[-125.29325, 44.72448, -4495.0126953125], [-125.30364, 44.72903, -4166.53271484375], [-125.30362, 44.7198, -4150.0498046875], [-125.29325, 44.72448, -4495.0126953125]]], [[[-125.30364, 44.72903, -4166.53271484375], [-125.29325, 44.72448, -4495.0126953125], [-125.29331, 44.73353, -4518.44580078125], [-125.30364, 44.72903, -4166.53271484375]]], [[[-125.29331, 44.73353, -4518.44580078125], [-125.30347, 44.73798, -4188.70361328125], [-125.30364, 44.72903, -4166.53271484375], [-125.29331, 44.73353, -4518.44580078125]]], [[[-125.30347, 44.73798, -4188.70361328125], [-125.29331, 44.73353, -4518.44580078125], [-125.29347, 44.74247, -4549.25048828125], [-125.30347, 44.73798, -4188.70361328125]]], [[[-125.29347, 44.74247, -4549.25048828125], [-125.30357, 44.74695, -4209.70703125], [-125.30347, 44.73798, -4188.70361328125], [-125.29347, 44.74247, -4549.25048828125]]], [[[-125.30357, 44.74695, -4209.70703125], [-125.29347, 44.74247, -4549.25048828125], [-125.29366, 44.75148, -4574.84814453125], [-125.30357, 44.74695, -4209.70703125]]], [[[-125.29366, 44.75148, -4574.84814453125], [-125.30366, 44.75593, -4232.009765625], [-125.30357, 44.74695, -4209.70703125], [-125.29366, 44.75148, -4574.84814453125]]], [[[-125.30366, 44.75593, -4232.009765625], [-125.29366, 44.75148, -4574.84814453125], [-125.29388, 44.76044, -4600.2822265625], [-125.30366, 44.75593, -4232.009765625]]], [[[-125.29388, 44.76044, -4600.2822265625], [-125.30387, 44.76489, -4245.6572265625], [-125.30366, 44.75593, -4232.009765625], [-125.29388, 44.76044, -4600.2822265625]]], [[[-125.30387, 44.76489, -4245.6572265625], [-125.29388, 44.76044, -4600.2822265625], [-125.29414, 44.76944, -4624.427734375], [-125.30387, 44.76489, -4245.6572265625]]], [[[-125.29414, 44.76944, -4624.427734375], [-125.30403, 44.77383, -4262.70068359375], [-125.30387, 44.76489, -4245.6572265625], [-125.29414, 44.76944, -4624.427734375]]], [[[-125.30403, 44.77383, -4262.70068359375], [-125.29414, 44.76944, -4624.427734375], [-125.29444, 44.77838, -4646.458984375], [-125.30403, 44.77383, -4262.70068359375]]], [[[-125.30454, 44.78246, -4274.2939453125], [-125.30403, 44.77383, -4262.70068359375], [-125.29444, 44.77838, -4646.458984375], [-125.30454, 44.78246, -4274.2939453125]]], [[[-125.30454, 44.78246, -4274.2939453125], [-125.29444, 44.77838, -4646.458984375], [-125.295, 44.78707, -4656.65625], [-125.30454, 44.78246, -4274.2939453125]]], [[[-125.30362, 44.7198, -4150.0498046875], [-125.29304, 44.71538, -4471.22412109375], [-125.29325, 44.72448, -4495.0126953125], [-125.30362, 44.7198, -4150.0498046875]]], [[[-125.30362, 44.7198, -4150.0498046875], [-125.30289, 44.71033, -4142.34423828125], [-125.29304, 44.71538, -4471.22412109375], [-125.30362, 44.7198, -4150.0498046875]]], [[[-125.30289, 44.71033, -4142.34423828125], [-125.29224, 44.70591, -4444.62109375], [-125.29304, 44.71538, -4471.22412109375], [-125.30289, 44.71033, -4142.34423828125]]], [[[-125.29224, 44.70591, -4444.62109375], [-125.30289, 44.71033, -4142.34423828125], [-125.3018, 44.7008, -4118.87548828125], [-125.29224, 44.70591, -4444.62109375]]], [[[-125.3018, 44.7008, -4118.87548828125], [-125.29108, 44.69687, -4419.69287109375], [-125.29224, 44.70591, -4444.62109375], [-125.3018, 44.7008, -4118.87548828125]]], [[[-125.29108, 44.69687, -4419.69287109375], [-125.3018, 44.7008, -4118.87548828125], [-125.30064, 44.69176, -4112.30419921875], [-125.29108, 44.69687, -4419.69287109375]]], [[[-125.28987, 44.68795, -4398.12548828125], [-125.29108, 44.69687, -4419.69287109375], [-125.30064, 44.69176, -4112.30419921875], [-125.28987, 44.68795, -4398.12548828125]]], [[[-125.29949, 44.68312, -4089.37744140625], [-125.28987, 44.68795, -4398.12548828125], [-125.30064, 44.69176, -4112.30419921875], [-125.29949, 44.68312, -4089.37744140625]]], [[[-125.31044, 44.68713, -3898.740478515625], [-125.29949, 44.68312, -4089.37744140625], [-125.30064, 44.69176, -4112.30419921875], [-125.31044, 44.68713, -3898.740478515625]]], [[[-125.31044, 44.68713, -3898.740478515625], [-125.31087, 44.67957, -3866.1806640625], [-125.29949, 44.68312, -4089.37744140625], [-125.31044, 44.68713, -3898.740478515625]]], [[[-125.31087, 44.67957, -3866.1806640625], [-125.31044, 44.68713, -3898.740478515625], [-125.32207, 44.68727, -3706.009521484375], [-125.31087, 44.67957, -3866.1806640625]]], [[[-125.31223, 44.69543, -3898.91943359375], [-125.32207, 44.68727, -3706.009521484375], [-125.31044, 44.68713, -3898.740478515625], [-125.31223, 44.69543, -3898.91943359375]]], [[[-125.32207, 44.68727, -3706.009521484375], [-125.31223, 44.69543, -3898.91943359375], [-125.32405, 44.69698, -3701.9677734375], [-125.32207, 44.68727, -3706.009521484375]]], [[[-125.33425, 44.69113, -3482.536865234375], [-125.32207, 44.68727, -3706.009521484375], [-125.32405, 44.69698, -3701.9677734375], [-125.33425, 44.69113, -3482.536865234375]]], [[[-125.32207, 44.68727, -3706.009521484375], [-125.33425, 44.69113, -3482.536865234375], [-125.33267, 44.68177, -3473.17041015625], [-125.32207, 44.68727, -3706.009521484375]]], [[[-125.32405, 44.69698, -3701.9677734375], [-125.33602, 44.70004, -3482.536376953125], [-125.33425, 44.69113, -3482.536865234375], [-125.32405, 44.69698, -3701.9677734375]]], [[[-125.33602, 44.70004, -3482.536376953125], [-125.32405, 44.69698, -3701.9677734375], [-125.32544, 44.70603, -3708.17529296875], [-125.33602, 44.70004, -3482.536376953125]]], [[[-125.32405, 44.69698, -3701.9677734375], [-125.31338, 44.70474, -3910.699462890625], [-125.32544, 44.70603, -3708.17529296875], [-125.32405, 44.69698, -3701.9677734375]]], [[[-125.31223, 44.69543, -3898.91943359375], [-125.31338, 44.70474, -3910.699462890625], [-125.32405, 44.69698, -3701.9677734375], [-125.31223, 44.69543, -3898.91943359375]]], [[[-125.31338, 44.70474, -3910.699462890625], [-125.31223, 44.69543, -3898.91943359375], [-125.3018, 44.7008, -4118.87548828125], [-125.31338, 44.70474, -3910.699462890625]]], [[[-125.31338, 44.70474, -3910.699462890625], [-125.3018, 44.7008, -4118.87548828125], [-125.30289, 44.71033, -4142.34423828125], [-125.31338, 44.70474, -3910.699462890625]]], [[[-125.31223, 44.69543, -3898.91943359375], [-125.30064, 44.69176, -4112.30419921875], [-125.3018, 44.7008, -4118.87548828125], [-125.31223, 44.69543, -3898.91943359375]]], [[[-125.31223, 44.69543, -3898.91943359375], [-125.31044, 44.68713, -3898.740478515625], [-125.30064, 44.69176, -4112.30419921875], [-125.31223, 44.69543, -3898.91943359375]]], [[[-125.31521, 44.72463, -3926.8486328125], [-125.31569, 44.73378, -3928.7548828125], [-125.32834, 44.73048, -3713.2724609375], [-125.31521, 44.72463, -3926.8486328125]]], [[[-125.31521, 44.72463, -3926.8486328125], [-125.32834, 44.73048, -3713.2724609375], [-125.32748, 44.72187, -3714.575439453125], [-125.31521, 44.72463, -3926.8486328125]]], [[[-125.32748, 44.72187, -3714.575439453125], [-125.32834, 44.73048, -3713.2724609375], [-125.34007, 44.72588, -3483.85693359375], [-125.32748, 44.72187, -3714.575439453125]]], [[[-125.32748, 44.72187, -3714.575439453125], [-125.34007, 44.72588, -3483.85693359375], [-125.33917, 44.71745, -3483.628173828125], [-125.32748, 44.72187, -3714.575439453125]]], [[[-125.34007, 44.72588, -3483.85693359375], [-125.34989, 44.72089, -3128.869384765625], [-125.33917, 44.71745, -3483.628173828125], [-125.34007, 44.72588, -3483.85693359375]]], [[[-125.32834, 44.73048, -3713.2724609375], [-125.34082, 44.73471, -3485.75146484375], [-125.34007, 44.72588, -3483.85693359375], [-125.32834, 44.73048, -3713.2724609375]]], [[[-125.32834, 44.73048, -3713.2724609375], [-125.32909, 44.73941, -3717.023681640625], [-125.34082, 44.73471, -3485.75146484375], [-125.32834, 44.73048, -3713.2724609375]]], [[[-125.31569, 44.73378, -3928.7548828125], [-125.32909, 44.73941, -3717.023681640625], [-125.32834, 44.73048, -3713.2724609375], [-125.31569, 44.73378, -3928.7548828125]]], [[[-125.31569, 44.73378, -3928.7548828125], [-125.31459, 44.74229, -3967.894775390625], [-125.32909, 44.73941, -3717.023681640625], [-125.31569, 44.73378, -3928.7548828125]]], [[[-125.32355, 44.74676, -3818.612060546875], [-125.32909, 44.73941, -3717.023681640625], [-125.31459, 44.74229, -3967.894775390625], [-125.32355, 44.74676, -3818.612060546875]]], [[[-125.32355, 44.74676, -3818.612060546875], [-125.33266, 44.74888, -3669.875244140625], [-125.32909, 44.73941, -3717.023681640625], [-125.32355, 44.74676, -3818.612060546875]]], [[[-125.3241, 44.75554, -3823.452880859375], [-125.33266, 44.74888, -3669.875244140625], [-125.32355, 44.74676, -3818.612060546875], [-125.3241, 44.75554, -3823.452880859375]]], [[[-125.3241, 44.75554, -3823.452880859375], [-125.3335, 44.75798, -3670.15185546875], [-125.33266, 44.74888, -3669.875244140625], [-125.3241, 44.75554, -3823.452880859375]]], [[[-125.32437, 44.7642, -3832.882080078125], [-125.3335, 44.75798, -3670.15185546875], [-125.3241, 44.75554, -3823.452880859375], [-125.32437, 44.7642, -3832.882080078125]]], [[[-125.32437, 44.7642, -3832.882080078125], [-125.33406, 44.76686, -3675.261474609375], [-125.3335, 44.75798, -3670.15185546875], [-125.32437, 44.7642, -3832.882080078125]]], [[[-125.32406, 44.77244, -3851.261474609375], [-125.33406, 44.76686, -3675.261474609375], [-125.32437, 44.7642, -3832.882080078125], [-125.32406, 44.77244, -3851.261474609375]]], [[[-125.32406, 44.77244, -3851.261474609375], [-125.33448, 44.77571, -3682.810791015625], [-125.33406, 44.76686, -3675.261474609375], [-125.32406, 44.77244, -3851.261474609375]]], [[[-125.32406, 44.77244, -3851.261474609375], [-125.32566, 44.78148, -3839.4775390625], [-125.33448, 44.77571, -3682.810791015625], [-125.32406, 44.77244, -3851.261474609375]]], [[[-125.32566, 44.78148, -3839.4775390625], [-125.32406, 44.77244, -3851.261474609375], [-125.31484, 44.77788, -4024.487548828125], [-125.32566, 44.78148, -3839.4775390625]]], [[[-125.32406, 44.77244, -3851.261474609375], [-125.31401, 44.76914, -4023.92578125], [-125.31484, 44.77788, -4024.487548828125], [-125.32406, 44.77244, -3851.261474609375]]], [[[-125.32437, 44.7642, -3832.882080078125], [-125.31401, 44.76914, -4023.92578125], [-125.32406, 44.77244, -3851.261474609375], [-125.32437, 44.7642, -3832.882080078125]]], [[[-125.31421, 44.76031, -4004.170166015625], [-125.31401, 44.76914, -4023.92578125], [-125.32437, 44.7642, -3832.882080078125], [-125.31421, 44.76031, -4004.170166015625]]], [[[-125.3241, 44.75554, -3823.452880859375], [-125.31421, 44.76031, -4004.170166015625], [-125.32437, 44.7642, -3832.882080078125], [-125.3241, 44.75554, -3823.452880859375]]], [[[-125.31411, 44.75143, -3989.973876953125], [-125.31421, 44.76031, -4004.170166015625], [-125.3241, 44.75554, -3823.452880859375], [-125.31411, 44.75143, -3989.973876953125]]], [[[-125.32355, 44.74676, -3818.612060546875], [-125.31411, 44.75143, -3989.973876953125], [-125.3241, 44.75554, -3823.452880859375], [-125.32355, 44.74676, -3818.612060546875]]], [[[-125.31459, 44.74229, -3967.894775390625], [-125.31411, 44.75143, -3989.973876953125], [-125.32355, 44.74676, -3818.612060546875], [-125.31459, 44.74229, -3967.894775390625]]], [[[-125.33567, 44.78498, -3678.66748046875], [-125.33448, 44.77571, -3682.810791015625], [-125.32566, 44.78148, -3839.4775390625], [-125.33567, 44.78498, -3678.66748046875]]], [[[-125.33448, 44.77571, -3682.810791015625], [-125.33567, 44.78498, -3678.66748046875], [-125.34549, 44.77966, -3473.52783203125], [-125.33448, 44.77571, -3682.810791015625]]], [[[-125.33448, 44.77571, -3682.810791015625], [-125.34549, 44.77966, -3473.52783203125], [-125.34461, 44.77068, -3473.64306640625], [-125.33448, 44.77571, -3682.810791015625]]], [[[-125.33406, 44.76686, -3675.261474609375], [-125.33448, 44.77571, -3682.810791015625], [-125.34461, 44.77068, -3473.64306640625], [-125.33406, 44.76686, -3675.261474609375]]], [[[-125.33406, 44.76686, -3675.261474609375], [-125.34461, 44.77068, -3473.64306640625], [-125.34373, 44.7617, -3473.658203125], [-125.33406, 44.76686, -3675.261474609375]]], [[[-125.3335, 44.75798, -3670.15185546875], [-125.33406, 44.76686, -3675.261474609375], [-125.34373, 44.7617, -3473.658203125], [-125.3335, 44.75798, -3670.15185546875]]], [[[-125.3335, 44.75798, -3670.15185546875], [-125.34373, 44.7617, -3473.658203125], [-125.34283, 44.7527, -3474.1806640625], [-125.3335, 44.75798, -3670.15185546875]]], [[[-125.33266, 44.74888, -3669.875244140625], [-125.3335, 44.75798, -3670.15185546875], [-125.34283, 44.7527, -3474.1806640625], [-125.33266, 44.74888, -3669.875244140625]]], [[[-125.33266, 44.74888, -3669.875244140625], [-125.34283, 44.7527, -3474.1806640625], [-125.34192, 44.74364, -3475.994140625], [-125.33266, 44.74888, -3669.875244140625]]], [[[-125.32909, 44.73941, -3717.023681640625], [-125.33266, 44.74888, -3669.875244140625], [-125.34192, 44.74364, -3475.994140625], [-125.32909, 44.73941, -3717.023681640625]]], [[[-125.32909, 44.73941, -3717.023681640625], [-125.34192, 44.74364, -3475.994140625], [-125.34082, 44.73471, -3485.75146484375], [-125.32909, 44.73941, -3717.023681640625]]], [[[-125.33567, 44.78498, -3678.66748046875], [-125.34653, 44.78889, -3474.45458984375], [-125.34549, 44.77966, -3473.52783203125], [-125.33567, 44.78498, -3678.66748046875]]], [[[-125.33567, 44.78498, -3678.66748046875], [-125.3368, 44.79433, -3681.929443359375], [-125.34653, 44.78889, -3474.45458984375], [-125.33567, 44.78498, -3678.66748046875]]], [[[-125.3368, 44.79433, -3681.929443359375], [-125.3479, 44.79825, -3478.70654296875], [-125.34653, 44.78889, -3474.45458984375], [-125.3368, 44.79433, -3681.929443359375]]], [[[-125.3368, 44.79433, -3681.929443359375], [-125.33823, 44.80412, -3690.2890625], [-125.3479, 44.79825, -3478.70654296875], [-125.3368, 44.79433, -3681.929443359375]]], [[[-125.32707, 44.79983, -3863.32666015625], [-125.33823, 44.80412, -3690.2890625], [-125.3368, 44.79433, -3681.929443359375], [-125.32707, 44.79983, -3863.32666015625]]], [[[-125.31031, 44.6631, -3843.843994140625], [-125.3105, 44.67166, -3851.924072265625], [-125.3205, 44.668, -3681.538330078125], [-125.31031, 44.6631, -3843.843994140625]]], [[[-125.3105, 44.67166, -3851.924072265625], [-125.31031, 44.6631, -3843.843994140625], [-125.29962, 44.66726, -4040.285888671875], [-125.3105, 44.67166, -3851.924072265625]]], [[[-125.31031, 44.6631, -3843.843994140625], [-125.30027, 44.6579, -4012.406005859375], [-125.29962, 44.66726, -4040.285888671875], [-125.31031, 44.6631, -3843.843994140625]]], [[[-125.31031, 44.6631, -3843.843994140625], [-125.31067, 44.65369, -3826.255615234375], [-125.30027, 44.6579, -4012.406005859375], [-125.31031, 44.6631, -3843.843994140625]]], [[[-125.31067, 44.65369, -3826.255615234375], [-125.31031, 44.6631, -3843.843994140625], [-125.31983, 44.65877, -3677.6748046875], [-125.31067, 44.65369, -3826.255615234375]]], [[[-125.31031, 44.6631, -3843.843994140625], [-125.3205, 44.668, -3681.538330078125], [-125.31983, 44.65877, -3677.6748046875], [-125.31031, 44.6631, -3843.843994140625]]], [[[-125.31983, 44.65877, -3677.6748046875], [-125.3205, 44.668, -3681.538330078125], [-125.33057, 44.66292, -3471.393798828125], [-125.31983, 44.65877, -3677.6748046875]]], [[[-125.31983, 44.65877, -3677.6748046875], [-125.33057, 44.66292, -3471.393798828125], [-125.32997, 44.65393, -3471.55322265625], [-125.31983, 44.65877, -3677.6748046875]]], [[[-125.33057, 44.66292, -3471.393798828125], [-125.34029, 44.65809, -3127.54541015625], [-125.32997, 44.65393, -3471.55322265625], [-125.33057, 44.66292, -3471.393798828125]]], [[[-125.31067, 44.65369, -3826.255615234375], [-125.30079, 44.64847, -3991.755126953125], [-125.30027, 44.6579, -4012.406005859375], [-125.31067, 44.65369, -3826.255615234375]]], [[[-125.28965, 44.6623, -4258.67236328125], [-125.29962, 44.66726, -4040.285888671875], [-125.30027, 44.6579, -4012.406005859375], [-125.28965, 44.6623, -4258.67236328125]]], [[[-125.29962, 44.66726, -4040.285888671875], [-125.28965, 44.6623, -4258.67236328125], [-125.28883, 44.67121, -4339.45068359375], [-125.29962, 44.66726, -4040.285888671875]]], [[[-125.28871, 44.67917, -4375.15087890625], [-125.27808, 44.67507, -4677.97119140625], [-125.27917, 44.68405, -4702.09033203125], [-125.28871, 44.67917, -4375.15087890625]]], [[[-125.29713, 44.80487, -4673.466796875], [-125.28668, 44.801, -5040.248046875], [-125.28792, 44.80997, -5056.63134765625], [-125.29713, 44.80487, -4673.466796875]]], [[[-125.29713, 44.80487, -4673.466796875], [-125.28792, 44.80997, -5056.63134765625], [-125.29909, 44.81449, -4658.4697265625], [-125.29713, 44.80487, -4673.466796875]]], [[[-125.29909, 44.81449, -4658.4697265625], [-125.28792, 44.80997, -5056.63134765625], [-125.28906, 44.81895, -5073.890625], [-125.29909, 44.81449, -4658.4697265625]]], [[[-125.29943, 44.82323, -4684.166015625], [-125.29909, 44.81449, -4658.4697265625], [-125.28906, 44.81895, -5073.890625], [-125.29943, 44.82323, -4684.166015625]]], [[[-125.29943, 44.82323, -4684.166015625], [-125.28906, 44.81895, -5073.890625], [-125.28949, 44.82796, -5097.41650390625], [-125.29943, 44.82323, -4684.166015625]]], [[[-125.29763, 44.83119, -4782.380859375], [-125.29943, 44.82323, -4684.166015625], [-125.28949, 44.82796, -5097.41650390625], [-125.29763, 44.83119, -4782.380859375]]], [[[-125.30887, 44.83036, -4390.14697265625], [-125.29943, 44.82323, -4684.166015625], [-125.29763, 44.83119, -4782.380859375], [-125.30887, 44.83036, -4390.14697265625]]], [[[-125.30887, 44.83036, -4390.14697265625], [-125.29763, 44.83119, -4782.380859375], [-125.30291, 44.83802, -4625.33984375], [-125.30887, 44.83036, -4390.14697265625]]], [[[-125.30887, 44.83036, -4390.14697265625], [-125.30291, 44.83802, -4625.33984375], [-125.31414, 44.83883, -4193.91015625], [-125.30887, 44.83036, -4390.14697265625]]], [[[-125.29763, 44.83119, -4782.380859375], [-125.28875, 44.83695, -5131.1279296875], [-125.30291, 44.83802, -4625.33984375], [-125.29763, 44.83119, -4782.380859375]]], [[[-125.29763, 44.83119, -4782.380859375], [-125.28949, 44.82796, -5097.41650390625], [-125.28875, 44.83695, -5131.1279296875], [-125.29763, 44.83119, -4782.380859375]]], [[[-125.28467, 44.60343, -4532.1611328125], [-125.29352, 44.6041, -4193.91015625], [-125.29174, 44.5952, -4193.91015625], [-125.28467, 44.60343, -4532.1611328125]]], [[[-125.28264, 44.59453, -4544.83544921875], [-125.28467, 44.60343, -4532.1611328125], [-125.29174, 44.5952, -4193.91015625], [-125.28264, 44.59453, -4544.83544921875]]]]}}]}