{"type": "FeatureCollection", "features": [{"type": "Feature", "properties": {"name": "AW_CORE_5", "CFM_ID": 214, "region": "Offshore_OR", "primary_state/province": "OR", "secondary_state/province": null, "avg_dip": 26, "dip_dir": "E", "rake": 90, "slip_sense": "Reverse", "fault_level": 2, "NSHM23_sliprates": null, "QFFDAgeCatBin": null, "QFFDAgeBin": null, "upper_depth": 1.7, "upper_depth_constraint": "seismic imaging", "lower_depth": -19.9, "lower_depth_constraint": "seismic imaging", "3D_model_constraints": "trace and 1 MCS line", "reference": "Lucas et al. (2025); Carbotte et al. (2023)", "nshm23_id": null, "lineage": null, "usgs_qffd_#": null, "comments": "trace combined from Lucas and Goldfinger references", "id": "214"}, "geometry": {"type": "MultiPolygon", "coordinates": [[[[-125.13758, 44.214, -2249.337158203125], [-125.12529, 44.21242, -2861.7451171875], [-125.12961, 44.22085, -2861.7451171875], [-125.13758, 44.214, -2249.337158203125]]], [[[-125.24414, 44.40001, -2132.280029296875], [-125.24225, 44.40728, -2207.76953125], [-125.25598, 44.40327, -1884.8800048828125], [-125.24414, 44.40001, -2132.280029296875]]], [[[-125.24133, 44.41594, -2192.793701171875], [-125.25353, 44.42108, -1884.8800048828125], [-125.25492, 44.41216, -1884.8800048828125], [-125.24133, 44.41594, -2192.793701171875]]], [[[-125.18334, 44.32581, -2260.891357421875], [-125.19698, 44.32611, -1884.8800048828125], [-125.19511, 44.31724, -1884.8800048828125], [-125.18334, 44.32581, -2260.891357421875]]], [[[-125.14634, 44.23043, -2272.210693359375], [-125.15129, 44.23873, -2272.81787109375], [-125.16044, 44.23121, -1884.8800048828125], [-125.14634, 44.23043, -2272.210693359375]]], [[[-125.13331, 44.207, -2388.023193359375], [-125.12529, 44.21242, -2861.7451171875], [-125.13758, 44.214, -2249.337158203125], [-125.13331, 44.207, -2388.023193359375]]], [[[-125.13132, 44.13754, -2236.3291015625], [-125.14386, 44.14292, -1884.8800048828125], [-125.14471, 44.13394, -1884.8800048828125], [-125.13132, 44.13754, -2236.3291015625]]], [[[-125.17122, 44.28145, -2272.471923828125], [-125.18235, 44.27328, -1884.8800048828125], [-125.16906, 44.27218, -2243.41162109375], [-125.17122, 44.28145, -2272.471923828125]]], [[[-125.24397, 44.42575, -2098.285888671875], [-125.25353, 44.42108, -1884.8800048828125], [-125.24133, 44.41594, -2192.793701171875], [-125.24397, 44.42575, -2098.285888671875]]], [[[-125.17908, 44.26461, -1884.8800048828125], [-125.16906, 44.27218, -2243.41162109375], [-125.18235, 44.27328, -1884.8800048828125], [-125.17908, 44.26461, -1884.8800048828125]]], [[[-125.24397, 44.42575, -2098.285888671875], [-125.25388, 44.43007, -1884.8800048828125], [-125.25353, 44.42108, -1884.8800048828125], [-125.24397, 44.42575, -2098.285888671875]]], [[[-125.12572, 44.15396, -2449.977783203125], [-125.12933, 44.14634, -2266.768310546875], [-125.11743, 44.14984, -2861.7451171875], [-125.12572, 44.15396, -2449.977783203125]]], [[[-125.24456, 44.43461, -2084.099365234375], [-125.25388, 44.43007, -1884.8800048828125], [-125.24397, 44.42575, -2098.285888671875], [-125.24456, 44.43461, -2084.099365234375]]], [[[-125.12697, 44.1718, -2436.587646484375], [-125.12649, 44.16282, -2436.228759765625], [-125.11841, 44.16781, -2861.7451171875], [-125.12697, 44.1718, -2436.587646484375]]], [[[-125.14634, 44.23043, -2272.210693359375], [-125.13455, 44.22911, -2861.7451171875], [-125.13949, 44.23737, -2861.7451171875], [-125.14634, 44.23043, -2272.210693359375]]], [[[-125.17784, 44.29799, -2227.998291015625], [-125.19148, 44.29947, -1884.8800048828125], [-125.18836, 44.29076, -1884.8800048828125], [-125.17784, 44.29799, -2227.998291015625]]], [[[-125.24456, 44.43461, -2084.099365234375], [-125.25356, 44.43907, -1884.8800048828125], [-125.25388, 44.43007, -1884.8800048828125], [-125.24456, 44.43461, -2084.099365234375]]], [[[-125.12697, 44.1718, -2436.587646484375], [-125.12761, 44.18062, -2434.849365234375], [-125.13514, 44.17487, -2091.82177734375], [-125.12697, 44.1718, -2436.587646484375]]], [[[-125.19385, 44.30829, -1884.8800048828125], [-125.18549, 44.3134, -2085.574462890625], [-125.19511, 44.31724, -1884.8800048828125], [-125.19385, 44.30829, -1884.8800048828125]]], [[[-125.15613, 44.24713, -2277.30322265625], [-125.16539, 44.23947, -1884.8800048828125], [-125.15129, 44.23873, -2272.81787109375], [-125.15613, 44.24713, -2277.30322265625]]], [[[-125.24456, 44.43461, -2084.099365234375], [-125.24037, 44.44244, -2242.685791015625], [-125.25356, 44.43907, -1884.8800048828125], [-125.24456, 44.43461, -2084.099365234375]]], [[[-125.23642, 44.4328, -2427.129150390625], [-125.24037, 44.44244, -2242.685791015625], [-125.24456, 44.43461, -2084.099365234375], [-125.23642, 44.4328, -2427.129150390625]]], [[[-125.13727, 44.1931, -2094.974853515625], [-125.13935, 44.20193, -2089.562255859375], [-125.14745, 44.19675, -1884.8800048828125], [-125.13727, 44.1931, -2094.974853515625]]], [[[-125.17784, 44.29799, -2227.998291015625], [-125.18221, 44.30508, -2127.420654296875], [-125.19148, 44.29947, -1884.8800048828125], [-125.17784, 44.29799, -2227.998291015625]]], [[[-125.17411, 44.2902, -2277.67138671875], [-125.18533, 44.28203, -1884.8800048828125], [-125.17122, 44.28145, -2272.471923828125], [-125.17411, 44.2902, -2277.67138671875]]], [[[-125.24037, 44.44244, -2242.685791015625], [-125.23642, 44.4328, -2427.129150390625], [-125.22761, 44.43704, -2861.7451171875], [-125.24037, 44.44244, -2242.685791015625]]], [[[-125.22761, 44.43704, -2861.7451171875], [-125.22707, 44.44602, -2861.7451171875], [-125.24037, 44.44244, -2242.685791015625], [-125.22761, 44.43704, -2861.7451171875]]], [[[-125.13331, 44.207, -2388.023193359375], [-125.13758, 44.214, -2249.337158203125], [-125.1493, 44.20565, -1884.8800048828125], [-125.13331, 44.207, -2388.023193359375]]], [[[-125.24372, 44.39146, -2095.81591796875], [-125.25405, 44.39438, -1884.8800048828125], [-125.25117, 44.38569, -1884.8800048828125], [-125.24372, 44.39146, -2095.81591796875]]], [[[-125.14634, 44.23043, -2272.210693359375], [-125.13949, 44.23737, -2861.7451171875], [-125.15129, 44.23873, -2272.81787109375], [-125.14634, 44.23043, -2272.210693359375]]], [[[-125.12761, 44.18062, -2434.849365234375], [-125.12697, 44.1718, -2436.587646484375], [-125.1189, 44.17679, -2861.7451171875], [-125.12761, 44.18062, -2434.849365234375]]], [[[-125.23915, 44.45108, -2207.343505859375], [-125.24037, 44.44244, -2242.685791015625], [-125.22707, 44.44602, -2861.7451171875], [-125.23915, 44.45108, -2207.343505859375]]], [[[-125.13589, 44.18395, -2091.36962890625], [-125.13727, 44.1931, -2094.974853515625], [-125.1456, 44.18785, -1884.8800048828125], [-125.13589, 44.18395, -2091.36962890625]]], [[[-125.16058, 44.2555, -2273.022216796875], [-125.17028, 44.24776, -1884.8800048828125], [-125.15613, 44.24713, -2277.30322265625], [-125.16058, 44.2555, -2273.022216796875]]], [[[-125.23915, 44.45108, -2207.343505859375], [-125.25303, 44.44806, -1884.8800048828125], [-125.24037, 44.44244, -2242.685791015625], [-125.23915, 44.45108, -2207.343505859375]]], [[[-125.23915, 44.45108, -2207.343505859375], [-125.2514, 44.45694, -1884.8800048828125], [-125.25303, 44.44806, -1884.8800048828125], [-125.23915, 44.45108, -2207.343505859375]]], [[[-125.23915, 44.45108, -2207.343505859375], [-125.23876, 44.45851, -2159.499267578125], [-125.2514, 44.45694, -1884.8800048828125], [-125.23915, 44.45108, -2207.343505859375]]], [[[-125.13132, 44.13754, -2236.3291015625], [-125.11804, 44.14086, -2861.7451171875], [-125.12933, 44.14634, -2266.768310546875], [-125.13132, 44.13754, -2236.3291015625]]], [[[-125.18818, 44.33373, -2207.78759765625], [-125.17464, 44.33256, -2861.7451171875], [-125.18184, 44.33991, -2861.7451171875], [-125.18818, 44.33373, -2207.78759765625]]], [[[-125.17411, 44.2902, -2277.67138671875], [-125.16555, 44.2973, -2861.7451171875], [-125.17784, 44.29799, -2227.998291015625], [-125.17411, 44.2902, -2277.67138671875]]], [[[-125.16566, 44.26357, -2248.72119140625], [-125.16906, 44.27218, -2243.41162109375], [-125.17908, 44.26461, -1884.8800048828125], [-125.16566, 44.26357, -2248.72119140625]]], [[[-125.1493, 44.20565, -1884.8800048828125], [-125.13758, 44.214, -2249.337158203125], [-125.15115, 44.21455, -1884.8800048828125], [-125.1493, 44.20565, -1884.8800048828125]]], [[[-125.15613, 44.24713, -2277.30322265625], [-125.14437, 44.24564, -2861.7451171875], [-125.14877, 44.25405, -2861.7451171875], [-125.15613, 44.24713, -2277.30322265625]]], [[[-125.23876, 44.45851, -2159.499267578125], [-125.23915, 44.45108, -2207.343505859375], [-125.22544, 44.45493, -2861.7451171875], [-125.23876, 44.45851, -2159.499267578125]]], [[[-125.16906, 44.27218, -2243.41162109375], [-125.15941, 44.27987, -2861.7451171875], [-125.17122, 44.28145, -2272.471923828125], [-125.16906, 44.27218, -2243.41162109375]]], [[[-125.14634, 44.23043, -2272.210693359375], [-125.15549, 44.22294, -1884.8800048828125], [-125.1415, 44.22218, -2266.8828125], [-125.14634, 44.23043, -2272.210693359375]]], [[[-125.15129, 44.23873, -2272.81787109375], [-125.13949, 44.23737, -2861.7451171875], [-125.14437, 44.24564, -2861.7451171875], [-125.15129, 44.23873, -2272.81787109375]]], [[[-125.23876, 44.45851, -2159.499267578125], [-125.22544, 44.45493, -2861.7451171875], [-125.23669, 44.46477, -2145.031982421875], [-125.23876, 44.45851, -2159.499267578125]]], [[[-125.13331, 44.207, -2388.023193359375], [-125.12344, 44.20353, -2861.7451171875], [-125.12529, 44.21242, -2861.7451171875], [-125.13331, 44.207, -2388.023193359375]]], [[[-125.14424, 44.16989, -1884.8800048828125], [-125.13514, 44.17487, -2091.82177734375], [-125.14474, 44.17888, -1884.8800048828125], [-125.14424, 44.16989, -1884.8800048828125]]], [[[-125.1415, 44.22218, -2266.8828125], [-125.15115, 44.21455, -1884.8800048828125], [-125.13758, 44.214, -2249.337158203125], [-125.1415, 44.22218, -2266.8828125]]], [[[-125.12933, 44.14634, -2266.768310546875], [-125.11804, 44.14086, -2861.7451171875], [-125.11743, 44.14984, -2861.7451171875], [-125.12933, 44.14634, -2266.768310546875]]], [[[-125.16044, 44.23121, -1884.8800048828125], [-125.15129, 44.23873, -2272.81787109375], [-125.16539, 44.23947, -1884.8800048828125], [-125.16044, 44.23121, -1884.8800048828125]]], [[[-125.23876, 44.45851, -2159.499267578125], [-125.23669, 44.46477, -2145.031982421875], [-125.24862, 44.46572, -1884.8800048828125], [-125.23876, 44.45851, -2159.499267578125]]], [[[-125.16058, 44.2555, -2273.022216796875], [-125.15316, 44.26247, -2861.7451171875], [-125.16566, 44.26357, -2248.72119140625], [-125.16058, 44.2555, -2273.022216796875]]], [[[-125.23876, 44.45851, -2159.499267578125], [-125.24862, 44.46572, -1884.8800048828125], [-125.2514, 44.45694, -1884.8800048828125], [-125.23876, 44.45851, -2159.499267578125]]], [[[-125.13935, 44.20193, -2089.562255859375], [-125.1493, 44.20565, -1884.8800048828125], [-125.14745, 44.19675, -1884.8800048828125], [-125.13935, 44.20193, -2089.562255859375]]], [[[-125.23669, 44.46477, -2145.031982421875], [-125.24434, 44.47417, -1884.8800048828125], [-125.24862, 44.46572, -1884.8800048828125], [-125.23669, 44.46477, -2145.031982421875]]], [[[-125.23669, 44.46477, -2145.031982421875], [-125.23241, 44.47322, -2145.031982421875], [-125.24434, 44.47417, -1884.8800048828125], [-125.23669, 44.46477, -2145.031982421875]]], [[[-125.14634, 44.23043, -2272.210693359375], [-125.16044, 44.23121, -1884.8800048828125], [-125.15549, 44.22294, -1884.8800048828125], [-125.14634, 44.23043, -2272.210693359375]]], [[[-125.23241, 44.47322, -2145.031982421875], [-125.23669, 44.46477, -2145.031982421875], [-125.22265, 44.46369, -2861.7451171875], [-125.23241, 44.47322, -2145.031982421875]]], [[[-125.13589, 44.18395, -2091.36962890625], [-125.1456, 44.18785, -1884.8800048828125], [-125.14474, 44.17888, -1884.8800048828125], [-125.13589, 44.18395, -2091.36962890625]]], [[[-125.23241, 44.47322, -2145.031982421875], [-125.22265, 44.46369, -2861.7451171875], [-125.21837, 44.47214, -2861.7451171875], [-125.23241, 44.47322, -2145.031982421875]]], [[[-125.13589, 44.18395, -2091.36962890625], [-125.14474, 44.17888, -1884.8800048828125], [-125.13514, 44.17487, -2091.82177734375], [-125.13589, 44.18395, -2091.36962890625]]], [[[-125.15115, 44.21455, -1884.8800048828125], [-125.1415, 44.22218, -2266.8828125], [-125.15549, 44.22294, -1884.8800048828125], [-125.15115, 44.21455, -1884.8800048828125]]], [[[-125.13447, 44.16578, -2096.226806640625], [-125.13375, 44.1563, -2102.3671875], [-125.12649, 44.16282, -2436.228759765625], [-125.13447, 44.16578, -2096.226806640625]]], [[[-125.22982, 44.48188, -2145.031982421875], [-125.23241, 44.47322, -2145.031982421875], [-125.21837, 44.47214, -2861.7451171875], [-125.22982, 44.48188, -2145.031982421875]]], [[[-125.23241, 44.47322, -2145.031982421875], [-125.22982, 44.48188, -2145.031982421875], [-125.24175, 44.48284, -1884.8800048828125], [-125.23241, 44.47322, -2145.031982421875]]], [[[-125.23241, 44.47322, -2145.031982421875], [-125.24175, 44.48284, -1884.8800048828125], [-125.24434, 44.47417, -1884.8800048828125], [-125.23241, 44.47322, -2145.031982421875]]], [[[-125.23282, 44.48862, -2090.951904296875], [-125.24175, 44.48284, -1884.8800048828125], [-125.22982, 44.48188, -2145.031982421875], [-125.23282, 44.48862, -2090.951904296875]]], [[[-125.24225, 44.40728, -2207.76953125], [-125.25492, 44.41216, -1884.8800048828125], [-125.25598, 44.40327, -1884.8800048828125], [-125.24225, 44.40728, -2207.76953125]]], [[[-125.23282, 44.48862, -2090.951904296875], [-125.24241, 44.49178, -1884.8800048828125], [-125.24175, 44.48284, -1884.8800048828125], [-125.23282, 44.48862, -2090.951904296875]]], [[[-125.23195, 44.49853, -2193.81494140625], [-125.24241, 44.49178, -1884.8800048828125], [-125.23282, 44.48862, -2090.951904296875], [-125.23195, 44.49853, -2193.81494140625]]], [[[-125.12572, 44.15396, -2449.977783203125], [-125.13375, 44.1563, -2102.3671875], [-125.12933, 44.14634, -2266.768310546875], [-125.12572, 44.15396, -2449.977783203125]]], [[[-125.23195, 44.49853, -2193.81494140625], [-125.24502, 44.50058, -1884.8800048828125], [-125.24241, 44.49178, -1884.8800048828125], [-125.23195, 44.49853, -2193.81494140625]]], [[[-125.23195, 44.49853, -2193.81494140625], [-125.23477, 44.50755, -2210.583984375], [-125.24502, 44.50058, -1884.8800048828125], [-125.23195, 44.49853, -2193.81494140625]]], [[[-125.14325, 44.1519, -1884.8800048828125], [-125.13375, 44.1563, -2102.3671875], [-125.14375, 44.16089, -1884.8800048828125], [-125.14325, 44.1519, -1884.8800048828125]]], [[[-125.23195, 44.49853, -2193.81494140625], [-125.22214, 44.50699, -2861.7451171875], [-125.23477, 44.50755, -2210.583984375], [-125.23195, 44.49853, -2193.81494140625]]], [[[-125.23195, 44.49853, -2193.81494140625], [-125.21899, 44.49839, -2861.7451171875], [-125.22214, 44.50699, -2861.7451171875], [-125.23195, 44.49853, -2193.81494140625]]], [[[-125.23195, 44.49853, -2193.81494140625], [-125.22565, 44.49201, -2422.3046875], [-125.21899, 44.49839, -2861.7451171875], [-125.23195, 44.49853, -2193.81494140625]]], [[[-125.14634, 44.23043, -2272.210693359375], [-125.1415, 44.22218, -2266.8828125], [-125.13455, 44.22911, -2861.7451171875], [-125.14634, 44.23043, -2272.210693359375]]], [[[-125.2006, 44.33472, -1884.8800048828125], [-125.19589, 44.34321, -2286.196044921875], [-125.20781, 44.34202, -1884.8800048828125], [-125.2006, 44.33472, -1884.8800048828125]]], [[[-125.23195, 44.49853, -2193.81494140625], [-125.23282, 44.48862, -2090.951904296875], [-125.22565, 44.49201, -2422.3046875], [-125.23195, 44.49853, -2193.81494140625]]], [[[-125.13375, 44.1563, -2102.3671875], [-125.13447, 44.16578, -2096.226806640625], [-125.14375, 44.16089, -1884.8800048828125], [-125.13375, 44.1563, -2102.3671875]]], [[[-125.22565, 44.49201, -2422.3046875], [-125.23282, 44.48862, -2090.951904296875], [-125.22982, 44.48188, -2145.031982421875], [-125.22565, 44.49201, -2422.3046875]]], [[[-125.22511, 44.3687, -2296.1455078125], [-125.24003, 44.36961, -1884.8800048828125], [-125.23201, 44.36268, -1884.8800048828125], [-125.22511, 44.3687, -2296.1455078125]]], [[[-125.22565, 44.49201, -2422.3046875], [-125.22982, 44.48188, -2145.031982421875], [-125.21643, 44.48969, -2861.7451171875], [-125.22565, 44.49201, -2422.3046875]]], [[[-125.22565, 44.49201, -2422.3046875], [-125.21643, 44.48969, -2861.7451171875], [-125.21899, 44.49839, -2861.7451171875], [-125.22565, 44.49201, -2422.3046875]]], [[[-125.21643, 44.48969, -2861.7451171875], [-125.22982, 44.48188, -2145.031982421875], [-125.21578, 44.4808, -2861.7451171875], [-125.21643, 44.48969, -2861.7451171875]]], [[[-125.15613, 44.24713, -2277.30322265625], [-125.15129, 44.23873, -2272.81787109375], [-125.14437, 44.24564, -2861.7451171875], [-125.15613, 44.24713, -2277.30322265625]]], [[[-125.22982, 44.48188, -2145.031982421875], [-125.21837, 44.47214, -2861.7451171875], [-125.21578, 44.4808, -2861.7451171875], [-125.22982, 44.48188, -2145.031982421875]]], [[[-125.16058, 44.2555, -2273.022216796875], [-125.16566, 44.26357, -2248.72119140625], [-125.17468, 44.25618, -1884.8800048828125], [-125.16058, 44.2555, -2273.022216796875]]], [[[-125.23477, 44.50755, -2210.583984375], [-125.22214, 44.50699, -2861.7451171875], [-125.22662, 44.51529, -2861.7451171875], [-125.23477, 44.50755, -2210.583984375]]], [[[-125.23928, 44.51638, -2221.23486328125], [-125.23477, 44.50755, -2210.583984375], [-125.22662, 44.51529, -2861.7451171875], [-125.23928, 44.51638, -2221.23486328125]]], [[[-125.23928, 44.51638, -2221.23486328125], [-125.24822, 44.50926, -1884.8800048828125], [-125.23477, 44.50755, -2210.583984375], [-125.23928, 44.51638, -2221.23486328125]]], [[[-125.16058, 44.2555, -2273.022216796875], [-125.17468, 44.25618, -1884.8800048828125], [-125.17028, 44.24776, -1884.8800048828125], [-125.16058, 44.2555, -2273.022216796875]]], [[[-125.23928, 44.51638, -2221.23486328125], [-125.25279, 44.51764, -1884.8800048828125], [-125.24822, 44.50926, -1884.8800048828125], [-125.23928, 44.51638, -2221.23486328125]]], [[[-125.12933, 44.14634, -2266.768310546875], [-125.14325, 44.1519, -1884.8800048828125], [-125.14386, 44.14292, -1884.8800048828125], [-125.12933, 44.14634, -2266.768310546875]]], [[[-125.23928, 44.51638, -2221.23486328125], [-125.23156, 44.52345, -2861.7451171875], [-125.24562, 44.52453, -2145.031982421875], [-125.23928, 44.51638, -2221.23486328125]]], [[[-125.13758, 44.214, -2249.337158203125], [-125.12961, 44.22085, -2861.7451171875], [-125.1415, 44.22218, -2266.8828125], [-125.13758, 44.214, -2249.337158203125]]], [[[-125.23743, 44.38523, -2250.760498046875], [-125.24372, 44.39146, -2095.81591796875], [-125.25117, 44.38569, -1884.8800048828125], [-125.23743, 44.38523, -2250.760498046875]]], [[[-125.23928, 44.51638, -2221.23486328125], [-125.22662, 44.51529, -2861.7451171875], [-125.23156, 44.52345, -2861.7451171875], [-125.23928, 44.51638, -2221.23486328125]]], [[[-125.23477, 44.50755, -2210.583984375], [-125.24822, 44.50926, -1884.8800048828125], [-125.24502, 44.50058, -1884.8800048828125], [-125.23477, 44.50755, -2210.583984375]]], [[[-125.22544, 44.45493, -2861.7451171875], [-125.22265, 44.46369, -2861.7451171875], [-125.23669, 44.46477, -2145.031982421875], [-125.22544, 44.45493, -2861.7451171875]]], [[[-125.23915, 44.45108, -2207.343505859375], [-125.22707, 44.44602, -2861.7451171875], [-125.22544, 44.45493, -2861.7451171875], [-125.23915, 44.45108, -2207.343505859375]]], [[[-125.12761, 44.18062, -2434.849365234375], [-125.11975, 44.18575, -2861.7451171875], [-125.12886, 44.18937, -2430.151123046875], [-125.12761, 44.18062, -2434.849365234375]]], [[[-125.24037, 44.44244, -2242.685791015625], [-125.25303, 44.44806, -1884.8800048828125], [-125.25356, 44.43907, -1884.8800048828125], [-125.24037, 44.44244, -2242.685791015625]]], [[[-125.23642, 44.4328, -2427.129150390625], [-125.22793, 44.42805, -2861.7451171875], [-125.22761, 44.43704, -2861.7451171875], [-125.23642, 44.4328, -2427.129150390625]]], [[[-125.13331, 44.207, -2388.023193359375], [-125.1306, 44.19827, -2436.0498046875], [-125.12344, 44.20353, -2861.7451171875], [-125.13331, 44.207, -2388.023193359375]]], [[[-125.16539, 44.23947, -1884.8800048828125], [-125.15613, 44.24713, -2277.30322265625], [-125.17028, 44.24776, -1884.8800048828125], [-125.16539, 44.23947, -1884.8800048828125]]], [[[-125.23642, 44.4328, -2427.129150390625], [-125.23592, 44.42331, -2447.049560546875], [-125.22793, 44.42805, -2861.7451171875], [-125.23642, 44.4328, -2427.129150390625]]], [[[-125.23592, 44.42331, -2447.049560546875], [-125.23642, 44.4328, -2427.129150390625], [-125.24397, 44.42575, -2098.285888671875], [-125.23592, 44.42331, -2447.049560546875]]], [[[-125.12886, 44.18937, -2430.151123046875], [-125.12159, 44.19464, -2861.7451171875], [-125.1306, 44.19827, -2436.0498046875], [-125.12886, 44.18937, -2430.151123046875]]], [[[-125.23592, 44.42331, -2447.049560546875], [-125.24397, 44.42575, -2098.285888671875], [-125.24133, 44.41594, -2192.793701171875], [-125.23592, 44.42331, -2447.049560546875]]], [[[-125.13727, 44.1931, -2094.974853515625], [-125.12886, 44.18937, -2430.151123046875], [-125.1306, 44.19827, -2436.0498046875], [-125.13727, 44.1931, -2094.974853515625]]], [[[-125.23592, 44.42331, -2447.049560546875], [-125.24133, 44.41594, -2192.793701171875], [-125.22759, 44.41907, -2861.7451171875], [-125.23592, 44.42331, -2447.049560546875]]], [[[-125.23592, 44.42331, -2447.049560546875], [-125.22759, 44.41907, -2861.7451171875], [-125.22793, 44.42805, -2861.7451171875], [-125.23592, 44.42331, -2447.049560546875]]], [[[-125.13447, 44.16578, -2096.226806640625], [-125.12697, 44.1718, -2436.587646484375], [-125.13514, 44.17487, -2091.82177734375], [-125.13447, 44.16578, -2096.226806640625]]], [[[-125.22898, 44.41014, -2861.7451171875], [-125.22759, 44.41907, -2861.7451171875], [-125.24133, 44.41594, -2192.793701171875], [-125.22898, 44.41014, -2861.7451171875]]], [[[-125.13918, 44.12897, -2015.3548583984375], [-125.14471, 44.13394, -1884.8800048828125], [-125.14556, 44.12496, -1884.8800048828125], [-125.13918, 44.12897, -2015.3548583984375]]], [[[-125.24225, 44.40728, -2207.76953125], [-125.22898, 44.41014, -2861.7451171875], [-125.24133, 44.41594, -2192.793701171875], [-125.24225, 44.40728, -2207.76953125]]], [[[-125.13132, 44.13754, -2236.3291015625], [-125.12933, 44.14634, -2266.768310546875], [-125.14386, 44.14292, -1884.8800048828125], [-125.13132, 44.13754, -2236.3291015625]]], [[[-125.24225, 44.40728, -2207.76953125], [-125.23003, 44.40118, -2861.7451171875], [-125.22898, 44.41014, -2861.7451171875], [-125.24225, 44.40728, -2207.76953125]]], [[[-125.12697, 44.1718, -2436.587646484375], [-125.11841, 44.16781, -2861.7451171875], [-125.1189, 44.17679, -2861.7451171875], [-125.12697, 44.1718, -2436.587646484375]]], [[[-125.24414, 44.40001, -2132.280029296875], [-125.23003, 44.40118, -2861.7451171875], [-125.24225, 44.40728, -2207.76953125], [-125.24414, 44.40001, -2132.280029296875]]], [[[-125.1337, 44.124, -2145.031982421875], [-125.13918, 44.12897, -2015.3548583984375], [-125.14556, 44.12496, -1884.8800048828125], [-125.1337, 44.124, -2145.031982421875]]], [[[-125.24414, 44.40001, -2132.280029296875], [-125.23676, 44.39526, -2449.6279296875], [-125.23003, 44.40118, -2861.7451171875], [-125.24414, 44.40001, -2132.280029296875]]], [[[-125.12932, 44.12951, -2354.899169921875], [-125.1337, 44.124, -2145.031982421875], [-125.11974, 44.1229, -2861.7451171875], [-125.12932, 44.12951, -2354.899169921875]]], [[[-125.23676, 44.39526, -2449.6279296875], [-125.24414, 44.40001, -2132.280029296875], [-125.24372, 44.39146, -2095.81591796875], [-125.23676, 44.39526, -2449.6279296875]]], [[[-125.23743, 44.38523, -2250.760498046875], [-125.23676, 44.39526, -2449.6279296875], [-125.24372, 44.39146, -2095.81591796875], [-125.23743, 44.38523, -2250.760498046875]]], [[[-125.14471, 44.13394, -1884.8800048828125], [-125.13918, 44.12897, -2015.3548583984375], [-125.13132, 44.13754, -2236.3291015625], [-125.14471, 44.13394, -1884.8800048828125]]], [[[-125.23676, 44.39526, -2449.6279296875], [-125.23743, 44.38523, -2250.760498046875], [-125.2281, 44.3923, -2861.7451171875], [-125.23676, 44.39526, -2449.6279296875]]], [[[-125.12649, 44.16282, -2436.228759765625], [-125.12572, 44.15396, -2449.977783203125], [-125.11792, 44.15882, -2861.7451171875], [-125.12649, 44.16282, -2436.228759765625]]], [[[-125.2281, 44.3923, -2861.7451171875], [-125.23003, 44.40118, -2861.7451171875], [-125.23676, 44.39526, -2449.6279296875], [-125.2281, 44.3923, -2861.7451171875]]], [[[-125.23743, 44.38523, -2250.760498046875], [-125.22517, 44.38356, -2861.7451171875], [-125.2281, 44.3923, -2861.7451171875], [-125.23743, 44.38523, -2250.760498046875]]], [[[-125.12932, 44.12951, -2354.899169921875], [-125.13918, 44.12897, -2015.3548583984375], [-125.1337, 44.124, -2145.031982421875], [-125.12932, 44.12951, -2354.899169921875]]], [[[-125.23743, 44.38523, -2250.760498046875], [-125.23225, 44.37681, -2239.93017578125], [-125.22517, 44.38356, -2861.7451171875], [-125.23743, 44.38523, -2250.760498046875]]], [[[-125.13132, 44.13754, -2236.3291015625], [-125.11889, 44.13188, -2861.7451171875], [-125.11804, 44.14086, -2861.7451171875], [-125.13132, 44.13754, -2236.3291015625]]], [[[-125.23225, 44.37681, -2239.93017578125], [-125.23743, 44.38523, -2250.760498046875], [-125.24578, 44.37757, -1884.8800048828125], [-125.23225, 44.37681, -2239.93017578125]]], [[[-125.12932, 44.12951, -2354.899169921875], [-125.11974, 44.1229, -2861.7451171875], [-125.11889, 44.13188, -2861.7451171875], [-125.12932, 44.12951, -2354.899169921875]]], [[[-125.23225, 44.37681, -2239.93017578125], [-125.24578, 44.37757, -1884.8800048828125], [-125.24003, 44.36961, -1884.8800048828125], [-125.23225, 44.37681, -2239.93017578125]]], [[[-125.22511, 44.3687, -2296.1455078125], [-125.23225, 44.37681, -2239.93017578125], [-125.24003, 44.36961, -1884.8800048828125], [-125.22511, 44.3687, -2296.1455078125]]], [[[-125.23225, 44.37681, -2239.93017578125], [-125.22511, 44.3687, -2296.1455078125], [-125.21979, 44.37545, -2861.7451171875], [-125.23225, 44.37681, -2239.93017578125]]], [[[-125.13935, 44.20193, -2089.562255859375], [-125.13727, 44.1931, -2094.974853515625], [-125.1306, 44.19827, -2436.0498046875], [-125.13935, 44.20193, -2089.562255859375]]], [[[-125.21979, 44.37545, -2861.7451171875], [-125.22517, 44.38356, -2861.7451171875], [-125.23225, 44.37681, -2239.93017578125], [-125.21979, 44.37545, -2861.7451171875]]], [[[-125.12697, 44.1718, -2436.587646484375], [-125.13447, 44.16578, -2096.226806640625], [-125.12649, 44.16282, -2436.228759765625], [-125.12697, 44.1718, -2436.587646484375]]], [[[-125.24562, 44.52453, -2145.031982421875], [-125.25756, 44.52548, -1884.8800048828125], [-125.25279, 44.51764, -1884.8800048828125], [-125.24562, 44.52453, -2145.031982421875]]], [[[-125.214, 44.36748, -2861.7451171875], [-125.21979, 44.37545, -2861.7451171875], [-125.22511, 44.3687, -2296.1455078125], [-125.214, 44.36748, -2861.7451171875]]], [[[-125.13935, 44.20193, -2089.562255859375], [-125.1306, 44.19827, -2436.0498046875], [-125.13331, 44.207, -2388.023193359375], [-125.13935, 44.20193, -2089.562255859375]]], [[[-125.22511, 44.3687, -2296.1455078125], [-125.21666, 44.36022, -2242.357177734375], [-125.214, 44.36748, -2861.7451171875], [-125.22511, 44.3687, -2296.1455078125]]], [[[-125.21666, 44.36022, -2242.357177734375], [-125.22511, 44.3687, -2296.1455078125], [-125.23201, 44.36268, -1884.8800048828125], [-125.21666, 44.36022, -2242.357177734375]]], [[[-125.21666, 44.36022, -2242.357177734375], [-125.23201, 44.36268, -1884.8800048828125], [-125.22399, 44.35576, -1884.8800048828125], [-125.21666, 44.36022, -2242.357177734375]]], [[[-125.13935, 44.20193, -2089.562255859375], [-125.13331, 44.207, -2388.023193359375], [-125.1493, 44.20565, -1884.8800048828125], [-125.13935, 44.20193, -2089.562255859375]]], [[[-125.21574, 44.34899, -1884.8800048828125], [-125.21666, 44.36022, -2242.357177734375], [-125.22399, 44.35576, -1884.8800048828125], [-125.21574, 44.34899, -1884.8800048828125]]], [[[-125.13727, 44.1931, -2094.974853515625], [-125.13589, 44.18395, -2091.36962890625], [-125.12886, 44.18937, -2430.151123046875], [-125.13727, 44.1931, -2094.974853515625]]], [[[-125.21574, 44.34899, -1884.8800048828125], [-125.20677, 44.3521, -2270.11865234375], [-125.21666, 44.36022, -2242.357177734375], [-125.21574, 44.34899, -1884.8800048828125]]], [[[-125.12649, 44.16282, -2436.228759765625], [-125.11792, 44.15882, -2861.7451171875], [-125.11841, 44.16781, -2861.7451171875], [-125.12649, 44.16282, -2436.228759765625]]], [[[-125.20781, 44.34202, -1884.8800048828125], [-125.20677, 44.3521, -2270.11865234375], [-125.21574, 44.34899, -1884.8800048828125], [-125.20781, 44.34202, -1884.8800048828125]]], [[[-125.13132, 44.13754, -2236.3291015625], [-125.12932, 44.12951, -2354.899169921875], [-125.11889, 44.13188, -2861.7451171875], [-125.13132, 44.13754, -2236.3291015625]]], [[[-125.19589, 44.34321, -2286.196044921875], [-125.20677, 44.3521, -2270.11865234375], [-125.20781, 44.34202, -1884.8800048828125], [-125.19589, 44.34321, -2286.196044921875]]], [[[-125.23928, 44.51638, -2221.23486328125], [-125.24562, 44.52453, -2145.031982421875], [-125.25279, 44.51764, -1884.8800048828125], [-125.23928, 44.51638, -2221.23486328125]]], [[[-125.20677, 44.3521, -2270.11865234375], [-125.19589, 44.34321, -2286.196044921875], [-125.19799, 44.35365, -2861.7451171875], [-125.20677, 44.3521, -2270.11865234375]]], [[[-125.12932, 44.12951, -2354.899169921875], [-125.13132, 44.13754, -2236.3291015625], [-125.13918, 44.12897, -2015.3548583984375], [-125.12932, 44.12951, -2354.899169921875]]], [[[-125.19799, 44.35365, -2861.7451171875], [-125.206, 44.36056, -2861.7451171875], [-125.20677, 44.3521, -2270.11865234375], [-125.19799, 44.35365, -2861.7451171875]]], [[[-125.21666, 44.36022, -2242.357177734375], [-125.20677, 44.3521, -2270.11865234375], [-125.206, 44.36056, -2861.7451171875], [-125.21666, 44.36022, -2242.357177734375]]], [[[-125.206, 44.36056, -2861.7451171875], [-125.214, 44.36748, -2861.7451171875], [-125.21666, 44.36022, -2242.357177734375], [-125.206, 44.36056, -2861.7451171875]]], [[[-125.12572, 44.15396, -2449.977783203125], [-125.11743, 44.14984, -2861.7451171875], [-125.11792, 44.15882, -2861.7451171875], [-125.12572, 44.15396, -2449.977783203125]]], [[[-125.19589, 44.34321, -2286.196044921875], [-125.18975, 44.34688, -2861.7451171875], [-125.19799, 44.35365, -2861.7451171875], [-125.19589, 44.34321, -2286.196044921875]]], [[[-125.19589, 44.34321, -2286.196044921875], [-125.18184, 44.33991, -2861.7451171875], [-125.18975, 44.34688, -2861.7451171875], [-125.19589, 44.34321, -2286.196044921875]]], [[[-125.12572, 44.15396, -2449.977783203125], [-125.12649, 44.16282, -2436.228759765625], [-125.13375, 44.1563, -2102.3671875], [-125.12572, 44.15396, -2449.977783203125]]], [[[-125.19589, 44.34321, -2286.196044921875], [-125.18818, 44.33373, -2207.78759765625], [-125.18184, 44.33991, -2861.7451171875], [-125.19589, 44.34321, -2286.196044921875]]], [[[-125.23642, 44.4328, -2427.129150390625], [-125.24456, 44.43461, -2084.099365234375], [-125.24397, 44.42575, -2098.285888671875], [-125.23642, 44.4328, -2427.129150390625]]], [[[-125.18818, 44.33373, -2207.78759765625], [-125.19589, 44.34321, -2286.196044921875], [-125.2006, 44.33472, -1884.8800048828125], [-125.18818, 44.33373, -2207.78759765625]]], [[[-125.13589, 44.18395, -2091.36962890625], [-125.13514, 44.17487, -2091.82177734375], [-125.12761, 44.18062, -2434.849365234375], [-125.13589, 44.18395, -2091.36962890625]]], [[[-125.19698, 44.32611, -1884.8800048828125], [-125.18818, 44.33373, -2207.78759765625], [-125.2006, 44.33472, -1884.8800048828125], [-125.19698, 44.32611, -1884.8800048828125]]], [[[-125.18334, 44.32581, -2260.891357421875], [-125.18818, 44.33373, -2207.78759765625], [-125.19698, 44.32611, -1884.8800048828125], [-125.18334, 44.32581, -2260.891357421875]]], [[[-125.18334, 44.32581, -2260.891357421875], [-125.17464, 44.33256, -2861.7451171875], [-125.18818, 44.33373, -2207.78759765625], [-125.18334, 44.32581, -2260.891357421875]]], [[[-125.18334, 44.32581, -2260.891357421875], [-125.17105, 44.32395, -2861.7451171875], [-125.17464, 44.33256, -2861.7451171875], [-125.18334, 44.32581, -2260.891357421875]]], [[[-125.24414, 44.40001, -2132.280029296875], [-125.25598, 44.40327, -1884.8800048828125], [-125.25405, 44.39438, -1884.8800048828125], [-125.24414, 44.40001, -2132.280029296875]]], [[[-125.1795, 44.31856, -2376.178955078125], [-125.17105, 44.32395, -2861.7451171875], [-125.18334, 44.32581, -2260.891357421875], [-125.1795, 44.31856, -2376.178955078125]]], [[[-125.1795, 44.31856, -2376.178955078125], [-125.1692, 44.31506, -2861.7451171875], [-125.17105, 44.32395, -2861.7451171875], [-125.1795, 44.31856, -2376.178955078125]]], [[[-125.1415, 44.22218, -2266.8828125], [-125.12961, 44.22085, -2861.7451171875], [-125.13455, 44.22911, -2861.7451171875], [-125.1415, 44.22218, -2266.8828125]]], [[[-125.1795, 44.31856, -2376.178955078125], [-125.17642, 44.31009, -2456.466552734375], [-125.1692, 44.31506, -2861.7451171875], [-125.1795, 44.31856, -2376.178955078125]]], [[[-125.17642, 44.31009, -2456.466552734375], [-125.1795, 44.31856, -2376.178955078125], [-125.18549, 44.3134, -2085.574462890625], [-125.17642, 44.31009, -2456.466552734375]]], [[[-125.16243, 44.28859, -2861.7451171875], [-125.17122, 44.28145, -2272.471923828125], [-125.15941, 44.27987, -2861.7451171875], [-125.16243, 44.28859, -2861.7451171875]]], [[[-125.17642, 44.31009, -2456.466552734375], [-125.18549, 44.3134, -2085.574462890625], [-125.18221, 44.30508, -2127.420654296875], [-125.17642, 44.31009, -2456.466552734375]]], [[[-125.17642, 44.31009, -2456.466552734375], [-125.18221, 44.30508, -2127.420654296875], [-125.16793, 44.30612, -2861.7451171875], [-125.17642, 44.31009, -2456.466552734375]]], [[[-125.17642, 44.31009, -2456.466552734375], [-125.16793, 44.30612, -2861.7451171875], [-125.1692, 44.31506, -2861.7451171875], [-125.17642, 44.31009, -2456.466552734375]]], [[[-125.17784, 44.29799, -2227.998291015625], [-125.16793, 44.30612, -2861.7451171875], [-125.18221, 44.30508, -2127.420654296875], [-125.17784, 44.29799, -2227.998291015625]]], [[[-125.13447, 44.16578, -2096.226806640625], [-125.14424, 44.16989, -1884.8800048828125], [-125.14375, 44.16089, -1884.8800048828125], [-125.13447, 44.16578, -2096.226806640625]]], [[[-125.17784, 44.29799, -2227.998291015625], [-125.16555, 44.2973, -2861.7451171875], [-125.16793, 44.30612, -2861.7451171875], [-125.17784, 44.29799, -2227.998291015625]]], [[[-125.23743, 44.38523, -2250.760498046875], [-125.25117, 44.38569, -1884.8800048828125], [-125.24578, 44.37757, -1884.8800048828125], [-125.23743, 44.38523, -2250.760498046875]]], [[[-125.17411, 44.2902, -2277.67138671875], [-125.16243, 44.28859, -2861.7451171875], [-125.16555, 44.2973, -2861.7451171875], [-125.17411, 44.2902, -2277.67138671875]]], [[[-125.17411, 44.2902, -2277.67138671875], [-125.17122, 44.28145, -2272.471923828125], [-125.16243, 44.28859, -2861.7451171875], [-125.17411, 44.2902, -2277.67138671875]]], [[[-125.18533, 44.28203, -1884.8800048828125], [-125.17411, 44.2902, -2277.67138671875], [-125.18836, 44.29076, -1884.8800048828125], [-125.18533, 44.28203, -1884.8800048828125]]], [[[-125.17411, 44.2902, -2277.67138671875], [-125.17784, 44.29799, -2227.998291015625], [-125.18836, 44.29076, -1884.8800048828125], [-125.17411, 44.2902, -2277.67138671875]]], [[[-125.1306, 44.19827, -2436.0498046875], [-125.12159, 44.19464, -2861.7451171875], [-125.12344, 44.20353, -2861.7451171875], [-125.1306, 44.19827, -2436.0498046875]]], [[[-125.18221, 44.30508, -2127.420654296875], [-125.19385, 44.30829, -1884.8800048828125], [-125.19148, 44.29947, -1884.8800048828125], [-125.18221, 44.30508, -2127.420654296875]]], [[[-125.12933, 44.14634, -2266.768310546875], [-125.13375, 44.1563, -2102.3671875], [-125.14325, 44.1519, -1884.8800048828125], [-125.12933, 44.14634, -2266.768310546875]]], [[[-125.18221, 44.30508, -2127.420654296875], [-125.18549, 44.3134, -2085.574462890625], [-125.19385, 44.30829, -1884.8800048828125], [-125.18221, 44.30508, -2127.420654296875]]], [[[-125.1795, 44.31856, -2376.178955078125], [-125.19511, 44.31724, -1884.8800048828125], [-125.18549, 44.3134, -2085.574462890625], [-125.1795, 44.31856, -2376.178955078125]]], [[[-125.1795, 44.31856, -2376.178955078125], [-125.18334, 44.32581, -2260.891357421875], [-125.19511, 44.31724, -1884.8800048828125], [-125.1795, 44.31856, -2376.178955078125]]], [[[-125.16058, 44.2555, -2273.022216796875], [-125.15613, 44.24713, -2277.30322265625], [-125.14877, 44.25405, -2861.7451171875], [-125.16058, 44.2555, -2273.022216796875]]], [[[-125.24372, 44.39146, -2095.81591796875], [-125.24414, 44.40001, -2132.280029296875], [-125.25405, 44.39438, -1884.8800048828125], [-125.24372, 44.39146, -2095.81591796875]]], [[[-125.18235, 44.27328, -1884.8800048828125], [-125.17122, 44.28145, -2272.471923828125], [-125.18533, 44.28203, -1884.8800048828125], [-125.18235, 44.27328, -1884.8800048828125]]], [[[-125.12761, 44.18062, -2434.849365234375], [-125.1189, 44.17679, -2861.7451171875], [-125.11975, 44.18575, -2861.7451171875], [-125.12761, 44.18062, -2434.849365234375]]], [[[-125.16906, 44.27218, -2243.41162109375], [-125.15644, 44.27114, -2861.7451171875], [-125.15941, 44.27987, -2861.7451171875], [-125.16906, 44.27218, -2243.41162109375]]], [[[-125.16566, 44.26357, -2248.72119140625], [-125.15644, 44.27114, -2861.7451171875], [-125.16906, 44.27218, -2243.41162109375], [-125.16566, 44.26357, -2248.72119140625]]], [[[-125.16566, 44.26357, -2248.72119140625], [-125.15316, 44.26247, -2861.7451171875], [-125.15644, 44.27114, -2861.7451171875], [-125.16566, 44.26357, -2248.72119140625]]], [[[-125.12761, 44.18062, -2434.849365234375], [-125.12886, 44.18937, -2430.151123046875], [-125.13589, 44.18395, -2091.36962890625], [-125.12761, 44.18062, -2434.849365234375]]], [[[-125.24225, 44.40728, -2207.76953125], [-125.24133, 44.41594, -2192.793701171875], [-125.25492, 44.41216, -1884.8800048828125], [-125.24225, 44.40728, -2207.76953125]]], [[[-125.16058, 44.2555, -2273.022216796875], [-125.14877, 44.25405, -2861.7451171875], [-125.15316, 44.26247, -2861.7451171875], [-125.16058, 44.2555, -2273.022216796875]]], [[[-125.16566, 44.26357, -2248.72119140625], [-125.17908, 44.26461, -1884.8800048828125], [-125.17468, 44.25618, -1884.8800048828125], [-125.16566, 44.26357, -2248.72119140625]]], [[[-125.1456, 44.18785, -1884.8800048828125], [-125.13727, 44.1931, -2094.974853515625], [-125.14745, 44.19675, -1884.8800048828125], [-125.1456, 44.18785, -1884.8800048828125]]], [[[-125.12886, 44.18937, -2430.151123046875], [-125.11975, 44.18575, -2861.7451171875], [-125.12159, 44.19464, -2861.7451171875], [-125.12886, 44.18937, -2430.151123046875]]], [[[-125.13447, 44.16578, -2096.226806640625], [-125.13514, 44.17487, -2091.82177734375], [-125.14424, 44.16989, -1884.8800048828125], [-125.13447, 44.16578, -2096.226806640625]]]]}}]}