{"type": "FeatureCollection", "features": [{"type": "Feature", "properties": {"name": "AW_CORE_6", "CFM_ID": 215, "region": "Offshore_OR", "primary_state/province": "OR", "secondary_state/province": null, "avg_dip": 49, "dip_dir": "NE", "rake": 90, "slip_sense": "Reverse", "fault_level": 2, "NSHM23_sliprates": null, "QFFDAgeCatBin": null, "QFFDAgeBin": null, "upper_depth": -1.3, "upper_depth_constraint": "seismic imaging", "lower_depth": -5.1, "lower_depth_constraint": "megathrust", "3D_model_constraints": "trace and 1 MCS line", "reference": "Lucas et al. (2025); Carbotte et al. (2023)", "nshm23_id": null, "lineage": null, "usgs_qffd_#": null, "comments": "fault depth interpretation from Lucas et al. (2025); Carbotte et al. (2023) used to aid in model building", "id": "215"}, "geometry": {"type": "MultiPolygon", "coordinates": [[[[-125.15516, 44.47273, -4187.14013671875], [-125.15865, 44.46144, -3547.22021484375], [-125.14906, 44.46069, -4187.14013671875], [-125.15516, 44.47273, -4187.14013671875]]], [[[-125.16475, 44.47348, -3547.22021484375], [-125.17477, 44.47432, -2949.14013671875], [-125.16866, 44.46227, -2949.14013671875], [-125.16475, 44.47348, -3547.22021484375]]], [[[-125.21208, 44.52997, -2949.14013671875], [-125.2192, 44.53047, -2138.7880859375], [-125.21475, 44.52147, -2196.7841796875], [-125.21208, 44.52997, -2949.14013671875]]], [[[-125.19113, 44.48863, -2178.01513671875], [-125.19522, 44.48309, -1347.0999755859375], [-125.18719, 44.48137, -2112.16650390625], [-125.19113, 44.48863, -2178.01513671875]]], [[[-125.18188, 44.47482, -2138.7880859375], [-125.18312, 44.46334, -1347.0999755859375], [-125.17577, 44.46278, -2138.7880859375], [-125.18188, 44.47482, -2138.7880859375]]], [[[-125.16491, 44.49178, -4355.67236328125], [-125.15452, 44.49145, -5064.03271484375], [-125.15908, 44.49943, -5050.15234375], [-125.16491, 44.49178, -4355.67236328125]]], [[[-125.20058, 44.50545, -2147.9560546875], [-125.2073, 44.51372, -2174.7001953125], [-125.20901, 44.50754, -1347.0999755859375], [-125.20058, 44.50545, -2147.9560546875]]], [[[-125.18667, 44.52199, -4401.88427734375], [-125.18101, 44.52748, -4949.046875], [-125.19246, 44.52839, -4187.14013671875], [-125.18667, 44.52199, -4401.88427734375]]], [[[-125.17967, 44.51478, -4493.60205078125], [-125.17746, 44.51988, -4975.34619140625], [-125.18667, 44.52199, -4401.88427734375], [-125.17967, 44.51478, -4493.60205078125]]], [[[-125.17056, 44.48271, -3622.49951171875], [-125.16031, 44.48279, -4341.7685546875], [-125.16491, 44.49178, -4355.67236328125], [-125.17056, 44.48271, -3622.49951171875]]], [[[-125.16497, 44.50693, -5028.22412109375], [-125.1716, 44.51375, -5001.7529296875], [-125.17444, 44.50713, -4363.49658203125], [-125.16497, 44.50693, -5028.22412109375]]], [[[-125.19643, 44.52056, -3688.597900390625], [-125.18667, 44.52199, -4401.88427734375], [-125.19246, 44.52839, -4187.14013671875], [-125.19643, 44.52056, -3688.597900390625]]], [[[-125.2073, 44.51372, -2174.7001953125], [-125.21475, 44.52147, -2196.7841796875], [-125.21571, 44.51512, -1347.0999755859375], [-125.2073, 44.51372, -2174.7001953125]]], [[[-125.18809, 44.51539, -3928.13525390625], [-125.18667, 44.52199, -4401.88427734375], [-125.19643, 44.52056, -3688.597900390625], [-125.18809, 44.51539, -3928.13525390625]]], [[[-125.17477, 44.47432, -2949.14013671875], [-125.17577, 44.46278, -2138.7880859375], [-125.16866, 44.46227, -2949.14013671875], [-125.17477, 44.47432, -2949.14013671875]]], [[[-125.17967, 44.51478, -4493.60205078125], [-125.18667, 44.52199, -4401.88427734375], [-125.18809, 44.51539, -3928.13525390625], [-125.17967, 44.51478, -4493.60205078125]]], [[[-125.17967, 44.51478, -4493.60205078125], [-125.1716, 44.51375, -5001.7529296875], [-125.17746, 44.51988, -4975.34619140625], [-125.17967, 44.51478, -4493.60205078125]]], [[[-125.17967, 44.51478, -4493.60205078125], [-125.17444, 44.50713, -4363.49658203125], [-125.1716, 44.51375, -5001.7529296875], [-125.17967, 44.51478, -4493.60205078125]]], [[[-125.17967, 44.51478, -4493.60205078125], [-125.18524, 44.50842, -3670.9892578125], [-125.17444, 44.50713, -4363.49658203125], [-125.17967, 44.51478, -4493.60205078125]]], [[[-125.17967, 44.51478, -4493.60205078125], [-125.18809, 44.51539, -3928.13525390625], [-125.18524, 44.50842, -3670.9892578125], [-125.17967, 44.51478, -4493.60205078125]]], [[[-125.18524, 44.50842, -3670.9892578125], [-125.18809, 44.51539, -3928.13525390625], [-125.19783, 44.51247, -3078.049560546875], [-125.18524, 44.50842, -3670.9892578125]]], [[[-125.19204, 44.5029, -2960.43603515625], [-125.18524, 44.50842, -3670.9892578125], [-125.19783, 44.51247, -3078.049560546875], [-125.19204, 44.5029, -2960.43603515625]]], [[[-125.19204, 44.5029, -2960.43603515625], [-125.18011, 44.50103, -3645.863037109375], [-125.18524, 44.50842, -3670.9892578125], [-125.19204, 44.5029, -2960.43603515625]]], [[[-125.19204, 44.5029, -2960.43603515625], [-125.1867, 44.49406, -2985.34912109375], [-125.18011, 44.50103, -3645.863037109375], [-125.19204, 44.5029, -2960.43603515625]]], [[[-125.19204, 44.5029, -2960.43603515625], [-125.19544, 44.49681, -2136.345458984375], [-125.1867, 44.49406, -2985.34912109375], [-125.19204, 44.5029, -2960.43603515625]]], [[[-125.16928, 44.4999, -4354.84716796875], [-125.15908, 44.49943, -5050.15234375], [-125.16497, 44.50693, -5028.22412109375], [-125.16928, 44.4999, -4354.84716796875]]], [[[-125.19204, 44.5029, -2960.43603515625], [-125.20058, 44.50545, -2147.9560546875], [-125.19544, 44.49681, -2136.345458984375], [-125.19204, 44.5029, -2960.43603515625]]], [[[-125.19204, 44.5029, -2960.43603515625], [-125.19783, 44.51247, -3078.049560546875], [-125.20058, 44.50545, -2147.9560546875], [-125.19204, 44.5029, -2960.43603515625]]], [[[-125.18312, 44.46334, -1347.0999755859375], [-125.18188, 44.47482, -2138.7880859375], [-125.18923, 44.47538, -1347.0999755859375], [-125.18312, 44.46334, -1347.0999755859375]]], [[[-125.19783, 44.51247, -3078.049560546875], [-125.2073, 44.51372, -2174.7001953125], [-125.20058, 44.50545, -2147.9560546875], [-125.19783, 44.51247, -3078.049560546875]]], [[[-125.19783, 44.51247, -3078.049560546875], [-125.20678, 44.52106, -3040.99072265625], [-125.2073, 44.51372, -2174.7001953125], [-125.19783, 44.51247, -3078.049560546875]]], [[[-125.19783, 44.51247, -3078.049560546875], [-125.19643, 44.52056, -3688.597900390625], [-125.20678, 44.52106, -3040.99072265625], [-125.19783, 44.51247, -3078.049560546875]]], [[[-125.18719, 44.48137, -2112.16650390625], [-125.18134, 44.48376, -2976.765380859375], [-125.19113, 44.48863, -2178.01513671875], [-125.18719, 44.48137, -2112.16650390625]]], [[[-125.19783, 44.51247, -3078.049560546875], [-125.18809, 44.51539, -3928.13525390625], [-125.19643, 44.52056, -3688.597900390625], [-125.19783, 44.51247, -3078.049560546875]]], [[[-125.19643, 44.52056, -3688.597900390625], [-125.20206, 44.52914, -3547.22021484375], [-125.20678, 44.52106, -3040.99072265625], [-125.19643, 44.52056, -3688.597900390625]]], [[[-125.19643, 44.52056, -3688.597900390625], [-125.19246, 44.52839, -4187.14013671875], [-125.20206, 44.52914, -3547.22021484375], [-125.19643, 44.52056, -3688.597900390625]]], [[[-125.19113, 44.48863, -2178.01513671875], [-125.19983, 44.49091, -1347.0999755859375], [-125.19522, 44.48309, -1347.0999755859375], [-125.19113, 44.48863, -2178.01513671875]]], [[[-125.20678, 44.52106, -3040.99072265625], [-125.20206, 44.52914, -3547.22021484375], [-125.21208, 44.52997, -2949.14013671875], [-125.20678, 44.52106, -3040.99072265625]]], [[[-125.20678, 44.52106, -3040.99072265625], [-125.21208, 44.52997, -2949.14013671875], [-125.21475, 44.52147, -2196.7841796875], [-125.20678, 44.52106, -3040.99072265625]]], [[[-125.21475, 44.52147, -2196.7841796875], [-125.2073, 44.51372, -2174.7001953125], [-125.20678, 44.52106, -3040.99072265625], [-125.21475, 44.52147, -2196.7841796875]]], [[[-125.2073, 44.51372, -2174.7001953125], [-125.21571, 44.51512, -1347.0999755859375], [-125.20901, 44.50754, -1347.0999755859375], [-125.2073, 44.51372, -2174.7001953125]]], [[[-125.20058, 44.50545, -2147.9560546875], [-125.20901, 44.50754, -1347.0999755859375], [-125.2037, 44.49938, -1347.0999755859375], [-125.20058, 44.50545, -2147.9560546875]]], [[[-125.19544, 44.49681, -2136.345458984375], [-125.20058, 44.50545, -2147.9560546875], [-125.2037, 44.49938, -1347.0999755859375], [-125.19544, 44.49681, -2136.345458984375]]], [[[-125.17056, 44.48271, -3622.49951171875], [-125.18134, 44.48376, -2976.765380859375], [-125.17477, 44.47432, -2949.14013671875], [-125.17056, 44.48271, -3622.49951171875]]], [[[-125.19544, 44.49681, -2136.345458984375], [-125.2037, 44.49938, -1347.0999755859375], [-125.19983, 44.49091, -1347.0999755859375], [-125.19544, 44.49681, -2136.345458984375]]], [[[-125.19113, 44.48863, -2178.01513671875], [-125.19544, 44.49681, -2136.345458984375], [-125.19983, 44.49091, -1347.0999755859375], [-125.19113, 44.48863, -2178.01513671875]]], [[[-125.1867, 44.49406, -2985.34912109375], [-125.19544, 44.49681, -2136.345458984375], [-125.19113, 44.48863, -2178.01513671875], [-125.1867, 44.49406, -2985.34912109375]]], [[[-125.1867, 44.49406, -2985.34912109375], [-125.19113, 44.48863, -2178.01513671875], [-125.18134, 44.48376, -2976.765380859375], [-125.1867, 44.49406, -2985.34912109375]]], [[[-125.17542, 44.49239, -3648.62744140625], [-125.1867, 44.49406, -2985.34912109375], [-125.18134, 44.48376, -2976.765380859375], [-125.17542, 44.49239, -3648.62744140625]]], [[[-125.1867, 44.49406, -2985.34912109375], [-125.17542, 44.49239, -3648.62744140625], [-125.18011, 44.50103, -3645.863037109375], [-125.1867, 44.49406, -2985.34912109375]]], [[[-125.17542, 44.49239, -3648.62744140625], [-125.16928, 44.4999, -4354.84716796875], [-125.18011, 44.50103, -3645.863037109375], [-125.17542, 44.49239, -3648.62744140625]]], [[[-125.16928, 44.4999, -4354.84716796875], [-125.17542, 44.49239, -3648.62744140625], [-125.16491, 44.49178, -4355.67236328125], [-125.16928, 44.4999, -4354.84716796875]]], [[[-125.16491, 44.49178, -4355.67236328125], [-125.15908, 44.49943, -5050.15234375], [-125.16928, 44.4999, -4354.84716796875], [-125.16491, 44.49178, -4355.67236328125]]], [[[-125.16491, 44.49178, -4355.67236328125], [-125.16031, 44.48279, -4341.7685546875], [-125.15452, 44.49145, -5064.03271484375], [-125.16491, 44.49178, -4355.67236328125]]], [[[-125.17056, 44.48271, -3622.49951171875], [-125.16475, 44.47348, -3547.22021484375], [-125.16031, 44.48279, -4341.7685546875], [-125.17056, 44.48271, -3622.49951171875]]], [[[-125.17056, 44.48271, -3622.49951171875], [-125.17477, 44.47432, -2949.14013671875], [-125.16475, 44.47348, -3547.22021484375], [-125.17056, 44.48271, -3622.49951171875]]], [[[-125.17056, 44.48271, -3622.49951171875], [-125.17542, 44.49239, -3648.62744140625], [-125.18134, 44.48376, -2976.765380859375], [-125.17056, 44.48271, -3622.49951171875]]], [[[-125.17542, 44.49239, -3648.62744140625], [-125.17056, 44.48271, -3622.49951171875], [-125.16491, 44.49178, -4355.67236328125], [-125.17542, 44.49239, -3648.62744140625]]], [[[-125.18188, 44.47482, -2138.7880859375], [-125.17477, 44.47432, -2949.14013671875], [-125.18134, 44.48376, -2976.765380859375], [-125.18188, 44.47482, -2138.7880859375]]], [[[-125.17477, 44.47432, -2949.14013671875], [-125.18188, 44.47482, -2138.7880859375], [-125.17577, 44.46278, -2138.7880859375], [-125.17477, 44.47432, -2949.14013671875]]], [[[-125.16475, 44.47348, -3547.22021484375], [-125.16866, 44.46227, -2949.14013671875], [-125.15865, 44.46144, -3547.22021484375], [-125.16475, 44.47348, -3547.22021484375]]], [[[-125.15516, 44.47273, -4187.14013671875], [-125.16475, 44.47348, -3547.22021484375], [-125.15865, 44.46144, -3547.22021484375], [-125.15516, 44.47273, -4187.14013671875]]], [[[-125.15516, 44.47273, -4187.14013671875], [-125.16031, 44.48279, -4341.7685546875], [-125.16475, 44.47348, -3547.22021484375], [-125.15516, 44.47273, -4187.14013671875]]], [[[-125.16031, 44.48279, -4341.7685546875], [-125.15516, 44.47273, -4187.14013671875], [-125.15024, 44.48338, -5070.50439453125], [-125.16031, 44.48279, -4341.7685546875]]], [[[-125.16031, 44.48279, -4341.7685546875], [-125.15024, 44.48338, -5070.50439453125], [-125.15452, 44.49145, -5064.03271484375], [-125.16031, 44.48279, -4341.7685546875]]], [[[-125.15516, 44.47273, -4187.14013671875], [-125.1449, 44.47565, -5076.66943359375], [-125.15024, 44.48338, -5070.50439453125], [-125.15516, 44.47273, -4187.14013671875]]], [[[-125.18719, 44.48137, -2112.16650390625], [-125.18923, 44.47538, -1347.0999755859375], [-125.18188, 44.47482, -2138.7880859375], [-125.18719, 44.48137, -2112.16650390625]]], [[[-125.18719, 44.48137, -2112.16650390625], [-125.19522, 44.48309, -1347.0999755859375], [-125.18923, 44.47538, -1347.0999755859375], [-125.18719, 44.48137, -2112.16650390625]]], [[[-125.18188, 44.47482, -2138.7880859375], [-125.18134, 44.48376, -2976.765380859375], [-125.18719, 44.48137, -2112.16650390625], [-125.18188, 44.47482, -2138.7880859375]]], [[[-125.16928, 44.4999, -4354.84716796875], [-125.16497, 44.50693, -5028.22412109375], [-125.17444, 44.50713, -4363.49658203125], [-125.16928, 44.4999, -4354.84716796875]]], [[[-125.17444, 44.50713, -4363.49658203125], [-125.18011, 44.50103, -3645.863037109375], [-125.16928, 44.4999, -4354.84716796875], [-125.17444, 44.50713, -4363.49658203125]]], [[[-125.18011, 44.50103, -3645.863037109375], [-125.17444, 44.50713, -4363.49658203125], [-125.18524, 44.50842, -3670.9892578125], [-125.18011, 44.50103, -3645.863037109375]]], [[[-125.21475, 44.52147, -2196.7841796875], [-125.22296, 44.5224, -1347.0999755859375], [-125.21571, 44.51512, -1347.0999755859375], [-125.21475, 44.52147, -2196.7841796875]]], [[[-125.17746, 44.51988, -4975.34619140625], [-125.18101, 44.52748, -4949.046875], [-125.18667, 44.52199, -4401.88427734375], [-125.17746, 44.51988, -4975.34619140625]]], [[[-125.2192, 44.53047, -2138.7880859375], [-125.22656, 44.53102, -1347.0999755859375], [-125.22296, 44.5224, -1347.0999755859375], [-125.2192, 44.53047, -2138.7880859375]]], [[[-125.21475, 44.52147, -2196.7841796875], [-125.2192, 44.53047, -2138.7880859375], [-125.22296, 44.5224, -1347.0999755859375], [-125.21475, 44.52147, -2196.7841796875]]], [[[-125.1398, 44.46785, -5082.13330078125], [-125.14906, 44.46069, -4187.14013671875], [-125.13599, 44.45966, -5058.9345703125], [-125.1398, 44.46785, -5082.13330078125]]], [[[-125.1449, 44.47565, -5076.66943359375], [-125.15516, 44.47273, -4187.14013671875], [-125.1398, 44.46785, -5082.13330078125], [-125.1449, 44.47565, -5076.66943359375]]], [[[-125.1398, 44.46785, -5082.13330078125], [-125.15516, 44.47273, -4187.14013671875], [-125.14906, 44.46069, -4187.14013671875], [-125.1398, 44.46785, -5082.13330078125]]]]}}]}