{"type": "FeatureCollection", "features": [{"type": "Feature", "properties": {"name": "AW_NORE_13", "CFM_ID": 224, "region": "Offshore_WAOR", "primary_state/province": "OR", "secondary_state/province": null, "avg_dip": 39, "dip_dir": "SW", "rake": 90, "slip_sense": "Reverse", "fault_level": 2, "NSHM23_sliprates": null, "QFFDAgeCatBin": null, "QFFDAgeBin": null, "upper_depth": 0.6, "upper_depth_constraint": "seismic imaging", "lower_depth": -33.5, "lower_depth_constraint": "megathrust", "3D_model_constraints": "trace and 1 MCS line (see comments)", "reference": "Ledeczi et al. (2024); Carbotte et al. (2023); Balster-Gee et al. (2023)", "nshm23_id": null, "lineage": null, "usgs_qffd_#": null, "comments": "used depth interpretations from adjacent (interpretted as extension of) AW_NORE_12", "id": "224"}, "geometry": {"type": "MultiPolygon", "coordinates": [[[[-125.17381, 45.7322, -3147.640869140625], [-125.16466, 45.72824, -2545.80908203125], [-125.16601, 45.73742, -2519.4296875], [-125.17381, 45.7322, -3147.640869140625]]], [[[-125.19631, 45.71757, -5316.115234375], [-125.19742, 45.72708, -5250.302734375], [-125.20652, 45.72205, -5846.0146484375], [-125.19631, 45.71757, -5316.115234375]]], [[[-125.20231, 45.74736, -5345.6083984375], [-125.21244, 45.75123, -5839.302734375], [-125.20984, 45.7407, -5857.82275390625], [-125.20231, 45.74736, -5345.6083984375]]], [[[-125.18846, 45.75379, -4136.3935546875], [-125.18083, 45.75405, -3366.02197265625], [-125.18804, 45.76251, -3614.83984375], [-125.18846, 45.75379, -4136.3935546875]]], [[[-125.2046, 45.70195, -5802.7998046875], [-125.20734, 45.69239, -5971.1171875], [-125.19729, 45.6935, -5387.0380859375], [-125.2046, 45.70195, -5802.7998046875]]], [[[-125.2229, 45.76918, -5940.9560546875], [-125.22035, 45.77722, -5357.24609375], [-125.23002, 45.7766, -5920.16259765625], [-125.2229, 45.76918, -5940.9560546875]]], [[[-125.21707, 45.72607, -6375.7060546875], [-125.21875, 45.73479, -6365.06884765625], [-125.22762, 45.72886, -6908.42138671875], [-125.21707, 45.72607, -6375.7060546875]]], [[[-125.17167, 45.70902, -3215.01171875], [-125.16342, 45.71274, -2571.710693359375], [-125.17252, 45.71632, -3282.69140625], [-125.17167, 45.70902, -3215.01171875]]], [[[-125.21199, 45.76922, -5320.201171875], [-125.21085, 45.77783, -4738.25830078125], [-125.22035, 45.77722, -5357.24609375], [-125.21199, 45.76922, -5320.201171875]]], [[[-125.23272, 45.76827, -6491.02978515625], [-125.23002, 45.7766, -5920.16259765625], [-125.23926, 45.77601, -6432.91845703125], [-125.23272, 45.76827, -6491.02978515625]]], [[[-125.17804, 45.7717, -2532.929931640625], [-125.17526, 45.78013, -2146.710205078125], [-125.18643, 45.77943, -2560.111328125], [-125.17804, 45.7717, -2532.929931640625]]], [[[-125.1878, 45.71109, -4765.916015625], [-125.19276, 45.70209, -5098.84326171875], [-125.18315, 45.7027, -4342.4736328125], [-125.1878, 45.71109, -4765.916015625]]], [[[-125.17252, 45.71632, -3282.69140625], [-125.16342, 45.71274, -2571.710693359375], [-125.16374, 45.72033, -2578.98681640625], [-125.17252, 45.71632, -3282.69140625]]], [[[-125.23272, 45.76827, -6491.02978515625], [-125.2229, 45.76918, -5940.9560546875], [-125.23002, 45.7766, -5920.16259765625], [-125.23272, 45.76827, -6491.02978515625]]], [[[-125.17716, 45.74765, -3254.22900390625], [-125.16787, 45.7457, -2576.263427734375], [-125.17074, 45.75379, -2578.88818359375], [-125.17716, 45.74765, -3254.22900390625]]], [[[-125.22876, 45.7616, -6426.0126953125], [-125.2229, 45.76918, -5940.9560546875], [-125.23272, 45.76827, -6491.02978515625], [-125.22876, 45.7616, -6426.0126953125]]], [[[-125.18083, 45.75405, -3366.02197265625], [-125.17074, 45.75379, -2578.88818359375], [-125.17969, 45.76247, -2901.7197265625], [-125.18083, 45.75405, -3366.02197265625]]], [[[-125.22876, 45.7616, -6426.0126953125], [-125.23464, 45.75516, -6915.283203125], [-125.22412, 45.75413, -6392.845703125], [-125.22876, 45.7616, -6426.0126953125]]], [[[-125.23272, 45.76827, -6491.02978515625], [-125.23926, 45.77601, -6432.91845703125], [-125.24127, 45.76877, -6912.33837890625], [-125.23272, 45.76827, -6491.02978515625]]], [[[-125.22876, 45.7616, -6426.0126953125], [-125.21744, 45.76029, -5844.35888671875], [-125.2229, 45.76918, -5940.9560546875], [-125.22876, 45.7616, -6426.0126953125]]], [[[-125.21707, 45.72607, -6375.7060546875], [-125.22762, 45.72886, -6908.42138671875], [-125.22556, 45.71986, -6909.62548828125], [-125.21707, 45.72607, -6375.7060546875]]], [[[-125.18846, 45.75379, -4136.3935546875], [-125.18804, 45.76251, -3614.83984375], [-125.1957, 45.76209, -4363.4892578125], [-125.18846, 45.75379, -4136.3935546875]]], [[[-125.21744, 45.76029, -5844.35888671875], [-125.22876, 45.7616, -6426.0126953125], [-125.22412, 45.75413, -6392.845703125], [-125.21744, 45.76029, -5844.35888671875]]], [[[-125.19405, 45.771, -3864.522216796875], [-125.19526, 45.77889, -3234.612548828125], [-125.20286, 45.77835, -3998.662109375], [-125.19405, 45.771, -3864.522216796875]]], [[[-125.2046, 45.70195, -5802.7998046875], [-125.21479, 45.70669, -6374.23486328125], [-125.2149, 45.69671, -6383.07470703125], [-125.2046, 45.70195, -5802.7998046875]]], [[[-125.17252, 45.71632, -3282.69140625], [-125.17999, 45.71916, -4038.189697265625], [-125.17946, 45.71098, -3993.8544921875], [-125.17252, 45.71632, -3282.69140625]]], [[[-125.21244, 45.75123, -5839.302734375], [-125.21744, 45.76029, -5844.35888671875], [-125.22412, 45.75413, -6392.845703125], [-125.21244, 45.75123, -5839.302734375]]], [[[-125.23816, 45.76214, -6913.3037109375], [-125.23272, 45.76827, -6491.02978515625], [-125.24127, 45.76877, -6912.33837890625], [-125.23816, 45.76214, -6913.3037109375]]], [[[-125.19958, 45.73686, -5263.26123046875], [-125.20231, 45.74736, -5345.6083984375], [-125.20984, 45.7407, -5857.82275390625], [-125.19958, 45.73686, -5263.26123046875]]], [[[-125.20534, 45.75975, -5171.515625], [-125.21744, 45.76029, -5844.35888671875], [-125.21244, 45.75123, -5839.302734375], [-125.20534, 45.75975, -5171.515625]]], [[[-125.1957, 45.76209, -4363.4892578125], [-125.19405, 45.771, -3864.522216796875], [-125.20213, 45.7703, -4633.15478515625], [-125.1957, 45.76209, -4363.4892578125]]], [[[-125.16647, 45.7723, -2092.99658203125], [-125.15419, 45.76507, -1648.75], [-125.15784, 45.77368, -1648.75], [-125.16647, 45.7723, -2092.99658203125]]], [[[-125.17592, 45.74045, -3219.44091796875], [-125.16787, 45.7457, -2576.263427734375], [-125.17716, 45.74765, -3254.22900390625], [-125.17592, 45.74045, -3219.44091796875]]], [[[-125.20534, 45.75975, -5171.515625], [-125.21199, 45.76922, -5320.201171875], [-125.21744, 45.76029, -5844.35888671875], [-125.20534, 45.75975, -5171.515625]]], [[[-125.17592, 45.74045, -3219.44091796875], [-125.16601, 45.73742, -2519.4296875], [-125.16787, 45.7457, -2576.263427734375], [-125.17592, 45.74045, -3219.44091796875]]], [[[-125.20811, 45.73126, -5816.02294921875], [-125.19742, 45.72708, -5250.302734375], [-125.19958, 45.73686, -5263.26123046875], [-125.20811, 45.73126, -5816.02294921875]]], [[[-125.15595, 45.74272, -2136.92236328125], [-125.15759, 45.7507, -2146.056884765625], [-125.16787, 45.7457, -2576.263427734375], [-125.15595, 45.74272, -2136.92236328125]]], [[[-125.20534, 45.75975, -5171.515625], [-125.20213, 45.7703, -4633.15478515625], [-125.21199, 45.76922, -5320.201171875], [-125.20534, 45.75975, -5171.515625]]], [[[-125.17252, 45.71632, -3282.69140625], [-125.16374, 45.72033, -2578.98681640625], [-125.17315, 45.72384, -3247.900634765625], [-125.17252, 45.71632, -3282.69140625]]], [[[-125.20534, 45.75975, -5171.515625], [-125.1957, 45.76209, -4363.4892578125], [-125.20213, 45.7703, -4633.15478515625], [-125.20534, 45.75975, -5171.515625]]], [[[-125.18669, 45.77142, -3152.182861328125], [-125.18643, 45.77943, -2560.111328125], [-125.19526, 45.77889, -3234.612548828125], [-125.18669, 45.77142, -3152.182861328125]]], [[[-125.20534, 45.75975, -5171.515625], [-125.19641, 45.75332, -4857.56640625], [-125.1957, 45.76209, -4363.4892578125], [-125.20534, 45.75975, -5171.515625]]], [[[-125.20231, 45.74736, -5345.6083984375], [-125.19641, 45.75332, -4857.56640625], [-125.20534, 45.75975, -5171.515625], [-125.20231, 45.74736, -5345.6083984375]]], [[[-125.16342, 45.71274, -2571.710693359375], [-125.1523, 45.70885, -2163.924072265625], [-125.15227, 45.71708, -2162.84033203125], [-125.16342, 45.71274, -2571.710693359375]]], [[[-125.19641, 45.75332, -4857.56640625], [-125.20231, 45.74736, -5345.6083984375], [-125.19214, 45.74367, -4767.66845703125], [-125.19641, 45.75332, -4857.56640625]]], [[[-125.19786, 45.70924, -5411.4970703125], [-125.1878, 45.71109, -4765.916015625], [-125.19631, 45.71757, -5316.115234375], [-125.19786, 45.70924, -5411.4970703125]]], [[[-125.19214, 45.74367, -4767.66845703125], [-125.18846, 45.75379, -4136.3935546875], [-125.19641, 45.75332, -4857.56640625], [-125.19214, 45.74367, -4767.66845703125]]], [[[-125.17592, 45.74045, -3219.44091796875], [-125.17381, 45.7322, -3147.640869140625], [-125.16601, 45.73742, -2519.4296875], [-125.17592, 45.74045, -3219.44091796875]]], [[[-125.19214, 45.74367, -4767.66845703125], [-125.18445, 45.74414, -4063.447021484375], [-125.18846, 45.75379, -4136.3935546875], [-125.19214, 45.74367, -4767.66845703125]]], [[[-125.18083, 45.75405, -3366.02197265625], [-125.18445, 45.74414, -4063.447021484375], [-125.17716, 45.74765, -3254.22900390625], [-125.18083, 45.75405, -3366.02197265625]]], [[[-125.18971, 45.73314, -4627.88818359375], [-125.18445, 45.74414, -4063.447021484375], [-125.19214, 45.74367, -4767.66845703125], [-125.18971, 45.73314, -4627.88818359375]]], [[[-125.1878, 45.71109, -4765.916015625], [-125.17999, 45.71916, -4038.189697265625], [-125.18758, 45.72136, -4679.97216796875], [-125.1878, 45.71109, -4765.916015625]]], [[[-125.18971, 45.73314, -4627.88818359375], [-125.18228, 45.73563, -3884.88330078125], [-125.18445, 45.74414, -4063.447021484375], [-125.18971, 45.73314, -4627.88818359375]]], [[[-125.16647, 45.7723, -2092.99658203125], [-125.16508, 45.7808, -1648.75], [-125.17526, 45.78013, -2146.710205078125], [-125.16647, 45.7723, -2092.99658203125]]], [[[-125.18228, 45.73563, -3884.88330078125], [-125.18971, 45.73314, -4627.88818359375], [-125.18124, 45.72785, -3959.42578125], [-125.18228, 45.73563, -3884.88330078125]]], [[[-125.18228, 45.73563, -3884.88330078125], [-125.18124, 45.72785, -3959.42578125], [-125.17381, 45.7322, -3147.640869140625], [-125.18228, 45.73563, -3884.88330078125]]], [[[-125.18228, 45.73563, -3884.88330078125], [-125.17381, 45.7322, -3147.640869140625], [-125.17592, 45.74045, -3219.44091796875], [-125.18228, 45.73563, -3884.88330078125]]], [[[-125.18228, 45.73563, -3884.88330078125], [-125.17592, 45.74045, -3219.44091796875], [-125.18445, 45.74414, -4063.447021484375], [-125.18228, 45.73563, -3884.88330078125]]], [[[-125.17716, 45.74765, -3254.22900390625], [-125.18445, 45.74414, -4063.447021484375], [-125.17592, 45.74045, -3219.44091796875], [-125.17716, 45.74765, -3254.22900390625]]], [[[-125.18083, 45.75405, -3366.02197265625], [-125.18846, 45.75379, -4136.3935546875], [-125.18445, 45.74414, -4063.447021484375], [-125.18083, 45.75405, -3366.02197265625]]], [[[-125.1957, 45.76209, -4363.4892578125], [-125.19641, 45.75332, -4857.56640625], [-125.18846, 45.75379, -4136.3935546875], [-125.1957, 45.76209, -4363.4892578125]]], [[[-125.1957, 45.76209, -4363.4892578125], [-125.18804, 45.76251, -3614.83984375], [-125.19405, 45.771, -3864.522216796875], [-125.1957, 45.76209, -4363.4892578125]]], [[[-125.19405, 45.771, -3864.522216796875], [-125.20286, 45.77835, -3998.662109375], [-125.20213, 45.7703, -4633.15478515625], [-125.19405, 45.771, -3864.522216796875]]], [[[-125.18669, 45.77142, -3152.182861328125], [-125.19526, 45.77889, -3234.612548828125], [-125.19405, 45.771, -3864.522216796875], [-125.18669, 45.77142, -3152.182861328125]]], [[[-125.17804, 45.7717, -2532.929931640625], [-125.18643, 45.77943, -2560.111328125], [-125.18669, 45.77142, -3152.182861328125], [-125.17804, 45.7717, -2532.929931640625]]], [[[-125.17804, 45.7717, -2532.929931640625], [-125.16647, 45.7723, -2092.99658203125], [-125.17526, 45.78013, -2146.710205078125], [-125.17804, 45.7717, -2532.929931640625]]], [[[-125.16916, 45.76375, -2334.79443359375], [-125.16647, 45.7723, -2092.99658203125], [-125.17804, 45.7717, -2532.929931640625], [-125.16916, 45.76375, -2334.79443359375]]], [[[-125.16916, 45.76375, -2334.79443359375], [-125.15419, 45.76507, -1648.75], [-125.16647, 45.7723, -2092.99658203125], [-125.16916, 45.76375, -2334.79443359375]]], [[[-125.16916, 45.76375, -2334.79443359375], [-125.16071, 45.7585, -2130.809814453125], [-125.15419, 45.76507, -1648.75], [-125.16916, 45.76375, -2334.79443359375]]], [[[-125.16916, 45.76375, -2334.79443359375], [-125.17074, 45.75379, -2578.88818359375], [-125.16071, 45.7585, -2130.809814453125], [-125.16916, 45.76375, -2334.79443359375]]], [[[-125.16916, 45.76375, -2334.79443359375], [-125.17969, 45.76247, -2901.7197265625], [-125.17074, 45.75379, -2578.88818359375], [-125.16916, 45.76375, -2334.79443359375]]], [[[-125.17969, 45.76247, -2901.7197265625], [-125.16916, 45.76375, -2334.79443359375], [-125.17804, 45.7717, -2532.929931640625], [-125.17969, 45.76247, -2901.7197265625]]], [[[-125.17969, 45.76247, -2901.7197265625], [-125.17804, 45.7717, -2532.929931640625], [-125.18669, 45.77142, -3152.182861328125], [-125.17969, 45.76247, -2901.7197265625]]], [[[-125.18804, 45.76251, -3614.83984375], [-125.17969, 45.76247, -2901.7197265625], [-125.18669, 45.77142, -3152.182861328125], [-125.18804, 45.76251, -3614.83984375]]], [[[-125.18083, 45.75405, -3366.02197265625], [-125.17969, 45.76247, -2901.7197265625], [-125.18804, 45.76251, -3614.83984375], [-125.18083, 45.75405, -3366.02197265625]]], [[[-125.17716, 45.74765, -3254.22900390625], [-125.17074, 45.75379, -2578.88818359375], [-125.18083, 45.75405, -3366.02197265625], [-125.17716, 45.74765, -3254.22900390625]]], [[[-125.17315, 45.72384, -3247.900634765625], [-125.16466, 45.72824, -2545.80908203125], [-125.17381, 45.7322, -3147.640869140625], [-125.17315, 45.72384, -3247.900634765625]]], [[[-125.17315, 45.72384, -3247.900634765625], [-125.16374, 45.72033, -2578.98681640625], [-125.16466, 45.72824, -2545.80908203125], [-125.17315, 45.72384, -3247.900634765625]]], [[[-125.17167, 45.70902, -3215.01171875], [-125.16411, 45.70406, -2608.716796875], [-125.16342, 45.71274, -2571.710693359375], [-125.17167, 45.70902, -3215.01171875]]], [[[-125.17167, 45.70902, -3215.01171875], [-125.17481, 45.70277, -3513.59326171875], [-125.16411, 45.70406, -2608.716796875], [-125.17167, 45.70902, -3215.01171875]]], [[[-125.17167, 45.70902, -3215.01171875], [-125.17946, 45.71098, -3993.8544921875], [-125.17481, 45.70277, -3513.59326171875], [-125.17167, 45.70902, -3215.01171875]]], [[[-125.17252, 45.71632, -3282.69140625], [-125.17946, 45.71098, -3993.8544921875], [-125.17167, 45.70902, -3215.01171875], [-125.17252, 45.71632, -3282.69140625]]], [[[-125.17252, 45.71632, -3282.69140625], [-125.17315, 45.72384, -3247.900634765625], [-125.17999, 45.71916, -4038.189697265625], [-125.17252, 45.71632, -3282.69140625]]], [[[-125.18124, 45.72785, -3959.42578125], [-125.17999, 45.71916, -4038.189697265625], [-125.17315, 45.72384, -3247.900634765625], [-125.18124, 45.72785, -3959.42578125]]], [[[-125.17999, 45.71916, -4038.189697265625], [-125.18124, 45.72785, -3959.42578125], [-125.18758, 45.72136, -4679.97216796875], [-125.17999, 45.71916, -4038.189697265625]]], [[[-125.15183, 45.69989, -2144.3251953125], [-125.15258, 45.68807, -2201.169921875], [-125.14161, 45.6969, -1648.75], [-125.15183, 45.69989, -2144.3251953125]]], [[[-125.1878, 45.71109, -4765.916015625], [-125.17946, 45.71098, -3993.8544921875], [-125.17999, 45.71916, -4038.189697265625], [-125.1878, 45.71109, -4765.916015625]]], [[[-125.17946, 45.71098, -3993.8544921875], [-125.1878, 45.71109, -4765.916015625], [-125.18315, 45.7027, -4342.4736328125], [-125.17946, 45.71098, -3993.8544921875]]], [[[-125.17946, 45.71098, -3993.8544921875], [-125.18315, 45.7027, -4342.4736328125], [-125.17481, 45.70277, -3513.59326171875], [-125.17946, 45.71098, -3993.8544921875]]], [[[-125.18315, 45.7027, -4342.4736328125], [-125.1784, 45.69466, -3902.328369140625], [-125.17481, 45.70277, -3513.59326171875], [-125.18315, 45.7027, -4342.4736328125]]], [[[-125.18315, 45.7027, -4342.4736328125], [-125.187, 45.69415, -4708.62451171875], [-125.1784, 45.69466, -3902.328369140625], [-125.18315, 45.7027, -4342.4736328125]]], [[[-125.19276, 45.70209, -5098.84326171875], [-125.187, 45.69415, -4708.62451171875], [-125.18315, 45.7027, -4342.4736328125], [-125.19276, 45.70209, -5098.84326171875]]], [[[-125.187, 45.69415, -4708.62451171875], [-125.19276, 45.70209, -5098.84326171875], [-125.19729, 45.6935, -5387.0380859375], [-125.187, 45.69415, -4708.62451171875]]], [[[-125.187, 45.69415, -4708.62451171875], [-125.19729, 45.6935, -5387.0380859375], [-125.19114, 45.68558, -5039.90478515625], [-125.187, 45.69415, -4708.62451171875]]], [[[-125.22427, 45.69259, -6899.84130859375], [-125.21272, 45.6842, -6296.955078125], [-125.2149, 45.69671, -6383.07470703125], [-125.22427, 45.69259, -6899.84130859375]]], [[[-125.187, 45.69415, -4708.62451171875], [-125.19114, 45.68558, -5039.90478515625], [-125.18186, 45.68618, -4283.84619140625], [-125.187, 45.69415, -4708.62451171875]]], [[[-125.1784, 45.69466, -3902.328369140625], [-125.187, 45.69415, -4708.62451171875], [-125.18186, 45.68618, -4283.84619140625], [-125.1784, 45.69466, -3902.328369140625]]], [[[-125.1784, 45.69466, -3902.328369140625], [-125.18186, 45.68618, -4283.84619140625], [-125.17359, 45.68676, -3454.47265625], [-125.1784, 45.69466, -3902.328369140625]]], [[[-125.16982, 45.6954, -3079.135009765625], [-125.1784, 45.69466, -3902.328369140625], [-125.17359, 45.68676, -3454.47265625], [-125.16982, 45.6954, -3079.135009765625]]], [[[-125.16982, 45.6954, -3079.135009765625], [-125.17481, 45.70277, -3513.59326171875], [-125.1784, 45.69466, -3902.328369140625], [-125.16982, 45.6954, -3079.135009765625]]], [[[-125.17481, 45.70277, -3513.59326171875], [-125.16982, 45.6954, -3079.135009765625], [-125.16411, 45.70406, -2608.716796875], [-125.17481, 45.70277, -3513.59326171875]]], [[[-125.16015, 45.69541, -2459.194580078125], [-125.16411, 45.70406, -2608.716796875], [-125.16982, 45.6954, -3079.135009765625], [-125.16015, 45.69541, -2459.194580078125]]], [[[-125.16411, 45.70406, -2608.716796875], [-125.16015, 45.69541, -2459.194580078125], [-125.15183, 45.69989, -2144.3251953125], [-125.16411, 45.70406, -2608.716796875]]], [[[-125.16411, 45.70406, -2608.716796875], [-125.15183, 45.69989, -2144.3251953125], [-125.1523, 45.70885, -2163.924072265625], [-125.16411, 45.70406, -2608.716796875]]], [[[-125.16342, 45.71274, -2571.710693359375], [-125.16411, 45.70406, -2608.716796875], [-125.1523, 45.70885, -2163.924072265625], [-125.16342, 45.71274, -2571.710693359375]]], [[[-125.16374, 45.72033, -2578.98681640625], [-125.16342, 45.71274, -2571.710693359375], [-125.15227, 45.71708, -2162.84033203125], [-125.16374, 45.72033, -2578.98681640625]]], [[[-125.16374, 45.72033, -2578.98681640625], [-125.15227, 45.71708, -2162.84033203125], [-125.15283, 45.72475, -2141.912353515625], [-125.16374, 45.72033, -2578.98681640625]]], [[[-125.23926, 45.77601, -6432.91845703125], [-125.24787, 45.77546, -6901.71240234375], [-125.24127, 45.76877, -6912.33837890625], [-125.23926, 45.77601, -6432.91845703125]]], [[[-125.16466, 45.72824, -2545.80908203125], [-125.16374, 45.72033, -2578.98681640625], [-125.15283, 45.72475, -2141.912353515625], [-125.16466, 45.72824, -2545.80908203125]]], [[[-125.16466, 45.72824, -2545.80908203125], [-125.15283, 45.72475, -2141.912353515625], [-125.15496, 45.7333, -2149.749755859375], [-125.16466, 45.72824, -2545.80908203125]]], [[[-125.16601, 45.73742, -2519.4296875], [-125.16466, 45.72824, -2545.80908203125], [-125.15496, 45.7333, -2149.749755859375], [-125.16601, 45.73742, -2519.4296875]]], [[[-125.16601, 45.73742, -2519.4296875], [-125.15496, 45.7333, -2149.749755859375], [-125.15595, 45.74272, -2136.92236328125], [-125.16601, 45.73742, -2519.4296875]]], [[[-125.16601, 45.73742, -2519.4296875], [-125.15595, 45.74272, -2136.92236328125], [-125.16787, 45.7457, -2576.263427734375], [-125.16601, 45.73742, -2519.4296875]]], [[[-125.15595, 45.74272, -2136.92236328125], [-125.14615, 45.74798, -1648.75], [-125.15759, 45.7507, -2146.056884765625], [-125.15595, 45.74272, -2136.92236328125]]], [[[-125.15595, 45.74272, -2136.92236328125], [-125.14584, 45.73898, -1648.75], [-125.14615, 45.74798, -1648.75], [-125.15595, 45.74272, -2136.92236328125]]], [[[-125.15595, 45.74272, -2136.92236328125], [-125.15496, 45.7333, -2149.749755859375], [-125.14584, 45.73898, -1648.75], [-125.15595, 45.74272, -2136.92236328125]]], [[[-125.15496, 45.7333, -2149.749755859375], [-125.14384, 45.73008, -1648.75], [-125.14584, 45.73898, -1648.75], [-125.15496, 45.7333, -2149.749755859375]]], [[[-125.15283, 45.72475, -2141.912353515625], [-125.14384, 45.73008, -1648.75], [-125.15496, 45.7333, -2149.749755859375], [-125.15283, 45.72475, -2141.912353515625]]], [[[-125.15283, 45.72475, -2141.912353515625], [-125.14177, 45.72119, -1648.75], [-125.14384, 45.73008, -1648.75], [-125.15283, 45.72475, -2141.912353515625]]], [[[-125.15227, 45.71708, -2162.84033203125], [-125.14177, 45.72119, -1648.75], [-125.15283, 45.72475, -2141.912353515625], [-125.15227, 45.71708, -2162.84033203125]]], [[[-125.15227, 45.71708, -2162.84033203125], [-125.14177, 45.71309, -1648.75], [-125.14177, 45.72119, -1648.75], [-125.15227, 45.71708, -2162.84033203125]]], [[[-125.1523, 45.70885, -2163.924072265625], [-125.14177, 45.71309, -1648.75], [-125.15227, 45.71708, -2162.84033203125], [-125.1523, 45.70885, -2163.924072265625]]], [[[-125.22427, 45.69259, -6899.84130859375], [-125.22375, 45.68349, -6899.54443359375], [-125.21272, 45.6842, -6296.955078125], [-125.22427, 45.69259, -6899.84130859375]]], [[[-125.1523, 45.70885, -2163.924072265625], [-125.14178, 45.705, -1648.75], [-125.14177, 45.71309, -1648.75], [-125.1523, 45.70885, -2163.924072265625]]], [[[-125.15183, 45.69989, -2144.3251953125], [-125.14178, 45.705, -1648.75], [-125.1523, 45.70885, -2163.924072265625], [-125.15183, 45.69989, -2144.3251953125]]], [[[-125.15183, 45.69989, -2144.3251953125], [-125.14161, 45.6969, -1648.75], [-125.14178, 45.705, -1648.75], [-125.15183, 45.69989, -2144.3251953125]]], [[[-125.16015, 45.69541, -2459.194580078125], [-125.15258, 45.68807, -2201.169921875], [-125.15183, 45.69989, -2144.3251953125], [-125.16015, 45.69541, -2459.194580078125]]], [[[-125.16015, 45.69541, -2459.194580078125], [-125.16442, 45.68733, -2685.270263671875], [-125.15258, 45.68807, -2201.169921875], [-125.16015, 45.69541, -2459.194580078125]]], [[[-125.16015, 45.69541, -2459.194580078125], [-125.16982, 45.6954, -3079.135009765625], [-125.16442, 45.68733, -2685.270263671875], [-125.16015, 45.69541, -2459.194580078125]]], [[[-125.16982, 45.6954, -3079.135009765625], [-125.17359, 45.68676, -3454.47265625], [-125.16442, 45.68733, -2685.270263671875], [-125.16982, 45.6954, -3079.135009765625]]], [[[-125.15759, 45.7507, -2146.056884765625], [-125.14615, 45.74798, -1648.75], [-125.14947, 45.75669, -1648.75], [-125.15759, 45.7507, -2146.056884765625]]], [[[-125.15759, 45.7507, -2146.056884765625], [-125.14947, 45.75669, -1648.75], [-125.16071, 45.7585, -2130.809814453125], [-125.15759, 45.7507, -2146.056884765625]]], [[[-125.17074, 45.75379, -2578.88818359375], [-125.15759, 45.7507, -2146.056884765625], [-125.16071, 45.7585, -2130.809814453125], [-125.17074, 45.75379, -2578.88818359375]]], [[[-125.17074, 45.75379, -2578.88818359375], [-125.16787, 45.7457, -2576.263427734375], [-125.15759, 45.7507, -2146.056884765625], [-125.17074, 45.75379, -2578.88818359375]]], [[[-125.16071, 45.7585, -2130.809814453125], [-125.14947, 45.75669, -1648.75], [-125.15419, 45.76507, -1648.75], [-125.16071, 45.7585, -2130.809814453125]]], [[[-125.20182, 45.6849, -5680.52978515625], [-125.19114, 45.68558, -5039.90478515625], [-125.19729, 45.6935, -5387.0380859375], [-125.20182, 45.6849, -5680.52978515625]]], [[[-125.20734, 45.69239, -5971.1171875], [-125.20182, 45.6849, -5680.52978515625], [-125.19729, 45.6935, -5387.0380859375], [-125.20734, 45.69239, -5971.1171875]]], [[[-125.20734, 45.69239, -5971.1171875], [-125.21272, 45.6842, -6296.955078125], [-125.20182, 45.6849, -5680.52978515625], [-125.20734, 45.69239, -5971.1171875]]], [[[-125.22427, 45.69259, -6899.84130859375], [-125.2149, 45.69671, -6383.07470703125], [-125.22445, 45.7017, -6901.31201171875], [-125.22427, 45.69259, -6899.84130859375]]], [[[-125.21479, 45.70669, -6374.23486328125], [-125.22445, 45.7017, -6901.31201171875], [-125.2149, 45.69671, -6383.07470703125], [-125.21479, 45.70669, -6374.23486328125]]], [[[-125.21479, 45.70669, -6374.23486328125], [-125.22457, 45.71081, -6907.11083984375], [-125.22445, 45.7017, -6901.31201171875], [-125.21479, 45.70669, -6374.23486328125]]], [[[-125.21519, 45.71642, -6395.77490234375], [-125.22457, 45.71081, -6907.11083984375], [-125.21479, 45.70669, -6374.23486328125], [-125.21519, 45.71642, -6395.77490234375]]], [[[-125.21519, 45.71642, -6395.77490234375], [-125.22556, 45.71986, -6909.62548828125], [-125.22457, 45.71081, -6907.11083984375], [-125.21519, 45.71642, -6395.77490234375]]], [[[-125.21519, 45.71642, -6395.77490234375], [-125.21707, 45.72607, -6375.7060546875], [-125.22556, 45.71986, -6909.62548828125], [-125.21519, 45.71642, -6395.77490234375]]], [[[-125.20652, 45.72205, -5846.0146484375], [-125.21707, 45.72607, -6375.7060546875], [-125.21519, 45.71642, -6395.77490234375], [-125.20652, 45.72205, -5846.0146484375]]], [[[-125.20811, 45.73126, -5816.02294921875], [-125.21707, 45.72607, -6375.7060546875], [-125.20652, 45.72205, -5846.0146484375], [-125.20811, 45.73126, -5816.02294921875]]], [[[-125.20811, 45.73126, -5816.02294921875], [-125.21875, 45.73479, -6365.06884765625], [-125.21707, 45.72607, -6375.7060546875], [-125.20811, 45.73126, -5816.02294921875]]], [[[-125.20984, 45.7407, -5857.82275390625], [-125.21875, 45.73479, -6365.06884765625], [-125.20811, 45.73126, -5816.02294921875], [-125.20984, 45.7407, -5857.82275390625]]], [[[-125.20984, 45.7407, -5857.82275390625], [-125.2202, 45.74445, -6402.93701171875], [-125.21875, 45.73479, -6365.06884765625], [-125.20984, 45.7407, -5857.82275390625]]], [[[-125.20984, 45.7407, -5857.82275390625], [-125.21244, 45.75123, -5839.302734375], [-125.2202, 45.74445, -6402.93701171875], [-125.20984, 45.7407, -5857.82275390625]]], [[[-125.20231, 45.74736, -5345.6083984375], [-125.20534, 45.75975, -5171.515625], [-125.21244, 45.75123, -5839.302734375], [-125.20231, 45.74736, -5345.6083984375]]], [[[-125.19214, 45.74367, -4767.66845703125], [-125.20231, 45.74736, -5345.6083984375], [-125.19958, 45.73686, -5263.26123046875], [-125.19214, 45.74367, -4767.66845703125]]], [[[-125.18971, 45.73314, -4627.88818359375], [-125.19214, 45.74367, -4767.66845703125], [-125.19958, 45.73686, -5263.26123046875], [-125.18971, 45.73314, -4627.88818359375]]], [[[-125.18971, 45.73314, -4627.88818359375], [-125.19958, 45.73686, -5263.26123046875], [-125.19742, 45.72708, -5250.302734375], [-125.18971, 45.73314, -4627.88818359375]]], [[[-125.18758, 45.72136, -4679.97216796875], [-125.18971, 45.73314, -4627.88818359375], [-125.19742, 45.72708, -5250.302734375], [-125.18758, 45.72136, -4679.97216796875]]], [[[-125.18971, 45.73314, -4627.88818359375], [-125.18758, 45.72136, -4679.97216796875], [-125.18124, 45.72785, -3959.42578125], [-125.18971, 45.73314, -4627.88818359375]]], [[[-125.18758, 45.72136, -4679.97216796875], [-125.19742, 45.72708, -5250.302734375], [-125.19631, 45.71757, -5316.115234375], [-125.18758, 45.72136, -4679.97216796875]]], [[[-125.18758, 45.72136, -4679.97216796875], [-125.19631, 45.71757, -5316.115234375], [-125.1878, 45.71109, -4765.916015625], [-125.18758, 45.72136, -4679.97216796875]]], [[[-125.1878, 45.71109, -4765.916015625], [-125.19786, 45.70924, -5411.4970703125], [-125.19276, 45.70209, -5098.84326171875], [-125.1878, 45.71109, -4765.916015625]]], [[[-125.19786, 45.70924, -5411.4970703125], [-125.2046, 45.70195, -5802.7998046875], [-125.19276, 45.70209, -5098.84326171875], [-125.19786, 45.70924, -5411.4970703125]]], [[[-125.19786, 45.70924, -5411.4970703125], [-125.20605, 45.71211, -5885.9541015625], [-125.2046, 45.70195, -5802.7998046875], [-125.19786, 45.70924, -5411.4970703125]]], [[[-125.19631, 45.71757, -5316.115234375], [-125.20605, 45.71211, -5885.9541015625], [-125.19786, 45.70924, -5411.4970703125], [-125.19631, 45.71757, -5316.115234375]]], [[[-125.19631, 45.71757, -5316.115234375], [-125.20652, 45.72205, -5846.0146484375], [-125.20605, 45.71211, -5885.9541015625], [-125.19631, 45.71757, -5316.115234375]]], [[[-125.22876, 45.7616, -6426.0126953125], [-125.23816, 45.76214, -6913.3037109375], [-125.23464, 45.75516, -6915.283203125], [-125.22876, 45.7616, -6426.0126953125]]], [[[-125.19742, 45.72708, -5250.302734375], [-125.20811, 45.73126, -5816.02294921875], [-125.20652, 45.72205, -5846.0146484375], [-125.19742, 45.72708, -5250.302734375]]], [[[-125.19958, 45.73686, -5263.26123046875], [-125.20984, 45.7407, -5857.82275390625], [-125.20811, 45.73126, -5816.02294921875], [-125.19958, 45.73686, -5263.26123046875]]], [[[-125.20652, 45.72205, -5846.0146484375], [-125.21519, 45.71642, -6395.77490234375], [-125.20605, 45.71211, -5885.9541015625], [-125.20652, 45.72205, -5846.0146484375]]], [[[-125.20605, 45.71211, -5885.9541015625], [-125.21519, 45.71642, -6395.77490234375], [-125.21479, 45.70669, -6374.23486328125], [-125.20605, 45.71211, -5885.9541015625]]], [[[-125.20605, 45.71211, -5885.9541015625], [-125.21479, 45.70669, -6374.23486328125], [-125.2046, 45.70195, -5802.7998046875], [-125.20605, 45.71211, -5885.9541015625]]], [[[-125.2046, 45.70195, -5802.7998046875], [-125.2149, 45.69671, -6383.07470703125], [-125.20734, 45.69239, -5971.1171875], [-125.2046, 45.70195, -5802.7998046875]]], [[[-125.19276, 45.70209, -5098.84326171875], [-125.2046, 45.70195, -5802.7998046875], [-125.19729, 45.6935, -5387.0380859375], [-125.19276, 45.70209, -5098.84326171875]]], [[[-125.21244, 45.75123, -5839.302734375], [-125.22412, 45.75413, -6392.845703125], [-125.2202, 45.74445, -6402.93701171875], [-125.21244, 45.75123, -5839.302734375]]], [[[-125.22412, 45.75413, -6392.845703125], [-125.23078, 45.74686, -6916.85888671875], [-125.2202, 45.74445, -6402.93701171875], [-125.22412, 45.75413, -6392.845703125]]], [[[-125.22412, 45.75413, -6392.845703125], [-125.23464, 45.75516, -6915.283203125], [-125.23078, 45.74686, -6916.85888671875], [-125.22412, 45.75413, -6392.845703125]]], [[[-125.22876, 45.7616, -6426.0126953125], [-125.23272, 45.76827, -6491.02978515625], [-125.23816, 45.76214, -6913.3037109375], [-125.22876, 45.7616, -6426.0126953125]]], [[[-125.22893, 45.7379, -6913.84912109375], [-125.2202, 45.74445, -6402.93701171875], [-125.23078, 45.74686, -6916.85888671875], [-125.22893, 45.7379, -6913.84912109375]]], [[[-125.21875, 45.73479, -6365.06884765625], [-125.2202, 45.74445, -6402.93701171875], [-125.22893, 45.7379, -6913.84912109375], [-125.21875, 45.73479, -6365.06884765625]]], [[[-125.21875, 45.73479, -6365.06884765625], [-125.22893, 45.7379, -6913.84912109375], [-125.22762, 45.72886, -6908.42138671875], [-125.21875, 45.73479, -6365.06884765625]]], [[[-125.18124, 45.72785, -3959.42578125], [-125.17315, 45.72384, -3247.900634765625], [-125.17381, 45.7322, -3147.640869140625], [-125.18124, 45.72785, -3959.42578125]]], [[[-125.18804, 45.76251, -3614.83984375], [-125.18669, 45.77142, -3152.182861328125], [-125.19405, 45.771, -3864.522216796875], [-125.18804, 45.76251, -3614.83984375]]], [[[-125.16647, 45.7723, -2092.99658203125], [-125.15784, 45.77368, -1648.75], [-125.16508, 45.7808, -1648.75], [-125.16647, 45.7723, -2092.99658203125]]], [[[-125.20286, 45.77835, -3998.662109375], [-125.21085, 45.77783, -4738.25830078125], [-125.20213, 45.7703, -4633.15478515625], [-125.20286, 45.77835, -3998.662109375]]], [[[-125.21199, 45.76922, -5320.201171875], [-125.20213, 45.7703, -4633.15478515625], [-125.21085, 45.77783, -4738.25830078125], [-125.21199, 45.76922, -5320.201171875]]], [[[-125.2229, 45.76918, -5940.9560546875], [-125.21199, 45.76922, -5320.201171875], [-125.22035, 45.77722, -5357.24609375], [-125.2229, 45.76918, -5940.9560546875]]], [[[-125.21744, 45.76029, -5844.35888671875], [-125.21199, 45.76922, -5320.201171875], [-125.2229, 45.76918, -5940.9560546875], [-125.21744, 45.76029, -5844.35888671875]]], [[[-125.14161, 45.6969, -1648.75], [-125.15258, 45.68807, -2201.169921875], [-125.14114, 45.68881, -1648.75], [-125.14161, 45.6969, -1648.75]]], [[[-125.2149, 45.69671, -6383.07470703125], [-125.21272, 45.6842, -6296.955078125], [-125.20734, 45.69239, -5971.1171875], [-125.2149, 45.69671, -6383.07470703125]]]]}}]}