{"type": "FeatureCollection", "features": [{"type": "Feature", "properties": {"name": "AW_NORE_17", "CFM_ID": 228, "region": "Offshore_WAOR", "primary_state/province": "OR", "secondary_state/province": null, "avg_dip": 41, "dip_dir": "SW", "rake": 90, "slip_sense": "Reverse", "fault_level": 2, "NSHM23_sliprates": null, "QFFDAgeCatBin": null, "QFFDAgeBin": null, "upper_depth": 1.3, "upper_depth_constraint": "seismic imaging", "lower_depth": -16.3, "lower_depth_constraint": "megathrust", "3D_model_constraints": "trace and 1 MCS line (see comments)", "reference": "Ledeczi et al. (2024); Carbotte et al. (2023); Balster-Gee et al. (2023)", "nshm23_id": null, "lineage": null, "usgs_qffd_#": null, "comments": "used depth interpretations from adjacent (extension of) AW_NORE_15", "id": "228"}, "geometry": {"type": "MultiPolygon", "coordinates": [[[[-125.20615, 45.39748, -2728.3515625], [-125.20309, 45.40475, -2513.95263671875], [-125.19706, 45.4009, -2192.949951171875], [-125.20615, 45.39748, -2728.3515625]]], [[[-125.23864, 45.20544, -2698.632568359375], [-125.24512, 45.21291, -3318.3310546875], [-125.23596, 45.21329, -2751.525390625], [-125.23864, 45.20544, -2698.632568359375]]], [[[-125.26472, 45.2471, -5270.7109375], [-125.2737, 45.25115, -5847.44091796875], [-125.26522, 45.25566, -5265.40283203125], [-125.26472, 45.2471, -5270.7109375]]], [[[-125.22371, 45.35066, -3280.9306640625], [-125.21385, 45.35357, -2746.751953125], [-125.21717, 45.34463, -2736.829833984375], [-125.22371, 45.35066, -3280.9306640625]]], [[[-125.23756, 45.39135, -4881.6103515625], [-125.23311, 45.39925, -4567.47412109375], [-125.22736, 45.39104, -4013.43017578125], [-125.23756, 45.39135, -4881.6103515625]]], [[[-125.26397, 45.23799, -5259.63525390625], [-125.27288, 45.24215, -5821.47412109375], [-125.26472, 45.2471, -5270.7109375], [-125.26397, 45.23799, -5259.63525390625]]], [[[-125.25564, 45.24274, -4602.09765625], [-125.25591, 45.23411, -4636.77490234375], [-125.26397, 45.23799, -5259.63525390625], [-125.25564, 45.24274, -4602.09765625]]], [[[-125.24723, 45.25462, -3864.017822265625], [-125.25632, 45.25972, -4555.49169921875], [-125.24718, 45.26411, -3807.724365234375], [-125.24723, 45.25462, -3864.017822265625]]], [[[-125.2507, 45.28017, -4335.1806640625], [-125.24885, 45.28981, -4290.73388671875], [-125.24354, 45.2834, -3810.110107421875], [-125.2507, 45.28017, -4335.1806640625]]], [[[-125.22781, 45.23698, -2721.965576171875], [-125.2185, 45.23241, -2192.949951171875], [-125.22823, 45.2293, -2737.742431640625], [-125.22781, 45.23698, -2721.965576171875]]], [[[-125.2551, 45.22703, -4538.177734375], [-125.24962, 45.22126, -3905.383544921875], [-125.25829, 45.21973, -4572.24658203125], [-125.2551, 45.22703, -4538.177734375]]], [[[-125.24617, 45.27364, -3881.458984375], [-125.2563, 45.26808, -4558.68994140625], [-125.25658, 45.27588, -4762.89697265625], [-125.24617, 45.27364, -3881.458984375]]], [[[-125.28613, 45.19888, -5914.55810546875], [-125.29203, 45.19413, -6234.05712890625], [-125.29036, 45.20292, -6255.55615234375], [-125.28613, 45.19888, -5914.55810546875]]], [[[-125.25608, 45.2513, -4597.8583984375], [-125.26472, 45.2471, -5270.7109375], [-125.26522, 45.25566, -5265.40283203125], [-125.25608, 45.2513, -4597.8583984375]]], [[[-125.24512, 45.21291, -3318.3310546875], [-125.24962, 45.22126, -3905.383544921875], [-125.24137, 45.21957, -3306.42626953125], [-125.24512, 45.21291, -3318.3310546875]]], [[[-125.22372, 45.39989, -3825.3779296875], [-125.21977, 45.40792, -3478.807861328125], [-125.21387, 45.40114, -3198.60400390625], [-125.22372, 45.39989, -3825.3779296875]]], [[[-125.24723, 45.25462, -3864.017822265625], [-125.23738, 45.24989, -3279.40087890625], [-125.2468, 45.24591, -3878.822265625], [-125.24723, 45.25462, -3864.017822265625]]], [[[-125.21149, 45.36165, -2731.2177734375], [-125.20207, 45.36523, -2192.949951171875], [-125.20389, 45.35636, -2192.949951171875], [-125.21149, 45.36165, -2731.2177734375]]], [[[-125.24653, 45.23804, -3863.221435546875], [-125.23717, 45.23353, -3302.86474609375], [-125.24705, 45.23044, -3943.5830078125], [-125.24653, 45.23804, -3863.221435546875]]], [[[-125.27675, 45.21393, -5721.4931640625], [-125.28, 45.20426, -5621.5654296875], [-125.28658, 45.21137, -6282.98681640625], [-125.27675, 45.21393, -5721.4931640625]]], [[[-125.23308, 45.29589, -3258.93115234375], [-125.23251, 45.30393, -3279.516845703125], [-125.22373, 45.29976, -2729.75146484375], [-125.23308, 45.29589, -3258.93115234375]]], [[[-125.28173, 45.19483, -5589.7314453125], [-125.29203, 45.19413, -6234.05712890625], [-125.28613, 45.19888, -5914.55810546875], [-125.28173, 45.19483, -5589.7314453125]]], [[[-125.23364, 45.34686, -3835.88427734375], [-125.22371, 45.35066, -3280.9306640625], [-125.22693, 45.34167, -3280.89208984375], [-125.23364, 45.34686, -3835.88427734375]]], [[[-125.26522, 45.25566, -5265.40283203125], [-125.2737, 45.25115, -5847.44091796875], [-125.27451, 45.25973, -5859.7548828125], [-125.26522, 45.25566, -5265.40283203125]]], [[[-125.20615, 45.39748, -2728.3515625], [-125.21625, 45.39317, -3312.329833984375], [-125.21387, 45.40114, -3198.60400390625], [-125.20615, 45.39748, -2728.3515625]]], [[[-125.25132, 45.33601, -4981.59423828125], [-125.25351, 45.32769, -4933.34326171875], [-125.26043, 45.33263, -5561.74365234375], [-125.25132, 45.33601, -4981.59423828125]]], [[[-125.23864, 45.20544, -2698.632568359375], [-125.24795, 45.20479, -3256.524658203125], [-125.24512, 45.21291, -3318.3310546875], [-125.23864, 45.20544, -2698.632568359375]]], [[[-125.27307, 45.22303, -5775.47900390625], [-125.2827, 45.21979, -6313.41552734375], [-125.28015, 45.22844, -6342.365234375], [-125.27307, 45.22303, -5775.47900390625]]], [[[-125.28, 45.20426, -5621.5654296875], [-125.28173, 45.19483, -5589.7314453125], [-125.28613, 45.19888, -5914.55810546875], [-125.28, 45.20426, -5621.5654296875]]], [[[-125.20743, 45.38836, -2731.08056640625], [-125.20615, 45.39748, -2728.3515625], [-125.19803, 45.39196, -2192.949951171875], [-125.20743, 45.38836, -2731.08056640625]]], [[[-125.25632, 45.25972, -4555.49169921875], [-125.26522, 45.25566, -5265.40283203125], [-125.26548, 45.26378, -5254.57421875], [-125.25632, 45.25972, -4555.49169921875]]], [[[-125.24296, 45.39845, -5330.8330078125], [-125.2542, 45.39785, -6031.8046875], [-125.249, 45.406, -5633.30615234375], [-125.24296, 45.39845, -5330.8330078125]]], [[[-125.24176, 45.29227, -3777.11376953125], [-125.23308, 45.29589, -3258.93115234375], [-125.2344, 45.28696, -3256.765380859375], [-125.24176, 45.29227, -3777.11376953125]]], [[[-125.22727, 45.3717, -3824.245849609375], [-125.21934, 45.36681, -3265.828857421875], [-125.22939, 45.36382, -3877.233642578125], [-125.22727, 45.3717, -3824.245849609375]]], [[[-125.2737, 45.25115, -5847.44091796875], [-125.27288, 45.24215, -5821.47412109375], [-125.28169, 45.24614, -6384.95263671875], [-125.2737, 45.25115, -5847.44091796875]]], [[[-125.28, 45.20426, -5621.5654296875], [-125.29036, 45.20292, -6255.55615234375], [-125.28658, 45.21137, -6282.98681640625], [-125.28, 45.20426, -5621.5654296875]]], [[[-125.26316, 45.29005, -5409.1171875], [-125.27132, 45.29471, -5985.66845703125], [-125.2629, 45.29962, -5467.22021484375], [-125.26316, 45.29005, -5409.1171875]]], [[[-125.28, 45.20426, -5621.5654296875], [-125.27199, 45.19546, -4893.8583984375], [-125.28173, 45.19483, -5589.7314453125], [-125.28, 45.20426, -5621.5654296875]]], [[[-125.20993, 45.37036, -2728.99169921875], [-125.20065, 45.37414, -2192.949951171875], [-125.20207, 45.36523, -2192.949951171875], [-125.20993, 45.37036, -2728.99169921875]]], [[[-125.2743, 45.2678, -5869.9404296875], [-125.27451, 45.25973, -5859.7548828125], [-125.28313, 45.26381, -6431.16064453125], [-125.2743, 45.2678, -5869.9404296875]]], [[[-125.24354, 45.2834, -3810.110107421875], [-125.2344, 45.28696, -3256.765380859375], [-125.23614, 45.2785, -3294.423095703125], [-125.24354, 45.2834, -3810.110107421875]]], [[[-125.24489, 45.33194, -4327.904296875], [-125.2428, 45.34069, -4391.4326171875], [-125.23626, 45.33784, -3807.416748046875], [-125.24489, 45.33194, -4327.904296875]]], [[[-125.24617, 45.27364, -3881.458984375], [-125.23614, 45.2785, -3294.423095703125], [-125.2376, 45.26891, -3229.95751953125], [-125.24617, 45.27364, -3881.458984375]]], [[[-125.27111, 45.20777, -5102.6455078125], [-125.27199, 45.19546, -4893.8583984375], [-125.28, 45.20426, -5621.5654296875], [-125.27111, 45.20777, -5102.6455078125]]], [[[-125.24962, 45.22126, -3905.383544921875], [-125.23906, 45.22657, -3347.01416015625], [-125.24137, 45.21957, -3306.42626953125], [-125.24962, 45.22126, -3905.383544921875]]], [[[-125.27111, 45.20777, -5102.6455078125], [-125.26654, 45.20309, -4583.70166015625], [-125.27199, 45.19546, -4893.8583984375], [-125.27111, 45.20777, -5102.6455078125]]], [[[-125.2737, 45.25115, -5847.44091796875], [-125.28169, 45.24614, -6384.95263671875], [-125.2827, 45.25498, -6406.52490234375], [-125.2737, 45.25115, -5847.44091796875]]], [[[-125.2551, 45.22703, -4538.177734375], [-125.25829, 45.21973, -4572.24658203125], [-125.2639, 45.22751, -5235.73193359375], [-125.2551, 45.22703, -4538.177734375]]], [[[-125.27111, 45.20777, -5102.6455078125], [-125.26158, 45.21133, -4466.21435546875], [-125.26654, 45.20309, -4583.70166015625], [-125.27111, 45.20777, -5102.6455078125]]], [[[-125.24705, 45.23044, -3943.5830078125], [-125.2551, 45.22703, -4538.177734375], [-125.25591, 45.23411, -4636.77490234375], [-125.24705, 45.23044, -3943.5830078125]]], [[[-125.2563, 45.26808, -4558.68994140625], [-125.25632, 45.25972, -4555.49169921875], [-125.26548, 45.26378, -5254.57421875], [-125.2563, 45.26808, -4558.68994140625]]], [[[-125.23251, 45.30393, -3279.516845703125], [-125.22366, 45.30787, -2722.83154296875], [-125.22373, 45.29976, -2729.75146484375], [-125.23251, 45.30393, -3279.516845703125]]], [[[-125.25936, 45.39135, -6355.09765625], [-125.24874, 45.38941, -5657.68115234375], [-125.25963, 45.38295, -6279.71142578125], [-125.25936, 45.39135, -6355.09765625]]], [[[-125.27111, 45.20777, -5102.6455078125], [-125.26703, 45.21723, -5172.904296875], [-125.26158, 45.21133, -4466.21435546875], [-125.27111, 45.20777, -5102.6455078125]]], [[[-125.23596, 45.21329, -2751.525390625], [-125.23149, 45.22159, -2759.599609375], [-125.22608, 45.21536, -2192.949951171875], [-125.23596, 45.21329, -2751.525390625]]], [[[-125.26703, 45.21723, -5172.904296875], [-125.27111, 45.20777, -5102.6455078125], [-125.27675, 45.21393, -5721.4931640625], [-125.26703, 45.21723, -5172.904296875]]], [[[-125.26472, 45.2471, -5270.7109375], [-125.25608, 45.2513, -4597.8583984375], [-125.25564, 45.24274, -4602.09765625], [-125.26472, 45.2471, -5270.7109375]]], [[[-125.23906, 45.22657, -3347.01416015625], [-125.23717, 45.23353, -3302.86474609375], [-125.22823, 45.2293, -2737.742431640625], [-125.23906, 45.22657, -3347.01416015625]]], [[[-125.26703, 45.21723, -5172.904296875], [-125.27675, 45.21393, -5721.4931640625], [-125.27307, 45.22303, -5775.47900390625], [-125.26703, 45.21723, -5172.904296875]]], [[[-125.2551, 45.22703, -4538.177734375], [-125.24705, 45.23044, -3943.5830078125], [-125.24962, 45.22126, -3905.383544921875], [-125.2551, 45.22703, -4538.177734375]]], [[[-125.2542, 45.39785, -6031.8046875], [-125.25943, 45.4053, -6291.70751953125], [-125.249, 45.406, -5633.30615234375], [-125.2542, 45.39785, -6031.8046875]]], [[[-125.25565, 45.31238, -4896.078125], [-125.26338, 45.30859, -5487.36962890625], [-125.2634, 45.31665, -5471.72314453125], [-125.25565, 45.31238, -4896.078125]]], [[[-125.21717, 45.34463, -2736.829833984375], [-125.20749, 45.34776, -2192.949951171875], [-125.21014, 45.33899, -2192.949951171875], [-125.21717, 45.34463, -2736.829833984375]]], [[[-125.20993, 45.37036, -2728.99169921875], [-125.20207, 45.36523, -2192.949951171875], [-125.21149, 45.36165, -2731.2177734375], [-125.20993, 45.37036, -2728.99169921875]]], [[[-125.26703, 45.21723, -5172.904296875], [-125.27307, 45.22303, -5775.47900390625], [-125.2639, 45.22751, -5235.73193359375], [-125.26703, 45.21723, -5172.904296875]]], [[[-125.24795, 45.20479, -3256.524658203125], [-125.23864, 45.20544, -2698.632568359375], [-125.24263, 45.1974, -2829.416748046875], [-125.24795, 45.20479, -3256.524658203125]]], [[[-125.23467, 45.37608, -4437.63427734375], [-125.23342, 45.38416, -4416.44287109375], [-125.22595, 45.38077, -3806.2431640625], [-125.23467, 45.37608, -4437.63427734375]]], [[[-125.2376, 45.26891, -3229.95751953125], [-125.23614, 45.2785, -3294.423095703125], [-125.22825, 45.27337, -2740.50732421875], [-125.2376, 45.26891, -3229.95751953125]]], [[[-125.25829, 45.21973, -4572.24658203125], [-125.26703, 45.21723, -5172.904296875], [-125.2639, 45.22751, -5235.73193359375], [-125.25829, 45.21973, -4572.24658203125]]], [[[-125.22939, 45.36382, -3877.233642578125], [-125.21934, 45.36681, -3265.828857421875], [-125.22129, 45.35904, -3294.09375], [-125.22939, 45.36382, -3877.233642578125]]], [[[-125.23311, 45.39925, -4567.47412109375], [-125.22991, 45.40726, -4164.2685546875], [-125.22372, 45.39989, -3825.3779296875], [-125.23311, 45.39925, -4567.47412109375]]], [[[-125.23203, 45.32265, -3216.05712890625], [-125.22442, 45.31706, -2719.732177734375], [-125.23261, 45.31264, -3224.412353515625], [-125.23203, 45.32265, -3216.05712890625]]], [[[-125.26703, 45.21723, -5172.904296875], [-125.25829, 45.21973, -4572.24658203125], [-125.26158, 45.21133, -4466.21435546875], [-125.26703, 45.21723, -5172.904296875]]], [[[-125.258, 45.20414, -3895.802490234375], [-125.25305, 45.19672, -3460.768798828125], [-125.26307, 45.19607, -4132.3037109375], [-125.258, 45.20414, -3895.802490234375]]], [[[-125.25583, 45.35023, -5660.83740234375], [-125.26317, 45.35564, -6221.80029296875], [-125.25401, 45.35973, -5701.634765625], [-125.25583, 45.35023, -5660.83740234375]]], [[[-125.23614, 45.2785, -3294.423095703125], [-125.2264, 45.28197, -2731.400390625], [-125.22825, 45.27337, -2740.50732421875], [-125.23614, 45.2785, -3294.423095703125]]], [[[-125.27675, 45.21393, -5721.4931640625], [-125.28658, 45.21137, -6282.98681640625], [-125.2827, 45.21979, -6313.41552734375], [-125.27675, 45.21393, -5721.4931640625]]], [[[-125.22693, 45.34167, -3280.89208984375], [-125.22371, 45.35066, -3280.9306640625], [-125.21717, 45.34463, -2736.829833984375], [-125.22693, 45.34167, -3280.89208984375]]], [[[-125.24653, 45.23804, -3863.221435546875], [-125.2468, 45.24591, -3878.822265625], [-125.23695, 45.24144, -3246.757568359375], [-125.24653, 45.23804, -3863.221435546875]]], [[[-125.23467, 45.37608, -4437.63427734375], [-125.22595, 45.38077, -3806.2431640625], [-125.22727, 45.3717, -3824.245849609375], [-125.23467, 45.37608, -4437.63427734375]]], [[[-125.2428, 45.34069, -4391.4326171875], [-125.24489, 45.33194, -4327.904296875], [-125.25132, 45.33601, -4981.59423828125], [-125.2428, 45.34069, -4391.4326171875]]], [[[-125.22442, 45.31706, -2719.732177734375], [-125.22366, 45.30787, -2722.83154296875], [-125.23261, 45.31264, -3224.412353515625], [-125.22442, 45.31706, -2719.732177734375]]], [[[-125.25829, 45.21973, -4572.24658203125], [-125.25303, 45.21238, -3848.68603515625], [-125.26158, 45.21133, -4466.21435546875], [-125.25829, 45.21973, -4572.24658203125]]], [[[-125.25501, 45.29501, -4864.65966796875], [-125.2629, 45.29962, -5467.22021484375], [-125.25515, 45.30416, -4907.4765625], [-125.25501, 45.29501, -4864.65966796875]]], [[[-125.2654, 45.34644, -6170.77880859375], [-125.2746, 45.34302, -6744.8037109375], [-125.27202, 45.35169, -6789.24609375], [-125.2654, 45.34644, -6170.77880859375]]], [[[-125.22955, 45.26349, -2722.477783203125], [-125.22056, 45.25923, -2192.949951171875], [-125.22862, 45.25413, -2724.214111328125], [-125.22955, 45.26349, -2722.477783203125]]], [[[-125.24653, 45.23804, -3863.221435546875], [-125.24705, 45.23044, -3943.5830078125], [-125.25591, 45.23411, -4636.77490234375], [-125.24653, 45.23804, -3863.221435546875]]], [[[-125.24962, 45.22126, -3905.383544921875], [-125.25303, 45.21238, -3848.68603515625], [-125.25829, 45.21973, -4572.24658203125], [-125.24962, 45.22126, -3905.383544921875]]], [[[-125.24354, 45.2834, -3810.110107421875], [-125.23614, 45.2785, -3294.423095703125], [-125.24617, 45.27364, -3881.458984375], [-125.24354, 45.2834, -3810.110107421875]]], [[[-125.2542, 45.39785, -6031.8046875], [-125.26343, 45.40061, -6632.9248046875], [-125.25943, 45.4053, -6291.70751953125], [-125.2542, 45.39785, -6031.8046875]]], [[[-125.21385, 45.35357, -2746.751953125], [-125.20389, 45.35636, -2192.949951171875], [-125.20749, 45.34776, -2192.949951171875], [-125.21385, 45.35357, -2746.751953125]]], [[[-125.23596, 45.21329, -2751.525390625], [-125.22608, 45.21536, -2192.949951171875], [-125.23026, 45.20689, -2192.949951171875], [-125.23596, 45.21329, -2751.525390625]]], [[[-125.24653, 45.32351, -4239.6357421875], [-125.25351, 45.32769, -4933.34326171875], [-125.24489, 45.33194, -4327.904296875], [-125.24653, 45.32351, -4239.6357421875]]], [[[-125.24512, 45.21291, -3318.3310546875], [-125.25303, 45.21238, -3848.68603515625], [-125.24962, 45.22126, -3905.383544921875], [-125.24512, 45.21291, -3318.3310546875]]], [[[-125.24215, 45.38263, -5105.84521484375], [-125.24396, 45.37341, -5158.44384765625], [-125.25173, 45.37869, -5723.0205078125], [-125.24215, 45.38263, -5105.84521484375]]], [[[-125.25303, 45.21238, -3848.68603515625], [-125.24512, 45.21291, -3318.3310546875], [-125.24795, 45.20479, -3256.524658203125], [-125.25303, 45.21238, -3848.68603515625]]], [[[-125.21934, 45.36681, -3265.828857421875], [-125.21806, 45.37525, -3260.9814453125], [-125.20993, 45.37036, -2728.99169921875], [-125.21934, 45.36681, -3265.828857421875]]], [[[-125.24137, 45.21957, -3306.42626953125], [-125.23596, 45.21329, -2751.525390625], [-125.24512, 45.21291, -3318.3310546875], [-125.24137, 45.21957, -3306.42626953125]]], [[[-125.2264, 45.28197, -2731.400390625], [-125.2183, 45.2769, -2192.949951171875], [-125.22825, 45.27337, -2740.50732421875], [-125.2264, 45.28197, -2731.400390625]]], [[[-125.25303, 45.21238, -3848.68603515625], [-125.24795, 45.20479, -3256.524658203125], [-125.258, 45.20414, -3895.802490234375], [-125.25303, 45.21238, -3848.68603515625]]], [[[-125.25564, 45.24274, -4602.09765625], [-125.26397, 45.23799, -5259.63525390625], [-125.26472, 45.2471, -5270.7109375], [-125.25564, 45.24274, -4602.09765625]]], [[[-125.24885, 45.28981, -4290.73388671875], [-125.24786, 45.29921, -4339.4013671875], [-125.24176, 45.29227, -3777.11376953125], [-125.24885, 45.28981, -4290.73388671875]]], [[[-125.23149, 45.22159, -2759.599609375], [-125.22139, 45.22368, -2192.949951171875], [-125.22608, 45.21536, -2192.949951171875], [-125.23149, 45.22159, -2759.599609375]]], [[[-125.22373, 45.29976, -2729.75146484375], [-125.21438, 45.30365, -2192.949951171875], [-125.21592, 45.29476, -2192.949951171875], [-125.22373, 45.29976, -2729.75146484375]]], [[[-125.20884, 45.37899, -2725.56494140625], [-125.20743, 45.38836, -2731.08056640625], [-125.19978, 45.38308, -2192.949951171875], [-125.20884, 45.37899, -2725.56494140625]]], [[[-125.24653, 45.32351, -4239.6357421875], [-125.25493, 45.32014, -4850.12890625], [-125.25351, 45.32769, -4933.34326171875], [-125.24653, 45.32351, -4239.6357421875]]], [[[-125.21625, 45.39317, -3312.329833984375], [-125.22372, 45.39989, -3825.3779296875], [-125.21387, 45.40114, -3198.60400390625], [-125.21625, 45.39317, -3312.329833984375]]], [[[-125.258, 45.20414, -3895.802490234375], [-125.26158, 45.21133, -4466.21435546875], [-125.25303, 45.21238, -3848.68603515625], [-125.258, 45.20414, -3895.802490234375]]], [[[-125.24785, 45.30749, -4290.97314453125], [-125.25565, 45.31238, -4896.078125], [-125.24828, 45.31486, -4297.20947265625], [-125.24785, 45.30749, -4290.97314453125]]], [[[-125.26158, 45.21133, -4466.21435546875], [-125.258, 45.20414, -3895.802490234375], [-125.26654, 45.20309, -4583.70166015625], [-125.26158, 45.21133, -4466.21435546875]]], [[[-125.27207, 45.23302, -5798.705078125], [-125.27307, 45.22303, -5775.47900390625], [-125.28015, 45.22844, -6342.365234375], [-125.27207, 45.23302, -5798.705078125]]], [[[-125.258, 45.20414, -3895.802490234375], [-125.26307, 45.19607, -4132.3037109375], [-125.26654, 45.20309, -4583.70166015625], [-125.258, 45.20414, -3895.802490234375]]], [[[-125.23311, 45.39925, -4567.47412109375], [-125.24296, 45.39845, -5330.8330078125], [-125.23903, 45.40665, -4933.24462890625], [-125.23311, 45.39925, -4567.47412109375]]], [[[-125.24785, 45.30749, -4290.97314453125], [-125.25515, 45.30416, -4907.4765625], [-125.25565, 45.31238, -4896.078125], [-125.24785, 45.30749, -4290.97314453125]]], [[[-125.21625, 45.39317, -3312.329833984375], [-125.21739, 45.38468, -3293.734619140625], [-125.22736, 45.39104, -4013.43017578125], [-125.21625, 45.39317, -3312.329833984375]]], [[[-125.24785, 45.30749, -4290.97314453125], [-125.24828, 45.31486, -4297.20947265625], [-125.24069, 45.30879, -3757.48974609375], [-125.24785, 45.30749, -4290.97314453125]]], [[[-125.24795, 45.20479, -3256.524658203125], [-125.25305, 45.19672, -3460.768798828125], [-125.258, 45.20414, -3895.802490234375], [-125.24795, 45.20479, -3256.524658203125]]], [[[-125.24828, 45.31486, -4297.20947265625], [-125.24653, 45.32351, -4239.6357421875], [-125.24032, 45.31801, -3705.44384765625], [-125.24828, 45.31486, -4297.20947265625]]], [[[-125.24795, 45.20479, -3256.524658203125], [-125.24263, 45.1974, -2829.416748046875], [-125.25305, 45.19672, -3460.768798828125], [-125.24795, 45.20479, -3256.524658203125]]], [[[-125.23203, 45.32265, -3216.05712890625], [-125.23842, 45.32819, -3738.739990234375], [-125.22971, 45.33265, -3272.63525390625], [-125.23203, 45.32265, -3216.05712890625]]], [[[-125.21717, 45.34463, -2736.829833984375], [-125.21014, 45.33899, -2192.949951171875], [-125.2199, 45.33605, -2740.859130859375], [-125.21717, 45.34463, -2736.829833984375]]], [[[-125.264, 45.28087, -5376.759765625], [-125.27205, 45.28568, -5942.59912109375], [-125.26316, 45.29005, -5409.1171875], [-125.264, 45.28087, -5376.759765625]]], [[[-125.2468, 45.24591, -3878.822265625], [-125.23738, 45.24989, -3279.40087890625], [-125.23695, 45.24144, -3246.757568359375], [-125.2468, 45.24591, -3878.822265625]]], [[[-125.2199, 45.33605, -2740.859130859375], [-125.21014, 45.33899, -2192.949951171875], [-125.21312, 45.33027, -2192.949951171875], [-125.2199, 45.33605, -2740.859130859375]]], [[[-125.23342, 45.38416, -4416.44287109375], [-125.24215, 45.38263, -5105.84521484375], [-125.23756, 45.39135, -4881.6103515625], [-125.23342, 45.38416, -4416.44287109375]]], [[[-125.264, 45.28087, -5376.759765625], [-125.26499, 45.27191, -5352.412109375], [-125.27299, 45.27669, -5911.93798828125], [-125.264, 45.28087, -5376.759765625]]], [[[-125.23596, 45.21329, -2751.525390625], [-125.23026, 45.20689, -2192.949951171875], [-125.23864, 45.20544, -2698.632568359375], [-125.23596, 45.21329, -2751.525390625]]], [[[-125.26548, 45.26378, -5254.57421875], [-125.27451, 45.25973, -5859.7548828125], [-125.2743, 45.2678, -5869.9404296875], [-125.26548, 45.26378, -5254.57421875]]], [[[-125.23596, 45.21329, -2751.525390625], [-125.24137, 45.21957, -3306.42626953125], [-125.23149, 45.22159, -2759.599609375], [-125.23596, 45.21329, -2751.525390625]]], [[[-125.22366, 45.30787, -2722.83154296875], [-125.21438, 45.30365, -2192.949951171875], [-125.22373, 45.29976, -2729.75146484375], [-125.22366, 45.30787, -2722.83154296875]]], [[[-125.20884, 45.37899, -2725.56494140625], [-125.19978, 45.38308, -2192.949951171875], [-125.20065, 45.37414, -2192.949951171875], [-125.20884, 45.37899, -2725.56494140625]]], [[[-125.21934, 45.36681, -3265.828857421875], [-125.20993, 45.37036, -2728.99169921875], [-125.21149, 45.36165, -2731.2177734375], [-125.21934, 45.36681, -3265.828857421875]]], [[[-125.24215, 45.38263, -5105.84521484375], [-125.23467, 45.37608, -4437.63427734375], [-125.24396, 45.37341, -5158.44384765625], [-125.24215, 45.38263, -5105.84521484375]]], [[[-125.25658, 45.27588, -4762.89697265625], [-125.25595, 45.28552, -4823.0498046875], [-125.2507, 45.28017, -4335.1806640625], [-125.25658, 45.27588, -4762.89697265625]]], [[[-125.24056, 45.34972, -4456.12939453125], [-125.2428, 45.34069, -4391.4326171875], [-125.24915, 45.34499, -5030.79541015625], [-125.24056, 45.34972, -4456.12939453125]]], [[[-125.24705, 45.23044, -3943.5830078125], [-125.23906, 45.22657, -3347.01416015625], [-125.24962, 45.22126, -3905.383544921875], [-125.24705, 45.23044, -3943.5830078125]]], [[[-125.25173, 45.37869, -5723.0205078125], [-125.25963, 45.38295, -6279.71142578125], [-125.24874, 45.38941, -5657.68115234375], [-125.25173, 45.37869, -5723.0205078125]]], [[[-125.25132, 45.33601, -4981.59423828125], [-125.24489, 45.33194, -4327.904296875], [-125.25351, 45.32769, -4933.34326171875], [-125.25132, 45.33601, -4981.59423828125]]], [[[-125.24705, 45.23044, -3943.5830078125], [-125.23717, 45.23353, -3302.86474609375], [-125.23906, 45.22657, -3347.01416015625], [-125.24705, 45.23044, -3943.5830078125]]], [[[-125.24215, 45.38263, -5105.84521484375], [-125.25173, 45.37869, -5723.0205078125], [-125.24874, 45.38941, -5657.68115234375], [-125.24215, 45.38263, -5105.84521484375]]], [[[-125.20884, 45.37899, -2725.56494140625], [-125.20065, 45.37414, -2192.949951171875], [-125.20993, 45.37036, -2728.99169921875], [-125.20884, 45.37899, -2725.56494140625]]], [[[-125.2563, 45.26808, -4558.68994140625], [-125.26548, 45.26378, -5254.57421875], [-125.26499, 45.27191, -5352.412109375], [-125.2563, 45.26808, -4558.68994140625]]], [[[-125.24653, 45.23804, -3863.221435546875], [-125.23695, 45.24144, -3246.757568359375], [-125.23717, 45.23353, -3302.86474609375], [-125.24653, 45.23804, -3863.221435546875]]], [[[-125.22371, 45.35066, -3280.9306640625], [-125.22129, 45.35904, -3294.09375], [-125.21385, 45.35357, -2746.751953125], [-125.22371, 45.35066, -3280.9306640625]]], [[[-125.2634, 45.31665, -5471.72314453125], [-125.27202, 45.3206, -6051.54345703125], [-125.26255, 45.32423, -5509.7763671875], [-125.2634, 45.31665, -5471.72314453125]]], [[[-125.2468, 45.24591, -3878.822265625], [-125.25564, 45.24274, -4602.09765625], [-125.25608, 45.2513, -4597.8583984375], [-125.2468, 45.24591, -3878.822265625]]], [[[-125.21977, 45.40792, -3478.807861328125], [-125.22372, 45.39989, -3825.3779296875], [-125.22991, 45.40726, -4164.2685546875], [-125.21977, 45.40792, -3478.807861328125]]], [[[-125.24653, 45.23804, -3863.221435546875], [-125.25564, 45.24274, -4602.09765625], [-125.2468, 45.24591, -3878.822265625], [-125.24653, 45.23804, -3863.221435546875]]], [[[-125.24785, 45.30749, -4290.97314453125], [-125.24088, 45.30046, -3804.125], [-125.24786, 45.29921, -4339.4013671875], [-125.24785, 45.30749, -4290.97314453125]]], [[[-125.21739, 45.38468, -3293.734619140625], [-125.21625, 45.39317, -3312.329833984375], [-125.20743, 45.38836, -2731.08056640625], [-125.21739, 45.38468, -3293.734619140625]]], [[[-125.24653, 45.23804, -3863.221435546875], [-125.25591, 45.23411, -4636.77490234375], [-125.25564, 45.24274, -4602.09765625], [-125.24653, 45.23804, -3863.221435546875]]], [[[-125.25632, 45.25972, -4555.49169921875], [-125.2563, 45.26808, -4558.68994140625], [-125.24718, 45.26411, -3807.724365234375], [-125.25632, 45.25972, -4555.49169921875]]], [[[-125.2551, 45.22703, -4538.177734375], [-125.2639, 45.22751, -5235.73193359375], [-125.25591, 45.23411, -4636.77490234375], [-125.2551, 45.22703, -4538.177734375]]], [[[-125.25515, 45.30416, -4907.4765625], [-125.2629, 45.29962, -5467.22021484375], [-125.26338, 45.30859, -5487.36962890625], [-125.25515, 45.30416, -4907.4765625]]], [[[-125.25591, 45.23411, -4636.77490234375], [-125.2639, 45.22751, -5235.73193359375], [-125.26397, 45.23799, -5259.63525390625], [-125.25591, 45.23411, -4636.77490234375]]], [[[-125.20615, 45.39748, -2728.3515625], [-125.19706, 45.4009, -2192.949951171875], [-125.19803, 45.39196, -2192.949951171875], [-125.20615, 45.39748, -2728.3515625]]], [[[-125.20615, 45.39748, -2728.3515625], [-125.21387, 45.40114, -3198.60400390625], [-125.20309, 45.40475, -2513.95263671875], [-125.20615, 45.39748, -2728.3515625]]], [[[-125.24874, 45.38941, -5657.68115234375], [-125.24296, 45.39845, -5330.8330078125], [-125.23756, 45.39135, -4881.6103515625], [-125.24874, 45.38941, -5657.68115234375]]], [[[-125.22595, 45.38077, -3806.2431640625], [-125.21806, 45.37525, -3260.9814453125], [-125.22727, 45.3717, -3824.245849609375], [-125.22595, 45.38077, -3806.2431640625]]], [[[-125.23311, 45.39925, -4567.47412109375], [-125.23756, 45.39135, -4881.6103515625], [-125.24296, 45.39845, -5330.8330078125], [-125.23311, 45.39925, -4567.47412109375]]], [[[-125.25632, 45.25972, -4555.49169921875], [-125.25608, 45.2513, -4597.8583984375], [-125.26522, 45.25566, -5265.40283203125], [-125.25632, 45.25972, -4555.49169921875]]], [[[-125.21739, 45.38468, -3293.734619140625], [-125.20743, 45.38836, -2731.08056640625], [-125.20884, 45.37899, -2725.56494140625], [-125.21739, 45.38468, -3293.734619140625]]], [[[-125.19861, 45.40925, -2192.949951171875], [-125.20309, 45.40475, -2513.95263671875], [-125.20917, 45.4086, -2838.044677734375], [-125.19861, 45.40925, -2192.949951171875]]], [[[-125.2639, 45.22751, -5235.73193359375], [-125.27207, 45.23302, -5798.705078125], [-125.26397, 45.23799, -5259.63525390625], [-125.2639, 45.22751, -5235.73193359375]]], [[[-125.25493, 45.32014, -4850.12890625], [-125.2634, 45.31665, -5471.72314453125], [-125.26255, 45.32423, -5509.7763671875], [-125.25493, 45.32014, -4850.12890625]]], [[[-125.24885, 45.28981, -4290.73388671875], [-125.2507, 45.28017, -4335.1806640625], [-125.25595, 45.28552, -4823.0498046875], [-125.24885, 45.28981, -4290.73388671875]]], [[[-125.25632, 45.25972, -4555.49169921875], [-125.24723, 45.25462, -3864.017822265625], [-125.25608, 45.2513, -4597.8583984375], [-125.25632, 45.25972, -4555.49169921875]]], [[[-125.26397, 45.23799, -5259.63525390625], [-125.27207, 45.23302, -5798.705078125], [-125.27288, 45.24215, -5821.47412109375], [-125.26397, 45.23799, -5259.63525390625]]], [[[-125.26317, 45.35564, -6221.80029296875], [-125.2654, 45.34644, -6170.77880859375], [-125.27202, 45.35169, -6789.24609375], [-125.26317, 45.35564, -6221.80029296875]]], [[[-125.24718, 45.26411, -3807.724365234375], [-125.23803, 45.25888, -3252.138916015625], [-125.24723, 45.25462, -3864.017822265625], [-125.24718, 45.26411, -3807.724365234375]]], [[[-125.24718, 45.26411, -3807.724365234375], [-125.2376, 45.26891, -3229.95751953125], [-125.23803, 45.25888, -3252.138916015625], [-125.24718, 45.26411, -3807.724365234375]]], [[[-125.27207, 45.23302, -5798.705078125], [-125.28015, 45.22844, -6342.365234375], [-125.28101, 45.23728, -6362.27197265625], [-125.27207, 45.23302, -5798.705078125]]], [[[-125.24684, 45.35439, -5118.27099609375], [-125.25583, 45.35023, -5660.83740234375], [-125.25401, 45.35973, -5701.634765625], [-125.24684, 45.35439, -5118.27099609375]]], [[[-125.24617, 45.27364, -3881.458984375], [-125.2376, 45.26891, -3229.95751953125], [-125.24718, 45.26411, -3807.724365234375], [-125.24617, 45.27364, -3881.458984375]]], [[[-125.22971, 45.33265, -3272.63525390625], [-125.22693, 45.34167, -3280.89208984375], [-125.2199, 45.33605, -2740.859130859375], [-125.22971, 45.33265, -3272.63525390625]]], [[[-125.26499, 45.27191, -5352.412109375], [-125.2743, 45.2678, -5869.9404296875], [-125.27299, 45.27669, -5911.93798828125], [-125.26499, 45.27191, -5352.412109375]]], [[[-125.22971, 45.33265, -3272.63525390625], [-125.2199, 45.33605, -2740.859130859375], [-125.2229, 45.3271, -2738.209716796875], [-125.22971, 45.33265, -3272.63525390625]]], [[[-125.23342, 45.38416, -4416.44287109375], [-125.23756, 45.39135, -4881.6103515625], [-125.22736, 45.39104, -4013.43017578125], [-125.23342, 45.38416, -4416.44287109375]]], [[[-125.20917, 45.4086, -2838.044677734375], [-125.20309, 45.40475, -2513.95263671875], [-125.21387, 45.40114, -3198.60400390625], [-125.20917, 45.4086, -2838.044677734375]]], [[[-125.25658, 45.27588, -4762.89697265625], [-125.2563, 45.26808, -4558.68994140625], [-125.26499, 45.27191, -5352.412109375], [-125.25658, 45.27588, -4762.89697265625]]], [[[-125.24176, 45.29227, -3777.11376953125], [-125.2344, 45.28696, -3256.765380859375], [-125.24354, 45.2834, -3810.110107421875], [-125.24176, 45.29227, -3777.11376953125]]], [[[-125.22517, 45.29095, -2730.34619140625], [-125.21592, 45.29476, -2192.949951171875], [-125.21722, 45.28584, -2192.949951171875], [-125.22517, 45.29095, -2730.34619140625]]], [[[-125.24529, 45.36415, -5153.04052734375], [-125.24684, 45.35439, -5118.27099609375], [-125.25401, 45.35973, -5701.634765625], [-125.24529, 45.36415, -5153.04052734375]]], [[[-125.21625, 45.39317, -3312.329833984375], [-125.22736, 45.39104, -4013.43017578125], [-125.22372, 45.39989, -3825.3779296875], [-125.21625, 45.39317, -3312.329833984375]]], [[[-125.25963, 45.38295, -6279.71142578125], [-125.26913, 45.37818, -6904.07666015625], [-125.26804, 45.38701, -6941.32373046875], [-125.25963, 45.38295, -6279.71142578125]]], [[[-125.24088, 45.30046, -3804.125], [-125.23308, 45.29589, -3258.93115234375], [-125.24176, 45.29227, -3777.11376953125], [-125.24088, 45.30046, -3804.125]]], [[[-125.23308, 45.29589, -3258.93115234375], [-125.24088, 45.30046, -3804.125], [-125.23251, 45.30393, -3279.516845703125], [-125.23308, 45.29589, -3258.93115234375]]], [[[-125.24617, 45.27364, -3881.458984375], [-125.2507, 45.28017, -4335.1806640625], [-125.24354, 45.2834, -3810.110107421875], [-125.24617, 45.27364, -3881.458984375]]], [[[-125.25943, 45.4053, -6291.70751953125], [-125.26343, 45.40061, -6632.9248046875], [-125.26932, 45.40465, -6998.99951171875], [-125.25943, 45.4053, -6291.70751953125]]], [[[-125.23308, 45.29589, -3258.93115234375], [-125.22373, 45.29976, -2729.75146484375], [-125.22517, 45.29095, -2730.34619140625], [-125.23308, 45.29589, -3258.93115234375]]], [[[-125.26343, 45.40061, -6632.9248046875], [-125.26756, 45.39587, -6975.3642578125], [-125.26932, 45.40465, -6998.99951171875], [-125.26343, 45.40061, -6632.9248046875]]], [[[-125.2344, 45.28696, -3256.765380859375], [-125.23308, 45.29589, -3258.93115234375], [-125.22517, 45.29095, -2730.34619140625], [-125.2344, 45.28696, -3256.765380859375]]], [[[-125.26193, 45.3647, -6263.2861328125], [-125.27052, 45.36048, -6829.75146484375], [-125.26962, 45.36932, -6867.78125], [-125.26193, 45.3647, -6263.2861328125]]], [[[-125.21149, 45.36165, -2731.2177734375], [-125.20389, 45.35636, -2192.949951171875], [-125.21385, 45.35357, -2746.751953125], [-125.21149, 45.36165, -2731.2177734375]]], [[[-125.2344, 45.28696, -3256.765380859375], [-125.22517, 45.29095, -2730.34619140625], [-125.2264, 45.28197, -2731.400390625], [-125.2344, 45.28696, -3256.765380859375]]], [[[-125.24396, 45.37341, -5158.44384765625], [-125.24529, 45.36415, -5153.04052734375], [-125.253, 45.36905, -5737.54833984375], [-125.24396, 45.37341, -5158.44384765625]]], [[[-125.23614, 45.2785, -3294.423095703125], [-125.2344, 45.28696, -3256.765380859375], [-125.2264, 45.28197, -2731.400390625], [-125.23614, 45.2785, -3294.423095703125]]], [[[-125.19861, 45.40925, -2192.949951171875], [-125.19706, 45.4009, -2192.949951171875], [-125.20309, 45.40475, -2513.95263671875], [-125.19861, 45.40925, -2192.949951171875]]], [[[-125.2376, 45.26891, -3229.95751953125], [-125.22825, 45.27337, -2740.50732421875], [-125.22955, 45.26349, -2722.477783203125], [-125.2376, 45.26891, -3229.95751953125]]], [[[-125.28313, 45.26381, -6431.16064453125], [-125.27451, 45.25973, -5859.7548828125], [-125.2827, 45.25498, -6406.52490234375], [-125.28313, 45.26381, -6431.16064453125]]], [[[-125.23803, 45.25888, -3252.138916015625], [-125.2376, 45.26891, -3229.95751953125], [-125.22955, 45.26349, -2722.477783203125], [-125.23803, 45.25888, -3252.138916015625]]], [[[-125.24885, 45.28981, -4290.73388671875], [-125.24176, 45.29227, -3777.11376953125], [-125.24354, 45.2834, -3810.110107421875], [-125.24885, 45.28981, -4290.73388671875]]], [[[-125.23803, 45.25888, -3252.138916015625], [-125.22955, 45.26349, -2722.477783203125], [-125.22862, 45.25413, -2724.214111328125], [-125.23803, 45.25888, -3252.138916015625]]], [[[-125.2716, 45.30407, -6009.81884765625], [-125.27955, 45.29915, -6561.08642578125], [-125.28029, 45.308, -6589.576171875], [-125.2716, 45.30407, -6009.81884765625]]], [[[-125.23738, 45.24989, -3279.40087890625], [-125.23803, 45.25888, -3252.138916015625], [-125.22862, 45.25413, -2724.214111328125], [-125.23738, 45.24989, -3279.40087890625]]], [[[-125.25963, 45.38295, -6279.71142578125], [-125.26124, 45.37372, -6299.50732421875], [-125.26913, 45.37818, -6904.07666015625], [-125.25963, 45.38295, -6279.71142578125]]], [[[-125.23626, 45.33784, -3807.416748046875], [-125.22693, 45.34167, -3280.89208984375], [-125.22971, 45.33265, -3272.63525390625], [-125.23626, 45.33784, -3807.416748046875]]], [[[-125.24723, 45.25462, -3864.017822265625], [-125.23803, 45.25888, -3252.138916015625], [-125.23738, 45.24989, -3279.40087890625], [-125.24723, 45.25462, -3864.017822265625]]], [[[-125.27299, 45.27669, -5911.93798828125], [-125.28187, 45.27263, -6463.1181640625], [-125.28076, 45.28146, -6495.6708984375], [-125.27299, 45.27669, -5911.93798828125]]], [[[-125.24915, 45.34499, -5030.79541015625], [-125.25132, 45.33601, -4981.59423828125], [-125.2582, 45.3412, -5593.55615234375], [-125.24915, 45.34499, -5030.79541015625]]], [[[-125.24215, 45.38263, -5105.84521484375], [-125.24874, 45.38941, -5657.68115234375], [-125.23756, 45.39135, -4881.6103515625], [-125.24215, 45.38263, -5105.84521484375]]], [[[-125.2468, 45.24591, -3878.822265625], [-125.25608, 45.2513, -4597.8583984375], [-125.24723, 45.25462, -3864.017822265625], [-125.2468, 45.24591, -3878.822265625]]], [[[-125.23364, 45.34686, -3835.88427734375], [-125.22693, 45.34167, -3280.89208984375], [-125.23626, 45.33784, -3807.416748046875], [-125.23364, 45.34686, -3835.88427734375]]], [[[-125.23467, 45.37608, -4437.63427734375], [-125.24215, 45.38263, -5105.84521484375], [-125.23342, 45.38416, -4416.44287109375], [-125.23467, 45.37608, -4437.63427734375]]], [[[-125.26548, 45.26378, -5254.57421875], [-125.2743, 45.2678, -5869.9404296875], [-125.26499, 45.27191, -5352.412109375], [-125.26548, 45.26378, -5254.57421875]]], [[[-125.2716, 45.30407, -6009.81884765625], [-125.27132, 45.29471, -5985.66845703125], [-125.27955, 45.29915, -6561.08642578125], [-125.2716, 45.30407, -6009.81884765625]]], [[[-125.23738, 45.24989, -3279.40087890625], [-125.2282, 45.24594, -2725.046630859375], [-125.23695, 45.24144, -3246.757568359375], [-125.23738, 45.24989, -3279.40087890625]]], [[[-125.27111, 45.20777, -5102.6455078125], [-125.28, 45.20426, -5621.5654296875], [-125.27675, 45.21393, -5721.4931640625], [-125.27111, 45.20777, -5102.6455078125]]], [[[-125.23738, 45.24989, -3279.40087890625], [-125.22862, 45.25413, -2724.214111328125], [-125.2282, 45.24594, -2725.046630859375], [-125.23738, 45.24989, -3279.40087890625]]], [[[-125.27003, 45.32911, -6089.77294921875], [-125.27917, 45.32559, -6659.1845703125], [-125.27686, 45.3343, -6702.18359375], [-125.27003, 45.32911, -6089.77294921875]]], [[[-125.22862, 45.25413, -2724.214111328125], [-125.21938, 45.2503, -2192.949951171875], [-125.2282, 45.24594, -2725.046630859375], [-125.22862, 45.25413, -2724.214111328125]]], [[[-125.24056, 45.34972, -4456.12939453125], [-125.23119, 45.35542, -3877.79052734375], [-125.23364, 45.34686, -3835.88427734375], [-125.24056, 45.34972, -4456.12939453125]]], [[[-125.22862, 45.25413, -2724.214111328125], [-125.22056, 45.25923, -2192.949951171875], [-125.21938, 45.2503, -2192.949951171875], [-125.22862, 45.25413, -2724.214111328125]]], [[[-125.23846, 45.35893, -4532.40771484375], [-125.24056, 45.34972, -4456.12939453125], [-125.24684, 45.35439, -5118.27099609375], [-125.23846, 45.35893, -4532.40771484375]]], [[[-125.24489, 45.33194, -4327.904296875], [-125.23626, 45.33784, -3807.416748046875], [-125.23842, 45.32819, -3738.739990234375], [-125.24489, 45.33194, -4327.904296875]]], [[[-125.26778, 45.33788, -6127.9404296875], [-125.27003, 45.32911, -6089.77294921875], [-125.27686, 45.3343, -6702.18359375], [-125.26778, 45.33788, -6127.9404296875]]], [[[-125.22955, 45.26349, -2722.477783203125], [-125.22121, 45.26818, -2192.949951171875], [-125.22056, 45.25923, -2192.949951171875], [-125.22955, 45.26349, -2722.477783203125]]], [[[-125.21385, 45.35357, -2746.751953125], [-125.20749, 45.34776, -2192.949951171875], [-125.21717, 45.34463, -2736.829833984375], [-125.21385, 45.35357, -2746.751953125]]], [[[-125.22825, 45.27337, -2740.50732421875], [-125.22121, 45.26818, -2192.949951171875], [-125.22955, 45.26349, -2722.477783203125], [-125.22825, 45.27337, -2740.50732421875]]], [[[-125.22825, 45.27337, -2740.50732421875], [-125.2183, 45.2769, -2192.949951171875], [-125.22121, 45.26818, -2192.949951171875], [-125.22825, 45.27337, -2740.50732421875]]], [[[-125.2264, 45.28197, -2731.400390625], [-125.21722, 45.28584, -2192.949951171875], [-125.2183, 45.2769, -2192.949951171875], [-125.2264, 45.28197, -2731.400390625]]], [[[-125.22517, 45.29095, -2730.34619140625], [-125.21722, 45.28584, -2192.949951171875], [-125.2264, 45.28197, -2731.400390625], [-125.22517, 45.29095, -2730.34619140625]]], [[[-125.25936, 45.39135, -6355.09765625], [-125.25963, 45.38295, -6279.71142578125], [-125.26804, 45.38701, -6941.32373046875], [-125.25936, 45.39135, -6355.09765625]]], [[[-125.22373, 45.29976, -2729.75146484375], [-125.21592, 45.29476, -2192.949951171875], [-125.22517, 45.29095, -2730.34619140625], [-125.22373, 45.29976, -2729.75146484375]]], [[[-125.22366, 45.30787, -2722.83154296875], [-125.2156, 45.31258, -2192.949951171875], [-125.21438, 45.30365, -2192.949951171875], [-125.22366, 45.30787, -2722.83154296875]]], [[[-125.22442, 45.31706, -2719.732177734375], [-125.2156, 45.31258, -2192.949951171875], [-125.22366, 45.30787, -2722.83154296875], [-125.22442, 45.31706, -2719.732177734375]]], [[[-125.22442, 45.31706, -2719.732177734375], [-125.21597, 45.32154, -2192.949951171875], [-125.2156, 45.31258, -2192.949951171875], [-125.22442, 45.31706, -2719.732177734375]]], [[[-125.22442, 45.31706, -2719.732177734375], [-125.2229, 45.3271, -2738.209716796875], [-125.21597, 45.32154, -2192.949951171875], [-125.22442, 45.31706, -2719.732177734375]]], [[[-125.23203, 45.32265, -3216.05712890625], [-125.2229, 45.3271, -2738.209716796875], [-125.22442, 45.31706, -2719.732177734375], [-125.23203, 45.32265, -3216.05712890625]]], [[[-125.23203, 45.32265, -3216.05712890625], [-125.22971, 45.33265, -3272.63525390625], [-125.2229, 45.3271, -2738.209716796875], [-125.23203, 45.32265, -3216.05712890625]]], [[[-125.24032, 45.31801, -3705.44384765625], [-125.23842, 45.32819, -3738.739990234375], [-125.23203, 45.32265, -3216.05712890625], [-125.24032, 45.31801, -3705.44384765625]]], [[[-125.24653, 45.32351, -4239.6357421875], [-125.23842, 45.32819, -3738.739990234375], [-125.24032, 45.31801, -3705.44384765625], [-125.24653, 45.32351, -4239.6357421875]]], [[[-125.24653, 45.32351, -4239.6357421875], [-125.24489, 45.33194, -4327.904296875], [-125.23842, 45.32819, -3738.739990234375], [-125.24653, 45.32351, -4239.6357421875]]], [[[-125.24653, 45.32351, -4239.6357421875], [-125.24828, 45.31486, -4297.20947265625], [-125.25493, 45.32014, -4850.12890625], [-125.24653, 45.32351, -4239.6357421875]]], [[[-125.24032, 45.31801, -3705.44384765625], [-125.24069, 45.30879, -3757.48974609375], [-125.24828, 45.31486, -4297.20947265625], [-125.24032, 45.31801, -3705.44384765625]]], [[[-125.24874, 45.38941, -5657.68115234375], [-125.25936, 45.39135, -6355.09765625], [-125.2542, 45.39785, -6031.8046875], [-125.24874, 45.38941, -5657.68115234375]]], [[[-125.24069, 45.30879, -3757.48974609375], [-125.24032, 45.31801, -3705.44384765625], [-125.23261, 45.31264, -3224.412353515625], [-125.24069, 45.30879, -3757.48974609375]]], [[[-125.23251, 45.30393, -3279.516845703125], [-125.24069, 45.30879, -3757.48974609375], [-125.23261, 45.31264, -3224.412353515625], [-125.23251, 45.30393, -3279.516845703125]]], [[[-125.24069, 45.30879, -3757.48974609375], [-125.23251, 45.30393, -3279.516845703125], [-125.24088, 45.30046, -3804.125], [-125.24069, 45.30879, -3757.48974609375]]], [[[-125.24785, 45.30749, -4290.97314453125], [-125.24069, 45.30879, -3757.48974609375], [-125.24088, 45.30046, -3804.125], [-125.24785, 45.30749, -4290.97314453125]]], [[[-125.23311, 45.39925, -4567.47412109375], [-125.23903, 45.40665, -4933.24462890625], [-125.22991, 45.40726, -4164.2685546875], [-125.23311, 45.39925, -4567.47412109375]]], [[[-125.23119, 45.35542, -3877.79052734375], [-125.22371, 45.35066, -3280.9306640625], [-125.23364, 45.34686, -3835.88427734375], [-125.23119, 45.35542, -3877.79052734375]]], [[[-125.24785, 45.30749, -4290.97314453125], [-125.24786, 45.29921, -4339.4013671875], [-125.25515, 45.30416, -4907.4765625], [-125.24785, 45.30749, -4290.97314453125]]], [[[-125.24786, 45.29921, -4339.4013671875], [-125.24088, 45.30046, -3804.125], [-125.24176, 45.29227, -3777.11376953125], [-125.24786, 45.29921, -4339.4013671875]]], [[[-125.24786, 45.29921, -4339.4013671875], [-125.24885, 45.28981, -4290.73388671875], [-125.25501, 45.29501, -4864.65966796875], [-125.24786, 45.29921, -4339.4013671875]]], [[[-125.24786, 45.29921, -4339.4013671875], [-125.25501, 45.29501, -4864.65966796875], [-125.25515, 45.30416, -4907.4765625], [-125.24786, 45.29921, -4339.4013671875]]], [[[-125.25501, 45.29501, -4864.65966796875], [-125.26316, 45.29005, -5409.1171875], [-125.2629, 45.29962, -5467.22021484375], [-125.25501, 45.29501, -4864.65966796875]]], [[[-125.25501, 45.29501, -4864.65966796875], [-125.25595, 45.28552, -4823.0498046875], [-125.26316, 45.29005, -5409.1171875], [-125.25501, 45.29501, -4864.65966796875]]], [[[-125.25595, 45.28552, -4823.0498046875], [-125.25501, 45.29501, -4864.65966796875], [-125.24885, 45.28981, -4290.73388671875], [-125.25595, 45.28552, -4823.0498046875]]], [[[-125.22693, 45.34167, -3280.89208984375], [-125.21717, 45.34463, -2736.829833984375], [-125.2199, 45.33605, -2740.859130859375], [-125.22693, 45.34167, -3280.89208984375]]], [[[-125.2507, 45.28017, -4335.1806640625], [-125.24617, 45.27364, -3881.458984375], [-125.25658, 45.27588, -4762.89697265625], [-125.2507, 45.28017, -4335.1806640625]]], [[[-125.24874, 45.38941, -5657.68115234375], [-125.2542, 45.39785, -6031.8046875], [-125.24296, 45.39845, -5330.8330078125], [-125.24874, 45.38941, -5657.68115234375]]], [[[-125.21625, 45.39317, -3312.329833984375], [-125.20615, 45.39748, -2728.3515625], [-125.20743, 45.38836, -2731.08056640625], [-125.21625, 45.39317, -3312.329833984375]]], [[[-125.25595, 45.28552, -4823.0498046875], [-125.25658, 45.27588, -4762.89697265625], [-125.264, 45.28087, -5376.759765625], [-125.25595, 45.28552, -4823.0498046875]]], [[[-125.20917, 45.4086, -2838.044677734375], [-125.21387, 45.40114, -3198.60400390625], [-125.21977, 45.40792, -3478.807861328125], [-125.20917, 45.4086, -2838.044677734375]]], [[[-125.25595, 45.28552, -4823.0498046875], [-125.264, 45.28087, -5376.759765625], [-125.26316, 45.29005, -5409.1171875], [-125.25595, 45.28552, -4823.0498046875]]], [[[-125.264, 45.28087, -5376.759765625], [-125.27299, 45.27669, -5911.93798828125], [-125.27205, 45.28568, -5942.59912109375], [-125.264, 45.28087, -5376.759765625]]], [[[-125.25658, 45.27588, -4762.89697265625], [-125.26499, 45.27191, -5352.412109375], [-125.264, 45.28087, -5376.759765625], [-125.25658, 45.27588, -4762.89697265625]]], [[[-125.22939, 45.36382, -3877.233642578125], [-125.22129, 45.35904, -3294.09375], [-125.23119, 45.35542, -3877.79052734375], [-125.22939, 45.36382, -3877.233642578125]]], [[[-125.24617, 45.27364, -3881.458984375], [-125.24718, 45.26411, -3807.724365234375], [-125.2563, 45.26808, -4558.68994140625], [-125.24617, 45.27364, -3881.458984375]]], [[[-125.26522, 45.25566, -5265.40283203125], [-125.27451, 45.25973, -5859.7548828125], [-125.26548, 45.26378, -5254.57421875], [-125.26522, 45.25566, -5265.40283203125]]], [[[-125.20743, 45.38836, -2731.08056640625], [-125.19803, 45.39196, -2192.949951171875], [-125.19978, 45.38308, -2192.949951171875], [-125.20743, 45.38836, -2731.08056640625]]], [[[-125.26472, 45.2471, -5270.7109375], [-125.27288, 45.24215, -5821.47412109375], [-125.2737, 45.25115, -5847.44091796875], [-125.26472, 45.2471, -5270.7109375]]], [[[-125.2639, 45.22751, -5235.73193359375], [-125.27307, 45.22303, -5775.47900390625], [-125.27207, 45.23302, -5798.705078125], [-125.2639, 45.22751, -5235.73193359375]]], [[[-125.27207, 45.23302, -5798.705078125], [-125.28101, 45.23728, -6362.27197265625], [-125.27288, 45.24215, -5821.47412109375], [-125.27207, 45.23302, -5798.705078125]]], [[[-125.28169, 45.24614, -6384.95263671875], [-125.27288, 45.24215, -5821.47412109375], [-125.28101, 45.23728, -6362.27197265625], [-125.28169, 45.24614, -6384.95263671875]]], [[[-125.2737, 45.25115, -5847.44091796875], [-125.2827, 45.25498, -6406.52490234375], [-125.27451, 45.25973, -5859.7548828125], [-125.2737, 45.25115, -5847.44091796875]]], [[[-125.2743, 45.2678, -5869.9404296875], [-125.28313, 45.26381, -6431.16064453125], [-125.28187, 45.27263, -6463.1181640625], [-125.2743, 45.2678, -5869.9404296875]]], [[[-125.27299, 45.27669, -5911.93798828125], [-125.2743, 45.2678, -5869.9404296875], [-125.28187, 45.27263, -6463.1181640625], [-125.27299, 45.27669, -5911.93798828125]]], [[[-125.27205, 45.28568, -5942.59912109375], [-125.27299, 45.27669, -5911.93798828125], [-125.28076, 45.28146, -6495.6708984375], [-125.27205, 45.28568, -5942.59912109375]]], [[[-125.27205, 45.28568, -5942.59912109375], [-125.28076, 45.28146, -6495.6708984375], [-125.27995, 45.2903, -6528.974609375], [-125.27205, 45.28568, -5942.59912109375]]], [[[-125.27132, 45.29471, -5985.66845703125], [-125.27205, 45.28568, -5942.59912109375], [-125.27995, 45.2903, -6528.974609375], [-125.27132, 45.29471, -5985.66845703125]]], [[[-125.27132, 45.29471, -5985.66845703125], [-125.26316, 45.29005, -5409.1171875], [-125.27205, 45.28568, -5942.59912109375], [-125.27132, 45.29471, -5985.66845703125]]], [[[-125.2716, 45.30407, -6009.81884765625], [-125.2629, 45.29962, -5467.22021484375], [-125.27132, 45.29471, -5985.66845703125], [-125.2716, 45.30407, -6009.81884765625]]], [[[-125.26338, 45.30859, -5487.36962890625], [-125.2629, 45.29962, -5467.22021484375], [-125.2716, 45.30407, -6009.81884765625], [-125.26338, 45.30859, -5487.36962890625]]], [[[-125.25515, 45.30416, -4907.4765625], [-125.26338, 45.30859, -5487.36962890625], [-125.25565, 45.31238, -4896.078125], [-125.25515, 45.30416, -4907.4765625]]], [[[-125.25493, 45.32014, -4850.12890625], [-125.25565, 45.31238, -4896.078125], [-125.2634, 45.31665, -5471.72314453125], [-125.25493, 45.32014, -4850.12890625]]], [[[-125.25493, 45.32014, -4850.12890625], [-125.24828, 45.31486, -4297.20947265625], [-125.25565, 45.31238, -4896.078125], [-125.25493, 45.32014, -4850.12890625]]], [[[-125.25351, 45.32769, -4933.34326171875], [-125.25493, 45.32014, -4850.12890625], [-125.26255, 45.32423, -5509.7763671875], [-125.25351, 45.32769, -4933.34326171875]]], [[[-125.25351, 45.32769, -4933.34326171875], [-125.26255, 45.32423, -5509.7763671875], [-125.26043, 45.33263, -5561.74365234375], [-125.25351, 45.32769, -4933.34326171875]]], [[[-125.21934, 45.36681, -3265.828857421875], [-125.22727, 45.3717, -3824.245849609375], [-125.21806, 45.37525, -3260.9814453125], [-125.21934, 45.36681, -3265.828857421875]]], [[[-125.23626, 45.33784, -3807.416748046875], [-125.22971, 45.33265, -3272.63525390625], [-125.23842, 45.32819, -3738.739990234375], [-125.23626, 45.33784, -3807.416748046875]]], [[[-125.23119, 45.35542, -3877.79052734375], [-125.22129, 45.35904, -3294.09375], [-125.22371, 45.35066, -3280.9306640625], [-125.23119, 45.35542, -3877.79052734375]]], [[[-125.22129, 45.35904, -3294.09375], [-125.21934, 45.36681, -3265.828857421875], [-125.21149, 45.36165, -2731.2177734375], [-125.22129, 45.35904, -3294.09375]]], [[[-125.22129, 45.35904, -3294.09375], [-125.21149, 45.36165, -2731.2177734375], [-125.21385, 45.35357, -2746.751953125], [-125.22129, 45.35904, -3294.09375]]], [[[-125.2199, 45.33605, -2740.859130859375], [-125.21312, 45.33027, -2192.949951171875], [-125.2229, 45.3271, -2738.209716796875], [-125.2199, 45.33605, -2740.859130859375]]], [[[-125.25936, 45.39135, -6355.09765625], [-125.26804, 45.38701, -6941.32373046875], [-125.26756, 45.39587, -6975.3642578125], [-125.25936, 45.39135, -6355.09765625]]], [[[-125.2542, 45.39785, -6031.8046875], [-125.25936, 45.39135, -6355.09765625], [-125.26756, 45.39587, -6975.3642578125], [-125.2542, 45.39785, -6031.8046875]]], [[[-125.2542, 45.39785, -6031.8046875], [-125.26756, 45.39587, -6975.3642578125], [-125.26343, 45.40061, -6632.9248046875], [-125.2542, 45.39785, -6031.8046875]]], [[[-125.24296, 45.39845, -5330.8330078125], [-125.249, 45.406, -5633.30615234375], [-125.23903, 45.40665, -4933.24462890625], [-125.24296, 45.39845, -5330.8330078125]]], [[[-125.25173, 45.37869, -5723.0205078125], [-125.26124, 45.37372, -6299.50732421875], [-125.25963, 45.38295, -6279.71142578125], [-125.25173, 45.37869, -5723.0205078125]]], [[[-125.253, 45.36905, -5737.54833984375], [-125.26124, 45.37372, -6299.50732421875], [-125.25173, 45.37869, -5723.0205078125], [-125.253, 45.36905, -5737.54833984375]]], [[[-125.253, 45.36905, -5737.54833984375], [-125.26193, 45.3647, -6263.2861328125], [-125.26124, 45.37372, -6299.50732421875], [-125.253, 45.36905, -5737.54833984375]]], [[[-125.25401, 45.35973, -5701.634765625], [-125.26193, 45.3647, -6263.2861328125], [-125.253, 45.36905, -5737.54833984375], [-125.25401, 45.35973, -5701.634765625]]], [[[-125.26193, 45.3647, -6263.2861328125], [-125.25401, 45.35973, -5701.634765625], [-125.26317, 45.35564, -6221.80029296875], [-125.26193, 45.3647, -6263.2861328125]]], [[[-125.26193, 45.3647, -6263.2861328125], [-125.26317, 45.35564, -6221.80029296875], [-125.27052, 45.36048, -6829.75146484375], [-125.26193, 45.3647, -6263.2861328125]]], [[[-125.26124, 45.37372, -6299.50732421875], [-125.26193, 45.3647, -6263.2861328125], [-125.26962, 45.36932, -6867.78125], [-125.26124, 45.37372, -6299.50732421875]]], [[[-125.26124, 45.37372, -6299.50732421875], [-125.26962, 45.36932, -6867.78125], [-125.26913, 45.37818, -6904.07666015625], [-125.26124, 45.37372, -6299.50732421875]]], [[[-125.26317, 45.35564, -6221.80029296875], [-125.27202, 45.35169, -6789.24609375], [-125.27052, 45.36048, -6829.75146484375], [-125.26317, 45.35564, -6221.80029296875]]], [[[-125.26317, 45.35564, -6221.80029296875], [-125.25583, 45.35023, -5660.83740234375], [-125.2654, 45.34644, -6170.77880859375], [-125.26317, 45.35564, -6221.80029296875]]], [[[-125.24684, 45.35439, -5118.27099609375], [-125.24915, 45.34499, -5030.79541015625], [-125.25583, 45.35023, -5660.83740234375], [-125.24684, 45.35439, -5118.27099609375]]], [[[-125.24684, 45.35439, -5118.27099609375], [-125.24056, 45.34972, -4456.12939453125], [-125.24915, 45.34499, -5030.79541015625], [-125.24684, 45.35439, -5118.27099609375]]], [[[-125.24056, 45.34972, -4456.12939453125], [-125.23846, 45.35893, -4532.40771484375], [-125.23119, 45.35542, -3877.79052734375], [-125.24056, 45.34972, -4456.12939453125]]], [[[-125.2428, 45.34069, -4391.4326171875], [-125.24056, 45.34972, -4456.12939453125], [-125.23364, 45.34686, -3835.88427734375], [-125.2428, 45.34069, -4391.4326171875]]], [[[-125.24915, 45.34499, -5030.79541015625], [-125.2428, 45.34069, -4391.4326171875], [-125.25132, 45.33601, -4981.59423828125], [-125.24915, 45.34499, -5030.79541015625]]], [[[-125.24915, 45.34499, -5030.79541015625], [-125.2582, 45.3412, -5593.55615234375], [-125.25583, 45.35023, -5660.83740234375], [-125.24915, 45.34499, -5030.79541015625]]], [[[-125.2582, 45.3412, -5593.55615234375], [-125.2654, 45.34644, -6170.77880859375], [-125.25583, 45.35023, -5660.83740234375], [-125.2582, 45.3412, -5593.55615234375]]], [[[-125.2654, 45.34644, -6170.77880859375], [-125.2582, 45.3412, -5593.55615234375], [-125.26778, 45.33788, -6127.9404296875], [-125.2654, 45.34644, -6170.77880859375]]], [[[-125.2654, 45.34644, -6170.77880859375], [-125.26778, 45.33788, -6127.9404296875], [-125.2746, 45.34302, -6744.8037109375], [-125.2654, 45.34644, -6170.77880859375]]], [[[-125.26778, 45.33788, -6127.9404296875], [-125.27686, 45.3343, -6702.18359375], [-125.2746, 45.34302, -6744.8037109375], [-125.26778, 45.33788, -6127.9404296875]]], [[[-125.26778, 45.33788, -6127.9404296875], [-125.26043, 45.33263, -5561.74365234375], [-125.27003, 45.32911, -6089.77294921875], [-125.26778, 45.33788, -6127.9404296875]]], [[[-125.26043, 45.33263, -5561.74365234375], [-125.26778, 45.33788, -6127.9404296875], [-125.2582, 45.3412, -5593.55615234375], [-125.26043, 45.33263, -5561.74365234375]]], [[[-125.25132, 45.33601, -4981.59423828125], [-125.26043, 45.33263, -5561.74365234375], [-125.2582, 45.3412, -5593.55615234375], [-125.25132, 45.33601, -4981.59423828125]]], [[[-125.26255, 45.32423, -5509.7763671875], [-125.27003, 45.32911, -6089.77294921875], [-125.26043, 45.33263, -5561.74365234375], [-125.26255, 45.32423, -5509.7763671875]]], [[[-125.26255, 45.32423, -5509.7763671875], [-125.27202, 45.3206, -6051.54345703125], [-125.27003, 45.32911, -6089.77294921875], [-125.26255, 45.32423, -5509.7763671875]]], [[[-125.2634, 45.31665, -5471.72314453125], [-125.27248, 45.31282, -6023.21630859375], [-125.27202, 45.3206, -6051.54345703125], [-125.2634, 45.31665, -5471.72314453125]]], [[[-125.2634, 45.31665, -5471.72314453125], [-125.26338, 45.30859, -5487.36962890625], [-125.27248, 45.31282, -6023.21630859375], [-125.2634, 45.31665, -5471.72314453125]]], [[[-125.26338, 45.30859, -5487.36962890625], [-125.2716, 45.30407, -6009.81884765625], [-125.27248, 45.31282, -6023.21630859375], [-125.26338, 45.30859, -5487.36962890625]]], [[[-125.2716, 45.30407, -6009.81884765625], [-125.28029, 45.308, -6589.576171875], [-125.27248, 45.31282, -6023.21630859375], [-125.2716, 45.30407, -6009.81884765625]]], [[[-125.27132, 45.29471, -5985.66845703125], [-125.27995, 45.2903, -6528.974609375], [-125.27955, 45.29915, -6561.08642578125], [-125.27132, 45.29471, -5985.66845703125]]], [[[-125.27248, 45.31282, -6023.21630859375], [-125.28029, 45.308, -6589.576171875], [-125.28098, 45.31685, -6618.84619140625], [-125.27248, 45.31282, -6023.21630859375]]], [[[-125.27202, 45.3206, -6051.54345703125], [-125.27248, 45.31282, -6023.21630859375], [-125.28098, 45.31685, -6618.84619140625], [-125.27202, 45.3206, -6051.54345703125]]], [[[-125.27202, 45.3206, -6051.54345703125], [-125.28098, 45.31685, -6618.84619140625], [-125.27917, 45.32559, -6659.1845703125], [-125.27202, 45.3206, -6051.54345703125]]], [[[-125.27003, 45.32911, -6089.77294921875], [-125.27202, 45.3206, -6051.54345703125], [-125.27917, 45.32559, -6659.1845703125], [-125.27003, 45.32911, -6089.77294921875]]], [[[-125.2428, 45.34069, -4391.4326171875], [-125.23364, 45.34686, -3835.88427734375], [-125.23626, 45.33784, -3807.416748046875], [-125.2428, 45.34069, -4391.4326171875]]], [[[-125.23846, 45.35893, -4532.40771484375], [-125.22939, 45.36382, -3877.233642578125], [-125.23119, 45.35542, -3877.79052734375], [-125.23846, 45.35893, -4532.40771484375]]], [[[-125.23846, 45.35893, -4532.40771484375], [-125.23692, 45.36809, -4538.1376953125], [-125.22939, 45.36382, -3877.233642578125], [-125.23846, 45.35893, -4532.40771484375]]], [[[-125.23692, 45.36809, -4538.1376953125], [-125.23846, 45.35893, -4532.40771484375], [-125.24529, 45.36415, -5153.04052734375], [-125.23692, 45.36809, -4538.1376953125]]], [[[-125.23692, 45.36809, -4538.1376953125], [-125.24529, 45.36415, -5153.04052734375], [-125.24396, 45.37341, -5158.44384765625], [-125.23692, 45.36809, -4538.1376953125]]], [[[-125.23692, 45.36809, -4538.1376953125], [-125.24396, 45.37341, -5158.44384765625], [-125.23467, 45.37608, -4437.63427734375], [-125.23692, 45.36809, -4538.1376953125]]], [[[-125.23692, 45.36809, -4538.1376953125], [-125.23467, 45.37608, -4437.63427734375], [-125.22727, 45.3717, -3824.245849609375], [-125.23692, 45.36809, -4538.1376953125]]], [[[-125.23692, 45.36809, -4538.1376953125], [-125.22727, 45.3717, -3824.245849609375], [-125.22939, 45.36382, -3877.233642578125], [-125.23692, 45.36809, -4538.1376953125]]], [[[-125.23342, 45.38416, -4416.44287109375], [-125.22736, 45.39104, -4013.43017578125], [-125.22595, 45.38077, -3806.2431640625], [-125.23342, 45.38416, -4416.44287109375]]], [[[-125.22595, 45.38077, -3806.2431640625], [-125.22736, 45.39104, -4013.43017578125], [-125.21739, 45.38468, -3293.734619140625], [-125.22595, 45.38077, -3806.2431640625]]], [[[-125.22595, 45.38077, -3806.2431640625], [-125.21739, 45.38468, -3293.734619140625], [-125.21806, 45.37525, -3260.9814453125], [-125.22595, 45.38077, -3806.2431640625]]], [[[-125.21806, 45.37525, -3260.9814453125], [-125.21739, 45.38468, -3293.734619140625], [-125.20884, 45.37899, -2725.56494140625], [-125.21806, 45.37525, -3260.9814453125]]], [[[-125.21806, 45.37525, -3260.9814453125], [-125.20884, 45.37899, -2725.56494140625], [-125.20993, 45.37036, -2728.99169921875], [-125.21806, 45.37525, -3260.9814453125]]], [[[-125.24396, 45.37341, -5158.44384765625], [-125.253, 45.36905, -5737.54833984375], [-125.25173, 45.37869, -5723.0205078125], [-125.24396, 45.37341, -5158.44384765625]]], [[[-125.24529, 45.36415, -5153.04052734375], [-125.25401, 45.35973, -5701.634765625], [-125.253, 45.36905, -5737.54833984375], [-125.24529, 45.36415, -5153.04052734375]]], [[[-125.24529, 45.36415, -5153.04052734375], [-125.23846, 45.35893, -4532.40771484375], [-125.24684, 45.35439, -5118.27099609375], [-125.24529, 45.36415, -5153.04052734375]]], [[[-125.22372, 45.39989, -3825.3779296875], [-125.22736, 45.39104, -4013.43017578125], [-125.23311, 45.39925, -4567.47412109375], [-125.22372, 45.39989, -3825.3779296875]]], [[[-125.2229, 45.3271, -2738.209716796875], [-125.21312, 45.33027, -2192.949951171875], [-125.21597, 45.32154, -2192.949951171875], [-125.2229, 45.3271, -2738.209716796875]]], [[[-125.27307, 45.22303, -5775.47900390625], [-125.27675, 45.21393, -5721.4931640625], [-125.2827, 45.21979, -6313.41552734375], [-125.27307, 45.22303, -5775.47900390625]]], [[[-125.28, 45.20426, -5621.5654296875], [-125.28613, 45.19888, -5914.55810546875], [-125.29036, 45.20292, -6255.55615234375], [-125.28, 45.20426, -5621.5654296875]]], [[[-125.22366, 45.30787, -2722.83154296875], [-125.23251, 45.30393, -3279.516845703125], [-125.23261, 45.31264, -3224.412353515625], [-125.22366, 45.30787, -2722.83154296875]]], [[[-125.24032, 45.31801, -3705.44384765625], [-125.23203, 45.32265, -3216.05712890625], [-125.23261, 45.31264, -3224.412353515625], [-125.24032, 45.31801, -3705.44384765625]]], [[[-125.21938, 45.2503, -2192.949951171875], [-125.2197, 45.24134, -2192.949951171875], [-125.2282, 45.24594, -2725.046630859375], [-125.21938, 45.2503, -2192.949951171875]]], [[[-125.22781, 45.23698, -2721.965576171875], [-125.2282, 45.24594, -2725.046630859375], [-125.2197, 45.24134, -2192.949951171875], [-125.22781, 45.23698, -2721.965576171875]]], [[[-125.22781, 45.23698, -2721.965576171875], [-125.23695, 45.24144, -3246.757568359375], [-125.2282, 45.24594, -2725.046630859375], [-125.22781, 45.23698, -2721.965576171875]]], [[[-125.23695, 45.24144, -3246.757568359375], [-125.22781, 45.23698, -2721.965576171875], [-125.23717, 45.23353, -3302.86474609375], [-125.23695, 45.24144, -3246.757568359375]]], [[[-125.22823, 45.2293, -2737.742431640625], [-125.23717, 45.23353, -3302.86474609375], [-125.22781, 45.23698, -2721.965576171875], [-125.22823, 45.2293, -2737.742431640625]]], [[[-125.23906, 45.22657, -3347.01416015625], [-125.22823, 45.2293, -2737.742431640625], [-125.23149, 45.22159, -2759.599609375], [-125.23906, 45.22657, -3347.01416015625]]], [[[-125.23906, 45.22657, -3347.01416015625], [-125.23149, 45.22159, -2759.599609375], [-125.24137, 45.21957, -3306.42626953125], [-125.23906, 45.22657, -3347.01416015625]]], [[[-125.22823, 45.2293, -2737.742431640625], [-125.22139, 45.22368, -2192.949951171875], [-125.23149, 45.22159, -2759.599609375], [-125.22823, 45.2293, -2737.742431640625]]], [[[-125.22823, 45.2293, -2737.742431640625], [-125.2185, 45.23241, -2192.949951171875], [-125.22139, 45.22368, -2192.949951171875], [-125.22823, 45.2293, -2737.742431640625]]], [[[-125.22781, 45.23698, -2721.965576171875], [-125.2197, 45.24134, -2192.949951171875], [-125.2185, 45.23241, -2192.949951171875], [-125.22781, 45.23698, -2721.965576171875]]], [[[-125.23864, 45.20544, -2698.632568359375], [-125.23026, 45.20689, -2192.949951171875], [-125.23225, 45.19804, -2192.949951171875], [-125.23864, 45.20544, -2698.632568359375]]], [[[-125.23864, 45.20544, -2698.632568359375], [-125.23225, 45.19804, -2192.949951171875], [-125.24263, 45.1974, -2829.416748046875], [-125.23864, 45.20544, -2698.632568359375]]], [[[-125.26654, 45.20309, -4583.70166015625], [-125.26307, 45.19607, -4132.3037109375], [-125.27199, 45.19546, -4893.8583984375], [-125.26654, 45.20309, -4583.70166015625]]]]}}]}