{"type": "FeatureCollection", "features": [{"type": "Feature", "properties": {"name": "AW_NORE_2", "CFM_ID": 231, "region": "Offshore_WAOR", "primary_state/province": "OR", "secondary_state/province": null, "avg_dip": 41, "dip_dir": "NE", "rake": 90, "slip_sense": "Reverse", "fault_level": 2, "NSHM23_sliprates": null, "QFFDAgeCatBin": null, "QFFDAgeBin": null, "upper_depth": -2.0, "upper_depth_constraint": "seismic imaging", "lower_depth": -7.1, "lower_depth_constraint": "megathrust", "3D_model_constraints": "trace and 1 MCS line", "reference": "Ledeczi et al. (2024); Carbotte et al. (2023)", "nshm23_id": null, "lineage": null, "usgs_qffd_#": null, "comments": "fault depth interpretation from Ledeczi et al. (2024); Carbotte et al. (2023) used to aid in model building", "id": "231"}, "geometry": {"type": "MultiPolygon", "coordinates": [[[[-125.32347, 45.72523, -4163.59033203125], [-125.33358, 45.72288, -3468.367431640625], [-125.33388, 45.73082, -3493.8916015625], [-125.32347, 45.72523, -4163.59033203125]]], [[[-125.33358, 45.72288, -3468.367431640625], [-125.32643, 45.71626, -3928.379638671875], [-125.33487, 45.71477, -3272.935302734375], [-125.33358, 45.72288, -3468.367431640625]]], [[[-125.28044, 45.76149, -6745.90478515625], [-125.28917, 45.76839, -6183.85791015625], [-125.27805, 45.76921, -6770.55908203125], [-125.28044, 45.76149, -6745.90478515625]]], [[[-125.31231, 45.80439, -4666.18017578125], [-125.32084, 45.79891, -4095.7080078125], [-125.32163, 45.80812, -4104.916015625], [-125.31231, 45.80439, -4666.18017578125]]], [[[-125.33287, 45.78083, -3154.48583984375], [-125.33803, 45.77283, -2815.1513671875], [-125.34386, 45.77952, -1972.1099853515625], [-125.33287, 45.78083, -3154.48583984375]]], [[[-125.3369, 45.85154, -3615.56982421875], [-125.34492, 45.85088, -2848.60009765625], [-125.34589, 45.85983, -2848.60009765625], [-125.3369, 45.85154, -3615.56982421875]]], [[[-125.33287, 45.78083, -3154.48583984375], [-125.3373, 45.78741, -2665.29931640625], [-125.32922, 45.7914, -3487.445068359375], [-125.33287, 45.78083, -3154.48583984375]]], [[[-125.32624, 45.74234, -4097.53662109375], [-125.33018, 45.75032, -3871.529296875], [-125.3207, 45.75049, -4473.59375], [-125.32624, 45.74234, -4097.53662109375]]], [[[-125.28242, 45.80022, -6341.23486328125], [-125.27221, 45.79584, -6854.7626953125], [-125.28304, 45.79135, -6267.16748046875], [-125.28242, 45.80022, -6341.23486328125]]], [[[-125.30606, 45.9036, -5961.94775390625], [-125.30495, 45.91541, -6031.0146484375], [-125.29664, 45.90859, -6477.82861328125], [-125.30606, 45.9036, -5961.94775390625]]], [[[-125.32347, 45.72523, -4163.59033203125], [-125.32643, 45.71626, -3928.379638671875], [-125.33358, 45.72288, -3468.367431640625], [-125.32347, 45.72523, -4163.59033203125]]], [[[-125.33038, 45.7081, -3617.827392578125], [-125.32643, 45.71626, -3928.379638671875], [-125.32023, 45.70889, -4257.5107421875], [-125.33038, 45.7081, -3617.827392578125]]], [[[-125.29951, 45.75525, -5734.88720703125], [-125.29968, 45.74575, -5714.453125], [-125.30979, 45.75101, -5150.9404296875], [-125.29951, 45.75525, -5734.88720703125]]], [[[-125.28577, 45.85554, -6614.4697265625], [-125.28672, 45.86449, -6614.4697265625], [-125.27994, 45.85871, -6934.53955078125], [-125.28577, 45.85554, -6614.4697265625]]], [[[-125.30747, 45.74154, -5255.20947265625], [-125.31565, 45.74253, -4771.4677734375], [-125.30979, 45.75101, -5150.9404296875], [-125.30747, 45.74154, -5255.20947265625]]], [[[-125.32211, 45.82647, -4256.3349609375], [-125.32887, 45.8348, -3963.06591796875], [-125.31875, 45.8351, -4597.8564453125], [-125.32211, 45.82647, -4256.3349609375]]], [[[-125.32204, 45.92491, -4831.033203125], [-125.31119, 45.92513, -5498.26708984375], [-125.31723, 45.91712, -5315.84619140625], [-125.32204, 45.92491, -4831.033203125]]], [[[-125.32922, 45.7914, -3487.445068359375], [-125.33665, 45.79722, -2822.0888671875], [-125.32973, 45.80207, -3527.0234375], [-125.32922, 45.7914, -3487.445068359375]]], [[[-125.35186, 45.91836, -2848.60009765625], [-125.35332, 45.90732, -2845.48779296875], [-125.35928, 45.91064, -1972.1099853515625], [-125.35186, 45.91836, -2848.60009765625]]], [[[-125.34028, 45.76435, -2828.0791015625], [-125.34808, 45.76431, -1972.1099853515625], [-125.34862, 45.77221, -1972.1099853515625], [-125.34028, 45.76435, -2828.0791015625]]], [[[-125.30537, 45.89332, -5917.55712890625], [-125.30606, 45.9036, -5961.94775390625], [-125.29611, 45.89856, -6451.64599609375], [-125.30537, 45.89332, -5917.55712890625]]], [[[-125.30016, 45.76756, -5582.53662109375], [-125.29076, 45.75952, -6205.52197265625], [-125.29951, 45.75525, -5734.88720703125], [-125.30016, 45.76756, -5582.53662109375]]], [[[-125.34252, 45.86795, -3284.486572265625], [-125.34589, 45.85983, -2848.60009765625], [-125.34843, 45.87197, -2776.113525390625], [-125.34252, 45.86795, -3284.486572265625]]], [[[-125.28033, 45.93002, -7058.10888671875], [-125.28417, 45.93571, -6614.4697265625], [-125.27489, 45.93637, -7099.09716796875], [-125.28033, 45.93002, -7058.10888671875]]], [[[-125.28106, 45.754, -6727.69140625], [-125.29048, 45.74993, -6226.228515625], [-125.29076, 45.75952, -6205.52197265625], [-125.28106, 45.754, -6727.69140625]]], [[[-125.29218, 45.87183, -6388.275390625], [-125.29352, 45.8801, -6400.31884765625], [-125.28229, 45.87669, -6947.20556640625], [-125.29218, 45.87183, -6388.275390625]]], [[[-125.34035, 45.71809, -2727.643798828125], [-125.33487, 45.71477, -3272.935302734375], [-125.3386, 45.70745, -2826.871337890625], [-125.34035, 45.71809, -2727.643798828125]]], [[[-125.34295, 45.75316, -2715.659912109375], [-125.34759, 45.74799, -1972.1099853515625], [-125.34949, 45.75662, -1972.1099853515625], [-125.34295, 45.75316, -2715.659912109375]]], [[[-125.29466, 45.77635, -5754.8212890625], [-125.28917, 45.76839, -6183.85791015625], [-125.30016, 45.76756, -5582.53662109375], [-125.29466, 45.77635, -5754.8212890625]]], [[[-125.28044, 45.76149, -6745.90478515625], [-125.29076, 45.75952, -6205.52197265625], [-125.28917, 45.76839, -6183.85791015625], [-125.28044, 45.76149, -6745.90478515625]]], [[[-125.28502, 45.77547, -6299.59765625], [-125.27805, 45.76921, -6770.55908203125], [-125.28917, 45.76839, -6183.85791015625], [-125.28502, 45.77547, -6299.59765625]]], [[[-125.29611, 45.89856, -6451.64599609375], [-125.28558, 45.89459, -6962.63525390625], [-125.29478, 45.88931, -6436.8984375], [-125.29611, 45.89856, -6451.64599609375]]], [[[-125.29584, 45.82975, -5843.44287109375], [-125.28755, 45.83648, -6368.32080078125], [-125.28499, 45.82664, -6386.611328125], [-125.29584, 45.82975, -5843.44287109375]]], [[[-125.33538, 45.90743, -4234.8212890625], [-125.33749, 45.91624, -4052.08349609375], [-125.32794, 45.91601, -4671.05126953125], [-125.33538, 45.90743, -4234.8212890625]]], [[[-125.32674, 45.73468, -4009.192138671875], [-125.32347, 45.72523, -4163.59033203125], [-125.33388, 45.73082, -3493.8916015625], [-125.32674, 45.73468, -4009.192138671875]]], [[[-125.29968, 45.74575, -5714.453125], [-125.29048, 45.74993, -6226.228515625], [-125.28997, 45.74111, -6216.3525390625], [-125.29968, 45.74575, -5714.453125]]], [[[-125.3369, 45.85154, -3615.56982421875], [-125.33786, 45.86048, -3615.56982421875], [-125.32692, 45.85231, -4242.169921875], [-125.3369, 45.85154, -3615.56982421875]]], [[[-125.29637, 45.85473, -6054.47021484375], [-125.30779, 45.86289, -5477.81982421875], [-125.29733, 45.86368, -6054.47021484375], [-125.29637, 45.85473, -6054.47021484375]]], [[[-125.30747, 45.74154, -5255.20947265625], [-125.29904, 45.73645, -5692.59033203125], [-125.30855, 45.73333, -5127.7333984375], [-125.30747, 45.74154, -5255.20947265625]]], [[[-125.31349, 45.90896, -5569.13330078125], [-125.30495, 45.91541, -6031.0146484375], [-125.30606, 45.9036, -5961.94775390625], [-125.31349, 45.90896, -5569.13330078125]]], [[[-125.32794, 45.91601, -4671.05126953125], [-125.33749, 45.91624, -4052.08349609375], [-125.33214, 45.92415, -4185.34765625], [-125.32794, 45.91601, -4671.05126953125]]], [[[-125.33749, 45.91624, -4052.08349609375], [-125.34244, 45.92333, -3500.1181640625], [-125.33214, 45.92415, -4185.34765625], [-125.33749, 45.91624, -4052.08349609375]]], [[[-125.34182, 45.83149, -2852.335693359375], [-125.34545, 45.83488, -1972.1099853515625], [-125.34414, 45.84215, -2848.60009765625], [-125.34182, 45.83149, -2852.335693359375]]], [[[-125.28087, 45.86771, -6942.66650390625], [-125.28672, 45.86449, -6614.4697265625], [-125.29218, 45.87183, -6388.275390625], [-125.28087, 45.86771, -6942.66650390625]]], [[[-125.28242, 45.80022, -6341.23486328125], [-125.27262, 45.80486, -6874.43701171875], [-125.27221, 45.79584, -6854.7626953125], [-125.28242, 45.80022, -6341.23486328125]]], [[[-125.30287, 45.80858, -5263.58154296875], [-125.29335, 45.81308, -5826.8076171875], [-125.29264, 45.80449, -5813.4072265625], [-125.30287, 45.80858, -5263.58154296875]]], [[[-125.33803, 45.77283, -2815.1513671875], [-125.34028, 45.76435, -2828.0791015625], [-125.34862, 45.77221, -1972.1099853515625], [-125.33803, 45.77283, -2815.1513671875]]], [[[-125.30617, 45.75982, -5343.69091796875], [-125.30979, 45.75101, -5150.9404296875], [-125.31617, 45.75865, -4747.08251953125], [-125.30617, 45.75982, -5343.69091796875]]], [[[-125.33671, 45.7478, -3380.870361328125], [-125.32624, 45.74234, -4097.53662109375], [-125.33567, 45.73914, -3427.031494140625], [-125.33671, 45.7478, -3380.870361328125]]], [[[-125.34562, 45.91285, -3553.285400390625], [-125.35332, 45.90732, -2845.48779296875], [-125.35186, 45.91836, -2848.60009765625], [-125.34562, 45.91285, -3553.285400390625]]], [[[-125.29951, 45.75525, -5734.88720703125], [-125.29076, 45.75952, -6205.52197265625], [-125.29048, 45.74993, -6226.228515625], [-125.29951, 45.75525, -5734.88720703125]]], [[[-125.33018, 45.75032, -3871.529296875], [-125.33669, 45.75709, -3357.8486328125], [-125.32659, 45.75782, -4082.8642578125], [-125.33018, 45.75032, -3871.529296875]]], [[[-125.34581, 45.90277, -3558.25634765625], [-125.35332, 45.90732, -2845.48779296875], [-125.34562, 45.91285, -3553.285400390625], [-125.34581, 45.90277, -3558.25634765625]]], [[[-125.30747, 45.74154, -5255.20947265625], [-125.30979, 45.75101, -5150.9404296875], [-125.29968, 45.74575, -5714.453125], [-125.30747, 45.74154, -5255.20947265625]]], [[[-125.29439, 45.91843, -6566.94091796875], [-125.28585, 45.91946, -7008.91552734375], [-125.28692, 45.91222, -6988.6064453125], [-125.29439, 45.91843, -6566.94091796875]]], [[[-125.28421, 45.78325, -6240.248046875], [-125.28502, 45.77547, -6299.59765625], [-125.29466, 45.77635, -5754.8212890625], [-125.28421, 45.78325, -6240.248046875]]], [[[-125.28304, 45.79135, -6267.16748046875], [-125.27221, 45.79584, -6854.7626953125], [-125.27268, 45.78684, -6832.7529296875], [-125.28304, 45.79135, -6267.16748046875]]], [[[-125.29595, 45.71844, -5777.47705078125], [-125.28908, 45.71136, -6103.06005859375], [-125.29973, 45.71055, -5515.8779296875], [-125.29595, 45.71844, -5777.47705078125]]], [[[-125.32718, 45.77366, -3775.9111328125], [-125.33803, 45.77283, -2815.1513671875], [-125.33287, 45.78083, -3154.48583984375], [-125.32718, 45.77366, -3775.9111328125]]], [[[-125.30495, 45.91541, -6031.0146484375], [-125.3003, 45.92586, -6099.2392578125], [-125.29439, 45.91843, -6566.94091796875], [-125.30495, 45.91541, -6031.0146484375]]], [[[-125.30617, 45.75982, -5343.69091796875], [-125.3109, 45.76668, -4954.806640625], [-125.30016, 45.76756, -5582.53662109375], [-125.30617, 45.75982, -5343.69091796875]]], [[[-125.30079, 45.72666, -5552.47216796875], [-125.28917, 45.72342, -6169.85888671875], [-125.29595, 45.71844, -5777.47705078125], [-125.30079, 45.72666, -5552.47216796875]]], [[[-125.30323, 45.87262, -5809.03955078125], [-125.31167, 45.87865, -5409.75732421875], [-125.30383, 45.88359, -5896.8095703125], [-125.30323, 45.87262, -5809.03955078125]]], [[[-125.33671, 45.7478, -3380.870361328125], [-125.33018, 45.75032, -3871.529296875], [-125.32624, 45.74234, -4097.53662109375], [-125.33671, 45.7478, -3380.870361328125]]], [[[-125.29559, 45.846, -6054.47021484375], [-125.30605, 45.84521, -5477.81982421875], [-125.30682, 45.85394, -5477.81982421875], [-125.29559, 45.846, -6054.47021484375]]], [[[-125.30383, 45.88359, -5896.8095703125], [-125.29478, 45.88931, -6436.8984375], [-125.29352, 45.8801, -6400.31884765625], [-125.30383, 45.88359, -5896.8095703125]]], [[[-125.32347, 45.72523, -4163.59033203125], [-125.31639, 45.7171, -4567.0947265625], [-125.32643, 45.71626, -3928.379638671875], [-125.32347, 45.72523, -4163.59033203125]]], [[[-125.32794, 45.91601, -4671.05126953125], [-125.32204, 45.92491, -4831.033203125], [-125.31723, 45.91712, -5315.84619140625], [-125.32794, 45.91601, -4671.05126953125]]], [[[-125.29664, 45.90859, -6477.82861328125], [-125.28675, 45.90357, -6971.2578125], [-125.29611, 45.89856, -6451.64599609375], [-125.29664, 45.90859, -6477.82861328125]]], [[[-125.28577, 45.85554, -6614.4697265625], [-125.29637, 45.85473, -6054.47021484375], [-125.29733, 45.86368, -6054.47021484375], [-125.28577, 45.85554, -6614.4697265625]]], [[[-125.28917, 45.72342, -6169.85888671875], [-125.27976, 45.72892, -6688.48486328125], [-125.27923, 45.72054, -6678.8642578125], [-125.28917, 45.72342, -6169.85888671875]]], [[[-125.34958, 45.88124, -2871.51123046875], [-125.35686, 45.88375, -1972.1099853515625], [-125.35175, 45.88893, -2789.495361328125], [-125.34958, 45.88124, -2871.51123046875]]], [[[-125.34581, 45.90277, -3558.25634765625], [-125.35287, 45.89749, -2814.1025390625], [-125.35332, 45.90732, -2845.48779296875], [-125.34581, 45.90277, -3558.25634765625]]], [[[-125.33538, 45.90743, -4234.8212890625], [-125.34562, 45.91285, -3553.285400390625], [-125.33749, 45.91624, -4052.08349609375], [-125.33538, 45.90743, -4234.8212890625]]], [[[-125.33487, 45.71477, -3272.935302734375], [-125.33038, 45.7081, -3617.827392578125], [-125.3386, 45.70745, -2826.871337890625], [-125.33487, 45.71477, -3272.935302734375]]], [[[-125.28755, 45.83648, -6368.32080078125], [-125.27574, 45.83183, -6917.28759765625], [-125.28499, 45.82664, -6386.611328125], [-125.28755, 45.83648, -6368.32080078125]]], [[[-125.34098, 45.72689, -2770.69921875], [-125.34732, 45.73002, -1972.1099853515625], [-125.34196, 45.7347, -2725.602783203125], [-125.34098, 45.72689, -2770.69921875]]], [[[-125.28502, 45.77547, -6299.59765625], [-125.27499, 45.77797, -6803.66748046875], [-125.27805, 45.76921, -6770.55908203125], [-125.28502, 45.77547, -6299.59765625]]], [[[-125.3207, 45.75049, -4473.59375], [-125.31617, 45.75865, -4747.08251953125], [-125.30979, 45.75101, -5150.9404296875], [-125.3207, 45.75049, -4473.59375]]], [[[-125.34265, 45.74354, -2749.88330078125], [-125.34744, 45.73901, -1972.1099853515625], [-125.34759, 45.74799, -1972.1099853515625], [-125.34265, 45.74354, -2749.88330078125]]], [[[-125.30606, 45.9036, -5961.94775390625], [-125.29664, 45.90859, -6477.82861328125], [-125.29611, 45.89856, -6451.64599609375], [-125.30606, 45.9036, -5961.94775390625]]], [[[-125.28421, 45.78325, -6240.248046875], [-125.27268, 45.78684, -6832.7529296875], [-125.27499, 45.77797, -6803.66748046875], [-125.28421, 45.78325, -6240.248046875]]], [[[-125.34265, 45.74354, -2749.88330078125], [-125.34759, 45.74799, -1972.1099853515625], [-125.34295, 45.75316, -2715.659912109375], [-125.34265, 45.74354, -2749.88330078125]]], [[[-125.32233, 45.81652, -4132.56689453125], [-125.33122, 45.81125, -3487.033935546875], [-125.33183, 45.81948, -3547.658203125], [-125.32233, 45.81652, -4132.56689453125]]], [[[-125.34581, 45.90277, -3558.25634765625], [-125.34483, 45.89357, -3540.437744140625], [-125.35287, 45.89749, -2814.1025390625], [-125.34581, 45.90277, -3558.25634765625]]], [[[-125.28375, 45.81782, -6374.072265625], [-125.27432, 45.82286, -6903.96240234375], [-125.27322, 45.81387, -6893.46044921875], [-125.28375, 45.81782, -6374.072265625]]], [[[-125.34581, 45.90277, -3558.25634765625], [-125.33671, 45.89873, -4112.85693359375], [-125.34483, 45.89357, -3540.437744140625], [-125.34581, 45.90277, -3558.25634765625]]], [[[-125.33344, 45.82726, -3536.737060546875], [-125.32211, 45.82647, -4256.3349609375], [-125.33183, 45.81948, -3547.658203125], [-125.33344, 45.82726, -3536.737060546875]]], [[[-125.30613, 45.71787, -5197.7314453125], [-125.31237, 45.7252, -4869.1474609375], [-125.30079, 45.72666, -5552.47216796875], [-125.30613, 45.71787, -5197.7314453125]]], [[[-125.30383, 45.88359, -5896.8095703125], [-125.30537, 45.89332, -5917.55712890625], [-125.29478, 45.88931, -6436.8984375], [-125.30383, 45.88359, -5896.8095703125]]], [[[-125.34947, 45.92486, -2689.9970703125], [-125.35186, 45.91836, -2848.60009765625], [-125.35852, 45.92423, -1972.1099853515625], [-125.34947, 45.92486, -2689.9970703125]]], [[[-125.33671, 45.89873, -4112.85693359375], [-125.34581, 45.90277, -3558.25634765625], [-125.33538, 45.90743, -4234.8212890625], [-125.33671, 45.89873, -4112.85693359375]]], [[[-125.2949, 45.82187, -5813.18701171875], [-125.28375, 45.81782, -6374.072265625], [-125.29335, 45.81308, -5826.8076171875], [-125.2949, 45.82187, -5813.18701171875]]], [[[-125.33287, 45.78083, -3154.48583984375], [-125.34386, 45.77952, -1972.1099853515625], [-125.3373, 45.78741, -2665.29931640625], [-125.33287, 45.78083, -3154.48583984375]]], [[[-125.28375, 45.81782, -6374.072265625], [-125.27322, 45.81387, -6893.46044921875], [-125.28292, 45.80913, -6359.2900390625], [-125.28375, 45.81782, -6374.072265625]]], [[[-125.33803, 45.77283, -2815.1513671875], [-125.34862, 45.77221, -1972.1099853515625], [-125.34386, 45.77952, -1972.1099853515625], [-125.33803, 45.77283, -2815.1513671875]]], [[[-125.32677, 45.89934, -4743.810546875], [-125.33671, 45.89873, -4112.85693359375], [-125.33538, 45.90743, -4234.8212890625], [-125.32677, 45.89934, -4743.810546875]]], [[[-125.29904, 45.73645, -5692.59033203125], [-125.29968, 45.74575, -5714.453125], [-125.28997, 45.74111, -6216.3525390625], [-125.29904, 45.73645, -5692.59033203125]]], [[[-125.31591, 45.89786, -5377.43408203125], [-125.31349, 45.90896, -5569.13330078125], [-125.30606, 45.9036, -5961.94775390625], [-125.31591, 45.89786, -5377.43408203125]]], [[[-125.33018, 45.75032, -3871.529296875], [-125.33671, 45.7478, -3380.870361328125], [-125.33669, 45.75709, -3357.8486328125], [-125.33018, 45.75032, -3871.529296875]]], [[[-125.28499, 45.84681, -6614.4697265625], [-125.29637, 45.85473, -6054.47021484375], [-125.28577, 45.85554, -6614.4697265625], [-125.28499, 45.84681, -6614.4697265625]]], [[[-125.34196, 45.7347, -2725.602783203125], [-125.34744, 45.73901, -1972.1099853515625], [-125.34265, 45.74354, -2749.88330078125], [-125.34196, 45.7347, -2725.602783203125]]], [[[-125.32677, 45.89934, -4743.810546875], [-125.33392, 45.89077, -4210.02490234375], [-125.33671, 45.89873, -4112.85693359375], [-125.32677, 45.89934, -4743.810546875]]], [[[-125.34295, 45.75316, -2715.659912109375], [-125.34949, 45.75662, -1972.1099853515625], [-125.34028, 45.76435, -2828.0791015625], [-125.34295, 45.75316, -2715.659912109375]]], [[[-125.32677, 45.89934, -4743.810546875], [-125.32454, 45.88871, -4777.1298828125], [-125.33392, 45.89077, -4210.02490234375], [-125.32677, 45.89934, -4743.810546875]]], [[[-125.3128, 45.81257, -4695.84716796875], [-125.32163, 45.80812, -4104.916015625], [-125.32233, 45.81652, -4132.56689453125], [-125.3128, 45.81257, -4695.84716796875]]], [[[-125.29904, 45.73645, -5692.59033203125], [-125.28997, 45.74111, -6216.3525390625], [-125.29006, 45.73225, -6159.109375], [-125.29904, 45.73645, -5692.59033203125]]], [[[-125.33018, 45.75032, -3871.529296875], [-125.32659, 45.75782, -4082.8642578125], [-125.3207, 45.75049, -4473.59375], [-125.33018, 45.75032, -3871.529296875]]], [[[-125.32454, 45.88871, -4777.1298828125], [-125.32677, 45.89934, -4743.810546875], [-125.31591, 45.89786, -5377.43408203125], [-125.32454, 45.88871, -4777.1298828125]]], [[[-125.31639, 45.7171, -4567.0947265625], [-125.32023, 45.70889, -4257.5107421875], [-125.32643, 45.71626, -3928.379638671875], [-125.31639, 45.7171, -4567.0947265625]]], [[[-125.30323, 45.87262, -5809.03955078125], [-125.29733, 45.86368, -6054.47021484375], [-125.30779, 45.86289, -5477.81982421875], [-125.30323, 45.87262, -5809.03955078125]]], [[[-125.30613, 45.71787, -5197.7314453125], [-125.29595, 45.71844, -5777.47705078125], [-125.29973, 45.71055, -5515.8779296875], [-125.30613, 45.71787, -5197.7314453125]]], [[[-125.31834, 45.73346, -4527.02099609375], [-125.32674, 45.73468, -4009.192138671875], [-125.32624, 45.74234, -4097.53662109375], [-125.31834, 45.73346, -4527.02099609375]]], [[[-125.31368, 45.82125, -4724.32275390625], [-125.32211, 45.82647, -4256.3349609375], [-125.30732, 45.82776, -5178.5693359375], [-125.31368, 45.82125, -4724.32275390625]]], [[[-125.32454, 45.88871, -4777.1298828125], [-125.31591, 45.89786, -5377.43408203125], [-125.31443, 45.8878, -5363.10009765625], [-125.32454, 45.88871, -4777.1298828125]]], [[[-125.31368, 45.82125, -4724.32275390625], [-125.32233, 45.81652, -4132.56689453125], [-125.32211, 45.82647, -4256.3349609375], [-125.31368, 45.82125, -4724.32275390625]]], [[[-125.34028, 45.76435, -2828.0791015625], [-125.33803, 45.77283, -2815.1513671875], [-125.33175, 45.76503, -3636.303466796875], [-125.34028, 45.76435, -2828.0791015625]]], [[[-125.31119, 45.92513, -5498.26708984375], [-125.31547, 45.93326, -4875.39990234375], [-125.30526, 45.93411, -5477.81982421875], [-125.31119, 45.92513, -5498.26708984375]]], [[[-125.321, 45.8791, -4873.6015625], [-125.32454, 45.88871, -4777.1298828125], [-125.31443, 45.8878, -5363.10009765625], [-125.321, 45.8791, -4873.6015625]]], [[[-125.29951, 45.75525, -5734.88720703125], [-125.30979, 45.75101, -5150.9404296875], [-125.30617, 45.75982, -5343.69091796875], [-125.29951, 45.75525, -5734.88720703125]]], [[[-125.30732, 45.82776, -5178.5693359375], [-125.32211, 45.82647, -4256.3349609375], [-125.31875, 45.8351, -4597.8564453125], [-125.30732, 45.82776, -5178.5693359375]]], [[[-125.32454, 45.88871, -4777.1298828125], [-125.321, 45.8791, -4873.6015625], [-125.33142, 45.87967, -4226.49267578125], [-125.32454, 45.88871, -4777.1298828125]]], [[[-125.30079, 45.72666, -5552.47216796875], [-125.29006, 45.73225, -6159.109375], [-125.28917, 45.72342, -6169.85888671875], [-125.30079, 45.72666, -5552.47216796875]]], [[[-125.32454, 45.88871, -4777.1298828125], [-125.33142, 45.87967, -4226.49267578125], [-125.33392, 45.89077, -4210.02490234375], [-125.32454, 45.88871, -4777.1298828125]]], [[[-125.30732, 45.82776, -5178.5693359375], [-125.30962, 45.83643, -5166.99169921875], [-125.29957, 45.83713, -5740.71826171875], [-125.30732, 45.82776, -5178.5693359375]]], [[[-125.33392, 45.89077, -4210.02490234375], [-125.33142, 45.87967, -4226.49267578125], [-125.34226, 45.88573, -3637.368896484375], [-125.33392, 45.89077, -4210.02490234375]]], [[[-125.33392, 45.89077, -4210.02490234375], [-125.34226, 45.88573, -3637.368896484375], [-125.34483, 45.89357, -3540.437744140625], [-125.33392, 45.89077, -4210.02490234375]]], [[[-125.29006, 45.73225, -6159.109375], [-125.28018, 45.73731, -6701.12255859375], [-125.27976, 45.72892, -6688.48486328125], [-125.29006, 45.73225, -6159.109375]]], [[[-125.33392, 45.89077, -4210.02490234375], [-125.34483, 45.89357, -3540.437744140625], [-125.33671, 45.89873, -4112.85693359375], [-125.33392, 45.89077, -4210.02490234375]]], [[[-125.31368, 45.82125, -4724.32275390625], [-125.30389, 45.81756, -5274.0693359375], [-125.3128, 45.81257, -4695.84716796875], [-125.31368, 45.82125, -4724.32275390625]]], [[[-125.34483, 45.89357, -3540.437744140625], [-125.34226, 45.88573, -3637.368896484375], [-125.35175, 45.88893, -2789.495361328125], [-125.34483, 45.89357, -3540.437744140625]]], [[[-125.33693, 45.83619, -3415.351806640625], [-125.33611, 45.84281, -3615.56982421875], [-125.32887, 45.8348, -3963.06591796875], [-125.33693, 45.83619, -3415.351806640625]]], [[[-125.34483, 45.89357, -3540.437744140625], [-125.35175, 45.88893, -2789.495361328125], [-125.35287, 45.89749, -2814.1025390625], [-125.34483, 45.89357, -3540.437744140625]]], [[[-125.2949, 45.82187, -5813.18701171875], [-125.29584, 45.82975, -5843.44287109375], [-125.28499, 45.82664, -6386.611328125], [-125.2949, 45.82187, -5813.18701171875]]], [[[-125.33487, 45.71477, -3272.935302734375], [-125.32643, 45.71626, -3928.379638671875], [-125.33038, 45.7081, -3617.827392578125], [-125.33487, 45.71477, -3272.935302734375]]], [[[-125.33122, 45.81125, -3487.033935546875], [-125.32973, 45.80207, -3527.0234375], [-125.3378, 45.80596, -2789.458251953125], [-125.33122, 45.81125, -3487.033935546875]]], [[[-125.35175, 45.88893, -2789.495361328125], [-125.35807, 45.8927, -1972.1099853515625], [-125.35287, 45.89749, -2814.1025390625], [-125.35175, 45.88893, -2789.495361328125]]], [[[-125.28755, 45.83648, -6368.32080078125], [-125.28499, 45.84681, -6614.4697265625], [-125.27787, 45.84074, -6919.787109375], [-125.28755, 45.83648, -6368.32080078125]]], [[[-125.29006, 45.73225, -6159.109375], [-125.27976, 45.72892, -6688.48486328125], [-125.28917, 45.72342, -6169.85888671875], [-125.29006, 45.73225, -6159.109375]]], [[[-125.29904, 45.73645, -5692.59033203125], [-125.29006, 45.73225, -6159.109375], [-125.30079, 45.72666, -5552.47216796875], [-125.29904, 45.73645, -5692.59033203125]]], [[[-125.31565, 45.74253, -4771.4677734375], [-125.3207, 45.75049, -4473.59375], [-125.30979, 45.75101, -5150.9404296875], [-125.31565, 45.74253, -4771.4677734375]]], [[[-125.35175, 45.88893, -2789.495361328125], [-125.35686, 45.88375, -1972.1099853515625], [-125.35807, 45.8927, -1972.1099853515625], [-125.35175, 45.88893, -2789.495361328125]]], [[[-125.33122, 45.81125, -3487.033935546875], [-125.32163, 45.80812, -4104.916015625], [-125.32973, 45.80207, -3527.0234375], [-125.33122, 45.81125, -3487.033935546875]]], [[[-125.30495, 45.91541, -6031.0146484375], [-125.31119, 45.92513, -5498.26708984375], [-125.3003, 45.92586, -6099.2392578125], [-125.30495, 45.91541, -6031.0146484375]]], [[[-125.30855, 45.73333, -5127.7333984375], [-125.31834, 45.73346, -4527.02099609375], [-125.31565, 45.74253, -4771.4677734375], [-125.30855, 45.73333, -5127.7333984375]]], [[[-125.34958, 45.88124, -2871.51123046875], [-125.3529, 45.8772, -1972.1099853515625], [-125.35686, 45.88375, -1972.1099853515625], [-125.34958, 45.88124, -2871.51123046875]]], [[[-125.32973, 45.80207, -3527.0234375], [-125.33665, 45.79722, -2822.0888671875], [-125.3378, 45.80596, -2789.458251953125], [-125.32973, 45.80207, -3527.0234375]]], [[[-125.34958, 45.88124, -2871.51123046875], [-125.34843, 45.87197, -2776.113525390625], [-125.3529, 45.8772, -1972.1099853515625], [-125.34958, 45.88124, -2871.51123046875]]], [[[-125.32163, 45.80812, -4104.916015625], [-125.33122, 45.81125, -3487.033935546875], [-125.32233, 45.81652, -4132.56689453125], [-125.32163, 45.80812, -4104.916015625]]], [[[-125.30732, 45.82776, -5178.5693359375], [-125.29957, 45.83713, -5740.71826171875], [-125.29584, 45.82975, -5843.44287109375], [-125.30732, 45.82776, -5178.5693359375]]], [[[-125.33803, 45.77283, -2815.1513671875], [-125.32718, 45.77366, -3775.9111328125], [-125.33175, 45.76503, -3636.303466796875], [-125.33803, 45.77283, -2815.1513671875]]], [[[-125.34142, 45.87698, -3550.91357421875], [-125.34843, 45.87197, -2776.113525390625], [-125.34958, 45.88124, -2871.51123046875], [-125.34142, 45.87698, -3550.91357421875]]], [[[-125.32887, 45.8348, -3963.06591796875], [-125.33611, 45.84281, -3615.56982421875], [-125.32614, 45.84358, -4242.169921875], [-125.32887, 45.8348, -3963.06591796875]]], [[[-125.34142, 45.87698, -3550.91357421875], [-125.34252, 45.86795, -3284.486572265625], [-125.34843, 45.87197, -2776.113525390625], [-125.34142, 45.87698, -3550.91357421875]]], [[[-125.34035, 45.71809, -2727.643798828125], [-125.33358, 45.72288, -3468.367431640625], [-125.33487, 45.71477, -3272.935302734375], [-125.34035, 45.71809, -2727.643798828125]]], [[[-125.30292, 45.79193, -5169.05078125], [-125.29273, 45.7955, -5765.623046875], [-125.29579, 45.78548, -5591.43701171875], [-125.30292, 45.79193, -5169.05078125]]], [[[-125.34252, 45.86795, -3284.486572265625], [-125.34142, 45.87698, -3550.91357421875], [-125.33412, 45.86952, -3934.527099609375], [-125.34252, 45.86795, -3284.486572265625]]], [[[-125.34035, 45.71809, -2727.643798828125], [-125.34639, 45.71507, -1972.1099853515625], [-125.34494, 45.72252, -1972.1099853515625], [-125.34035, 45.71809, -2727.643798828125]]], [[[-125.33412, 45.86952, -3934.527099609375], [-125.33786, 45.86048, -3615.56982421875], [-125.34252, 45.86795, -3284.486572265625], [-125.33412, 45.86952, -3934.527099609375]]], [[[-125.28421, 45.78325, -6240.248046875], [-125.27499, 45.77797, -6803.66748046875], [-125.28502, 45.77547, -6299.59765625], [-125.28421, 45.78325, -6240.248046875]]], [[[-125.33412, 45.86952, -3934.527099609375], [-125.32789, 45.86126, -4242.169921875], [-125.33786, 45.86048, -3615.56982421875], [-125.33412, 45.86952, -3934.527099609375]]], [[[-125.34196, 45.7347, -2725.602783203125], [-125.34732, 45.73002, -1972.1099853515625], [-125.34744, 45.73901, -1972.1099853515625], [-125.34196, 45.7347, -2725.602783203125]]], [[[-125.33665, 45.79722, -2822.0888671875], [-125.34309, 45.80115, -1972.1099853515625], [-125.3378, 45.80596, -2789.458251953125], [-125.33665, 45.79722, -2822.0888671875]]], [[[-125.28997, 45.74111, -6216.3525390625], [-125.28103, 45.74567, -6710.318359375], [-125.28018, 45.73731, -6701.12255859375], [-125.28997, 45.74111, -6216.3525390625]]], [[[-125.33412, 45.86952, -3934.527099609375], [-125.32444, 45.87027, -4547.93310546875], [-125.32789, 45.86126, -4242.169921875], [-125.33412, 45.86952, -3934.527099609375]]], [[[-125.31368, 45.82125, -4724.32275390625], [-125.30732, 45.82776, -5178.5693359375], [-125.30389, 45.81756, -5274.0693359375], [-125.31368, 45.82125, -4724.32275390625]]], [[[-125.33412, 45.86952, -3934.527099609375], [-125.33142, 45.87967, -4226.49267578125], [-125.32444, 45.87027, -4547.93310546875], [-125.33412, 45.86952, -3934.527099609375]]], [[[-125.32131, 45.76585, -4294.35498046875], [-125.31596, 45.77468, -4483.7568359375], [-125.3109, 45.76668, -4954.806640625], [-125.32131, 45.76585, -4294.35498046875]]], [[[-125.30495, 45.91541, -6031.0146484375], [-125.31723, 45.91712, -5315.84619140625], [-125.31119, 45.92513, -5498.26708984375], [-125.30495, 45.91541, -6031.0146484375]]], [[[-125.33344, 45.82726, -3536.737060546875], [-125.34043, 45.82253, -2758.147705078125], [-125.34182, 45.83149, -2852.335693359375], [-125.33344, 45.82726, -3536.737060546875]]], [[[-125.28499, 45.84681, -6614.4697265625], [-125.28755, 45.83648, -6368.32080078125], [-125.29559, 45.846, -6054.47021484375], [-125.28499, 45.84681, -6614.4697265625]]], [[[-125.33142, 45.87967, -4226.49267578125], [-125.33412, 45.86952, -3934.527099609375], [-125.34142, 45.87698, -3550.91357421875], [-125.33142, 45.87967, -4226.49267578125]]], [[[-125.33344, 45.82726, -3536.737060546875], [-125.33693, 45.83619, -3415.351806640625], [-125.32887, 45.8348, -3963.06591796875], [-125.33344, 45.82726, -3536.737060546875]]], [[[-125.33935, 45.81473, -2742.45751953125], [-125.34786, 45.81827, -1972.1099853515625], [-125.34043, 45.82253, -2758.147705078125], [-125.33935, 45.81473, -2742.45751953125]]], [[[-125.34226, 45.88573, -3637.368896484375], [-125.33142, 45.87967, -4226.49267578125], [-125.34142, 45.87698, -3550.91357421875], [-125.34226, 45.88573, -3637.368896484375]]], [[[-125.32233, 45.81652, -4132.56689453125], [-125.33183, 45.81948, -3547.658203125], [-125.32211, 45.82647, -4256.3349609375], [-125.32233, 45.81652, -4132.56689453125]]], [[[-125.34098, 45.72689, -2770.69921875], [-125.34035, 45.71809, -2727.643798828125], [-125.34494, 45.72252, -1972.1099853515625], [-125.34098, 45.72689, -2770.69921875]]], [[[-125.34226, 45.88573, -3637.368896484375], [-125.34142, 45.87698, -3550.91357421875], [-125.34958, 45.88124, -2871.51123046875], [-125.34226, 45.88573, -3637.368896484375]]], [[[-125.33358, 45.72288, -3468.367431640625], [-125.34035, 45.71809, -2727.643798828125], [-125.34098, 45.72689, -2770.69921875], [-125.33358, 45.72288, -3468.367431640625]]], [[[-125.34226, 45.88573, -3637.368896484375], [-125.34958, 45.88124, -2871.51123046875], [-125.35175, 45.88893, -2789.495361328125], [-125.34226, 45.88573, -3637.368896484375]]], [[[-125.30747, 45.74154, -5255.20947265625], [-125.30855, 45.73333, -5127.7333984375], [-125.31565, 45.74253, -4771.4677734375], [-125.30747, 45.74154, -5255.20947265625]]], [[[-125.34182, 45.83149, -2852.335693359375], [-125.34043, 45.82253, -2758.147705078125], [-125.3464, 45.82701, -1972.1099853515625], [-125.34182, 45.83149, -2852.335693359375]]], [[[-125.321, 45.8791, -4873.6015625], [-125.32444, 45.87027, -4547.93310546875], [-125.33142, 45.87967, -4226.49267578125], [-125.321, 45.8791, -4873.6015625]]], [[[-125.33935, 45.81473, -2742.45751953125], [-125.34471, 45.8097, -1972.1099853515625], [-125.34786, 45.81827, -1972.1099853515625], [-125.33935, 45.81473, -2742.45751953125]]], [[[-125.321, 45.8791, -4873.6015625], [-125.31431, 45.87063, -5166.1572265625], [-125.32444, 45.87027, -4547.93310546875], [-125.321, 45.8791, -4873.6015625]]], [[[-125.29335, 45.81308, -5826.8076171875], [-125.28375, 45.81782, -6374.072265625], [-125.28292, 45.80913, -6359.2900390625], [-125.29335, 45.81308, -5826.8076171875]]], [[[-125.31119, 45.92513, -5498.26708984375], [-125.32204, 45.92491, -4831.033203125], [-125.31547, 45.93326, -4875.39990234375], [-125.31119, 45.92513, -5498.26708984375]]], [[[-125.34028, 45.76435, -2828.0791015625], [-125.34949, 45.75662, -1972.1099853515625], [-125.34808, 45.76431, -1972.1099853515625], [-125.34028, 45.76435, -2828.0791015625]]], [[[-125.28997, 45.74111, -6216.3525390625], [-125.29048, 45.74993, -6226.228515625], [-125.28103, 45.74567, -6710.318359375], [-125.28997, 45.74111, -6216.3525390625]]], [[[-125.34414, 45.84215, -2848.60009765625], [-125.33693, 45.83619, -3415.351806640625], [-125.34182, 45.83149, -2852.335693359375], [-125.34414, 45.84215, -2848.60009765625]]], [[[-125.321, 45.8791, -4873.6015625], [-125.31167, 45.87865, -5409.75732421875], [-125.31431, 45.87063, -5166.1572265625], [-125.321, 45.8791, -4873.6015625]]], [[[-125.32204, 45.92491, -4831.033203125], [-125.33214, 45.92415, -4185.34765625], [-125.32539, 45.93248, -4242.169921875], [-125.32204, 45.92491, -4831.033203125]]], [[[-125.31368, 45.82125, -4724.32275390625], [-125.3128, 45.81257, -4695.84716796875], [-125.32233, 45.81652, -4132.56689453125], [-125.31368, 45.82125, -4724.32275390625]]], [[[-125.31834, 45.73346, -4527.02099609375], [-125.30855, 45.73333, -5127.7333984375], [-125.31237, 45.7252, -4869.1474609375], [-125.31834, 45.73346, -4527.02099609375]]], [[[-125.28304, 45.79135, -6267.16748046875], [-125.27268, 45.78684, -6832.7529296875], [-125.28421, 45.78325, -6240.248046875], [-125.28304, 45.79135, -6267.16748046875]]], [[[-125.31443, 45.8878, -5363.10009765625], [-125.31167, 45.87865, -5409.75732421875], [-125.321, 45.8791, -4873.6015625], [-125.31443, 45.8878, -5363.10009765625]]], [[[-125.33611, 45.84281, -3615.56982421875], [-125.34414, 45.84215, -2848.60009765625], [-125.34492, 45.85088, -2848.60009765625], [-125.33611, 45.84281, -3615.56982421875]]], [[[-125.31443, 45.8878, -5363.10009765625], [-125.30383, 45.88359, -5896.8095703125], [-125.31167, 45.87865, -5409.75732421875], [-125.31443, 45.8878, -5363.10009765625]]], [[[-125.28499, 45.82664, -6386.611328125], [-125.27574, 45.83183, -6917.28759765625], [-125.27432, 45.82286, -6903.96240234375], [-125.28499, 45.82664, -6386.611328125]]], [[[-125.34414, 45.84215, -2848.60009765625], [-125.34545, 45.83488, -1972.1099853515625], [-125.35011, 45.84168, -1972.1099853515625], [-125.34414, 45.84215, -2848.60009765625]]], [[[-125.31443, 45.8878, -5363.10009765625], [-125.30537, 45.89332, -5917.55712890625], [-125.30383, 45.88359, -5896.8095703125], [-125.31443, 45.8878, -5363.10009765625]]], [[[-125.32677, 45.89934, -4743.810546875], [-125.32295, 45.90776, -5017.1279296875], [-125.31591, 45.89786, -5377.43408203125], [-125.32677, 45.89934, -4743.810546875]]], [[[-125.31591, 45.89786, -5377.43408203125], [-125.30537, 45.89332, -5917.55712890625], [-125.31443, 45.8878, -5363.10009765625], [-125.31591, 45.89786, -5377.43408203125]]], [[[-125.32084, 45.79891, -4095.7080078125], [-125.31231, 45.80439, -4666.18017578125], [-125.3116, 45.79553, -4662.32080078125], [-125.32084, 45.79891, -4095.7080078125]]], [[[-125.31591, 45.89786, -5377.43408203125], [-125.30606, 45.9036, -5961.94775390625], [-125.30537, 45.89332, -5917.55712890625], [-125.31591, 45.89786, -5377.43408203125]]], [[[-125.34492, 45.85088, -2848.60009765625], [-125.35089, 45.85041, -1972.1099853515625], [-125.35186, 45.85936, -1972.1099853515625], [-125.34492, 45.85088, -2848.60009765625]]], [[[-125.32295, 45.90776, -5017.1279296875], [-125.31349, 45.90896, -5569.13330078125], [-125.31591, 45.89786, -5377.43408203125], [-125.32295, 45.90776, -5017.1279296875]]], [[[-125.32614, 45.84358, -4242.169921875], [-125.33611, 45.84281, -3615.56982421875], [-125.3369, 45.85154, -3615.56982421875], [-125.32614, 45.84358, -4242.169921875]]], [[[-125.32295, 45.90776, -5017.1279296875], [-125.31723, 45.91712, -5315.84619140625], [-125.31349, 45.90896, -5569.13330078125], [-125.32295, 45.90776, -5017.1279296875]]], [[[-125.32295, 45.90776, -5017.1279296875], [-125.32794, 45.91601, -4671.05126953125], [-125.31723, 45.91712, -5315.84619140625], [-125.32295, 45.90776, -5017.1279296875]]], [[[-125.30383, 45.88359, -5896.8095703125], [-125.29352, 45.8801, -6400.31884765625], [-125.30323, 45.87262, -5809.03955078125], [-125.30383, 45.88359, -5896.8095703125]]], [[[-125.30493, 45.77604, -5159.20849609375], [-125.3109, 45.76668, -4954.806640625], [-125.31596, 45.77468, -4483.7568359375], [-125.30493, 45.77604, -5159.20849609375]]], [[[-125.32295, 45.90776, -5017.1279296875], [-125.33538, 45.90743, -4234.8212890625], [-125.32794, 45.91601, -4671.05126953125], [-125.32295, 45.90776, -5017.1279296875]]], [[[-125.30493, 45.77604, -5159.20849609375], [-125.29466, 45.77635, -5754.8212890625], [-125.30016, 45.76756, -5582.53662109375], [-125.30493, 45.77604, -5159.20849609375]]], [[[-125.33671, 45.7478, -3380.870361328125], [-125.34295, 45.75316, -2715.659912109375], [-125.33669, 45.75709, -3357.8486328125], [-125.33671, 45.7478, -3380.870361328125]]], [[[-125.32677, 45.89934, -4743.810546875], [-125.33538, 45.90743, -4234.8212890625], [-125.32295, 45.90776, -5017.1279296875], [-125.32677, 45.89934, -4743.810546875]]], [[[-125.30613, 45.71787, -5197.7314453125], [-125.29973, 45.71055, -5515.8779296875], [-125.31014, 45.70969, -4902.44189453125], [-125.30613, 45.71787, -5197.7314453125]]], [[[-125.34098, 45.72689, -2770.69921875], [-125.34494, 45.72252, -1972.1099853515625], [-125.34732, 45.73002, -1972.1099853515625], [-125.34098, 45.72689, -2770.69921875]]], [[[-125.34492, 45.85088, -2848.60009765625], [-125.35186, 45.85936, -1972.1099853515625], [-125.34589, 45.85983, -2848.60009765625], [-125.34492, 45.85088, -2848.60009765625]]], [[[-125.28997, 45.74111, -6216.3525390625], [-125.28018, 45.73731, -6701.12255859375], [-125.29006, 45.73225, -6159.109375], [-125.28997, 45.74111, -6216.3525390625]]], [[[-125.34843, 45.87197, -2776.113525390625], [-125.34589, 45.85983, -2848.60009765625], [-125.35352, 45.86822, -1972.1099853515625], [-125.34843, 45.87197, -2776.113525390625]]], [[[-125.30287, 45.80858, -5263.58154296875], [-125.29264, 45.80449, -5813.4072265625], [-125.30255, 45.80042, -5234.982421875], [-125.30287, 45.80858, -5263.58154296875]]], [[[-125.33538, 45.90743, -4234.8212890625], [-125.34581, 45.90277, -3558.25634765625], [-125.34562, 45.91285, -3553.285400390625], [-125.33538, 45.90743, -4234.8212890625]]], [[[-125.28292, 45.80913, -6359.2900390625], [-125.27322, 45.81387, -6893.46044921875], [-125.27262, 45.80486, -6874.43701171875], [-125.28292, 45.80913, -6359.2900390625]]], [[[-125.33344, 45.82726, -3536.737060546875], [-125.33183, 45.81948, -3547.658203125], [-125.34043, 45.82253, -2758.147705078125], [-125.33344, 45.82726, -3536.737060546875]]], [[[-125.33749, 45.91624, -4052.08349609375], [-125.34562, 45.91285, -3553.285400390625], [-125.34244, 45.92333, -3500.1181640625], [-125.33749, 45.91624, -4052.08349609375]]], [[[-125.28292, 45.80913, -6359.2900390625], [-125.27262, 45.80486, -6874.43701171875], [-125.28242, 45.80022, -6341.23486328125], [-125.28292, 45.80913, -6359.2900390625]]], [[[-125.29218, 45.87183, -6388.275390625], [-125.28672, 45.86449, -6614.4697265625], [-125.29733, 45.86368, -6054.47021484375], [-125.29218, 45.87183, -6388.275390625]]], [[[-125.28375, 45.81782, -6374.072265625], [-125.28499, 45.82664, -6386.611328125], [-125.27432, 45.82286, -6903.96240234375], [-125.28375, 45.81782, -6374.072265625]]], [[[-125.3116, 45.79553, -4662.32080078125], [-125.31231, 45.80439, -4666.18017578125], [-125.30255, 45.80042, -5234.982421875], [-125.3116, 45.79553, -4662.32080078125]]], [[[-125.33665, 45.79722, -2822.0888671875], [-125.3373, 45.78741, -2665.29931640625], [-125.34204, 45.79348, -1972.1099853515625], [-125.33665, 45.79722, -2822.0888671875]]], [[[-125.30855, 45.73333, -5127.7333984375], [-125.30079, 45.72666, -5552.47216796875], [-125.31237, 45.7252, -4869.1474609375], [-125.30855, 45.73333, -5127.7333984375]]], [[[-125.29466, 45.77635, -5754.8212890625], [-125.28502, 45.77547, -6299.59765625], [-125.28917, 45.76839, -6183.85791015625], [-125.29466, 45.77635, -5754.8212890625]]], [[[-125.30495, 45.91541, -6031.0146484375], [-125.29439, 45.91843, -6566.94091796875], [-125.29664, 45.90859, -6477.82861328125], [-125.30495, 45.91541, -6031.0146484375]]], [[[-125.31167, 45.87865, -5409.75732421875], [-125.30323, 45.87262, -5809.03955078125], [-125.31431, 45.87063, -5166.1572265625], [-125.31167, 45.87865, -5409.75732421875]]], [[[-125.30079, 45.72666, -5552.47216796875], [-125.29595, 45.71844, -5777.47705078125], [-125.30613, 45.71787, -5197.7314453125], [-125.30079, 45.72666, -5552.47216796875]]], [[[-125.32794, 45.91601, -4671.05126953125], [-125.33214, 45.92415, -4185.34765625], [-125.32204, 45.92491, -4831.033203125], [-125.32794, 45.91601, -4671.05126953125]]], [[[-125.32347, 45.72523, -4163.59033203125], [-125.31237, 45.7252, -4869.1474609375], [-125.31639, 45.7171, -4567.0947265625], [-125.32347, 45.72523, -4163.59033203125]]], [[[-125.34182, 45.83149, -2852.335693359375], [-125.3464, 45.82701, -1972.1099853515625], [-125.34545, 45.83488, -1972.1099853515625], [-125.34182, 45.83149, -2852.335693359375]]], [[[-125.33122, 45.81125, -3487.033935546875], [-125.3378, 45.80596, -2789.458251953125], [-125.33935, 45.81473, -2742.45751953125], [-125.33122, 45.81125, -3487.033935546875]]], [[[-125.34043, 45.82253, -2758.147705078125], [-125.34786, 45.81827, -1972.1099853515625], [-125.3464, 45.82701, -1972.1099853515625], [-125.34043, 45.82253, -2758.147705078125]]], [[[-125.30613, 45.71787, -5197.7314453125], [-125.31014, 45.70969, -4902.44189453125], [-125.31639, 45.7171, -4567.0947265625], [-125.30613, 45.71787, -5197.7314453125]]], [[[-125.31119, 45.92513, -5498.26708984375], [-125.30526, 45.93411, -5477.81982421875], [-125.3003, 45.92586, -6099.2392578125], [-125.31119, 45.92513, -5498.26708984375]]], [[[-125.32887, 45.8348, -3963.06591796875], [-125.32614, 45.84358, -4242.169921875], [-125.31875, 45.8351, -4597.8564453125], [-125.32887, 45.8348, -3963.06591796875]]], [[[-125.31834, 45.73346, -4527.02099609375], [-125.32347, 45.72523, -4163.59033203125], [-125.32674, 45.73468, -4009.192138671875], [-125.31834, 45.73346, -4527.02099609375]]], [[[-125.3116, 45.79553, -4662.32080078125], [-125.30255, 45.80042, -5234.982421875], [-125.30292, 45.79193, -5169.05078125], [-125.3116, 45.79553, -4662.32080078125]]], [[[-125.30495, 45.91541, -6031.0146484375], [-125.31349, 45.90896, -5569.13330078125], [-125.31723, 45.91712, -5315.84619140625], [-125.30495, 45.91541, -6031.0146484375]]], [[[-125.30682, 45.85394, -5477.81982421875], [-125.31702, 45.8531, -4875.39990234375], [-125.31799, 45.86204, -4875.39990234375], [-125.30682, 45.85394, -5477.81982421875]]], [[[-125.31231, 45.80439, -4666.18017578125], [-125.3128, 45.81257, -4695.84716796875], [-125.30287, 45.80858, -5263.58154296875], [-125.31231, 45.80439, -4666.18017578125]]], [[[-125.30537, 45.89332, -5917.55712890625], [-125.29611, 45.89856, -6451.64599609375], [-125.29478, 45.88931, -6436.8984375], [-125.30537, 45.89332, -5917.55712890625]]], [[[-125.31231, 45.80439, -4666.18017578125], [-125.30287, 45.80858, -5263.58154296875], [-125.30255, 45.80042, -5234.982421875], [-125.31231, 45.80439, -4666.18017578125]]], [[[-125.30323, 45.87262, -5809.03955078125], [-125.30779, 45.86289, -5477.81982421875], [-125.31431, 45.87063, -5166.1572265625], [-125.30323, 45.87262, -5809.03955078125]]], [[[-125.29218, 45.87183, -6388.275390625], [-125.29733, 45.86368, -6054.47021484375], [-125.30323, 45.87262, -5809.03955078125], [-125.29218, 45.87183, -6388.275390625]]], [[[-125.28577, 45.85554, -6614.4697265625], [-125.29733, 45.86368, -6054.47021484375], [-125.28672, 45.86449, -6614.4697265625], [-125.28577, 45.85554, -6614.4697265625]]], [[[-125.28499, 45.84681, -6614.4697265625], [-125.29559, 45.846, -6054.47021484375], [-125.29637, 45.85473, -6054.47021484375], [-125.28499, 45.84681, -6614.4697265625]]], [[[-125.28755, 45.83648, -6368.32080078125], [-125.27787, 45.84074, -6919.787109375], [-125.27574, 45.83183, -6917.28759765625], [-125.28755, 45.83648, -6368.32080078125]]], [[[-125.31237, 45.7252, -4869.1474609375], [-125.30613, 45.71787, -5197.7314453125], [-125.31639, 45.7171, -4567.0947265625], [-125.31237, 45.7252, -4869.1474609375]]], [[[-125.29076, 45.75952, -6205.52197265625], [-125.28044, 45.76149, -6745.90478515625], [-125.28106, 45.754, -6727.69140625], [-125.29076, 45.75952, -6205.52197265625]]], [[[-125.29584, 45.82975, -5843.44287109375], [-125.29957, 45.83713, -5740.71826171875], [-125.28755, 45.83648, -6368.32080078125], [-125.29584, 45.82975, -5843.44287109375]]], [[[-125.30732, 45.82776, -5178.5693359375], [-125.31875, 45.8351, -4597.8564453125], [-125.30962, 45.83643, -5166.99169921875], [-125.30732, 45.82776, -5178.5693359375]]], [[[-125.33183, 45.81948, -3547.658203125], [-125.33935, 45.81473, -2742.45751953125], [-125.34043, 45.82253, -2758.147705078125], [-125.33183, 45.81948, -3547.658203125]]], [[[-125.31875, 45.8351, -4597.8564453125], [-125.32614, 45.84358, -4242.169921875], [-125.31624, 45.84436, -4875.39990234375], [-125.31875, 45.8351, -4597.8564453125]]], [[[-125.29048, 45.74993, -6226.228515625], [-125.28106, 45.754, -6727.69140625], [-125.28103, 45.74567, -6710.318359375], [-125.29048, 45.74993, -6226.228515625]]], [[[-125.2949, 45.82187, -5813.18701171875], [-125.28499, 45.82664, -6386.611328125], [-125.28375, 45.81782, -6374.072265625], [-125.2949, 45.82187, -5813.18701171875]]], [[[-125.30389, 45.81756, -5274.0693359375], [-125.30732, 45.82776, -5178.5693359375], [-125.2949, 45.82187, -5813.18701171875], [-125.30389, 45.81756, -5274.0693359375]]], [[[-125.30389, 45.81756, -5274.0693359375], [-125.2949, 45.82187, -5813.18701171875], [-125.29335, 45.81308, -5826.8076171875], [-125.30389, 45.81756, -5274.0693359375]]], [[[-125.30287, 45.80858, -5263.58154296875], [-125.30389, 45.81756, -5274.0693359375], [-125.29335, 45.81308, -5826.8076171875], [-125.30287, 45.80858, -5263.58154296875]]], [[[-125.30287, 45.80858, -5263.58154296875], [-125.3128, 45.81257, -4695.84716796875], [-125.30389, 45.81756, -5274.0693359375], [-125.30287, 45.80858, -5263.58154296875]]], [[[-125.3128, 45.81257, -4695.84716796875], [-125.31231, 45.80439, -4666.18017578125], [-125.32163, 45.80812, -4104.916015625], [-125.3128, 45.81257, -4695.84716796875]]], [[[-125.30605, 45.84521, -5477.81982421875], [-125.30962, 45.83643, -5166.99169921875], [-125.31624, 45.84436, -4875.39990234375], [-125.30605, 45.84521, -5477.81982421875]]], [[[-125.3378, 45.80596, -2789.458251953125], [-125.34471, 45.8097, -1972.1099853515625], [-125.33935, 45.81473, -2742.45751953125], [-125.3378, 45.80596, -2789.458251953125]]], [[[-125.30855, 45.73333, -5127.7333984375], [-125.29904, 45.73645, -5692.59033203125], [-125.30079, 45.72666, -5552.47216796875], [-125.30855, 45.73333, -5127.7333984375]]], [[[-125.29559, 45.846, -6054.47021484375], [-125.30682, 45.85394, -5477.81982421875], [-125.29637, 45.85473, -6054.47021484375], [-125.29559, 45.846, -6054.47021484375]]], [[[-125.32674, 45.73468, -4009.192138671875], [-125.33388, 45.73082, -3493.8916015625], [-125.33567, 45.73914, -3427.031494140625], [-125.32674, 45.73468, -4009.192138671875]]], [[[-125.33183, 45.81948, -3547.658203125], [-125.33122, 45.81125, -3487.033935546875], [-125.33935, 45.81473, -2742.45751953125], [-125.33183, 45.81948, -3547.658203125]]], [[[-125.32674, 45.73468, -4009.192138671875], [-125.33567, 45.73914, -3427.031494140625], [-125.32624, 45.74234, -4097.53662109375], [-125.32674, 45.73468, -4009.192138671875]]], [[[-125.31639, 45.7171, -4567.0947265625], [-125.31014, 45.70969, -4902.44189453125], [-125.32023, 45.70889, -4257.5107421875], [-125.31639, 45.7171, -4567.0947265625]]], [[[-125.32211, 45.82647, -4256.3349609375], [-125.33344, 45.82726, -3536.737060546875], [-125.32887, 45.8348, -3963.06591796875], [-125.32211, 45.82647, -4256.3349609375]]], [[[-125.32922, 45.7914, -3487.445068359375], [-125.32973, 45.80207, -3527.0234375], [-125.32084, 45.79891, -4095.7080078125], [-125.32922, 45.7914, -3487.445068359375]]], [[[-125.33693, 45.83619, -3415.351806640625], [-125.34414, 45.84215, -2848.60009765625], [-125.33611, 45.84281, -3615.56982421875], [-125.33693, 45.83619, -3415.351806640625]]], [[[-125.3378, 45.80596, -2789.458251953125], [-125.34309, 45.80115, -1972.1099853515625], [-125.34471, 45.8097, -1972.1099853515625], [-125.3378, 45.80596, -2789.458251953125]]], [[[-125.33665, 45.79722, -2822.0888671875], [-125.34204, 45.79348, -1972.1099853515625], [-125.34309, 45.80115, -1972.1099853515625], [-125.33665, 45.79722, -2822.0888671875]]], [[[-125.32922, 45.7914, -3487.445068359375], [-125.3373, 45.78741, -2665.29931640625], [-125.33665, 45.79722, -2822.0888671875], [-125.32922, 45.7914, -3487.445068359375]]], [[[-125.29264, 45.80449, -5813.4072265625], [-125.29335, 45.81308, -5826.8076171875], [-125.28292, 45.80913, -6359.2900390625], [-125.29264, 45.80449, -5813.4072265625]]], [[[-125.31834, 45.73346, -4527.02099609375], [-125.31237, 45.7252, -4869.1474609375], [-125.32347, 45.72523, -4163.59033203125], [-125.31834, 45.73346, -4527.02099609375]]], [[[-125.30747, 45.74154, -5255.20947265625], [-125.29968, 45.74575, -5714.453125], [-125.29904, 45.73645, -5692.59033203125], [-125.30747, 45.74154, -5255.20947265625]]], [[[-125.31565, 45.74253, -4771.4677734375], [-125.32624, 45.74234, -4097.53662109375], [-125.3207, 45.75049, -4473.59375], [-125.31565, 45.74253, -4771.4677734375]]], [[[-125.31014, 45.78448, -4739.625], [-125.31902, 45.79054, -4163.49072265625], [-125.3116, 45.79553, -4662.32080078125], [-125.31014, 45.78448, -4739.625]]], [[[-125.31834, 45.73346, -4527.02099609375], [-125.32624, 45.74234, -4097.53662109375], [-125.31565, 45.74253, -4771.4677734375], [-125.31834, 45.73346, -4527.02099609375]]], [[[-125.3207, 45.75049, -4473.59375], [-125.32659, 45.75782, -4082.8642578125], [-125.31617, 45.75865, -4747.08251953125], [-125.3207, 45.75049, -4473.59375]]], [[[-125.29951, 45.75525, -5734.88720703125], [-125.29048, 45.74993, -6226.228515625], [-125.29968, 45.74575, -5714.453125], [-125.29951, 45.75525, -5734.88720703125]]], [[[-125.29076, 45.75952, -6205.52197265625], [-125.30016, 45.76756, -5582.53662109375], [-125.28917, 45.76839, -6183.85791015625], [-125.29076, 45.75952, -6205.52197265625]]], [[[-125.29595, 45.71844, -5777.47705078125], [-125.28917, 45.72342, -6169.85888671875], [-125.28908, 45.71136, -6103.06005859375], [-125.29595, 45.71844, -5777.47705078125]]], [[[-125.28956, 45.9274, -6641.68505859375], [-125.28033, 45.93002, -7058.10888671875], [-125.28391, 45.9249, -7029.5390625], [-125.28956, 45.9274, -6641.68505859375]]], [[[-125.30732, 45.82776, -5178.5693359375], [-125.29584, 45.82975, -5843.44287109375], [-125.2949, 45.82187, -5813.18701171875], [-125.30732, 45.82776, -5178.5693359375]]], [[[-125.32084, 45.79891, -4095.7080078125], [-125.32973, 45.80207, -3527.0234375], [-125.32163, 45.80812, -4104.916015625], [-125.32084, 45.79891, -4095.7080078125]]], [[[-125.32922, 45.7914, -3487.445068359375], [-125.32084, 45.79891, -4095.7080078125], [-125.31902, 45.79054, -4163.49072265625], [-125.32922, 45.7914, -3487.445068359375]]], [[[-125.31902, 45.79054, -4163.49072265625], [-125.32216, 45.78249, -3980.90234375], [-125.32922, 45.7914, -3487.445068359375], [-125.31902, 45.79054, -4163.49072265625]]], [[[-125.31902, 45.79054, -4163.49072265625], [-125.31014, 45.78448, -4739.625], [-125.32216, 45.78249, -3980.90234375], [-125.31902, 45.79054, -4163.49072265625]]], [[[-125.31014, 45.78448, -4739.625], [-125.3116, 45.79553, -4662.32080078125], [-125.30292, 45.79193, -5169.05078125], [-125.31014, 45.78448, -4739.625]]], [[[-125.30292, 45.79193, -5169.05078125], [-125.29579, 45.78548, -5591.43701171875], [-125.31014, 45.78448, -4739.625], [-125.30292, 45.79193, -5169.05078125]]], [[[-125.30255, 45.80042, -5234.982421875], [-125.29273, 45.7955, -5765.623046875], [-125.30292, 45.79193, -5169.05078125], [-125.30255, 45.80042, -5234.982421875]]], [[[-125.30255, 45.80042, -5234.982421875], [-125.29264, 45.80449, -5813.4072265625], [-125.29273, 45.7955, -5765.623046875], [-125.30255, 45.80042, -5234.982421875]]], [[[-125.29273, 45.7955, -5765.623046875], [-125.29264, 45.80449, -5813.4072265625], [-125.28242, 45.80022, -6341.23486328125], [-125.29273, 45.7955, -5765.623046875]]], [[[-125.29273, 45.7955, -5765.623046875], [-125.28242, 45.80022, -6341.23486328125], [-125.28304, 45.79135, -6267.16748046875], [-125.29273, 45.7955, -5765.623046875]]], [[[-125.29273, 45.7955, -5765.623046875], [-125.28304, 45.79135, -6267.16748046875], [-125.29579, 45.78548, -5591.43701171875], [-125.29273, 45.7955, -5765.623046875]]], [[[-125.29579, 45.78548, -5591.43701171875], [-125.28304, 45.79135, -6267.16748046875], [-125.28421, 45.78325, -6240.248046875], [-125.29579, 45.78548, -5591.43701171875]]], [[[-125.29579, 45.78548, -5591.43701171875], [-125.28421, 45.78325, -6240.248046875], [-125.29466, 45.77635, -5754.8212890625], [-125.29579, 45.78548, -5591.43701171875]]], [[[-125.29579, 45.78548, -5591.43701171875], [-125.29466, 45.77635, -5754.8212890625], [-125.30493, 45.77604, -5159.20849609375], [-125.29579, 45.78548, -5591.43701171875]]], [[[-125.31014, 45.78448, -4739.625], [-125.29579, 45.78548, -5591.43701171875], [-125.30493, 45.77604, -5159.20849609375], [-125.31014, 45.78448, -4739.625]]], [[[-125.31014, 45.78448, -4739.625], [-125.30493, 45.77604, -5159.20849609375], [-125.31596, 45.77468, -4483.7568359375], [-125.31014, 45.78448, -4739.625]]], [[[-125.31014, 45.78448, -4739.625], [-125.31596, 45.77468, -4483.7568359375], [-125.32216, 45.78249, -3980.90234375], [-125.31014, 45.78448, -4739.625]]], [[[-125.32718, 45.77366, -3775.9111328125], [-125.32216, 45.78249, -3980.90234375], [-125.31596, 45.77468, -4483.7568359375], [-125.32718, 45.77366, -3775.9111328125]]], [[[-125.32216, 45.78249, -3980.90234375], [-125.32718, 45.77366, -3775.9111328125], [-125.33287, 45.78083, -3154.48583984375], [-125.32216, 45.78249, -3980.90234375]]], [[[-125.33287, 45.78083, -3154.48583984375], [-125.32922, 45.7914, -3487.445068359375], [-125.32216, 45.78249, -3980.90234375], [-125.33287, 45.78083, -3154.48583984375]]], [[[-125.32718, 45.77366, -3775.9111328125], [-125.31596, 45.77468, -4483.7568359375], [-125.32131, 45.76585, -4294.35498046875], [-125.32718, 45.77366, -3775.9111328125]]], [[[-125.32718, 45.77366, -3775.9111328125], [-125.32131, 45.76585, -4294.35498046875], [-125.33175, 45.76503, -3636.303466796875], [-125.32718, 45.77366, -3775.9111328125]]], [[[-125.32659, 45.75782, -4082.8642578125], [-125.33175, 45.76503, -3636.303466796875], [-125.32131, 45.76585, -4294.35498046875], [-125.32659, 45.75782, -4082.8642578125]]], [[[-125.32659, 45.75782, -4082.8642578125], [-125.33669, 45.75709, -3357.8486328125], [-125.33175, 45.76503, -3636.303466796875], [-125.32659, 45.75782, -4082.8642578125]]], [[[-125.33669, 45.75709, -3357.8486328125], [-125.34028, 45.76435, -2828.0791015625], [-125.33175, 45.76503, -3636.303466796875], [-125.33669, 45.75709, -3357.8486328125]]], [[[-125.33669, 45.75709, -3357.8486328125], [-125.34295, 45.75316, -2715.659912109375], [-125.34028, 45.76435, -2828.0791015625], [-125.33669, 45.75709, -3357.8486328125]]], [[[-125.33671, 45.7478, -3380.870361328125], [-125.34265, 45.74354, -2749.88330078125], [-125.34295, 45.75316, -2715.659912109375], [-125.33671, 45.7478, -3380.870361328125]]], [[[-125.34589, 45.85983, -2848.60009765625], [-125.35186, 45.85936, -1972.1099853515625], [-125.35352, 45.86822, -1972.1099853515625], [-125.34589, 45.85983, -2848.60009765625]]], [[[-125.33671, 45.7478, -3380.870361328125], [-125.33567, 45.73914, -3427.031494140625], [-125.34265, 45.74354, -2749.88330078125], [-125.33671, 45.7478, -3380.870361328125]]], [[[-125.33567, 45.73914, -3427.031494140625], [-125.34196, 45.7347, -2725.602783203125], [-125.34265, 45.74354, -2749.88330078125], [-125.33567, 45.73914, -3427.031494140625]]], [[[-125.33567, 45.73914, -3427.031494140625], [-125.33388, 45.73082, -3493.8916015625], [-125.34196, 45.7347, -2725.602783203125], [-125.33567, 45.73914, -3427.031494140625]]], [[[-125.33388, 45.73082, -3493.8916015625], [-125.34098, 45.72689, -2770.69921875], [-125.34196, 45.7347, -2725.602783203125], [-125.33388, 45.73082, -3493.8916015625]]], [[[-125.34098, 45.72689, -2770.69921875], [-125.33388, 45.73082, -3493.8916015625], [-125.33358, 45.72288, -3468.367431640625], [-125.34098, 45.72689, -2770.69921875]]], [[[-125.31617, 45.75865, -4747.08251953125], [-125.32659, 45.75782, -4082.8642578125], [-125.32131, 45.76585, -4294.35498046875], [-125.31617, 45.75865, -4747.08251953125]]], [[[-125.31617, 45.75865, -4747.08251953125], [-125.32131, 45.76585, -4294.35498046875], [-125.3109, 45.76668, -4954.806640625], [-125.31617, 45.75865, -4747.08251953125]]], [[[-125.30617, 45.75982, -5343.69091796875], [-125.31617, 45.75865, -4747.08251953125], [-125.3109, 45.76668, -4954.806640625], [-125.30617, 45.75982, -5343.69091796875]]], [[[-125.30016, 45.76756, -5582.53662109375], [-125.29951, 45.75525, -5734.88720703125], [-125.30617, 45.75982, -5343.69091796875], [-125.30016, 45.76756, -5582.53662109375]]], [[[-125.30493, 45.77604, -5159.20849609375], [-125.30016, 45.76756, -5582.53662109375], [-125.3109, 45.76668, -4954.806640625], [-125.30493, 45.77604, -5159.20849609375]]], [[[-125.29264, 45.80449, -5813.4072265625], [-125.28292, 45.80913, -6359.2900390625], [-125.28242, 45.80022, -6341.23486328125], [-125.29264, 45.80449, -5813.4072265625]]], [[[-125.32084, 45.79891, -4095.7080078125], [-125.3116, 45.79553, -4662.32080078125], [-125.31902, 45.79054, -4163.49072265625], [-125.32084, 45.79891, -4095.7080078125]]], [[[-125.3373, 45.78741, -2665.29931640625], [-125.34386, 45.77952, -1972.1099853515625], [-125.34713, 45.78803, -1972.1099853515625], [-125.3373, 45.78741, -2665.29931640625]]], [[[-125.3373, 45.78741, -2665.29931640625], [-125.34713, 45.78803, -1972.1099853515625], [-125.34204, 45.79348, -1972.1099853515625], [-125.3373, 45.78741, -2665.29931640625]]], [[[-125.33693, 45.83619, -3415.351806640625], [-125.33344, 45.82726, -3536.737060546875], [-125.34182, 45.83149, -2852.335693359375], [-125.33693, 45.83619, -3415.351806640625]]], [[[-125.34414, 45.84215, -2848.60009765625], [-125.35011, 45.84168, -1972.1099853515625], [-125.35089, 45.85041, -1972.1099853515625], [-125.34414, 45.84215, -2848.60009765625]]], [[[-125.34414, 45.84215, -2848.60009765625], [-125.35089, 45.85041, -1972.1099853515625], [-125.34492, 45.85088, -2848.60009765625], [-125.34414, 45.84215, -2848.60009765625]]], [[[-125.34492, 45.85088, -2848.60009765625], [-125.3369, 45.85154, -3615.56982421875], [-125.33611, 45.84281, -3615.56982421875], [-125.34492, 45.85088, -2848.60009765625]]], [[[-125.3369, 45.85154, -3615.56982421875], [-125.34589, 45.85983, -2848.60009765625], [-125.33786, 45.86048, -3615.56982421875], [-125.3369, 45.85154, -3615.56982421875]]], [[[-125.32614, 45.84358, -4242.169921875], [-125.3369, 45.85154, -3615.56982421875], [-125.32692, 45.85231, -4242.169921875], [-125.32614, 45.84358, -4242.169921875]]], [[[-125.32614, 45.84358, -4242.169921875], [-125.32692, 45.85231, -4242.169921875], [-125.31624, 45.84436, -4875.39990234375], [-125.32614, 45.84358, -4242.169921875]]], [[[-125.31875, 45.8351, -4597.8564453125], [-125.31624, 45.84436, -4875.39990234375], [-125.30962, 45.83643, -5166.99169921875], [-125.31875, 45.8351, -4597.8564453125]]], [[[-125.29957, 45.83713, -5740.71826171875], [-125.30962, 45.83643, -5166.99169921875], [-125.30605, 45.84521, -5477.81982421875], [-125.29957, 45.83713, -5740.71826171875]]], [[[-125.29957, 45.83713, -5740.71826171875], [-125.30605, 45.84521, -5477.81982421875], [-125.29559, 45.846, -6054.47021484375], [-125.29957, 45.83713, -5740.71826171875]]], [[[-125.29957, 45.83713, -5740.71826171875], [-125.29559, 45.846, -6054.47021484375], [-125.28755, 45.83648, -6368.32080078125], [-125.29957, 45.83713, -5740.71826171875]]], [[[-125.29637, 45.85473, -6054.47021484375], [-125.30682, 45.85394, -5477.81982421875], [-125.30779, 45.86289, -5477.81982421875], [-125.29637, 45.85473, -6054.47021484375]]], [[[-125.30682, 45.85394, -5477.81982421875], [-125.31799, 45.86204, -4875.39990234375], [-125.30779, 45.86289, -5477.81982421875], [-125.30682, 45.85394, -5477.81982421875]]], [[[-125.30605, 45.84521, -5477.81982421875], [-125.31702, 45.8531, -4875.39990234375], [-125.30682, 45.85394, -5477.81982421875], [-125.30605, 45.84521, -5477.81982421875]]], [[[-125.29664, 45.90859, -6477.82861328125], [-125.29439, 45.91843, -6566.94091796875], [-125.28692, 45.91222, -6988.6064453125], [-125.29664, 45.90859, -6477.82861328125]]], [[[-125.31702, 45.8531, -4875.39990234375], [-125.30605, 45.84521, -5477.81982421875], [-125.31624, 45.84436, -4875.39990234375], [-125.31702, 45.8531, -4875.39990234375]]], [[[-125.31702, 45.8531, -4875.39990234375], [-125.31624, 45.84436, -4875.39990234375], [-125.32692, 45.85231, -4242.169921875], [-125.31702, 45.8531, -4875.39990234375]]], [[[-125.32789, 45.86126, -4242.169921875], [-125.31702, 45.8531, -4875.39990234375], [-125.32692, 45.85231, -4242.169921875], [-125.32789, 45.86126, -4242.169921875]]], [[[-125.31702, 45.8531, -4875.39990234375], [-125.32789, 45.86126, -4242.169921875], [-125.31799, 45.86204, -4875.39990234375], [-125.31702, 45.8531, -4875.39990234375]]], [[[-125.32444, 45.87027, -4547.93310546875], [-125.31799, 45.86204, -4875.39990234375], [-125.32789, 45.86126, -4242.169921875], [-125.32444, 45.87027, -4547.93310546875]]], [[[-125.31431, 45.87063, -5166.1572265625], [-125.31799, 45.86204, -4875.39990234375], [-125.32444, 45.87027, -4547.93310546875], [-125.31431, 45.87063, -5166.1572265625]]], [[[-125.31431, 45.87063, -5166.1572265625], [-125.30779, 45.86289, -5477.81982421875], [-125.31799, 45.86204, -4875.39990234375], [-125.31431, 45.87063, -5166.1572265625]]], [[[-125.32789, 45.86126, -4242.169921875], [-125.32692, 45.85231, -4242.169921875], [-125.33786, 45.86048, -3615.56982421875], [-125.32789, 45.86126, -4242.169921875]]], [[[-125.34589, 45.85983, -2848.60009765625], [-125.34252, 45.86795, -3284.486572265625], [-125.33786, 45.86048, -3615.56982421875], [-125.34589, 45.85983, -2848.60009765625]]], [[[-125.34843, 45.87197, -2776.113525390625], [-125.35352, 45.86822, -1972.1099853515625], [-125.3529, 45.8772, -1972.1099853515625], [-125.34843, 45.87197, -2776.113525390625]]], [[[-125.28499, 45.84681, -6614.4697265625], [-125.28577, 45.85554, -6614.4697265625], [-125.27932, 45.8497, -6922.29833984375], [-125.28499, 45.84681, -6614.4697265625]]], [[[-125.28087, 45.86771, -6942.66650390625], [-125.29218, 45.87183, -6388.275390625], [-125.28229, 45.87669, -6947.20556640625], [-125.28087, 45.86771, -6942.66650390625]]], [[[-125.29218, 45.87183, -6388.275390625], [-125.30323, 45.87262, -5809.03955078125], [-125.29352, 45.8801, -6400.31884765625], [-125.29218, 45.87183, -6388.275390625]]], [[[-125.29352, 45.8801, -6400.31884765625], [-125.28401, 45.88563, -6952.97412109375], [-125.28229, 45.87669, -6947.20556640625], [-125.29352, 45.8801, -6400.31884765625]]], [[[-125.29352, 45.8801, -6400.31884765625], [-125.29478, 45.88931, -6436.8984375], [-125.28401, 45.88563, -6952.97412109375], [-125.29352, 45.8801, -6400.31884765625]]], [[[-125.29478, 45.88931, -6436.8984375], [-125.28558, 45.89459, -6962.63525390625], [-125.28401, 45.88563, -6952.97412109375], [-125.29478, 45.88931, -6436.8984375]]], [[[-125.29611, 45.89856, -6451.64599609375], [-125.28675, 45.90357, -6971.2578125], [-125.28558, 45.89459, -6962.63525390625], [-125.29611, 45.89856, -6451.64599609375]]], [[[-125.29664, 45.90859, -6477.82861328125], [-125.28692, 45.91222, -6988.6064453125], [-125.28675, 45.90357, -6971.2578125], [-125.29664, 45.90859, -6477.82861328125]]], [[[-125.28956, 45.9274, -6641.68505859375], [-125.29439, 45.91843, -6566.94091796875], [-125.3003, 45.92586, -6099.2392578125], [-125.28956, 45.9274, -6641.68505859375]]], [[[-125.29439, 45.91843, -6566.94091796875], [-125.28956, 45.9274, -6641.68505859375], [-125.28585, 45.91946, -7008.91552734375], [-125.29439, 45.91843, -6566.94091796875]]], [[[-125.28956, 45.9274, -6641.68505859375], [-125.28391, 45.9249, -7029.5390625], [-125.28585, 45.91946, -7008.91552734375], [-125.28956, 45.9274, -6641.68505859375]]], [[[-125.28956, 45.9274, -6641.68505859375], [-125.28417, 45.93571, -6614.4697265625], [-125.28033, 45.93002, -7058.10888671875], [-125.28956, 45.9274, -6641.68505859375]]], [[[-125.28417, 45.93571, -6614.4697265625], [-125.28956, 45.9274, -6641.68505859375], [-125.29479, 45.9349, -6054.47021484375], [-125.28417, 45.93571, -6614.4697265625]]], [[[-125.3003, 45.92586, -6099.2392578125], [-125.29479, 45.9349, -6054.47021484375], [-125.28956, 45.9274, -6641.68505859375], [-125.3003, 45.92586, -6099.2392578125]]], [[[-125.29479, 45.9349, -6054.47021484375], [-125.3003, 45.92586, -6099.2392578125], [-125.30526, 45.93411, -5477.81982421875], [-125.29479, 45.9349, -6054.47021484375]]], [[[-125.32204, 45.92491, -4831.033203125], [-125.32539, 45.93248, -4242.169921875], [-125.31547, 45.93326, -4875.39990234375], [-125.32204, 45.92491, -4831.033203125]]], [[[-125.33214, 45.92415, -4185.34765625], [-125.33538, 45.93171, -3615.56982421875], [-125.32539, 45.93248, -4242.169921875], [-125.33214, 45.92415, -4185.34765625]]], [[[-125.33214, 45.92415, -4185.34765625], [-125.34244, 45.92333, -3500.1181640625], [-125.33538, 45.93171, -3615.56982421875], [-125.33214, 45.92415, -4185.34765625]]], [[[-125.34244, 45.92333, -3500.1181640625], [-125.34341, 45.93105, -2848.60009765625], [-125.33538, 45.93171, -3615.56982421875], [-125.34244, 45.92333, -3500.1181640625]]], [[[-125.34244, 45.92333, -3500.1181640625], [-125.34947, 45.92486, -2689.9970703125], [-125.34341, 45.93105, -2848.60009765625], [-125.34244, 45.92333, -3500.1181640625]]], [[[-125.34947, 45.92486, -2689.9970703125], [-125.34244, 45.92333, -3500.1181640625], [-125.35186, 45.91836, -2848.60009765625], [-125.34947, 45.92486, -2689.9970703125]]], [[[-125.34947, 45.92486, -2689.9970703125], [-125.35852, 45.92423, -1972.1099853515625], [-125.34939, 45.93058, -1972.1099853515625], [-125.34947, 45.92486, -2689.9970703125]]], [[[-125.34939, 45.93058, -1972.1099853515625], [-125.34341, 45.93105, -2848.60009765625], [-125.34947, 45.92486, -2689.9970703125], [-125.34939, 45.93058, -1972.1099853515625]]], [[[-125.35186, 45.91836, -2848.60009765625], [-125.3654, 45.91821, -1972.1099853515625], [-125.35852, 45.92423, -1972.1099853515625], [-125.35186, 45.91836, -2848.60009765625]]], [[[-125.35186, 45.91836, -2848.60009765625], [-125.35928, 45.91064, -1972.1099853515625], [-125.3654, 45.91821, -1972.1099853515625], [-125.35186, 45.91836, -2848.60009765625]]], [[[-125.34562, 45.91285, -3553.285400390625], [-125.35186, 45.91836, -2848.60009765625], [-125.34244, 45.92333, -3500.1181640625], [-125.34562, 45.91285, -3553.285400390625]]], [[[-125.35287, 45.89749, -2814.1025390625], [-125.35807, 45.8927, -1972.1099853515625], [-125.3583, 45.90169, -1972.1099853515625], [-125.35287, 45.89749, -2814.1025390625]]], [[[-125.35332, 45.90732, -2845.48779296875], [-125.35287, 45.89749, -2814.1025390625], [-125.3583, 45.90169, -1972.1099853515625], [-125.35332, 45.90732, -2845.48779296875]]], [[[-125.35332, 45.90732, -2845.48779296875], [-125.3583, 45.90169, -1972.1099853515625], [-125.35928, 45.91064, -1972.1099853515625], [-125.35332, 45.90732, -2845.48779296875]]], [[[-125.34575, 45.70776, -1972.1099853515625], [-125.34639, 45.71507, -1972.1099853515625], [-125.3386, 45.70745, -2826.871337890625], [-125.34575, 45.70776, -1972.1099853515625]]], [[[-125.3386, 45.70745, -2826.871337890625], [-125.34639, 45.71507, -1972.1099853515625], [-125.34035, 45.71809, -2727.643798828125], [-125.3386, 45.70745, -2826.871337890625]]], [[[-125.27827, 45.71217, -6674.27001953125], [-125.28908, 45.71136, -6103.06005859375], [-125.27923, 45.72054, -6678.8642578125], [-125.27827, 45.71217, -6674.27001953125]]], [[[-125.27923, 45.72054, -6678.8642578125], [-125.28908, 45.71136, -6103.06005859375], [-125.28917, 45.72342, -6169.85888671875], [-125.27923, 45.72054, -6678.8642578125]]], [[[-125.27787, 45.84074, -6919.787109375], [-125.28499, 45.84681, -6614.4697265625], [-125.27932, 45.8497, -6922.29833984375], [-125.27787, 45.84074, -6919.787109375]]], [[[-125.27932, 45.8497, -6922.29833984375], [-125.28577, 45.85554, -6614.4697265625], [-125.27994, 45.85871, -6934.53955078125], [-125.27932, 45.8497, -6922.29833984375]]], [[[-125.27994, 45.85871, -6934.53955078125], [-125.28672, 45.86449, -6614.4697265625], [-125.28087, 45.86771, -6942.66650390625], [-125.27994, 45.85871, -6934.53955078125]]]]}}]}