{"type": "FeatureCollection", "features": [{"type": "Feature", "properties": {"name": "AW_NORE_21", "CFM_ID": 233, "region": "Offshore_WAOR", "primary_state/province": "OR", "secondary_state/province": null, "avg_dip": 90.0, "dip_dir": "vertical", "rake": 180, "slip_sense": "Dextral", "fault_level": 1, "NSHM23_sliprates": null, "QFFDAgeCatBin": null, "QFFDAgeBin": null, "upper_depth": -0.5, "upper_depth_constraint": "bathymetry", "lower_depth": -11.8, "lower_depth_constraint": "megathrust", "3D_model_constraints": "trace extended at constant dip", "reference": "Lucas et al. (2025); Balster-Gee et al. (2023)", "nshm23_id": null, "lineage": null, "usgs_qffd_#": null, "comments": "vergence from USGS sparker line", "id": "233"}, "geometry": {"type": "MultiPolygon", "coordinates": [[[[-124.79043, 45.92689, -8486.240234375], [-124.79922, 45.92009, -8312.4931640625], [-124.79616, 45.92244, -9257.326171875], [-124.79043, 45.92689, -8486.240234375]]], [[[-124.82419, 45.89636, -9579.9423828125], [-124.83031, 45.8883, -9464.7958984375], [-124.82819, 45.89169, -10375.53515625], [-124.82419, 45.89636, -9579.9423828125]]], [[[-124.7785, 45.936, -7244.26904296875], [-124.77034, 45.94139, -6672.46826171875], [-124.7787, 45.93587, -6155.2509765625], [-124.7785, 45.936, -7244.26904296875]]], [[[-124.87058, 45.82708, -1146.26318359375], [-124.87301, 45.82318, -2020.0362548828125], [-124.87024, 45.82762, -2866.088623046875], [-124.87058, 45.82708, -1146.26318359375]]], [[[-124.84493, 45.85918, -4419.37353515625], [-124.84177, 45.86752, -4342.267578125], [-124.8435, 45.863, -3497.42236328125], [-124.84493, 45.85918, -4419.37353515625]]], [[[-124.91722, 45.7727, -8279.3564453125], [-124.924, 45.769, -8995.4609375], [-124.91392, 45.7745, -9100.470703125], [-124.91722, 45.7727, -8279.3564453125]]], [[[-124.81365, 45.90735, -6206.5810546875], [-124.82136, 45.89959, -6120.99755859375], [-124.81831, 45.90269, -7084.4560546875], [-124.81365, 45.90735, -6206.5810546875]]], [[[-124.83995, 45.87162, -9272.2626953125], [-124.84354, 45.8629, -9193.3935546875], [-124.84211, 45.86671, -10091.859375], [-124.83995, 45.87162, -9272.2626953125]]], [[[-124.76187, 45.94648, -7185.9375], [-124.754, 45.952, -6672.46826171875], [-124.76187, 45.94648, -6158.99853515625], [-124.76187, 45.94648, -7185.9375]]], [[[-124.85268, 45.84571, -1874.5208740234375], [-124.85039, 45.84937, -985.8856201171875], [-124.85558, 45.84122, -1045.989501953125], [-124.85268, 45.84571, -1874.5208740234375]]], [[[-124.78756, 45.92912, -5636.74609375], [-124.7787, 45.93587, -6155.2509765625], [-124.7792, 45.93553, -5088.53759765625], [-124.78756, 45.92912, -5636.74609375]]], [[[-124.91722, 45.7727, -8279.3564453125], [-124.924, 45.769, -7940.39697265625], [-124.924, 45.769, -8995.4609375], [-124.91722, 45.7727, -8279.3564453125]]], [[[-124.82454, 45.89596, -5137.22216796875], [-124.82803, 45.89194, -4238.00146484375], [-124.83041, 45.88815, -5119.765625], [-124.82454, 45.89596, -5137.22216796875]]], [[[-124.83995, 45.87162, -9272.2626953125], [-124.84162, 45.86787, -8369.4365234375], [-124.84354, 45.8629, -9193.3935546875], [-124.83995, 45.87162, -9272.2626953125]]], [[[-124.81365, 45.90735, -6206.5810546875], [-124.80948, 45.91152, -5233.61083984375], [-124.81744, 45.90356, -5175.3671875], [-124.81365, 45.90735, -6206.5810546875]]], [[[-124.91518, 45.77381, -7401.15771484375], [-124.924, 45.769, -7940.39697265625], [-124.91722, 45.7727, -8279.3564453125], [-124.91518, 45.77381, -7401.15771484375]]], [[[-124.80211, 45.91792, -4946.337890625], [-124.79293, 45.92495, -4966.18701171875], [-124.79756, 45.92134, -4148.01513671875], [-124.80211, 45.91792, -4946.337890625]]], [[[-124.91518, 45.77381, -7401.15771484375], [-124.924, 45.769, -6885.3330078125], [-124.924, 45.769, -7940.39697265625], [-124.91518, 45.77381, -7401.15771484375]]], [[[-124.82135, 45.8996, -4214.9580078125], [-124.81796, 45.90304, -3333.22216796875], [-124.82485, 45.8956, -3365.57666015625], [-124.82135, 45.8996, -4214.9580078125]]], [[[-124.83984, 45.87185, -5100.212890625], [-124.84177, 45.86752, -4342.267578125], [-124.84298, 45.8644, -5408.19775390625], [-124.83984, 45.87185, -5100.212890625]]], [[[-124.91473, 45.77405, -6409.806640625], [-124.924, 45.769, -6885.3330078125], [-124.91518, 45.77381, -7401.15771484375], [-124.91473, 45.77405, -6409.806640625]]], [[[-124.7991, 45.92017, -5701.80810546875], [-124.80948, 45.91152, -5233.61083984375], [-124.80572, 45.91521, -6363.1923828125], [-124.7991, 45.92017, -5701.80810546875]]], [[[-124.91473, 45.77405, -6409.806640625], [-124.924, 45.769, -5830.26953125], [-124.924, 45.769, -6885.3330078125], [-124.91473, 45.77405, -6409.806640625]]], [[[-124.91523, 45.77379, -5313.68359375], [-124.924, 45.769, -5830.26953125], [-124.91473, 45.77405, -6409.806640625], [-124.91523, 45.77379, -5313.68359375]]], [[[-124.91523, 45.77379, -5313.68359375], [-124.924, 45.769, -4775.20556640625], [-124.924, 45.769, -5830.26953125], [-124.91523, 45.77379, -5313.68359375]]], [[[-124.78756, 45.92912, -5636.74609375], [-124.78631, 45.93009, -6724.6787109375], [-124.7787, 45.93587, -6155.2509765625], [-124.78756, 45.92912, -5636.74609375]]], [[[-124.81365, 45.90735, -6206.5810546875], [-124.81744, 45.90356, -5175.3671875], [-124.82136, 45.89959, -6120.99755859375], [-124.81365, 45.90735, -6206.5810546875]]], [[[-124.83887, 45.87404, -5845.49951171875], [-124.8412, 45.8688, -6559.83447265625], [-124.83683, 45.87788, -6734.259765625], [-124.83887, 45.87404, -5845.49951171875]]], [[[-124.91534, 45.77372, -4247.673828125], [-124.924, 45.769, -4775.20556640625], [-124.91523, 45.77379, -5313.68359375], [-124.91534, 45.77372, -4247.673828125]]], [[[-124.83887, 45.87404, -5845.49951171875], [-124.84298, 45.8644, -5408.19775390625], [-124.8412, 45.8688, -6559.83447265625], [-124.83887, 45.87404, -5845.49951171875]]], [[[-124.91534, 45.77372, -4247.673828125], [-124.924, 45.769, -3720.141845703125], [-124.924, 45.769, -4775.20556640625], [-124.91534, 45.77372, -4247.673828125]]], [[[-124.78586, 45.93044, -1503.1630859375], [-124.77707, 45.93696, -1468.268310546875], [-124.78183, 45.93357, -626.7511596679688], [-124.78586, 45.93044, -1503.1630859375]]], [[[-124.91463, 45.77411, -3220.507568359375], [-124.924, 45.769, -3720.141845703125], [-124.91534, 45.77372, -4247.673828125], [-124.91463, 45.77411, -3220.507568359375]]], [[[-124.80948, 45.91152, -5233.61083984375], [-124.80677, 45.91423, -4174.78759765625], [-124.81408, 45.90692, -4232.86865234375], [-124.80948, 45.91152, -5233.61083984375]]], [[[-124.91463, 45.77411, -3220.507568359375], [-124.924, 45.769, -2665.077880859375], [-124.924, 45.769, -3720.141845703125], [-124.91463, 45.77411, -3220.507568359375]]], [[[-124.80572, 45.91521, -6363.1923828125], [-124.80948, 45.91152, -5233.61083984375], [-124.81365, 45.90735, -6206.5810546875], [-124.80572, 45.91521, -6363.1923828125]]], [[[-124.80974, 45.91126, -9865.2119140625], [-124.81708, 45.90392, -9716.8408203125], [-124.81435, 45.90665, -10645.0859375], [-124.80974, 45.91126, -9865.2119140625]]], [[[-124.76311, 45.94574, -555.44189453125], [-124.76674, 45.94356, -1424.5462646484375], [-124.754, 45.952, -1537.772216796875], [-124.76311, 45.94574, -555.44189453125]]], [[[-124.91738, 45.77261, -2359.01025390625], [-124.924, 45.769, -2665.077880859375], [-124.91463, 45.77411, -3220.507568359375], [-124.91738, 45.77261, -2359.01025390625]]], [[[-124.81246, 45.90854, -8929.5888671875], [-124.80974, 45.91126, -9865.2119140625], [-124.80485, 45.91586, -9090.5712890625], [-124.81246, 45.90854, -8929.5888671875]]], [[[-124.924, 45.769, -1610.0140380859375], [-124.924, 45.769, -2665.077880859375], [-124.91738, 45.77261, -2359.01025390625], [-124.924, 45.769, -1610.0140380859375]]], [[[-124.79498, 45.92335, -6524.33984375], [-124.78631, 45.93009, -6724.6787109375], [-124.78756, 45.92912, -5636.74609375], [-124.79498, 45.92335, -6524.33984375]]], [[[-124.80219, 45.91786, -7334.1796875], [-124.80774, 45.91326, -8154.93017578125], [-124.79922, 45.92009, -8312.4931640625], [-124.80219, 45.91786, -7334.1796875]]], [[[-124.80572, 45.91521, -6363.1923828125], [-124.81059, 45.91041, -7221.87255859375], [-124.80219, 45.91786, -7334.1796875], [-124.80572, 45.91521, -6363.1923828125]]], [[[-124.924, 45.769, -1610.0140380859375], [-124.91738, 45.77261, -2359.01025390625], [-124.91394, 45.77449, -1555.29541015625], [-124.924, 45.769, -1610.0140380859375]]], [[[-124.83546, 45.88007, -5135.4609375], [-124.83307, 45.88388, -4270.431640625], [-124.83805, 45.87588, -4303.3076171875], [-124.83546, 45.88007, -5135.4609375]]], [[[-124.91738, 45.77261, -2359.01025390625], [-124.9086, 45.77793, -2371.79541015625], [-124.91394, 45.77449, -1555.29541015625], [-124.91738, 45.77261, -2359.01025390625]]], [[[-124.79616, 45.92244, -9257.326171875], [-124.79315, 45.92478, -10189.37890625], [-124.78723, 45.92938, -9378.298828125], [-124.79616, 45.92244, -9257.326171875]]], [[[-124.91463, 45.77411, -3220.507568359375], [-124.9086, 45.77793, -2371.79541015625], [-124.91738, 45.77261, -2359.01025390625], [-124.91463, 45.77411, -3220.507568359375]]], [[[-124.83041, 45.88815, -5119.765625], [-124.83307, 45.88388, -4270.431640625], [-124.83546, 45.88007, -5135.4609375], [-124.83041, 45.88815, -5119.765625]]], [[[-124.83307, 45.88388, -4270.431640625], [-124.82803, 45.89194, -4238.00146484375], [-124.8307, 45.88767, -3390.362548828125], [-124.83307, 45.88388, -4270.431640625]]], [[[-124.78005, 45.93496, -8487.4111328125], [-124.77877, 45.93582, -9541.7373046875], [-124.77076, 45.94114, -8777.685546875], [-124.78005, 45.93496, -8487.4111328125]]], [[[-124.91463, 45.77411, -3220.507568359375], [-124.90339, 45.78141, -3154.535400390625], [-124.9086, 45.77793, -2371.79541015625], [-124.91463, 45.77411, -3220.507568359375]]], [[[-124.7787, 45.93587, -6155.2509765625], [-124.77034, 45.94139, -6672.46826171875], [-124.77034, 45.94139, -5645.52880859375], [-124.7787, 45.93587, -6155.2509765625]]], [[[-124.90754, 45.77864, -3820.839111328125], [-124.90339, 45.78141, -3154.535400390625], [-124.91463, 45.77411, -3220.507568359375], [-124.90754, 45.77864, -3820.839111328125]]], [[[-124.78723, 45.92938, -9378.298828125], [-124.78459, 45.93143, -10357.8603515625], [-124.77877, 45.93582, -9541.7373046875], [-124.78723, 45.92938, -9378.298828125]]], [[[-124.89869, 45.78454, -4120.34375], [-124.90339, 45.78141, -3154.535400390625], [-124.90754, 45.77864, -3820.839111328125], [-124.89869, 45.78454, -4120.34375]]], [[[-124.81532, 45.90568, -8002.0029296875], [-124.81831, 45.90269, -7084.4560546875], [-124.82276, 45.89798, -7866.697265625], [-124.81532, 45.90568, -8002.0029296875]]], [[[-124.90339, 45.78141, -3154.535400390625], [-124.89869, 45.78454, -4120.34375], [-124.89431, 45.78761, -3121.675537109375], [-124.90339, 45.78141, -3154.535400390625]]], [[[-124.80485, 45.91586, -9090.5712890625], [-124.80167, 45.91825, -10026.0], [-124.79616, 45.92244, -9257.326171875], [-124.80485, 45.91586, -9090.5712890625]]], [[[-124.79352, 45.92449, -7519.01904296875], [-124.79043, 45.92689, -8486.240234375], [-124.7853, 45.93088, -7783.7216796875], [-124.79352, 45.92449, -7519.01904296875]]], [[[-124.84177, 45.86752, -4342.267578125], [-124.84006, 45.87137, -3456.60009765625], [-124.8435, 45.863, -3497.42236328125], [-124.84177, 45.86752, -4342.267578125]]], [[[-124.8412, 45.8688, -6559.83447265625], [-124.83939, 45.87288, -7550.13330078125], [-124.83683, 45.87788, -6734.259765625], [-124.8412, 45.8688, -6559.83447265625]]], [[[-124.90339, 45.78141, -3154.535400390625], [-124.89431, 45.78761, -3121.675537109375], [-124.89934, 45.7841, -2287.3916015625], [-124.90339, 45.78141, -3154.535400390625]]], [[[-124.81532, 45.90568, -8002.0029296875], [-124.81993, 45.90107, -8790.28125], [-124.81246, 45.90854, -8929.5888671875], [-124.81532, 45.90568, -8002.0029296875]]], [[[-124.80167, 45.91825, -10026.0], [-124.80974, 45.91126, -9865.2119140625], [-124.80706, 45.91394, -10796.2158203125], [-124.80167, 45.91825, -10026.0]]], [[[-124.90339, 45.78141, -3154.535400390625], [-124.89934, 45.7841, -2287.3916015625], [-124.9086, 45.77793, -2371.79541015625], [-124.90339, 45.78141, -3154.535400390625]]], [[[-124.89934, 45.7841, -2287.3916015625], [-124.90465, 45.78057, -1473.83154296875], [-124.9086, 45.77793, -2371.79541015625], [-124.89934, 45.7841, -2287.3916015625]]], [[[-124.83544, 45.8801, -9365.58984375], [-124.83833, 45.87526, -10177.126953125], [-124.83332, 45.88349, -10276.28125], [-124.83544, 45.8801, -9365.58984375]]], [[[-124.89934, 45.7841, -2287.3916015625], [-124.89544, 45.78671, -1387.1854248046875], [-124.90465, 45.78057, -1473.83154296875], [-124.89934, 45.7841, -2287.3916015625]]], [[[-124.89084, 45.79064, -2204.47119140625], [-124.89544, 45.78671, -1387.1854248046875], [-124.89934, 45.7841, -2287.3916015625], [-124.89084, 45.79064, -2204.47119140625]]], [[[-124.77034, 45.94139, -6672.46826171875], [-124.76187, 45.94648, -7185.9375], [-124.76187, 45.94648, -6158.99853515625], [-124.77034, 45.94139, -6672.46826171875]]], [[[-124.84177, 45.86752, -4342.267578125], [-124.83805, 45.87588, -4303.3076171875], [-124.84006, 45.87137, -3456.60009765625], [-124.84177, 45.86752, -4342.267578125]]], [[[-124.79043, 45.92689, -8486.240234375], [-124.78723, 45.92938, -9378.298828125], [-124.78005, 45.93496, -8487.4111328125], [-124.79043, 45.92689, -8486.240234375]]], [[[-124.89084, 45.79064, -2204.47119140625], [-124.88742, 45.79363, -1307.043212890625], [-124.89544, 45.78671, -1387.1854248046875], [-124.89084, 45.79064, -2204.47119140625]]], [[[-124.83544, 45.8801, -9365.58984375], [-124.83762, 45.87661, -8456.5966796875], [-124.83995, 45.87162, -9272.2626953125], [-124.83544, 45.8801, -9365.58984375]]], [[[-124.88414, 45.79781, -2146.366455078125], [-124.88742, 45.79363, -1307.043212890625], [-124.89084, 45.79064, -2204.47119140625], [-124.88414, 45.79781, -2146.366455078125]]], [[[-124.88414, 45.79781, -2146.366455078125], [-124.88139, 45.80149, -1266.851318359375], [-124.88742, 45.79363, -1307.043212890625], [-124.88414, 45.79781, -2146.366455078125]]], [[[-124.88139, 45.80149, -1266.851318359375], [-124.88414, 45.79781, -2146.366455078125], [-124.8796, 45.80621, -2097.21826171875], [-124.88139, 45.80149, -1266.851318359375]]], [[[-124.754, 45.952, -510.8330078125], [-124.76311, 45.94574, -555.44189453125], [-124.754, 45.952, -1537.772216796875], [-124.754, 45.952, -510.8330078125]]], [[[-124.8796, 45.80621, -2097.21826171875], [-124.87829, 45.81012, -1210.0926513671875], [-124.88139, 45.80149, -1266.851318359375], [-124.8796, 45.80621, -2097.21826171875]]], [[[-124.78005, 45.93496, -8487.4111328125], [-124.78723, 45.92938, -9378.298828125], [-124.77877, 45.93582, -9541.7373046875], [-124.78005, 45.93496, -8487.4111328125]]], [[[-124.78631, 45.93009, -6724.6787109375], [-124.7785, 45.936, -7244.26904296875], [-124.7787, 45.93587, -6155.2509765625], [-124.78631, 45.93009, -6724.6787109375]]], [[[-124.87675, 45.81475, -2051.705810546875], [-124.87829, 45.81012, -1210.0926513671875], [-124.8796, 45.80621, -2097.21826171875], [-124.87675, 45.81475, -2051.705810546875]]], [[[-124.77048, 45.94132, -9809.66796875], [-124.77076, 45.94114, -8777.685546875], [-124.77877, 45.93582, -9541.7373046875], [-124.77048, 45.94132, -9809.66796875]]], [[[-124.87675, 45.81475, -2051.705810546875], [-124.87539, 45.81882, -1174.16748046875], [-124.87829, 45.81012, -1210.0926513671875], [-124.87675, 45.81475, -2051.705810546875]]], [[[-124.84298, 45.8644, -5408.19775390625], [-124.84493, 45.85918, -4419.37353515625], [-124.84686, 45.85565, -5389.45361328125], [-124.84298, 45.8644, -5408.19775390625]]], [[[-124.87301, 45.82318, -2020.0362548828125], [-124.87539, 45.81882, -1174.16748046875], [-124.87675, 45.81475, -2051.705810546875], [-124.87301, 45.82318, -2020.0362548828125]]], [[[-124.87301, 45.82318, -2020.0362548828125], [-124.87058, 45.82708, -1146.26318359375], [-124.87539, 45.81882, -1174.16748046875], [-124.87301, 45.82318, -2020.0362548828125]]], [[[-124.83995, 45.87162, -9272.2626953125], [-124.84211, 45.86671, -10091.859375], [-124.83833, 45.87526, -10177.126953125], [-124.83995, 45.87162, -9272.2626953125]]], [[[-124.83805, 45.87588, -4303.3076171875], [-124.83307, 45.88388, -4270.431640625], [-124.83571, 45.87967, -3419.21484375], [-124.83805, 45.87588, -4303.3076171875]]], [[[-124.81993, 45.90107, -8790.28125], [-124.82419, 45.89636, -9579.9423828125], [-124.81708, 45.90392, -9716.8408203125], [-124.81993, 45.90107, -8790.28125]]], [[[-124.87058, 45.82708, -1146.26318359375], [-124.87024, 45.82762, -2866.088623046875], [-124.86603, 45.83064, -1981.359130859375], [-124.87058, 45.82708, -1146.26318359375]]], [[[-124.86603, 45.83064, -1981.359130859375], [-124.8618, 45.83347, -1098.1947021484375], [-124.87058, 45.82708, -1146.26318359375], [-124.86603, 45.83064, -1981.359130859375]]], [[[-124.79922, 45.92009, -8312.4931640625], [-124.80485, 45.91586, -9090.5712890625], [-124.79616, 45.92244, -9257.326171875], [-124.79922, 45.92009, -8312.4931640625]]], [[[-124.85828, 45.83763, -1931.065673828125], [-124.8618, 45.83347, -1098.1947021484375], [-124.86603, 45.83064, -1981.359130859375], [-124.85828, 45.83763, -1931.065673828125]]], [[[-124.79352, 45.92449, -7519.01904296875], [-124.79922, 45.92009, -8312.4931640625], [-124.79043, 45.92689, -8486.240234375], [-124.79352, 45.92449, -7519.01904296875]]], [[[-124.80774, 45.91326, -8154.93017578125], [-124.81059, 45.91041, -7221.87255859375], [-124.81532, 45.90568, -8002.0029296875], [-124.80774, 45.91326, -8154.93017578125]]], [[[-124.85828, 45.83763, -1931.065673828125], [-124.85558, 45.84122, -1045.989501953125], [-124.8618, 45.83347, -1098.1947021484375], [-124.85828, 45.83763, -1931.065673828125]]], [[[-124.83544, 45.8801, -9365.58984375], [-124.83995, 45.87162, -9272.2626953125], [-124.83833, 45.87526, -10177.126953125], [-124.83544, 45.8801, -9365.58984375]]], [[[-124.7853, 45.93088, -7783.7216796875], [-124.79043, 45.92689, -8486.240234375], [-124.78005, 45.93496, -8487.4111328125], [-124.7853, 45.93088, -7783.7216796875]]], [[[-124.77877, 45.93582, -9541.7373046875], [-124.77577, 45.93782, -10531.3076171875], [-124.77048, 45.94132, -9809.66796875], [-124.77877, 45.93582, -9541.7373046875]]], [[[-124.83243, 45.88491, -8554.0068359375], [-124.83031, 45.8883, -9464.7958984375], [-124.82694, 45.89321, -8661.8544921875], [-124.83243, 45.88491, -8554.0068359375]]], [[[-124.88414, 45.79781, -2146.366455078125], [-124.89084, 45.79064, -2204.47119140625], [-124.88668, 45.79442, -3048.802490234375], [-124.88414, 45.79781, -2146.366455078125]]], [[[-124.83243, 45.88491, -8554.0068359375], [-124.83544, 45.8801, -9365.58984375], [-124.83031, 45.8883, -9464.7958984375], [-124.83243, 45.88491, -8554.0068359375]]], [[[-124.77707, 45.93696, -1468.268310546875], [-124.77273, 45.93985, -590.6016235351562], [-124.78183, 45.93357, -626.7511596679688], [-124.77707, 45.93696, -1468.268310546875]]], [[[-124.85268, 45.84571, -1874.5208740234375], [-124.85558, 45.84122, -1045.989501953125], [-124.85828, 45.83763, -1931.065673828125], [-124.85268, 45.84571, -1874.5208740234375]]], [[[-124.83939, 45.87288, -7550.13330078125], [-124.84162, 45.86787, -8369.4365234375], [-124.83762, 45.87661, -8456.5966796875], [-124.83939, 45.87288, -7550.13330078125]]], [[[-124.80167, 45.91825, -10026.0], [-124.80706, 45.91394, -10796.2158203125], [-124.79861, 45.92054, -10962.4287109375], [-124.80167, 45.91825, -10026.0]]], [[[-124.80774, 45.91326, -8154.93017578125], [-124.81532, 45.90568, -8002.0029296875], [-124.81246, 45.90854, -8929.5888671875], [-124.80774, 45.91326, -8154.93017578125]]], [[[-124.76187, 45.94648, -6158.99853515625], [-124.754, 45.952, -5645.52880859375], [-124.76187, 45.94648, -5132.0595703125], [-124.76187, 45.94648, -6158.99853515625]]], [[[-124.77034, 45.94139, -6672.46826171875], [-124.77084, 45.9411, -7752.263671875], [-124.76187, 45.94648, -7185.9375], [-124.77034, 45.94139, -6672.46826171875]]], [[[-124.81708, 45.90392, -9716.8408203125], [-124.82419, 45.89636, -9579.9423828125], [-124.82159, 45.89933, -10501.333984375], [-124.81708, 45.90392, -9716.8408203125]]], [[[-124.84782, 45.85393, -1815.927734375], [-124.85039, 45.84937, -985.8856201171875], [-124.85268, 45.84571, -1874.5208740234375], [-124.84782, 45.85393, -1815.927734375]]], [[[-124.76187, 45.94648, -9239.81640625], [-124.76119, 45.94689, -10181.7890625], [-124.754, 45.952, -9753.2861328125], [-124.76187, 45.94648, -9239.81640625]]], [[[-124.77048, 45.94132, -9809.66796875], [-124.7661, 45.94394, -10761.9794921875], [-124.76119, 45.94689, -10181.7890625], [-124.77048, 45.94132, -9809.66796875]]], [[[-124.84782, 45.85393, -1815.927734375], [-124.84574, 45.85768, -928.5175170898438], [-124.85039, 45.84937, -985.8856201171875], [-124.84782, 45.85393, -1815.927734375]]], [[[-124.76172, 45.94657, -2094.19775390625], [-124.754, 45.952, -2564.71142578125], [-124.754, 45.952, -1537.772216796875], [-124.76172, 45.94657, -2094.19775390625]]], [[[-124.78723, 45.92938, -9378.298828125], [-124.79315, 45.92478, -10189.37890625], [-124.78459, 45.93143, -10357.8603515625], [-124.78723, 45.92938, -9378.298828125]]], [[[-124.84377, 45.86229, -1764.6781005859375], [-124.84574, 45.85768, -928.5175170898438], [-124.84782, 45.85393, -1815.927734375], [-124.84377, 45.86229, -1764.6781005859375]]], [[[-124.83546, 45.88007, -5135.4609375], [-124.83805, 45.87588, -4303.3076171875], [-124.83984, 45.87185, -5100.212890625], [-124.83546, 45.88007, -5135.4609375]]], [[[-124.79315, 45.92478, -10189.37890625], [-124.80167, 45.91825, -10026.0], [-124.79861, 45.92054, -10962.4287109375], [-124.79315, 45.92478, -10189.37890625]]], [[[-124.84377, 45.86229, -1764.6781005859375], [-124.84228, 45.86626, -882.3896484375], [-124.84574, 45.85768, -928.5175170898438], [-124.84377, 45.86229, -1764.6781005859375]]], [[[-124.82803, 45.89194, -4238.00146484375], [-124.82135, 45.8996, -4214.9580078125], [-124.82485, 45.8956, -3365.57666015625], [-124.82803, 45.89194, -4238.00146484375]]], [[[-124.84031, 45.87081, -1723.8397216796875], [-124.84228, 45.86626, -882.3896484375], [-124.84377, 45.86229, -1764.6781005859375], [-124.84031, 45.87081, -1723.8397216796875]]], [[[-124.78459, 45.93143, -10357.8603515625], [-124.79315, 45.92478, -10189.37890625], [-124.79011, 45.92714, -11124.2646484375], [-124.78459, 45.93143, -10357.8603515625]]], [[[-124.7853, 45.93088, -7783.7216796875], [-124.78631, 45.93009, -6724.6787109375], [-124.79352, 45.92449, -7519.01904296875], [-124.7853, 45.93088, -7783.7216796875]]], [[[-124.84031, 45.87081, -1723.8397216796875], [-124.83853, 45.8748, -846.1172485351562], [-124.84228, 45.86626, -882.3896484375], [-124.84031, 45.87081, -1723.8397216796875]]], [[[-124.78005, 45.93496, -8487.4111328125], [-124.77076, 45.94114, -8777.685546875], [-124.77084, 45.9411, -7752.263671875], [-124.78005, 45.93496, -8487.4111328125]]], [[[-124.77048, 45.94132, -9809.66796875], [-124.77577, 45.93782, -10531.3076171875], [-124.7661, 45.94394, -10761.9794921875], [-124.77048, 45.94132, -9809.66796875]]], [[[-124.83603, 45.87916, -1690.7366943359375], [-124.83853, 45.8748, -846.1172485351562], [-124.84031, 45.87081, -1723.8397216796875], [-124.83603, 45.87916, -1690.7366943359375]]], [[[-124.76187, 45.94648, -7185.9375], [-124.754, 45.952, -7699.4072265625], [-124.754, 45.952, -6672.46826171875], [-124.76187, 45.94648, -7185.9375]]], [[[-124.79848, 45.92064, -2412.7490234375], [-124.78989, 45.92731, -2380.346435546875], [-124.79442, 45.92379, -1535.9515380859375], [-124.79848, 45.92064, -2412.7490234375]]], [[[-124.77034, 45.94139, -4618.58984375], [-124.77034, 45.94139, -5645.52880859375], [-124.76187, 45.94648, -5132.0595703125], [-124.77034, 45.94139, -4618.58984375]]], [[[-124.84686, 45.85565, -5389.45361328125], [-124.84884, 45.85208, -6391.7470703125], [-124.8445, 45.86033, -6424.1103515625], [-124.84686, 45.85565, -5389.45361328125]]], [[[-124.78459, 45.93143, -10357.8603515625], [-124.79011, 45.92714, -11124.2646484375], [-124.78163, 45.93373, -11296.29296875], [-124.78459, 45.93143, -10357.8603515625]]], [[[-124.83603, 45.87916, -1690.7366943359375], [-124.8336, 45.88304, -815.8346557617188], [-124.83853, 45.8748, -846.1172485351562], [-124.83603, 45.87916, -1690.7366943359375]]], [[[-124.83091, 45.88734, -1661.036376953125], [-124.8336, 45.88304, -815.8346557617188], [-124.83603, 45.87916, -1690.7366943359375], [-124.83091, 45.88734, -1661.036376953125]]], [[[-124.84298, 45.8644, -5408.19775390625], [-124.83887, 45.87404, -5845.49951171875], [-124.83984, 45.87185, -5100.212890625], [-124.84298, 45.8644, -5408.19775390625]]], [[[-124.7787, 45.93587, -6155.2509765625], [-124.77034, 45.94139, -5645.52880859375], [-124.7792, 45.93553, -5088.53759765625], [-124.7787, 45.93587, -6155.2509765625]]], [[[-124.83091, 45.88734, -1661.036376953125], [-124.82849, 45.89122, -786.6553955078125], [-124.8336, 45.88304, -815.8346557617188], [-124.83091, 45.88734, -1661.036376953125]]], [[[-124.77877, 45.93582, -9541.7373046875], [-124.78459, 45.93143, -10357.8603515625], [-124.77577, 45.93782, -10531.3076171875], [-124.77877, 45.93582, -9541.7373046875]]], [[[-124.82517, 45.89523, -1635.9112548828125], [-124.82849, 45.89122, -786.6553955078125], [-124.83091, 45.88734, -1661.036376953125], [-124.82517, 45.89523, -1635.9112548828125]]], [[[-124.82454, 45.89596, -5137.22216796875], [-124.82135, 45.8996, -4214.9580078125], [-124.82803, 45.89194, -4238.00146484375], [-124.82454, 45.89596, -5137.22216796875]]], [[[-124.84686, 45.85565, -5389.45361328125], [-124.8445, 45.86033, -6424.1103515625], [-124.84298, 45.8644, -5408.19775390625], [-124.84686, 45.85565, -5389.45361328125]]], [[[-124.76119, 45.94689, -10181.7890625], [-124.76187, 45.94648, -9239.81640625], [-124.77048, 45.94132, -9809.66796875], [-124.76119, 45.94689, -10181.7890625]]], [[[-124.82517, 45.89523, -1635.9112548828125], [-124.82196, 45.8989, -765.2469482421875], [-124.82849, 45.89122, -786.6553955078125], [-124.82517, 45.89523, -1635.9112548828125]]], [[[-124.76187, 45.94648, -8212.876953125], [-124.754, 45.952, -7699.4072265625], [-124.76187, 45.94648, -7185.9375], [-124.76187, 45.94648, -8212.876953125]]], [[[-124.81825, 45.90275, -1614.0283203125], [-124.82196, 45.8989, -765.2469482421875], [-124.82517, 45.89523, -1635.9112548828125], [-124.81825, 45.90275, -1614.0283203125]]], [[[-124.79043, 45.92689, -8486.240234375], [-124.79616, 45.92244, -9257.326171875], [-124.78723, 45.92938, -9378.298828125], [-124.79043, 45.92689, -8486.240234375]]], [[[-124.77076, 45.94114, -8777.685546875], [-124.77048, 45.94132, -9809.66796875], [-124.76187, 45.94648, -9239.81640625], [-124.77076, 45.94114, -8777.685546875]]], [[[-124.81825, 45.90275, -1614.0283203125], [-124.81473, 45.90627, -742.9195556640625], [-124.82196, 45.8989, -765.2469482421875], [-124.81825, 45.90275, -1614.0283203125]]], [[[-124.81093, 45.91007, -1592.538818359375], [-124.81473, 45.90627, -742.9195556640625], [-124.81825, 45.90275, -1614.0283203125], [-124.81093, 45.91007, -1592.538818359375]]], [[[-124.76187, 45.94648, -9239.81640625], [-124.754, 45.952, -9753.2861328125], [-124.754, 45.952, -8726.3466796875], [-124.76187, 45.94648, -9239.81640625]]], [[[-124.81093, 45.91007, -1592.538818359375], [-124.8074, 45.9136, -722.207275390625], [-124.81473, 45.90627, -742.9195556640625], [-124.81093, 45.91007, -1592.538818359375]]], [[[-124.77707, 45.93696, -1468.268310546875], [-124.76674, 45.94356, -1424.5462646484375], [-124.77273, 45.93985, -590.6016235351562], [-124.77707, 45.93696, -1468.268310546875]]], [[[-124.76187, 45.94648, -5132.0595703125], [-124.754, 45.952, -5645.52880859375], [-124.754, 45.952, -4618.58984375], [-124.76187, 45.94648, -5132.0595703125]]], [[[-124.7785, 45.936, -7244.26904296875], [-124.77084, 45.9411, -7752.263671875], [-124.77034, 45.94139, -6672.46826171875], [-124.7785, 45.936, -7244.26904296875]]], [[[-124.85162, 45.84741, -5387.068359375], [-124.8537, 45.84408, -6345.408203125], [-124.84884, 45.85208, -6391.7470703125], [-124.85162, 45.84741, -5387.068359375]]], [[[-124.80308, 45.91719, -1566.98779296875], [-124.8074, 45.9136, -722.207275390625], [-124.81093, 45.91007, -1592.538818359375], [-124.80308, 45.91719, -1566.98779296875]]], [[[-124.7661, 45.94394, -10761.9794921875], [-124.77577, 45.93782, -10531.3076171875], [-124.77259, 45.93994, -11470.5576171875], [-124.7661, 45.94394, -10761.9794921875]]], [[[-124.80308, 45.91719, -1566.98779296875], [-124.79895, 45.92029, -692.2445068359375], [-124.8074, 45.9136, -722.207275390625], [-124.80308, 45.91719, -1566.98779296875]]], [[[-124.79442, 45.92379, -1535.9515380859375], [-124.79895, 45.92029, -692.2445068359375], [-124.80308, 45.91719, -1566.98779296875], [-124.79442, 45.92379, -1535.9515380859375]]], [[[-124.77577, 45.93782, -10531.3076171875], [-124.78459, 45.93143, -10357.8603515625], [-124.78163, 45.93373, -11296.29296875], [-124.77577, 45.93782, -10531.3076171875]]], [[[-124.77034, 45.94139, -5645.52880859375], [-124.76187, 45.94648, -6158.99853515625], [-124.76187, 45.94648, -5132.0595703125], [-124.77034, 45.94139, -5645.52880859375]]], [[[-124.79442, 45.92379, -1535.9515380859375], [-124.79038, 45.92692, -660.2275390625], [-124.79895, 45.92029, -692.2445068359375], [-124.79442, 45.92379, -1535.9515380859375]]], [[[-124.79442, 45.92379, -1535.9515380859375], [-124.78586, 45.93044, -1503.1630859375], [-124.79038, 45.92692, -660.2275390625], [-124.79442, 45.92379, -1535.9515380859375]]], [[[-124.78989, 45.92731, -2380.346435546875], [-124.78586, 45.93044, -1503.1630859375], [-124.79442, 45.92379, -1535.9515380859375], [-124.78989, 45.92731, -2380.346435546875]]], [[[-124.77084, 45.9411, -7752.263671875], [-124.76187, 45.94648, -8212.876953125], [-124.76187, 45.94648, -7185.9375], [-124.77084, 45.9411, -7752.263671875]]], [[[-124.7814, 45.93392, -2326.965087890625], [-124.78586, 45.93044, -1503.1630859375], [-124.78989, 45.92731, -2380.346435546875], [-124.7814, 45.93392, -2326.965087890625]]], [[[-124.77577, 45.93782, -10531.3076171875], [-124.78163, 45.93373, -11296.29296875], [-124.77259, 45.93994, -11470.5576171875], [-124.77577, 45.93782, -10531.3076171875]]], [[[-124.8571, 45.8392, -5398.02197265625], [-124.85924, 45.83635, -6295.54931640625], [-124.8537, 45.84408, -6345.408203125], [-124.8571, 45.8392, -5398.02197265625]]], [[[-124.7814, 45.93392, -2326.965087890625], [-124.77707, 45.93696, -1468.268310546875], [-124.78586, 45.93044, -1503.1630859375], [-124.7814, 45.93392, -2326.965087890625]]], [[[-124.83307, 45.88388, -4270.431640625], [-124.8307, 45.88767, -3390.362548828125], [-124.83571, 45.87967, -3419.21484375], [-124.83307, 45.88388, -4270.431640625]]], [[[-124.77145, 45.9407, -2390.27099609375], [-124.77707, 45.93696, -1468.268310546875], [-124.7814, 45.93392, -2326.965087890625], [-124.77145, 45.9407, -2390.27099609375]]], [[[-124.79315, 45.92478, -10189.37890625], [-124.79861, 45.92054, -10962.4287109375], [-124.79011, 45.92714, -11124.2646484375], [-124.79315, 45.92478, -10189.37890625]]], [[[-124.76187, 45.94648, -5132.0595703125], [-124.754, 45.952, -4618.58984375], [-124.76187, 45.94648, -4105.1201171875], [-124.76187, 45.94648, -5132.0595703125]]], [[[-124.77145, 45.9407, -2390.27099609375], [-124.76674, 45.94356, -1424.5462646484375], [-124.77707, 45.93696, -1468.268310546875], [-124.77145, 45.9407, -2390.27099609375]]], [[[-124.76221, 45.94627, -3054.590087890625], [-124.76187, 45.94648, -4105.1201171875], [-124.754, 45.952, -3591.650634765625], [-124.76221, 45.94627, -3054.590087890625]]], [[[-124.77145, 45.9407, -2390.27099609375], [-124.76172, 45.94657, -2094.19775390625], [-124.76674, 45.94356, -1424.5462646484375], [-124.77145, 45.9407, -2390.27099609375]]], [[[-124.77034, 45.94139, -4618.58984375], [-124.76187, 45.94648, -5132.0595703125], [-124.76187, 45.94648, -4105.1201171875], [-124.77034, 45.94139, -4618.58984375]]], [[[-124.77145, 45.9407, -2390.27099609375], [-124.76221, 45.94627, -3054.590087890625], [-124.76172, 45.94657, -2094.19775390625], [-124.77145, 45.9407, -2390.27099609375]]], [[[-124.8644, 45.83173, -5415.16015625], [-124.8571, 45.8392, -5398.02197265625], [-124.86052, 45.83464, -4549.2919921875], [-124.8644, 45.83173, -5415.16015625]]], [[[-124.7661, 45.94394, -10761.9794921875], [-124.77259, 45.93994, -11470.5576171875], [-124.76305, 45.94577, -11647.3115234375], [-124.7661, 45.94394, -10761.9794921875]]], [[[-124.77038, 45.94137, -3566.036376953125], [-124.76221, 45.94627, -3054.590087890625], [-124.77145, 45.9407, -2390.27099609375], [-124.77038, 45.94137, -3566.036376953125]]], [[[-124.79922, 45.92009, -8312.4931640625], [-124.80774, 45.91326, -8154.93017578125], [-124.80485, 45.91586, -9090.5712890625], [-124.79922, 45.92009, -8312.4931640625]]], [[[-124.77038, 45.94137, -3566.036376953125], [-124.76187, 45.94648, -4105.1201171875], [-124.76221, 45.94627, -3054.590087890625], [-124.77038, 45.94137, -3566.036376953125]]], [[[-124.83805, 45.87588, -4303.3076171875], [-124.83571, 45.87967, -3419.21484375], [-124.84006, 45.87137, -3456.60009765625], [-124.83805, 45.87588, -4303.3076171875]]], [[[-124.76187, 45.94648, -4105.1201171875], [-124.754, 45.952, -4618.58984375], [-124.754, 45.952, -3591.650634765625], [-124.76187, 45.94648, -4105.1201171875]]], [[[-124.81831, 45.90269, -7084.4560546875], [-124.81532, 45.90568, -8002.0029296875], [-124.81059, 45.91041, -7221.87255859375], [-124.81831, 45.90269, -7084.4560546875]]], [[[-124.77038, 45.94137, -3566.036376953125], [-124.77034, 45.94139, -4618.58984375], [-124.76187, 45.94648, -4105.1201171875], [-124.77038, 45.94137, -3566.036376953125]]], [[[-124.78586, 45.93044, -1503.1630859375], [-124.78183, 45.93357, -626.7511596679688], [-124.79038, 45.92692, -660.2275390625], [-124.78586, 45.93044, -1503.1630859375]]], [[[-124.77038, 45.94137, -3566.036376953125], [-124.77862, 45.93592, -4081.50244140625], [-124.77034, 45.94139, -4618.58984375], [-124.77038, 45.94137, -3566.036376953125]]], [[[-124.80219, 45.91786, -7334.1796875], [-124.79922, 45.92009, -8312.4931640625], [-124.79352, 45.92449, -7519.01904296875], [-124.80219, 45.91786, -7334.1796875]]], [[[-124.76172, 45.94657, -2094.19775390625], [-124.76221, 45.94627, -3054.590087890625], [-124.754, 45.952, -2564.71142578125], [-124.76172, 45.94657, -2094.19775390625]]], [[[-124.76674, 45.94356, -1424.5462646484375], [-124.76311, 45.94574, -555.44189453125], [-124.77273, 45.93985, -590.6016235351562], [-124.76674, 45.94356, -1424.5462646484375]]], [[[-124.77862, 45.93592, -4081.50244140625], [-124.77038, 45.94137, -3566.036376953125], [-124.77766, 45.93656, -3106.6787109375], [-124.77862, 45.93592, -4081.50244140625]]], [[[-124.76187, 45.94648, -8212.876953125], [-124.77084, 45.9411, -7752.263671875], [-124.77076, 45.94114, -8777.685546875], [-124.76187, 45.94648, -8212.876953125]]], [[[-124.77766, 45.93656, -3106.6787109375], [-124.78539, 45.9308, -3269.772705078125], [-124.77862, 45.93592, -4081.50244140625], [-124.77766, 45.93656, -3106.6787109375]]], [[[-124.78539, 45.9308, -3269.772705078125], [-124.77766, 45.93656, -3106.6787109375], [-124.7814, 45.93392, -2326.965087890625], [-124.78539, 45.9308, -3269.772705078125]]], [[[-124.78539, 45.9308, -3269.772705078125], [-124.7814, 45.93392, -2326.965087890625], [-124.78989, 45.92731, -2380.346435546875], [-124.78539, 45.9308, -3269.772705078125]]], [[[-124.8571, 45.8392, -5398.02197265625], [-124.8644, 45.83173, -5415.16015625], [-124.85924, 45.83635, -6295.54931640625], [-124.8571, 45.8392, -5398.02197265625]]], [[[-124.79364, 45.92439, -3305.7060546875], [-124.78539, 45.9308, -3269.772705078125], [-124.78989, 45.92731, -2380.346435546875], [-124.79364, 45.92439, -3305.7060546875]]], [[[-124.78742, 45.92923, -4310.30908203125], [-124.78539, 45.9308, -3269.772705078125], [-124.79364, 45.92439, -3305.7060546875], [-124.78742, 45.92923, -4310.30908203125]]], [[[-124.76187, 45.94648, -6158.99853515625], [-124.754, 45.952, -6672.46826171875], [-124.754, 45.952, -5645.52880859375], [-124.76187, 45.94648, -6158.99853515625]]], [[[-124.78742, 45.92923, -4310.30908203125], [-124.77862, 45.93592, -4081.50244140625], [-124.78539, 45.9308, -3269.772705078125], [-124.78742, 45.92923, -4310.30908203125]]], [[[-124.78742, 45.92923, -4310.30908203125], [-124.7792, 45.93553, -5088.53759765625], [-124.77862, 45.93592, -4081.50244140625], [-124.78742, 45.92923, -4310.30908203125]]], [[[-124.78756, 45.92912, -5636.74609375], [-124.7792, 45.93553, -5088.53759765625], [-124.78742, 45.92923, -4310.30908203125], [-124.78756, 45.92912, -5636.74609375]]], [[[-124.82135, 45.8996, -4214.9580078125], [-124.81408, 45.90692, -4232.86865234375], [-124.81796, 45.90304, -3333.22216796875], [-124.82135, 45.8996, -4214.9580078125]]], [[[-124.86052, 45.83464, -4549.2919921875], [-124.86972, 45.82819, -4439.88720703125], [-124.8644, 45.83173, -5415.16015625], [-124.86052, 45.83464, -4549.2919921875]]], [[[-124.79498, 45.92335, -6524.33984375], [-124.79352, 45.92449, -7519.01904296875], [-124.78631, 45.93009, -6724.6787109375], [-124.79498, 45.92335, -6524.33984375]]], [[[-124.79498, 45.92335, -6524.33984375], [-124.80219, 45.91786, -7334.1796875], [-124.79352, 45.92449, -7519.01904296875], [-124.79498, 45.92335, -6524.33984375]]], [[[-124.82803, 45.89194, -4238.00146484375], [-124.82485, 45.8956, -3365.57666015625], [-124.8307, 45.88767, -3390.362548828125], [-124.82803, 45.89194, -4238.00146484375]]], [[[-124.80572, 45.91521, -6363.1923828125], [-124.80219, 45.91786, -7334.1796875], [-124.79498, 45.92335, -6524.33984375], [-124.80572, 45.91521, -6363.1923828125]]], [[[-124.80572, 45.91521, -6363.1923828125], [-124.81365, 45.90735, -6206.5810546875], [-124.81059, 45.91041, -7221.87255859375], [-124.80572, 45.91521, -6363.1923828125]]], [[[-124.80974, 45.91126, -9865.2119140625], [-124.81435, 45.90665, -10645.0859375], [-124.80706, 45.91394, -10796.2158203125], [-124.80974, 45.91126, -9865.2119140625]]], [[[-124.7991, 45.92017, -5701.80810546875], [-124.80211, 45.91792, -4946.337890625], [-124.80948, 45.91152, -5233.61083984375], [-124.7991, 45.92017, -5701.80810546875]]], [[[-124.82694, 45.89321, -8661.8544921875], [-124.83031, 45.8883, -9464.7958984375], [-124.82419, 45.89636, -9579.9423828125], [-124.82694, 45.89321, -8661.8544921875]]], [[[-124.79293, 45.92495, -4966.18701171875], [-124.80211, 45.91792, -4946.337890625], [-124.7991, 45.92017, -5701.80810546875], [-124.79293, 45.92495, -4966.18701171875]]], [[[-124.83939, 45.87288, -7550.13330078125], [-124.84306, 45.86418, -7445.38671875], [-124.84162, 45.86787, -8369.4365234375], [-124.83939, 45.87288, -7550.13330078125]]], [[[-124.80211, 45.91792, -4946.337890625], [-124.79756, 45.92134, -4148.01513671875], [-124.80677, 45.91423, -4174.78759765625], [-124.80211, 45.91792, -4946.337890625]]], [[[-124.84162, 45.86787, -8369.4365234375], [-124.83995, 45.87162, -9272.2626953125], [-124.83762, 45.87661, -8456.5966796875], [-124.84162, 45.86787, -8369.4365234375]]], [[[-124.80211, 45.91792, -4946.337890625], [-124.80677, 45.91423, -4174.78759765625], [-124.80948, 45.91152, -5233.61083984375], [-124.80211, 45.91792, -4946.337890625]]], [[[-124.81744, 45.90356, -5175.3671875], [-124.82135, 45.8996, -4214.9580078125], [-124.82454, 45.89596, -5137.22216796875], [-124.81744, 45.90356, -5175.3671875]]], [[[-124.81993, 45.90107, -8790.28125], [-124.81708, 45.90392, -9716.8408203125], [-124.81246, 45.90854, -8929.5888671875], [-124.81993, 45.90107, -8790.28125]]], [[[-124.80948, 45.91152, -5233.61083984375], [-124.81408, 45.90692, -4232.86865234375], [-124.81744, 45.90356, -5175.3671875], [-124.80948, 45.91152, -5233.61083984375]]], [[[-124.83031, 45.8883, -9464.7958984375], [-124.83544, 45.8801, -9365.58984375], [-124.83332, 45.88349, -10276.28125], [-124.83031, 45.8883, -9464.7958984375]]], [[[-124.82419, 45.89636, -9579.9423828125], [-124.82819, 45.89169, -10375.53515625], [-124.82159, 45.89933, -10501.333984375], [-124.82419, 45.89636, -9579.9423828125]]], [[[-124.81744, 45.90356, -5175.3671875], [-124.81408, 45.90692, -4232.86865234375], [-124.82135, 45.8996, -4214.9580078125], [-124.81744, 45.90356, -5175.3671875]]], [[[-124.81365, 45.90735, -6206.5810546875], [-124.81831, 45.90269, -7084.4560546875], [-124.81059, 45.91041, -7221.87255859375], [-124.81365, 45.90735, -6206.5810546875]]], [[[-124.83939, 45.87288, -7550.13330078125], [-124.8412, 45.8688, -6559.83447265625], [-124.84306, 45.86418, -7445.38671875], [-124.83939, 45.87288, -7550.13330078125]]], [[[-124.81532, 45.90568, -8002.0029296875], [-124.82276, 45.89798, -7866.697265625], [-124.81993, 45.90107, -8790.28125], [-124.81532, 45.90568, -8002.0029296875]]], [[[-124.81708, 45.90392, -9716.8408203125], [-124.82159, 45.89933, -10501.333984375], [-124.81435, 45.90665, -10645.0859375], [-124.81708, 45.90392, -9716.8408203125]]], [[[-124.81059, 45.91041, -7221.87255859375], [-124.80774, 45.91326, -8154.93017578125], [-124.80219, 45.91786, -7334.1796875], [-124.81059, 45.91041, -7221.87255859375]]], [[[-124.78631, 45.93009, -6724.6787109375], [-124.7853, 45.93088, -7783.7216796875], [-124.7785, 45.936, -7244.26904296875], [-124.78631, 45.93009, -6724.6787109375]]], [[[-124.7785, 45.936, -7244.26904296875], [-124.78005, 45.93496, -8487.4111328125], [-124.77084, 45.9411, -7752.263671875], [-124.7785, 45.936, -7244.26904296875]]], [[[-124.77034, 45.94139, -4618.58984375], [-124.7792, 45.93553, -5088.53759765625], [-124.77034, 45.94139, -5645.52880859375], [-124.77034, 45.94139, -4618.58984375]]], [[[-124.7853, 45.93088, -7783.7216796875], [-124.78005, 45.93496, -8487.4111328125], [-124.7785, 45.936, -7244.26904296875], [-124.7853, 45.93088, -7783.7216796875]]], [[[-124.87192, 45.82493, -7054.1162109375], [-124.87638, 45.81586, -6948.1904296875], [-124.87501, 45.81996, -7838.8984375], [-124.87192, 45.82493, -7054.1162109375]]], [[[-124.84298, 45.8644, -5408.19775390625], [-124.84177, 45.86752, -4342.267578125], [-124.84493, 45.85918, -4419.37353515625], [-124.84298, 45.8644, -5408.19775390625]]], [[[-124.83984, 45.87185, -5100.212890625], [-124.83805, 45.87588, -4303.3076171875], [-124.84177, 45.86752, -4342.267578125], [-124.83984, 45.87185, -5100.212890625]]], [[[-124.76221, 45.94627, -3054.590087890625], [-124.754, 45.952, -3591.650634765625], [-124.754, 45.952, -2564.71142578125], [-124.76221, 45.94627, -3054.590087890625]]], [[[-124.77076, 45.94114, -8777.685546875], [-124.76187, 45.94648, -9239.81640625], [-124.76187, 45.94648, -8212.876953125], [-124.77076, 45.94114, -8777.685546875]]], [[[-124.80774, 45.91326, -8154.93017578125], [-124.81246, 45.90854, -8929.5888671875], [-124.80485, 45.91586, -9090.5712890625], [-124.80774, 45.91326, -8154.93017578125]]], [[[-124.7792, 45.93553, -5088.53759765625], [-124.77034, 45.94139, -4618.58984375], [-124.77862, 45.93592, -4081.50244140625], [-124.7792, 45.93553, -5088.53759765625]]], [[[-124.81246, 45.90854, -8929.5888671875], [-124.81708, 45.90392, -9716.8408203125], [-124.80974, 45.91126, -9865.2119140625], [-124.81246, 45.90854, -8929.5888671875]]], [[[-124.82694, 45.89321, -8661.8544921875], [-124.82419, 45.89636, -9579.9423828125], [-124.81993, 45.90107, -8790.28125], [-124.82694, 45.89321, -8661.8544921875]]], [[[-124.76187, 45.94648, -8212.876953125], [-124.754, 45.952, -8726.3466796875], [-124.754, 45.952, -7699.4072265625], [-124.76187, 45.94648, -8212.876953125]]], [[[-124.83762, 45.87661, -8456.5966796875], [-124.83544, 45.8801, -9365.58984375], [-124.83243, 45.88491, -8554.0068359375], [-124.83762, 45.87661, -8456.5966796875]]], [[[-124.83041, 45.88815, -5119.765625], [-124.82803, 45.89194, -4238.00146484375], [-124.83307, 45.88388, -4270.431640625], [-124.83041, 45.88815, -5119.765625]]], [[[-124.83031, 45.8883, -9464.7958984375], [-124.83332, 45.88349, -10276.28125], [-124.82819, 45.89169, -10375.53515625], [-124.83031, 45.8883, -9464.7958984375]]], [[[-124.80485, 45.91586, -9090.5712890625], [-124.80974, 45.91126, -9865.2119140625], [-124.80167, 45.91825, -10026.0], [-124.80485, 45.91586, -9090.5712890625]]], [[[-124.79616, 45.92244, -9257.326171875], [-124.80167, 45.91825, -10026.0], [-124.79315, 45.92478, -10189.37890625], [-124.79616, 45.92244, -9257.326171875]]], [[[-124.76187, 45.94648, -6158.99853515625], [-124.77034, 45.94139, -5645.52880859375], [-124.77034, 45.94139, -6672.46826171875], [-124.76187, 45.94648, -6158.99853515625]]], [[[-124.76187, 45.94648, -9239.81640625], [-124.754, 45.952, -8726.3466796875], [-124.76187, 45.94648, -8212.876953125], [-124.76187, 45.94648, -9239.81640625]]], [[[-124.76119, 45.94689, -10181.7890625], [-124.754, 45.952, -10780.224609375], [-124.754, 45.952, -9753.2861328125], [-124.76119, 45.94689, -10181.7890625]]], [[[-124.85162, 45.84741, -5387.068359375], [-124.84884, 45.85208, -6391.7470703125], [-124.84686, 45.85565, -5389.45361328125], [-124.85162, 45.84741, -5387.068359375]]], [[[-124.87892, 45.80825, -5276.39501953125], [-124.87622, 45.81634, -5449.5556640625], [-124.87776, 45.81173, -4608.9267578125], [-124.87892, 45.80825, -5276.39501953125]]], [[[-124.8571, 45.8392, -5398.02197265625], [-124.8537, 45.84408, -6345.408203125], [-124.85162, 45.84741, -5387.068359375], [-124.8571, 45.8392, -5398.02197265625]]], [[[-124.86972, 45.82819, -4439.88720703125], [-124.86052, 45.83464, -4549.2919921875], [-124.86525, 45.83117, -3693.720703125], [-124.86972, 45.82819, -4439.88720703125]]], [[[-124.87024, 45.82762, -2866.088623046875], [-124.86972, 45.82819, -4439.88720703125], [-124.86525, 45.83117, -3693.720703125], [-124.87024, 45.82762, -2866.088623046875]]], [[[-124.86942, 45.82839, -8069.66015625], [-124.86512, 45.83125, -8831.5380859375], [-124.86019, 45.83508, -8022.75927734375], [-124.86942, 45.82839, -8069.66015625]]], [[[-124.87024, 45.82762, -2866.088623046875], [-124.87268, 45.82372, -3745.424560546875], [-124.86972, 45.82819, -4439.88720703125], [-124.87024, 45.82762, -2866.088623046875]]], [[[-124.87268, 45.82372, -3745.424560546875], [-124.87024, 45.82762, -2866.088623046875], [-124.87523, 45.81931, -2901.449951171875], [-124.87268, 45.82372, -3745.424560546875]]], [[[-124.88573, 45.79569, -5776.63427734375], [-124.88598, 45.79537, -4803.716796875], [-124.89255, 45.78915, -4920.4208984375], [-124.88573, 45.79569, -5776.63427734375]]], [[[-124.87268, 45.82372, -3745.424560546875], [-124.87523, 45.81931, -2901.449951171875], [-124.87654, 45.81537, -3785.851318359375], [-124.87268, 45.82372, -3745.424560546875]]], [[[-124.87502, 45.81993, -4634.71728515625], [-124.87268, 45.82372, -3745.424560546875], [-124.87654, 45.81537, -3785.851318359375], [-124.87502, 45.81993, -4634.71728515625]]], [[[-124.87502, 45.81993, -4634.71728515625], [-124.86972, 45.82819, -4439.88720703125], [-124.87268, 45.82372, -3745.424560546875], [-124.87502, 45.81993, -4634.71728515625]]], [[[-124.88052, 45.80344, -5958.71875], [-124.8832, 45.79907, -6817.20458984375], [-124.8793, 45.80709, -6898.85546875], [-124.88052, 45.80344, -5958.71875]]], [[[-124.86972, 45.82819, -4439.88720703125], [-124.87502, 45.81993, -4634.71728515625], [-124.87203, 45.82476, -5416.1181640625], [-124.86972, 45.82819, -4439.88720703125]]], [[[-124.87203, 45.82476, -5416.1181640625], [-124.8644, 45.83173, -5415.16015625], [-124.86972, 45.82819, -4439.88720703125], [-124.87203, 45.82476, -5416.1181640625]]], [[[-124.8644, 45.83173, -5415.16015625], [-124.87203, 45.82476, -5416.1181640625], [-124.86805, 45.8293, -6237.87646484375], [-124.8644, 45.83173, -5415.16015625]]], [[[-124.88087, 45.80238, -4810.1484375], [-124.88349, 45.79868, -3885.665283203125], [-124.88598, 45.79537, -4803.716796875], [-124.88087, 45.80238, -4810.1484375]]], [[[-124.8644, 45.83173, -5415.16015625], [-124.86805, 45.8293, -6237.87646484375], [-124.85924, 45.83635, -6295.54931640625], [-124.8644, 45.83173, -5415.16015625]]], [[[-124.86805, 45.8293, -6237.87646484375], [-124.86387, 45.83209, -7131.55615234375], [-124.85924, 45.83635, -6295.54931640625], [-124.86805, 45.8293, -6237.87646484375]]], [[[-124.86387, 45.83209, -7131.55615234375], [-124.86805, 45.8293, -6237.87646484375], [-124.87192, 45.82493, -7054.1162109375], [-124.86387, 45.83209, -7131.55615234375]]], [[[-124.86387, 45.83209, -7131.55615234375], [-124.87192, 45.82493, -7054.1162109375], [-124.86942, 45.82839, -8069.66015625], [-124.86387, 45.83209, -7131.55615234375]]], [[[-124.86387, 45.83209, -7131.55615234375], [-124.86942, 45.82839, -8069.66015625], [-124.86019, 45.83508, -8022.75927734375], [-124.86387, 45.83209, -7131.55615234375]]], [[[-124.85676, 45.83965, -7212.55517578125], [-124.86387, 45.83209, -7131.55615234375], [-124.86019, 45.83508, -8022.75927734375], [-124.85676, 45.83965, -7212.55517578125]]], [[[-124.85676, 45.83965, -7212.55517578125], [-124.85924, 45.83635, -6295.54931640625], [-124.86387, 45.83209, -7131.55615234375], [-124.85676, 45.83965, -7212.55517578125]]], [[[-124.85924, 45.83635, -6295.54931640625], [-124.85676, 45.83965, -7212.55517578125], [-124.8537, 45.84408, -6345.408203125], [-124.85924, 45.83635, -6295.54931640625]]], [[[-124.77766, 45.93656, -3106.6787109375], [-124.77145, 45.9407, -2390.27099609375], [-124.7814, 45.93392, -2326.965087890625], [-124.77766, 45.93656, -3106.6787109375]]], [[[-124.85158, 45.84747, -7305.2255859375], [-124.8537, 45.84408, -6345.408203125], [-124.85676, 45.83965, -7212.55517578125], [-124.85158, 45.84747, -7305.2255859375]]], [[[-124.8537, 45.84408, -6345.408203125], [-124.85158, 45.84747, -7305.2255859375], [-124.84884, 45.85208, -6391.7470703125], [-124.8537, 45.84408, -6345.408203125]]], [[[-124.84681, 45.85575, -7385.13916015625], [-124.84884, 45.85208, -6391.7470703125], [-124.85158, 45.84747, -7305.2255859375], [-124.84681, 45.85575, -7385.13916015625]]], [[[-124.84884, 45.85208, -6391.7470703125], [-124.84681, 45.85575, -7385.13916015625], [-124.8445, 45.86033, -6424.1103515625], [-124.84884, 45.85208, -6391.7470703125]]], [[[-124.84306, 45.86418, -7445.38671875], [-124.8445, 45.86033, -6424.1103515625], [-124.84681, 45.85575, -7385.13916015625], [-124.84306, 45.86418, -7445.38671875]]], [[[-124.8445, 45.86033, -6424.1103515625], [-124.84306, 45.86418, -7445.38671875], [-124.8412, 45.8688, -6559.83447265625], [-124.8445, 45.86033, -6424.1103515625]]], [[[-124.84298, 45.8644, -5408.19775390625], [-124.8445, 45.86033, -6424.1103515625], [-124.8412, 45.8688, -6559.83447265625], [-124.84298, 45.8644, -5408.19775390625]]], [[[-124.84306, 45.86418, -7445.38671875], [-124.84681, 45.85575, -7385.13916015625], [-124.84491, 45.85924, -8290.65625], [-124.84306, 45.86418, -7445.38671875]]], [[[-124.754, 45.952, -1537.772216796875], [-124.76674, 45.94356, -1424.5462646484375], [-124.76172, 45.94657, -2094.19775390625], [-124.754, 45.952, -1537.772216796875]]], [[[-124.84306, 45.86418, -7445.38671875], [-124.84491, 45.85924, -8290.65625], [-124.84162, 45.86787, -8369.4365234375], [-124.84306, 45.86418, -7445.38671875]]], [[[-124.84491, 45.85924, -8290.65625], [-124.84354, 45.8629, -9193.3935546875], [-124.84162, 45.86787, -8369.4365234375], [-124.84491, 45.85924, -8290.65625]]], [[[-124.84354, 45.8629, -9193.3935546875], [-124.84491, 45.85924, -8290.65625], [-124.84747, 45.85455, -9114.349609375], [-124.84354, 45.8629, -9193.3935546875]]], [[[-124.84354, 45.8629, -9193.3935546875], [-124.84747, 45.85455, -9114.349609375], [-124.84552, 45.85806, -10021.357421875], [-124.84354, 45.8629, -9193.3935546875]]], [[[-124.84354, 45.8629, -9193.3935546875], [-124.84552, 45.85806, -10021.357421875], [-124.84211, 45.86671, -10091.859375], [-124.84354, 45.8629, -9193.3935546875]]], [[[-124.84747, 45.85455, -9114.349609375], [-124.85017, 45.84972, -9931.041015625], [-124.84552, 45.85806, -10021.357421875], [-124.84747, 45.85455, -9114.349609375]]], [[[-124.84747, 45.85455, -9114.349609375], [-124.85235, 45.84623, -9025.720703125], [-124.85017, 45.84972, -9931.041015625], [-124.84747, 45.85455, -9114.349609375]]], [[[-124.84747, 45.85455, -9114.349609375], [-124.84944, 45.851, -8205.138671875], [-124.85235, 45.84623, -9025.720703125], [-124.84747, 45.85455, -9114.349609375]]], [[[-124.84944, 45.851, -8205.138671875], [-124.84747, 45.85455, -9114.349609375], [-124.84491, 45.85924, -8290.65625], [-124.84944, 45.851, -8205.138671875]]], [[[-124.84681, 45.85575, -7385.13916015625], [-124.84944, 45.851, -8205.138671875], [-124.84491, 45.85924, -8290.65625], [-124.84681, 45.85575, -7385.13916015625]]], [[[-124.84681, 45.85575, -7385.13916015625], [-124.85158, 45.84747, -7305.2255859375], [-124.84944, 45.851, -8205.138671875], [-124.84681, 45.85575, -7385.13916015625]]], [[[-124.85158, 45.84747, -7305.2255859375], [-124.8545, 45.8428, -8124.79248046875], [-124.84944, 45.851, -8205.138671875], [-124.85158, 45.84747, -7305.2255859375]]], [[[-124.85158, 45.84747, -7305.2255859375], [-124.85676, 45.83965, -7212.55517578125], [-124.8545, 45.8428, -8124.79248046875], [-124.85158, 45.84747, -7305.2255859375]]], [[[-124.85676, 45.83965, -7212.55517578125], [-124.86019, 45.83508, -8022.75927734375], [-124.8545, 45.8428, -8124.79248046875], [-124.85676, 45.83965, -7212.55517578125]]], [[[-124.86019, 45.83508, -8022.75927734375], [-124.85784, 45.83821, -8936.0771484375], [-124.8545, 45.8428, -8124.79248046875], [-124.86019, 45.83508, -8022.75927734375]]], [[[-124.85784, 45.83821, -8936.0771484375], [-124.86019, 45.83508, -8022.75927734375], [-124.86512, 45.83125, -8831.5380859375], [-124.85784, 45.83821, -8936.0771484375]]], [[[-124.85784, 45.83821, -8936.0771484375], [-124.86512, 45.83125, -8831.5380859375], [-124.86147, 45.83369, -9750.5791015625], [-124.85784, 45.83821, -8936.0771484375]]], [[[-124.85784, 45.83821, -8936.0771484375], [-124.86147, 45.83369, -9750.5791015625], [-124.85535, 45.84153, -9844.6142578125], [-124.85784, 45.83821, -8936.0771484375]]], [[[-124.85235, 45.84623, -9025.720703125], [-124.85784, 45.83821, -8936.0771484375], [-124.85535, 45.84153, -9844.6142578125], [-124.85235, 45.84623, -9025.720703125]]], [[[-124.85235, 45.84623, -9025.720703125], [-124.8545, 45.8428, -8124.79248046875], [-124.85784, 45.83821, -8936.0771484375], [-124.85235, 45.84623, -9025.720703125]]], [[[-124.8545, 45.8428, -8124.79248046875], [-124.85235, 45.84623, -9025.720703125], [-124.84944, 45.851, -8205.138671875], [-124.8545, 45.8428, -8124.79248046875]]], [[[-124.85235, 45.84623, -9025.720703125], [-124.85535, 45.84153, -9844.6142578125], [-124.85017, 45.84972, -9931.041015625], [-124.85235, 45.84623, -9025.720703125]]], [[[-124.86512, 45.83125, -8831.5380859375], [-124.87039, 45.82737, -9630.5751953125], [-124.86147, 45.83369, -9750.5791015625], [-124.86512, 45.83125, -8831.5380859375]]], [[[-124.87039, 45.82737, -9630.5751953125], [-124.86512, 45.83125, -8831.5380859375], [-124.86942, 45.82839, -8069.66015625], [-124.87039, 45.82737, -9630.5751953125]]], [[[-124.87039, 45.82737, -9630.5751953125], [-124.86942, 45.82839, -8069.66015625], [-124.87272, 45.82365, -8742.849609375], [-124.87039, 45.82737, -9630.5751953125]]], [[[-124.87272, 45.82365, -8742.849609375], [-124.8753, 45.8191, -9560.8046875], [-124.87039, 45.82737, -9630.5751953125], [-124.87272, 45.82365, -8742.849609375]]], [[[-124.87272, 45.82365, -8742.849609375], [-124.87665, 45.81505, -8674.642578125], [-124.8753, 45.8191, -9560.8046875], [-124.87272, 45.82365, -8742.849609375]]], [[[-124.87501, 45.81996, -7838.8984375], [-124.87665, 45.81505, -8674.642578125], [-124.87272, 45.82365, -8742.849609375], [-124.87501, 45.81996, -7838.8984375]]], [[[-124.878, 45.81099, -7787.3369140625], [-124.87665, 45.81505, -8674.642578125], [-124.87501, 45.81996, -7838.8984375], [-124.878, 45.81099, -7787.3369140625]]], [[[-124.878, 45.81099, -7787.3369140625], [-124.87957, 45.80629, -8632.5126953125], [-124.87665, 45.81505, -8674.642578125], [-124.878, 45.81099, -7787.3369140625]]], [[[-124.88085, 45.80246, -7740.41455078125], [-124.87957, 45.80629, -8632.5126953125], [-124.878, 45.81099, -7787.3369140625], [-124.88085, 45.80246, -7740.41455078125]]], [[[-124.88085, 45.80246, -7740.41455078125], [-124.88388, 45.79816, -8577.603515625], [-124.87957, 45.80629, -8632.5126953125], [-124.88085, 45.80246, -7740.41455078125]]], [[[-124.88637, 45.79483, -7674.21044921875], [-124.88388, 45.79816, -8577.603515625], [-124.88085, 45.80246, -7740.41455078125], [-124.88637, 45.79483, -7674.21044921875]]], [[[-124.88637, 45.79483, -7674.21044921875], [-124.89066, 45.7908, -8497.01953125], [-124.88388, 45.79816, -8577.603515625], [-124.88637, 45.79483, -7674.21044921875]]], [[[-124.89463, 45.78733, -7544.3046875], [-124.89066, 45.7908, -8497.01953125], [-124.88637, 45.79483, -7674.21044921875], [-124.89463, 45.78733, -7544.3046875]]], [[[-124.89463, 45.78733, -7544.3046875], [-124.89957, 45.78395, -8332.216796875], [-124.89066, 45.7908, -8497.01953125], [-124.89463, 45.78733, -7544.3046875]]], [[[-124.89463, 45.78733, -7544.3046875], [-124.90549, 45.78001, -7235.27783203125], [-124.89957, 45.78395, -8332.216796875], [-124.89463, 45.78733, -7544.3046875]]], [[[-124.89861, 45.78459, -6571.36474609375], [-124.90549, 45.78001, -7235.27783203125], [-124.89463, 45.78733, -7544.3046875], [-124.89861, 45.78459, -6571.36474609375]]], [[[-124.89861, 45.78459, -6571.36474609375], [-124.90673, 45.77918, -5953.66259765625], [-124.90549, 45.78001, -7235.27783203125], [-124.89861, 45.78459, -6571.36474609375]]], [[[-124.89964, 45.78391, -5328.546875], [-124.90673, 45.77918, -5953.66259765625], [-124.89861, 45.78459, -6571.36474609375], [-124.89964, 45.78391, -5328.546875]]], [[[-124.90673, 45.77918, -5953.66259765625], [-124.89964, 45.78391, -5328.546875], [-124.90698, 45.77902, -4782.9609375], [-124.90673, 45.77918, -5953.66259765625]]], [[[-124.90673, 45.77918, -5953.66259765625], [-124.90698, 45.77902, -4782.9609375], [-124.91523, 45.77379, -5313.68359375], [-124.90673, 45.77918, -5953.66259765625]]], [[[-124.90673, 45.77918, -5953.66259765625], [-124.91523, 45.77379, -5313.68359375], [-124.91473, 45.77405, -6409.806640625], [-124.90673, 45.77918, -5953.66259765625]]], [[[-124.90673, 45.77918, -5953.66259765625], [-124.91473, 45.77405, -6409.806640625], [-124.90549, 45.78001, -7235.27783203125], [-124.90673, 45.77918, -5953.66259765625]]], [[[-124.91518, 45.77381, -7401.15771484375], [-124.90549, 45.78001, -7235.27783203125], [-124.91473, 45.77405, -6409.806640625], [-124.91518, 45.77381, -7401.15771484375]]], [[[-124.90549, 45.78001, -7235.27783203125], [-124.91518, 45.77381, -7401.15771484375], [-124.90844, 45.77804, -8254.62109375], [-124.90549, 45.78001, -7235.27783203125]]], [[[-124.90549, 45.78001, -7235.27783203125], [-124.90844, 45.77804, -8254.62109375], [-124.89957, 45.78395, -8332.216796875], [-124.90549, 45.78001, -7235.27783203125]]], [[[-124.89957, 45.78395, -8332.216796875], [-124.90844, 45.77804, -8254.62109375], [-124.90459, 45.7806, -9205.1171875], [-124.89957, 45.78395, -8332.216796875]]], [[[-124.89957, 45.78395, -8332.216796875], [-124.90459, 45.7806, -9205.1171875], [-124.89534, 45.78677, -9312.59765625], [-124.89957, 45.78395, -8332.216796875]]], [[[-124.89066, 45.7908, -8497.01953125], [-124.89957, 45.78395, -8332.216796875], [-124.89534, 45.78677, -9312.59765625], [-124.89066, 45.7908, -8497.01953125]]], [[[-124.89066, 45.7908, -8497.01953125], [-124.89534, 45.78677, -9312.59765625], [-124.8873, 45.79373, -9404.8330078125], [-124.89066, 45.7908, -8497.01953125]]], [[[-124.88388, 45.79816, -8577.603515625], [-124.89066, 45.7908, -8497.01953125], [-124.8873, 45.79373, -9404.8330078125], [-124.88388, 45.79816, -8577.603515625]]], [[[-124.88388, 45.79816, -8577.603515625], [-124.8873, 45.79373, -9404.8330078125], [-124.88127, 45.80164, -9476.6650390625], [-124.88388, 45.79816, -8577.603515625]]], [[[-124.88388, 45.79816, -8577.603515625], [-124.88127, 45.80164, -9476.6650390625], [-124.87957, 45.80629, -8632.5126953125], [-124.88388, 45.79816, -8577.603515625]]], [[[-124.87822, 45.81035, -9517.65234375], [-124.87957, 45.80629, -8632.5126953125], [-124.88127, 45.80164, -9476.6650390625], [-124.87822, 45.81035, -9517.65234375]]], [[[-124.87665, 45.81505, -8674.642578125], [-124.87957, 45.80629, -8632.5126953125], [-124.87822, 45.81035, -9517.65234375], [-124.87665, 45.81505, -8674.642578125]]], [[[-124.87665, 45.81505, -8674.642578125], [-124.87822, 45.81035, -9517.65234375], [-124.8753, 45.8191, -9560.8046875], [-124.87665, 45.81505, -8674.642578125]]], [[[-124.90844, 45.77804, -8254.62109375], [-124.91392, 45.7745, -9100.470703125], [-124.90459, 45.7806, -9205.1171875], [-124.90844, 45.77804, -8254.62109375]]], [[[-124.90844, 45.77804, -8254.62109375], [-124.91722, 45.7727, -8279.3564453125], [-124.91392, 45.7745, -9100.470703125], [-124.90844, 45.77804, -8254.62109375]]], [[[-124.90844, 45.77804, -8254.62109375], [-124.91518, 45.77381, -7401.15771484375], [-124.91722, 45.7727, -8279.3564453125], [-124.90844, 45.77804, -8254.62109375]]], [[[-124.90698, 45.77902, -4782.9609375], [-124.91534, 45.77372, -4247.673828125], [-124.91523, 45.77379, -5313.68359375], [-124.90698, 45.77902, -4782.9609375]]], [[[-124.90698, 45.77902, -4782.9609375], [-124.90754, 45.77864, -3820.839111328125], [-124.91534, 45.77372, -4247.673828125], [-124.90698, 45.77902, -4782.9609375]]], [[[-124.89869, 45.78454, -4120.34375], [-124.90754, 45.77864, -3820.839111328125], [-124.90698, 45.77902, -4782.9609375], [-124.89869, 45.78454, -4120.34375]]], [[[-124.89869, 45.78454, -4120.34375], [-124.90698, 45.77902, -4782.9609375], [-124.89964, 45.78391, -5328.546875], [-124.89869, 45.78454, -4120.34375]]], [[[-124.89255, 45.78915, -4920.4208984375], [-124.89869, 45.78454, -4120.34375], [-124.89964, 45.78391, -5328.546875], [-124.89255, 45.78915, -4920.4208984375]]], [[[-124.89255, 45.78915, -4920.4208984375], [-124.88995, 45.79142, -3953.333740234375], [-124.89869, 45.78454, -4120.34375], [-124.89255, 45.78915, -4920.4208984375]]], [[[-124.88598, 45.79537, -4803.716796875], [-124.88995, 45.79142, -3953.333740234375], [-124.89255, 45.78915, -4920.4208984375], [-124.88598, 45.79537, -4803.716796875]]], [[[-124.88995, 45.79142, -3953.333740234375], [-124.88598, 45.79537, -4803.716796875], [-124.88349, 45.79868, -3885.665283203125], [-124.88995, 45.79142, -3953.333740234375]]], [[[-124.88995, 45.79142, -3953.333740234375], [-124.88349, 45.79868, -3885.665283203125], [-124.88668, 45.79442, -3048.802490234375], [-124.88995, 45.79142, -3953.333740234375]]], [[[-124.88995, 45.79142, -3953.333740234375], [-124.88668, 45.79442, -3048.802490234375], [-124.89431, 45.78761, -3121.675537109375], [-124.88995, 45.79142, -3953.333740234375]]], [[[-124.88995, 45.79142, -3953.333740234375], [-124.89431, 45.78761, -3121.675537109375], [-124.89869, 45.78454, -4120.34375], [-124.88995, 45.79142, -3953.333740234375]]], [[[-124.89431, 45.78761, -3121.675537109375], [-124.88668, 45.79442, -3048.802490234375], [-124.89084, 45.79064, -2204.47119140625], [-124.89431, 45.78761, -3121.675537109375]]], [[[-124.89431, 45.78761, -3121.675537109375], [-124.89084, 45.79064, -2204.47119140625], [-124.89934, 45.7841, -2287.3916015625], [-124.89431, 45.78761, -3121.675537109375]]], [[[-124.88094, 45.80217, -2993.30029296875], [-124.88414, 45.79781, -2146.366455078125], [-124.88668, 45.79442, -3048.802490234375], [-124.88094, 45.80217, -2993.30029296875]]], [[[-124.88414, 45.79781, -2146.366455078125], [-124.88094, 45.80217, -2993.30029296875], [-124.8796, 45.80621, -2097.21826171875], [-124.88414, 45.79781, -2146.366455078125]]], [[[-124.87806, 45.81083, -2939.54345703125], [-124.8796, 45.80621, -2097.21826171875], [-124.88094, 45.80217, -2993.30029296875], [-124.87806, 45.81083, -2939.54345703125]]], [[[-124.87806, 45.81083, -2939.54345703125], [-124.87675, 45.81475, -2051.705810546875], [-124.8796, 45.80621, -2097.21826171875], [-124.87806, 45.81083, -2939.54345703125]]], [[[-124.87806, 45.81083, -2939.54345703125], [-124.87523, 45.81931, -2901.449951171875], [-124.87675, 45.81475, -2051.705810546875], [-124.87806, 45.81083, -2939.54345703125]]], [[[-124.87654, 45.81537, -3785.851318359375], [-124.87523, 45.81931, -2901.449951171875], [-124.87806, 45.81083, -2939.54345703125], [-124.87654, 45.81537, -3785.851318359375]]], [[[-124.87654, 45.81537, -3785.851318359375], [-124.87806, 45.81083, -2939.54345703125], [-124.87936, 45.80692, -3831.168212890625], [-124.87654, 45.81537, -3785.851318359375]]], [[[-124.87776, 45.81173, -4608.9267578125], [-124.87654, 45.81537, -3785.851318359375], [-124.87936, 45.80692, -3831.168212890625], [-124.87776, 45.81173, -4608.9267578125]]], [[[-124.87776, 45.81173, -4608.9267578125], [-124.87502, 45.81993, -4634.71728515625], [-124.87654, 45.81537, -3785.851318359375], [-124.87776, 45.81173, -4608.9267578125]]], [[[-124.87622, 45.81634, -5449.5556640625], [-124.87502, 45.81993, -4634.71728515625], [-124.87776, 45.81173, -4608.9267578125], [-124.87622, 45.81634, -5449.5556640625]]], [[[-124.87622, 45.81634, -5449.5556640625], [-124.87203, 45.82476, -5416.1181640625], [-124.87502, 45.81993, -4634.71728515625], [-124.87622, 45.81634, -5449.5556640625]]], [[[-124.87203, 45.82476, -5416.1181640625], [-124.87622, 45.81634, -5449.5556640625], [-124.87437, 45.82101, -6201.30322265625], [-124.87203, 45.82476, -5416.1181640625]]], [[[-124.87203, 45.82476, -5416.1181640625], [-124.87437, 45.82101, -6201.30322265625], [-124.86805, 45.8293, -6237.87646484375], [-124.87203, 45.82476, -5416.1181640625]]], [[[-124.87437, 45.82101, -6201.30322265625], [-124.87192, 45.82493, -7054.1162109375], [-124.86805, 45.8293, -6237.87646484375], [-124.87437, 45.82101, -6201.30322265625]]], [[[-124.87192, 45.82493, -7054.1162109375], [-124.87437, 45.82101, -6201.30322265625], [-124.87638, 45.81586, -6948.1904296875], [-124.87192, 45.82493, -7054.1162109375]]], [[[-124.87192, 45.82493, -7054.1162109375], [-124.87501, 45.81996, -7838.8984375], [-124.86942, 45.82839, -8069.66015625], [-124.87192, 45.82493, -7054.1162109375]]], [[[-124.87501, 45.81996, -7838.8984375], [-124.87272, 45.82365, -8742.849609375], [-124.86942, 45.82839, -8069.66015625], [-124.87501, 45.81996, -7838.8984375]]], [[[-124.87638, 45.81586, -6948.1904296875], [-124.878, 45.81099, -7787.3369140625], [-124.87501, 45.81996, -7838.8984375], [-124.87638, 45.81586, -6948.1904296875]]], [[[-124.87638, 45.81586, -6948.1904296875], [-124.8793, 45.80709, -6898.85546875], [-124.878, 45.81099, -7787.3369140625], [-124.87638, 45.81586, -6948.1904296875]]], [[[-124.87638, 45.81586, -6948.1904296875], [-124.87773, 45.8118, -6122.69189453125], [-124.8793, 45.80709, -6898.85546875], [-124.87638, 45.81586, -6948.1904296875]]], [[[-124.87773, 45.8118, -6122.69189453125], [-124.87638, 45.81586, -6948.1904296875], [-124.87437, 45.82101, -6201.30322265625], [-124.87773, 45.8118, -6122.69189453125]]], [[[-124.87622, 45.81634, -5449.5556640625], [-124.87773, 45.8118, -6122.69189453125], [-124.87437, 45.82101, -6201.30322265625], [-124.87622, 45.81634, -5449.5556640625]]], [[[-124.87622, 45.81634, -5449.5556640625], [-124.87892, 45.80825, -5276.39501953125], [-124.87773, 45.8118, -6122.69189453125], [-124.87622, 45.81634, -5449.5556640625]]], [[[-124.87892, 45.80825, -5276.39501953125], [-124.87776, 45.81173, -4608.9267578125], [-124.88087, 45.80238, -4810.1484375], [-124.87892, 45.80825, -5276.39501953125]]], [[[-124.87892, 45.80825, -5276.39501953125], [-124.88087, 45.80238, -4810.1484375], [-124.88052, 45.80344, -5958.71875], [-124.87892, 45.80825, -5276.39501953125]]], [[[-124.87892, 45.80825, -5276.39501953125], [-124.88052, 45.80344, -5958.71875], [-124.87773, 45.8118, -6122.69189453125], [-124.87892, 45.80825, -5276.39501953125]]], [[[-124.88052, 45.80344, -5958.71875], [-124.8793, 45.80709, -6898.85546875], [-124.87773, 45.8118, -6122.69189453125], [-124.88052, 45.80344, -5958.71875]]], [[[-124.88573, 45.79569, -5776.63427734375], [-124.8832, 45.79907, -6817.20458984375], [-124.88052, 45.80344, -5958.71875], [-124.88573, 45.79569, -5776.63427734375]]], [[[-124.88573, 45.79569, -5776.63427734375], [-124.88946, 45.79184, -6760.6806640625], [-124.8832, 45.79907, -6817.20458984375], [-124.88573, 45.79569, -5776.63427734375]]], [[[-124.88573, 45.79569, -5776.63427734375], [-124.89319, 45.78858, -5895.21337890625], [-124.88946, 45.79184, -6760.6806640625], [-124.88573, 45.79569, -5776.63427734375]]], [[[-124.88573, 45.79569, -5776.63427734375], [-124.89255, 45.78915, -4920.4208984375], [-124.89319, 45.78858, -5895.21337890625], [-124.88573, 45.79569, -5776.63427734375]]], [[[-124.88573, 45.79569, -5776.63427734375], [-124.88087, 45.80238, -4810.1484375], [-124.88598, 45.79537, -4803.716796875], [-124.88573, 45.79569, -5776.63427734375]]], [[[-124.88087, 45.80238, -4810.1484375], [-124.88573, 45.79569, -5776.63427734375], [-124.88052, 45.80344, -5958.71875], [-124.88087, 45.80238, -4810.1484375]]], [[[-124.88349, 45.79868, -3885.665283203125], [-124.88087, 45.80238, -4810.1484375], [-124.87936, 45.80692, -3831.168212890625], [-124.88349, 45.79868, -3885.665283203125]]], [[[-124.88349, 45.79868, -3885.665283203125], [-124.87936, 45.80692, -3831.168212890625], [-124.88094, 45.80217, -2993.30029296875], [-124.88349, 45.79868, -3885.665283203125]]], [[[-124.88349, 45.79868, -3885.665283203125], [-124.88094, 45.80217, -2993.30029296875], [-124.88668, 45.79442, -3048.802490234375], [-124.88349, 45.79868, -3885.665283203125]]], [[[-124.87936, 45.80692, -3831.168212890625], [-124.87806, 45.81083, -2939.54345703125], [-124.88094, 45.80217, -2993.30029296875], [-124.87936, 45.80692, -3831.168212890625]]], [[[-124.88087, 45.80238, -4810.1484375], [-124.87776, 45.81173, -4608.9267578125], [-124.87936, 45.80692, -3831.168212890625], [-124.88087, 45.80238, -4810.1484375]]], [[[-124.89319, 45.78858, -5895.21337890625], [-124.89255, 45.78915, -4920.4208984375], [-124.89964, 45.78391, -5328.546875], [-124.89319, 45.78858, -5895.21337890625]]], [[[-124.89319, 45.78858, -5895.21337890625], [-124.89964, 45.78391, -5328.546875], [-124.89861, 45.78459, -6571.36474609375], [-124.89319, 45.78858, -5895.21337890625]]], [[[-124.89319, 45.78858, -5895.21337890625], [-124.89861, 45.78459, -6571.36474609375], [-124.88946, 45.79184, -6760.6806640625], [-124.89319, 45.78858, -5895.21337890625]]], [[[-124.89463, 45.78733, -7544.3046875], [-124.88946, 45.79184, -6760.6806640625], [-124.89861, 45.78459, -6571.36474609375], [-124.89463, 45.78733, -7544.3046875]]], [[[-124.88946, 45.79184, -6760.6806640625], [-124.89463, 45.78733, -7544.3046875], [-124.88637, 45.79483, -7674.21044921875], [-124.88946, 45.79184, -6760.6806640625]]], [[[-124.8832, 45.79907, -6817.20458984375], [-124.88946, 45.79184, -6760.6806640625], [-124.88637, 45.79483, -7674.21044921875], [-124.8832, 45.79907, -6817.20458984375]]], [[[-124.8832, 45.79907, -6817.20458984375], [-124.88637, 45.79483, -7674.21044921875], [-124.88085, 45.80246, -7740.41455078125], [-124.8832, 45.79907, -6817.20458984375]]], [[[-124.8793, 45.80709, -6898.85546875], [-124.8832, 45.79907, -6817.20458984375], [-124.88085, 45.80246, -7740.41455078125], [-124.8793, 45.80709, -6898.85546875]]], [[[-124.8793, 45.80709, -6898.85546875], [-124.88085, 45.80246, -7740.41455078125], [-124.878, 45.81099, -7787.3369140625], [-124.8793, 45.80709, -6898.85546875]]], [[[-124.87523, 45.81931, -2901.449951171875], [-124.87301, 45.82318, -2020.0362548828125], [-124.87675, 45.81475, -2051.705810546875], [-124.87523, 45.81931, -2901.449951171875]]], [[[-124.87523, 45.81931, -2901.449951171875], [-124.87024, 45.82762, -2866.088623046875], [-124.87301, 45.82318, -2020.0362548828125], [-124.87523, 45.81931, -2901.449951171875]]], [[[-124.90754, 45.77864, -3820.839111328125], [-124.91463, 45.77411, -3220.507568359375], [-124.91534, 45.77372, -4247.673828125], [-124.90754, 45.77864, -3820.839111328125]]], [[[-124.87024, 45.82762, -2866.088623046875], [-124.86525, 45.83117, -3693.720703125], [-124.86099, 45.83401, -2818.36669921875], [-124.87024, 45.82762, -2866.088623046875]]], [[[-124.87024, 45.82762, -2866.088623046875], [-124.86099, 45.83401, -2818.36669921875], [-124.86603, 45.83064, -1981.359130859375], [-124.87024, 45.82762, -2866.088623046875]]], [[[-124.86099, 45.83401, -2818.36669921875], [-124.85828, 45.83763, -1931.065673828125], [-124.86603, 45.83064, -1981.359130859375], [-124.86099, 45.83401, -2818.36669921875]]], [[[-124.86099, 45.83401, -2818.36669921875], [-124.855, 45.842, -2767.495849609375], [-124.85828, 45.83763, -1931.065673828125], [-124.86099, 45.83401, -2818.36669921875]]], [[[-124.86099, 45.83401, -2818.36669921875], [-124.85773, 45.83835, -3661.048095703125], [-124.855, 45.842, -2767.495849609375], [-124.86099, 45.83401, -2818.36669921875]]], [[[-124.85773, 45.83835, -3661.048095703125], [-124.86099, 45.83401, -2818.36669921875], [-124.86525, 45.83117, -3693.720703125], [-124.85773, 45.83835, -3661.048095703125]]], [[[-124.86052, 45.83464, -4549.2919921875], [-124.85773, 45.83835, -3661.048095703125], [-124.86525, 45.83117, -3693.720703125], [-124.86052, 45.83464, -4549.2919921875]]], [[[-124.86052, 45.83464, -4549.2919921875], [-124.85447, 45.84285, -4493.23681640625], [-124.85773, 45.83835, -3661.048095703125], [-124.86052, 45.83464, -4549.2919921875]]], [[[-124.85447, 45.84285, -4493.23681640625], [-124.86052, 45.83464, -4549.2919921875], [-124.8571, 45.8392, -5398.02197265625], [-124.85447, 45.84285, -4493.23681640625]]], [[[-124.85162, 45.84741, -5387.068359375], [-124.85447, 45.84285, -4493.23681640625], [-124.8571, 45.8392, -5398.02197265625], [-124.85162, 45.84741, -5387.068359375]]], [[[-124.85162, 45.84741, -5387.068359375], [-124.84945, 45.85099, -4434.91796875], [-124.85447, 45.84285, -4493.23681640625], [-124.85162, 45.84741, -5387.068359375]]], [[[-124.84686, 45.85565, -5389.45361328125], [-124.84945, 45.85099, -4434.91796875], [-124.85162, 45.84741, -5387.068359375], [-124.84686, 45.85565, -5389.45361328125]]], [[[-124.84686, 45.85565, -5389.45361328125], [-124.84493, 45.85918, -4419.37353515625], [-124.84945, 45.85099, -4434.91796875], [-124.84686, 45.85565, -5389.45361328125]]], [[[-124.84945, 45.85099, -4434.91796875], [-124.84493, 45.85918, -4419.37353515625], [-124.84741, 45.85467, -3543.5341796875], [-124.84945, 45.85099, -4434.91796875]]], [[[-124.84945, 45.85099, -4434.91796875], [-124.84741, 45.85467, -3543.5341796875], [-124.85214, 45.84657, -3596.8505859375], [-124.84945, 45.85099, -4434.91796875]]], [[[-124.85447, 45.84285, -4493.23681640625], [-124.84945, 45.85099, -4434.91796875], [-124.85214, 45.84657, -3596.8505859375], [-124.85447, 45.84285, -4493.23681640625]]], [[[-124.85447, 45.84285, -4493.23681640625], [-124.85214, 45.84657, -3596.8505859375], [-124.85773, 45.83835, -3661.048095703125], [-124.85447, 45.84285, -4493.23681640625]]], [[[-124.85214, 45.84657, -3596.8505859375], [-124.855, 45.842, -2767.495849609375], [-124.85773, 45.83835, -3661.048095703125], [-124.85214, 45.84657, -3596.8505859375]]], [[[-124.855, 45.842, -2767.495849609375], [-124.85214, 45.84657, -3596.8505859375], [-124.84988, 45.85021, -2701.8271484375], [-124.855, 45.842, -2767.495849609375]]], [[[-124.855, 45.842, -2767.495849609375], [-124.84988, 45.85021, -2701.8271484375], [-124.85268, 45.84571, -1874.5208740234375], [-124.855, 45.842, -2767.495849609375]]], [[[-124.855, 45.842, -2767.495849609375], [-124.85268, 45.84571, -1874.5208740234375], [-124.85828, 45.83763, -1931.065673828125], [-124.855, 45.842, -2767.495849609375]]], [[[-124.84988, 45.85021, -2701.8271484375], [-124.84782, 45.85393, -1815.927734375], [-124.85268, 45.84571, -1874.5208740234375], [-124.84988, 45.85021, -2701.8271484375]]], [[[-124.84988, 45.85021, -2701.8271484375], [-124.84532, 45.85843, -2655.151611328125], [-124.84782, 45.85393, -1815.927734375], [-124.84988, 45.85021, -2701.8271484375]]], [[[-124.84741, 45.85467, -3543.5341796875], [-124.84532, 45.85843, -2655.151611328125], [-124.84988, 45.85021, -2701.8271484375], [-124.84741, 45.85467, -3543.5341796875]]], [[[-124.8435, 45.863, -3497.42236328125], [-124.84532, 45.85843, -2655.151611328125], [-124.84741, 45.85467, -3543.5341796875], [-124.8435, 45.863, -3497.42236328125]]], [[[-124.8435, 45.863, -3497.42236328125], [-124.84204, 45.86689, -2609.5390625], [-124.84532, 45.85843, -2655.151611328125], [-124.8435, 45.863, -3497.42236328125]]], [[[-124.84006, 45.87137, -3456.60009765625], [-124.84204, 45.86689, -2609.5390625], [-124.8435, 45.863, -3497.42236328125], [-124.84006, 45.87137, -3456.60009765625]]], [[[-124.84006, 45.87137, -3456.60009765625], [-124.83831, 45.8753, -2572.827392578125], [-124.84204, 45.86689, -2609.5390625], [-124.84006, 45.87137, -3456.60009765625]]], [[[-124.83571, 45.87967, -3419.21484375], [-124.83831, 45.8753, -2572.827392578125], [-124.84006, 45.87137, -3456.60009765625], [-124.83571, 45.87967, -3419.21484375]]], [[[-124.83571, 45.87967, -3419.21484375], [-124.83334, 45.88346, -2534.8349609375], [-124.83831, 45.8753, -2572.827392578125], [-124.83571, 45.87967, -3419.21484375]]], [[[-124.8307, 45.88767, -3390.362548828125], [-124.83334, 45.88346, -2534.8349609375], [-124.83571, 45.87967, -3419.21484375], [-124.8307, 45.88767, -3390.362548828125]]], [[[-124.8307, 45.88767, -3390.362548828125], [-124.82826, 45.89159, -2514.21826171875], [-124.83334, 45.88346, -2534.8349609375], [-124.8307, 45.88767, -3390.362548828125]]], [[[-124.82485, 45.8956, -3365.57666015625], [-124.82826, 45.89159, -2514.21826171875], [-124.8307, 45.88767, -3390.362548828125], [-124.82485, 45.8956, -3365.57666015625]]], [[[-124.82485, 45.8956, -3365.57666015625], [-124.82171, 45.89919, -2485.611572265625], [-124.82826, 45.89159, -2514.21826171875], [-124.82485, 45.8956, -3365.57666015625]]], [[[-124.81796, 45.90304, -3333.22216796875], [-124.82171, 45.89919, -2485.611572265625], [-124.82485, 45.8956, -3365.57666015625], [-124.81796, 45.90304, -3333.22216796875]]], [[[-124.81796, 45.90304, -3333.22216796875], [-124.81445, 45.90655, -2462.0322265625], [-124.82171, 45.89919, -2485.611572265625], [-124.81796, 45.90304, -3333.22216796875]]], [[[-124.81067, 45.91033, -3320.124755859375], [-124.81445, 45.90655, -2462.0322265625], [-124.81796, 45.90304, -3333.22216796875], [-124.81067, 45.91033, -3320.124755859375]]], [[[-124.81067, 45.91033, -3320.124755859375], [-124.80708, 45.91392, -2446.56982421875], [-124.81445, 45.90655, -2462.0322265625], [-124.81067, 45.91033, -3320.124755859375]]], [[[-124.80262, 45.91753, -3297.816162109375], [-124.80708, 45.91392, -2446.56982421875], [-124.81067, 45.91033, -3320.124755859375], [-124.80262, 45.91753, -3297.816162109375]]], [[[-124.80708, 45.91392, -2446.56982421875], [-124.80262, 45.91753, -3297.816162109375], [-124.79848, 45.92064, -2412.7490234375], [-124.80708, 45.91392, -2446.56982421875]]], [[[-124.80708, 45.91392, -2446.56982421875], [-124.79848, 45.92064, -2412.7490234375], [-124.80308, 45.91719, -1566.98779296875], [-124.80708, 45.91392, -2446.56982421875]]], [[[-124.80708, 45.91392, -2446.56982421875], [-124.80308, 45.91719, -1566.98779296875], [-124.81093, 45.91007, -1592.538818359375], [-124.80708, 45.91392, -2446.56982421875]]], [[[-124.81445, 45.90655, -2462.0322265625], [-124.80708, 45.91392, -2446.56982421875], [-124.81093, 45.91007, -1592.538818359375], [-124.81445, 45.90655, -2462.0322265625]]], [[[-124.81445, 45.90655, -2462.0322265625], [-124.81093, 45.91007, -1592.538818359375], [-124.81825, 45.90275, -1614.0283203125], [-124.81445, 45.90655, -2462.0322265625]]], [[[-124.82171, 45.89919, -2485.611572265625], [-124.81445, 45.90655, -2462.0322265625], [-124.81825, 45.90275, -1614.0283203125], [-124.82171, 45.89919, -2485.611572265625]]], [[[-124.82171, 45.89919, -2485.611572265625], [-124.81825, 45.90275, -1614.0283203125], [-124.82517, 45.89523, -1635.9112548828125], [-124.82171, 45.89919, -2485.611572265625]]], [[[-124.82826, 45.89159, -2514.21826171875], [-124.82171, 45.89919, -2485.611572265625], [-124.82517, 45.89523, -1635.9112548828125], [-124.82826, 45.89159, -2514.21826171875]]], [[[-124.82826, 45.89159, -2514.21826171875], [-124.82517, 45.89523, -1635.9112548828125], [-124.83091, 45.88734, -1661.036376953125], [-124.82826, 45.89159, -2514.21826171875]]], [[[-124.83334, 45.88346, -2534.8349609375], [-124.82826, 45.89159, -2514.21826171875], [-124.83091, 45.88734, -1661.036376953125], [-124.83334, 45.88346, -2534.8349609375]]], [[[-124.83334, 45.88346, -2534.8349609375], [-124.83091, 45.88734, -1661.036376953125], [-124.83603, 45.87916, -1690.7366943359375], [-124.83334, 45.88346, -2534.8349609375]]], [[[-124.83831, 45.8753, -2572.827392578125], [-124.83334, 45.88346, -2534.8349609375], [-124.83603, 45.87916, -1690.7366943359375], [-124.83831, 45.8753, -2572.827392578125]]], [[[-124.83831, 45.8753, -2572.827392578125], [-124.83603, 45.87916, -1690.7366943359375], [-124.84031, 45.87081, -1723.8397216796875], [-124.83831, 45.8753, -2572.827392578125]]], [[[-124.84204, 45.86689, -2609.5390625], [-124.83831, 45.8753, -2572.827392578125], [-124.84031, 45.87081, -1723.8397216796875], [-124.84204, 45.86689, -2609.5390625]]], [[[-124.84204, 45.86689, -2609.5390625], [-124.84031, 45.87081, -1723.8397216796875], [-124.84377, 45.86229, -1764.6781005859375], [-124.84204, 45.86689, -2609.5390625]]], [[[-124.84532, 45.85843, -2655.151611328125], [-124.84204, 45.86689, -2609.5390625], [-124.84377, 45.86229, -1764.6781005859375], [-124.84532, 45.85843, -2655.151611328125]]], [[[-124.84532, 45.85843, -2655.151611328125], [-124.84377, 45.86229, -1764.6781005859375], [-124.84782, 45.85393, -1815.927734375], [-124.84532, 45.85843, -2655.151611328125]]], [[[-124.79848, 45.92064, -2412.7490234375], [-124.79442, 45.92379, -1535.9515380859375], [-124.80308, 45.91719, -1566.98779296875], [-124.79848, 45.92064, -2412.7490234375]]], [[[-124.79364, 45.92439, -3305.7060546875], [-124.78989, 45.92731, -2380.346435546875], [-124.79848, 45.92064, -2412.7490234375], [-124.79364, 45.92439, -3305.7060546875]]], [[[-124.79364, 45.92439, -3305.7060546875], [-124.79848, 45.92064, -2412.7490234375], [-124.80262, 45.91753, -3297.816162109375], [-124.79364, 45.92439, -3305.7060546875]]], [[[-124.79756, 45.92134, -4148.01513671875], [-124.79364, 45.92439, -3305.7060546875], [-124.80262, 45.91753, -3297.816162109375], [-124.79756, 45.92134, -4148.01513671875]]], [[[-124.79756, 45.92134, -4148.01513671875], [-124.78742, 45.92923, -4310.30908203125], [-124.79364, 45.92439, -3305.7060546875], [-124.79756, 45.92134, -4148.01513671875]]], [[[-124.79293, 45.92495, -4966.18701171875], [-124.78742, 45.92923, -4310.30908203125], [-124.79756, 45.92134, -4148.01513671875], [-124.79293, 45.92495, -4966.18701171875]]], [[[-124.79293, 45.92495, -4966.18701171875], [-124.78756, 45.92912, -5636.74609375], [-124.78742, 45.92923, -4310.30908203125], [-124.79293, 45.92495, -4966.18701171875]]], [[[-124.7991, 45.92017, -5701.80810546875], [-124.78756, 45.92912, -5636.74609375], [-124.79293, 45.92495, -4966.18701171875], [-124.7991, 45.92017, -5701.80810546875]]], [[[-124.7991, 45.92017, -5701.80810546875], [-124.79498, 45.92335, -6524.33984375], [-124.78756, 45.92912, -5636.74609375], [-124.7991, 45.92017, -5701.80810546875]]], [[[-124.80572, 45.91521, -6363.1923828125], [-124.79498, 45.92335, -6524.33984375], [-124.7991, 45.92017, -5701.80810546875], [-124.80572, 45.91521, -6363.1923828125]]], [[[-124.80677, 45.91423, -4174.78759765625], [-124.79756, 45.92134, -4148.01513671875], [-124.80262, 45.91753, -3297.816162109375], [-124.80677, 45.91423, -4174.78759765625]]], [[[-124.80677, 45.91423, -4174.78759765625], [-124.80262, 45.91753, -3297.816162109375], [-124.81067, 45.91033, -3320.124755859375], [-124.80677, 45.91423, -4174.78759765625]]], [[[-124.81408, 45.90692, -4232.86865234375], [-124.80677, 45.91423, -4174.78759765625], [-124.81067, 45.91033, -3320.124755859375], [-124.81408, 45.90692, -4232.86865234375]]], [[[-124.81408, 45.90692, -4232.86865234375], [-124.81067, 45.91033, -3320.124755859375], [-124.81796, 45.90304, -3333.22216796875], [-124.81408, 45.90692, -4232.86865234375]]], [[[-124.84493, 45.85918, -4419.37353515625], [-124.8435, 45.863, -3497.42236328125], [-124.84741, 45.85467, -3543.5341796875], [-124.84493, 45.85918, -4419.37353515625]]], [[[-124.84741, 45.85467, -3543.5341796875], [-124.84988, 45.85021, -2701.8271484375], [-124.85214, 45.84657, -3596.8505859375], [-124.84741, 45.85467, -3543.5341796875]]], [[[-124.82136, 45.89959, -6120.99755859375], [-124.81744, 45.90356, -5175.3671875], [-124.82454, 45.89596, -5137.22216796875], [-124.82136, 45.89959, -6120.99755859375]]], [[[-124.82136, 45.89959, -6120.99755859375], [-124.82454, 45.89596, -5137.22216796875], [-124.82832, 45.89149, -6045.1025390625], [-124.82136, 45.89959, -6120.99755859375]]], [[[-124.82136, 45.89959, -6120.99755859375], [-124.82832, 45.89149, -6045.1025390625], [-124.8256, 45.89475, -6956.365234375], [-124.82136, 45.89959, -6120.99755859375]]], [[[-124.82136, 45.89959, -6120.99755859375], [-124.8256, 45.89475, -6956.365234375], [-124.81831, 45.90269, -7084.4560546875], [-124.82136, 45.89959, -6120.99755859375]]], [[[-124.8256, 45.89475, -6956.365234375], [-124.82276, 45.89798, -7866.697265625], [-124.81831, 45.90269, -7084.4560546875], [-124.8256, 45.89475, -6956.365234375]]], [[[-124.82276, 45.89798, -7866.697265625], [-124.8256, 45.89475, -6956.365234375], [-124.82934, 45.88986, -7746.736328125], [-124.82276, 45.89798, -7866.697265625]]], [[[-124.82276, 45.89798, -7866.697265625], [-124.82934, 45.88986, -7746.736328125], [-124.82694, 45.89321, -8661.8544921875], [-124.82276, 45.89798, -7866.697265625]]], [[[-124.82276, 45.89798, -7866.697265625], [-124.82694, 45.89321, -8661.8544921875], [-124.81993, 45.90107, -8790.28125], [-124.82276, 45.89798, -7866.697265625]]], [[[-124.82934, 45.88986, -7746.736328125], [-124.83243, 45.88491, -8554.0068359375], [-124.82694, 45.89321, -8661.8544921875], [-124.82934, 45.88986, -7746.736328125]]], [[[-124.82934, 45.88986, -7746.736328125], [-124.83459, 45.88145, -7643.30224609375], [-124.83243, 45.88491, -8554.0068359375], [-124.82934, 45.88986, -7746.736328125]]], [[[-124.82934, 45.88986, -7746.736328125], [-124.83152, 45.88637, -6833.41552734375], [-124.83459, 45.88145, -7643.30224609375], [-124.82934, 45.88986, -7746.736328125]]], [[[-124.83152, 45.88637, -6833.41552734375], [-124.82934, 45.88986, -7746.736328125], [-124.8256, 45.89475, -6956.365234375], [-124.83152, 45.88637, -6833.41552734375]]], [[[-124.82832, 45.89149, -6045.1025390625], [-124.83152, 45.88637, -6833.41552734375], [-124.8256, 45.89475, -6956.365234375], [-124.82832, 45.89149, -6045.1025390625]]], [[[-124.82832, 45.89149, -6045.1025390625], [-124.83369, 45.88289, -5937.6220703125], [-124.83152, 45.88637, -6833.41552734375], [-124.82832, 45.89149, -6045.1025390625]]], [[[-124.83369, 45.88289, -5937.6220703125], [-124.82832, 45.89149, -6045.1025390625], [-124.83041, 45.88815, -5119.765625], [-124.83369, 45.88289, -5937.6220703125]]], [[[-124.83369, 45.88289, -5937.6220703125], [-124.83041, 45.88815, -5119.765625], [-124.83546, 45.88007, -5135.4609375], [-124.83369, 45.88289, -5937.6220703125]]], [[[-124.83887, 45.87404, -5845.49951171875], [-124.83369, 45.88289, -5937.6220703125], [-124.83546, 45.88007, -5135.4609375], [-124.83887, 45.87404, -5845.49951171875]]], [[[-124.83369, 45.88289, -5937.6220703125], [-124.83887, 45.87404, -5845.49951171875], [-124.83683, 45.87788, -6734.259765625], [-124.83369, 45.88289, -5937.6220703125]]], [[[-124.83369, 45.88289, -5937.6220703125], [-124.83683, 45.87788, -6734.259765625], [-124.83152, 45.88637, -6833.41552734375], [-124.83369, 45.88289, -5937.6220703125]]], [[[-124.83683, 45.87788, -6734.259765625], [-124.83459, 45.88145, -7643.30224609375], [-124.83152, 45.88637, -6833.41552734375], [-124.83683, 45.87788, -6734.259765625]]], [[[-124.83459, 45.88145, -7643.30224609375], [-124.83683, 45.87788, -6734.259765625], [-124.83939, 45.87288, -7550.13330078125], [-124.83459, 45.88145, -7643.30224609375]]], [[[-124.83459, 45.88145, -7643.30224609375], [-124.83939, 45.87288, -7550.13330078125], [-124.83762, 45.87661, -8456.5966796875], [-124.83459, 45.88145, -7643.30224609375]]], [[[-124.83459, 45.88145, -7643.30224609375], [-124.83762, 45.87661, -8456.5966796875], [-124.83243, 45.88491, -8554.0068359375], [-124.83459, 45.88145, -7643.30224609375]]], [[[-124.83887, 45.87404, -5845.49951171875], [-124.83546, 45.88007, -5135.4609375], [-124.83984, 45.87185, -5100.212890625], [-124.83887, 45.87404, -5845.49951171875]]], [[[-124.83041, 45.88815, -5119.765625], [-124.82832, 45.89149, -6045.1025390625], [-124.82454, 45.89596, -5137.22216796875], [-124.83041, 45.88815, -5119.765625]]], [[[-124.77145, 45.9407, -2390.27099609375], [-124.77766, 45.93656, -3106.6787109375], [-124.77038, 45.94137, -3566.036376953125], [-124.77145, 45.9407, -2390.27099609375]]], [[[-124.9086, 45.77793, -2371.79541015625], [-124.90465, 45.78057, -1473.83154296875], [-124.91394, 45.77449, -1555.29541015625], [-124.9086, 45.77793, -2371.79541015625]]], [[[-124.754, 45.952, -10780.224609375], [-124.76305, 45.94577, -11647.3115234375], [-124.754, 45.952, -11807.1640625], [-124.754, 45.952, -10780.224609375]]], [[[-124.7661, 45.94394, -10761.9794921875], [-124.76305, 45.94577, -11647.3115234375], [-124.754, 45.952, -10780.224609375], [-124.7661, 45.94394, -10761.9794921875]]], [[[-124.76119, 45.94689, -10181.7890625], [-124.7661, 45.94394, -10761.9794921875], [-124.754, 45.952, -10780.224609375], [-124.76119, 45.94689, -10181.7890625]]]]}}]}