{"type": "FeatureCollection", "features": [{"type": "Feature", "properties": {"name": "AW_NORE_24", "CFM_ID": 236, "region": "Offshore_WAOR", "primary_state/province": "OR", "secondary_state/province": null, "avg_dip": 90.0, "dip_dir": "vertical", "rake": 180, "slip_sense": "Dextral", "fault_level": 1, "NSHM23_sliprates": null, "QFFDAgeCatBin": null, "QFFDAgeBin": null, "upper_depth": -0.6, "upper_depth_constraint": "bathymetry", "lower_depth": -11.4, "lower_depth_constraint": "megathrust", "3D_model_constraints": "trace extended at constant dip", "reference": "Lucas et al. (2025); Balster-Gee et al. (2023)", "nshm23_id": null, "lineage": null, "usgs_qffd_#": null, "comments": "vergence from USGS sparker line", "id": "236"}, "geometry": {"type": "MultiPolygon", "coordinates": [[[[-124.77013, 45.24379, -9549.296875], [-124.771, 45.236, -8898.8505859375], [-124.771, 45.236, -9928.650390625], [-124.77013, 45.24379, -9549.296875]]], [[[-124.77014, 45.24377, -8383.9501953125], [-124.771, 45.236, -8898.8505859375], [-124.77013, 45.24379, -9549.296875], [-124.77014, 45.24377, -8383.9501953125]]], [[[-124.77014, 45.24377, -8383.9501953125], [-124.771, 45.236, -7869.0498046875], [-124.771, 45.236, -8898.8505859375], [-124.77014, 45.24377, -8383.9501953125]]], [[[-124.77014, 45.24377, -7354.1494140625], [-124.771, 45.236, -7869.0498046875], [-124.77014, 45.24377, -8383.9501953125], [-124.77014, 45.24377, -7354.1494140625]]], [[[-124.77014, 45.24377, -7354.1494140625], [-124.771, 45.236, -6839.2490234375], [-124.771, 45.236, -7869.0498046875], [-124.77014, 45.24377, -7354.1494140625]]], [[[-124.77014, 45.24377, -7354.1494140625], [-124.77014, 45.24377, -6324.3486328125], [-124.771, 45.236, -6839.2490234375], [-124.77014, 45.24377, -7354.1494140625]]], [[[-124.77014, 45.24377, -6324.3486328125], [-124.77014, 45.24377, -7354.1494140625], [-124.76625, 45.251, -6839.2490234375], [-124.77014, 45.24377, -6324.3486328125]]], [[[-124.76625, 45.251, -5809.44873046875], [-124.77014, 45.24377, -6324.3486328125], [-124.76625, 45.251, -6839.2490234375], [-124.76625, 45.251, -5809.44873046875]]], [[[-124.77014, 45.24377, -6324.3486328125], [-124.76625, 45.251, -5809.44873046875], [-124.77014, 45.24377, -5294.54833984375], [-124.77014, 45.24377, -6324.3486328125]]], [[[-124.77014, 45.24377, -6324.3486328125], [-124.77014, 45.24377, -5294.54833984375], [-124.771, 45.236, -5809.44873046875], [-124.77014, 45.24377, -6324.3486328125]]], [[[-124.77014, 45.24377, -6324.3486328125], [-124.771, 45.236, -5809.44873046875], [-124.771, 45.236, -6839.2490234375], [-124.77014, 45.24377, -6324.3486328125]]], [[[-124.77014, 45.24377, -5294.54833984375], [-124.771, 45.236, -4779.64794921875], [-124.771, 45.236, -5809.44873046875], [-124.77014, 45.24377, -5294.54833984375]]], [[[-124.77014, 45.24377, -5294.54833984375], [-124.77014, 45.24377, -4264.74755859375], [-124.771, 45.236, -4779.64794921875], [-124.77014, 45.24377, -5294.54833984375]]], [[[-124.76625, 45.251, -4779.64794921875], [-124.77014, 45.24377, -4264.74755859375], [-124.77014, 45.24377, -5294.54833984375], [-124.76625, 45.251, -4779.64794921875]]], [[[-124.76625, 45.251, -4779.64794921875], [-124.76624, 45.25101, -3741.713623046875], [-124.77014, 45.24377, -4264.74755859375], [-124.76625, 45.251, -4779.64794921875]]], [[[-124.76187, 45.258, -4270.4833984375], [-124.76624, 45.25101, -3741.713623046875], [-124.76625, 45.251, -4779.64794921875], [-124.76187, 45.258, -4270.4833984375]]], [[[-124.76187, 45.258, -4270.4833984375], [-124.76167, 45.25832, -3273.179443359375], [-124.76624, 45.25101, -3741.713623046875], [-124.76187, 45.258, -4270.4833984375]]], [[[-124.75778, 45.26499, -4020.968994140625], [-124.76167, 45.25832, -3273.179443359375], [-124.76187, 45.258, -4270.4833984375], [-124.75778, 45.26499, -4020.968994140625]]], [[[-124.76167, 45.25832, -3273.179443359375], [-124.75778, 45.26499, -4020.968994140625], [-124.75703, 45.26634, -3196.906005859375], [-124.76167, 45.25832, -3273.179443359375]]], [[[-124.75703, 45.26634, -3196.906005859375], [-124.75981, 45.26134, -2345.974609375], [-124.76167, 45.25832, -3273.179443359375], [-124.75703, 45.26634, -3196.906005859375]]], [[[-124.75703, 45.26634, -3196.906005859375], [-124.75483, 45.27026, -2315.132568359375], [-124.75981, 45.26134, -2345.974609375], [-124.75703, 45.26634, -3196.906005859375]]], [[[-124.75483, 45.27026, -2315.132568359375], [-124.75703, 45.26634, -3196.906005859375], [-124.75244, 45.2741, -3141.735595703125], [-124.75483, 45.27026, -2315.132568359375]]], [[[-124.75244, 45.2741, -3141.735595703125], [-124.7493, 45.28009, -2450.1748046875], [-124.75483, 45.27026, -2315.132568359375], [-124.75244, 45.2741, -3141.735595703125]]], [[[-124.7493, 45.28009, -2450.1748046875], [-124.75244, 45.2741, -3141.735595703125], [-124.74903, 45.2809, -3537.460693359375], [-124.7493, 45.28009, -2450.1748046875]]], [[[-124.7493, 45.28009, -2450.1748046875], [-124.74903, 45.2809, -3537.460693359375], [-124.74655, 45.28836, -3028.115966796875], [-124.7493, 45.28009, -2450.1748046875]]], [[[-124.7493, 45.28009, -2450.1748046875], [-124.74655, 45.28836, -3028.115966796875], [-124.74651, 45.28846, -1947.251953125], [-124.7493, 45.28009, -2450.1748046875]]], [[[-124.74848, 45.28257, -1437.1402587890625], [-124.7493, 45.28009, -2450.1748046875], [-124.74651, 45.28846, -1947.251953125], [-124.74848, 45.28257, -1437.1402587890625]]], [[[-124.7493, 45.28009, -2450.1748046875], [-124.74848, 45.28257, -1437.1402587890625], [-124.75226, 45.27439, -1476.1815185546875], [-124.7493, 45.28009, -2450.1748046875]]], [[[-124.75483, 45.27026, -2315.132568359375], [-124.7493, 45.28009, -2450.1748046875], [-124.75226, 45.27439, -1476.1815185546875], [-124.75483, 45.27026, -2315.132568359375]]], [[[-124.75483, 45.27026, -2315.132568359375], [-124.75226, 45.27439, -1476.1815185546875], [-124.75735, 45.26576, -1444.1263427734375], [-124.75483, 45.27026, -2315.132568359375]]], [[[-124.75483, 45.27026, -2315.132568359375], [-124.75735, 45.26576, -1444.1263427734375], [-124.75981, 45.26134, -2345.974609375], [-124.75483, 45.27026, -2315.132568359375]]], [[[-124.75735, 45.26576, -1444.1263427734375], [-124.76248, 45.25703, -1535.716796875], [-124.75981, 45.26134, -2345.974609375], [-124.75735, 45.26576, -1444.1263427734375]]], [[[-124.75735, 45.26576, -1444.1263427734375], [-124.75966, 45.26161, -567.6162719726562], [-124.76248, 45.25703, -1535.716796875], [-124.75735, 45.26576, -1444.1263427734375]]], [[[-124.75735, 45.26576, -1444.1263427734375], [-124.75497, 45.27004, -576.447509765625], [-124.75966, 45.26161, -567.6162719726562], [-124.75735, 45.26576, -1444.1263427734375]]], [[[-124.75735, 45.26576, -1444.1263427734375], [-124.75226, 45.27439, -1476.1815185546875], [-124.75497, 45.27004, -576.447509765625], [-124.75735, 45.26576, -1444.1263427734375]]], [[[-124.75226, 45.27439, -1476.1815185546875], [-124.74988, 45.27836, -570.2591552734375], [-124.75497, 45.27004, -576.447509765625], [-124.75226, 45.27439, -1476.1815185546875]]], [[[-124.74848, 45.28257, -1437.1402587890625], [-124.74988, 45.27836, -570.2591552734375], [-124.75226, 45.27439, -1476.1815185546875], [-124.74848, 45.28257, -1437.1402587890625]]], [[[-124.74848, 45.28257, -1437.1402587890625], [-124.74694, 45.28718, -568.1278076171875], [-124.74988, 45.27836, -570.2591552734375], [-124.74848, 45.28257, -1437.1402587890625]]], [[[-124.74848, 45.28257, -1437.1402587890625], [-124.74651, 45.28846, -1947.251953125], [-124.74694, 45.28718, -568.1278076171875], [-124.74848, 45.28257, -1437.1402587890625]]], [[[-124.74651, 45.28846, -1947.251953125], [-124.744, 45.296, -2544.32666015625], [-124.744, 45.296, -1555.0098876953125], [-124.74651, 45.28846, -1947.251953125]]], [[[-124.74655, 45.28836, -3028.115966796875], [-124.744, 45.296, -2544.32666015625], [-124.74651, 45.28846, -1947.251953125], [-124.74655, 45.28836, -3028.115966796875]]], [[[-124.74655, 45.28836, -3028.115966796875], [-124.744, 45.296, -3533.6435546875], [-124.744, 45.296, -2544.32666015625], [-124.74655, 45.28836, -3028.115966796875]]], [[[-124.74653, 45.28841, -4028.302001953125], [-124.744, 45.296, -3533.6435546875], [-124.74655, 45.28836, -3028.115966796875], [-124.74653, 45.28841, -4028.302001953125]]], [[[-124.74653, 45.28841, -4028.302001953125], [-124.744, 45.296, -4522.96044921875], [-124.744, 45.296, -3533.6435546875], [-124.74653, 45.28841, -4028.302001953125]]], [[[-124.74653, 45.28841, -5017.619140625], [-124.744, 45.296, -4522.96044921875], [-124.74653, 45.28841, -4028.302001953125], [-124.74653, 45.28841, -5017.619140625]]], [[[-124.74653, 45.28841, -5017.619140625], [-124.744, 45.296, -5512.27734375], [-124.744, 45.296, -4522.96044921875], [-124.74653, 45.28841, -5017.619140625]]], [[[-124.74653, 45.28841, -5017.619140625], [-124.74653, 45.28841, -6006.93603515625], [-124.744, 45.296, -5512.27734375], [-124.74653, 45.28841, -5017.619140625]]], [[[-124.74906, 45.28083, -5512.27734375], [-124.74653, 45.28841, -6006.93603515625], [-124.74653, 45.28841, -5017.619140625], [-124.74906, 45.28083, -5512.27734375]]], [[[-124.74906, 45.28083, -6501.59423828125], [-124.74653, 45.28841, -6006.93603515625], [-124.74906, 45.28083, -5512.27734375], [-124.74906, 45.28083, -6501.59423828125]]], [[[-124.74906, 45.28083, -6501.59423828125], [-124.74653, 45.28841, -6996.2529296875], [-124.74653, 45.28841, -6006.93603515625], [-124.74906, 45.28083, -6501.59423828125]]], [[[-124.74906, 45.28083, -6501.59423828125], [-124.74906, 45.28083, -7490.9111328125], [-124.74653, 45.28841, -6996.2529296875], [-124.74906, 45.28083, -6501.59423828125]]], [[[-124.74906, 45.28083, -6501.59423828125], [-124.75286, 45.27342, -7004.7900390625], [-124.74906, 45.28083, -7490.9111328125], [-124.74906, 45.28083, -6501.59423828125]]], [[[-124.75299, 45.27322, -6043.0205078125], [-124.75286, 45.27342, -7004.7900390625], [-124.74906, 45.28083, -6501.59423828125], [-124.75299, 45.27322, -6043.0205078125]]], [[[-124.75743, 45.26562, -6745.85107421875], [-124.75286, 45.27342, -7004.7900390625], [-124.75299, 45.27322, -6043.0205078125], [-124.75743, 45.26562, -6745.85107421875]]], [[[-124.75743, 45.26562, -6745.85107421875], [-124.75734, 45.26579, -7664.65234375], [-124.75286, 45.27342, -7004.7900390625], [-124.75743, 45.26562, -6745.85107421875]]], [[[-124.75743, 45.26562, -6745.85107421875], [-124.76179, 45.25813, -7354.1494140625], [-124.75734, 45.26579, -7664.65234375], [-124.75743, 45.26562, -6745.85107421875]]], [[[-124.75743, 45.26562, -6745.85107421875], [-124.76179, 45.25813, -6324.3486328125], [-124.76179, 45.25813, -7354.1494140625], [-124.75743, 45.26562, -6745.85107421875]]], [[[-124.75743, 45.26562, -6745.85107421875], [-124.75746, 45.26557, -5776.544921875], [-124.76179, 45.25813, -6324.3486328125], [-124.75743, 45.26562, -6745.85107421875]]], [[[-124.75746, 45.26557, -5776.544921875], [-124.75743, 45.26562, -6745.85107421875], [-124.75299, 45.27322, -6043.0205078125], [-124.75746, 45.26557, -5776.544921875]]], [[[-124.75298, 45.27323, -5054.41455078125], [-124.75746, 45.26557, -5776.544921875], [-124.75299, 45.27322, -6043.0205078125], [-124.75298, 45.27323, -5054.41455078125]]], [[[-124.75751, 45.26549, -4818.65771484375], [-124.75746, 45.26557, -5776.544921875], [-124.75298, 45.27323, -5054.41455078125], [-124.75751, 45.26549, -4818.65771484375]]], [[[-124.75751, 45.26549, -4818.65771484375], [-124.76179, 45.25813, -5294.54833984375], [-124.75746, 45.26557, -5776.544921875], [-124.75751, 45.26549, -4818.65771484375]]], [[[-124.76187, 45.258, -4270.4833984375], [-124.76179, 45.25813, -5294.54833984375], [-124.75751, 45.26549, -4818.65771484375], [-124.76187, 45.258, -4270.4833984375]]], [[[-124.76179, 45.25813, -5294.54833984375], [-124.76187, 45.258, -4270.4833984375], [-124.76625, 45.251, -4779.64794921875], [-124.76179, 45.25813, -5294.54833984375]]], [[[-124.76179, 45.25813, -5294.54833984375], [-124.76625, 45.251, -4779.64794921875], [-124.76625, 45.251, -5809.44873046875], [-124.76179, 45.25813, -5294.54833984375]]], [[[-124.76179, 45.25813, -6324.3486328125], [-124.76179, 45.25813, -5294.54833984375], [-124.76625, 45.251, -5809.44873046875], [-124.76179, 45.25813, -6324.3486328125]]], [[[-124.76179, 45.25813, -6324.3486328125], [-124.75746, 45.26557, -5776.544921875], [-124.76179, 45.25813, -5294.54833984375], [-124.76179, 45.25813, -6324.3486328125]]], [[[-124.76179, 45.25813, -6324.3486328125], [-124.76625, 45.251, -5809.44873046875], [-124.76625, 45.251, -6839.2490234375], [-124.76179, 45.25813, -6324.3486328125]]], [[[-124.76179, 45.25813, -7354.1494140625], [-124.76179, 45.25813, -6324.3486328125], [-124.76625, 45.251, -6839.2490234375], [-124.76179, 45.25813, -7354.1494140625]]], [[[-124.76625, 45.251, -7869.0498046875], [-124.76179, 45.25813, -7354.1494140625], [-124.76625, 45.251, -6839.2490234375], [-124.76625, 45.251, -7869.0498046875]]], [[[-124.76179, 45.25813, -7354.1494140625], [-124.76625, 45.251, -7869.0498046875], [-124.76154, 45.25853, -8400.8701171875], [-124.76179, 45.25813, -7354.1494140625]]], [[[-124.75734, 45.26579, -7664.65234375], [-124.76179, 45.25813, -7354.1494140625], [-124.76154, 45.25853, -8400.8701171875], [-124.75734, 45.26579, -7664.65234375]]], [[[-124.75734, 45.26579, -7664.65234375], [-124.76154, 45.25853, -8400.8701171875], [-124.75642, 45.26745, -8600.95703125], [-124.75734, 45.26579, -7664.65234375]]], [[[-124.7528, 45.27351, -7950.216796875], [-124.75734, 45.26579, -7664.65234375], [-124.75642, 45.26745, -8600.95703125], [-124.7528, 45.27351, -7950.216796875]]], [[[-124.75734, 45.26579, -7664.65234375], [-124.7528, 45.27351, -7950.216796875], [-124.75286, 45.27342, -7004.7900390625], [-124.75734, 45.26579, -7664.65234375]]], [[[-124.7528, 45.27351, -7950.216796875], [-124.74906, 45.28083, -7490.9111328125], [-124.75286, 45.27342, -7004.7900390625], [-124.7528, 45.27351, -7950.216796875]]], [[[-124.7528, 45.27351, -7950.216796875], [-124.74888, 45.28135, -8461.919921875], [-124.74906, 45.28083, -7490.9111328125], [-124.7528, 45.27351, -7950.216796875]]], [[[-124.7528, 45.27351, -7950.216796875], [-124.75176, 45.27519, -8770.705078125], [-124.74888, 45.28135, -8461.919921875], [-124.7528, 45.27351, -7950.216796875]]], [[[-124.75176, 45.27519, -8770.705078125], [-124.7528, 45.27351, -7950.216796875], [-124.75642, 45.26745, -8600.95703125], [-124.75176, 45.27519, -8770.705078125]]], [[[-124.75642, 45.26745, -8600.95703125], [-124.75418, 45.27131, -9502.416015625], [-124.75176, 45.27519, -8770.705078125], [-124.75642, 45.26745, -8600.95703125]]], [[[-124.75642, 45.26745, -8600.95703125], [-124.75902, 45.26276, -9401.8125], [-124.75418, 45.27131, -9502.416015625], [-124.75642, 45.26745, -8600.95703125]]], [[[-124.75642, 45.26745, -8600.95703125], [-124.76154, 45.25853, -8400.8701171875], [-124.75902, 45.26276, -9401.8125], [-124.75642, 45.26745, -8600.95703125]]], [[[-124.76357, 45.25528, -9382.287109375], [-124.75902, 45.26276, -9401.8125], [-124.76154, 45.25853, -8400.8701171875], [-124.76357, 45.25528, -9382.287109375]]], [[[-124.76357, 45.25528, -9382.287109375], [-124.76184, 45.25806, -10240.7998046875], [-124.75902, 45.26276, -9401.8125], [-124.76357, 45.25528, -9382.287109375]]], [[[-124.76184, 45.25806, -10240.7998046875], [-124.76357, 45.25528, -9382.287109375], [-124.76698, 45.24984, -10128.7919921875], [-124.76184, 45.25806, -10240.7998046875]]], [[[-124.76184, 45.25806, -10240.7998046875], [-124.76698, 45.24984, -10128.7919921875], [-124.76479, 45.25333, -11071.01171875], [-124.76184, 45.25806, -10240.7998046875]]], [[[-124.76184, 45.25806, -10240.7998046875], [-124.76479, 45.25333, -11071.01171875], [-124.75965, 45.26162, -11153.0859375], [-124.76184, 45.25806, -10240.7998046875]]], [[[-124.75698, 45.26644, -10323.5810546875], [-124.76184, 45.25806, -10240.7998046875], [-124.75965, 45.26162, -11153.0859375], [-124.75698, 45.26644, -10323.5810546875]]], [[[-124.75902, 45.26276, -9401.8125], [-124.76184, 45.25806, -10240.7998046875], [-124.75698, 45.26644, -10323.5810546875], [-124.75902, 45.26276, -9401.8125]]], [[[-124.75902, 45.26276, -9401.8125], [-124.75698, 45.26644, -10323.5810546875], [-124.75418, 45.27131, -9502.416015625], [-124.75902, 45.26276, -9401.8125]]], [[[-124.75418, 45.27131, -9502.416015625], [-124.75698, 45.26644, -10323.5810546875], [-124.75197, 45.27484, -10399.8310546875], [-124.75418, 45.27131, -9502.416015625]]], [[[-124.75418, 45.27131, -9502.416015625], [-124.75197, 45.27484, -10399.8310546875], [-124.74915, 45.28055, -9507.0185546875], [-124.75418, 45.27131, -9502.416015625]]], [[[-124.77013, 45.24379, -9549.296875], [-124.771, 45.236, -9928.650390625], [-124.76997, 45.24505, -10986.380859375], [-124.77013, 45.24379, -9549.296875]]], [[[-124.74915, 45.28055, -9507.0185546875], [-124.75176, 45.27519, -8770.705078125], [-124.75418, 45.27131, -9502.416015625], [-124.74915, 45.28055, -9507.0185546875]]], [[[-124.75176, 45.27519, -8770.705078125], [-124.74915, 45.28055, -9507.0185546875], [-124.74888, 45.28135, -8461.919921875], [-124.75176, 45.27519, -8770.705078125]]], [[[-124.74653, 45.28841, -8974.88671875], [-124.74888, 45.28135, -8461.919921875], [-124.74915, 45.28055, -9507.0185546875], [-124.74653, 45.28841, -8974.88671875]]], [[[-124.74888, 45.28135, -8461.919921875], [-124.74653, 45.28841, -8974.88671875], [-124.74653, 45.28841, -7985.56982421875], [-124.74888, 45.28135, -8461.919921875]]], [[[-124.74906, 45.28083, -7490.9111328125], [-124.74888, 45.28135, -8461.919921875], [-124.74653, 45.28841, -7985.56982421875], [-124.74906, 45.28083, -7490.9111328125]]], [[[-124.74906, 45.28083, -7490.9111328125], [-124.74653, 45.28841, -7985.56982421875], [-124.74653, 45.28841, -6996.2529296875], [-124.74906, 45.28083, -7490.9111328125]]], [[[-124.74653, 45.28841, -7985.56982421875], [-124.744, 45.296, -7490.9111328125], [-124.74653, 45.28841, -6996.2529296875], [-124.74653, 45.28841, -7985.56982421875]]], [[[-124.771, 45.236, -9928.650390625], [-124.771, 45.236, -10958.451171875], [-124.76997, 45.24505, -10986.380859375], [-124.771, 45.236, -9928.650390625]]], [[[-124.74653, 45.28841, -7985.56982421875], [-124.744, 45.296, -8480.228515625], [-124.744, 45.296, -7490.9111328125], [-124.74653, 45.28841, -7985.56982421875]]], [[[-124.74653, 45.28841, -8974.88671875], [-124.744, 45.296, -8480.228515625], [-124.74653, 45.28841, -7985.56982421875], [-124.74653, 45.28841, -8974.88671875]]], [[[-124.74653, 45.28841, -8974.88671875], [-124.744, 45.296, -9469.544921875], [-124.744, 45.296, -8480.228515625], [-124.74653, 45.28841, -8974.88671875]]], [[[-124.74653, 45.28841, -8974.88671875], [-124.74647, 45.28859, -10036.6767578125], [-124.744, 45.296, -9469.544921875], [-124.74653, 45.28841, -8974.88671875]]], [[[-124.74915, 45.28055, -9507.0185546875], [-124.74647, 45.28859, -10036.6767578125], [-124.74653, 45.28841, -8974.88671875], [-124.74915, 45.28055, -9507.0185546875]]], [[[-124.74647, 45.28859, -10036.6767578125], [-124.74915, 45.28055, -9507.0185546875], [-124.7484, 45.28281, -10513.01953125], [-124.74647, 45.28859, -10036.6767578125]]], [[[-124.74647, 45.28859, -10036.6767578125], [-124.7484, 45.28281, -10513.01953125], [-124.74694, 45.28718, -11383.0986328125], [-124.74647, 45.28859, -10036.6767578125]]], [[[-124.74647, 45.28859, -10036.6767578125], [-124.744, 45.296, -10458.8623046875], [-124.744, 45.296, -9469.544921875], [-124.74647, 45.28859, -10036.6767578125]]], [[[-124.7484, 45.28281, -10513.01953125], [-124.74988, 45.27835, -11322.4169921875], [-124.74694, 45.28718, -11383.0986328125], [-124.7484, 45.28281, -10513.01953125]]], [[[-124.7484, 45.28281, -10513.01953125], [-124.75197, 45.27484, -10399.8310546875], [-124.74988, 45.27835, -11322.4169921875], [-124.7484, 45.28281, -10513.01953125]]], [[[-124.74915, 45.28055, -9507.0185546875], [-124.75197, 45.27484, -10399.8310546875], [-124.7484, 45.28281, -10513.01953125], [-124.74915, 45.28055, -9507.0185546875]]], [[[-124.75197, 45.27484, -10399.8310546875], [-124.75497, 45.27005, -11236.40625], [-124.74988, 45.27835, -11322.4169921875], [-124.75197, 45.27484, -10399.8310546875]]], [[[-124.75197, 45.27484, -10399.8310546875], [-124.75698, 45.26644, -10323.5810546875], [-124.75497, 45.27005, -11236.40625], [-124.75197, 45.27484, -10399.8310546875]]], [[[-124.75698, 45.26644, -10323.5810546875], [-124.75965, 45.26162, -11153.0859375], [-124.75497, 45.27005, -11236.40625], [-124.75698, 45.26644, -10323.5810546875]]], [[[-124.74653, 45.28841, -6996.2529296875], [-124.744, 45.296, -7490.9111328125], [-124.744, 45.296, -6501.59423828125], [-124.74653, 45.28841, -6996.2529296875]]], [[[-124.74653, 45.28841, -6006.93603515625], [-124.74653, 45.28841, -6996.2529296875], [-124.744, 45.296, -6501.59423828125], [-124.74653, 45.28841, -6006.93603515625]]], [[[-124.74653, 45.28841, -6006.93603515625], [-124.744, 45.296, -6501.59423828125], [-124.744, 45.296, -5512.27734375], [-124.74653, 45.28841, -6006.93603515625]]], [[[-124.76698, 45.24984, -10128.7919921875], [-124.76997, 45.24505, -10986.380859375], [-124.76479, 45.25333, -11071.01171875], [-124.76698, 45.24984, -10128.7919921875]]], [[[-124.744, 45.296, -565.6929931640625], [-124.74694, 45.28718, -568.1278076171875], [-124.744, 45.296, -1555.0098876953125], [-124.744, 45.296, -565.6929931640625]]], [[[-124.76698, 45.24984, -10128.7919921875], [-124.77013, 45.24379, -9549.296875], [-124.76997, 45.24505, -10986.380859375], [-124.76698, 45.24984, -10128.7919921875]]], [[[-124.76657, 45.25048, -8900.541015625], [-124.77013, 45.24379, -9549.296875], [-124.76698, 45.24984, -10128.7919921875], [-124.76657, 45.25048, -8900.541015625]]], [[[-124.76657, 45.25048, -8900.541015625], [-124.77014, 45.24377, -8383.9501953125], [-124.77013, 45.24379, -9549.296875], [-124.76657, 45.25048, -8900.541015625]]], [[[-124.76657, 45.25048, -8900.541015625], [-124.76625, 45.251, -7869.0498046875], [-124.77014, 45.24377, -8383.9501953125], [-124.76657, 45.25048, -8900.541015625]]], [[[-124.76657, 45.25048, -8900.541015625], [-124.76154, 45.25853, -8400.8701171875], [-124.76625, 45.251, -7869.0498046875], [-124.76657, 45.25048, -8900.541015625]]], [[[-124.76154, 45.25853, -8400.8701171875], [-124.76657, 45.25048, -8900.541015625], [-124.76357, 45.25528, -9382.287109375], [-124.76154, 45.25853, -8400.8701171875]]], [[[-124.76657, 45.25048, -8900.541015625], [-124.76698, 45.24984, -10128.7919921875], [-124.76357, 45.25528, -9382.287109375], [-124.76657, 45.25048, -8900.541015625]]], [[[-124.76625, 45.251, -7869.0498046875], [-124.77014, 45.24377, -7354.1494140625], [-124.77014, 45.24377, -8383.9501953125], [-124.76625, 45.251, -7869.0498046875]]], [[[-124.76625, 45.251, -7869.0498046875], [-124.76625, 45.251, -6839.2490234375], [-124.77014, 45.24377, -7354.1494140625], [-124.76625, 45.251, -7869.0498046875]]], [[[-124.76625, 45.251, -4779.64794921875], [-124.77014, 45.24377, -5294.54833984375], [-124.76625, 45.251, -5809.44873046875], [-124.76625, 45.251, -4779.64794921875]]], [[[-124.76187, 45.258, -4270.4833984375], [-124.75751, 45.26549, -4818.65771484375], [-124.75778, 45.26499, -4020.968994140625], [-124.76187, 45.258, -4270.4833984375]]], [[[-124.75315, 45.27296, -4055.187255859375], [-124.75778, 45.26499, -4020.968994140625], [-124.75751, 45.26549, -4818.65771484375], [-124.75315, 45.27296, -4055.187255859375]]], [[[-124.75315, 45.27296, -4055.187255859375], [-124.75703, 45.26634, -3196.906005859375], [-124.75778, 45.26499, -4020.968994140625], [-124.75315, 45.27296, -4055.187255859375]]], [[[-124.75315, 45.27296, -4055.187255859375], [-124.75244, 45.2741, -3141.735595703125], [-124.75703, 45.26634, -3196.906005859375], [-124.75315, 45.27296, -4055.187255859375]]], [[[-124.75315, 45.27296, -4055.187255859375], [-124.74903, 45.2809, -3537.460693359375], [-124.75244, 45.2741, -3141.735595703125], [-124.75315, 45.27296, -4055.187255859375]]], [[[-124.75315, 45.27296, -4055.187255859375], [-124.74906, 45.28083, -4522.96044921875], [-124.74903, 45.2809, -3537.460693359375], [-124.75315, 45.27296, -4055.187255859375]]], [[[-124.75298, 45.27323, -5054.41455078125], [-124.74906, 45.28083, -4522.96044921875], [-124.75315, 45.27296, -4055.187255859375], [-124.75298, 45.27323, -5054.41455078125]]], [[[-124.75298, 45.27323, -5054.41455078125], [-124.74906, 45.28083, -5512.27734375], [-124.74906, 45.28083, -4522.96044921875], [-124.75298, 45.27323, -5054.41455078125]]], [[[-124.75298, 45.27323, -5054.41455078125], [-124.75299, 45.27322, -6043.0205078125], [-124.74906, 45.28083, -5512.27734375], [-124.75298, 45.27323, -5054.41455078125]]], [[[-124.75299, 45.27322, -6043.0205078125], [-124.74906, 45.28083, -6501.59423828125], [-124.74906, 45.28083, -5512.27734375], [-124.75299, 45.27322, -6043.0205078125]]], [[[-124.74906, 45.28083, -5512.27734375], [-124.74653, 45.28841, -5017.619140625], [-124.74906, 45.28083, -4522.96044921875], [-124.74906, 45.28083, -5512.27734375]]], [[[-124.74653, 45.28841, -5017.619140625], [-124.74653, 45.28841, -4028.302001953125], [-124.74906, 45.28083, -4522.96044921875], [-124.74653, 45.28841, -5017.619140625]]], [[[-124.74903, 45.2809, -3537.460693359375], [-124.74906, 45.28083, -4522.96044921875], [-124.74653, 45.28841, -4028.302001953125], [-124.74903, 45.2809, -3537.460693359375]]], [[[-124.771, 45.236, -1690.2464599609375], [-124.77015, 45.24365, -2231.073486328125], [-124.76786, 45.24842, -1543.3143310546875], [-124.771, 45.236, -1690.2464599609375]]], [[[-124.74903, 45.2809, -3537.460693359375], [-124.74653, 45.28841, -4028.302001953125], [-124.74655, 45.28836, -3028.115966796875], [-124.74903, 45.2809, -3537.460693359375]]], [[[-124.75315, 45.27296, -4055.187255859375], [-124.75751, 45.26549, -4818.65771484375], [-124.75298, 45.27323, -5054.41455078125], [-124.75315, 45.27296, -4055.187255859375]]], [[[-124.76248, 45.25703, -1535.716796875], [-124.75966, 45.26161, -567.6162719726562], [-124.7648, 45.25331, -605.95947265625], [-124.76248, 45.25703, -1535.716796875]]], [[[-124.76248, 45.25703, -1535.716796875], [-124.7648, 45.25331, -605.95947265625], [-124.76786, 45.24842, -1543.3143310546875], [-124.76248, 45.25703, -1535.716796875]]], [[[-124.76573, 45.25184, -2598.132568359375], [-124.76248, 45.25703, -1535.716796875], [-124.76786, 45.24842, -1543.3143310546875], [-124.76573, 45.25184, -2598.132568359375]]], [[[-124.76573, 45.25184, -2598.132568359375], [-124.75981, 45.26134, -2345.974609375], [-124.76248, 45.25703, -1535.716796875], [-124.76573, 45.25184, -2598.132568359375]]], [[[-124.76167, 45.25832, -3273.179443359375], [-124.75981, 45.26134, -2345.974609375], [-124.76573, 45.25184, -2598.132568359375], [-124.76167, 45.25832, -3273.179443359375]]], [[[-124.76167, 45.25832, -3273.179443359375], [-124.76573, 45.25184, -2598.132568359375], [-124.76624, 45.25101, -3741.713623046875], [-124.76167, 45.25832, -3273.179443359375]]], [[[-124.76573, 45.25184, -2598.132568359375], [-124.77014, 45.24377, -3234.947265625], [-124.76624, 45.25101, -3741.713623046875], [-124.76573, 45.25184, -2598.132568359375]]], [[[-124.76573, 45.25184, -2598.132568359375], [-124.77015, 45.24365, -2231.073486328125], [-124.77014, 45.24377, -3234.947265625], [-124.76573, 45.25184, -2598.132568359375]]], [[[-124.76573, 45.25184, -2598.132568359375], [-124.76786, 45.24842, -1543.3143310546875], [-124.77015, 45.24365, -2231.073486328125], [-124.76573, 45.25184, -2598.132568359375]]], [[[-124.76786, 45.24842, -1543.3143310546875], [-124.7648, 45.25331, -605.95947265625], [-124.76998, 45.24503, -654.3567504882812], [-124.76786, 45.24842, -1543.3143310546875]]], [[[-124.77015, 45.24365, -2231.073486328125], [-124.771, 45.236, -1690.2464599609375], [-124.771, 45.236, -2720.047119140625], [-124.77015, 45.24365, -2231.073486328125]]], [[[-124.77014, 45.24377, -3234.947265625], [-124.77015, 45.24365, -2231.073486328125], [-124.771, 45.236, -2720.047119140625], [-124.77014, 45.24377, -3234.947265625]]], [[[-124.77014, 45.24377, -3234.947265625], [-124.771, 45.236, -2720.047119140625], [-124.771, 45.236, -3749.84765625], [-124.77014, 45.24377, -3234.947265625]]], [[[-124.77014, 45.24377, -4264.74755859375], [-124.77014, 45.24377, -3234.947265625], [-124.771, 45.236, -3749.84765625], [-124.77014, 45.24377, -4264.74755859375]]], [[[-124.76624, 45.25101, -3741.713623046875], [-124.77014, 45.24377, -3234.947265625], [-124.77014, 45.24377, -4264.74755859375], [-124.76624, 45.25101, -3741.713623046875]]], [[[-124.77014, 45.24377, -4264.74755859375], [-124.771, 45.236, -3749.84765625], [-124.771, 45.236, -4779.64794921875], [-124.77014, 45.24377, -4264.74755859375]]], [[[-124.74647, 45.28859, -10036.6767578125], [-124.74694, 45.28718, -11383.0986328125], [-124.744, 45.296, -10458.8623046875], [-124.74647, 45.28859, -10036.6767578125]]], [[[-124.744, 45.296, -10458.8623046875], [-124.74694, 45.28718, -11383.0986328125], [-124.744, 45.296, -11448.1787109375], [-124.744, 45.296, -10458.8623046875]]], [[[-124.744, 45.296, -1555.0098876953125], [-124.74694, 45.28718, -568.1278076171875], [-124.74651, 45.28846, -1947.251953125], [-124.744, 45.296, -1555.0098876953125]]], [[[-124.76998, 45.24503, -654.3567504882812], [-124.771, 45.236, -1690.2464599609375], [-124.76786, 45.24842, -1543.3143310546875], [-124.76998, 45.24503, -654.3567504882812]]], [[[-124.771, 45.236, -660.4459838867188], [-124.771, 45.236, -1690.2464599609375], [-124.76998, 45.24503, -654.3567504882812], [-124.771, 45.236, -660.4459838867188]]]]}}]}