{"type": "FeatureCollection", "features": [{"type": "Feature", "properties": {"name": "AW_NORE_25", "CFM_ID": 237, "region": "Offshore_WAOR", "primary_state/province": "OR", "secondary_state/province": null, "avg_dip": 90.0, "dip_dir": "vertical", "rake": 180, "slip_sense": "Dextral", "fault_level": 1, "NSHM23_sliprates": null, "QFFDAgeCatBin": null, "QFFDAgeBin": null, "upper_depth": -0.5, "upper_depth_constraint": "bathymetry", "lower_depth": -11.4, "lower_depth_constraint": "megathrust", "3D_model_constraints": "trace extended at constant dip", "reference": "Lucas et al. (2025); Balster-Gee et al. (2023)", "nshm23_id": null, "lineage": null, "usgs_qffd_#": null, "comments": "vergence from USGS sparker line", "id": "237"}, "geometry": {"type": "MultiPolygon", "coordinates": [[[[-124.76, 45.22646, -7814.6611328125], [-124.76063, 45.2347, -7315.76806640625], [-124.76, 45.22646, -6873.32666015625], [-124.76, 45.22646, -7814.6611328125]]], [[[-124.76079, 45.23614, -10278.705078125], [-124.76061, 45.24108, -11111.88671875], [-124.76044, 45.2425, -9808.6533203125], [-124.76079, 45.23614, -10278.705078125]]], [[[-124.76063, 45.2347, -6354.44580078125], [-124.76063, 45.2347, -7315.76806640625], [-124.76044, 45.24246, -6835.10693359375], [-124.76063, 45.2347, -6354.44580078125]]], [[[-124.76044, 45.24246, -6835.10693359375], [-124.758, 45.25, -7315.76806640625], [-124.758, 45.25, -6354.44580078125], [-124.76044, 45.24246, -6835.10693359375]]], [[[-124.76122, 45.20905, -10231.4970703125], [-124.76173, 45.20441, -11093.546875], [-124.76071, 45.21357, -11101.4453125], [-124.76122, 45.20905, -10231.4970703125]]], [[[-124.76116, 45.20956, -8451.478515625], [-124.762, 45.19974, -8508.9755859375], [-124.76173, 45.20445, -9364.2314453125], [-124.76116, 45.20956, -8451.478515625]]], [[[-124.76234, 45.17194, -8536.3125], [-124.76284, 45.16744, -9409.26171875], [-124.762, 45.17665, -9395.2529296875], [-124.76234, 45.17194, -8536.3125]]], [[[-124.76107, 45.21039, -6831.56591796875], [-124.762, 45.19989, -6780.29833984375], [-124.76164, 45.20526, -7626.1650390625], [-124.76107, 45.21039, -6831.56591796875]]], [[[-124.76, 45.22293, -9395.8818359375], [-124.7607, 45.2137, -9369.8017578125], [-124.7602, 45.21822, -10240.095703125], [-124.76, 45.22293, -9395.8818359375]]], [[[-124.76044, 45.2425, -9808.6533203125], [-124.758, 45.25, -10199.734375], [-124.758, 45.25, -9238.412109375], [-124.76044, 45.2425, -9808.6533203125]]], [[[-124.76858, 45.08118, -1381.3873291015625], [-124.76802, 45.07616, -545.7103881835938], [-124.7679, 45.07512, -1923.158203125], [-124.76858, 45.08118, -1381.3873291015625]]], [[[-124.76044, 45.24246, -7796.42919921875], [-124.758, 45.25, -7315.76806640625], [-124.76044, 45.24246, -6835.10693359375], [-124.76044, 45.24246, -7796.42919921875]]], [[[-124.7607, 45.2137, -9369.8017578125], [-124.76122, 45.20905, -10231.4970703125], [-124.7602, 45.21822, -10240.095703125], [-124.7607, 45.2137, -9369.8017578125]]], [[[-124.762, 45.18578, -9380.8271484375], [-124.762, 45.18111, -8522.1025390625], [-124.762, 45.17665, -9395.2529296875], [-124.762, 45.18578, -9380.8271484375]]], [[[-124.76044, 45.24246, -7796.42919921875], [-124.76046, 45.24234, -8774.0048828125], [-124.758, 45.25, -8277.08984375], [-124.76044, 45.24246, -7796.42919921875]]], [[[-124.76, 45.22709, -8722.3828125], [-124.76, 45.22293, -9395.8818359375], [-124.76053, 45.23377, -9324.19921875], [-124.76, 45.22709, -8722.3828125]]], [[[-124.76011, 45.21904, -6397.35107421875], [-124.76, 45.22646, -6873.32666015625], [-124.76, 45.22692, -5873.78466796875], [-124.76011, 45.21904, -6397.35107421875]]], [[[-124.76858, 45.08118, -1381.3873291015625], [-124.76904, 45.08532, -523.8967895507812], [-124.76802, 45.07616, -545.7103881835938], [-124.76858, 45.08118, -1381.3873291015625]]], [[[-124.76173, 45.20445, -9364.2314453125], [-124.76122, 45.20905, -10231.4970703125], [-124.7607, 45.2137, -9369.8017578125], [-124.76173, 45.20445, -9364.2314453125]]], [[[-124.76107, 45.21039, -6831.56591796875], [-124.76169, 45.20476, -5946.1123046875], [-124.762, 45.19989, -6780.29833984375], [-124.76107, 45.21039, -6831.56591796875]]], [[[-124.76956, 45.09007, -1378.816162109375], [-124.76904, 45.08532, -523.8967895507812], [-124.76858, 45.08118, -1381.3873291015625], [-124.76956, 45.09007, -1378.816162109375]]], [[[-124.76011, 45.21905, -5351.26904296875], [-124.76, 45.22651, -4882.42431640625], [-124.76033, 45.21699, -4238.31103515625], [-124.76011, 45.21905, -5351.26904296875]]], [[[-124.76, 45.22293, -9395.8818359375], [-124.76, 45.2275, -10223.388671875], [-124.76053, 45.23377, -9324.19921875], [-124.76, 45.22293, -9395.8818359375]]], [[[-124.762, 45.18095, -6784.36474609375], [-124.762, 45.17625, -5908.78759765625], [-124.76236, 45.17173, -6804.32568359375], [-124.762, 45.18095, -6784.36474609375]]], [[[-124.76122, 45.20905, -10231.4970703125], [-124.76173, 45.20445, -9364.2314453125], [-124.762, 45.1998, -10229.0107421875], [-124.76122, 45.20905, -10231.4970703125]]], [[[-124.76, 45.22651, -4882.42431640625], [-124.76063, 45.2347, -5393.12353515625], [-124.76063, 45.2347, -4431.8017578125], [-124.76, 45.22651, -4882.42431640625]]], [[[-124.76956, 45.09007, -1378.816162109375], [-124.77, 45.09448, -502.0798645019531], [-124.76904, 45.08532, -523.8967895507812], [-124.76956, 45.09007, -1378.816162109375]]], [[[-124.76116, 45.20956, -8451.478515625], [-124.76164, 45.20526, -7626.1650390625], [-124.762, 45.19974, -8508.9755859375], [-124.76116, 45.20956, -8451.478515625]]], [[[-124.76063, 45.2347, -8277.08984375], [-124.76046, 45.24234, -8774.0048828125], [-124.76044, 45.24246, -7796.42919921875], [-124.76063, 45.2347, -8277.08984375]]], [[[-124.762, 45.2003, -4997.53857421875], [-124.76108, 45.21029, -4954.52294921875], [-124.76163, 45.20534, -4126.53564453125], [-124.762, 45.2003, -4997.53857421875]]], [[[-124.76033, 45.21699, -4238.31103515625], [-124.76, 45.22646, -3957.04296875], [-124.76015, 45.21866, -3247.407470703125], [-124.76033, 45.21699, -4238.31103515625]]], [[[-124.758, 45.25, -9238.412109375], [-124.758, 45.25, -8277.08984375], [-124.76046, 45.24234, -8774.0048828125], [-124.758, 45.25, -9238.412109375]]], [[[-124.76108, 45.21029, -4954.52294921875], [-124.76087, 45.21213, -5866.56201171875], [-124.76011, 45.21905, -5351.26904296875], [-124.76108, 45.21029, -4954.52294921875]]], [[[-124.77, 45.09923, -1357.66748046875], [-124.77, 45.09448, -502.0798645019531], [-124.76956, 45.09007, -1378.816162109375], [-124.77, 45.09923, -1357.66748046875]]], [[[-124.762, 45.19989, -6780.29833984375], [-124.762, 45.19517, -5848.27587890625], [-124.762, 45.19034, -6782.90966796875], [-124.762, 45.19989, -6780.29833984375]]], [[[-124.77, 45.09923, -1357.66748046875], [-124.77, 45.10367, -481.5540466308594], [-124.77, 45.09448, -502.0798645019531], [-124.77, 45.09923, -1357.66748046875]]], [[[-124.76164, 45.20526, -7626.1650390625], [-124.76116, 45.20956, -8451.478515625], [-124.76033, 45.21702, -7511.375], [-124.76164, 45.20526, -7626.1650390625]]], [[[-124.76063, 45.2347, -7315.76806640625], [-124.76044, 45.24246, -7796.42919921875], [-124.76044, 45.24246, -6835.10693359375], [-124.76063, 45.2347, -7315.76806640625]]], [[[-124.76288, 45.16708, -5911.7705078125], [-124.76236, 45.17173, -6804.32568359375], [-124.762, 45.17625, -5908.78759765625], [-124.76288, 45.16708, -5911.7705078125]]], [[[-124.76, 45.22646, -7814.6611328125], [-124.76, 45.22709, -8722.3828125], [-124.76063, 45.2347, -8277.08984375], [-124.76, 45.22646, -7814.6611328125]]], [[[-124.77, 45.10829, -1346.0030517578125], [-124.77, 45.10367, -481.5540466308594], [-124.77, 45.09923, -1357.66748046875], [-124.77, 45.10829, -1346.0030517578125]]], [[[-124.76238, 45.17159, -4957.20751953125], [-124.763, 45.16226, -4953.017578125], [-124.76288, 45.16708, -5911.7705078125], [-124.76238, 45.17159, -4957.20751953125]]], [[[-124.76, 45.22646, -3957.04296875], [-124.76, 45.2276, -3102.366455078125], [-124.76015, 45.21866, -3247.407470703125], [-124.76, 45.22646, -3957.04296875]]], [[[-124.77, 45.10829, -1346.0030517578125], [-124.7699, 45.11286, -478.4093322753906], [-124.77, 45.10367, -481.5540466308594], [-124.77, 45.10829, -1346.0030517578125]]], [[[-124.762, 45.18561, -7649.2734375], [-124.762, 45.18111, -8522.1025390625], [-124.762, 45.19033, -8508.3388671875], [-124.762, 45.18561, -7649.2734375]]], [[[-124.76044, 45.24246, -6835.10693359375], [-124.758, 45.25, -6354.44580078125], [-124.76044, 45.24246, -5873.78466796875], [-124.76044, 45.24246, -6835.10693359375]]], [[[-124.77, 45.10829, -1346.0030517578125], [-124.7694, 45.11744, -1344.503662109375], [-124.7699, 45.11286, -478.4093322753906], [-124.77, 45.10829, -1346.0030517578125]]], [[[-124.7602, 45.21822, -10240.095703125], [-124.76122, 45.20905, -10231.4970703125], [-124.76071, 45.21357, -11101.4453125], [-124.7602, 45.21822, -10240.095703125]]], [[[-124.76107, 45.21039, -6831.56591796875], [-124.76164, 45.20526, -7626.1650390625], [-124.76033, 45.21702, -7511.375], [-124.76107, 45.21039, -6831.56591796875]]], [[[-124.76234, 45.17194, -8536.3125], [-124.762, 45.18111, -8522.1025390625], [-124.762, 45.17641, -7663.26611328125], [-124.76234, 45.17194, -8536.3125]]], [[[-124.76044, 45.2425, -9808.6533203125], [-124.758, 45.25, -9238.412109375], [-124.76046, 45.24234, -8774.0048828125], [-124.76044, 45.2425, -9808.6533203125]]], [[[-124.76011, 45.21905, -5351.26904296875], [-124.76011, 45.21904, -6397.35107421875], [-124.76, 45.22692, -5873.78466796875], [-124.76011, 45.21905, -5351.26904296875]]], [[[-124.7699, 45.11288, -2211.27783203125], [-124.7694, 45.11744, -1344.503662109375], [-124.77, 45.10829, -1346.0030517578125], [-124.7699, 45.11288, -2211.27783203125]]], [[[-124.76063, 45.2347, -5393.12353515625], [-124.76044, 45.24246, -4912.462890625], [-124.76063, 45.2347, -4431.8017578125], [-124.76063, 45.2347, -5393.12353515625]]], [[[-124.76234, 45.17194, -8536.3125], [-124.76286, 45.16727, -7677.27197265625], [-124.763, 45.16279, -8550.123046875], [-124.76234, 45.17194, -8536.3125]]], [[[-124.76, 45.2275, -10223.388671875], [-124.76, 45.22274, -11110.7255859375], [-124.76032, 45.23192, -11109.5771484375], [-124.76, 45.2275, -10223.388671875]]], [[[-124.7689, 45.12193, -2213.592041015625], [-124.7694, 45.11744, -1344.503662109375], [-124.7699, 45.11288, -2211.27783203125], [-124.7689, 45.12193, -2213.592041015625]]], [[[-124.76236, 45.17173, -6804.32568359375], [-124.763, 45.1626, -6819.01904296875], [-124.76286, 45.16727, -7677.27197265625], [-124.76236, 45.17173, -6804.32568359375]]], [[[-124.76122, 45.20905, -10231.4970703125], [-124.762, 45.1998, -10229.0107421875], [-124.76173, 45.20441, -11093.546875], [-124.76122, 45.20905, -10231.4970703125]]], [[[-124.762, 45.18111, -8522.1025390625], [-124.762, 45.18578, -9380.8271484375], [-124.762, 45.19033, -8508.3388671875], [-124.762, 45.18111, -8522.1025390625]]], [[[-124.762, 45.18578, -9380.8271484375], [-124.762, 45.19051, -10238.4931640625], [-124.762, 45.19508, -9367.7626953125], [-124.762, 45.18578, -9380.8271484375]]], [[[-124.7689, 45.12193, -2213.592041015625], [-124.76839, 45.12651, -1350.6617431640625], [-124.7694, 45.11744, -1344.503662109375], [-124.7689, 45.12193, -2213.592041015625]]], [[[-124.76063, 45.2347, -5393.12353515625], [-124.76044, 45.24246, -5873.78466796875], [-124.76044, 45.24246, -4912.462890625], [-124.76063, 45.2347, -5393.12353515625]]], [[[-124.762, 45.17638, -4087.709228515625], [-124.762, 45.18115, -3229.639892578125], [-124.76235, 45.17184, -3213.92724609375], [-124.762, 45.17638, -4087.709228515625]]], [[[-124.762, 45.18095, -6784.36474609375], [-124.762, 45.18561, -7649.2734375], [-124.762, 45.19034, -6782.90966796875], [-124.762, 45.18095, -6784.36474609375]]], [[[-124.7689, 45.12193, -2213.592041015625], [-124.7679, 45.13086, -2232.022216796875], [-124.76839, 45.12651, -1350.6617431640625], [-124.7689, 45.12193, -2213.592041015625]]], [[[-124.76017, 45.21845, -8496.6904296875], [-124.76, 45.22709, -8722.3828125], [-124.76, 45.22646, -7814.6611328125], [-124.76017, 45.21845, -8496.6904296875]]], [[[-124.762, 45.18578, -4090.541748046875], [-124.762, 45.19054, -3238.205078125], [-124.762, 45.18115, -3229.639892578125], [-124.762, 45.18578, -4090.541748046875]]], [[[-124.7689, 45.12193, -2213.592041015625], [-124.76842, 45.12625, -3084.689697265625], [-124.7679, 45.13086, -2232.022216796875], [-124.7689, 45.12193, -2213.592041015625]]], [[[-124.762, 45.19508, -9367.7626953125], [-124.762, 45.19051, -10238.4931640625], [-124.762, 45.1998, -10229.0107421875], [-124.762, 45.19508, -9367.7626953125]]], [[[-124.762, 45.19524, -4107.8203125], [-124.76163, 45.20534, -4126.53564453125], [-124.762, 45.19983, -3240.123291015625], [-124.762, 45.19524, -4107.8203125]]], [[[-124.762, 45.18565, -5827.095703125], [-124.762, 45.17625, -5908.78759765625], [-124.762, 45.18095, -6784.36474609375], [-124.762, 45.18565, -5827.095703125]]], [[[-124.76941, 45.1173, -3090.608642578125], [-124.76842, 45.12625, -3084.689697265625], [-124.7689, 45.12193, -2213.592041015625], [-124.76941, 45.1173, -3090.608642578125]]], [[[-124.762, 45.18102, -4952.7294921875], [-124.762, 45.18578, -4090.541748046875], [-124.762, 45.17638, -4087.709228515625], [-124.762, 45.18102, -4952.7294921875]]], [[[-124.76892, 45.12168, -3963.30322265625], [-124.76842, 45.12625, -3084.689697265625], [-124.76941, 45.1173, -3090.608642578125], [-124.76892, 45.12168, -3963.30322265625]]], [[[-124.762, 45.18565, -5827.095703125], [-124.762, 45.19037, -4954.38525390625], [-124.762, 45.18102, -4952.7294921875], [-124.762, 45.18565, -5827.095703125]]], [[[-124.76794, 45.13051, -3960.848388671875], [-124.76842, 45.12625, -3084.689697265625], [-124.76892, 45.12168, -3963.30322265625], [-124.76794, 45.13051, -3960.848388671875]]], [[[-124.76794, 45.13051, -3960.848388671875], [-124.76742, 45.13519, -3111.126708984375], [-124.76842, 45.12625, -3084.689697265625], [-124.76794, 45.13051, -3960.848388671875]]], [[[-124.76794, 45.13051, -3960.848388671875], [-124.76689, 45.13949, -3990.75439453125], [-124.76742, 45.13519, -3111.126708984375], [-124.76794, 45.13051, -3960.848388671875]]], [[[-124.76286, 45.16727, -7677.27197265625], [-124.76234, 45.17194, -8536.3125], [-124.762, 45.17641, -7663.26611328125], [-124.76286, 45.16727, -7677.27197265625]]], [[[-124.76794, 45.13051, -3960.848388671875], [-124.76745, 45.13494, -4918.2607421875], [-124.76689, 45.13949, -3990.75439453125], [-124.76794, 45.13051, -3960.848388671875]]], [[[-124.762, 45.18102, -4952.7294921875], [-124.762, 45.17638, -4087.709228515625], [-124.76238, 45.17159, -4957.20751953125], [-124.762, 45.18102, -4952.7294921875]]], [[[-124.76745, 45.13494, -4918.2607421875], [-124.76794, 45.13051, -3960.848388671875], [-124.76844, 45.12604, -4910.76220703125], [-124.76745, 45.13494, -4918.2607421875]]], [[[-124.76288, 45.16708, -5911.7705078125], [-124.763, 45.1626, -6819.01904296875], [-124.76236, 45.17173, -6804.32568359375], [-124.76288, 45.16708, -5911.7705078125]]], [[[-124.762, 45.19504, -7652.50048828125], [-124.762, 45.19034, -6782.90966796875], [-124.762, 45.18561, -7649.2734375], [-124.762, 45.19504, -7652.50048828125]]], [[[-124.76234, 45.17194, -8536.3125], [-124.763, 45.16279, -8550.123046875], [-124.76284, 45.16744, -9409.26171875], [-124.76234, 45.17194, -8536.3125]]], [[[-124.76745, 45.13494, -4918.2607421875], [-124.76844, 45.12604, -4910.76220703125], [-124.76792, 45.13072, -5920.54052734375], [-124.76745, 45.13494, -4918.2607421875]]], [[[-124.76792, 45.13072, -5920.54052734375], [-124.76678, 45.13999, -5912.19677734375], [-124.76745, 45.13494, -4918.2607421875], [-124.76792, 45.13072, -5920.54052734375]]], [[[-124.762, 45.18565, -5827.095703125], [-124.762, 45.19517, -5848.27587890625], [-124.762, 45.19037, -4954.38525390625], [-124.762, 45.18565, -5827.095703125]]], [[[-124.76792, 45.13072, -5920.54052734375], [-124.76738, 45.13561, -6841.95654296875], [-124.76678, 45.13999, -5912.19677734375], [-124.76792, 45.13072, -5920.54052734375]]], [[[-124.762, 45.19037, -4954.38525390625], [-124.762, 45.18578, -4090.541748046875], [-124.762, 45.18102, -4952.7294921875], [-124.762, 45.19037, -4954.38525390625]]], [[[-124.76792, 45.13072, -5920.54052734375], [-124.76845, 45.12597, -6826.869140625], [-124.76738, 45.13561, -6841.95654296875], [-124.76792, 45.13072, -5920.54052734375]]], [[[-124.76288, 45.16706, -4069.3984375], [-124.76235, 45.17184, -3213.92724609375], [-124.763, 45.16257, -3193.168701171875], [-124.76288, 45.16706, -4069.3984375]]], [[[-124.76897, 45.12131, -5887.46875], [-124.76845, 45.12597, -6826.869140625], [-124.76792, 45.13072, -5920.54052734375], [-124.76897, 45.12131, -5887.46875]]], [[[-124.76235, 45.17184, -3213.92724609375], [-124.76285, 45.16739, -2338.83251953125], [-124.763, 45.16257, -3193.168701171875], [-124.76235, 45.17184, -3213.92724609375]]], [[[-124.76897, 45.12131, -5887.46875], [-124.7696, 45.11561, -6747.3583984375], [-124.76845, 45.12597, -6826.869140625], [-124.76897, 45.12131, -5887.46875]]], [[[-124.762, 45.19517, -5848.27587890625], [-124.762, 45.2003, -4997.53857421875], [-124.762, 45.19037, -4954.38525390625], [-124.762, 45.19517, -5848.27587890625]]], [[[-124.76991, 45.1128, -5660.626953125], [-124.7696, 45.11561, -6747.3583984375], [-124.76897, 45.12131, -5887.46875], [-124.76991, 45.1128, -5660.626953125]]], [[[-124.762, 45.17638, -4087.709228515625], [-124.762, 45.18578, -4090.541748046875], [-124.762, 45.18115, -3229.639892578125], [-124.762, 45.17638, -4087.709228515625]]], [[[-124.76991, 45.1128, -5660.626953125], [-124.77, 45.1061, -6014.70751953125], [-124.7696, 45.11561, -6747.3583984375], [-124.76991, 45.1128, -5660.626953125]]], [[[-124.76991, 45.1128, -5660.626953125], [-124.77, 45.10655, -4894.97607421875], [-124.77, 45.1061, -6014.70751953125], [-124.76991, 45.1128, -5660.626953125]]], [[[-124.76991, 45.1128, -5660.626953125], [-124.76944, 45.11702, -4843.951171875], [-124.77, 45.10655, -4894.97607421875], [-124.76991, 45.1128, -5660.626953125]]], [[[-124.762, 45.18578, -9380.8271484375], [-124.762, 45.17665, -9395.2529296875], [-124.762, 45.18131, -10254.9873046875], [-124.762, 45.18578, -9380.8271484375]]], [[[-124.76991, 45.1128, -5660.626953125], [-124.76897, 45.12131, -5887.46875], [-124.76944, 45.11702, -4843.951171875], [-124.76991, 45.1128, -5660.626953125]]], [[[-124.762, 45.2003, -4997.53857421875], [-124.762, 45.19524, -4107.8203125], [-124.762, 45.19037, -4954.38525390625], [-124.762, 45.2003, -4997.53857421875]]], [[[-124.76897, 45.12131, -5887.46875], [-124.76844, 45.12604, -4910.76220703125], [-124.76944, 45.11702, -4843.951171875], [-124.76897, 45.12131, -5887.46875]]], [[[-124.762, 45.19504, -7652.50048828125], [-124.762, 45.18561, -7649.2734375], [-124.762, 45.19033, -8508.3388671875], [-124.762, 45.19504, -7652.50048828125]]], [[[-124.762, 45.18565, -5827.095703125], [-124.762, 45.18102, -4952.7294921875], [-124.762, 45.17625, -5908.78759765625], [-124.762, 45.18565, -5827.095703125]]], [[[-124.76897, 45.12131, -5887.46875], [-124.76792, 45.13072, -5920.54052734375], [-124.76844, 45.12604, -4910.76220703125], [-124.76897, 45.12131, -5887.46875]]], [[[-124.76944, 45.11702, -4843.951171875], [-124.76844, 45.12604, -4910.76220703125], [-124.76892, 45.12168, -3963.30322265625], [-124.76944, 45.11702, -4843.951171875]]], [[[-124.762, 45.17625, -5908.78759765625], [-124.762, 45.18102, -4952.7294921875], [-124.76238, 45.17159, -4957.20751953125], [-124.762, 45.17625, -5908.78759765625]]], [[[-124.76944, 45.11702, -4843.951171875], [-124.76892, 45.12168, -3963.30322265625], [-124.77, 45.11173, -4003.84228515625], [-124.76944, 45.11702, -4843.951171875]]], [[[-124.76944, 45.11702, -4843.951171875], [-124.77, 45.11173, -4003.84228515625], [-124.77, 45.10655, -4894.97607421875], [-124.76944, 45.11702, -4843.951171875]]], [[[-124.77, 45.10655, -4894.97607421875], [-124.77, 45.11173, -4003.84228515625], [-124.77, 45.10031, -4168.31103515625], [-124.77, 45.10655, -4894.97607421875]]], [[[-124.77, 45.10655, -4894.97607421875], [-124.77, 45.10031, -4168.31103515625], [-124.77, 45.09844, -5395.140625], [-124.77, 45.10655, -4894.97607421875]]], [[[-124.762, 45.19037, -4954.38525390625], [-124.762, 45.19524, -4107.8203125], [-124.762, 45.18578, -4090.541748046875], [-124.762, 45.19037, -4954.38525390625]]], [[[-124.76236, 45.17173, -6804.32568359375], [-124.76286, 45.16727, -7677.27197265625], [-124.762, 45.17641, -7663.26611328125], [-124.76236, 45.17173, -6804.32568359375]]], [[[-124.77, 45.1061, -6014.70751953125], [-124.77, 45.10655, -4894.97607421875], [-124.77, 45.09844, -5395.140625], [-124.77, 45.1061, -6014.70751953125]]], [[[-124.762, 45.1998, -10229.0107421875], [-124.762, 45.19051, -10238.4931640625], [-124.762, 45.19522, -11096.5185546875], [-124.762, 45.1998, -10229.0107421875]]], [[[-124.77, 45.1061, -6014.70751953125], [-124.77, 45.09844, -5395.140625], [-124.77, 45.09814, -6482.88720703125], [-124.77, 45.1061, -6014.70751953125]]], [[[-124.762, 45.2003, -4997.53857421875], [-124.76163, 45.20534, -4126.53564453125], [-124.762, 45.19524, -4107.8203125], [-124.762, 45.2003, -4997.53857421875]]], [[[-124.77, 45.10618, -6977.2373046875], [-124.77, 45.1061, -6014.70751953125], [-124.77, 45.09814, -6482.88720703125], [-124.77, 45.10618, -6977.2373046875]]], [[[-124.76288, 45.16706, -4069.3984375], [-124.762, 45.17638, -4087.709228515625], [-124.76235, 45.17184, -3213.92724609375], [-124.76288, 45.16706, -4069.3984375]]], [[[-124.77, 45.10618, -6977.2373046875], [-124.7696, 45.11561, -6747.3583984375], [-124.77, 45.1061, -6014.70751953125], [-124.77, 45.10618, -6977.2373046875]]], [[[-124.762, 45.19504, -7652.50048828125], [-124.762, 45.19033, -8508.3388671875], [-124.762, 45.19974, -8508.9755859375], [-124.762, 45.19504, -7652.50048828125]]], [[[-124.76163, 45.20534, -4126.53564453125], [-124.76115, 45.20963, -3294.875732421875], [-124.762, 45.19983, -3240.123291015625], [-124.76163, 45.20534, -4126.53564453125]]], [[[-124.7696, 45.11561, -6747.3583984375], [-124.77, 45.10618, -6977.2373046875], [-124.77, 45.11156, -7723.86865234375], [-124.7696, 45.11561, -6747.3583984375]]], [[[-124.762, 45.19524, -4107.8203125], [-124.762, 45.19983, -3240.123291015625], [-124.762, 45.19054, -3238.205078125], [-124.762, 45.19524, -4107.8203125]]], [[[-124.7696, 45.11561, -6747.3583984375], [-124.77, 45.11156, -7723.86865234375], [-124.76896, 45.12135, -7691.21044921875], [-124.7696, 45.11561, -6747.3583984375]]], [[[-124.76845, 45.12597, -6826.869140625], [-124.7696, 45.11561, -6747.3583984375], [-124.76896, 45.12135, -7691.21044921875], [-124.76845, 45.12597, -6826.869140625]]], [[[-124.762, 45.18578, -9380.8271484375], [-124.762, 45.18131, -10254.9873046875], [-124.762, 45.19051, -10238.4931640625], [-124.762, 45.18578, -9380.8271484375]]], [[[-124.76079, 45.23614, -10278.705078125], [-124.76032, 45.23192, -11109.5771484375], [-124.76061, 45.24108, -11111.88671875], [-124.76079, 45.23614, -10278.705078125]]], [[[-124.76845, 45.12597, -6826.869140625], [-124.76896, 45.12135, -7691.21044921875], [-124.7679, 45.13089, -7696.1494140625], [-124.76845, 45.12597, -6826.869140625]]], [[[-124.762, 45.18095, -6784.36474609375], [-124.76236, 45.17173, -6804.32568359375], [-124.762, 45.17641, -7663.26611328125], [-124.762, 45.18095, -6784.36474609375]]], [[[-124.76063, 45.2347, -6354.44580078125], [-124.76044, 45.24246, -6835.10693359375], [-124.76044, 45.24246, -5873.78466796875], [-124.76063, 45.2347, -6354.44580078125]]], [[[-124.76738, 45.13561, -6841.95654296875], [-124.76845, 45.12597, -6826.869140625], [-124.7679, 45.13089, -7696.1494140625], [-124.76738, 45.13561, -6841.95654296875]]], [[[-124.76738, 45.13561, -6841.95654296875], [-124.7679, 45.13089, -7696.1494140625], [-124.76672, 45.14026, -7700.03271484375], [-124.76738, 45.13561, -6841.95654296875]]], [[[-124.76571, 45.1448, -6830.2138671875], [-124.76738, 45.13561, -6841.95654296875], [-124.76672, 45.14026, -7700.03271484375], [-124.76571, 45.1448, -6830.2138671875]]], [[[-124.76678, 45.13999, -5912.19677734375], [-124.76738, 45.13561, -6841.95654296875], [-124.76571, 45.1448, -6830.2138671875], [-124.76678, 45.13999, -5912.19677734375]]], [[[-124.76678, 45.13999, -5912.19677734375], [-124.76571, 45.1448, -6830.2138671875], [-124.76475, 45.14911, -5911.181640625], [-124.76678, 45.13999, -5912.19677734375]]], [[[-124.76678, 45.13999, -5912.19677734375], [-124.76475, 45.14911, -5911.181640625], [-124.7659, 45.14394, -4933.2119140625], [-124.76678, 45.13999, -5912.19677734375]]], [[[-124.76745, 45.13494, -4918.2607421875], [-124.76678, 45.13999, -5912.19677734375], [-124.7659, 45.14394, -4933.2119140625], [-124.76745, 45.13494, -4918.2607421875]]], [[[-124.76288, 45.16708, -5911.7705078125], [-124.762, 45.17625, -5908.78759765625], [-124.76238, 45.17159, -4957.20751953125], [-124.76288, 45.16708, -5911.7705078125]]], [[[-124.76745, 45.13494, -4918.2607421875], [-124.7659, 45.14394, -4933.2119140625], [-124.76689, 45.13949, -3990.75439453125], [-124.76745, 45.13494, -4918.2607421875]]], [[[-124.7659, 45.14394, -4933.2119140625], [-124.7649, 45.14847, -4016.5654296875], [-124.76689, 45.13949, -3990.75439453125], [-124.7659, 45.14394, -4933.2119140625]]], [[[-124.7659, 45.14394, -4933.2119140625], [-124.76389, 45.15298, -4939.83447265625], [-124.7649, 45.14847, -4016.5654296875], [-124.7659, 45.14394, -4933.2119140625]]], [[[-124.7659, 45.14394, -4933.2119140625], [-124.76475, 45.14911, -5911.181640625], [-124.76389, 45.15298, -4939.83447265625], [-124.7659, 45.14394, -4933.2119140625]]], [[[-124.76475, 45.14911, -5911.181640625], [-124.763, 45.15806, -5906.740234375], [-124.76389, 45.15298, -4939.83447265625], [-124.76475, 45.14911, -5911.181640625]]], [[[-124.76475, 45.14911, -5911.181640625], [-124.76369, 45.15388, -6828.8173828125], [-124.763, 45.15806, -5906.740234375], [-124.76475, 45.14911, -5911.181640625]]], [[[-124.76475, 45.14911, -5911.181640625], [-124.76571, 45.1448, -6830.2138671875], [-124.76369, 45.15388, -6828.8173828125], [-124.76475, 45.14911, -5911.181640625]]], [[[-124.76369, 45.15388, -6828.8173828125], [-124.76571, 45.1448, -6830.2138671875], [-124.76468, 45.14945, -7692.39892578125], [-124.76369, 45.15388, -6828.8173828125]]], [[[-124.76369, 45.15388, -6828.8173828125], [-124.76468, 45.14945, -7692.39892578125], [-124.763, 45.15825, -7697.265625], [-124.76369, 45.15388, -6828.8173828125]]], [[[-124.763, 45.1626, -6819.01904296875], [-124.76369, 45.15388, -6828.8173828125], [-124.763, 45.15825, -7697.265625], [-124.763, 45.1626, -6819.01904296875]]], [[[-124.763, 45.15806, -5906.740234375], [-124.76369, 45.15388, -6828.8173828125], [-124.763, 45.1626, -6819.01904296875], [-124.763, 45.15806, -5906.740234375]]], [[[-124.763, 45.15806, -5906.740234375], [-124.763, 45.1626, -6819.01904296875], [-124.76288, 45.16708, -5911.7705078125], [-124.763, 45.15806, -5906.740234375]]], [[[-124.763, 45.15806, -5906.740234375], [-124.76288, 45.16708, -5911.7705078125], [-124.763, 45.16226, -4953.017578125], [-124.763, 45.15806, -5906.740234375]]], [[[-124.762, 45.18565, -5827.095703125], [-124.762, 45.19034, -6782.90966796875], [-124.762, 45.19517, -5848.27587890625], [-124.762, 45.18565, -5827.095703125]]], [[[-124.763, 45.16226, -4953.017578125], [-124.76389, 45.15298, -4939.83447265625], [-124.763, 45.15806, -5906.740234375], [-124.763, 45.16226, -4953.017578125]]], [[[-124.763, 45.16226, -4953.017578125], [-124.763, 45.1577, -4045.6279296875], [-124.76389, 45.15298, -4939.83447265625], [-124.763, 45.16226, -4953.017578125]]], [[[-124.763, 45.1577, -4045.6279296875], [-124.763, 45.16226, -4953.017578125], [-124.76288, 45.16706, -4069.3984375], [-124.763, 45.1577, -4045.6279296875]]], [[[-124.763, 45.1577, -4045.6279296875], [-124.76288, 45.16706, -4069.3984375], [-124.763, 45.16257, -3193.168701171875], [-124.763, 45.1577, -4045.6279296875]]], [[[-124.763, 45.1577, -4045.6279296875], [-124.763, 45.16257, -3193.168701171875], [-124.76383, 45.15328, -3166.6025390625], [-124.763, 45.1577, -4045.6279296875]]], [[[-124.7649, 45.14847, -4016.5654296875], [-124.763, 45.1577, -4045.6279296875], [-124.76383, 45.15328, -3166.6025390625], [-124.7649, 45.14847, -4016.5654296875]]], [[[-124.763, 45.1577, -4045.6279296875], [-124.7649, 45.14847, -4016.5654296875], [-124.76389, 45.15298, -4939.83447265625], [-124.763, 45.1577, -4045.6279296875]]], [[[-124.7649, 45.14847, -4016.5654296875], [-124.76383, 45.15328, -3166.6025390625], [-124.76586, 45.14413, -3135.280029296875], [-124.7649, 45.14847, -4016.5654296875]]], [[[-124.7649, 45.14847, -4016.5654296875], [-124.76586, 45.14413, -3135.280029296875], [-124.76689, 45.13949, -3990.75439453125], [-124.7649, 45.14847, -4016.5654296875]]], [[[-124.76689, 45.13949, -3990.75439453125], [-124.76586, 45.14413, -3135.280029296875], [-124.76742, 45.13519, -3111.126708984375], [-124.76689, 45.13949, -3990.75439453125]]], [[[-124.76586, 45.14413, -3135.280029296875], [-124.76681, 45.13985, -2253.398193359375], [-124.76742, 45.13519, -3111.126708984375], [-124.76586, 45.14413, -3135.280029296875]]], [[[-124.76586, 45.14413, -3135.280029296875], [-124.7648, 45.14891, -2285.996337890625], [-124.76681, 45.13985, -2253.398193359375], [-124.76586, 45.14413, -3135.280029296875]]], [[[-124.76586, 45.14413, -3135.280029296875], [-124.76383, 45.15328, -3166.6025390625], [-124.7648, 45.14891, -2285.996337890625], [-124.76586, 45.14413, -3135.280029296875]]], [[[-124.76383, 45.15328, -3166.6025390625], [-124.763, 45.1581, -2315.88232421875], [-124.7648, 45.14891, -2285.996337890625], [-124.76383, 45.15328, -3166.6025390625]]], [[[-124.763, 45.16257, -3193.168701171875], [-124.763, 45.1581, -2315.88232421875], [-124.76383, 45.15328, -3166.6025390625], [-124.763, 45.16257, -3193.168701171875]]], [[[-124.763, 45.1581, -2315.88232421875], [-124.763, 45.16257, -3193.168701171875], [-124.76285, 45.16739, -2338.83251953125], [-124.763, 45.1581, -2315.88232421875]]], [[[-124.763, 45.1581, -2315.88232421875], [-124.76285, 45.16739, -2338.83251953125], [-124.763, 45.16295, -1463.2640380859375], [-124.763, 45.1581, -2315.88232421875]]], [[[-124.763, 45.1581, -2315.88232421875], [-124.763, 45.16295, -1463.2640380859375], [-124.76373, 45.1537, -1437.0101318359375], [-124.763, 45.1581, -2315.88232421875]]], [[[-124.763, 45.1581, -2315.88232421875], [-124.76373, 45.1537, -1437.0101318359375], [-124.7648, 45.14891, -2285.996337890625], [-124.763, 45.1581, -2315.88232421875]]], [[[-124.7648, 45.14891, -2285.996337890625], [-124.76373, 45.1537, -1437.0101318359375], [-124.76575, 45.14461, -1403.843505859375], [-124.7648, 45.14891, -2285.996337890625]]], [[[-124.7648, 45.14891, -2285.996337890625], [-124.76575, 45.14461, -1403.843505859375], [-124.76681, 45.13985, -2253.398193359375], [-124.7648, 45.14891, -2285.996337890625]]], [[[-124.76681, 45.13985, -2253.398193359375], [-124.76575, 45.14461, -1403.843505859375], [-124.76739, 45.13553, -1371.761474609375], [-124.76681, 45.13985, -2253.398193359375]]], [[[-124.7679, 45.13086, -2232.022216796875], [-124.76681, 45.13985, -2253.398193359375], [-124.76739, 45.13553, -1371.761474609375], [-124.7679, 45.13086, -2232.022216796875]]], [[[-124.7679, 45.13086, -2232.022216796875], [-124.76742, 45.13519, -3111.126708984375], [-124.76681, 45.13985, -2253.398193359375], [-124.7679, 45.13086, -2232.022216796875]]], [[[-124.76742, 45.13519, -3111.126708984375], [-124.7679, 45.13086, -2232.022216796875], [-124.76842, 45.12625, -3084.689697265625], [-124.76742, 45.13519, -3111.126708984375]]], [[[-124.7679, 45.13086, -2232.022216796875], [-124.76739, 45.13553, -1371.761474609375], [-124.76839, 45.12651, -1350.6617431640625], [-124.7679, 45.13086, -2232.022216796875]]], [[[-124.76739, 45.13553, -1371.761474609375], [-124.76787, 45.13119, -490.85107421875], [-124.76839, 45.12651, -1350.6617431640625], [-124.76739, 45.13553, -1371.761474609375]]], [[[-124.76739, 45.13553, -1371.761474609375], [-124.7667, 45.14033, -521.3960571289062], [-124.76787, 45.13119, -490.85107421875], [-124.76739, 45.13553, -1371.761474609375]]], [[[-124.76575, 45.14461, -1403.843505859375], [-124.7667, 45.14033, -521.3960571289062], [-124.76739, 45.13553, -1371.761474609375], [-124.76575, 45.14461, -1403.843505859375]]], [[[-124.76575, 45.14461, -1403.843505859375], [-124.76469, 45.14941, -555.1885375976562], [-124.7667, 45.14033, -521.3960571289062], [-124.76575, 45.14461, -1403.843505859375]]], [[[-124.76575, 45.14461, -1403.843505859375], [-124.76373, 45.1537, -1437.0101318359375], [-124.76469, 45.14941, -555.1885375976562], [-124.76575, 45.14461, -1403.843505859375]]], [[[-124.76373, 45.1537, -1437.0101318359375], [-124.763, 45.1585, -587.6563720703125], [-124.76469, 45.14941, -555.1885375976562], [-124.76373, 45.1537, -1437.0101318359375]]], [[[-124.763, 45.16295, -1463.2640380859375], [-124.763, 45.1585, -587.6563720703125], [-124.76373, 45.1537, -1437.0101318359375], [-124.763, 45.16295, -1463.2640380859375]]], [[[-124.763, 45.16295, -1463.2640380859375], [-124.76281, 45.16768, -607.135986328125], [-124.763, 45.1585, -587.6563720703125], [-124.763, 45.16295, -1463.2640380859375]]], [[[-124.763, 45.16295, -1463.2640380859375], [-124.76232, 45.17212, -1482.6622314453125], [-124.76281, 45.16768, -607.135986328125], [-124.763, 45.16295, -1463.2640380859375]]], [[[-124.76285, 45.16739, -2338.83251953125], [-124.76232, 45.17212, -1482.6622314453125], [-124.763, 45.16295, -1463.2640380859375], [-124.76285, 45.16739, -2338.83251953125]]], [[[-124.76285, 45.16739, -2338.83251953125], [-124.762, 45.17659, -2357.2509765625], [-124.76232, 45.17212, -1482.6622314453125], [-124.76285, 45.16739, -2338.83251953125]]], [[[-124.76235, 45.17184, -3213.92724609375], [-124.762, 45.17659, -2357.2509765625], [-124.76285, 45.16739, -2338.83251953125], [-124.76235, 45.17184, -3213.92724609375]]], [[[-124.762, 45.18115, -3229.639892578125], [-124.762, 45.17659, -2357.2509765625], [-124.76235, 45.17184, -3213.92724609375], [-124.762, 45.18115, -3229.639892578125]]], [[[-124.762, 45.18115, -3229.639892578125], [-124.762, 45.18592, -2370.111083984375], [-124.762, 45.17659, -2357.2509765625], [-124.762, 45.18115, -3229.639892578125]]], [[[-124.762, 45.19054, -3238.205078125], [-124.762, 45.18592, -2370.111083984375], [-124.762, 45.18115, -3229.639892578125], [-124.762, 45.19054, -3238.205078125]]], [[[-124.762, 45.19054, -3238.205078125], [-124.762, 45.19523, -2374.262451171875], [-124.762, 45.18592, -2370.111083984375], [-124.762, 45.19054, -3238.205078125]]], [[[-124.762, 45.19983, -3240.123291015625], [-124.762, 45.19523, -2374.262451171875], [-124.762, 45.19054, -3238.205078125], [-124.762, 45.19983, -3240.123291015625]]], [[[-124.762, 45.19983, -3240.123291015625], [-124.76173, 45.20443, -2373.93359375], [-124.762, 45.19523, -2374.262451171875], [-124.762, 45.19983, -3240.123291015625]]], [[[-124.76115, 45.20963, -3294.875732421875], [-124.76173, 45.20443, -2373.93359375], [-124.762, 45.19983, -3240.123291015625], [-124.76115, 45.20963, -3294.875732421875]]], [[[-124.76115, 45.20963, -3294.875732421875], [-124.76071, 45.21365, -2371.1611328125], [-124.76173, 45.20443, -2373.93359375], [-124.76115, 45.20963, -3294.875732421875]]], [[[-124.76015, 45.21866, -3247.407470703125], [-124.76071, 45.21365, -2371.1611328125], [-124.76115, 45.20963, -3294.875732421875], [-124.76015, 45.21866, -3247.407470703125]]], [[[-124.76015, 45.21866, -3247.407470703125], [-124.76, 45.22312, -2364.924560546875], [-124.76071, 45.21365, -2371.1611328125], [-124.76015, 45.21866, -3247.407470703125]]], [[[-124.76015, 45.21866, -3247.407470703125], [-124.76, 45.2276, -3102.366455078125], [-124.76, 45.22312, -2364.924560546875], [-124.76015, 45.21866, -3247.407470703125]]], [[[-124.76, 45.22646, -3957.04296875], [-124.76065, 45.23481, -3472.193115234375], [-124.76, 45.2276, -3102.366455078125], [-124.76, 45.22646, -3957.04296875]]], [[[-124.76, 45.22646, -3957.04296875], [-124.76063, 45.2347, -4431.8017578125], [-124.76065, 45.23481, -3472.193115234375], [-124.76, 45.22646, -3957.04296875]]], [[[-124.76, 45.22646, -3957.04296875], [-124.76, 45.22651, -4882.42431640625], [-124.76063, 45.2347, -4431.8017578125], [-124.76, 45.22646, -3957.04296875]]], [[[-124.76, 45.22646, -3957.04296875], [-124.76033, 45.21699, -4238.31103515625], [-124.76, 45.22651, -4882.42431640625], [-124.76, 45.22646, -3957.04296875]]], [[[-124.76033, 45.21699, -4238.31103515625], [-124.76015, 45.21866, -3247.407470703125], [-124.76115, 45.20963, -3294.875732421875], [-124.76033, 45.21699, -4238.31103515625]]], [[[-124.76163, 45.20534, -4126.53564453125], [-124.76033, 45.21699, -4238.31103515625], [-124.76115, 45.20963, -3294.875732421875], [-124.76163, 45.20534, -4126.53564453125]]], [[[-124.76108, 45.21029, -4954.52294921875], [-124.76033, 45.21699, -4238.31103515625], [-124.76163, 45.20534, -4126.53564453125], [-124.76108, 45.21029, -4954.52294921875]]], [[[-124.76108, 45.21029, -4954.52294921875], [-124.76011, 45.21905, -5351.26904296875], [-124.76033, 45.21699, -4238.31103515625], [-124.76108, 45.21029, -4954.52294921875]]], [[[-124.76108, 45.21029, -4954.52294921875], [-124.76169, 45.20476, -5946.1123046875], [-124.76087, 45.21213, -5866.56201171875], [-124.76108, 45.21029, -4954.52294921875]]], [[[-124.76169, 45.20476, -5946.1123046875], [-124.76108, 45.21029, -4954.52294921875], [-124.762, 45.2003, -4997.53857421875], [-124.76169, 45.20476, -5946.1123046875]]], [[[-124.762, 45.19517, -5848.27587890625], [-124.76169, 45.20476, -5946.1123046875], [-124.762, 45.2003, -4997.53857421875], [-124.762, 45.19517, -5848.27587890625]]], [[[-124.762, 45.19517, -5848.27587890625], [-124.762, 45.19989, -6780.29833984375], [-124.76169, 45.20476, -5946.1123046875], [-124.762, 45.19517, -5848.27587890625]]], [[[-124.762, 45.19989, -6780.29833984375], [-124.762, 45.19034, -6782.90966796875], [-124.762, 45.19504, -7652.50048828125], [-124.762, 45.19989, -6780.29833984375]]], [[[-124.762, 45.19989, -6780.29833984375], [-124.762, 45.19504, -7652.50048828125], [-124.76164, 45.20526, -7626.1650390625], [-124.762, 45.19989, -6780.29833984375]]], [[[-124.76, 45.22709, -8722.3828125], [-124.76053, 45.23377, -9324.19921875], [-124.76063, 45.2347, -8277.08984375], [-124.76, 45.22709, -8722.3828125]]], [[[-124.76169, 45.20476, -5946.1123046875], [-124.76107, 45.21039, -6831.56591796875], [-124.76087, 45.21213, -5866.56201171875], [-124.76169, 45.20476, -5946.1123046875]]], [[[-124.76063, 45.2347, -7315.76806640625], [-124.76063, 45.2347, -8277.08984375], [-124.76044, 45.24246, -7796.42919921875], [-124.76063, 45.2347, -7315.76806640625]]], [[[-124.76107, 45.21039, -6831.56591796875], [-124.76011, 45.21904, -6397.35107421875], [-124.76087, 45.21213, -5866.56201171875], [-124.76107, 45.21039, -6831.56591796875]]], [[[-124.76107, 45.21039, -6831.56591796875], [-124.76033, 45.21702, -7511.375], [-124.76011, 45.21904, -6397.35107421875], [-124.76107, 45.21039, -6831.56591796875]]], [[[-124.76116, 45.20956, -8451.478515625], [-124.76173, 45.20445, -9364.2314453125], [-124.7607, 45.2137, -9369.8017578125], [-124.76116, 45.20956, -8451.478515625]]], [[[-124.76017, 45.21845, -8496.6904296875], [-124.76116, 45.20956, -8451.478515625], [-124.7607, 45.2137, -9369.8017578125], [-124.76017, 45.21845, -8496.6904296875]]], [[[-124.76017, 45.21845, -8496.6904296875], [-124.76033, 45.21702, -7511.375], [-124.76116, 45.20956, -8451.478515625], [-124.76017, 45.21845, -8496.6904296875]]], [[[-124.76033, 45.21702, -7511.375], [-124.76017, 45.21845, -8496.6904296875], [-124.76, 45.22646, -7814.6611328125], [-124.76033, 45.21702, -7511.375]]], [[[-124.76033, 45.21702, -7511.375], [-124.76, 45.22646, -7814.6611328125], [-124.76, 45.22646, -6873.32666015625], [-124.76033, 45.21702, -7511.375]]], [[[-124.76011, 45.21904, -6397.35107421875], [-124.76033, 45.21702, -7511.375], [-124.76, 45.22646, -6873.32666015625], [-124.76011, 45.21904, -6397.35107421875]]], [[[-124.76011, 45.21905, -5351.26904296875], [-124.76087, 45.21213, -5866.56201171875], [-124.76011, 45.21904, -6397.35107421875], [-124.76011, 45.21905, -5351.26904296875]]], [[[-124.76011, 45.21905, -5351.26904296875], [-124.76, 45.22692, -5873.78466796875], [-124.76, 45.22651, -4882.42431640625], [-124.76011, 45.21905, -5351.26904296875]]], [[[-124.76, 45.22651, -4882.42431640625], [-124.76, 45.22692, -5873.78466796875], [-124.76063, 45.2347, -5393.12353515625], [-124.76, 45.22651, -4882.42431640625]]], [[[-124.76063, 45.2347, -5393.12353515625], [-124.76063, 45.2347, -6354.44580078125], [-124.76044, 45.24246, -5873.78466796875], [-124.76063, 45.2347, -5393.12353515625]]], [[[-124.76, 45.22692, -5873.78466796875], [-124.76063, 45.2347, -6354.44580078125], [-124.76063, 45.2347, -5393.12353515625], [-124.76, 45.22692, -5873.78466796875]]], [[[-124.76, 45.22646, -6873.32666015625], [-124.76063, 45.2347, -6354.44580078125], [-124.76, 45.22692, -5873.78466796875], [-124.76, 45.22646, -6873.32666015625]]], [[[-124.76, 45.22646, -6873.32666015625], [-124.76063, 45.2347, -7315.76806640625], [-124.76063, 45.2347, -6354.44580078125], [-124.76, 45.22646, -6873.32666015625]]], [[[-124.76, 45.22646, -7814.6611328125], [-124.76063, 45.2347, -8277.08984375], [-124.76063, 45.2347, -7315.76806640625], [-124.76, 45.22646, -7814.6611328125]]], [[[-124.7602, 45.21822, -10240.095703125], [-124.76, 45.22274, -11110.7255859375], [-124.76, 45.2275, -10223.388671875], [-124.7602, 45.21822, -10240.095703125]]], [[[-124.76017, 45.21845, -8496.6904296875], [-124.76, 45.22293, -9395.8818359375], [-124.76, 45.22709, -8722.3828125], [-124.76017, 45.21845, -8496.6904296875]]], [[[-124.76017, 45.21845, -8496.6904296875], [-124.7607, 45.2137, -9369.8017578125], [-124.76, 45.22293, -9395.8818359375], [-124.76017, 45.21845, -8496.6904296875]]], [[[-124.76, 45.22293, -9395.8818359375], [-124.7602, 45.21822, -10240.095703125], [-124.76, 45.2275, -10223.388671875], [-124.76, 45.22293, -9395.8818359375]]], [[[-124.762, 45.18095, -6784.36474609375], [-124.762, 45.17641, -7663.26611328125], [-124.762, 45.18561, -7649.2734375], [-124.762, 45.18095, -6784.36474609375]]], [[[-124.76063, 45.2347, -8277.08984375], [-124.76053, 45.23377, -9324.19921875], [-124.76046, 45.24234, -8774.0048828125], [-124.76063, 45.2347, -8277.08984375]]], [[[-124.76044, 45.24246, -7796.42919921875], [-124.758, 45.25, -8277.08984375], [-124.758, 45.25, -7315.76806640625], [-124.76044, 45.24246, -7796.42919921875]]], [[[-124.76, 45.2275, -10223.388671875], [-124.76032, 45.23192, -11109.5771484375], [-124.76079, 45.23614, -10278.705078125], [-124.76, 45.2275, -10223.388671875]]], [[[-124.7602, 45.21822, -10240.095703125], [-124.76071, 45.21357, -11101.4453125], [-124.76, 45.22274, -11110.7255859375], [-124.7602, 45.21822, -10240.095703125]]], [[[-124.762, 45.1998, -10229.0107421875], [-124.762, 45.19522, -11096.5185546875], [-124.76173, 45.20441, -11093.546875], [-124.762, 45.1998, -10229.0107421875]]], [[[-124.762, 45.18111, -8522.1025390625], [-124.762, 45.18561, -7649.2734375], [-124.762, 45.17641, -7663.26611328125], [-124.762, 45.18111, -8522.1025390625]]], [[[-124.76234, 45.17194, -8536.3125], [-124.762, 45.17665, -9395.2529296875], [-124.762, 45.18111, -8522.1025390625], [-124.76234, 45.17194, -8536.3125]]], [[[-124.76238, 45.17159, -4957.20751953125], [-124.76288, 45.16706, -4069.3984375], [-124.763, 45.16226, -4953.017578125], [-124.76238, 45.17159, -4957.20751953125]]], [[[-124.76288, 45.16706, -4069.3984375], [-124.76238, 45.17159, -4957.20751953125], [-124.762, 45.17638, -4087.709228515625], [-124.76288, 45.16706, -4069.3984375]]], [[[-124.762, 45.18578, -4090.541748046875], [-124.762, 45.19524, -4107.8203125], [-124.762, 45.19054, -3238.205078125], [-124.762, 45.18578, -4090.541748046875]]], [[[-124.762, 45.19504, -7652.50048828125], [-124.762, 45.19974, -8508.9755859375], [-124.76164, 45.20526, -7626.1650390625], [-124.762, 45.19504, -7652.50048828125]]], [[[-124.762, 45.18565, -5827.095703125], [-124.762, 45.18095, -6784.36474609375], [-124.762, 45.19034, -6782.90966796875], [-124.762, 45.18565, -5827.095703125]]], [[[-124.762, 45.19508, -9367.7626953125], [-124.762, 45.19974, -8508.9755859375], [-124.762, 45.19033, -8508.3388671875], [-124.762, 45.19508, -9367.7626953125]]], [[[-124.762, 45.19974, -8508.9755859375], [-124.762, 45.19508, -9367.7626953125], [-124.76173, 45.20445, -9364.2314453125], [-124.762, 45.19974, -8508.9755859375]]], [[[-124.762, 45.19508, -9367.7626953125], [-124.762, 45.1998, -10229.0107421875], [-124.76173, 45.20445, -9364.2314453125], [-124.762, 45.19508, -9367.7626953125]]], [[[-124.762, 45.19033, -8508.3388671875], [-124.762, 45.18578, -9380.8271484375], [-124.762, 45.19508, -9367.7626953125], [-124.762, 45.19033, -8508.3388671875]]], [[[-124.763, 45.1626, -6819.01904296875], [-124.763, 45.15825, -7697.265625], [-124.76286, 45.16727, -7677.27197265625], [-124.763, 45.1626, -6819.01904296875]]], [[[-124.763, 45.15825, -7697.265625], [-124.763, 45.16279, -8550.123046875], [-124.76286, 45.16727, -7677.27197265625], [-124.763, 45.15825, -7697.265625]]], [[[-124.763, 45.15825, -7697.265625], [-124.76369, 45.15391, -8561.2216796875], [-124.763, 45.16279, -8550.123046875], [-124.763, 45.15825, -7697.265625]]], [[[-124.76468, 45.14945, -7692.39892578125], [-124.76369, 45.15391, -8561.2216796875], [-124.763, 45.15825, -7697.265625], [-124.76468, 45.14945, -7692.39892578125]]], [[[-124.76468, 45.14945, -7692.39892578125], [-124.76569, 45.14491, -8555.599609375], [-124.76369, 45.15391, -8561.2216796875], [-124.76468, 45.14945, -7692.39892578125]]], [[[-124.76672, 45.14026, -7700.03271484375], [-124.76569, 45.14491, -8555.599609375], [-124.76468, 45.14945, -7692.39892578125], [-124.76672, 45.14026, -7700.03271484375]]], [[[-124.76672, 45.14026, -7700.03271484375], [-124.76738, 45.1356, -8557.5712890625], [-124.76569, 45.14491, -8555.599609375], [-124.76672, 45.14026, -7700.03271484375]]], [[[-124.7679, 45.13089, -7696.1494140625], [-124.76738, 45.1356, -8557.5712890625], [-124.76672, 45.14026, -7700.03271484375], [-124.7679, 45.13089, -7696.1494140625]]], [[[-124.76738, 45.1356, -8557.5712890625], [-124.7679, 45.13089, -7696.1494140625], [-124.76841, 45.12631, -8566.7109375], [-124.76738, 45.1356, -8557.5712890625]]], [[[-124.76738, 45.1356, -8557.5712890625], [-124.76841, 45.12631, -8566.7109375], [-124.76789, 45.13099, -9426.76953125], [-124.76738, 45.1356, -8557.5712890625]]], [[[-124.76738, 45.1356, -8557.5712890625], [-124.76789, 45.13099, -9426.76953125], [-124.76671, 45.14029, -9420.3916015625], [-124.76738, 45.1356, -8557.5712890625]]], [[[-124.76569, 45.14491, -8555.599609375], [-124.76738, 45.1356, -8557.5712890625], [-124.76671, 45.14029, -9420.3916015625], [-124.76569, 45.14491, -8555.599609375]]], [[[-124.76569, 45.14491, -8555.599609375], [-124.76671, 45.14029, -9420.3916015625], [-124.76467, 45.14949, -9422.853515625], [-124.76569, 45.14491, -8555.599609375]]], [[[-124.76369, 45.15391, -8561.2216796875], [-124.76569, 45.14491, -8555.599609375], [-124.76467, 45.14949, -9422.853515625], [-124.76369, 45.15391, -8561.2216796875]]], [[[-124.76369, 45.15391, -8561.2216796875], [-124.76467, 45.14949, -9422.853515625], [-124.763, 45.15835, -9422.8779296875], [-124.76369, 45.15391, -8561.2216796875]]], [[[-124.763, 45.16279, -8550.123046875], [-124.76369, 45.15391, -8561.2216796875], [-124.763, 45.15835, -9422.8779296875], [-124.763, 45.16279, -8550.123046875]]], [[[-124.763, 45.16279, -8550.123046875], [-124.763, 45.15835, -9422.8779296875], [-124.76284, 45.16744, -9409.26171875], [-124.763, 45.16279, -8550.123046875]]], [[[-124.763, 45.15835, -9422.8779296875], [-124.763, 45.16291, -10282.9404296875], [-124.76284, 45.16744, -9409.26171875], [-124.763, 45.15835, -9422.8779296875]]], [[[-124.763, 45.16291, -10282.9404296875], [-124.763, 45.15835, -9422.8779296875], [-124.76367, 45.15397, -10291.9755859375], [-124.763, 45.16291, -10282.9404296875]]], [[[-124.763, 45.16291, -10282.9404296875], [-124.76367, 45.15397, -10291.9755859375], [-124.763, 45.15849, -11160.095703125], [-124.763, 45.16291, -10282.9404296875]]], [[[-124.763, 45.16291, -10282.9404296875], [-124.763, 45.15849, -11160.095703125], [-124.76281, 45.16768, -11137.4072265625], [-124.763, 45.16291, -10282.9404296875]]], [[[-124.76231, 45.1722, -10267.439453125], [-124.763, 45.16291, -10282.9404296875], [-124.76281, 45.16768, -11137.4072265625], [-124.76231, 45.1722, -10267.439453125]]], [[[-124.76231, 45.1722, -10267.439453125], [-124.76284, 45.16744, -9409.26171875], [-124.763, 45.16291, -10282.9404296875], [-124.76231, 45.1722, -10267.439453125]]], [[[-124.76284, 45.16744, -9409.26171875], [-124.76231, 45.1722, -10267.439453125], [-124.762, 45.17665, -9395.2529296875], [-124.76284, 45.16744, -9409.26171875]]], [[[-124.762, 45.18131, -10254.9873046875], [-124.762, 45.17665, -9395.2529296875], [-124.76231, 45.1722, -10267.439453125], [-124.762, 45.18131, -10254.9873046875]]], [[[-124.762, 45.18131, -10254.9873046875], [-124.76231, 45.1722, -10267.439453125], [-124.762, 45.17684, -11129.4697265625], [-124.762, 45.18131, -10254.9873046875]]], [[[-124.762, 45.18131, -10254.9873046875], [-124.762, 45.17684, -11129.4697265625], [-124.762, 45.18603, -11112.3115234375], [-124.762, 45.18131, -10254.9873046875]]], [[[-124.762, 45.18131, -10254.9873046875], [-124.762, 45.18603, -11112.3115234375], [-124.762, 45.19051, -10238.4931640625], [-124.762, 45.18131, -10254.9873046875]]], [[[-124.762, 45.19522, -11096.5185546875], [-124.762, 45.19051, -10238.4931640625], [-124.762, 45.18603, -11112.3115234375], [-124.762, 45.19522, -11096.5185546875]]], [[[-124.76231, 45.1722, -10267.439453125], [-124.76281, 45.16768, -11137.4072265625], [-124.762, 45.17684, -11129.4697265625], [-124.76231, 45.1722, -10267.439453125]]], [[[-124.76367, 45.15397, -10291.9755859375], [-124.76469, 45.14939, -11155.890625], [-124.763, 45.15849, -11160.095703125], [-124.76367, 45.15397, -10291.9755859375]]], [[[-124.76367, 45.15397, -10291.9755859375], [-124.76569, 45.14492, -10285.7509765625], [-124.76469, 45.14939, -11155.890625], [-124.76367, 45.15397, -10291.9755859375]]], [[[-124.76367, 45.15397, -10291.9755859375], [-124.76467, 45.14949, -9422.853515625], [-124.76569, 45.14492, -10285.7509765625], [-124.76367, 45.15397, -10291.9755859375]]], [[[-124.76467, 45.14949, -9422.853515625], [-124.76367, 45.15397, -10291.9755859375], [-124.763, 45.15835, -9422.8779296875], [-124.76467, 45.14949, -9422.853515625]]], [[[-124.76671, 45.14029, -9420.3916015625], [-124.76569, 45.14492, -10285.7509765625], [-124.76467, 45.14949, -9422.853515625], [-124.76671, 45.14029, -9420.3916015625]]], [[[-124.76569, 45.14492, -10285.7509765625], [-124.76671, 45.14029, -9420.3916015625], [-124.76737, 45.13566, -10287.08203125], [-124.76569, 45.14492, -10285.7509765625]]], [[[-124.76569, 45.14492, -10285.7509765625], [-124.76737, 45.13566, -10287.08203125], [-124.76671, 45.14031, -11147.6044921875], [-124.76569, 45.14492, -10285.7509765625]]], [[[-124.76569, 45.14492, -10285.7509765625], [-124.76671, 45.14031, -11147.6044921875], [-124.76469, 45.14939, -11155.890625], [-124.76569, 45.14492, -10285.7509765625]]], [[[-124.76737, 45.13566, -10287.08203125], [-124.76787, 45.13116, -11158.51171875], [-124.76671, 45.14031, -11147.6044921875], [-124.76737, 45.13566, -10287.08203125]]], [[[-124.76737, 45.13566, -10287.08203125], [-124.76839, 45.12649, -10298.400390625], [-124.76787, 45.13116, -11158.51171875], [-124.76737, 45.13566, -10287.08203125]]], [[[-124.76737, 45.13566, -10287.08203125], [-124.76789, 45.13099, -9426.76953125], [-124.76839, 45.12649, -10298.400390625], [-124.76737, 45.13566, -10287.08203125]]], [[[-124.76789, 45.13099, -9426.76953125], [-124.76737, 45.13566, -10287.08203125], [-124.76671, 45.14029, -9420.3916015625], [-124.76789, 45.13099, -9426.76953125]]], [[[-124.76891, 45.12181, -9438.587890625], [-124.76839, 45.12649, -10298.400390625], [-124.76789, 45.13099, -9426.76953125], [-124.76891, 45.12181, -9438.587890625]]], [[[-124.76891, 45.12181, -9438.587890625], [-124.76941, 45.11732, -10310.701171875], [-124.76839, 45.12649, -10298.400390625], [-124.76891, 45.12181, -9438.587890625]]], [[[-124.76994, 45.1125, -9456.18359375], [-124.76941, 45.11732, -10310.701171875], [-124.76891, 45.12181, -9438.587890625], [-124.76994, 45.1125, -9456.18359375]]], [[[-124.76941, 45.11732, -10310.701171875], [-124.76994, 45.1125, -9456.18359375], [-124.77, 45.10801, -10333.3046875], [-124.76941, 45.11732, -10310.701171875]]], [[[-124.76941, 45.11732, -10310.701171875], [-124.77, 45.10801, -10333.3046875], [-124.76991, 45.11284, -11183.0888671875], [-124.76941, 45.11732, -10310.701171875]]], [[[-124.76941, 45.11732, -10310.701171875], [-124.76991, 45.11284, -11183.0888671875], [-124.76889, 45.122, -11170.2275390625], [-124.76941, 45.11732, -10310.701171875]]], [[[-124.76839, 45.12649, -10298.400390625], [-124.76941, 45.11732, -10310.701171875], [-124.76889, 45.122, -11170.2275390625], [-124.76839, 45.12649, -10298.400390625]]], [[[-124.76839, 45.12649, -10298.400390625], [-124.76889, 45.122, -11170.2275390625], [-124.76787, 45.13116, -11158.51171875], [-124.76839, 45.12649, -10298.400390625]]], [[[-124.77, 45.10801, -10333.3046875], [-124.77, 45.10366, -11214.740234375], [-124.76991, 45.11284, -11183.0888671875], [-124.77, 45.10801, -10333.3046875]]], [[[-124.77, 45.10801, -10333.3046875], [-124.77, 45.09884, -10363.7255859375], [-124.77, 45.10366, -11214.740234375], [-124.77, 45.10801, -10333.3046875]]], [[[-124.77, 45.10319, -9482.8759765625], [-124.77, 45.09884, -10363.7255859375], [-124.77, 45.10801, -10333.3046875], [-124.77, 45.10319, -9482.8759765625]]], [[[-124.77, 45.09402, -9540.7353515625], [-124.77, 45.09884, -10363.7255859375], [-124.77, 45.10319, -9482.8759765625], [-124.77, 45.09402, -9540.7353515625]]], [[[-124.77, 45.09884, -10363.7255859375], [-124.77, 45.09402, -9540.7353515625], [-124.76951, 45.08956, -10400.1513671875], [-124.77, 45.09884, -10363.7255859375]]], [[[-124.77, 45.09884, -10363.7255859375], [-124.76951, 45.08956, -10400.1513671875], [-124.77, 45.09447, -11244.048828125], [-124.77, 45.09884, -10363.7255859375]]], [[[-124.77, 45.09884, -10363.7255859375], [-124.77, 45.09447, -11244.048828125], [-124.77, 45.10366, -11214.740234375], [-124.77, 45.09884, -10363.7255859375]]], [[[-124.76951, 45.08956, -10400.1513671875], [-124.76903, 45.08531, -11286.787109375], [-124.77, 45.09447, -11244.048828125], [-124.76951, 45.08956, -10400.1513671875]]], [[[-124.76951, 45.08956, -10400.1513671875], [-124.76854, 45.08086, -10478.4072265625], [-124.76903, 45.08531, -11286.787109375], [-124.76951, 45.08956, -10400.1513671875]]], [[[-124.76889, 45.08404, -9522.2861328125], [-124.76854, 45.08086, -10478.4072265625], [-124.76951, 45.08956, -10400.1513671875], [-124.76889, 45.08404, -9522.2861328125]]], [[[-124.76889, 45.08404, -9522.2861328125], [-124.76788, 45.07488, -9985.435546875], [-124.76854, 45.08086, -10478.4072265625], [-124.76889, 45.08404, -9522.2861328125]]], [[[-124.76889, 45.08404, -9522.2861328125], [-124.7679, 45.07509, -8939.859375], [-124.76788, 45.07488, -9985.435546875], [-124.76889, 45.08404, -9522.2861328125]]], [[[-124.76873, 45.08256, -8434.5712890625], [-124.7679, 45.07509, -8939.859375], [-124.76889, 45.08404, -9522.2861328125], [-124.76873, 45.08256, -8434.5712890625]]], [[[-124.76873, 45.08256, -8434.5712890625], [-124.76786, 45.07477, -7933.20556640625], [-124.7679, 45.07509, -8939.859375], [-124.76873, 45.08256, -8434.5712890625]]], [[[-124.76873, 45.08256, -8434.5712890625], [-124.76873, 45.08254, -7442.16015625], [-124.76786, 45.07477, -7933.20556640625], [-124.76873, 45.08256, -8434.5712890625]]], [[[-124.76873, 45.08256, -8434.5712890625], [-124.76963, 45.09063, -7929.560546875], [-124.76873, 45.08254, -7442.16015625], [-124.76873, 45.08256, -8434.5712890625]]], [[[-124.76963, 45.09063, -7929.560546875], [-124.76873, 45.08256, -8434.5712890625], [-124.76958, 45.0902, -8819.03515625], [-124.76963, 45.09063, -7929.560546875]]], [[[-124.76958, 45.0902, -8819.03515625], [-124.77, 45.0983, -8634.0986328125], [-124.76963, 45.09063, -7929.560546875], [-124.76958, 45.0902, -8819.03515625]]], [[[-124.77, 45.0983, -8634.0986328125], [-124.76958, 45.0902, -8819.03515625], [-124.77, 45.09402, -9540.7353515625], [-124.77, 45.0983, -8634.0986328125]]], [[[-124.77, 45.0983, -8634.0986328125], [-124.77, 45.09402, -9540.7353515625], [-124.77, 45.10319, -9482.8759765625], [-124.77, 45.0983, -8634.0986328125]]], [[[-124.77, 45.10725, -8560.0224609375], [-124.77, 45.0983, -8634.0986328125], [-124.77, 45.10319, -9482.8759765625], [-124.77, 45.10725, -8560.0224609375]]], [[[-124.77, 45.10725, -8560.0224609375], [-124.77, 45.09993, -7630.77734375], [-124.77, 45.0983, -8634.0986328125], [-124.77, 45.10725, -8560.0224609375]]], [[[-124.77, 45.11156, -7723.86865234375], [-124.77, 45.09993, -7630.77734375], [-124.77, 45.10725, -8560.0224609375], [-124.77, 45.11156, -7723.86865234375]]], [[[-124.77, 45.10618, -6977.2373046875], [-124.77, 45.09993, -7630.77734375], [-124.77, 45.11156, -7723.86865234375], [-124.77, 45.10618, -6977.2373046875]]], [[[-124.77, 45.10618, -6977.2373046875], [-124.77, 45.09814, -6482.88720703125], [-124.77, 45.09993, -7630.77734375], [-124.77, 45.10618, -6977.2373046875]]], [[[-124.77, 45.09814, -6482.88720703125], [-124.76963, 45.09069, -6979.78515625], [-124.77, 45.09993, -7630.77734375], [-124.77, 45.09814, -6482.88720703125]]], [[[-124.77, 45.09814, -6482.88720703125], [-124.76959, 45.09031, -5969.02392578125], [-124.76963, 45.09069, -6979.78515625], [-124.77, 45.09814, -6482.88720703125]]], [[[-124.77, 45.09844, -5395.140625], [-124.76959, 45.09031, -5969.02392578125], [-124.77, 45.09814, -6482.88720703125], [-124.77, 45.09844, -5395.140625]]], [[[-124.77, 45.09844, -5395.140625], [-124.76966, 45.09093, -4923.96875], [-124.76959, 45.09031, -5969.02392578125], [-124.77, 45.09844, -5395.140625]]], [[[-124.77, 45.09844, -5395.140625], [-124.77, 45.10031, -4168.31103515625], [-124.76966, 45.09093, -4923.96875], [-124.77, 45.09844, -5395.140625]]], [[[-124.77, 45.10031, -4168.31103515625], [-124.76966, 45.09097, -3963.088134765625], [-124.76966, 45.09093, -4923.96875], [-124.77, 45.10031, -4168.31103515625]]], [[[-124.77, 45.10031, -4168.31103515625], [-124.77, 45.09897, -3149.65185546875], [-124.76966, 45.09097, -3963.088134765625], [-124.77, 45.10031, -4168.31103515625]]], [[[-124.77, 45.10774, -3158.007080078125], [-124.77, 45.09897, -3149.65185546875], [-124.77, 45.10031, -4168.31103515625], [-124.77, 45.10774, -3158.007080078125]]], [[[-124.77, 45.10774, -3158.007080078125], [-124.77, 45.10385, -2223.420654296875], [-124.77, 45.09897, -3149.65185546875], [-124.77, 45.10774, -3158.007080078125]]], [[[-124.77, 45.10774, -3158.007080078125], [-124.7699, 45.11288, -2211.27783203125], [-124.77, 45.10385, -2223.420654296875], [-124.77, 45.10774, -3158.007080078125]]], [[[-124.77, 45.10774, -3158.007080078125], [-124.76941, 45.1173, -3090.608642578125], [-124.7699, 45.11288, -2211.27783203125], [-124.77, 45.10774, -3158.007080078125]]], [[[-124.77, 45.10774, -3158.007080078125], [-124.77, 45.11173, -4003.84228515625], [-124.76941, 45.1173, -3090.608642578125], [-124.77, 45.10774, -3158.007080078125]]], [[[-124.77, 45.11173, -4003.84228515625], [-124.77, 45.10774, -3158.007080078125], [-124.77, 45.10031, -4168.31103515625], [-124.77, 45.11173, -4003.84228515625]]], [[[-124.76892, 45.12168, -3963.30322265625], [-124.76941, 45.1173, -3090.608642578125], [-124.77, 45.11173, -4003.84228515625], [-124.76892, 45.12168, -3963.30322265625]]], [[[-124.76941, 45.1173, -3090.608642578125], [-124.7689, 45.12193, -2213.592041015625], [-124.7699, 45.11288, -2211.27783203125], [-124.76941, 45.1173, -3090.608642578125]]], [[[-124.77, 45.10829, -1346.0030517578125], [-124.77, 45.10385, -2223.420654296875], [-124.7699, 45.11288, -2211.27783203125], [-124.77, 45.10829, -1346.0030517578125]]], [[[-124.77, 45.10385, -2223.420654296875], [-124.77, 45.10829, -1346.0030517578125], [-124.77, 45.09923, -1357.66748046875], [-124.77, 45.10385, -2223.420654296875]]], [[[-124.77, 45.09923, -1357.66748046875], [-124.77, 45.09481, -2234.0810546875], [-124.77, 45.10385, -2223.420654296875], [-124.77, 45.09923, -1357.66748046875]]], [[[-124.77, 45.09481, -2234.0810546875], [-124.77, 45.09923, -1357.66748046875], [-124.76956, 45.09007, -1378.816162109375], [-124.77, 45.09481, -2234.0810546875]]], [[[-124.76896, 45.08461, -2333.927734375], [-124.77, 45.09481, -2234.0810546875], [-124.76956, 45.09007, -1378.816162109375], [-124.76896, 45.08461, -2333.927734375]]], [[[-124.76962, 45.09058, -3066.677734375], [-124.77, 45.09481, -2234.0810546875], [-124.76896, 45.08461, -2333.927734375], [-124.76962, 45.09058, -3066.677734375]]], [[[-124.77, 45.09897, -3149.65185546875], [-124.77, 45.09481, -2234.0810546875], [-124.76962, 45.09058, -3066.677734375], [-124.77, 45.09897, -3149.65185546875]]], [[[-124.77, 45.09897, -3149.65185546875], [-124.77, 45.10385, -2223.420654296875], [-124.77, 45.09481, -2234.0810546875], [-124.77, 45.09897, -3149.65185546875]]], [[[-124.76966, 45.09097, -3963.088134765625], [-124.77, 45.09897, -3149.65185546875], [-124.76962, 45.09058, -3066.677734375], [-124.76966, 45.09097, -3963.088134765625]]], [[[-124.76874, 45.08267, -3473.619873046875], [-124.76966, 45.09097, -3963.088134765625], [-124.76962, 45.09058, -3066.677734375], [-124.76874, 45.08267, -3473.619873046875]]], [[[-124.76966, 45.09097, -3963.088134765625], [-124.76874, 45.08267, -3473.619873046875], [-124.76873, 45.08254, -4495.88720703125], [-124.76966, 45.09097, -3963.088134765625]]], [[[-124.76873, 45.08254, -4495.88720703125], [-124.76966, 45.09093, -4923.96875], [-124.76966, 45.09097, -3963.088134765625], [-124.76873, 45.08254, -4495.88720703125]]], [[[-124.76966, 45.09093, -4923.96875], [-124.76873, 45.08254, -4495.88720703125], [-124.76873, 45.08254, -5477.978515625], [-124.76966, 45.09093, -4923.96875]]], [[[-124.76959, 45.09031, -5969.02392578125], [-124.76966, 45.09093, -4923.96875], [-124.76873, 45.08254, -5477.978515625], [-124.76959, 45.09031, -5969.02392578125]]], [[[-124.76959, 45.09031, -5969.02392578125], [-124.76873, 45.08254, -5477.978515625], [-124.76873, 45.08254, -6460.0693359375], [-124.76959, 45.09031, -5969.02392578125]]], [[[-124.76963, 45.09069, -6979.78515625], [-124.76959, 45.09031, -5969.02392578125], [-124.76873, 45.08254, -6460.0693359375], [-124.76963, 45.09069, -6979.78515625]]], [[[-124.76963, 45.09069, -6979.78515625], [-124.76873, 45.08254, -6460.0693359375], [-124.76873, 45.08254, -7442.16015625], [-124.76963, 45.09069, -6979.78515625]]], [[[-124.76963, 45.09069, -6979.78515625], [-124.76873, 45.08254, -7442.16015625], [-124.76963, 45.09063, -7929.560546875], [-124.76963, 45.09069, -6979.78515625]]], [[[-124.76963, 45.09063, -7929.560546875], [-124.77, 45.09993, -7630.77734375], [-124.76963, 45.09069, -6979.78515625], [-124.76963, 45.09063, -7929.560546875]]], [[[-124.77, 45.09993, -7630.77734375], [-124.76963, 45.09063, -7929.560546875], [-124.77, 45.0983, -8634.0986328125], [-124.77, 45.09993, -7630.77734375]]], [[[-124.76873, 45.08254, -7442.16015625], [-124.76873, 45.08254, -6460.0693359375], [-124.76786, 45.07477, -6951.11474609375], [-124.76873, 45.08254, -7442.16015625]]], [[[-124.76873, 45.08254, -7442.16015625], [-124.76786, 45.07477, -6951.11474609375], [-124.76786, 45.07477, -7933.20556640625], [-124.76873, 45.08254, -7442.16015625]]], [[[-124.76786, 45.07477, -6951.11474609375], [-124.767, 45.067, -7442.16015625], [-124.76786, 45.07477, -7933.20556640625], [-124.76786, 45.07477, -6951.11474609375]]], [[[-124.76786, 45.07477, -6951.11474609375], [-124.767, 45.067, -6460.0693359375], [-124.767, 45.067, -7442.16015625], [-124.76786, 45.07477, -6951.11474609375]]], [[[-124.76786, 45.07477, -5969.02392578125], [-124.767, 45.067, -6460.0693359375], [-124.76786, 45.07477, -6951.11474609375], [-124.76786, 45.07477, -5969.02392578125]]], [[[-124.76786, 45.07477, -5969.02392578125], [-124.767, 45.067, -5477.978515625], [-124.767, 45.067, -6460.0693359375], [-124.76786, 45.07477, -5969.02392578125]]], [[[-124.76786, 45.07477, -5969.02392578125], [-124.76786, 45.07477, -4986.9326171875], [-124.767, 45.067, -5477.978515625], [-124.76786, 45.07477, -5969.02392578125]]], [[[-124.76873, 45.08254, -5477.978515625], [-124.76786, 45.07477, -4986.9326171875], [-124.76786, 45.07477, -5969.02392578125], [-124.76873, 45.08254, -5477.978515625]]], [[[-124.76873, 45.08254, -4495.88720703125], [-124.76786, 45.07477, -4986.9326171875], [-124.76873, 45.08254, -5477.978515625], [-124.76873, 45.08254, -4495.88720703125]]], [[[-124.76873, 45.08254, -4495.88720703125], [-124.76786, 45.07477, -4004.842041015625], [-124.76786, 45.07477, -4986.9326171875], [-124.76873, 45.08254, -4495.88720703125]]], [[[-124.76874, 45.08267, -3473.619873046875], [-124.76786, 45.07477, -4004.842041015625], [-124.76873, 45.08254, -4495.88720703125], [-124.76874, 45.08267, -3473.619873046875]]], [[[-124.76874, 45.08267, -3473.619873046875], [-124.76793, 45.07537, -2962.447021484375], [-124.76786, 45.07477, -4004.842041015625], [-124.76874, 45.08267, -3473.619873046875]]], [[[-124.76874, 45.08267, -3473.619873046875], [-124.76896, 45.08461, -2333.927734375], [-124.76793, 45.07537, -2962.447021484375], [-124.76874, 45.08267, -3473.619873046875]]], [[[-124.76962, 45.09058, -3066.677734375], [-124.76896, 45.08461, -2333.927734375], [-124.76874, 45.08267, -3473.619873046875], [-124.76962, 45.09058, -3066.677734375]]], [[[-124.76896, 45.08461, -2333.927734375], [-124.7679, 45.07512, -1923.158203125], [-124.76793, 45.07537, -2962.447021484375], [-124.76896, 45.08461, -2333.927734375]]], [[[-124.76896, 45.08461, -2333.927734375], [-124.76858, 45.08118, -1381.3873291015625], [-124.7679, 45.07512, -1923.158203125], [-124.76896, 45.08461, -2333.927734375]]], [[[-124.76896, 45.08461, -2333.927734375], [-124.76956, 45.09007, -1378.816162109375], [-124.76858, 45.08118, -1381.3873291015625], [-124.76896, 45.08461, -2333.927734375]]], [[[-124.76793, 45.07537, -2962.447021484375], [-124.7679, 45.07512, -1923.158203125], [-124.767, 45.067, -2531.705810546875], [-124.76793, 45.07537, -2962.447021484375]]], [[[-124.76793, 45.07537, -2962.447021484375], [-124.767, 45.067, -2531.705810546875], [-124.767, 45.067, -3513.796630859375], [-124.76793, 45.07537, -2962.447021484375]]], [[[-124.76786, 45.07477, -4004.842041015625], [-124.76793, 45.07537, -2962.447021484375], [-124.767, 45.067, -3513.796630859375], [-124.76786, 45.07477, -4004.842041015625]]], [[[-124.76786, 45.07477, -4004.842041015625], [-124.767, 45.067, -3513.796630859375], [-124.767, 45.067, -4495.88720703125], [-124.76786, 45.07477, -4004.842041015625]]], [[[-124.76786, 45.07477, -4986.9326171875], [-124.76786, 45.07477, -4004.842041015625], [-124.767, 45.067, -4495.88720703125], [-124.76786, 45.07477, -4986.9326171875]]], [[[-124.76786, 45.07477, -4986.9326171875], [-124.767, 45.067, -4495.88720703125], [-124.767, 45.067, -5477.978515625], [-124.76786, 45.07477, -4986.9326171875]]], [[[-124.7679, 45.07512, -1923.158203125], [-124.767, 45.067, -1549.6148681640625], [-124.767, 45.067, -2531.705810546875], [-124.7679, 45.07512, -1923.158203125]]], [[[-124.76873, 45.08254, -5477.978515625], [-124.76786, 45.07477, -5969.02392578125], [-124.76873, 45.08254, -6460.0693359375], [-124.76873, 45.08254, -5477.978515625]]], [[[-124.76873, 45.08254, -6460.0693359375], [-124.76786, 45.07477, -5969.02392578125], [-124.76786, 45.07477, -6951.11474609375], [-124.76873, 45.08254, -6460.0693359375]]], [[[-124.76786, 45.07477, -7933.20556640625], [-124.767, 45.067, -7442.16015625], [-124.767, 45.067, -8424.2509765625], [-124.76786, 45.07477, -7933.20556640625]]], [[[-124.76786, 45.07477, -7933.20556640625], [-124.767, 45.067, -8424.2509765625], [-124.7679, 45.07509, -8939.859375], [-124.76786, 45.07477, -7933.20556640625]]], [[[-124.767, 45.067, -9406.341796875], [-124.7679, 45.07509, -8939.859375], [-124.767, 45.067, -8424.2509765625], [-124.767, 45.067, -9406.341796875]]], [[[-124.76788, 45.07488, -9985.435546875], [-124.7679, 45.07509, -8939.859375], [-124.767, 45.067, -9406.341796875], [-124.76788, 45.07488, -9985.435546875]]], [[[-124.76788, 45.07488, -9985.435546875], [-124.767, 45.067, -9406.341796875], [-124.767, 45.067, -10388.4326171875], [-124.76788, 45.07488, -9985.435546875]]], [[[-124.76854, 45.08086, -10478.4072265625], [-124.76788, 45.07488, -9985.435546875], [-124.76802, 45.07616, -11332.7998046875], [-124.76854, 45.08086, -10478.4072265625]]], [[[-124.76854, 45.08086, -10478.4072265625], [-124.76802, 45.07616, -11332.7998046875], [-124.76903, 45.08531, -11286.787109375], [-124.76854, 45.08086, -10478.4072265625]]], [[[-124.77, 45.11156, -7723.86865234375], [-124.77, 45.10725, -8560.0224609375], [-124.76944, 45.11703, -8581.484375], [-124.77, 45.11156, -7723.86865234375]]], [[[-124.77, 45.11156, -7723.86865234375], [-124.76944, 45.11703, -8581.484375], [-124.76896, 45.12135, -7691.21044921875], [-124.77, 45.11156, -7723.86865234375]]], [[[-124.76841, 45.12631, -8566.7109375], [-124.76896, 45.12135, -7691.21044921875], [-124.76944, 45.11703, -8581.484375], [-124.76841, 45.12631, -8566.7109375]]], [[[-124.76896, 45.12135, -7691.21044921875], [-124.76841, 45.12631, -8566.7109375], [-124.7679, 45.13089, -7696.1494140625], [-124.76896, 45.12135, -7691.21044921875]]], [[[-124.76841, 45.12631, -8566.7109375], [-124.76944, 45.11703, -8581.484375], [-124.76891, 45.12181, -9438.587890625], [-124.76841, 45.12631, -8566.7109375]]], [[[-124.76841, 45.12631, -8566.7109375], [-124.76891, 45.12181, -9438.587890625], [-124.76789, 45.13099, -9426.76953125], [-124.76841, 45.12631, -8566.7109375]]], [[[-124.76944, 45.11703, -8581.484375], [-124.76994, 45.1125, -9456.18359375], [-124.76891, 45.12181, -9438.587890625], [-124.76944, 45.11703, -8581.484375]]], [[[-124.76944, 45.11703, -8581.484375], [-124.77, 45.10725, -8560.0224609375], [-124.76994, 45.1125, -9456.18359375], [-124.76944, 45.11703, -8581.484375]]], [[[-124.77, 45.10725, -8560.0224609375], [-124.77, 45.10319, -9482.8759765625], [-124.76994, 45.1125, -9456.18359375], [-124.77, 45.10725, -8560.0224609375]]], [[[-124.77, 45.10319, -9482.8759765625], [-124.77, 45.10801, -10333.3046875], [-124.76994, 45.1125, -9456.18359375], [-124.77, 45.10319, -9482.8759765625]]], [[[-124.76958, 45.0902, -8819.03515625], [-124.76889, 45.08404, -9522.2861328125], [-124.77, 45.09402, -9540.7353515625], [-124.76958, 45.0902, -8819.03515625]]], [[[-124.76958, 45.0902, -8819.03515625], [-124.76873, 45.08256, -8434.5712890625], [-124.76889, 45.08404, -9522.2861328125], [-124.76958, 45.0902, -8819.03515625]]], [[[-124.76889, 45.08404, -9522.2861328125], [-124.76951, 45.08956, -10400.1513671875], [-124.77, 45.09402, -9540.7353515625], [-124.76889, 45.08404, -9522.2861328125]]], [[[-124.76571, 45.1448, -6830.2138671875], [-124.76672, 45.14026, -7700.03271484375], [-124.76468, 45.14945, -7692.39892578125], [-124.76571, 45.1448, -6830.2138671875]]], [[[-124.76079, 45.23614, -10278.705078125], [-124.76053, 45.23377, -9324.19921875], [-124.76, 45.2275, -10223.388671875], [-124.76079, 45.23614, -10278.705078125]]], [[[-124.76053, 45.23377, -9324.19921875], [-124.76079, 45.23614, -10278.705078125], [-124.76044, 45.2425, -9808.6533203125], [-124.76053, 45.23377, -9324.19921875]]], [[[-124.76053, 45.23377, -9324.19921875], [-124.76044, 45.2425, -9808.6533203125], [-124.76046, 45.24234, -8774.0048828125], [-124.76053, 45.23377, -9324.19921875]]], [[[-124.758, 45.25, -6354.44580078125], [-124.758, 45.25, -5393.12353515625], [-124.76044, 45.24246, -5873.78466796875], [-124.758, 45.25, -6354.44580078125]]], [[[-124.758, 45.25, -5393.12353515625], [-124.76044, 45.24246, -4912.462890625], [-124.76044, 45.24246, -5873.78466796875], [-124.758, 45.25, -5393.12353515625]]], [[[-124.76044, 45.24246, -4912.462890625], [-124.758, 45.25, -5393.12353515625], [-124.758, 45.25, -4431.8017578125], [-124.76044, 45.24246, -4912.462890625]]], [[[-124.76044, 45.24246, -3951.140625], [-124.76044, 45.24246, -4912.462890625], [-124.758, 45.25, -4431.8017578125], [-124.76044, 45.24246, -3951.140625]]], [[[-124.76044, 45.24246, -4912.462890625], [-124.76044, 45.24246, -3951.140625], [-124.76063, 45.2347, -4431.8017578125], [-124.76044, 45.24246, -4912.462890625]]], [[[-124.76065, 45.23481, -3472.193115234375], [-124.76063, 45.2347, -4431.8017578125], [-124.76044, 45.24246, -3951.140625], [-124.76065, 45.23481, -3472.193115234375]]], [[[-124.76065, 45.23481, -3472.193115234375], [-124.76044, 45.24246, -3951.140625], [-124.76046, 45.24235, -2971.455322265625], [-124.76065, 45.23481, -3472.193115234375]]], [[[-124.76054, 45.23384, -2425.363037109375], [-124.76065, 45.23481, -3472.193115234375], [-124.76046, 45.24235, -2971.455322265625], [-124.76054, 45.23384, -2425.363037109375]]], [[[-124.76054, 45.23384, -2425.363037109375], [-124.76, 45.2276, -3102.366455078125], [-124.76065, 45.23481, -3472.193115234375], [-124.76054, 45.23384, -2425.363037109375]]], [[[-124.76, 45.2276, -3102.366455078125], [-124.76054, 45.23384, -2425.363037109375], [-124.76, 45.22312, -2364.924560546875], [-124.76, 45.2276, -3102.366455078125]]], [[[-124.76, 45.22312, -2364.924560546875], [-124.76054, 45.23384, -2425.363037109375], [-124.76, 45.22755, -1513.70751953125], [-124.76, 45.22312, -2364.924560546875]]], [[[-124.76, 45.22312, -2364.924560546875], [-124.76, 45.22755, -1513.70751953125], [-124.7602, 45.21822, -1502.760009765625], [-124.76, 45.22312, -2364.924560546875]]], [[[-124.76071, 45.21365, -2371.1611328125], [-124.76, 45.22312, -2364.924560546875], [-124.7602, 45.21822, -1502.760009765625], [-124.76071, 45.21365, -2371.1611328125]]], [[[-124.76071, 45.21365, -2371.1611328125], [-124.7602, 45.21822, -1502.760009765625], [-124.76122, 45.209, -1507.5301513671875], [-124.76071, 45.21365, -2371.1611328125]]], [[[-124.76173, 45.20443, -2373.93359375], [-124.76071, 45.21365, -2371.1611328125], [-124.76122, 45.209, -1507.5301513671875], [-124.76173, 45.20443, -2373.93359375]]], [[[-124.76173, 45.20443, -2373.93359375], [-124.76122, 45.209, -1507.5301513671875], [-124.762, 45.19983, -1508.28662109375], [-124.76173, 45.20443, -2373.93359375]]], [[[-124.762, 45.19523, -2374.262451171875], [-124.76173, 45.20443, -2373.93359375], [-124.762, 45.19983, -1508.28662109375], [-124.762, 45.19523, -2374.262451171875]]], [[[-124.762, 45.19523, -2374.262451171875], [-124.762, 45.19983, -1508.28662109375], [-124.762, 45.19063, -1508.187255859375], [-124.762, 45.19523, -2374.262451171875]]], [[[-124.762, 45.18592, -2370.111083984375], [-124.762, 45.19523, -2374.262451171875], [-124.762, 45.19063, -1508.187255859375], [-124.762, 45.18592, -2370.111083984375]]], [[[-124.762, 45.18592, -2370.111083984375], [-124.762, 45.19063, -1508.187255859375], [-124.762, 45.18133, -1500.037841796875], [-124.762, 45.18592, -2370.111083984375]]], [[[-124.762, 45.17659, -2357.2509765625], [-124.762, 45.18592, -2370.111083984375], [-124.762, 45.18133, -1500.037841796875], [-124.762, 45.17659, -2357.2509765625]]], [[[-124.762, 45.17659, -2357.2509765625], [-124.762, 45.18133, -1500.037841796875], [-124.76232, 45.17212, -1482.6622314453125], [-124.762, 45.17659, -2357.2509765625]]], [[[-124.762, 45.18133, -1500.037841796875], [-124.762, 45.17685, -626.4473266601562], [-124.76232, 45.17212, -1482.6622314453125], [-124.762, 45.18133, -1500.037841796875]]], [[[-124.762, 45.18133, -1500.037841796875], [-124.762, 45.18604, -641.7726440429688], [-124.762, 45.17685, -626.4473266601562], [-124.762, 45.18133, -1500.037841796875]]], [[[-124.762, 45.19063, -1508.187255859375], [-124.762, 45.18604, -641.7726440429688], [-124.762, 45.18133, -1500.037841796875], [-124.762, 45.19063, -1508.187255859375]]], [[[-124.762, 45.19063, -1508.187255859375], [-124.762, 45.19523, -642.551513671875], [-124.762, 45.18604, -641.7726440429688], [-124.762, 45.19063, -1508.187255859375]]], [[[-124.762, 45.19063, -1508.187255859375], [-124.762, 45.19983, -1508.28662109375], [-124.762, 45.19523, -642.551513671875], [-124.762, 45.19063, -1508.187255859375]]], [[[-124.762, 45.19983, -1508.28662109375], [-124.76173, 45.20441, -641.9710083007812], [-124.762, 45.19523, -642.551513671875], [-124.762, 45.19983, -1508.28662109375]]], [[[-124.76122, 45.209, -1507.5301513671875], [-124.76173, 45.20441, -641.9710083007812], [-124.762, 45.19983, -1508.28662109375], [-124.76122, 45.209, -1507.5301513671875]]], [[[-124.76122, 45.209, -1507.5301513671875], [-124.76071, 45.21358, -641.0390625], [-124.76173, 45.20441, -641.9710083007812], [-124.76122, 45.209, -1507.5301513671875]]], [[[-124.7602, 45.21822, -1502.760009765625], [-124.76071, 45.21358, -641.0390625], [-124.76122, 45.209, -1507.5301513671875], [-124.7602, 45.21822, -1502.760009765625]]], [[[-124.7602, 45.21822, -1502.760009765625], [-124.76, 45.22275, -632.4909057617188], [-124.76071, 45.21358, -641.0390625], [-124.7602, 45.21822, -1502.760009765625]]], [[[-124.76, 45.22755, -1513.70751953125], [-124.76, 45.22275, -632.4909057617188], [-124.7602, 45.21822, -1502.760009765625], [-124.76, 45.22755, -1513.70751953125]]], [[[-124.76, 45.22755, -1513.70751953125], [-124.76033, 45.23193, -621.09765625], [-124.76, 45.22275, -632.4909057617188], [-124.76, 45.22755, -1513.70751953125]]], [[[-124.76, 45.22755, -1513.70751953125], [-124.7608, 45.23616, -1464.3729248046875], [-124.76033, 45.23193, -621.09765625], [-124.76, 45.22755, -1513.70751953125]]], [[[-124.76054, 45.23384, -2425.363037109375], [-124.7608, 45.23616, -1464.3729248046875], [-124.76, 45.22755, -1513.70751953125], [-124.76054, 45.23384, -2425.363037109375]]], [[[-124.76054, 45.23384, -2425.363037109375], [-124.76044, 45.24248, -1937.4630126953125], [-124.7608, 45.23616, -1464.3729248046875], [-124.76054, 45.23384, -2425.363037109375]]], [[[-124.76054, 45.23384, -2425.363037109375], [-124.76046, 45.24235, -2971.455322265625], [-124.76044, 45.24248, -1937.4630126953125], [-124.76054, 45.23384, -2425.363037109375]]], [[[-124.76046, 45.24235, -2971.455322265625], [-124.758, 45.25, -2509.1572265625], [-124.76044, 45.24248, -1937.4630126953125], [-124.76046, 45.24235, -2971.455322265625]]], [[[-124.76046, 45.24235, -2971.455322265625], [-124.758, 45.25, -3470.4794921875], [-124.758, 45.25, -2509.1572265625], [-124.76046, 45.24235, -2971.455322265625]]], [[[-124.76044, 45.24246, -3951.140625], [-124.758, 45.25, -3470.4794921875], [-124.76046, 45.24235, -2971.455322265625], [-124.76044, 45.24246, -3951.140625]]], [[[-124.76044, 45.24246, -3951.140625], [-124.758, 45.25, -4431.8017578125], [-124.758, 45.25, -3470.4794921875], [-124.76044, 45.24246, -3951.140625]]], [[[-124.76044, 45.24248, -1937.4630126953125], [-124.758, 45.25, -2509.1572265625], [-124.758, 45.25, -1547.835205078125], [-124.76044, 45.24248, -1937.4630126953125]]], [[[-124.7608, 45.23616, -1464.3729248046875], [-124.76044, 45.24248, -1937.4630126953125], [-124.76061, 45.24109, -630.7999267578125], [-124.7608, 45.23616, -1464.3729248046875]]], [[[-124.7608, 45.23616, -1464.3729248046875], [-124.76061, 45.24109, -630.7999267578125], [-124.76033, 45.23193, -621.09765625], [-124.7608, 45.23616, -1464.3729248046875]]], [[[-124.76232, 45.17212, -1482.6622314453125], [-124.762, 45.17685, -626.4473266601562], [-124.76281, 45.16768, -607.135986328125], [-124.76232, 45.17212, -1482.6622314453125]]], [[[-124.76839, 45.12651, -1350.6617431640625], [-124.76787, 45.13119, -490.85107421875], [-124.76889, 45.12202, -478.54718017578125], [-124.76839, 45.12651, -1350.6617431640625]]], [[[-124.7694, 45.11744, -1344.503662109375], [-124.76839, 45.12651, -1350.6617431640625], [-124.76889, 45.12202, -478.54718017578125], [-124.7694, 45.11744, -1344.503662109375]]], [[[-124.7694, 45.11744, -1344.503662109375], [-124.76889, 45.12202, -478.54718017578125], [-124.7699, 45.11286, -478.4093322753906], [-124.7694, 45.11744, -1344.503662109375]]], [[[-124.76794, 45.13051, -3960.848388671875], [-124.76892, 45.12168, -3963.30322265625], [-124.76844, 45.12604, -4910.76220703125], [-124.76794, 45.13051, -3960.848388671875]]], [[[-124.7679, 45.07512, -1923.158203125], [-124.76802, 45.07616, -545.7103881835938], [-124.767, 45.067, -1549.6148681640625], [-124.7679, 45.07512, -1923.158203125]]], [[[-124.767, 45.067, -1549.6148681640625], [-124.76802, 45.07616, -545.7103881835938], [-124.767, 45.067, -567.5239868164062], [-124.767, 45.067, -1549.6148681640625]]], [[[-124.767, 45.067, -11370.5234375], [-124.76802, 45.07616, -11332.7998046875], [-124.767, 45.067, -10388.4326171875], [-124.767, 45.067, -11370.5234375]]], [[[-124.767, 45.067, -10388.4326171875], [-124.76802, 45.07616, -11332.7998046875], [-124.76788, 45.07488, -9985.435546875], [-124.767, 45.067, -10388.4326171875]]], [[[-124.76044, 45.2425, -9808.6533203125], [-124.76061, 45.24108, -11111.88671875], [-124.758, 45.25, -10199.734375], [-124.76044, 45.2425, -9808.6533203125]]], [[[-124.758, 45.25, -10199.734375], [-124.76061, 45.24108, -11111.88671875], [-124.758, 45.25, -11161.056640625], [-124.758, 45.25, -10199.734375]]], [[[-124.758, 45.25, -586.5130004882812], [-124.76061, 45.24109, -630.7999267578125], [-124.758, 45.25, -1547.835205078125], [-124.758, 45.25, -586.5130004882812]]], [[[-124.758, 45.25, -1547.835205078125], [-124.76061, 45.24109, -630.7999267578125], [-124.76044, 45.24248, -1937.4630126953125], [-124.758, 45.25, -1547.835205078125]]]]}}]}