{"type": "FeatureCollection", "features": [{"type": "Feature", "properties": {"name": "AW_NORE_3", "CFM_ID": 239, "region": "Offshore_WAOR", "primary_state/province": "OR", "secondary_state/province": null, "avg_dip": 49.0, "dip_dir": "SW", "rake": 90, "slip_sense": "Reverse", "fault_level": 2, "NSHM23_sliprates": null, "QFFDAgeCatBin": null, "QFFDAgeBin": null, "upper_depth": -2.2, "upper_depth_constraint": "seismic imaging", "lower_depth": -6.8, "lower_depth_constraint": "soles into AW_NORE_2", "3D_model_constraints": "trace and 1 MCS line", "reference": "Ledeczi et al. (2024); Carbotte et al. (2023)", "nshm23_id": null, "lineage": null, "usgs_qffd_#": null, "comments": null, "id": "239"}, "geometry": {"type": "MultiPolygon", "coordinates": [[[[-125.26987, 45.79984, -6427.44677734375], [-125.27028, 45.80541, -6244.189453125], [-125.27621, 45.80221, -6675.13330078125], [-125.26987, 45.79984, -6427.44677734375]]], [[[-125.29835, 45.87148, -4938.3154296875], [-125.30411, 45.86648, -5710.54736328125], [-125.29309, 45.86348, -5170.556640625], [-125.29835, 45.87148, -4938.3154296875]]], [[[-125.25779, 45.82461, -4509.88671875], [-125.26709, 45.82675, -5153.212890625], [-125.26283, 45.81714, -5278.39306640625], [-125.25779, 45.82461, -4509.88671875]]], [[[-125.27125, 45.81246, -6027.8427734375], [-125.28178, 45.81599, -6463.87548828125], [-125.27866, 45.80831, -6578.39111328125], [-125.27125, 45.81246, -6027.8427734375]]], [[[-125.25222, 45.81676, -4454.4951171875], [-125.24747, 45.82332, -3693.2646484375], [-125.25779, 45.82461, -4509.88671875], [-125.25222, 45.81676, -4454.4951171875]]], [[[-125.25341, 45.80914, -4971.20361328125], [-125.26283, 45.81714, -5278.39306640625], [-125.26175, 45.80772, -5635.41015625], [-125.25341, 45.80914, -4971.20361328125]]], [[[-125.25401, 45.80072, -5461.279296875], [-125.25969, 45.7957, -6048.849609375], [-125.25382, 45.7916, -5893.33984375], [-125.25401, 45.80072, -5461.279296875]]], [[[-125.24747, 45.82332, -3693.2646484375], [-125.23834, 45.82135, -2925.125732421875], [-125.24321, 45.82944, -2924.140869140625], [-125.24747, 45.82332, -3693.2646484375]]], [[[-125.27028, 45.80541, -6244.189453125], [-125.27125, 45.81246, -6027.8427734375], [-125.27866, 45.80831, -6578.39111328125], [-125.27028, 45.80541, -6244.189453125]]], [[[-125.26709, 45.82675, -5153.212890625], [-125.27768, 45.82997, -5732.45654296875], [-125.27396, 45.82127, -5847.21923828125], [-125.26709, 45.82675, -5153.212890625]]], [[[-125.32205, 45.92628, -3539.015869140625], [-125.32971, 45.93214, -3970.973876953125], [-125.32985, 45.92388, -4339.51953125], [-125.32205, 45.92628, -3539.015869140625]]], [[[-125.25382, 45.7916, -5893.33984375], [-125.24617, 45.79318, -5287.70751953125], [-125.25401, 45.80072, -5461.279296875], [-125.25382, 45.7916, -5893.33984375]]], [[[-125.26175, 45.80772, -5635.41015625], [-125.27125, 45.81246, -6027.8427734375], [-125.27028, 45.80541, -6244.189453125], [-125.26175, 45.80772, -5635.41015625]]], [[[-125.27396, 45.82127, -5847.21923828125], [-125.2851, 45.82454, -6362.5458984375], [-125.28178, 45.81599, -6463.87548828125], [-125.27396, 45.82127, -5847.21923828125]]], [[[-125.32205, 45.92628, -3539.015869140625], [-125.32078, 45.93443, -3109.55810546875], [-125.32971, 45.93214, -3970.973876953125], [-125.32205, 45.92628, -3539.015869140625]]], [[[-125.28534, 45.8466, -5470.458984375], [-125.29303, 45.84134, -6135.455078125], [-125.28193, 45.83844, -5593.89306640625], [-125.28534, 45.8466, -5470.458984375]]], [[[-125.22762, 45.80414, -3041.966552734375], [-125.23629, 45.80773, -3626.92578125], [-125.23691, 45.80153, -4051.43896484375], [-125.22762, 45.80414, -3041.966552734375]]], [[[-125.32078, 45.93443, -3109.55810546875], [-125.32205, 45.92628, -3539.015869140625], [-125.31435, 45.93137, -2678.4423828125], [-125.32078, 45.93443, -3109.55810546875]]], [[[-125.25222, 45.81676, -4454.4951171875], [-125.25341, 45.80914, -4971.20361328125], [-125.2451, 45.80935, -4291.15625], [-125.25222, 45.81676, -4454.4951171875]]], [[[-125.23815, 45.83584, -2248.139892578125], [-125.24506, 45.84326, -2248.139892578125], [-125.24858, 45.83693, -2930.211181640625], [-125.23815, 45.83584, -2248.139892578125]]], [[[-125.28046, 45.86838, -3749.97021484375], [-125.2711, 45.86745, -2956.512451171875], [-125.27922, 45.87477, -3017.945556640625], [-125.28046, 45.86838, -3749.97021484375]]], [[[-125.31185, 45.93672, -2248.139892578125], [-125.32078, 45.93443, -3109.55810546875], [-125.31435, 45.93137, -2678.4423828125], [-125.31185, 45.93672, -2248.139892578125]]], [[[-125.24199, 45.81536, -3657.40625], [-125.23283, 45.81305, -2930.091552734375], [-125.23834, 45.82135, -2925.125732421875], [-125.24199, 45.81536, -3657.40625]]], [[[-125.31185, 45.93672, -2248.139892578125], [-125.31435, 45.93137, -2678.4423828125], [-125.30791, 45.92831, -2248.139892578125], [-125.31185, 45.93672, -2248.139892578125]]], [[[-125.31392, 45.92333, -2943.98095703125], [-125.30791, 45.92831, -2248.139892578125], [-125.31435, 45.93137, -2678.4423828125], [-125.31392, 45.92333, -2943.98095703125]]], [[[-125.30332, 45.92006, -2248.139892578125], [-125.30791, 45.92831, -2248.139892578125], [-125.31392, 45.92333, -2943.98095703125], [-125.30332, 45.92006, -2248.139892578125]]], [[[-125.31062, 45.91457, -2993.989013671875], [-125.30332, 45.92006, -2248.139892578125], [-125.31392, 45.92333, -2943.98095703125], [-125.31062, 45.91457, -2993.989013671875]]], [[[-125.31062, 45.91457, -2993.989013671875], [-125.29988, 45.91154, -2248.139892578125], [-125.30332, 45.92006, -2248.139892578125], [-125.31062, 45.91457, -2993.989013671875]]], [[[-125.30895, 45.88721, -4501.3564453125], [-125.31962, 45.89023, -5079.978515625], [-125.31433, 45.88238, -5301.0234375], [-125.30895, 45.88721, -4501.3564453125]]], [[[-125.31062, 45.91457, -2993.989013671875], [-125.30848, 45.90595, -3005.361083984375], [-125.29988, 45.91154, -2248.139892578125], [-125.31062, 45.91457, -2993.989013671875]]], [[[-125.31763, 45.90279, -4055.29248046875], [-125.32739, 45.90658, -4732.82861328125], [-125.32495, 45.89802, -4837.50048828125], [-125.31763, 45.90279, -4055.29248046875]]], [[[-125.31062, 45.91457, -2993.989013671875], [-125.31874, 45.91063, -3891.7392578125], [-125.30848, 45.90595, -3005.361083984375], [-125.31062, 45.91457, -2993.989013671875]]], [[[-125.31062, 45.91457, -2993.989013671875], [-125.32048, 45.91838, -3789.97509765625], [-125.31874, 45.91063, -3891.7392578125], [-125.31062, 45.91457, -2993.989013671875]]], [[[-125.20588, 45.78779, -2248.139892578125], [-125.21126, 45.7958, -2248.139892578125], [-125.21453, 45.78714, -2924.29931640625], [-125.20588, 45.78779, -2248.139892578125]]], [[[-125.31062, 45.91457, -2993.989013671875], [-125.31392, 45.92333, -2943.98095703125], [-125.32048, 45.91838, -3789.97509765625], [-125.31062, 45.91457, -2993.989013671875]]], [[[-125.24561, 45.80136, -4784.05078125], [-125.24617, 45.79318, -5287.70751953125], [-125.23773, 45.79371, -4611.41552734375], [-125.24561, 45.80136, -4784.05078125]]], [[[-125.32048, 45.91838, -3789.97509765625], [-125.31392, 45.92333, -2943.98095703125], [-125.32205, 45.92628, -3539.015869140625], [-125.32048, 45.91838, -3789.97509765625]]], [[[-125.32048, 45.91838, -3789.97509765625], [-125.32205, 45.92628, -3539.015869140625], [-125.32985, 45.92388, -4339.51953125], [-125.32048, 45.91838, -3789.97509765625]]], [[[-125.25222, 45.81676, -4454.4951171875], [-125.25779, 45.82461, -4509.88671875], [-125.26283, 45.81714, -5278.39306640625], [-125.25222, 45.81676, -4454.4951171875]]], [[[-125.32048, 45.91838, -3789.97509765625], [-125.32985, 45.92388, -4339.51953125], [-125.32884, 45.91535, -4614.47314453125], [-125.32048, 45.91838, -3789.97509765625]]], [[[-125.27335, 45.86104, -3797.375], [-125.26816, 45.85453, -3757.331787109375], [-125.26376, 45.86059, -2964.829833984375], [-125.27335, 45.86104, -3797.375]]], [[[-125.30073, 45.89643, -2917.364990234375], [-125.29841, 45.90275, -2248.139892578125], [-125.30848, 45.90595, -3005.361083984375], [-125.30073, 45.89643, -2917.364990234375]]], [[[-125.31874, 45.91063, -3891.7392578125], [-125.32048, 45.91838, -3789.97509765625], [-125.32884, 45.91535, -4614.47314453125], [-125.31874, 45.91063, -3891.7392578125]]], [[[-125.31874, 45.91063, -3891.7392578125], [-125.32884, 45.91535, -4614.47314453125], [-125.32739, 45.90658, -4732.82861328125], [-125.31874, 45.91063, -3891.7392578125]]], [[[-125.31763, 45.90279, -4055.29248046875], [-125.31874, 45.91063, -3891.7392578125], [-125.32739, 45.90658, -4732.82861328125], [-125.31763, 45.90279, -4055.29248046875]]], [[[-125.30926, 45.89869, -3480.707763671875], [-125.31763, 45.90279, -4055.29248046875], [-125.31421, 45.89485, -4261.23876953125], [-125.30926, 45.89869, -3480.707763671875]]], [[[-125.31763, 45.90279, -4055.29248046875], [-125.30848, 45.90595, -3005.361083984375], [-125.31874, 45.91063, -3891.7392578125], [-125.31763, 45.90279, -4055.29248046875]]], [[[-125.30926, 45.89869, -3480.707763671875], [-125.30848, 45.90595, -3005.361083984375], [-125.31763, 45.90279, -4055.29248046875], [-125.30926, 45.89869, -3480.707763671875]]], [[[-125.30926, 45.89869, -3480.707763671875], [-125.30073, 45.89643, -2917.364990234375], [-125.30848, 45.90595, -3005.361083984375], [-125.30926, 45.89869, -3480.707763671875]]], [[[-125.30926, 45.89869, -3480.707763671875], [-125.30323, 45.89089, -3706.475341796875], [-125.30073, 45.89643, -2917.364990234375], [-125.30926, 45.89869, -3480.707763671875]]], [[[-125.29309, 45.86348, -5170.556640625], [-125.2993, 45.85846, -5916.4892578125], [-125.28843, 45.8551, -5358.1123046875], [-125.29309, 45.86348, -5170.556640625]]], [[[-125.30323, 45.89089, -3706.475341796875], [-125.30926, 45.89869, -3480.707763671875], [-125.31421, 45.89485, -4261.23876953125], [-125.30323, 45.89089, -3706.475341796875]]], [[[-125.30323, 45.89089, -3706.475341796875], [-125.31421, 45.89485, -4261.23876953125], [-125.30895, 45.88721, -4501.3564453125], [-125.30323, 45.89089, -3706.475341796875]]], [[[-125.29753, 45.88385, -3850.48095703125], [-125.30323, 45.89089, -3706.475341796875], [-125.30895, 45.88721, -4501.3564453125], [-125.29753, 45.88385, -3850.48095703125]]], [[[-125.30323, 45.89089, -3706.475341796875], [-125.29753, 45.88385, -3850.48095703125], [-125.29307, 45.88895, -2967.070556640625], [-125.30323, 45.89089, -3706.475341796875]]], [[[-125.30323, 45.89089, -3706.475341796875], [-125.29307, 45.88895, -2967.070556640625], [-125.30073, 45.89643, -2917.364990234375], [-125.30323, 45.89089, -3706.475341796875]]], [[[-125.31763, 45.90279, -4055.29248046875], [-125.32495, 45.89802, -4837.50048828125], [-125.31421, 45.89485, -4261.23876953125], [-125.31763, 45.90279, -4055.29248046875]]], [[[-125.30895, 45.88721, -4501.3564453125], [-125.31421, 45.89485, -4261.23876953125], [-125.31962, 45.89023, -5079.978515625], [-125.30895, 45.88721, -4501.3564453125]]], [[[-125.29307, 45.88895, -2967.070556640625], [-125.29068, 45.89573, -2248.139892578125], [-125.30073, 45.89643, -2917.364990234375], [-125.29307, 45.88895, -2967.070556640625]]], [[[-125.29307, 45.88895, -2967.070556640625], [-125.28308, 45.88865, -2248.139892578125], [-125.29068, 45.89573, -2248.139892578125], [-125.29307, 45.88895, -2967.070556640625]]], [[[-125.29753, 45.88385, -3850.48095703125], [-125.2865, 45.88176, -3029.119140625], [-125.29307, 45.88895, -2967.070556640625], [-125.29753, 45.88385, -3850.48095703125]]], [[[-125.2865, 45.88176, -3029.119140625], [-125.28308, 45.88865, -2248.139892578125], [-125.29307, 45.88895, -2967.070556640625], [-125.2865, 45.88176, -3029.119140625]]], [[[-125.2865, 45.88176, -3029.119140625], [-125.27568, 45.88146, -2248.139892578125], [-125.28308, 45.88865, -2248.139892578125], [-125.2865, 45.88176, -3029.119140625]]], [[[-125.27922, 45.87477, -3017.945556640625], [-125.27568, 45.88146, -2248.139892578125], [-125.2865, 45.88176, -3029.119140625], [-125.27922, 45.87477, -3017.945556640625]]], [[[-125.27922, 45.87477, -3017.945556640625], [-125.26833, 45.87425, -2248.139892578125], [-125.27568, 45.88146, -2248.139892578125], [-125.27922, 45.87477, -3017.945556640625]]], [[[-125.2711, 45.86745, -2956.512451171875], [-125.26833, 45.87425, -2248.139892578125], [-125.27922, 45.87477, -3017.945556640625], [-125.2711, 45.86745, -2956.512451171875]]], [[[-125.2711, 45.86745, -2956.512451171875], [-125.261, 45.86704, -2248.139892578125], [-125.26833, 45.87425, -2248.139892578125], [-125.2711, 45.86745, -2956.512451171875]]], [[[-125.26376, 45.86059, -2964.829833984375], [-125.261, 45.86704, -2248.139892578125], [-125.2711, 45.86745, -2956.512451171875], [-125.26376, 45.86059, -2964.829833984375]]], [[[-125.29309, 45.86348, -5170.556640625], [-125.30411, 45.86648, -5710.54736328125], [-125.2993, 45.85846, -5916.4892578125], [-125.29309, 45.86348, -5170.556640625]]], [[[-125.26376, 45.86059, -2964.829833984375], [-125.25331, 45.86, -2248.139892578125], [-125.261, 45.86704, -2248.139892578125], [-125.26376, 45.86059, -2964.829833984375]]], [[[-125.25904, 45.85344, -2933.81689453125], [-125.25331, 45.86, -2248.139892578125], [-125.26376, 45.86059, -2964.829833984375], [-125.25904, 45.85344, -2933.81689453125]]], [[[-125.25904, 45.85344, -2933.81689453125], [-125.24919, 45.85163, -2248.139892578125], [-125.25331, 45.86, -2248.139892578125], [-125.25904, 45.85344, -2933.81689453125]]], [[[-125.25508, 45.84552, -2919.14892578125], [-125.24919, 45.85163, -2248.139892578125], [-125.25904, 45.85344, -2933.81689453125], [-125.25508, 45.84552, -2919.14892578125]]], [[[-125.25508, 45.84552, -2919.14892578125], [-125.24506, 45.84326, -2248.139892578125], [-125.24919, 45.85163, -2248.139892578125], [-125.25508, 45.84552, -2919.14892578125]]], [[[-125.25508, 45.84552, -2919.14892578125], [-125.24858, 45.83693, -2930.211181640625], [-125.24506, 45.84326, -2248.139892578125], [-125.25508, 45.84552, -2919.14892578125]]], [[[-125.25771, 45.8389, -3607.75390625], [-125.24858, 45.83693, -2930.211181640625], [-125.25508, 45.84552, -2919.14892578125], [-125.25771, 45.8389, -3607.75390625]]], [[[-125.25771, 45.8389, -3607.75390625], [-125.25213, 45.83091, -3707.593505859375], [-125.24858, 45.83693, -2930.211181640625], [-125.25771, 45.8389, -3607.75390625]]], [[[-125.27496, 45.84362, -4806.27099609375], [-125.26516, 45.84741, -3792.2138671875], [-125.2771, 45.85222, -4623.6318359375], [-125.27496, 45.84362, -4806.27099609375]]], [[[-125.25771, 45.8389, -3607.75390625], [-125.26193, 45.83274, -4409.8935546875], [-125.25213, 45.83091, -3707.593505859375], [-125.25771, 45.8389, -3607.75390625]]], [[[-125.26193, 45.83274, -4409.8935546875], [-125.25771, 45.8389, -3607.75390625], [-125.26592, 45.84037, -4256.30126953125], [-125.26193, 45.83274, -4409.8935546875]]], [[[-125.27496, 45.84362, -4806.27099609375], [-125.28534, 45.8466, -5470.458984375], [-125.28193, 45.83844, -5593.89306640625], [-125.27496, 45.84362, -4806.27099609375]]], [[[-125.26592, 45.84037, -4256.30126953125], [-125.27148, 45.83534, -4998.26708984375], [-125.26193, 45.83274, -4409.8935546875], [-125.26592, 45.84037, -4256.30126953125]]], [[[-125.26592, 45.84037, -4256.30126953125], [-125.27496, 45.84362, -4806.27099609375], [-125.27148, 45.83534, -4998.26708984375], [-125.26592, 45.84037, -4256.30126953125]]], [[[-125.26592, 45.84037, -4256.30126953125], [-125.26516, 45.84741, -3792.2138671875], [-125.27496, 45.84362, -4806.27099609375], [-125.26592, 45.84037, -4256.30126953125]]], [[[-125.25213, 45.83091, -3707.593505859375], [-125.24321, 45.82944, -2924.140869140625], [-125.24858, 45.83693, -2930.211181640625], [-125.25213, 45.83091, -3707.593505859375]]], [[[-125.26592, 45.84037, -4256.30126953125], [-125.25771, 45.8389, -3607.75390625], [-125.26516, 45.84741, -3792.2138671875], [-125.26592, 45.84037, -4256.30126953125]]], [[[-125.25771, 45.8389, -3607.75390625], [-125.25508, 45.84552, -2919.14892578125], [-125.26516, 45.84741, -3792.2138671875], [-125.25771, 45.8389, -3607.75390625]]], [[[-125.25508, 45.84552, -2919.14892578125], [-125.25904, 45.85344, -2933.81689453125], [-125.26516, 45.84741, -3792.2138671875], [-125.25508, 45.84552, -2919.14892578125]]], [[[-125.26816, 45.85453, -3757.331787109375], [-125.26516, 45.84741, -3792.2138671875], [-125.25904, 45.85344, -2933.81689453125], [-125.26816, 45.85453, -3757.331787109375]]], [[[-125.26816, 45.85453, -3757.331787109375], [-125.2771, 45.85222, -4623.6318359375], [-125.26516, 45.84741, -3792.2138671875], [-125.26816, 45.85453, -3757.331787109375]]], [[[-125.27335, 45.86104, -3797.375], [-125.2771, 45.85222, -4623.6318359375], [-125.26816, 45.85453, -3757.331787109375], [-125.27335, 45.86104, -3797.375]]], [[[-125.27335, 45.86104, -3797.375], [-125.28256, 45.86061, -4564.794921875], [-125.2771, 45.85222, -4623.6318359375], [-125.27335, 45.86104, -3797.375]]], [[[-125.28046, 45.86838, -3749.97021484375], [-125.28256, 45.86061, -4564.794921875], [-125.27335, 45.86104, -3797.375], [-125.28046, 45.86838, -3749.97021484375]]], [[[-125.28046, 45.86838, -3749.97021484375], [-125.28845, 45.8683, -4418.568359375], [-125.28256, 45.86061, -4564.794921875], [-125.28046, 45.86838, -3749.97021484375]]], [[[-125.28046, 45.86838, -3749.97021484375], [-125.29121, 45.87606, -3989.451904296875], [-125.28845, 45.8683, -4418.568359375], [-125.28046, 45.86838, -3749.97021484375]]], [[[-125.25969, 45.7957, -6048.849609375], [-125.26257, 45.78963, -6438.19287109375], [-125.25382, 45.7916, -5893.33984375], [-125.25969, 45.7957, -6048.849609375]]], [[[-125.29121, 45.87606, -3989.451904296875], [-125.28046, 45.86838, -3749.97021484375], [-125.27922, 45.87477, -3017.945556640625], [-125.29121, 45.87606, -3989.451904296875]]], [[[-125.29121, 45.87606, -3989.451904296875], [-125.27922, 45.87477, -3017.945556640625], [-125.2865, 45.88176, -3029.119140625], [-125.29121, 45.87606, -3989.451904296875]]], [[[-125.22109, 45.79587, -2982.67236328125], [-125.22199, 45.78659, -3682.02685546875], [-125.21453, 45.78714, -2924.29931640625], [-125.22109, 45.79587, -2982.67236328125]]], [[[-125.29753, 45.88385, -3850.48095703125], [-125.29121, 45.87606, -3989.451904296875], [-125.2865, 45.88176, -3029.119140625], [-125.29753, 45.88385, -3850.48095703125]]], [[[-125.27496, 45.84362, -4806.27099609375], [-125.28193, 45.83844, -5593.89306640625], [-125.27148, 45.83534, -4998.26708984375], [-125.27496, 45.84362, -4806.27099609375]]], [[[-125.29753, 45.88385, -3850.48095703125], [-125.30343, 45.87937, -4707.13720703125], [-125.29121, 45.87606, -3989.451904296875], [-125.29753, 45.88385, -3850.48095703125]]], [[[-125.2451, 45.80935, -4291.15625], [-125.23629, 45.80773, -3626.92578125], [-125.24199, 45.81536, -3657.40625], [-125.2451, 45.80935, -4291.15625]]], [[[-125.29753, 45.88385, -3850.48095703125], [-125.30895, 45.88721, -4501.3564453125], [-125.30343, 45.87937, -4707.13720703125], [-125.29753, 45.88385, -3850.48095703125]]], [[[-125.30343, 45.87937, -4707.13720703125], [-125.30895, 45.88721, -4501.3564453125], [-125.31433, 45.88238, -5301.0234375], [-125.30343, 45.87937, -4707.13720703125]]], [[[-125.30343, 45.87937, -4707.13720703125], [-125.31433, 45.88238, -5301.0234375], [-125.30918, 45.87444, -5502.37744140625], [-125.30343, 45.87937, -4707.13720703125]]], [[[-125.29835, 45.87148, -4938.3154296875], [-125.30343, 45.87937, -4707.13720703125], [-125.30918, 45.87444, -5502.37744140625], [-125.29835, 45.87148, -4938.3154296875]]], [[[-125.24199, 45.81536, -3657.40625], [-125.23629, 45.80773, -3626.92578125], [-125.23283, 45.81305, -2930.091552734375], [-125.24199, 45.81536, -3657.40625]]], [[[-125.29121, 45.87606, -3989.451904296875], [-125.30343, 45.87937, -4707.13720703125], [-125.29835, 45.87148, -4938.3154296875], [-125.29121, 45.87606, -3989.451904296875]]], [[[-125.29121, 45.87606, -3989.451904296875], [-125.29835, 45.87148, -4938.3154296875], [-125.28845, 45.8683, -4418.568359375], [-125.29121, 45.87606, -3989.451904296875]]], [[[-125.28845, 45.8683, -4418.568359375], [-125.29835, 45.87148, -4938.3154296875], [-125.29309, 45.86348, -5170.556640625], [-125.28845, 45.8683, -4418.568359375]]], [[[-125.22762, 45.80414, -3041.966552734375], [-125.2171, 45.80365, -2248.139892578125], [-125.22262, 45.81162, -2248.139892578125], [-125.22762, 45.80414, -3041.966552734375]]], [[[-125.28845, 45.8683, -4418.568359375], [-125.29309, 45.86348, -5170.556640625], [-125.28256, 45.86061, -4564.794921875], [-125.28845, 45.8683, -4418.568359375]]], [[[-125.28256, 45.86061, -4564.794921875], [-125.29309, 45.86348, -5170.556640625], [-125.28843, 45.8551, -5358.1123046875], [-125.28256, 45.86061, -4564.794921875]]], [[[-125.2771, 45.85222, -4623.6318359375], [-125.28256, 45.86061, -4564.794921875], [-125.28843, 45.8551, -5358.1123046875], [-125.2771, 45.85222, -4623.6318359375]]], [[[-125.2771, 45.85222, -4623.6318359375], [-125.28843, 45.8551, -5358.1123046875], [-125.28534, 45.8466, -5470.458984375], [-125.2771, 45.85222, -4623.6318359375]]], [[[-125.27496, 45.84362, -4806.27099609375], [-125.2771, 45.85222, -4623.6318359375], [-125.28534, 45.8466, -5470.458984375], [-125.27496, 45.84362, -4806.27099609375]]], [[[-125.30073, 45.89643, -2917.364990234375], [-125.29068, 45.89573, -2248.139892578125], [-125.29841, 45.90275, -2248.139892578125], [-125.30073, 45.89643, -2917.364990234375]]], [[[-125.27148, 45.83534, -4998.26708984375], [-125.28193, 45.83844, -5593.89306640625], [-125.27768, 45.82997, -5732.45654296875], [-125.27148, 45.83534, -4998.26708984375]]], [[[-125.25779, 45.82461, -4509.88671875], [-125.26193, 45.83274, -4409.8935546875], [-125.26709, 45.82675, -5153.212890625], [-125.25779, 45.82461, -4509.88671875]]], [[[-125.26709, 45.82675, -5153.212890625], [-125.27148, 45.83534, -4998.26708984375], [-125.27768, 45.82997, -5732.45654296875], [-125.26709, 45.82675, -5153.212890625]]], [[[-125.26193, 45.83274, -4409.8935546875], [-125.27148, 45.83534, -4998.26708984375], [-125.26709, 45.82675, -5153.212890625], [-125.26193, 45.83274, -4409.8935546875]]], [[[-125.26193, 45.83274, -4409.8935546875], [-125.25779, 45.82461, -4509.88671875], [-125.25213, 45.83091, -3707.593505859375], [-125.26193, 45.83274, -4409.8935546875]]], [[[-125.25213, 45.83091, -3707.593505859375], [-125.25779, 45.82461, -4509.88671875], [-125.24747, 45.82332, -3693.2646484375], [-125.25213, 45.83091, -3707.593505859375]]], [[[-125.25213, 45.83091, -3707.593505859375], [-125.24747, 45.82332, -3693.2646484375], [-125.24321, 45.82944, -2924.140869140625], [-125.25213, 45.83091, -3707.593505859375]]], [[[-125.28843, 45.8551, -5358.1123046875], [-125.2993, 45.85846, -5916.4892578125], [-125.29592, 45.84997, -6051.34716796875], [-125.28843, 45.8551, -5358.1123046875]]], [[[-125.24321, 45.82944, -2924.140869140625], [-125.23815, 45.83584, -2248.139892578125], [-125.24858, 45.83693, -2930.211181640625], [-125.24321, 45.82944, -2924.140869140625]]], [[[-125.26816, 45.85453, -3757.331787109375], [-125.25904, 45.85344, -2933.81689453125], [-125.26376, 45.86059, -2964.829833984375], [-125.26816, 45.85453, -3757.331787109375]]], [[[-125.24321, 45.82944, -2924.140869140625], [-125.23317, 45.82771, -2248.139892578125], [-125.23815, 45.83584, -2248.139892578125], [-125.24321, 45.82944, -2924.140869140625]]], [[[-125.23834, 45.82135, -2925.125732421875], [-125.23317, 45.82771, -2248.139892578125], [-125.24321, 45.82944, -2924.140869140625], [-125.23834, 45.82135, -2925.125732421875]]], [[[-125.23834, 45.82135, -2925.125732421875], [-125.22819, 45.81957, -2248.139892578125], [-125.23317, 45.82771, -2248.139892578125], [-125.23834, 45.82135, -2925.125732421875]]], [[[-125.23283, 45.81305, -2930.091552734375], [-125.22819, 45.81957, -2248.139892578125], [-125.23834, 45.82135, -2925.125732421875], [-125.23283, 45.81305, -2930.091552734375]]], [[[-125.23283, 45.81305, -2930.091552734375], [-125.22262, 45.81162, -2248.139892578125], [-125.22819, 45.81957, -2248.139892578125], [-125.23283, 45.81305, -2930.091552734375]]], [[[-125.22762, 45.80414, -3041.966552734375], [-125.22262, 45.81162, -2248.139892578125], [-125.23283, 45.81305, -2930.091552734375], [-125.22762, 45.80414, -3041.966552734375]]], [[[-125.22109, 45.79587, -2982.67236328125], [-125.2171, 45.80365, -2248.139892578125], [-125.22762, 45.80414, -3041.966552734375], [-125.22109, 45.79587, -2982.67236328125]]], [[[-125.22109, 45.79587, -2982.67236328125], [-125.21126, 45.7958, -2248.139892578125], [-125.2171, 45.80365, -2248.139892578125], [-125.22109, 45.79587, -2982.67236328125]]], [[[-125.22109, 45.79587, -2982.67236328125], [-125.22901, 45.7948, -3806.659912109375], [-125.22199, 45.78659, -3682.02685546875], [-125.22109, 45.79587, -2982.67236328125]]], [[[-125.22762, 45.80414, -3041.966552734375], [-125.22901, 45.7948, -3806.659912109375], [-125.22109, 45.79587, -2982.67236328125], [-125.22762, 45.80414, -3041.966552734375]]], [[[-125.23691, 45.80153, -4051.43896484375], [-125.22901, 45.7948, -3806.659912109375], [-125.22762, 45.80414, -3041.966552734375], [-125.23691, 45.80153, -4051.43896484375]]], [[[-125.22901, 45.7948, -3806.659912109375], [-125.23691, 45.80153, -4051.43896484375], [-125.23773, 45.79371, -4611.41552734375], [-125.22901, 45.7948, -3806.659912109375]]], [[[-125.23773, 45.79371, -4611.41552734375], [-125.22999, 45.78596, -4404.46337890625], [-125.22901, 45.7948, -3806.659912109375], [-125.23773, 45.79371, -4611.41552734375]]], [[[-125.22999, 45.78596, -4404.46337890625], [-125.23773, 45.79371, -4611.41552734375], [-125.23829, 45.78531, -5106.5126953125], [-125.22999, 45.78596, -4404.46337890625]]], [[[-125.24617, 45.79318, -5287.70751953125], [-125.23829, 45.78531, -5106.5126953125], [-125.23773, 45.79371, -4611.41552734375], [-125.24617, 45.79318, -5287.70751953125]]], [[[-125.31962, 45.89023, -5079.978515625], [-125.31421, 45.89485, -4261.23876953125], [-125.32495, 45.89802, -4837.50048828125], [-125.31962, 45.89023, -5079.978515625]]], [[[-125.23829, 45.78531, -5106.5126953125], [-125.24617, 45.79318, -5287.70751953125], [-125.24716, 45.78465, -5764.82080078125], [-125.23829, 45.78531, -5106.5126953125]]], [[[-125.25382, 45.7916, -5893.33984375], [-125.24716, 45.78465, -5764.82080078125], [-125.24617, 45.79318, -5287.70751953125], [-125.25382, 45.7916, -5893.33984375]]], [[[-125.25382, 45.7916, -5893.33984375], [-125.25693, 45.7839, -6338.61181640625], [-125.24716, 45.78465, -5764.82080078125], [-125.25382, 45.7916, -5893.33984375]]], [[[-125.25382, 45.7916, -5893.33984375], [-125.26257, 45.78963, -6438.19287109375], [-125.25693, 45.7839, -6338.61181640625], [-125.25382, 45.7916, -5893.33984375]]], [[[-125.25969, 45.7957, -6048.849609375], [-125.2675, 45.79495, -6492.31396484375], [-125.26257, 45.78963, -6438.19287109375], [-125.25969, 45.7957, -6048.849609375]]], [[[-125.25969, 45.7957, -6048.849609375], [-125.2634, 45.80061, -6034.55419921875], [-125.2675, 45.79495, -6492.31396484375], [-125.25969, 45.7957, -6048.849609375]]], [[[-125.25401, 45.80072, -5461.279296875], [-125.2634, 45.80061, -6034.55419921875], [-125.25969, 45.7957, -6048.849609375], [-125.25401, 45.80072, -5461.279296875]]], [[[-125.2634, 45.80061, -6034.55419921875], [-125.25401, 45.80072, -5461.279296875], [-125.26175, 45.80772, -5635.41015625], [-125.2634, 45.80061, -6034.55419921875]]], [[[-125.27335, 45.86104, -3797.375], [-125.26376, 45.86059, -2964.829833984375], [-125.2711, 45.86745, -2956.512451171875], [-125.27335, 45.86104, -3797.375]]], [[[-125.2634, 45.80061, -6034.55419921875], [-125.26175, 45.80772, -5635.41015625], [-125.27028, 45.80541, -6244.189453125], [-125.2634, 45.80061, -6034.55419921875]]], [[[-125.21126, 45.7958, -2248.139892578125], [-125.22109, 45.79587, -2982.67236328125], [-125.21453, 45.78714, -2924.29931640625], [-125.21126, 45.7958, -2248.139892578125]]], [[[-125.2634, 45.80061, -6034.55419921875], [-125.27028, 45.80541, -6244.189453125], [-125.26987, 45.79984, -6427.44677734375], [-125.2634, 45.80061, -6034.55419921875]]], [[[-125.26987, 45.79984, -6427.44677734375], [-125.2675, 45.79495, -6492.31396484375], [-125.2634, 45.80061, -6034.55419921875], [-125.26987, 45.79984, -6427.44677734375]]], [[[-125.2675, 45.79495, -6492.31396484375], [-125.26987, 45.79984, -6427.44677734375], [-125.27421, 45.79715, -6757.16357421875], [-125.2675, 45.79495, -6492.31396484375]]], [[[-125.2675, 45.79495, -6492.31396484375], [-125.27421, 45.79715, -6757.16357421875], [-125.27239, 45.79247, -6846.52490234375], [-125.2675, 45.79495, -6492.31396484375]]], [[[-125.2675, 45.79495, -6492.31396484375], [-125.27239, 45.79247, -6846.52490234375], [-125.27014, 45.78932, -6848.2275390625], [-125.2675, 45.79495, -6492.31396484375]]], [[[-125.2675, 45.79495, -6492.31396484375], [-125.27014, 45.78932, -6848.2275390625], [-125.26257, 45.78963, -6438.19287109375], [-125.2675, 45.79495, -6492.31396484375]]], [[[-125.26611, 45.78319, -6849.9853515625], [-125.26257, 45.78963, -6438.19287109375], [-125.27014, 45.78932, -6848.2275390625], [-125.26611, 45.78319, -6849.9853515625]]], [[[-125.26257, 45.78963, -6438.19287109375], [-125.26611, 45.78319, -6849.9853515625], [-125.25693, 45.7839, -6338.61181640625], [-125.26257, 45.78963, -6438.19287109375]]], [[[-125.27239, 45.79247, -6846.62548828125], [-125.27014, 45.78932, -6848.2275390625], [-125.27239, 45.79247, -6846.52490234375], [-125.27239, 45.79247, -6846.62548828125]]], [[[-125.27239, 45.79247, -6846.62548828125], [-125.27239, 45.79247, -6846.52490234375], [-125.27348, 45.79394, -6845.57470703125], [-125.27239, 45.79247, -6846.62548828125]]], [[[-125.27348, 45.79394, -6845.6484375], [-125.27239, 45.79247, -6846.62548828125], [-125.27348, 45.79394, -6845.57470703125], [-125.27348, 45.79394, -6845.6484375]]], [[[-125.27348, 45.79394, -6845.57470703125], [-125.27646, 45.79797, -6842.982421875], [-125.27348, 45.79394, -6845.6484375], [-125.27348, 45.79394, -6845.57470703125]]], [[[-125.26987, 45.79984, -6427.44677734375], [-125.27621, 45.80221, -6675.13330078125], [-125.27421, 45.79715, -6757.16357421875], [-125.26987, 45.79984, -6427.44677734375]]], [[[-125.27028, 45.80541, -6244.189453125], [-125.27866, 45.80831, -6578.39111328125], [-125.27621, 45.80221, -6675.13330078125], [-125.27028, 45.80541, -6244.189453125]]], [[[-125.26175, 45.80772, -5635.41015625], [-125.26283, 45.81714, -5278.39306640625], [-125.27125, 45.81246, -6027.8427734375], [-125.26175, 45.80772, -5635.41015625]]], [[[-125.25222, 45.81676, -4454.4951171875], [-125.26283, 45.81714, -5278.39306640625], [-125.25341, 45.80914, -4971.20361328125], [-125.25222, 45.81676, -4454.4951171875]]], [[[-125.27396, 45.82127, -5847.21923828125], [-125.27768, 45.82997, -5732.45654296875], [-125.2851, 45.82454, -6362.5458984375], [-125.27396, 45.82127, -5847.21923828125]]], [[[-125.31392, 45.92333, -2943.98095703125], [-125.31435, 45.93137, -2678.4423828125], [-125.32205, 45.92628, -3539.015869140625], [-125.31392, 45.92333, -2943.98095703125]]], [[[-125.25222, 45.81676, -4454.4951171875], [-125.24199, 45.81536, -3657.40625], [-125.24747, 45.82332, -3693.2646484375], [-125.25222, 45.81676, -4454.4951171875]]], [[[-125.25222, 45.81676, -4454.4951171875], [-125.2451, 45.80935, -4291.15625], [-125.24199, 45.81536, -3657.40625], [-125.25222, 45.81676, -4454.4951171875]]], [[[-125.25341, 45.80914, -4971.20361328125], [-125.24561, 45.80136, -4784.05078125], [-125.2451, 45.80935, -4291.15625], [-125.25341, 45.80914, -4971.20361328125]]], [[[-125.23691, 45.80153, -4051.43896484375], [-125.23629, 45.80773, -3626.92578125], [-125.2451, 45.80935, -4291.15625], [-125.23691, 45.80153, -4051.43896484375]]], [[[-125.24747, 45.82332, -3693.2646484375], [-125.24199, 45.81536, -3657.40625], [-125.23834, 45.82135, -2925.125732421875], [-125.24747, 45.82332, -3693.2646484375]]], [[[-125.25341, 45.80914, -4971.20361328125], [-125.25401, 45.80072, -5461.279296875], [-125.24561, 45.80136, -4784.05078125], [-125.25341, 45.80914, -4971.20361328125]]], [[[-125.25341, 45.80914, -4971.20361328125], [-125.26175, 45.80772, -5635.41015625], [-125.25401, 45.80072, -5461.279296875], [-125.25341, 45.80914, -4971.20361328125]]], [[[-125.24561, 45.80136, -4784.05078125], [-125.25401, 45.80072, -5461.279296875], [-125.24617, 45.79318, -5287.70751953125], [-125.24561, 45.80136, -4784.05078125]]], [[[-125.24561, 45.80136, -4784.05078125], [-125.23773, 45.79371, -4611.41552734375], [-125.23691, 45.80153, -4051.43896484375], [-125.24561, 45.80136, -4784.05078125]]], [[[-125.23691, 45.80153, -4051.43896484375], [-125.2451, 45.80935, -4291.15625], [-125.24561, 45.80136, -4784.05078125], [-125.23691, 45.80153, -4051.43896484375]]], [[[-125.23629, 45.80773, -3626.92578125], [-125.22762, 45.80414, -3041.966552734375], [-125.23283, 45.81305, -2930.091552734375], [-125.23629, 45.80773, -3626.92578125]]], [[[-125.28046, 45.86838, -3749.97021484375], [-125.27335, 45.86104, -3797.375], [-125.2711, 45.86745, -2956.512451171875], [-125.28046, 45.86838, -3749.97021484375]]], [[[-125.26709, 45.82675, -5153.212890625], [-125.27396, 45.82127, -5847.21923828125], [-125.26283, 45.81714, -5278.39306640625], [-125.26709, 45.82675, -5153.212890625]]], [[[-125.27125, 45.81246, -6027.8427734375], [-125.27396, 45.82127, -5847.21923828125], [-125.28178, 45.81599, -6463.87548828125], [-125.27125, 45.81246, -6027.8427734375]]], [[[-125.27396, 45.82127, -5847.21923828125], [-125.27125, 45.81246, -6027.8427734375], [-125.26283, 45.81714, -5278.39306640625], [-125.27396, 45.82127, -5847.21923828125]]], [[[-125.29835, 45.87148, -4938.3154296875], [-125.30918, 45.87444, -5502.37744140625], [-125.30411, 45.86648, -5710.54736328125], [-125.29835, 45.87148, -4938.3154296875]]], [[[-125.27768, 45.82997, -5732.45654296875], [-125.2889, 45.83298, -6254.14794921875], [-125.2851, 45.82454, -6362.5458984375], [-125.27768, 45.82997, -5732.45654296875]]], [[[-125.28193, 45.83844, -5593.89306640625], [-125.2889, 45.83298, -6254.14794921875], [-125.27768, 45.82997, -5732.45654296875], [-125.28193, 45.83844, -5593.89306640625]]], [[[-125.28193, 45.83844, -5593.89306640625], [-125.29303, 45.84134, -6135.455078125], [-125.2889, 45.83298, -6254.14794921875], [-125.28193, 45.83844, -5593.89306640625]]], [[[-125.28534, 45.8466, -5470.458984375], [-125.29592, 45.84997, -6051.34716796875], [-125.29303, 45.84134, -6135.455078125], [-125.28534, 45.8466, -5470.458984375]]], [[[-125.28534, 45.8466, -5470.458984375], [-125.28843, 45.8551, -5358.1123046875], [-125.29592, 45.84997, -6051.34716796875], [-125.28534, 45.8466, -5470.458984375]]], [[[-125.22199, 45.78659, -3682.02685546875], [-125.22901, 45.7948, -3806.659912109375], [-125.22999, 45.78596, -4404.46337890625], [-125.22199, 45.78659, -3682.02685546875]]], [[[-125.30848, 45.90595, -3005.361083984375], [-125.29841, 45.90275, -2248.139892578125], [-125.29988, 45.91154, -2248.139892578125], [-125.30848, 45.90595, -3005.361083984375]]]]}}]}