{"type": "FeatureCollection", "features": [{"type": "Feature", "properties": {"name": "AW_NORE_5", "CFM_ID": 241, "region": "Offshore_WAOR", "primary_state/province": "OR", "secondary_state/province": null, "avg_dip": 35.0, "dip_dir": "SW", "rake": 90, "slip_sense": "Reverse", "fault_level": 2, "NSHM23_sliprates": null, "QFFDAgeCatBin": null, "QFFDAgeBin": null, "upper_depth": -1.7, "upper_depth_constraint": "seismic imaging", "lower_depth": -7.5, "lower_depth_constraint": "megathrust", "3D_model_constraints": "trace and 1 MCS line", "reference": "Ledeczi et al. (2024); Carbotte et al. (2023)", "nshm23_id": null, "lineage": null, "usgs_qffd_#": null, "comments": null, "id": "241"}, "geometry": {"type": "MultiPolygon", "coordinates": [[[[-125.04665, 45.84244, -2869.32763671875], [-125.04478, 45.83476, -3039.375], [-125.05409, 45.84152, -3589.420166015625], [-125.04665, 45.84244, -2869.32763671875]]], [[[-125.07618, 45.80512, -5054.78515625], [-125.0656, 45.80297, -4518.8251953125], [-125.07262, 45.79631, -4950.7919921875], [-125.07618, 45.80512, -5054.78515625]]], [[[-125.05849, 45.82677, -4357.7646484375], [-125.04933, 45.82382, -3762.265380859375], [-125.05982, 45.81843, -4293.1025390625], [-125.05849, 45.82677, -4357.7646484375]]], [[[-125.02938, 45.78817, -2912.76904296875], [-125.03439, 45.79622, -3006.60986328125], [-125.02545, 45.79579, -2558.993896484375], [-125.02938, 45.78817, -2912.76904296875]]], [[[-125.11743, 45.81335, -7184.7080078125], [-125.12608, 45.80708, -7448.064453125], [-125.12914, 45.81635, -7446.59814453125], [-125.11743, 45.81335, -7184.7080078125]]], [[[-125.04978, 45.85859, -2377.909912109375], [-125.06004, 45.86874, -3093.06982421875], [-125.05122, 45.86941, -2377.909912109375], [-125.04978, 45.85859, -2377.909912109375]]], [[[-125.03905, 45.84428, -2230.337158203125], [-125.04499, 45.85024, -2377.909912109375], [-125.0354, 45.85093, -1718.449951171875], [-125.03905, 45.84428, -2230.337158203125]]], [[[-125.04395, 45.79888, -3446.059814453125], [-125.05108, 45.79223, -3930.87744140625], [-125.05446, 45.80112, -3953.324951171875], [-125.04395, 45.79888, -3446.059814453125]]], [[[-125.05409, 45.84152, -3589.420166015625], [-125.0538, 45.84958, -3093.06982421875], [-125.04665, 45.84244, -2869.32763671875], [-125.05409, 45.84152, -3589.420166015625]]], [[[-125.00536, 45.77605, -1911.25244140625], [-125.0078, 45.78554, -1718.449951171875], [-124.99787, 45.77431, -1718.449951171875], [-125.00536, 45.77605, -1911.25244140625]]], [[[-125.11736, 45.83744, -6948.38916015625], [-125.12555, 45.84408, -7058.849609375], [-125.11348, 45.84503, -6729.41015625], [-125.11736, 45.83744, -6948.38916015625]]], [[[-125.04019, 45.85927, -1718.449951171875], [-125.05122, 45.86941, -2377.909912109375], [-125.04163, 45.8701, -1718.449951171875], [-125.04019, 45.85927, -1718.449951171875]]], [[[-125.07528, 45.85664, -4597.849609375], [-125.07048, 45.8483, -4597.849609375], [-125.08111, 45.84751, -5152.830078125], [-125.07528, 45.85664, -4597.849609375]]], [[[-125.03665, 45.83762, -2301.618408203125], [-125.03905, 45.84428, -2230.337158203125], [-125.02864, 45.84329, -1718.449951171875], [-125.03665, 45.83762, -2301.618408203125]]], [[[-125.03697, 45.81335, -2997.551025390625], [-125.02862, 45.81127, -2336.686767578125], [-125.03305, 45.80397, -2843.080810546875], [-125.03697, 45.81335, -2997.551025390625]]], [[[-125.1246, 45.83238, -7191.12646484375], [-125.13642, 45.83468, -7441.66552734375], [-125.12555, 45.84408, -7058.849609375], [-125.1246, 45.83238, -7191.12646484375]]], [[[-125.05293, 45.83298, -3828.60693359375], [-125.05409, 45.84152, -3589.420166015625], [-125.04478, 45.83476, -3039.375], [-125.05293, 45.83298, -3828.60693359375]]], [[[-125.03439, 45.79622, -3006.60986328125], [-125.04395, 45.79888, -3446.059814453125], [-125.03305, 45.80397, -2843.080810546875], [-125.03439, 45.79622, -3006.60986328125]]], [[[-125.11156, 45.79589, -6949.89404296875], [-125.1045, 45.80246, -6534.21435546875], [-125.10075, 45.79386, -6444.90185546875], [-125.11156, 45.79589, -6949.89404296875]]], [[[-125.1246, 45.83238, -7191.12646484375], [-125.1323, 45.82561, -7446.7275390625], [-125.13642, 45.83468, -7441.66552734375], [-125.1246, 45.83238, -7191.12646484375]]], [[[-125.03305, 45.80397, -2843.080810546875], [-125.02545, 45.79579, -2558.993896484375], [-125.03439, 45.79622, -3006.60986328125], [-125.03305, 45.80397, -2843.080810546875]]], [[[-125.04395, 45.79888, -3446.059814453125], [-125.03439, 45.79622, -3006.60986328125], [-125.04029, 45.79019, -3423.15478515625], [-125.04395, 45.79888, -3446.059814453125]]], [[[-125.1246, 45.83238, -7191.12646484375], [-125.12053, 45.82268, -7192.0576171875], [-125.1323, 45.82561, -7446.7275390625], [-125.1246, 45.83238, -7191.12646484375]]], [[[-125.11247, 45.82939, -6921.91650390625], [-125.12053, 45.82268, -7192.0576171875], [-125.1246, 45.83238, -7191.12646484375], [-125.11247, 45.82939, -6921.91650390625]]], [[[-125.1045, 45.80246, -6534.21435546875], [-125.11156, 45.79589, -6949.89404296875], [-125.11463, 45.80444, -7114.62353515625], [-125.1045, 45.80246, -6534.21435546875]]], [[[-125.11247, 45.82939, -6921.91650390625], [-125.10875, 45.82043, -6892.28466796875], [-125.12053, 45.82268, -7192.0576171875], [-125.11247, 45.82939, -6921.91650390625]]], [[[-125.11247, 45.82939, -6921.91650390625], [-125.09992, 45.82897, -6570.8095703125], [-125.10875, 45.82043, -6892.28466796875], [-125.11247, 45.82939, -6921.91650390625]]], [[[-125.09992, 45.82897, -6570.8095703125], [-125.11247, 45.82939, -6921.91650390625], [-125.10585, 45.83766, -6624.634765625], [-125.09992, 45.82897, -6570.8095703125]]], [[[-125.04665, 45.84244, -2869.32763671875], [-125.04499, 45.85024, -2377.909912109375], [-125.03905, 45.84428, -2230.337158203125], [-125.04665, 45.84244, -2869.32763671875]]], [[[-125.09992, 45.82897, -6570.8095703125], [-125.10585, 45.83766, -6624.634765625], [-125.09452, 45.83838, -6188.9287109375], [-125.09992, 45.82897, -6570.8095703125]]], [[[-125.08729, 45.83152, -5977.47119140625], [-125.09992, 45.82897, -6570.8095703125], [-125.09452, 45.83838, -6188.9287109375], [-125.08729, 45.83152, -5977.47119140625]]], [[[-125.09206, 45.82385, -6130.90625], [-125.09992, 45.82897, -6570.8095703125], [-125.08729, 45.83152, -5977.47119140625], [-125.09206, 45.82385, -6130.90625]]], [[[-125.08395, 45.83959, -5575.650390625], [-125.09452, 45.83838, -6188.9287109375], [-125.09139, 45.84673, -5750.58984375], [-125.08395, 45.83959, -5575.650390625]]], [[[-125.05859, 45.85792, -3093.06982421875], [-125.06004, 45.86874, -3093.06982421875], [-125.04978, 45.85859, -2377.909912109375], [-125.05859, 45.85792, -3093.06982421875]]], [[[-125.09206, 45.82385, -6130.90625], [-125.09915, 45.81796, -6442.8642578125], [-125.09992, 45.82897, -6570.8095703125], [-125.09206, 45.82385, -6130.90625]]], [[[-125.09206, 45.82385, -6130.90625], [-125.08891, 45.81574, -5849.078125], [-125.09915, 45.81796, -6442.8642578125], [-125.09206, 45.82385, -6130.90625]]], [[[-125.08152, 45.82377, -5546.6318359375], [-125.08891, 45.81574, -5849.078125], [-125.09206, 45.82385, -6130.90625], [-125.08152, 45.82377, -5546.6318359375]]], [[[-125.08152, 45.82377, -5546.6318359375], [-125.07839, 45.81471, -5261.15771484375], [-125.08891, 45.81574, -5849.078125], [-125.08152, 45.82377, -5546.6318359375]]], [[[-125.09402, 45.8004, -5988.59716796875], [-125.10075, 45.79386, -6444.90185546875], [-125.1045, 45.80246, -6534.21435546875], [-125.09402, 45.8004, -5988.59716796875]]], [[[-125.07013, 45.82362, -4922.28662109375], [-125.07839, 45.81471, -5261.15771484375], [-125.08152, 45.82377, -5546.6318359375], [-125.07013, 45.82362, -4922.28662109375]]], [[[-125.10585, 45.83766, -6624.634765625], [-125.11348, 45.84503, -6729.41015625], [-125.10165, 45.84594, -6347.2001953125], [-125.10585, 45.83766, -6624.634765625]]], [[[-125.06156, 45.84899, -3888.47998046875], [-125.06635, 45.85733, -3888.47998046875], [-125.05859, 45.85792, -3093.06982421875], [-125.06156, 45.84899, -3888.47998046875]]], [[[-125.08152, 45.82377, -5546.6318359375], [-125.09206, 45.82385, -6130.90625], [-125.08729, 45.83152, -5977.47119140625], [-125.08152, 45.82377, -5546.6318359375]]], [[[-125.07013, 45.82362, -4922.28662109375], [-125.0685, 45.81255, -4693.40478515625], [-125.07839, 45.81471, -5261.15771484375], [-125.07013, 45.82362, -4922.28662109375]]], [[[-125.05982, 45.81843, -4293.1025390625], [-125.0685, 45.81255, -4693.40478515625], [-125.07013, 45.82362, -4922.28662109375], [-125.05982, 45.81843, -4293.1025390625]]], [[[-125.05982, 45.81843, -4293.1025390625], [-125.0573, 45.80957, -4068.935546875], [-125.0685, 45.81255, -4693.40478515625], [-125.05982, 45.81843, -4293.1025390625]]], [[[-125.05982, 45.81843, -4293.1025390625], [-125.04831, 45.81526, -3624.4130859375], [-125.0573, 45.80957, -4068.935546875], [-125.05982, 45.81843, -4293.1025390625]]], [[[-125.04831, 45.81526, -3624.4130859375], [-125.05982, 45.81843, -4293.1025390625], [-125.04933, 45.82382, -3762.265380859375], [-125.04831, 45.81526, -3624.4130859375]]], [[[-125.03305, 45.80397, -2843.080810546875], [-125.02862, 45.81127, -2336.686767578125], [-125.02245, 45.8039, -2208.751953125], [-125.03305, 45.80397, -2843.080810546875]]], [[[-125.04933, 45.82382, -3762.265380859375], [-125.04103, 45.8203, -3165.9521484375], [-125.04831, 45.81526, -3624.4130859375], [-125.04933, 45.82382, -3762.265380859375]]], [[[-125.04933, 45.82382, -3762.265380859375], [-125.04214, 45.82717, -3058.182373046875], [-125.04103, 45.8203, -3165.9521484375], [-125.04933, 45.82382, -3762.265380859375]]], [[[-125.09139, 45.84673, -5750.58984375], [-125.09452, 45.83838, -6188.9287109375], [-125.10165, 45.84594, -6347.2001953125], [-125.09139, 45.84673, -5750.58984375]]], [[[-125.04214, 45.82717, -3058.182373046875], [-125.04933, 45.82382, -3762.265380859375], [-125.05293, 45.83298, -3828.60693359375], [-125.04214, 45.82717, -3058.182373046875]]], [[[-125.04214, 45.82717, -3058.182373046875], [-125.05293, 45.83298, -3828.60693359375], [-125.04478, 45.83476, -3039.375], [-125.04214, 45.82717, -3058.182373046875]]], [[[-125.04214, 45.82717, -3058.182373046875], [-125.04478, 45.83476, -3039.375], [-125.03487, 45.8305, -2383.00244140625], [-125.04214, 45.82717, -3058.182373046875]]], [[[-125.04214, 45.82717, -3058.182373046875], [-125.03487, 45.8305, -2383.00244140625], [-125.03346, 45.82093, -2461.1669921875], [-125.04214, 45.82717, -3058.182373046875]]], [[[-125.04103, 45.8203, -3165.9521484375], [-125.04214, 45.82717, -3058.182373046875], [-125.03346, 45.82093, -2461.1669921875], [-125.04103, 45.8203, -3165.9521484375]]], [[[-125.04103, 45.8203, -3165.9521484375], [-125.03346, 45.82093, -2461.1669921875], [-125.03697, 45.81335, -2997.551025390625], [-125.04103, 45.8203, -3165.9521484375]]], [[[-125.04831, 45.81526, -3624.4130859375], [-125.04103, 45.8203, -3165.9521484375], [-125.03697, 45.81335, -2997.551025390625], [-125.04831, 45.81526, -3624.4130859375]]], [[[-125.04831, 45.81526, -3624.4130859375], [-125.03697, 45.81335, -2997.551025390625], [-125.04444, 45.80713, -3416.918701171875], [-125.04831, 45.81526, -3624.4130859375]]], [[[-125.07618, 45.80512, -5054.78515625], [-125.08338, 45.79835, -5462.45703125], [-125.08651, 45.8071, -5609.37841796875], [-125.07618, 45.80512, -5054.78515625]]], [[[-125.04831, 45.81526, -3624.4130859375], [-125.04444, 45.80713, -3416.918701171875], [-125.0573, 45.80957, -4068.935546875], [-125.04831, 45.81526, -3624.4130859375]]], [[[-125.0573, 45.80957, -4068.935546875], [-125.04444, 45.80713, -3416.918701171875], [-125.05446, 45.80112, -3953.324951171875], [-125.0573, 45.80957, -4068.935546875]]], [[[-125.03487, 45.8305, -2383.00244140625], [-125.02692, 45.83472, -1718.449951171875], [-125.02869, 45.82581, -1718.449951171875], [-125.03487, 45.8305, -2383.00244140625]]], [[[-125.0573, 45.80957, -4068.935546875], [-125.05446, 45.80112, -3953.324951171875], [-125.0656, 45.80297, -4518.8251953125], [-125.0573, 45.80957, -4068.935546875]]], [[[-125.0573, 45.80957, -4068.935546875], [-125.0656, 45.80297, -4518.8251953125], [-125.0685, 45.81255, -4693.40478515625], [-125.0573, 45.80957, -4068.935546875]]], [[[-125.07618, 45.80512, -5054.78515625], [-125.0685, 45.81255, -4693.40478515625], [-125.0656, 45.80297, -4518.8251953125], [-125.07618, 45.80512, -5054.78515625]]], [[[-125.07618, 45.80512, -5054.78515625], [-125.07839, 45.81471, -5261.15771484375], [-125.0685, 45.81255, -4693.40478515625], [-125.07618, 45.80512, -5054.78515625]]], [[[-125.01757, 45.79728, -2139.9111328125], [-125.00904, 45.79448, -1718.449951171875], [-125.01782, 45.78809, -2319.14990234375], [-125.01757, 45.79728, -2139.9111328125]]], [[[-125.07839, 45.81471, -5261.15771484375], [-125.07618, 45.80512, -5054.78515625], [-125.08651, 45.8071, -5609.37841796875], [-125.07839, 45.81471, -5261.15771484375]]], [[[-125.07839, 45.81471, -5261.15771484375], [-125.08651, 45.8071, -5609.37841796875], [-125.08891, 45.81574, -5849.078125], [-125.07839, 45.81471, -5261.15771484375]]], [[[-125.08891, 45.81574, -5849.078125], [-125.08651, 45.8071, -5609.37841796875], [-125.09676, 45.80905, -6194.3916015625], [-125.08891, 45.81574, -5849.078125]]], [[[-125.01076, 45.80326, -1718.449951171875], [-125.02245, 45.8039, -2208.751953125], [-125.01821, 45.81052, -1718.449951171875], [-125.01076, 45.80326, -1718.449951171875]]], [[[-125.08891, 45.81574, -5849.078125], [-125.09676, 45.80905, -6194.3916015625], [-125.09915, 45.81796, -6442.8642578125], [-125.08891, 45.81574, -5849.078125]]], [[[-125.09915, 45.81796, -6442.8642578125], [-125.09676, 45.80905, -6194.3916015625], [-125.10652, 45.81072, -6750.80517578125], [-125.09915, 45.81796, -6442.8642578125]]], [[[-125.09915, 45.81796, -6442.8642578125], [-125.10652, 45.81072, -6750.80517578125], [-125.10875, 45.82043, -6892.28466796875], [-125.09915, 45.81796, -6442.8642578125]]], [[[-125.03439, 45.79622, -3006.60986328125], [-125.02938, 45.78817, -2912.76904296875], [-125.04029, 45.79019, -3423.15478515625], [-125.03439, 45.79622, -3006.60986328125]]], [[[-125.10875, 45.82043, -6892.28466796875], [-125.09992, 45.82897, -6570.8095703125], [-125.09915, 45.81796, -6442.8642578125], [-125.10875, 45.82043, -6892.28466796875]]], [[[-125.10875, 45.82043, -6892.28466796875], [-125.10652, 45.81072, -6750.80517578125], [-125.11743, 45.81335, -7184.7080078125], [-125.10875, 45.82043, -6892.28466796875]]], [[[-125.10875, 45.82043, -6892.28466796875], [-125.11743, 45.81335, -7184.7080078125], [-125.12053, 45.82268, -7192.0576171875], [-125.10875, 45.82043, -6892.28466796875]]], [[[-125.09618, 45.85507, -5750.58984375], [-125.10645, 45.85428, -6347.2001953125], [-125.10791, 45.8651, -6347.2001953125], [-125.09618, 45.85507, -5750.58984375]]], [[[-125.11743, 45.81335, -7184.7080078125], [-125.12914, 45.81635, -7446.59814453125], [-125.12053, 45.82268, -7192.0576171875], [-125.11743, 45.81335, -7184.7080078125]]], [[[-125.06253, 45.84073, -4327.55224609375], [-125.07048, 45.8483, -4597.849609375], [-125.06156, 45.84899, -3888.47998046875], [-125.06253, 45.84073, -4327.55224609375]]], [[[-125.11743, 45.81335, -7184.7080078125], [-125.11463, 45.80444, -7114.62353515625], [-125.12608, 45.80708, -7448.064453125], [-125.11743, 45.81335, -7184.7080078125]]], [[[-125.10652, 45.81072, -6750.80517578125], [-125.11463, 45.80444, -7114.62353515625], [-125.11743, 45.81335, -7184.7080078125], [-125.10652, 45.81072, -6750.80517578125]]], [[[-125.04499, 45.85024, -2377.909912109375], [-125.04019, 45.85927, -1718.449951171875], [-125.0354, 45.85093, -1718.449951171875], [-125.04499, 45.85024, -2377.909912109375]]], [[[-125.03665, 45.83762, -2301.618408203125], [-125.02692, 45.83472, -1718.449951171875], [-125.03487, 45.8305, -2383.00244140625], [-125.03665, 45.83762, -2301.618408203125]]], [[[-125.10652, 45.81072, -6750.80517578125], [-125.1045, 45.80246, -6534.21435546875], [-125.11463, 45.80444, -7114.62353515625], [-125.10652, 45.81072, -6750.80517578125]]], [[[-125.09676, 45.80905, -6194.3916015625], [-125.1045, 45.80246, -6534.21435546875], [-125.10652, 45.81072, -6750.80517578125], [-125.09676, 45.80905, -6194.3916015625]]], [[[-125.09676, 45.80905, -6194.3916015625], [-125.09402, 45.8004, -5988.59716796875], [-125.1045, 45.80246, -6534.21435546875], [-125.09676, 45.80905, -6194.3916015625]]], [[[-125.05108, 45.79223, -3930.87744140625], [-125.0575, 45.78575, -4424.93212890625], [-125.06185, 45.79427, -4440.7958984375], [-125.05108, 45.79223, -3930.87744140625]]], [[[-125.02938, 45.78817, -2912.76904296875], [-125.02506, 45.77965, -2909.95458984375], [-125.03587, 45.78168, -3414.947021484375], [-125.02938, 45.78817, -2912.76904296875]]], [[[-125.09676, 45.80905, -6194.3916015625], [-125.08651, 45.8071, -5609.37841796875], [-125.09402, 45.8004, -5988.59716796875], [-125.09676, 45.80905, -6194.3916015625]]], [[[-125.09402, 45.8004, -5988.59716796875], [-125.08651, 45.8071, -5609.37841796875], [-125.08338, 45.79835, -5462.45703125], [-125.09402, 45.8004, -5988.59716796875]]], [[[-125.09139, 45.84673, -5750.58984375], [-125.09618, 45.85507, -5750.58984375], [-125.08591, 45.85585, -5152.830078125], [-125.09139, 45.84673, -5750.58984375]]], [[[-125.08338, 45.79835, -5462.45703125], [-125.08993, 45.79184, -5939.9091796875], [-125.09402, 45.8004, -5988.59716796875], [-125.08338, 45.79835, -5462.45703125]]], [[[-125.13035, 45.85242, -7058.849609375], [-125.14567, 45.85258, -7434.876953125], [-125.13181, 45.86325, -7058.849609375], [-125.13035, 45.85242, -7058.849609375]]], [[[-125.08338, 45.79835, -5462.45703125], [-125.07912, 45.78981, -5434.9169921875], [-125.08993, 45.79184, -5939.9091796875], [-125.08338, 45.79835, -5462.45703125]]], [[[-125.01782, 45.78809, -2319.14990234375], [-125.02506, 45.77965, -2909.95458984375], [-125.02938, 45.78817, -2912.76904296875], [-125.01782, 45.78809, -2319.14990234375]]], [[[-125.14567, 45.85258, -7434.876953125], [-125.14773, 45.86199, -7449.8056640625], [-125.13181, 45.86325, -7058.849609375], [-125.14567, 45.85258, -7434.876953125]]], [[[-125.0078, 45.78554, -1718.449951171875], [-125.01782, 45.78809, -2319.14990234375], [-125.00904, 45.79448, -1718.449951171875], [-125.0078, 45.78554, -1718.449951171875]]], [[[-125.08338, 45.79835, -5462.45703125], [-125.07262, 45.79631, -4950.7919921875], [-125.07912, 45.78981, -5434.9169921875], [-125.08338, 45.79835, -5462.45703125]]], [[[-125.07618, 45.80512, -5054.78515625], [-125.07262, 45.79631, -4950.7919921875], [-125.08338, 45.79835, -5462.45703125], [-125.07618, 45.80512, -5054.78515625]]], [[[-125.0656, 45.80297, -4518.8251953125], [-125.06185, 45.79427, -4440.7958984375], [-125.07262, 45.79631, -4950.7919921875], [-125.0656, 45.80297, -4518.8251953125]]], [[[-125.0656, 45.80297, -4518.8251953125], [-125.05446, 45.80112, -3953.324951171875], [-125.06185, 45.79427, -4440.7958984375], [-125.0656, 45.80297, -4518.8251953125]]], [[[-125.05446, 45.80112, -3953.324951171875], [-125.05108, 45.79223, -3930.87744140625], [-125.06185, 45.79427, -4440.7958984375], [-125.05446, 45.80112, -3953.324951171875]]], [[[-125.02862, 45.81127, -2336.686767578125], [-125.02612, 45.8176, -1718.449951171875], [-125.01821, 45.81052, -1718.449951171875], [-125.02862, 45.81127, -2336.686767578125]]], [[[-125.01757, 45.79728, -2139.9111328125], [-125.02245, 45.8039, -2208.751953125], [-125.01076, 45.80326, -1718.449951171875], [-125.01757, 45.79728, -2139.9111328125]]], [[[-125.01757, 45.79728, -2139.9111328125], [-125.01076, 45.80326, -1718.449951171875], [-125.00904, 45.79448, -1718.449951171875], [-125.01757, 45.79728, -2139.9111328125]]], [[[-125.04395, 45.79888, -3446.059814453125], [-125.04029, 45.79019, -3423.15478515625], [-125.05108, 45.79223, -3930.87744140625], [-125.04395, 45.79888, -3446.059814453125]]], [[[-125.11247, 45.82939, -6921.91650390625], [-125.11736, 45.83744, -6948.38916015625], [-125.10585, 45.83766, -6624.634765625], [-125.11247, 45.82939, -6921.91650390625]]], [[[-125.11828, 45.85337, -6729.41015625], [-125.11348, 45.84503, -6729.41015625], [-125.12555, 45.84408, -7058.849609375], [-125.11828, 45.85337, -6729.41015625]]], [[[-125.03305, 45.80397, -2843.080810546875], [-125.02245, 45.8039, -2208.751953125], [-125.02545, 45.79579, -2558.993896484375], [-125.03305, 45.80397, -2843.080810546875]]], [[[-125.05849, 45.82677, -4357.7646484375], [-125.07013, 45.82362, -4922.28662109375], [-125.0651, 45.83307, -4719.3828125], [-125.05849, 45.82677, -4357.7646484375]]], [[[-125.07262, 45.79631, -4950.7919921875], [-125.06831, 45.78778, -4929.92431640625], [-125.07912, 45.78981, -5434.9169921875], [-125.07262, 45.79631, -4950.7919921875]]], [[[-125.03697, 45.81335, -2997.551025390625], [-125.03346, 45.82093, -2461.1669921875], [-125.02862, 45.81127, -2336.686767578125], [-125.03697, 45.81335, -2997.551025390625]]], [[[-125.03346, 45.82093, -2461.1669921875], [-125.02612, 45.8176, -1718.449951171875], [-125.02862, 45.81127, -2336.686767578125], [-125.03346, 45.82093, -2461.1669921875]]], [[[-125.03346, 45.82093, -2461.1669921875], [-125.02869, 45.82581, -1718.449951171875], [-125.02612, 45.8176, -1718.449951171875], [-125.03346, 45.82093, -2461.1669921875]]], [[[-125.03346, 45.82093, -2461.1669921875], [-125.03487, 45.8305, -2383.00244140625], [-125.02869, 45.82581, -1718.449951171875], [-125.03346, 45.82093, -2461.1669921875]]], [[[-125.01478, 45.77753, -2417.34033203125], [-125.0078, 45.78554, -1718.449951171875], [-125.00536, 45.77605, -1911.25244140625], [-125.01478, 45.77753, -2417.34033203125]]], [[[-125.05849, 45.82677, -4357.7646484375], [-125.05982, 45.81843, -4293.1025390625], [-125.07013, 45.82362, -4922.28662109375], [-125.05849, 45.82677, -4357.7646484375]]], [[[-125.02938, 45.78817, -2912.76904296875], [-125.03587, 45.78168, -3414.947021484375], [-125.04029, 45.79019, -3423.15478515625], [-125.02938, 45.78817, -2912.76904296875]]], [[[-125.03587, 45.78168, -3414.947021484375], [-125.04668, 45.78371, -3919.939453125], [-125.04029, 45.79019, -3423.15478515625], [-125.03587, 45.78168, -3414.947021484375]]], [[[-125.03665, 45.83762, -2301.618408203125], [-125.02864, 45.84329, -1718.449951171875], [-125.02692, 45.83472, -1718.449951171875], [-125.03665, 45.83762, -2301.618408203125]]], [[[-125.04665, 45.84244, -2869.32763671875], [-125.03905, 45.84428, -2230.337158203125], [-125.03665, 45.83762, -2301.618408203125], [-125.04665, 45.84244, -2869.32763671875]]], [[[-125.05108, 45.79223, -3930.87744140625], [-125.04029, 45.79019, -3423.15478515625], [-125.04668, 45.78371, -3919.939453125], [-125.05108, 45.79223, -3930.87744140625]]], [[[-125.04665, 45.84244, -2869.32763671875], [-125.0538, 45.84958, -3093.06982421875], [-125.04499, 45.85024, -2377.909912109375], [-125.04665, 45.84244, -2869.32763671875]]], [[[-125.10585, 45.83766, -6624.634765625], [-125.10165, 45.84594, -6347.2001953125], [-125.09452, 45.83838, -6188.9287109375], [-125.10585, 45.83766, -6624.634765625]]], [[[-125.05409, 45.84152, -3589.420166015625], [-125.06156, 45.84899, -3888.47998046875], [-125.0538, 45.84958, -3093.06982421875], [-125.05409, 45.84152, -3589.420166015625]]], [[[-125.05409, 45.84152, -3589.420166015625], [-125.06253, 45.84073, -4327.55224609375], [-125.06156, 45.84899, -3888.47998046875], [-125.05409, 45.84152, -3589.420166015625]]], [[[-125.05859, 45.85792, -3093.06982421875], [-125.0678, 45.86815, -3888.47998046875], [-125.06004, 45.86874, -3093.06982421875], [-125.05859, 45.85792, -3093.06982421875]]], [[[-125.08591, 45.85585, -5152.830078125], [-125.09764, 45.86589, -5750.58984375], [-125.08736, 45.86668, -5152.830078125], [-125.08591, 45.85585, -5152.830078125]]], [[[-125.05409, 45.84152, -3589.420166015625], [-125.05293, 45.83298, -3828.60693359375], [-125.06253, 45.84073, -4327.55224609375], [-125.05409, 45.84152, -3589.420166015625]]], [[[-125.11828, 45.85337, -6729.41015625], [-125.13181, 45.86325, -7058.849609375], [-125.11974, 45.8642, -6729.41015625], [-125.11828, 45.85337, -6729.41015625]]], [[[-125.04478, 45.83476, -3039.375], [-125.04665, 45.84244, -2869.32763671875], [-125.03665, 45.83762, -2301.618408203125], [-125.04478, 45.83476, -3039.375]]], [[[-125.04478, 45.83476, -3039.375], [-125.03665, 45.83762, -2301.618408203125], [-125.03487, 45.8305, -2383.00244140625], [-125.04478, 45.83476, -3039.375]]], [[[-125.0651, 45.83307, -4719.3828125], [-125.06253, 45.84073, -4327.55224609375], [-125.05293, 45.83298, -3828.60693359375], [-125.0651, 45.83307, -4719.3828125]]], [[[-125.0651, 45.83307, -4719.3828125], [-125.07364, 45.84032, -4991.05859375], [-125.06253, 45.84073, -4327.55224609375], [-125.0651, 45.83307, -4719.3828125]]], [[[-125.12555, 45.84408, -7058.849609375], [-125.14124, 45.84358, -7435.14013671875], [-125.13035, 45.85242, -7058.849609375], [-125.12555, 45.84408, -7058.849609375]]], [[[-125.0651, 45.83307, -4719.3828125], [-125.07645, 45.83212, -5363.072265625], [-125.07364, 45.84032, -4991.05859375], [-125.0651, 45.83307, -4719.3828125]]], [[[-125.02545, 45.79579, -2558.993896484375], [-125.01782, 45.78809, -2319.14990234375], [-125.02938, 45.78817, -2912.76904296875], [-125.02545, 45.79579, -2558.993896484375]]], [[[-125.07013, 45.82362, -4922.28662109375], [-125.07645, 45.83212, -5363.072265625], [-125.0651, 45.83307, -4719.3828125], [-125.07013, 45.82362, -4922.28662109375]]], [[[-125.07013, 45.82362, -4922.28662109375], [-125.08152, 45.82377, -5546.6318359375], [-125.07645, 45.83212, -5363.072265625], [-125.07013, 45.82362, -4922.28662109375]]], [[[-125.08152, 45.82377, -5546.6318359375], [-125.08729, 45.83152, -5977.47119140625], [-125.07645, 45.83212, -5363.072265625], [-125.08152, 45.82377, -5546.6318359375]]], [[[-125.04395, 45.79888, -3446.059814453125], [-125.05446, 45.80112, -3953.324951171875], [-125.04444, 45.80713, -3416.918701171875], [-125.04395, 45.79888, -3446.059814453125]]], [[[-125.07645, 45.83212, -5363.072265625], [-125.08395, 45.83959, -5575.650390625], [-125.07364, 45.84032, -4991.05859375], [-125.07645, 45.83212, -5363.072265625]]], [[[-125.08729, 45.83152, -5977.47119140625], [-125.08395, 45.83959, -5575.650390625], [-125.07645, 45.83212, -5363.072265625], [-125.08729, 45.83152, -5977.47119140625]]], [[[-125.08729, 45.83152, -5977.47119140625], [-125.09452, 45.83838, -6188.9287109375], [-125.08395, 45.83959, -5575.650390625], [-125.08729, 45.83152, -5977.47119140625]]], [[[-125.08395, 45.83959, -5575.650390625], [-125.09139, 45.84673, -5750.58984375], [-125.08111, 45.84751, -5152.830078125], [-125.08395, 45.83959, -5575.650390625]]], [[[-125.07364, 45.84032, -4991.05859375], [-125.08395, 45.83959, -5575.650390625], [-125.08111, 45.84751, -5152.830078125], [-125.07364, 45.84032, -4991.05859375]]], [[[-125.06185, 45.79427, -4440.7958984375], [-125.06831, 45.78778, -4929.92431640625], [-125.07262, 45.79631, -4950.7919921875], [-125.06185, 45.79427, -4440.7958984375]]], [[[-125.07364, 45.84032, -4991.05859375], [-125.08111, 45.84751, -5152.830078125], [-125.07048, 45.8483, -4597.849609375], [-125.07364, 45.84032, -4991.05859375]]], [[[-125.07528, 45.85664, -4597.849609375], [-125.08591, 45.85585, -5152.830078125], [-125.08736, 45.86668, -5152.830078125], [-125.07528, 45.85664, -4597.849609375]]], [[[-125.07364, 45.84032, -4991.05859375], [-125.07048, 45.8483, -4597.849609375], [-125.06253, 45.84073, -4327.55224609375], [-125.07364, 45.84032, -4991.05859375]]], [[[-125.06635, 45.85733, -3888.47998046875], [-125.06156, 45.84899, -3888.47998046875], [-125.07048, 45.8483, -4597.849609375], [-125.06635, 45.85733, -3888.47998046875]]], [[[-125.04978, 45.85859, -2377.909912109375], [-125.04499, 45.85024, -2377.909912109375], [-125.0538, 45.84958, -3093.06982421875], [-125.04978, 45.85859, -2377.909912109375]]], [[[-125.12053, 45.82268, -7192.0576171875], [-125.12914, 45.81635, -7446.59814453125], [-125.1323, 45.82561, -7446.7275390625], [-125.12053, 45.82268, -7192.0576171875]]], [[[-125.05859, 45.85792, -3093.06982421875], [-125.0538, 45.84958, -3093.06982421875], [-125.06156, 45.84899, -3888.47998046875], [-125.05859, 45.85792, -3093.06982421875]]], [[[-125.02545, 45.79579, -2558.993896484375], [-125.01757, 45.79728, -2139.9111328125], [-125.01782, 45.78809, -2319.14990234375], [-125.02545, 45.79579, -2558.993896484375]]], [[[-125.0538, 45.84958, -3093.06982421875], [-125.05859, 45.85792, -3093.06982421875], [-125.04978, 45.85859, -2377.909912109375], [-125.0538, 45.84958, -3093.06982421875]]], [[[-125.05849, 45.82677, -4357.7646484375], [-125.0651, 45.83307, -4719.3828125], [-125.05293, 45.83298, -3828.60693359375], [-125.05849, 45.82677, -4357.7646484375]]], [[[-125.12555, 45.84408, -7058.849609375], [-125.13035, 45.85242, -7058.849609375], [-125.11828, 45.85337, -6729.41015625], [-125.12555, 45.84408, -7058.849609375]]], [[[-125.05108, 45.79223, -3930.87744140625], [-125.04668, 45.78371, -3919.939453125], [-125.0575, 45.78575, -4424.93212890625], [-125.05108, 45.79223, -3930.87744140625]]], [[[-125.04499, 45.85024, -2377.909912109375], [-125.04978, 45.85859, -2377.909912109375], [-125.04019, 45.85927, -1718.449951171875], [-125.04499, 45.85024, -2377.909912109375]]], [[[-125.11828, 45.85337, -6729.41015625], [-125.13035, 45.85242, -7058.849609375], [-125.13181, 45.86325, -7058.849609375], [-125.11828, 45.85337, -6729.41015625]]], [[[-125.12555, 45.84408, -7058.849609375], [-125.13642, 45.83468, -7441.66552734375], [-125.14124, 45.84358, -7435.14013671875], [-125.12555, 45.84408, -7058.849609375]]], [[[-125.03905, 45.84428, -2230.337158203125], [-125.0354, 45.85093, -1718.449951171875], [-125.02864, 45.84329, -1718.449951171875], [-125.03905, 45.84428, -2230.337158203125]]], [[[-125.11463, 45.80444, -7114.62353515625], [-125.12238, 45.79792, -7454.88671875], [-125.12608, 45.80708, -7448.064453125], [-125.11463, 45.80444, -7114.62353515625]]], [[[-125.05859, 45.85792, -3093.06982421875], [-125.06635, 45.85733, -3888.47998046875], [-125.0678, 45.86815, -3888.47998046875], [-125.05859, 45.85792, -3093.06982421875]]], [[[-125.06635, 45.85733, -3888.47998046875], [-125.07673, 45.86747, -4597.849609375], [-125.0678, 45.86815, -3888.47998046875], [-125.06635, 45.85733, -3888.47998046875]]], [[[-125.06635, 45.85733, -3888.47998046875], [-125.07528, 45.85664, -4597.849609375], [-125.07673, 45.86747, -4597.849609375], [-125.06635, 45.85733, -3888.47998046875]]], [[[-125.07048, 45.8483, -4597.849609375], [-125.07528, 45.85664, -4597.849609375], [-125.06635, 45.85733, -3888.47998046875], [-125.07048, 45.8483, -4597.849609375]]], [[[-125.08111, 45.84751, -5152.830078125], [-125.08591, 45.85585, -5152.830078125], [-125.07528, 45.85664, -4597.849609375], [-125.08111, 45.84751, -5152.830078125]]], [[[-125.08591, 45.85585, -5152.830078125], [-125.08111, 45.84751, -5152.830078125], [-125.09139, 45.84673, -5750.58984375], [-125.08591, 45.85585, -5152.830078125]]], [[[-125.10165, 45.84594, -6347.2001953125], [-125.09618, 45.85507, -5750.58984375], [-125.09139, 45.84673, -5750.58984375], [-125.10165, 45.84594, -6347.2001953125]]], [[[-125.10165, 45.84594, -6347.2001953125], [-125.10645, 45.85428, -6347.2001953125], [-125.09618, 45.85507, -5750.58984375], [-125.10165, 45.84594, -6347.2001953125]]], [[[-125.10645, 45.85428, -6347.2001953125], [-125.10165, 45.84594, -6347.2001953125], [-125.11348, 45.84503, -6729.41015625], [-125.10645, 45.85428, -6347.2001953125]]], [[[-125.11348, 45.84503, -6729.41015625], [-125.11828, 45.85337, -6729.41015625], [-125.10645, 45.85428, -6347.2001953125], [-125.11348, 45.84503, -6729.41015625]]], [[[-125.10645, 45.85428, -6347.2001953125], [-125.11828, 45.85337, -6729.41015625], [-125.11974, 45.8642, -6729.41015625], [-125.10645, 45.85428, -6347.2001953125]]], [[[-125.10645, 45.85428, -6347.2001953125], [-125.11974, 45.8642, -6729.41015625], [-125.10791, 45.8651, -6347.2001953125], [-125.10645, 45.85428, -6347.2001953125]]], [[[-125.09618, 45.85507, -5750.58984375], [-125.10791, 45.8651, -6347.2001953125], [-125.09764, 45.86589, -5750.58984375], [-125.09618, 45.85507, -5750.58984375]]], [[[-125.07528, 45.85664, -4597.849609375], [-125.08736, 45.86668, -5152.830078125], [-125.07673, 45.86747, -4597.849609375], [-125.07528, 45.85664, -4597.849609375]]], [[[-125.08591, 45.85585, -5152.830078125], [-125.09618, 45.85507, -5750.58984375], [-125.09764, 45.86589, -5750.58984375], [-125.08591, 45.85585, -5152.830078125]]], [[[-125.11736, 45.83744, -6948.38916015625], [-125.1246, 45.83238, -7191.12646484375], [-125.12555, 45.84408, -7058.849609375], [-125.11736, 45.83744, -6948.38916015625]]], [[[-125.11247, 45.82939, -6921.91650390625], [-125.1246, 45.83238, -7191.12646484375], [-125.11736, 45.83744, -6948.38916015625], [-125.11247, 45.82939, -6921.91650390625]]], [[[-125.10585, 45.83766, -6624.634765625], [-125.11736, 45.83744, -6948.38916015625], [-125.11348, 45.84503, -6729.41015625], [-125.10585, 45.83766, -6624.634765625]]], [[[-125.04933, 45.82382, -3762.265380859375], [-125.05849, 45.82677, -4357.7646484375], [-125.05293, 45.83298, -3828.60693359375], [-125.04933, 45.82382, -3762.265380859375]]], [[[-125.02862, 45.81127, -2336.686767578125], [-125.01821, 45.81052, -1718.449951171875], [-125.02245, 45.8039, -2208.751953125], [-125.02862, 45.81127, -2336.686767578125]]], [[[-125.01757, 45.79728, -2139.9111328125], [-125.02545, 45.79579, -2558.993896484375], [-125.02245, 45.8039, -2208.751953125], [-125.01757, 45.79728, -2139.9111328125]]], [[[-125.04019, 45.85927, -1718.449951171875], [-125.04978, 45.85859, -2377.909912109375], [-125.05122, 45.86941, -2377.909912109375], [-125.04019, 45.85927, -1718.449951171875]]], [[[-125.01782, 45.78809, -2319.14990234375], [-125.01478, 45.77753, -2417.34033203125], [-125.02506, 45.77965, -2909.95458984375], [-125.01782, 45.78809, -2319.14990234375]]], [[[-125.01782, 45.78809, -2319.14990234375], [-125.0078, 45.78554, -1718.449951171875], [-125.01478, 45.77753, -2417.34033203125], [-125.01782, 45.78809, -2319.14990234375]]], [[[-125.06185, 45.79427, -4440.7958984375], [-125.0575, 45.78575, -4424.93212890625], [-125.06831, 45.78778, -4929.92431640625], [-125.06185, 45.79427, -4440.7958984375]]], [[[-125.04444, 45.80713, -3416.918701171875], [-125.03697, 45.81335, -2997.551025390625], [-125.03305, 45.80397, -2843.080810546875], [-125.04444, 45.80713, -3416.918701171875]]], [[[-125.04444, 45.80713, -3416.918701171875], [-125.03305, 45.80397, -2843.080810546875], [-125.04395, 45.79888, -3446.059814453125], [-125.04444, 45.80713, -3416.918701171875]]], [[[-125.09402, 45.8004, -5988.59716796875], [-125.08993, 45.79184, -5939.9091796875], [-125.10075, 45.79386, -6444.90185546875], [-125.09402, 45.8004, -5988.59716796875]]], [[[-125.11463, 45.80444, -7114.62353515625], [-125.11156, 45.79589, -6949.89404296875], [-125.12238, 45.79792, -7454.88671875], [-125.11463, 45.80444, -7114.62353515625]]], [[[-125.13035, 45.85242, -7058.849609375], [-125.14124, 45.84358, -7435.14013671875], [-125.14567, 45.85258, -7434.876953125], [-125.13035, 45.85242, -7058.849609375]]]]}}]}