{"type": "FeatureCollection", "features": [{"type": "Feature", "properties": {"name": "AW_NORE_6", "CFM_ID": 242, "region": "Offshore_WAOR", "primary_state/province": "OR", "secondary_state/province": null, "avg_dip": 33, "dip_dir": "SW", "rake": 90, "slip_sense": "Reverse", "fault_level": 2, "NSHM23_sliprates": null, "QFFDAgeCatBin": null, "QFFDAgeBin": null, "upper_depth": -1.6, "upper_depth_constraint": "seismic imaging", "lower_depth": -7.8, "lower_depth_constraint": "megathrust", "3D_model_constraints": "trace and 1 MCS line", "reference": "Ledeczi et al. (2024); Carbotte et al. (2023)", "nshm23_id": null, "lineage": null, "usgs_qffd_#": null, "comments": "fault depth interpretation from Ledeczi et al. (2024); Carbotte et al. (2023) used to aid in model building", "id": "242"}, "geometry": {"type": "MultiPolygon", "coordinates": [[[[-125.03394, 45.86314, -4263.740234375], [-125.04454, 45.86231, -4775.828125], [-125.03898, 45.87107, -4689.14892578125], [-125.03394, 45.86314, -4263.740234375]]], [[[-125.05812, 45.94775, -2650.12109375], [-125.04688, 45.94605, -2063.425048828125], [-125.05064, 45.93871, -2679.400146484375], [-125.05812, 45.94775, -2650.12109375]]], [[[-125.07761, 45.87591, -6457.4970703125], [-125.0672, 45.87735, -5930.796875], [-125.07088, 45.86855, -6225.4169921875], [-125.07761, 45.87591, -6457.4970703125]]], [[[-125.10463, 46.00095, -3320.595703125], [-125.09758, 45.99258, -3145.104248046875], [-125.10787, 45.99233, -3678.44091796875], [-125.10463, 46.00095, -3320.595703125]]], [[[-125.08955, 45.87553, -6994.107421875], [-125.09633, 45.86787, -7350.87109375], [-125.10046, 45.87837, -7367.69677734375], [-125.08955, 45.87553, -6994.107421875]]], [[[-125.17327, 45.97206, -7202.84521484375], [-125.17976, 45.96444, -7675.45703125], [-125.18567, 45.97219, -7663.39990234375], [-125.17327, 45.97206, -7202.84521484375]]], [[[-125.16731, 45.96415, -7235.2099609375], [-125.17976, 45.96444, -7675.45703125], [-125.17327, 45.97206, -7202.84521484375], [-125.16731, 45.96415, -7235.2099609375]]], [[[-125.00186, 45.88318, -2685.46533203125], [-124.99226, 45.88583, -2039.8031005859375], [-124.9893, 45.87714, -2042.8184814453125], [-125.00186, 45.88318, -2685.46533203125]]], [[[-125.06881, 45.90232, -5215.6943359375], [-125.05657, 45.90601, -4539.08251953125], [-125.06136, 45.8954, -5126.35888671875], [-125.06881, 45.90232, -5215.6943359375]]], [[[-125.09633, 45.86787, -7350.87109375], [-125.10715, 45.86469, -7743.71337890625], [-125.10832, 45.87219, -7765.576171875], [-125.09633, 45.86787, -7350.87109375]]], [[[-125.16731, 45.96415, -7235.2099609375], [-125.17406, 45.95663, -7685.37548828125], [-125.17976, 45.96444, -7675.45703125], [-125.16731, 45.96415, -7235.2099609375]]], [[[-125.10046, 45.87837, -7367.69677734375], [-125.11248, 45.88036, -7768.6279296875], [-125.10538, 45.88751, -7338.2939453125], [-125.10046, 45.87837, -7367.69677734375]]], [[[-125.03558, 45.87989, -4417.4677734375], [-125.02493, 45.88049, -3906.744873046875], [-125.02884, 45.87173, -4198.34326171875], [-125.03558, 45.87989, -4417.4677734375]]], [[[-125.07413, 45.97156, -2686.095703125], [-125.06238, 45.97045, -2071.22705078125], [-125.0684, 45.96378, -2693.629638671875], [-125.07413, 45.97156, -2686.095703125]]], [[[-125.069, 45.97832, -2072.749755859375], [-125.06138, 45.98478, -1638.1600341796875], [-125.05565, 45.97682, -1638.1600341796875], [-125.069, 45.97832, -2072.749755859375]]], [[[-124.99793, 45.893, -2098.247314453125], [-124.99076, 45.90063, -1638.1600341796875], [-124.98507, 45.89264, -1638.1600341796875], [-124.99793, 45.893, -2098.247314453125]]], [[[-125.0387, 45.9153, -3318.817138671875], [-125.05044, 45.91481, -3920.675537109375], [-125.04606, 45.92249, -3332.674072265625], [-125.0387, 45.9153, -3318.817138671875]]], [[[-125.16184, 45.95562, -7249.3544921875], [-125.17406, 45.95663, -7685.37548828125], [-125.16731, 45.96415, -7235.2099609375], [-125.16184, 45.95562, -7249.3544921875]]], [[[-125.08084, 45.965, -3276.316650390625], [-125.08666, 45.9735, -3196.142333984375], [-125.07413, 45.97156, -2686.095703125], [-125.08084, 45.965, -3276.316650390625]]], [[[-125.10297, 46.00851, -3055.978271484375], [-125.1022, 46.01392, -2441.96728515625], [-125.09407, 46.00924, -2565.935546875], [-125.10297, 46.00851, -3055.978271484375]]], [[[-125.05064, 45.89664, -4607.01611328125], [-125.05349, 45.88702, -5043.466796875], [-125.06136, 45.8954, -5126.35888671875], [-125.05064, 45.89664, -4607.01611328125]]], [[[-125.02316, 45.92347, -2091.454833984375], [-125.01048, 45.92354, -1638.1600341796875], [-125.01591, 45.91607, -2091.21240234375], [-125.02316, 45.92347, -2091.454833984375]]], [[[-125.08267, 45.8677, -6785.142578125], [-125.087, 45.85905, -6811.5712890625], [-125.09633, 45.86787, -7350.87109375], [-125.08267, 45.8677, -6785.142578125]]], [[[-125.17327, 45.97206, -7202.84521484375], [-125.18567, 45.97219, -7663.39990234375], [-125.17838, 45.97952, -7216.24951171875], [-125.17327, 45.97206, -7202.84521484375]]], [[[-125.05064, 45.93871, -2679.400146484375], [-125.05403, 45.93116, -3275.307861328125], [-125.06287, 45.9401, -3167.32958984375], [-125.05064, 45.93871, -2679.400146484375]]], [[[-125.16184, 45.95562, -7249.3544921875], [-125.16945, 45.94844, -7686.10400390625], [-125.17406, 45.95663, -7685.37548828125], [-125.16184, 45.95562, -7249.3544921875]]], [[[-125.02232, 45.88926, -3523.784912109375], [-125.03197, 45.89821, -3692.684814453125], [-125.02007, 45.89547, -3187.087890625], [-125.02232, 45.88926, -3523.784912109375]]], [[[-125.05812, 45.94775, -2650.12109375], [-125.06993, 45.94913, -3178.4638671875], [-125.0634, 45.95619, -2654.930908203125], [-125.05812, 45.94775, -2650.12109375]]], [[[-125.08666, 45.9735, -3196.142333984375], [-125.09131, 45.98343, -3086.930908203125], [-125.08059, 45.98077, -2648.958740234375], [-125.08666, 45.9735, -3196.142333984375]]], [[[-125.15719, 45.94754, -7249.2275390625], [-125.16945, 45.94844, -7686.10400390625], [-125.16184, 45.95562, -7249.3544921875], [-125.15719, 45.94754, -7249.2275390625]]], [[[-125.09633, 45.86787, -7350.87109375], [-125.10832, 45.87219, -7765.576171875], [-125.10046, 45.87837, -7367.69677734375], [-125.09633, 45.86787, -7350.87109375]]], [[[-125.02884, 45.87173, -4198.34326171875], [-125.03394, 45.86314, -4263.740234375], [-125.03898, 45.87107, -4689.14892578125], [-125.02884, 45.87173, -4198.34326171875]]], [[[-125.03558, 45.87989, -4417.4677734375], [-125.03898, 45.87107, -4689.14892578125], [-125.04589, 45.87901, -4912.9052734375], [-125.03558, 45.87989, -4417.4677734375]]], [[[-125.15719, 45.94754, -7249.2275390625], [-125.1646, 45.94031, -7685.5234375], [-125.16945, 45.94844, -7686.10400390625], [-125.15719, 45.94754, -7249.2275390625]]], [[[-125.02316, 45.92347, -2091.454833984375], [-125.02708, 45.91625, -2720.080810546875], [-125.03421, 45.92293, -2745.902587890625], [-125.02316, 45.92347, -2091.454833984375]]], [[[-125.08084, 45.965, -3276.316650390625], [-125.07413, 45.97156, -2686.095703125], [-125.0684, 45.96378, -2693.629638671875], [-125.08084, 45.965, -3276.316650390625]]], [[[-125.1117, 45.91122, -6806.13818359375], [-125.12397, 45.91156, -7294.1201171875], [-125.11863, 45.91926, -6767.478515625], [-125.1117, 45.91122, -6806.13818359375]]], [[[-125.15232, 45.94014, -7231.50341796875], [-125.1646, 45.94031, -7685.5234375], [-125.15719, 45.94754, -7249.2275390625], [-125.15232, 45.94014, -7231.50341796875]]], [[[-125.00186, 45.88318, -2685.46533203125], [-124.99748, 45.8739, -2565.0361328125], [-125.00756, 45.87367, -3099.999267578125], [-125.00186, 45.88318, -2685.46533203125]]], [[[-125.08348, 45.88265, -6551.39990234375], [-125.08955, 45.87553, -6994.107421875], [-125.0935, 45.88556, -6906.0478515625], [-125.08348, 45.88265, -6551.39990234375]]], [[[-125.15232, 45.94014, -7231.50341796875], [-125.15868, 45.93261, -7692.78466796875], [-125.1646, 45.94031, -7685.5234375], [-125.15232, 45.94014, -7231.50341796875]]], [[[-125.08579, 46.00965, -2055.844970703125], [-125.08456, 46.01528, -1638.1600341796875], [-125.07783, 46.01218, -1638.1600341796875], [-125.08579, 46.00965, -2055.844970703125]]], [[[-125.01591, 45.91607, -2091.21240234375], [-125.01048, 45.92354, -1638.1600341796875], [-125.00328, 45.91618, -1638.1600341796875], [-125.01591, 45.91607, -2091.21240234375]]], [[[-125.14635, 45.93346, -7230.82861328125], [-125.15868, 45.93261, -7692.78466796875], [-125.15232, 45.94014, -7231.50341796875], [-125.14635, 45.93346, -7230.82861328125]]], [[[-125.10086, 45.95848, -4421.29638671875], [-125.09527, 45.95018, -4381.9482421875], [-125.1093, 45.94906, -5050.98193359375], [-125.10086, 45.95848, -4421.29638671875]]], [[[-125.05829, 45.92364, -3881.2021484375], [-125.04606, 45.92249, -3332.674072265625], [-125.05044, 45.91481, -3920.675537109375], [-125.05829, 45.92364, -3881.2021484375]]], [[[-125.00959, 45.90891, -2074.070556640625], [-125.00328, 45.91618, -1638.1600341796875], [-124.9969, 45.90845, -1638.1600341796875], [-125.00959, 45.90891, -2074.070556640625]]], [[[-125.02058, 45.90909, -2704.56640625], [-125.01591, 45.91607, -2091.21240234375], [-125.00959, 45.90891, -2074.070556640625], [-125.02058, 45.90909, -2704.56640625]]], [[[-124.9817, 45.86715, -1638.1600341796875], [-124.9893, 45.87714, -2042.8184814453125], [-124.9779, 45.87561, -1638.1600341796875], [-124.9817, 45.86715, -1638.1600341796875]]], [[[-125.07378, 45.89406, -5732.16796875], [-125.07473, 45.88541, -6067.5341796875], [-125.08617, 45.89255, -6363.470703125], [-125.07378, 45.89406, -5732.16796875]]], [[[-125.05349, 45.88702, -5043.466796875], [-125.05678, 45.87817, -5421.93017578125], [-125.06444, 45.88628, -5557.3642578125], [-125.05349, 45.88702, -5043.466796875]]], [[[-125.09481, 45.96696, -3903.66552734375], [-125.08084, 45.965, -3276.316650390625], [-125.0876, 45.95794, -3814.50244140625], [-125.09481, 45.96696, -3903.66552734375]]], [[[-125.14635, 45.93346, -7230.82861328125], [-125.15082, 45.92573, -7712.5615234375], [-125.15868, 45.93261, -7692.78466796875], [-125.14635, 45.93346, -7230.82861328125]]], [[[-125.07378, 45.89406, -5732.16796875], [-125.06444, 45.88628, -5557.3642578125], [-125.07473, 45.88541, -6067.5341796875], [-125.07378, 45.89406, -5732.16796875]]], [[[-125.01312, 45.86471, -3195.17578125], [-125.02338, 45.86394, -3747.8037109375], [-125.01788, 45.87261, -3655.21142578125], [-125.01312, 45.86471, -3195.17578125]]], [[[-125.06444, 45.88628, -5557.3642578125], [-125.0672, 45.87735, -5930.796875], [-125.07473, 45.88541, -6067.5341796875], [-125.06444, 45.88628, -5557.3642578125]]], [[[-125.08084, 45.965, -3276.316650390625], [-125.0684, 45.96378, -2693.629638671875], [-125.07546, 45.957, -3223.51171875], [-125.08084, 45.965, -3276.316650390625]]], [[[-125.13863, 45.9266, -7246.3056640625], [-125.15082, 45.92573, -7712.5615234375], [-125.14635, 45.93346, -7230.82861328125], [-125.13863, 45.9266, -7246.3056640625]]], [[[-125.13863, 45.9266, -7246.3056640625], [-125.14315, 45.91875, -7728.16943359375], [-125.15082, 45.92573, -7712.5615234375], [-125.13863, 45.9266, -7246.3056640625]]], [[[-125.13088, 45.9191, -7269.39697265625], [-125.14315, 45.91875, -7728.16943359375], [-125.13863, 45.9266, -7246.3056640625], [-125.13088, 45.9191, -7269.39697265625]]], [[[-125.08267, 45.8677, -6785.142578125], [-125.07633, 45.85986, -6309.7392578125], [-125.087, 45.85905, -6811.5712890625], [-125.08267, 45.8677, -6785.142578125]]], [[[-125.13088, 45.9191, -7269.39697265625], [-125.13633, 45.91135, -7739.63037109375], [-125.14315, 45.91875, -7728.16943359375], [-125.13088, 45.9191, -7269.39697265625]]], [[[-125.1192, 45.96206, -5153.17626953125], [-125.12525, 45.95486, -5619.9140625], [-125.13086, 45.96173, -5686.79248046875], [-125.1192, 45.96206, -5153.17626953125]]], [[[-125.04606, 45.92249, -3332.674072265625], [-125.04189, 45.93029, -2759.728515625], [-125.03421, 45.92293, -2745.902587890625], [-125.04606, 45.92249, -3332.674072265625]]], [[[-125.13088, 45.9191, -7269.39697265625], [-125.12397, 45.91156, -7294.1201171875], [-125.13633, 45.91135, -7739.63037109375], [-125.13088, 45.9191, -7269.39697265625]]], [[[-125.13088, 45.9191, -7269.39697265625], [-125.11863, 45.91926, -6767.478515625], [-125.12397, 45.91156, -7294.1201171875], [-125.13088, 45.9191, -7269.39697265625]]], [[[-125.01368, 45.88232, -3289.21875], [-125.00756, 45.87367, -3099.999267578125], [-125.01788, 45.87261, -3655.21142578125], [-125.01368, 45.88232, -3289.21875]]], [[[-124.99748, 45.8739, -2565.0361328125], [-124.99294, 45.86629, -2059.330810546875], [-125.00272, 45.86554, -2660.9833984375], [-124.99748, 45.8739, -2565.0361328125]]], [[[-125.08121, 45.90083, -5830.283203125], [-125.07378, 45.89406, -5732.16796875], [-125.08617, 45.89255, -6363.470703125], [-125.08121, 45.90083, -5830.283203125]]], [[[-125.13088, 45.9191, -7269.39697265625], [-125.12641, 45.92708, -6731.20263671875], [-125.11863, 45.91926, -6767.478515625], [-125.13088, 45.9191, -7269.39697265625]]], [[[-125.04994, 45.87015, -5201.8798828125], [-125.05523, 45.86142, -5273.078125], [-125.06039, 45.86934, -5702.9775390625], [-125.04994, 45.87015, -5201.8798828125]]], [[[-125.06287, 45.9401, -3167.32958984375], [-125.05812, 45.94775, -2650.12109375], [-125.05064, 45.93871, -2679.400146484375], [-125.06287, 45.9401, -3167.32958984375]]], [[[-125.12641, 45.92708, -6731.20263671875], [-125.13088, 45.9191, -7269.39697265625], [-125.13863, 45.9266, -7246.3056640625], [-125.12641, 45.92708, -6731.20263671875]]], [[[-125.11677, 45.99087, -4136.970703125], [-125.1257, 45.98963, -4579.580078125], [-125.12386, 45.9991, -4303.4619140625], [-125.11677, 45.99087, -4136.970703125]]], [[[-124.9893, 45.87714, -2042.8184814453125], [-124.98022, 45.88439, -1638.1600341796875], [-124.9779, 45.87561, -1638.1600341796875], [-124.9893, 45.87714, -2042.8184814453125]]], [[[-124.99793, 45.893, -2098.247314453125], [-125.0093, 45.89267, -2764.957275390625], [-125.0034, 45.90106, -2076.486328125], [-124.99793, 45.893, -2098.247314453125]]], [[[-125.13415, 45.9342, -6700.5283203125], [-125.12641, 45.92708, -6731.20263671875], [-125.13863, 45.9266, -7246.3056640625], [-125.13415, 45.9342, -6700.5283203125]]], [[[-125.08121, 45.90083, -5830.283203125], [-125.08617, 45.89255, -6363.470703125], [-125.09293, 45.90207, -6333.49072265625], [-125.08121, 45.90083, -5830.283203125]]], [[[-125.1222, 45.93446, -6155.0498046875], [-125.12641, 45.92708, -6731.20263671875], [-125.13415, 45.9342, -6700.5283203125], [-125.1222, 45.93446, -6155.0498046875]]], [[[-125.01591, 45.91607, -2091.21240234375], [-125.00328, 45.91618, -1638.1600341796875], [-125.00959, 45.90891, -2074.070556640625], [-125.01591, 45.91607, -2091.21240234375]]], [[[-125.1144, 45.92708, -6200.2734375], [-125.12641, 45.92708, -6731.20263671875], [-125.1222, 45.93446, -6155.0498046875], [-125.1144, 45.92708, -6200.2734375]]], [[[-125.03037, 45.93025, -2121.7490234375], [-125.02602, 45.93767, -1638.1600341796875], [-125.01771, 45.9309, -1638.1600341796875], [-125.03037, 45.93025, -2121.7490234375]]], [[[-125.1144, 45.92708, -6200.2734375], [-125.11863, 45.91926, -6767.478515625], [-125.12641, 45.92708, -6731.20263671875], [-125.1144, 45.92708, -6200.2734375]]], [[[-125.07088, 45.86855, -6225.4169921875], [-125.06584, 45.86065, -5784.259765625], [-125.07633, 45.85986, -6309.7392578125], [-125.07088, 45.86855, -6225.4169921875]]], [[[-125.01788, 45.87261, -3655.21142578125], [-125.02338, 45.86394, -3747.8037109375], [-125.02884, 45.87173, -4198.34326171875], [-125.01788, 45.87261, -3655.21142578125]]], [[[-125.06238, 45.97045, -2071.22705078125], [-125.07413, 45.97156, -2686.095703125], [-125.069, 45.97832, -2072.749755859375], [-125.06238, 45.97045, -2071.22705078125]]], [[[-125.0034, 45.90106, -2076.486328125], [-124.99076, 45.90063, -1638.1600341796875], [-124.99793, 45.893, -2098.247314453125], [-125.0034, 45.90106, -2076.486328125]]], [[[-124.99226, 45.88583, -2039.8031005859375], [-124.99793, 45.893, -2098.247314453125], [-124.98507, 45.89264, -1638.1600341796875], [-124.99226, 45.88583, -2039.8031005859375]]], [[[-125.04061, 45.89644, -4159.11474609375], [-125.05064, 45.89664, -4607.01611328125], [-125.04336, 45.90614, -3936.04345703125], [-125.04061, 45.89644, -4159.11474609375]]], [[[-125.1144, 45.92708, -6200.2734375], [-125.10652, 45.91879, -6254.75634765625], [-125.11863, 45.91926, -6767.478515625], [-125.1144, 45.92708, -6200.2734375]]], [[[-125.03896, 45.9374, -2106.282470703125], [-125.03404, 45.94462, -1638.1600341796875], [-125.02602, 45.93767, -1638.1600341796875], [-125.03896, 45.9374, -2106.282470703125]]], [[[-125.06881, 45.90232, -5215.6943359375], [-125.07378, 45.89406, -5732.16796875], [-125.08121, 45.90083, -5830.283203125], [-125.06881, 45.90232, -5215.6943359375]]], [[[-125.1144, 45.92708, -6200.2734375], [-125.10221, 45.92663, -5663.46923828125], [-125.10652, 45.91879, -6254.75634765625], [-125.1144, 45.92708, -6200.2734375]]], [[[-125.03896, 45.9374, -2106.282470703125], [-125.04688, 45.94605, -2063.425048828125], [-125.03404, 45.94462, -1638.1600341796875], [-125.03896, 45.9374, -2106.282470703125]]], [[[-125.1144, 45.92708, -6200.2734375], [-125.10987, 45.93454, -5584.7939453125], [-125.10221, 45.92663, -5663.46923828125], [-125.1144, 45.92708, -6200.2734375]]], [[[-125.03037, 45.93025, -2121.7490234375], [-125.03896, 45.9374, -2106.282470703125], [-125.02602, 45.93767, -1638.1600341796875], [-125.03037, 45.93025, -2121.7490234375]]], [[[-125.07507, 45.9415, -3696.327392578125], [-125.08072, 45.93344, -4381.38720703125], [-125.08871, 45.94171, -4315.54541015625], [-125.07507, 45.9415, -3696.327392578125]]], [[[-125.0093, 45.89267, -2764.957275390625], [-124.99793, 45.893, -2098.247314453125], [-125.00186, 45.88318, -2685.46533203125], [-125.0093, 45.89267, -2764.957275390625]]], [[[-125.00186, 45.88318, -2685.46533203125], [-124.99793, 45.893, -2098.247314453125], [-124.99226, 45.88583, -2039.8031005859375], [-125.00186, 45.88318, -2685.46533203125]]], [[[-125.06444, 45.88628, -5557.3642578125], [-125.06136, 45.8954, -5126.35888671875], [-125.05349, 45.88702, -5043.466796875], [-125.06444, 45.88628, -5557.3642578125]]], [[[-125.03558, 45.87989, -4417.4677734375], [-125.02884, 45.87173, -4198.34326171875], [-125.03898, 45.87107, -4689.14892578125], [-125.03558, 45.87989, -4417.4677734375]]], [[[-125.10987, 45.93454, -5584.7939453125], [-125.1144, 45.92708, -6200.2734375], [-125.1222, 45.93446, -6155.0498046875], [-125.10987, 45.93454, -5584.7939453125]]], [[[-125.10086, 45.95848, -4421.29638671875], [-125.09481, 45.96696, -3903.66552734375], [-125.0876, 45.95794, -3814.50244140625], [-125.10086, 45.95848, -4421.29638671875]]], [[[-125.07507, 45.9415, -3696.327392578125], [-125.06287, 45.9401, -3167.32958984375], [-125.0666, 45.93258, -3806.4052734375], [-125.07507, 45.9415, -3696.327392578125]]], [[[-125.13291, 45.9979, -4749.7900390625], [-125.13945, 46.00507, -4909.8544921875], [-125.13049, 46.00595, -4463.5], [-125.13291, 45.9979, -4749.7900390625]]], [[[-125.04336, 45.90614, -3936.04345703125], [-125.03224, 45.90861, -3283.83056640625], [-125.03197, 45.89821, -3692.684814453125], [-125.04336, 45.90614, -3936.04345703125]]], [[[-125.05064, 45.93871, -2679.400146484375], [-125.04688, 45.94605, -2063.425048828125], [-125.03896, 45.9374, -2106.282470703125], [-125.05064, 45.93871, -2679.400146484375]]], [[[-125.03404, 45.94462, -1638.1600341796875], [-125.04688, 45.94605, -2063.425048828125], [-125.03945, 45.95266, -1638.1600341796875], [-125.03404, 45.94462, -1638.1600341796875]]], [[[-125.11619, 45.94168, -5558.83642578125], [-125.10987, 45.93454, -5584.7939453125], [-125.1222, 45.93446, -6155.0498046875], [-125.11619, 45.94168, -5558.83642578125]]], [[[-125.10787, 45.99233, -3678.44091796875], [-125.10919, 45.9828, -3989.64599609375], [-125.11677, 45.99087, -4136.970703125], [-125.10787, 45.99233, -3678.44091796875]]], [[[-124.99294, 45.86629, -2059.330810546875], [-124.99748, 45.8739, -2565.0361328125], [-124.9893, 45.87714, -2042.8184814453125], [-124.99294, 45.86629, -2059.330810546875]]], [[[-125.05403, 45.93116, -3275.307861328125], [-125.05064, 45.93871, -2679.400146484375], [-125.04189, 45.93029, -2759.728515625], [-125.05403, 45.93116, -3275.307861328125]]], [[[-125.08617, 45.89255, -6363.470703125], [-125.0935, 45.88556, -6906.0478515625], [-125.09897, 45.89482, -6854.71484375], [-125.08617, 45.89255, -6363.470703125]]], [[[-125.10463, 46.00095, -3320.595703125], [-125.10297, 46.00851, -3055.978271484375], [-125.09655, 46.00173, -2901.5048828125], [-125.10463, 46.00095, -3320.595703125]]], [[[-125.10286, 45.94216, -4955.5576171875], [-125.10987, 45.93454, -5584.7939453125], [-125.11619, 45.94168, -5558.83642578125], [-125.10286, 45.94216, -4955.5576171875]]], [[[-125.09621, 45.93433, -5007.87158203125], [-125.10987, 45.93454, -5584.7939453125], [-125.10286, 45.94216, -4955.5576171875], [-125.09621, 45.93433, -5007.87158203125]]], [[[-125.00756, 45.87367, -3099.999267578125], [-125.01312, 45.86471, -3195.17578125], [-125.01788, 45.87261, -3655.21142578125], [-125.00756, 45.87367, -3099.999267578125]]], [[[-125.1135, 45.99968, -3799.042724609375], [-125.11218, 46.00754, -3536.326904296875], [-125.10463, 46.00095, -3320.595703125], [-125.1135, 45.99968, -3799.042724609375]]], [[[-125.01417, 45.90183, -2673.143310546875], [-125.00959, 45.90891, -2074.070556640625], [-125.0034, 45.90106, -2076.486328125], [-125.01417, 45.90183, -2673.143310546875]]], [[[-125.1093, 45.94906, -5050.98193359375], [-125.12105, 45.94867, -5589.681640625], [-125.1128, 45.95597, -5028.2109375], [-125.1093, 45.94906, -5050.98193359375]]], [[[-125.07761, 45.87591, -6457.4970703125], [-125.07088, 45.86855, -6225.4169921875], [-125.08267, 45.8677, -6785.142578125], [-125.07761, 45.87591, -6457.4970703125]]], [[[-125.08776, 46.00199, -2406.652099609375], [-125.07917, 46.00478, -1922.4063720703125], [-125.07829, 45.99662, -2021.477783203125], [-125.08776, 46.00199, -2406.652099609375]]], [[[-125.09621, 45.93433, -5007.87158203125], [-125.10221, 45.92663, -5663.46923828125], [-125.10987, 45.93454, -5584.7939453125], [-125.09621, 45.93433, -5007.87158203125]]], [[[-125.07235, 45.92463, -4469.0703125], [-125.08072, 45.93344, -4381.38720703125], [-125.0666, 45.93258, -3806.4052734375], [-125.07235, 45.92463, -4469.0703125]]], [[[-125.10819, 45.97346, -4239.90966796875], [-125.11863, 45.97304, -4729.5615234375], [-125.11811, 45.98159, -4437.4091796875], [-125.10819, 45.97346, -4239.90966796875]]], [[[-125.1606, 45.97131, -6692.87890625], [-125.15468, 45.96301, -6740.9619140625], [-125.16731, 45.96415, -7235.2099609375], [-125.1606, 45.97131, -6692.87890625]]], [[[-125.03231, 45.88852, -4034.21630859375], [-125.03558, 45.87989, -4417.4677734375], [-125.04313, 45.8878, -4554.63916015625], [-125.03231, 45.88852, -4034.21630859375]]], [[[-125.10101, 45.98444, -3546.6865234375], [-125.09131, 45.98343, -3086.930908203125], [-125.0982, 45.97628, -3682.130126953125], [-125.10101, 45.98444, -3546.6865234375]]], [[[-125.09621, 45.93433, -5007.87158203125], [-125.08817, 45.92599, -5081.484375], [-125.10221, 45.92663, -5663.46923828125], [-125.09621, 45.93433, -5007.87158203125]]], [[[-125.00959, 45.90891, -2074.070556640625], [-124.9969, 45.90845, -1638.1600341796875], [-125.0034, 45.90106, -2076.486328125], [-125.00959, 45.90891, -2074.070556640625]]], [[[-125.07088, 45.86855, -6225.4169921875], [-125.07633, 45.85986, -6309.7392578125], [-125.08267, 45.8677, -6785.142578125], [-125.07088, 45.86855, -6225.4169921875]]], [[[-125.03231, 45.88852, -4034.21630859375], [-125.02493, 45.88049, -3906.744873046875], [-125.03558, 45.87989, -4417.4677734375], [-125.03231, 45.88852, -4034.21630859375]]], [[[-125.08817, 45.92599, -5081.484375], [-125.09621, 45.93433, -5007.87158203125], [-125.08072, 45.93344, -4381.38720703125], [-125.08817, 45.92599, -5081.484375]]], [[[-125.08348, 45.88265, -6551.39990234375], [-125.07473, 45.88541, -6067.5341796875], [-125.07761, 45.87591, -6457.4970703125], [-125.08348, 45.88265, -6551.39990234375]]], [[[-125.03231, 45.88852, -4034.21630859375], [-125.02232, 45.88926, -3523.784912109375], [-125.02493, 45.88049, -3906.744873046875], [-125.03231, 45.88852, -4034.21630859375]]], [[[-125.10101, 45.98444, -3546.6865234375], [-125.0982, 45.97628, -3682.130126953125], [-125.10919, 45.9828, -3989.64599609375], [-125.10101, 45.98444, -3546.6865234375]]], [[[-124.99076, 45.90063, -1638.1600341796875], [-125.0034, 45.90106, -2076.486328125], [-124.9969, 45.90845, -1638.1600341796875], [-124.99076, 45.90063, -1638.1600341796875]]], [[[-125.02232, 45.88926, -3523.784912109375], [-125.01368, 45.88232, -3289.21875], [-125.02493, 45.88049, -3906.744873046875], [-125.02232, 45.88926, -3523.784912109375]]], [[[-125.08666, 45.9735, -3196.142333984375], [-125.08059, 45.98077, -2648.958740234375], [-125.07413, 45.97156, -2686.095703125], [-125.08666, 45.9735, -3196.142333984375]]], [[[-125.08817, 45.92599, -5081.484375], [-125.08072, 45.93344, -4381.38720703125], [-125.07235, 45.92463, -4469.0703125], [-125.08817, 45.92599, -5081.484375]]], [[[-125.09897, 45.89482, -6854.71484375], [-125.0935, 45.88556, -6906.0478515625], [-125.10538, 45.88751, -7338.2939453125], [-125.09897, 45.89482, -6854.71484375]]], [[[-125.02493, 45.88049, -3906.744873046875], [-125.01788, 45.87261, -3655.21142578125], [-125.02884, 45.87173, -4198.34326171875], [-125.02493, 45.88049, -3906.744873046875]]], [[[-125.11218, 46.00754, -3536.326904296875], [-125.12111, 46.00657, -4001.322021484375], [-125.12114, 46.01243, -3467.981201171875], [-125.11218, 46.00754, -3536.326904296875]]], [[[-124.99226, 45.88583, -2039.8031005859375], [-124.98507, 45.89264, -1638.1600341796875], [-124.98022, 45.88439, -1638.1600341796875], [-124.99226, 45.88583, -2039.8031005859375]]], [[[-125.06039, 45.86934, -5702.9775390625], [-125.06584, 45.86065, -5784.259765625], [-125.07088, 45.86855, -6225.4169921875], [-125.06039, 45.86934, -5702.9775390625]]], [[[-125.02493, 45.88049, -3906.744873046875], [-125.01368, 45.88232, -3289.21875], [-125.01788, 45.87261, -3655.21142578125], [-125.02493, 45.88049, -3906.744873046875]]], [[[-125.10297, 46.00851, -3055.978271484375], [-125.11164, 46.01317, -2971.091064453125], [-125.1022, 46.01392, -2441.96728515625], [-125.10297, 46.00851, -3055.978271484375]]], [[[-125.08817, 45.92599, -5081.484375], [-125.07235, 45.92463, -4469.0703125], [-125.07984, 45.91722, -5118.73974609375], [-125.08817, 45.92599, -5081.484375]]], [[[-125.02528, 45.90237, -3185.920654296875], [-125.01417, 45.90183, -2673.143310546875], [-125.02007, 45.89547, -3187.087890625], [-125.02528, 45.90237, -3185.920654296875]]], [[[-125.10101, 45.98444, -3546.6865234375], [-125.10919, 45.9828, -3989.64599609375], [-125.10787, 45.99233, -3678.44091796875], [-125.10101, 45.98444, -3546.6865234375]]], [[[-125.08817, 45.92599, -5081.484375], [-125.07984, 45.91722, -5118.73974609375], [-125.09414, 45.91823, -5708.544921875], [-125.08817, 45.92599, -5081.484375]]], [[[-125.0634, 45.95619, -2654.930908203125], [-125.0571, 45.96302, -2058.83203125], [-125.05237, 45.95475, -2056.7255859375], [-125.0634, 45.95619, -2654.930908203125]]], [[[-125.02232, 45.88926, -3523.784912109375], [-125.03231, 45.88852, -4034.21630859375], [-125.03197, 45.89821, -3692.684814453125], [-125.02232, 45.88926, -3523.784912109375]]], [[[-125.08634, 45.99161, -2601.02978515625], [-125.08776, 46.00199, -2406.652099609375], [-125.07829, 45.99662, -2021.477783203125], [-125.08634, 45.99161, -2601.02978515625]]], [[[-125.08817, 45.92599, -5081.484375], [-125.09414, 45.91823, -5708.544921875], [-125.10221, 45.92663, -5663.46923828125], [-125.08817, 45.92599, -5081.484375]]], [[[-125.08348, 45.88265, -6551.39990234375], [-125.08617, 45.89255, -6363.470703125], [-125.07473, 45.88541, -6067.5341796875], [-125.08348, 45.88265, -6551.39990234375]]], [[[-125.02528, 45.90237, -3185.920654296875], [-125.03197, 45.89821, -3692.684814453125], [-125.03224, 45.90861, -3283.83056640625], [-125.02528, 45.90237, -3185.920654296875]]], [[[-125.10463, 46.00095, -3320.595703125], [-125.11218, 46.00754, -3536.326904296875], [-125.10297, 46.00851, -3055.978271484375], [-125.10463, 46.00095, -3320.595703125]]], [[[-125.09414, 45.91823, -5708.544921875], [-125.10652, 45.91879, -6254.75634765625], [-125.10221, 45.92663, -5663.46923828125], [-125.09414, 45.91823, -5708.544921875]]], [[[-125.00756, 45.87367, -3099.999267578125], [-125.01368, 45.88232, -3289.21875], [-125.00186, 45.88318, -2685.46533203125], [-125.00756, 45.87367, -3099.999267578125]]], [[[-125.06982, 46.00118, -1638.1600341796875], [-125.07917, 46.00478, -1922.4063720703125], [-125.07272, 46.00809, -1638.1600341796875], [-125.06982, 46.00118, -1638.1600341796875]]], [[[-125.09414, 45.91823, -5708.544921875], [-125.09961, 45.91062, -6295.31005859375], [-125.10652, 45.91879, -6254.75634765625], [-125.09414, 45.91823, -5708.544921875]]], [[[-125.10101, 45.98444, -3546.6865234375], [-125.09758, 45.99258, -3145.104248046875], [-125.09131, 45.98343, -3086.930908203125], [-125.10101, 45.98444, -3546.6865234375]]], [[[-125.09414, 45.91823, -5708.544921875], [-125.08756, 45.90958, -5779.21533203125], [-125.09961, 45.91062, -6295.31005859375], [-125.09414, 45.91823, -5708.544921875]]], [[[-125.10463, 46.00095, -3320.595703125], [-125.09655, 46.00173, -2901.5048828125], [-125.09758, 45.99258, -3145.104248046875], [-125.10463, 46.00095, -3320.595703125]]], [[[-125.09414, 45.91823, -5708.544921875], [-125.07984, 45.91722, -5118.73974609375], [-125.08756, 45.90958, -5779.21533203125], [-125.09414, 45.91823, -5708.544921875]]], [[[-125.09758, 45.99258, -3145.104248046875], [-125.09655, 46.00173, -2901.5048828125], [-125.08634, 45.99161, -2601.02978515625], [-125.09758, 45.99258, -3145.104248046875]]], [[[-125.12459, 45.96886, -5156.30712890625], [-125.11863, 45.97304, -4729.5615234375], [-125.10972, 45.96521, -4636.02685546875], [-125.12459, 45.96886, -5156.30712890625]]], [[[-125.0935, 45.88556, -6906.0478515625], [-125.08955, 45.87553, -6994.107421875], [-125.10046, 45.87837, -7367.69677734375], [-125.0935, 45.88556, -6906.0478515625]]], [[[-125.04313, 45.8878, -4554.63916015625], [-125.03558, 45.87989, -4417.4677734375], [-125.04589, 45.87901, -4912.9052734375], [-125.04313, 45.8878, -4554.63916015625]]], [[[-125.08634, 45.99161, -2601.02978515625], [-125.07463, 45.98731, -2057.04541015625], [-125.08059, 45.98077, -2648.958740234375], [-125.08634, 45.99161, -2601.02978515625]]], [[[-125.07679, 45.90831, -5349.05517578125], [-125.08756, 45.90958, -5779.21533203125], [-125.07984, 45.91722, -5118.73974609375], [-125.07679, 45.90831, -5349.05517578125]]], [[[-125.08348, 45.88265, -6551.39990234375], [-125.07761, 45.87591, -6457.4970703125], [-125.08955, 45.87553, -6994.107421875], [-125.08348, 45.88265, -6551.39990234375]]], [[[-125.08756, 45.90958, -5779.21533203125], [-125.07679, 45.90831, -5349.05517578125], [-125.08121, 45.90083, -5830.283203125], [-125.08756, 45.90958, -5779.21533203125]]], [[[-125.08084, 45.965, -3276.316650390625], [-125.09481, 45.96696, -3903.66552734375], [-125.08666, 45.9735, -3196.142333984375], [-125.08084, 45.965, -3276.316650390625]]], [[[-125.069, 45.97832, -2072.749755859375], [-125.07463, 45.98731, -2057.04541015625], [-125.06138, 45.98478, -1638.1600341796875], [-125.069, 45.97832, -2072.749755859375]]], [[[-125.03197, 45.89821, -3692.684814453125], [-125.02528, 45.90237, -3185.920654296875], [-125.02007, 45.89547, -3187.087890625], [-125.03197, 45.89821, -3692.684814453125]]], [[[-125.08756, 45.90958, -5779.21533203125], [-125.08121, 45.90083, -5830.283203125], [-125.09293, 45.90207, -6333.49072265625], [-125.08756, 45.90958, -5779.21533203125]]], [[[-125.04425, 45.96093, -1638.1600341796875], [-125.0571, 45.96302, -2058.83203125], [-125.04909, 45.96918, -1638.1600341796875], [-125.04425, 45.96093, -1638.1600341796875]]], [[[-125.09633, 45.86787, -7350.87109375], [-125.08955, 45.87553, -6994.107421875], [-125.08267, 45.8677, -6785.142578125], [-125.09633, 45.86787, -7350.87109375]]], [[[-125.1135, 45.99968, -3799.042724609375], [-125.10787, 45.99233, -3678.44091796875], [-125.11677, 45.99087, -4136.970703125], [-125.1135, 45.99968, -3799.042724609375]]], [[[-125.08756, 45.90958, -5779.21533203125], [-125.09293, 45.90207, -6333.49072265625], [-125.09961, 45.91062, -6295.31005859375], [-125.08756, 45.90958, -5779.21533203125]]], [[[-125.0982, 45.97628, -3682.130126953125], [-125.09131, 45.98343, -3086.930908203125], [-125.08666, 45.9735, -3196.142333984375], [-125.0982, 45.97628, -3682.130126953125]]], [[[-125.12855, 45.97933, -4978.8740234375], [-125.11863, 45.97304, -4729.5615234375], [-125.12459, 45.96886, -5156.30712890625], [-125.12855, 45.97933, -4978.8740234375]]], [[[-125.11218, 46.00754, -3536.326904296875], [-125.11164, 46.01317, -2971.091064453125], [-125.10297, 46.00851, -3055.978271484375], [-125.11218, 46.00754, -3536.326904296875]]], [[[-125.09293, 45.90207, -6333.49072265625], [-125.10504, 45.90309, -6832.1982421875], [-125.09961, 45.91062, -6295.31005859375], [-125.09293, 45.90207, -6333.49072265625]]], [[[-125.06138, 45.98478, -1638.1600341796875], [-125.07463, 45.98731, -2057.04541015625], [-125.06615, 45.99305, -1638.1600341796875], [-125.06138, 45.98478, -1638.1600341796875]]], [[[-125.05812, 45.94775, -2650.12109375], [-125.0634, 45.95619, -2654.930908203125], [-125.05237, 45.95475, -2056.7255859375], [-125.05812, 45.94775, -2650.12109375]]], [[[-125.08579, 46.00965, -2055.844970703125], [-125.07917, 46.00478, -1922.4063720703125], [-125.08776, 46.00199, -2406.652099609375], [-125.08579, 46.00965, -2055.844970703125]]], [[[-125.10504, 45.90309, -6832.1982421875], [-125.09293, 45.90207, -6333.49072265625], [-125.09897, 45.89482, -6854.71484375], [-125.10504, 45.90309, -6832.1982421875]]], [[[-125.08617, 45.89255, -6363.470703125], [-125.09897, 45.89482, -6854.71484375], [-125.09293, 45.90207, -6333.49072265625], [-125.08617, 45.89255, -6363.470703125]]], [[[-125.09131, 45.98343, -3086.930908203125], [-125.08634, 45.99161, -2601.02978515625], [-125.08059, 45.98077, -2648.958740234375], [-125.09131, 45.98343, -3086.930908203125]]], [[[-125.10504, 45.90309, -6832.1982421875], [-125.09897, 45.89482, -6854.71484375], [-125.11121, 45.89571, -7327.63671875], [-125.10504, 45.90309, -6832.1982421875]]], [[[-125.02884, 45.87173, -4198.34326171875], [-125.02338, 45.86394, -3747.8037109375], [-125.03394, 45.86314, -4263.740234375], [-125.02884, 45.87173, -4198.34326171875]]], [[[-125.10919, 45.9828, -3989.64599609375], [-125.0982, 45.97628, -3682.130126953125], [-125.10819, 45.97346, -4239.90966796875], [-125.10919, 45.9828, -3989.64599609375]]], [[[-125.06238, 45.97045, -2071.22705078125], [-125.05565, 45.97682, -1638.1600341796875], [-125.04909, 45.96918, -1638.1600341796875], [-125.06238, 45.97045, -2071.22705078125]]], [[[-125.10504, 45.90309, -6832.1982421875], [-125.11121, 45.89571, -7327.63671875], [-125.11727, 45.90361, -7315.54443359375], [-125.10504, 45.90309, -6832.1982421875]]], [[[-125.07761, 45.87591, -6457.4970703125], [-125.08267, 45.8677, -6785.142578125], [-125.08955, 45.87553, -6994.107421875], [-125.07761, 45.87591, -6457.4970703125]]], [[[-125.09621, 45.93433, -5007.87158203125], [-125.10286, 45.94216, -4955.5576171875], [-125.08871, 45.94171, -4315.54541015625], [-125.09621, 45.93433, -5007.87158203125]]], [[[-125.06238, 45.97045, -2071.22705078125], [-125.069, 45.97832, -2072.749755859375], [-125.05565, 45.97682, -1638.1600341796875], [-125.06238, 45.97045, -2071.22705078125]]], [[[-125.1117, 45.91122, -6806.13818359375], [-125.10504, 45.90309, -6832.1982421875], [-125.11727, 45.90361, -7315.54443359375], [-125.1117, 45.91122, -6806.13818359375]]], [[[-125.09961, 45.91062, -6295.31005859375], [-125.10504, 45.90309, -6832.1982421875], [-125.1117, 45.91122, -6806.13818359375], [-125.09961, 45.91062, -6295.31005859375]]], [[[-125.08776, 46.00199, -2406.652099609375], [-125.09407, 46.00924, -2565.935546875], [-125.08579, 46.00965, -2055.844970703125], [-125.08776, 46.00199, -2406.652099609375]]], [[[-125.0571, 45.96302, -2058.83203125], [-125.0634, 45.95619, -2654.930908203125], [-125.0684, 45.96378, -2693.629638671875], [-125.0571, 45.96302, -2058.83203125]]], [[[-125.07917, 46.00478, -1922.4063720703125], [-125.07783, 46.01218, -1638.1600341796875], [-125.07272, 46.00809, -1638.1600341796875], [-125.07917, 46.00478, -1922.4063720703125]]], [[[-125.10652, 45.91879, -6254.75634765625], [-125.09961, 45.91062, -6295.31005859375], [-125.1117, 45.91122, -6806.13818359375], [-125.10652, 45.91879, -6254.75634765625]]], [[[-125.0093, 45.89267, -2764.957275390625], [-125.02007, 45.89547, -3187.087890625], [-125.01417, 45.90183, -2673.143310546875], [-125.0093, 45.89267, -2764.957275390625]]], [[[-125.10463, 46.00095, -3320.595703125], [-125.10787, 45.99233, -3678.44091796875], [-125.1135, 45.99968, -3799.042724609375], [-125.10463, 46.00095, -3320.595703125]]], [[[-125.10652, 45.91879, -6254.75634765625], [-125.1117, 45.91122, -6806.13818359375], [-125.11863, 45.91926, -6767.478515625], [-125.10652, 45.91879, -6254.75634765625]]], [[[-125.06268, 45.91582, -4423.4091796875], [-125.05044, 45.91481, -3920.675537109375], [-125.05657, 45.90601, -4539.08251953125], [-125.06268, 45.91582, -4423.4091796875]]], [[[-124.9893, 45.87714, -2042.8184814453125], [-124.9817, 45.86715, -1638.1600341796875], [-124.99294, 45.86629, -2059.330810546875], [-124.9893, 45.87714, -2042.8184814453125]]], [[[-125.1117, 45.91122, -6806.13818359375], [-125.11727, 45.90361, -7315.54443359375], [-125.12397, 45.91156, -7294.1201171875], [-125.1117, 45.91122, -6806.13818359375]]], [[[-125.1257, 45.98963, -4579.580078125], [-125.13291, 45.9979, -4749.7900390625], [-125.12386, 45.9991, -4303.4619140625], [-125.1257, 45.98963, -4579.580078125]]], [[[-125.11727, 45.90361, -7315.54443359375], [-125.12967, 45.90388, -7752.4189453125], [-125.12397, 45.91156, -7294.1201171875], [-125.11727, 45.90361, -7315.54443359375]]], [[[-125.10919, 45.9828, -3989.64599609375], [-125.10819, 45.97346, -4239.90966796875], [-125.11811, 45.98159, -4437.4091796875], [-125.10919, 45.9828, -3989.64599609375]]], [[[-125.11727, 45.90361, -7315.54443359375], [-125.12364, 45.89615, -7760.07080078125], [-125.12967, 45.90388, -7752.4189453125], [-125.11727, 45.90361, -7315.54443359375]]], [[[-125.0982, 45.97628, -3682.130126953125], [-125.08666, 45.9735, -3196.142333984375], [-125.09481, 45.96696, -3903.66552734375], [-125.0982, 45.97628, -3682.130126953125]]], [[[-125.07546, 45.957, -3223.51171875], [-125.0634, 45.95619, -2654.930908203125], [-125.06993, 45.94913, -3178.4638671875], [-125.07546, 45.957, -3223.51171875]]], [[[-125.08059, 45.98077, -2648.958740234375], [-125.069, 45.97832, -2072.749755859375], [-125.07413, 45.97156, -2686.095703125], [-125.08059, 45.98077, -2648.958740234375]]], [[[-125.11121, 45.89571, -7327.63671875], [-125.12364, 45.89615, -7760.07080078125], [-125.11727, 45.90361, -7315.54443359375], [-125.11121, 45.89571, -7327.63671875]]], [[[-125.10972, 45.96521, -4636.02685546875], [-125.09481, 45.96696, -3903.66552734375], [-125.10086, 45.95848, -4421.29638671875], [-125.10972, 45.96521, -4636.02685546875]]], [[[-125.10819, 45.97346, -4239.90966796875], [-125.0982, 45.97628, -3682.130126953125], [-125.09481, 45.96696, -3903.66552734375], [-125.10819, 45.97346, -4239.90966796875]]], [[[-125.11121, 45.89571, -7327.63671875], [-125.11781, 45.88834, -7765.36083984375], [-125.12364, 45.89615, -7760.07080078125], [-125.11121, 45.89571, -7327.63671875]]], [[[-125.12111, 46.00657, -4001.322021484375], [-125.11218, 46.00754, -3536.326904296875], [-125.1135, 45.99968, -3799.042724609375], [-125.12111, 46.00657, -4001.322021484375]]], [[[-125.10538, 45.88751, -7338.2939453125], [-125.11781, 45.88834, -7765.36083984375], [-125.11121, 45.89571, -7327.63671875], [-125.10538, 45.88751, -7338.2939453125]]], [[[-125.02232, 45.88926, -3523.784912109375], [-125.0093, 45.89267, -2764.957275390625], [-125.01368, 45.88232, -3289.21875], [-125.02232, 45.88926, -3523.784912109375]]], [[[-125.08579, 46.00965, -2055.844970703125], [-125.09407, 46.00924, -2565.935546875], [-125.09335, 46.0146, -1987.2481689453125], [-125.08579, 46.00965, -2055.844970703125]]], [[[-125.11811, 45.98159, -4437.4091796875], [-125.11863, 45.97304, -4729.5615234375], [-125.12855, 45.97933, -4978.8740234375], [-125.11811, 45.98159, -4437.4091796875]]], [[[-125.10538, 45.88751, -7338.2939453125], [-125.11248, 45.88036, -7768.6279296875], [-125.11781, 45.88834, -7765.36083984375], [-125.10538, 45.88751, -7338.2939453125]]], [[[-125.10046, 45.87837, -7367.69677734375], [-125.10832, 45.87219, -7765.576171875], [-125.11248, 45.88036, -7768.6279296875], [-125.10046, 45.87837, -7367.69677734375]]], [[[-125.12105, 45.94867, -5589.681640625], [-125.12824, 45.94147, -6133.38232421875], [-125.13287, 45.94809, -6165.5712890625], [-125.12105, 45.94867, -5589.681640625]]], [[[-125.0571, 45.96302, -2058.83203125], [-125.04425, 45.96093, -1638.1600341796875], [-125.05237, 45.95475, -2056.7255859375], [-125.0571, 45.96302, -2058.83203125]]], [[[-125.11218, 46.00754, -3536.326904296875], [-125.12114, 46.01243, -3467.981201171875], [-125.11164, 46.01317, -2971.091064453125], [-125.11218, 46.00754, -3536.326904296875]]], [[[-125.12111, 46.00657, -4001.322021484375], [-125.1297, 46.01178, -3909.455810546875], [-125.12114, 46.01243, -3467.981201171875], [-125.12111, 46.00657, -4001.322021484375]]], [[[-125.13519, 45.98808, -5047.57275390625], [-125.14521, 45.98682, -5529.01904296875], [-125.14208, 45.99669, -5185.58837890625], [-125.13519, 45.98808, -5047.57275390625]]], [[[-125.06238, 45.97045, -2071.22705078125], [-125.04909, 45.96918, -1638.1600341796875], [-125.0571, 45.96302, -2058.83203125], [-125.06238, 45.97045, -2071.22705078125]]], [[[-125.14067, 45.97838, -5547.05419921875], [-125.15331, 45.97848, -6136.56591796875], [-125.14521, 45.98682, -5529.01904296875], [-125.14067, 45.97838, -5547.05419921875]]], [[[-125.13595, 45.97015, -5613.0546875], [-125.12459, 45.96886, -5156.30712890625], [-125.13086, 45.96173, -5686.79248046875], [-125.13595, 45.97015, -5613.0546875]]], [[[-125.12525, 45.95486, -5619.9140625], [-125.12105, 45.94867, -5589.681640625], [-125.13287, 45.94809, -6165.5712890625], [-125.12525, 45.95486, -5619.9140625]]], [[[-125.16559, 45.97896, -6686.478515625], [-125.1606, 45.97131, -6692.87890625], [-125.17327, 45.97206, -7202.84521484375], [-125.16559, 45.97896, -6686.478515625]]], [[[-125.05064, 45.93871, -2679.400146484375], [-125.03896, 45.9374, -2106.282470703125], [-125.04189, 45.93029, -2759.728515625], [-125.05064, 45.93871, -2679.400146484375]]], [[[-125.07473, 45.88541, -6067.5341796875], [-125.0672, 45.87735, -5930.796875], [-125.07761, 45.87591, -6457.4970703125], [-125.07473, 45.88541, -6067.5341796875]]], [[[-125.087, 45.85905, -6811.5712890625], [-125.09788, 45.85824, -7285.7119140625], [-125.09633, 45.86787, -7350.87109375], [-125.087, 45.85905, -6811.5712890625]]], [[[-125.12459, 45.96886, -5156.30712890625], [-125.1192, 45.96206, -5153.17626953125], [-125.13086, 45.96173, -5686.79248046875], [-125.12459, 45.96886, -5156.30712890625]]], [[[-125.07235, 45.92463, -4469.0703125], [-125.0666, 45.93258, -3806.4052734375], [-125.05829, 45.92364, -3881.2021484375], [-125.07235, 45.92463, -4469.0703125]]], [[[-125.13049, 46.00595, -4463.5], [-125.13848, 46.0111, -4338.220703125], [-125.1297, 46.01178, -3909.455810546875], [-125.13049, 46.00595, -4463.5]]], [[[-125.12386, 45.9991, -4303.4619140625], [-125.13049, 46.00595, -4463.5], [-125.12111, 46.00657, -4001.322021484375], [-125.12386, 45.9991, -4303.4619140625]]], [[[-125.0634, 45.95619, -2654.930908203125], [-125.07546, 45.957, -3223.51171875], [-125.0684, 45.96378, -2693.629638671875], [-125.0634, 45.95619, -2654.930908203125]]], [[[-125.06268, 45.91582, -4423.4091796875], [-125.05829, 45.92364, -3881.2021484375], [-125.05044, 45.91481, -3920.675537109375], [-125.06268, 45.91582, -4423.4091796875]]], [[[-125.04994, 45.87015, -5201.8798828125], [-125.06039, 45.86934, -5702.9775390625], [-125.05678, 45.87817, -5421.93017578125], [-125.04994, 45.87015, -5201.8798828125]]], [[[-125.06039, 45.86934, -5702.9775390625], [-125.05523, 45.86142, -5273.078125], [-125.06584, 45.86065, -5784.259765625], [-125.06039, 45.86934, -5702.9775390625]]], [[[-125.13751, 45.95446, -6213.970703125], [-125.14491, 45.94731, -6738.7158203125], [-125.14954, 45.95476, -6755.3916015625], [-125.13751, 45.95446, -6213.970703125]]], [[[-125.06136, 45.8954, -5126.35888671875], [-125.06444, 45.88628, -5557.3642578125], [-125.07378, 45.89406, -5732.16796875], [-125.06136, 45.8954, -5126.35888671875]]], [[[-125.13751, 45.95446, -6213.970703125], [-125.14954, 45.95476, -6755.3916015625], [-125.14252, 45.96218, -6220.33837890625], [-125.13751, 45.95446, -6213.970703125]]], [[[-125.0672, 45.87735, -5930.796875], [-125.06039, 45.86934, -5702.9775390625], [-125.07088, 45.86855, -6225.4169921875], [-125.0672, 45.87735, -5930.796875]]], [[[-125.14887, 46.00406, -5348.32666015625], [-125.15153, 45.99504, -5653.57568359375], [-125.15838, 46.00298, -5818.39453125], [-125.14887, 46.00406, -5348.32666015625]]], [[[-125.04994, 45.87015, -5201.8798828125], [-125.04454, 45.86231, -4775.828125], [-125.05523, 45.86142, -5273.078125], [-125.04994, 45.87015, -5201.8798828125]]], [[[-125.14887, 46.00406, -5348.32666015625], [-125.14759, 46.01038, -4777.06689453125], [-125.13945, 46.00507, -4909.8544921875], [-125.14887, 46.00406, -5348.32666015625]]], [[[-125.04994, 45.87015, -5201.8798828125], [-125.03898, 45.87107, -4689.14892578125], [-125.04454, 45.86231, -4775.828125], [-125.04994, 45.87015, -5201.8798828125]]], [[[-125.14954, 45.95476, -6755.3916015625], [-125.14491, 45.94731, -6738.7158203125], [-125.15719, 45.94754, -7249.2275390625], [-125.14954, 45.95476, -6755.3916015625]]], [[[-125.04994, 45.87015, -5201.8798828125], [-125.04589, 45.87901, -4912.9052734375], [-125.03898, 45.87107, -4689.14892578125], [-125.04994, 45.87015, -5201.8798828125]]], [[[-125.13049, 46.00595, -4463.5], [-125.13945, 46.00507, -4909.8544921875], [-125.13848, 46.0111, -4338.220703125], [-125.13049, 46.00595, -4463.5]]], [[[-125.10972, 45.96521, -4636.02685546875], [-125.10819, 45.97346, -4239.90966796875], [-125.09481, 45.96696, -3903.66552734375], [-125.10972, 45.96521, -4636.02685546875]]], [[[-125.04589, 45.87901, -4912.9052734375], [-125.04994, 45.87015, -5201.8798828125], [-125.05678, 45.87817, -5421.93017578125], [-125.04589, 45.87901, -4912.9052734375]]], [[[-125.05349, 45.88702, -5043.466796875], [-125.04589, 45.87901, -4912.9052734375], [-125.05678, 45.87817, -5421.93017578125], [-125.05349, 45.88702, -5043.466796875]]], [[[-125.19051, 45.98032, -7655.55126953125], [-125.18234, 45.98761, -7202.8486328125], [-125.17838, 45.97952, -7216.24951171875], [-125.19051, 45.98032, -7655.55126953125]]], [[[-125.05349, 45.88702, -5043.466796875], [-125.04313, 45.8878, -4554.63916015625], [-125.04589, 45.87901, -4912.9052734375], [-125.05349, 45.88702, -5043.466796875]]], [[[-125.06815, 45.91114, -4867.2705078125], [-125.05657, 45.90601, -4539.08251953125], [-125.06881, 45.90232, -5215.6943359375], [-125.06815, 45.91114, -4867.2705078125]]], [[[-125.15838, 46.00298, -5818.39453125], [-125.16648, 46.00888, -5666.70458984375], [-125.15694, 46.0096, -5211.4609375], [-125.15838, 46.00298, -5818.39453125]]], [[[-125.05064, 45.89664, -4607.01611328125], [-125.04313, 45.8878, -4554.63916015625], [-125.05349, 45.88702, -5043.466796875], [-125.05064, 45.89664, -4607.01611328125]]], [[[-125.06815, 45.91114, -4867.2705078125], [-125.06268, 45.91582, -4423.4091796875], [-125.05657, 45.90601, -4539.08251953125], [-125.06815, 45.91114, -4867.2705078125]]], [[[-125.15468, 45.96301, -6740.9619140625], [-125.14252, 45.96218, -6220.33837890625], [-125.14954, 45.95476, -6755.3916015625], [-125.15468, 45.96301, -6740.9619140625]]], [[[-125.04061, 45.89644, -4159.11474609375], [-125.04313, 45.8878, -4554.63916015625], [-125.05064, 45.89664, -4607.01611328125], [-125.04061, 45.89644, -4159.11474609375]]], [[[-125.14521, 45.98682, -5529.01904296875], [-125.15153, 45.99504, -5653.57568359375], [-125.14208, 45.99669, -5185.58837890625], [-125.14521, 45.98682, -5529.01904296875]]], [[[-125.04061, 45.89644, -4159.11474609375], [-125.03231, 45.88852, -4034.21630859375], [-125.04313, 45.8878, -4554.63916015625], [-125.04061, 45.89644, -4159.11474609375]]], [[[-125.06268, 45.91582, -4423.4091796875], [-125.06815, 45.91114, -4867.2705078125], [-125.07984, 45.91722, -5118.73974609375], [-125.06268, 45.91582, -4423.4091796875]]], [[[-125.18053, 45.99611, -6975.5380859375], [-125.18234, 45.98761, -7202.8486328125], [-125.18855, 45.9939, -7347.26904296875], [-125.18053, 45.99611, -6975.5380859375]]], [[[-125.03231, 45.88852, -4034.21630859375], [-125.04061, 45.89644, -4159.11474609375], [-125.03197, 45.89821, -3692.684814453125], [-125.03231, 45.88852, -4034.21630859375]]], [[[-125.02232, 45.88926, -3523.784912109375], [-125.02007, 45.89547, -3187.087890625], [-125.0093, 45.89267, -2764.957275390625], [-125.02232, 45.88926, -3523.784912109375]]], [[[-125.03224, 45.90861, -3283.83056640625], [-125.02058, 45.90909, -2704.56640625], [-125.02528, 45.90237, -3185.920654296875], [-125.03224, 45.90861, -3283.83056640625]]], [[[-125.03224, 45.90861, -3283.83056640625], [-125.02708, 45.91625, -2720.080810546875], [-125.02058, 45.90909, -2704.56640625], [-125.03224, 45.90861, -3283.83056640625]]], [[[-125.0387, 45.9153, -3318.817138671875], [-125.02708, 45.91625, -2720.080810546875], [-125.03224, 45.90861, -3283.83056640625], [-125.0387, 45.9153, -3318.817138671875]]], [[[-125.0387, 45.9153, -3318.817138671875], [-125.03421, 45.92293, -2745.902587890625], [-125.02708, 45.91625, -2720.080810546875], [-125.0387, 45.9153, -3318.817138671875]]], [[[-125.0387, 45.9153, -3318.817138671875], [-125.04606, 45.92249, -3332.674072265625], [-125.03421, 45.92293, -2745.902587890625], [-125.0387, 45.9153, -3318.817138671875]]], [[[-125.04336, 45.90614, -3936.04345703125], [-125.05044, 45.91481, -3920.675537109375], [-125.0387, 45.9153, -3318.817138671875], [-125.04336, 45.90614, -3936.04345703125]]], [[[-125.05657, 45.90601, -4539.08251953125], [-125.05044, 45.91481, -3920.675537109375], [-125.04336, 45.90614, -3936.04345703125], [-125.05657, 45.90601, -4539.08251953125]]], [[[-125.0666, 45.93258, -3806.4052734375], [-125.06287, 45.9401, -3167.32958984375], [-125.05403, 45.93116, -3275.307861328125], [-125.0666, 45.93258, -3806.4052734375]]], [[[-125.06268, 45.91582, -4423.4091796875], [-125.07235, 45.92463, -4469.0703125], [-125.05829, 45.92364, -3881.2021484375], [-125.06268, 45.91582, -4423.4091796875]]], [[[-125.06268, 45.91582, -4423.4091796875], [-125.07984, 45.91722, -5118.73974609375], [-125.07235, 45.92463, -4469.0703125], [-125.06268, 45.91582, -4423.4091796875]]], [[[-125.05812, 45.94775, -2650.12109375], [-125.06287, 45.9401, -3167.32958984375], [-125.06993, 45.94913, -3178.4638671875], [-125.05812, 45.94775, -2650.12109375]]], [[[-125.06815, 45.91114, -4867.2705078125], [-125.06881, 45.90232, -5215.6943359375], [-125.07679, 45.90831, -5349.05517578125], [-125.06815, 45.91114, -4867.2705078125]]], [[[-125.06815, 45.91114, -4867.2705078125], [-125.07679, 45.90831, -5349.05517578125], [-125.07984, 45.91722, -5118.73974609375], [-125.06815, 45.91114, -4867.2705078125]]], [[[-125.06881, 45.90232, -5215.6943359375], [-125.08121, 45.90083, -5830.283203125], [-125.07679, 45.90831, -5349.05517578125], [-125.06881, 45.90232, -5215.6943359375]]], [[[-125.00186, 45.88318, -2685.46533203125], [-124.9893, 45.87714, -2042.8184814453125], [-124.99748, 45.8739, -2565.0361328125], [-125.00186, 45.88318, -2685.46533203125]]], [[[-125.06881, 45.90232, -5215.6943359375], [-125.06136, 45.8954, -5126.35888671875], [-125.07378, 45.89406, -5732.16796875], [-125.06881, 45.90232, -5215.6943359375]]], [[[-125.05657, 45.90601, -4539.08251953125], [-125.05064, 45.89664, -4607.01611328125], [-125.06136, 45.8954, -5126.35888671875], [-125.05657, 45.90601, -4539.08251953125]]], [[[-125.03037, 45.93025, -2121.7490234375], [-125.04189, 45.93029, -2759.728515625], [-125.03896, 45.9374, -2106.282470703125], [-125.03037, 45.93025, -2121.7490234375]]], [[[-125.05657, 45.90601, -4539.08251953125], [-125.04336, 45.90614, -3936.04345703125], [-125.05064, 45.89664, -4607.01611328125], [-125.05657, 45.90601, -4539.08251953125]]], [[[-125.05812, 45.94775, -2650.12109375], [-125.05237, 45.95475, -2056.7255859375], [-125.04688, 45.94605, -2063.425048828125], [-125.05812, 45.94775, -2650.12109375]]], [[[-125.04336, 45.90614, -3936.04345703125], [-125.03197, 45.89821, -3692.684814453125], [-125.04061, 45.89644, -4159.11474609375], [-125.04336, 45.90614, -3936.04345703125]]], [[[-125.04336, 45.90614, -3936.04345703125], [-125.0387, 45.9153, -3318.817138671875], [-125.03224, 45.90861, -3283.83056640625], [-125.04336, 45.90614, -3936.04345703125]]], [[[-125.0666, 45.93258, -3806.4052734375], [-125.05403, 45.93116, -3275.307861328125], [-125.05829, 45.92364, -3881.2021484375], [-125.0666, 45.93258, -3806.4052734375]]], [[[-125.08617, 45.89255, -6363.470703125], [-125.08348, 45.88265, -6551.39990234375], [-125.0935, 45.88556, -6906.0478515625], [-125.08617, 45.89255, -6363.470703125]]], [[[-125.0935, 45.88556, -6906.0478515625], [-125.10046, 45.87837, -7367.69677734375], [-125.10538, 45.88751, -7338.2939453125], [-125.0935, 45.88556, -6906.0478515625]]], [[[-125.09897, 45.89482, -6854.71484375], [-125.10538, 45.88751, -7338.2939453125], [-125.11121, 45.89571, -7327.63671875], [-125.09897, 45.89482, -6854.71484375]]], [[[-125.06444, 45.88628, -5557.3642578125], [-125.05678, 45.87817, -5421.93017578125], [-125.0672, 45.87735, -5930.796875], [-125.06444, 45.88628, -5557.3642578125]]], [[[-125.06039, 45.86934, -5702.9775390625], [-125.0672, 45.87735, -5930.796875], [-125.05678, 45.87817, -5421.93017578125], [-125.06039, 45.86934, -5702.9775390625]]], [[[-125.08072, 45.93344, -4381.38720703125], [-125.07507, 45.9415, -3696.327392578125], [-125.0666, 45.93258, -3806.4052734375], [-125.08072, 45.93344, -4381.38720703125]]], [[[-125.07507, 45.9415, -3696.327392578125], [-125.08871, 45.94171, -4315.54541015625], [-125.08194, 45.94981, -3769.385986328125], [-125.07507, 45.9415, -3696.327392578125]]], [[[-125.07507, 45.9415, -3696.327392578125], [-125.08194, 45.94981, -3769.385986328125], [-125.06993, 45.94913, -3178.4638671875], [-125.07507, 45.9415, -3696.327392578125]]], [[[-125.07507, 45.9415, -3696.327392578125], [-125.06993, 45.94913, -3178.4638671875], [-125.06287, 45.9401, -3167.32958984375], [-125.07507, 45.9415, -3696.327392578125]]], [[[-125.04606, 45.92249, -3332.674072265625], [-125.05829, 45.92364, -3881.2021484375], [-125.05403, 45.93116, -3275.307861328125], [-125.04606, 45.92249, -3332.674072265625]]], [[[-125.04606, 45.92249, -3332.674072265625], [-125.05403, 45.93116, -3275.307861328125], [-125.04189, 45.93029, -2759.728515625], [-125.04606, 45.92249, -3332.674072265625]]], [[[-125.04189, 45.93029, -2759.728515625], [-125.03037, 45.93025, -2121.7490234375], [-125.03421, 45.92293, -2745.902587890625], [-125.04189, 45.93029, -2759.728515625]]], [[[-125.02316, 45.92347, -2091.454833984375], [-125.03037, 45.93025, -2121.7490234375], [-125.01771, 45.9309, -1638.1600341796875], [-125.02316, 45.92347, -2091.454833984375]]], [[[-125.03421, 45.92293, -2745.902587890625], [-125.03037, 45.93025, -2121.7490234375], [-125.02316, 45.92347, -2091.454833984375], [-125.03421, 45.92293, -2745.902587890625]]], [[[-125.02708, 45.91625, -2720.080810546875], [-125.02316, 45.92347, -2091.454833984375], [-125.01591, 45.91607, -2091.21240234375], [-125.02708, 45.91625, -2720.080810546875]]], [[[-125.02058, 45.90909, -2704.56640625], [-125.02708, 45.91625, -2720.080810546875], [-125.01591, 45.91607, -2091.21240234375], [-125.02058, 45.90909, -2704.56640625]]], [[[-125.01417, 45.90183, -2673.143310546875], [-125.02058, 45.90909, -2704.56640625], [-125.00959, 45.90891, -2074.070556640625], [-125.01417, 45.90183, -2673.143310546875]]], [[[-125.01417, 45.90183, -2673.143310546875], [-125.02528, 45.90237, -3185.920654296875], [-125.02058, 45.90909, -2704.56640625], [-125.01417, 45.90183, -2673.143310546875]]], [[[-125.0093, 45.89267, -2764.957275390625], [-125.01417, 45.90183, -2673.143310546875], [-125.0034, 45.90106, -2076.486328125], [-125.0093, 45.89267, -2764.957275390625]]], [[[-125.01368, 45.88232, -3289.21875], [-125.0093, 45.89267, -2764.957275390625], [-125.00186, 45.88318, -2685.46533203125], [-125.01368, 45.88232, -3289.21875]]], [[[-125.00756, 45.87367, -3099.999267578125], [-125.00272, 45.86554, -2660.9833984375], [-125.01312, 45.86471, -3195.17578125], [-125.00756, 45.87367, -3099.999267578125]]], [[[-125.00756, 45.87367, -3099.999267578125], [-124.99748, 45.8739, -2565.0361328125], [-125.00272, 45.86554, -2660.9833984375], [-125.00756, 45.87367, -3099.999267578125]]], [[[-124.99226, 45.88583, -2039.8031005859375], [-124.98022, 45.88439, -1638.1600341796875], [-124.9893, 45.87714, -2042.8184814453125], [-124.99226, 45.88583, -2039.8031005859375]]], [[[-125.02316, 45.92347, -2091.454833984375], [-125.01771, 45.9309, -1638.1600341796875], [-125.01048, 45.92354, -1638.1600341796875], [-125.02316, 45.92347, -2091.454833984375]]], [[[-125.10972, 45.96521, -4636.02685546875], [-125.11863, 45.97304, -4729.5615234375], [-125.10819, 45.97346, -4239.90966796875], [-125.10972, 45.96521, -4636.02685546875]]], [[[-125.10101, 45.98444, -3546.6865234375], [-125.10787, 45.99233, -3678.44091796875], [-125.09758, 45.99258, -3145.104248046875], [-125.10101, 45.98444, -3546.6865234375]]], [[[-125.09407, 46.00924, -2565.935546875], [-125.09655, 46.00173, -2901.5048828125], [-125.10297, 46.00851, -3055.978271484375], [-125.09407, 46.00924, -2565.935546875]]], [[[-125.09655, 46.00173, -2901.5048828125], [-125.09407, 46.00924, -2565.935546875], [-125.08776, 46.00199, -2406.652099609375], [-125.09655, 46.00173, -2901.5048828125]]], [[[-125.09655, 46.00173, -2901.5048828125], [-125.08776, 46.00199, -2406.652099609375], [-125.08634, 45.99161, -2601.02978515625], [-125.09655, 46.00173, -2901.5048828125]]], [[[-125.08634, 45.99161, -2601.02978515625], [-125.09131, 45.98343, -3086.930908203125], [-125.09758, 45.99258, -3145.104248046875], [-125.08634, 45.99161, -2601.02978515625]]], [[[-125.08059, 45.98077, -2648.958740234375], [-125.07463, 45.98731, -2057.04541015625], [-125.069, 45.97832, -2072.749755859375], [-125.08059, 45.98077, -2648.958740234375]]], [[[-125.08634, 45.99161, -2601.02978515625], [-125.07829, 45.99662, -2021.477783203125], [-125.07463, 45.98731, -2057.04541015625], [-125.08634, 45.99161, -2601.02978515625]]], [[[-125.07917, 46.00478, -1922.4063720703125], [-125.08579, 46.00965, -2055.844970703125], [-125.07783, 46.01218, -1638.1600341796875], [-125.07917, 46.00478, -1922.4063720703125]]], [[[-125.07917, 46.00478, -1922.4063720703125], [-125.06982, 46.00118, -1638.1600341796875], [-125.07829, 45.99662, -2021.477783203125], [-125.07917, 46.00478, -1922.4063720703125]]], [[[-125.06615, 45.99305, -1638.1600341796875], [-125.07829, 45.99662, -2021.477783203125], [-125.06982, 46.00118, -1638.1600341796875], [-125.06615, 45.99305, -1638.1600341796875]]], [[[-125.07829, 45.99662, -2021.477783203125], [-125.06615, 45.99305, -1638.1600341796875], [-125.07463, 45.98731, -2057.04541015625], [-125.07829, 45.99662, -2021.477783203125]]], [[[-125.08579, 46.00965, -2055.844970703125], [-125.09335, 46.0146, -1987.2481689453125], [-125.08456, 46.01528, -1638.1600341796875], [-125.08579, 46.00965, -2055.844970703125]]], [[[-125.09407, 46.00924, -2565.935546875], [-125.1022, 46.01392, -2441.96728515625], [-125.09335, 46.0146, -1987.2481689453125], [-125.09407, 46.00924, -2565.935546875]]], [[[-125.12111, 46.00657, -4001.322021484375], [-125.13049, 46.00595, -4463.5], [-125.1297, 46.01178, -3909.455810546875], [-125.12111, 46.00657, -4001.322021484375]]], [[[-125.17155, 45.99453, -6613.97021484375], [-125.16193, 45.99474, -6157.265625], [-125.17034, 45.98646, -6711.12744140625], [-125.17155, 45.99453, -6613.97021484375]]], [[[-125.13291, 45.9979, -4749.7900390625], [-125.13049, 46.00595, -4463.5], [-125.12386, 45.9991, -4303.4619140625], [-125.13291, 45.9979, -4749.7900390625]]], [[[-125.13291, 45.9979, -4749.7900390625], [-125.14208, 45.99669, -5185.58837890625], [-125.13945, 46.00507, -4909.8544921875], [-125.13291, 45.9979, -4749.7900390625]]], [[[-125.13519, 45.98808, -5047.57275390625], [-125.14208, 45.99669, -5185.58837890625], [-125.13291, 45.9979, -4749.7900390625], [-125.13519, 45.98808, -5047.57275390625]]], [[[-125.14067, 45.97838, -5547.05419921875], [-125.14521, 45.98682, -5529.01904296875], [-125.13519, 45.98808, -5047.57275390625], [-125.14067, 45.97838, -5547.05419921875]]], [[[-125.14067, 45.97838, -5547.05419921875], [-125.14812, 45.97041, -6169.3369140625], [-125.15331, 45.97848, -6136.56591796875], [-125.14067, 45.97838, -5547.05419921875]]], [[[-125.13595, 45.97015, -5613.0546875], [-125.14812, 45.97041, -6169.3369140625], [-125.14067, 45.97838, -5547.05419921875], [-125.13595, 45.97015, -5613.0546875]]], [[[-125.13595, 45.97015, -5613.0546875], [-125.14252, 45.96218, -6220.33837890625], [-125.14812, 45.97041, -6169.3369140625], [-125.13595, 45.97015, -5613.0546875]]], [[[-125.13595, 45.97015, -5613.0546875], [-125.13086, 45.96173, -5686.79248046875], [-125.14252, 45.96218, -6220.33837890625], [-125.13595, 45.97015, -5613.0546875]]], [[[-125.12855, 45.97933, -4978.8740234375], [-125.12459, 45.96886, -5156.30712890625], [-125.13595, 45.97015, -5613.0546875], [-125.12855, 45.97933, -4978.8740234375]]], [[[-125.12855, 45.97933, -4978.8740234375], [-125.13595, 45.97015, -5613.0546875], [-125.14067, 45.97838, -5547.05419921875], [-125.12855, 45.97933, -4978.8740234375]]], [[[-125.13519, 45.98808, -5047.57275390625], [-125.12855, 45.97933, -4978.8740234375], [-125.14067, 45.97838, -5547.05419921875], [-125.13519, 45.98808, -5047.57275390625]]], [[[-125.12855, 45.97933, -4978.8740234375], [-125.13519, 45.98808, -5047.57275390625], [-125.1257, 45.98963, -4579.580078125], [-125.12855, 45.97933, -4978.8740234375]]], [[[-125.11811, 45.98159, -4437.4091796875], [-125.12855, 45.97933, -4978.8740234375], [-125.1257, 45.98963, -4579.580078125], [-125.11811, 45.98159, -4437.4091796875]]], [[[-125.11677, 45.99087, -4136.970703125], [-125.11811, 45.98159, -4437.4091796875], [-125.1257, 45.98963, -4579.580078125], [-125.11677, 45.99087, -4136.970703125]]], [[[-125.11811, 45.98159, -4437.4091796875], [-125.11677, 45.99087, -4136.970703125], [-125.10919, 45.9828, -3989.64599609375], [-125.11811, 45.98159, -4437.4091796875]]], [[[-125.1135, 45.99968, -3799.042724609375], [-125.11677, 45.99087, -4136.970703125], [-125.12386, 45.9991, -4303.4619140625], [-125.1135, 45.99968, -3799.042724609375]]], [[[-125.12111, 46.00657, -4001.322021484375], [-125.1135, 45.99968, -3799.042724609375], [-125.12386, 45.9991, -4303.4619140625], [-125.12111, 46.00657, -4001.322021484375]]], [[[-125.13519, 45.98808, -5047.57275390625], [-125.13291, 45.9979, -4749.7900390625], [-125.1257, 45.98963, -4579.580078125], [-125.13519, 45.98808, -5047.57275390625]]], [[[-125.12459, 45.96886, -5156.30712890625], [-125.10972, 45.96521, -4636.02685546875], [-125.1192, 45.96206, -5153.17626953125], [-125.12459, 45.96886, -5156.30712890625]]], [[[-125.10972, 45.96521, -4636.02685546875], [-125.1128, 45.95597, -5028.2109375], [-125.1192, 45.96206, -5153.17626953125], [-125.10972, 45.96521, -4636.02685546875]]], [[[-125.10972, 45.96521, -4636.02685546875], [-125.10086, 45.95848, -4421.29638671875], [-125.1128, 45.95597, -5028.2109375], [-125.10972, 45.96521, -4636.02685546875]]], [[[-125.1093, 45.94906, -5050.98193359375], [-125.1128, 45.95597, -5028.2109375], [-125.10086, 45.95848, -4421.29638671875], [-125.1093, 45.94906, -5050.98193359375]]], [[[-125.12105, 45.94867, -5589.681640625], [-125.1093, 45.94906, -5050.98193359375], [-125.11619, 45.94168, -5558.83642578125], [-125.12105, 45.94867, -5589.681640625]]], [[[-125.12105, 45.94867, -5589.681640625], [-125.11619, 45.94168, -5558.83642578125], [-125.12824, 45.94147, -6133.38232421875], [-125.12105, 45.94867, -5589.681640625]]], [[[-125.12525, 45.95486, -5619.9140625], [-125.1128, 45.95597, -5028.2109375], [-125.12105, 45.94867, -5589.681640625], [-125.12525, 45.95486, -5619.9140625]]], [[[-125.1128, 45.95597, -5028.2109375], [-125.12525, 45.95486, -5619.9140625], [-125.1192, 45.96206, -5153.17626953125], [-125.1128, 45.95597, -5028.2109375]]], [[[-125.13086, 45.96173, -5686.79248046875], [-125.12525, 45.95486, -5619.9140625], [-125.13751, 45.95446, -6213.970703125], [-125.13086, 45.96173, -5686.79248046875]]], [[[-125.13086, 45.96173, -5686.79248046875], [-125.13751, 45.95446, -6213.970703125], [-125.14252, 45.96218, -6220.33837890625], [-125.13086, 45.96173, -5686.79248046875]]], [[[-125.13287, 45.94809, -6165.5712890625], [-125.14491, 45.94731, -6738.7158203125], [-125.13751, 45.95446, -6213.970703125], [-125.13287, 45.94809, -6165.5712890625]]], [[[-125.14491, 45.94731, -6738.7158203125], [-125.13287, 45.94809, -6165.5712890625], [-125.14011, 45.9409, -6696.708984375], [-125.14491, 45.94731, -6738.7158203125]]], [[[-125.14491, 45.94731, -6738.7158203125], [-125.14011, 45.9409, -6696.708984375], [-125.15232, 45.94014, -7231.50341796875], [-125.14491, 45.94731, -6738.7158203125]]], [[[-125.14491, 45.94731, -6738.7158203125], [-125.15232, 45.94014, -7231.50341796875], [-125.15719, 45.94754, -7249.2275390625], [-125.14491, 45.94731, -6738.7158203125]]], [[[-125.14954, 45.95476, -6755.3916015625], [-125.15719, 45.94754, -7249.2275390625], [-125.16184, 45.95562, -7249.3544921875], [-125.14954, 45.95476, -6755.3916015625]]], [[[-125.15468, 45.96301, -6740.9619140625], [-125.14954, 45.95476, -6755.3916015625], [-125.16184, 45.95562, -7249.3544921875], [-125.15468, 45.96301, -6740.9619140625]]], [[[-125.14252, 45.96218, -6220.33837890625], [-125.15468, 45.96301, -6740.9619140625], [-125.14812, 45.97041, -6169.3369140625], [-125.14252, 45.96218, -6220.33837890625]]], [[[-125.18855, 45.9939, -7347.26904296875], [-125.18234, 45.98761, -7202.8486328125], [-125.19423, 45.98793, -7651.275390625], [-125.18855, 45.9939, -7347.26904296875]]], [[[-125.1606, 45.97131, -6692.87890625], [-125.14812, 45.97041, -6169.3369140625], [-125.15468, 45.96301, -6740.9619140625], [-125.1606, 45.97131, -6692.87890625]]], [[[-125.14812, 45.97041, -6169.3369140625], [-125.1606, 45.97131, -6692.87890625], [-125.15331, 45.97848, -6136.56591796875], [-125.14812, 45.97041, -6169.3369140625]]], [[[-125.16559, 45.97896, -6686.478515625], [-125.15331, 45.97848, -6136.56591796875], [-125.1606, 45.97131, -6692.87890625], [-125.16559, 45.97896, -6686.478515625]]], [[[-125.15331, 45.97848, -6136.56591796875], [-125.16559, 45.97896, -6686.478515625], [-125.15756, 45.98637, -6126.8203125], [-125.15331, 45.97848, -6136.56591796875]]], [[[-125.14521, 45.98682, -5529.01904296875], [-125.15331, 45.97848, -6136.56591796875], [-125.15756, 45.98637, -6126.8203125], [-125.14521, 45.98682, -5529.01904296875]]], [[[-125.14521, 45.98682, -5529.01904296875], [-125.15756, 45.98637, -6126.8203125], [-125.15153, 45.99504, -5653.57568359375], [-125.14521, 45.98682, -5529.01904296875]]], [[[-125.15153, 45.99504, -5653.57568359375], [-125.14887, 46.00406, -5348.32666015625], [-125.14208, 45.99669, -5185.58837890625], [-125.15153, 45.99504, -5653.57568359375]]], [[[-125.14887, 46.00406, -5348.32666015625], [-125.15838, 46.00298, -5818.39453125], [-125.15694, 46.0096, -5211.4609375], [-125.14887, 46.00406, -5348.32666015625]]], [[[-125.14887, 46.00406, -5348.32666015625], [-125.15694, 46.0096, -5211.4609375], [-125.14759, 46.01038, -4777.06689453125], [-125.14887, 46.00406, -5348.32666015625]]], [[[-125.14208, 45.99669, -5185.58837890625], [-125.14887, 46.00406, -5348.32666015625], [-125.13945, 46.00507, -4909.8544921875], [-125.14208, 45.99669, -5185.58837890625]]], [[[-125.13945, 46.00507, -4909.8544921875], [-125.14759, 46.01038, -4777.06689453125], [-125.13848, 46.0111, -4338.220703125], [-125.13945, 46.00507, -4909.8544921875]]], [[[-125.15838, 46.00298, -5818.39453125], [-125.1678, 46.00269, -6266.25537109375], [-125.16648, 46.00888, -5666.70458984375], [-125.15838, 46.00298, -5818.39453125]]], [[[-125.19268, 45.9986, -7412.80224609375], [-125.19606, 46.00279, -7392.4404296875], [-125.18718, 46.0019, -7136.71435546875], [-125.19268, 45.9986, -7412.80224609375]]], [[[-125.15838, 46.00298, -5818.39453125], [-125.16193, 45.99474, -6157.265625], [-125.1678, 46.00269, -6266.25537109375], [-125.15838, 46.00298, -5818.39453125]]], [[[-125.16193, 45.99474, -6157.265625], [-125.15838, 46.00298, -5818.39453125], [-125.15153, 45.99504, -5653.57568359375], [-125.16193, 45.99474, -6157.265625]]], [[[-125.15756, 45.98637, -6126.8203125], [-125.16193, 45.99474, -6157.265625], [-125.15153, 45.99504, -5653.57568359375], [-125.15756, 45.98637, -6126.8203125]]], [[[-125.15756, 45.98637, -6126.8203125], [-125.17034, 45.98646, -6711.12744140625], [-125.16193, 45.99474, -6157.265625], [-125.15756, 45.98637, -6126.8203125]]], [[[-125.15756, 45.98637, -6126.8203125], [-125.16559, 45.97896, -6686.478515625], [-125.17034, 45.98646, -6711.12744140625], [-125.15756, 45.98637, -6126.8203125]]], [[[-125.16559, 45.97896, -6686.478515625], [-125.17838, 45.97952, -7216.24951171875], [-125.17034, 45.98646, -6711.12744140625], [-125.16559, 45.97896, -6686.478515625]]], [[[-125.16559, 45.97896, -6686.478515625], [-125.17327, 45.97206, -7202.84521484375], [-125.17838, 45.97952, -7216.24951171875], [-125.16559, 45.97896, -6686.478515625]]], [[[-125.0571, 45.96302, -2058.83203125], [-125.0684, 45.96378, -2693.629638671875], [-125.06238, 45.97045, -2071.22705078125], [-125.0571, 45.96302, -2058.83203125]]], [[[-125.1606, 45.97131, -6692.87890625], [-125.16731, 45.96415, -7235.2099609375], [-125.17327, 45.97206, -7202.84521484375], [-125.1606, 45.97131, -6692.87890625]]], [[[-125.15468, 45.96301, -6740.9619140625], [-125.16184, 45.95562, -7249.3544921875], [-125.16731, 45.96415, -7235.2099609375], [-125.15468, 45.96301, -6740.9619140625]]], [[[-125.18567, 45.97219, -7663.39990234375], [-125.19051, 45.98032, -7655.55126953125], [-125.17838, 45.97952, -7216.24951171875], [-125.18567, 45.97219, -7663.39990234375]]], [[[-125.18234, 45.98761, -7202.8486328125], [-125.19051, 45.98032, -7655.55126953125], [-125.19423, 45.98793, -7651.275390625], [-125.18234, 45.98761, -7202.8486328125]]], [[[-125.18234, 45.98761, -7202.8486328125], [-125.18053, 45.99611, -6975.5380859375], [-125.17155, 45.99453, -6613.97021484375], [-125.18234, 45.98761, -7202.8486328125]]], [[[-125.18234, 45.98761, -7202.8486328125], [-125.17155, 45.99453, -6613.97021484375], [-125.17034, 45.98646, -6711.12744140625], [-125.18234, 45.98761, -7202.8486328125]]], [[[-125.17034, 45.98646, -6711.12744140625], [-125.17838, 45.97952, -7216.24951171875], [-125.18234, 45.98761, -7202.8486328125], [-125.17034, 45.98646, -6711.12744140625]]], [[[-125.16193, 45.99474, -6157.265625], [-125.17155, 45.99453, -6613.97021484375], [-125.1678, 46.00269, -6266.25537109375], [-125.16193, 45.99474, -6157.265625]]], [[[-125.17155, 45.99453, -6613.97021484375], [-125.17737, 46.00253, -6709.96142578125], [-125.1678, 46.00269, -6266.25537109375], [-125.17155, 45.99453, -6613.97021484375]]], [[[-125.17155, 45.99453, -6613.97021484375], [-125.18053, 45.99611, -6975.5380859375], [-125.17737, 46.00253, -6709.96142578125], [-125.17155, 45.99453, -6613.97021484375]]], [[[-125.18053, 45.99611, -6975.5380859375], [-125.18718, 46.0019, -7136.71435546875], [-125.17737, 46.00253, -6709.96142578125], [-125.18053, 45.99611, -6975.5380859375]]], [[[-125.18718, 46.0019, -7136.71435546875], [-125.18053, 45.99611, -6975.5380859375], [-125.18855, 45.9939, -7347.26904296875], [-125.18718, 46.0019, -7136.71435546875]]], [[[-125.18718, 46.0019, -7136.71435546875], [-125.18855, 45.9939, -7347.26904296875], [-125.19268, 45.9986, -7412.80224609375], [-125.18718, 46.0019, -7136.71435546875]]], [[[-125.19606, 46.00279, -7392.4404296875], [-125.19268, 45.9986, -7412.80224609375], [-125.19916, 45.99885, -7646.36474609375], [-125.19606, 46.00279, -7392.4404296875]]], [[[-125.19606, 46.00279, -7392.4404296875], [-125.19916, 45.99885, -7646.36474609375], [-125.20302, 46.00259, -7629.3974609375], [-125.19606, 46.00279, -7392.4404296875]]], [[[-125.19606, 46.00279, -7392.4404296875], [-125.20153, 46.00623, -7304.5205078125], [-125.19396, 46.0068, -6983.4990234375], [-125.19606, 46.00279, -7392.4404296875]]], [[[-125.18718, 46.0019, -7136.71435546875], [-125.19606, 46.00279, -7392.4404296875], [-125.19396, 46.0068, -6983.4990234375], [-125.18718, 46.0019, -7136.71435546875]]], [[[-125.18718, 46.0019, -7136.71435546875], [-125.19396, 46.0068, -6983.4990234375], [-125.18541, 46.00745, -6595.3037109375], [-125.18718, 46.0019, -7136.71435546875]]], [[[-125.18718, 46.0019, -7136.71435546875], [-125.18541, 46.00745, -6595.3037109375], [-125.17737, 46.00253, -6709.96142578125], [-125.18718, 46.0019, -7136.71435546875]]], [[[-125.17737, 46.00253, -6709.96142578125], [-125.18541, 46.00745, -6595.3037109375], [-125.17597, 46.00817, -6135.4853515625], [-125.17737, 46.00253, -6709.96142578125]]], [[[-125.1678, 46.00269, -6266.25537109375], [-125.17737, 46.00253, -6709.96142578125], [-125.17597, 46.00817, -6135.4853515625], [-125.1678, 46.00269, -6266.25537109375]]], [[[-125.1678, 46.00269, -6266.25537109375], [-125.17597, 46.00817, -6135.4853515625], [-125.16648, 46.00888, -5666.70458984375], [-125.1678, 46.00269, -6266.25537109375]]], [[[-125.19268, 45.9986, -7412.80224609375], [-125.19682, 45.99414, -7650.47314453125], [-125.19916, 45.99885, -7646.36474609375], [-125.19268, 45.9986, -7412.80224609375]]], [[[-125.19268, 45.9986, -7412.80224609375], [-125.18855, 45.9939, -7347.26904296875], [-125.19682, 45.99414, -7650.47314453125], [-125.19268, 45.9986, -7412.80224609375]]], [[[-125.18855, 45.9939, -7347.26904296875], [-125.19423, 45.98793, -7651.275390625], [-125.19682, 45.99414, -7650.47314453125], [-125.18855, 45.9939, -7347.26904296875]]], [[[-125.14011, 45.9409, -6696.708984375], [-125.14635, 45.93346, -7230.82861328125], [-125.15232, 45.94014, -7231.50341796875], [-125.14011, 45.9409, -6696.708984375]]], [[[-125.14011, 45.9409, -6696.708984375], [-125.13415, 45.9342, -6700.5283203125], [-125.14635, 45.93346, -7230.82861328125], [-125.14011, 45.9409, -6696.708984375]]], [[[-125.12824, 45.94147, -6133.38232421875], [-125.13415, 45.9342, -6700.5283203125], [-125.14011, 45.9409, -6696.708984375], [-125.12824, 45.94147, -6133.38232421875]]], [[[-125.1222, 45.93446, -6155.0498046875], [-125.13415, 45.9342, -6700.5283203125], [-125.12824, 45.94147, -6133.38232421875], [-125.1222, 45.93446, -6155.0498046875]]], [[[-125.11619, 45.94168, -5558.83642578125], [-125.1222, 45.93446, -6155.0498046875], [-125.12824, 45.94147, -6133.38232421875], [-125.11619, 45.94168, -5558.83642578125]]], [[[-125.12824, 45.94147, -6133.38232421875], [-125.14011, 45.9409, -6696.708984375], [-125.13287, 45.94809, -6165.5712890625], [-125.12824, 45.94147, -6133.38232421875]]], [[[-125.13415, 45.9342, -6700.5283203125], [-125.13863, 45.9266, -7246.3056640625], [-125.14635, 45.93346, -7230.82861328125], [-125.13415, 45.9342, -6700.5283203125]]], [[[-125.12525, 45.95486, -5619.9140625], [-125.13287, 45.94809, -6165.5712890625], [-125.13751, 45.95446, -6213.970703125], [-125.12525, 45.95486, -5619.9140625]]], [[[-125.10286, 45.94216, -4955.5576171875], [-125.11619, 45.94168, -5558.83642578125], [-125.1093, 45.94906, -5050.98193359375], [-125.10286, 45.94216, -4955.5576171875]]], [[[-125.09527, 45.95018, -4381.9482421875], [-125.10286, 45.94216, -4955.5576171875], [-125.1093, 45.94906, -5050.98193359375], [-125.09527, 45.95018, -4381.9482421875]]], [[[-125.09527, 45.95018, -4381.9482421875], [-125.08871, 45.94171, -4315.54541015625], [-125.10286, 45.94216, -4955.5576171875], [-125.09527, 45.95018, -4381.9482421875]]], [[[-125.09527, 45.95018, -4381.9482421875], [-125.08194, 45.94981, -3769.385986328125], [-125.08871, 45.94171, -4315.54541015625], [-125.09527, 45.95018, -4381.9482421875]]], [[[-125.09527, 45.95018, -4381.9482421875], [-125.0876, 45.95794, -3814.50244140625], [-125.08194, 45.94981, -3769.385986328125], [-125.09527, 45.95018, -4381.9482421875]]], [[[-125.10086, 45.95848, -4421.29638671875], [-125.0876, 45.95794, -3814.50244140625], [-125.09527, 45.95018, -4381.9482421875], [-125.10086, 45.95848, -4421.29638671875]]], [[[-125.08194, 45.94981, -3769.385986328125], [-125.0876, 45.95794, -3814.50244140625], [-125.07546, 45.957, -3223.51171875], [-125.08194, 45.94981, -3769.385986328125]]], [[[-125.08194, 45.94981, -3769.385986328125], [-125.07546, 45.957, -3223.51171875], [-125.06993, 45.94913, -3178.4638671875], [-125.08194, 45.94981, -3769.385986328125]]], [[[-125.08084, 45.965, -3276.316650390625], [-125.07546, 45.957, -3223.51171875], [-125.0876, 45.95794, -3814.50244140625], [-125.08084, 45.965, -3276.316650390625]]], [[[-125.09621, 45.93433, -5007.87158203125], [-125.08871, 45.94171, -4315.54541015625], [-125.08072, 45.93344, -4381.38720703125], [-125.09621, 45.93433, -5007.87158203125]]], [[[-125.03945, 45.95266, -1638.1600341796875], [-125.05237, 45.95475, -2056.7255859375], [-125.04425, 45.96093, -1638.1600341796875], [-125.03945, 45.95266, -1638.1600341796875]]], [[[-125.05237, 45.95475, -2056.7255859375], [-125.03945, 45.95266, -1638.1600341796875], [-125.04688, 45.94605, -2063.425048828125], [-125.05237, 45.95475, -2056.7255859375]]], [[[-125.12397, 45.91156, -7294.1201171875], [-125.12967, 45.90388, -7752.4189453125], [-125.13633, 45.91135, -7739.63037109375], [-125.12397, 45.91156, -7294.1201171875]]], [[[-125.09788, 45.85824, -7285.7119140625], [-125.10869, 45.85743, -7701.86376953125], [-125.10715, 45.86469, -7743.71337890625], [-125.09788, 45.85824, -7285.7119140625]]], [[[-125.09633, 45.86787, -7350.87109375], [-125.09788, 45.85824, -7285.7119140625], [-125.10715, 45.86469, -7743.71337890625], [-125.09633, 45.86787, -7350.87109375]]], [[[-125.20302, 46.00259, -7629.3974609375], [-125.20904, 46.00566, -7598.2041015625], [-125.20153, 46.00623, -7304.5205078125], [-125.20302, 46.00259, -7629.3974609375]]], [[[-125.19606, 46.00279, -7392.4404296875], [-125.20302, 46.00259, -7629.3974609375], [-125.20153, 46.00623, -7304.5205078125], [-125.19606, 46.00279, -7392.4404296875]]]]}}]}