{"type": "FeatureCollection", "features": [{"type": "Feature", "properties": {"name": "AW_NORE_8", "CFM_ID": 244, "region": "Offshore_WAOR", "primary_state/province": "OR", "secondary_state/province": null, "avg_dip": 25, "dip_dir": "SW", "rake": 90, "slip_sense": "Reverse", "fault_level": 2, "NSHM23_sliprates": null, "QFFDAgeCatBin": null, "QFFDAgeBin": null, "upper_depth": -1.3, "upper_depth_constraint": "seismic imaging", "lower_depth": -8.2, "lower_depth_constraint": "soles into AW_NORE_6 and 7", "3D_model_constraints": "trace and 1 MCS line", "reference": "Ledeczi et al. (2024); Carbotte et al. (2023)", "nshm23_id": null, "lineage": null, "usgs_qffd_#": null, "comments": null, "id": "244"}, "geometry": {"type": "MultiPolygon", "coordinates": [[[[-124.99914, 45.85659, -2358.844970703125], [-125.00794, 45.85314, -2655.58984375], [-125.00152, 45.8605, -2655.58984375], [-124.99914, 45.85659, -2358.844970703125]]], [[[-124.99703, 45.85279, -2033.4901123046875], [-125.00794, 45.85314, -2655.58984375], [-124.99914, 45.85659, -2358.844970703125], [-124.99703, 45.85279, -2033.4901123046875]]], [[[-124.99163, 45.86221, -2183.677001953125], [-124.99703, 45.85279, -2033.4901123046875], [-124.99914, 45.85659, -2358.844970703125], [-124.99163, 45.86221, -2183.677001953125]]], [[[-124.99703, 45.85279, -2033.4901123046875], [-124.99163, 45.86221, -2183.677001953125], [-124.98538, 45.8566, -1817.988037109375], [-124.99703, 45.85279, -2033.4901123046875]]], [[[-124.9797, 45.86315, -1829.7149658203125], [-124.98538, 45.8566, -1817.988037109375], [-124.99163, 45.86221, -2183.677001953125], [-124.9797, 45.86315, -1829.7149658203125]]], [[[-124.9797, 45.86315, -1829.7149658203125], [-124.97434, 45.85623, -1461.6199951171875], [-124.98538, 45.8566, -1817.988037109375], [-124.9797, 45.86315, -1829.7149658203125]]], [[[-124.9797, 45.86315, -1829.7149658203125], [-124.96785, 45.864, -1461.6199951171875], [-124.97434, 45.85623, -1461.6199951171875], [-124.9797, 45.86315, -1829.7149658203125]]], [[[-124.97746, 45.87162, -1829.7149658203125], [-124.96785, 45.864, -1461.6199951171875], [-124.9797, 45.86315, -1829.7149658203125], [-124.97746, 45.87162, -1829.7149658203125]]], [[[-124.97746, 45.87162, -1829.7149658203125], [-124.96561, 45.87247, -1461.6199951171875], [-124.96785, 45.864, -1461.6199951171875], [-124.97746, 45.87162, -1829.7149658203125]]], [[[-124.96817, 45.88123, -1461.6199951171875], [-124.96561, 45.87247, -1461.6199951171875], [-124.97746, 45.87162, -1829.7149658203125], [-124.96817, 45.88123, -1461.6199951171875]]], [[[-124.97746, 45.87162, -1829.7149658203125], [-124.98002, 45.88037, -1829.7149658203125], [-124.96817, 45.88123, -1461.6199951171875], [-124.97746, 45.87162, -1829.7149658203125]]], [[[-124.98002, 45.88037, -1829.7149658203125], [-124.97746, 45.87162, -1829.7149658203125], [-124.98939, 45.87069, -2183.677001953125], [-124.98002, 45.88037, -1829.7149658203125]]], [[[-124.98002, 45.88037, -1829.7149658203125], [-124.98939, 45.87069, -2183.677001953125], [-124.99195, 45.87944, -2183.677001953125], [-124.98002, 45.88037, -1829.7149658203125]]], [[[-124.98002, 45.88037, -1829.7149658203125], [-124.99195, 45.87944, -2183.677001953125], [-124.99276, 45.88196, -2172.1669921875], [-124.98002, 45.88037, -1829.7149658203125]]], [[[-124.98002, 45.88037, -1829.7149658203125], [-124.99276, 45.88196, -2172.1669921875], [-124.98516, 45.88631, -1806.615966796875], [-124.98002, 45.88037, -1829.7149658203125]]], [[[-124.97642, 45.88808, -1461.6199951171875], [-124.98002, 45.88037, -1829.7149658203125], [-124.98516, 45.88631, -1806.615966796875], [-124.97642, 45.88808, -1461.6199951171875]]], [[[-124.98002, 45.88037, -1829.7149658203125], [-124.97642, 45.88808, -1461.6199951171875], [-124.96817, 45.88123, -1461.6199951171875], [-124.98002, 45.88037, -1829.7149658203125]]], [[[-124.99195, 45.87944, -2183.677001953125], [-124.99987, 45.87626, -2707.76220703125], [-124.99276, 45.88196, -2172.1669921875], [-124.99195, 45.87944, -2183.677001953125]]], [[[-124.99195, 45.87944, -2183.677001953125], [-124.98939, 45.87069, -2183.677001953125], [-124.99987, 45.87626, -2707.76220703125], [-124.99195, 45.87944, -2183.677001953125]]], [[[-124.98939, 45.87069, -2183.677001953125], [-124.99857, 45.86785, -2655.58984375], [-124.99987, 45.87626, -2707.76220703125], [-124.98939, 45.87069, -2183.677001953125]]], [[[-124.98939, 45.87069, -2183.677001953125], [-124.99163, 45.86221, -2183.677001953125], [-124.99857, 45.86785, -2655.58984375], [-124.98939, 45.87069, -2183.677001953125]]], [[[-124.98939, 45.87069, -2183.677001953125], [-124.9797, 45.86315, -1829.7149658203125], [-124.99163, 45.86221, -2183.677001953125], [-124.98939, 45.87069, -2183.677001953125]]], [[[-124.9797, 45.86315, -1829.7149658203125], [-124.98939, 45.87069, -2183.677001953125], [-124.97746, 45.87162, -1829.7149658203125], [-124.9797, 45.86315, -1829.7149658203125]]], [[[-124.99857, 45.86785, -2655.58984375], [-124.99163, 45.86221, -2183.677001953125], [-125.00152, 45.8605, -2655.58984375], [-124.99857, 45.86785, -2655.58984375]]], [[[-124.99163, 45.86221, -2183.677001953125], [-124.99914, 45.85659, -2358.844970703125], [-125.00152, 45.8605, -2655.58984375], [-124.99163, 45.86221, -2183.677001953125]]], [[[-124.98538, 45.8566, -1817.988037109375], [-124.97434, 45.85623, -1461.6199951171875], [-124.98235, 45.85216, -1344.9119873046875], [-124.98538, 45.8566, -1817.988037109375]]], [[[-124.98235, 45.85216, -1344.9119873046875], [-124.98773, 45.85243, -1638.1600341796875], [-124.98538, 45.8566, -1817.988037109375], [-124.98235, 45.85216, -1344.9119873046875]]], [[[-124.98538, 45.8566, -1817.988037109375], [-124.98773, 45.85243, -1638.1600341796875], [-124.99703, 45.85279, -2033.4901123046875], [-124.98538, 45.8566, -1817.988037109375]]]]}}]}