{"type": "FeatureCollection", "features": [{"type": "Feature", "properties": {"name": "AW_SORE_1", "CFM_ID": 245, "region": "Offshore_OR", "primary_state/province": "OR", "secondary_state/province": null, "avg_dip": 36, "dip_dir": "E", "rake": 90, "slip_sense": "Reverse", "fault_level": 2, "NSHM23_sliprates": null, "QFFDAgeCatBin": null, "QFFDAgeBin": null, "upper_depth": -3.1, "upper_depth_constraint": "seismic imaging", "lower_depth": -4.6, "lower_depth_constraint": "megathrust", "3D_model_constraints": "trace and 1 MCS line", "reference": "USGS QFFD; Goldfinger et al. (2023); Carbotte et al. (2023)", "nshm23_id": null, "lineage": null, "usgs_qffd_#": null, "comments": null, "id": "245"}, "geometry": {"type": "MultiPolygon", "coordinates": [[[[-125.34174, 43.24432, -3514.34912109375], [-125.35454, 43.24837, -3061.830078125], [-125.35105, 43.23974, -3061.830078125], [-125.34174, 43.24432, -3514.34912109375]]], [[[-125.27969, 43.13803, -3491.615234375], [-125.27585, 43.13164, -3508.457763671875], [-125.2695, 43.13395, -4014.9404296875], [-125.27969, 43.13803, -3491.615234375]]], [[[-125.31743, 43.18225, -3061.830078125], [-125.31201, 43.18852, -3544.91943359375], [-125.32346, 43.19009, -3061.830078125], [-125.31743, 43.18225, -3061.830078125]]], [[[-125.37529, 43.34706, -3448.347900390625], [-125.38673, 43.34975, -3061.830078125], [-125.38388, 43.34128, -3061.830078125], [-125.37529, 43.34706, -3448.347900390625]]], [[[-125.25118, 43.04334, -3447.416259765625], [-125.24507, 43.04061, -3834.402099609375], [-125.24472, 43.0476, -3849.060791015625], [-125.25118, 43.04334, -3447.416259765625]]], [[[-125.25303, 43.01443, -3405.6640625], [-125.24655, 43.01156, -3805.63671875], [-125.24671, 43.01795, -3805.41015625], [-125.25303, 43.01443, -3405.6640625]]], [[[-125.3762, 43.36235, -3450.7568359375], [-125.38456, 43.36748, -3061.830078125], [-125.38727, 43.35874, -3061.830078125], [-125.3762, 43.36235, -3450.7568359375]]], [[[-125.25047, 42.99694, -3413.50341796875], [-125.24299, 42.99455, -3823.850341796875], [-125.24481, 43.00055, -3810.35498046875], [-125.25047, 42.99694, -3413.50341796875]]], [[[-125.37681, 43.35448, -3449.53662109375], [-125.38673, 43.34975, -3061.830078125], [-125.37529, 43.34706, -3448.347900390625], [-125.37681, 43.35448, -3449.53662109375]]], [[[-125.27585, 43.13164, -3508.457763671875], [-125.27355, 43.12426, -3460.4931640625], [-125.26583, 43.12535, -3998.82421875], [-125.27585, 43.13164, -3508.457763671875]]], [[[-125.37681, 43.35448, -3449.53662109375], [-125.38727, 43.35874, -3061.830078125], [-125.38673, 43.34975, -3061.830078125], [-125.37681, 43.35448, -3449.53662109375]]], [[[-125.37308, 43.53208, -3656.11083984375], [-125.38592, 43.53584, -3061.830078125], [-125.38509, 43.52686, -3061.830078125], [-125.37308, 43.53208, -3656.11083984375]]], [[[-125.2481, 42.9908, -3411.556396484375], [-125.24065, 42.9895, -3837.043701171875], [-125.24299, 42.99455, -3823.850341796875], [-125.2481, 42.9908, -3411.556396484375]]], [[[-125.37619, 43.41545, -3492.2412109375], [-125.36769, 43.41904, -4057.468994140625], [-125.37367, 43.42281, -3568.19140625], [-125.37619, 43.41545, -3492.2412109375]]], [[[-125.33336, 43.22635, -3627.93017578125], [-125.34216, 43.22309, -3061.830078125], [-125.33077, 43.21903, -3519.350830078125], [-125.33336, 43.22635, -3627.93017578125]]], [[[-125.2481, 42.9908, -3411.556396484375], [-125.25047, 42.99694, -3413.50341796875], [-125.25721, 42.99373, -3061.830078125], [-125.2481, 42.9908, -3411.556396484375]]], [[[-125.37681, 43.35448, -3449.53662109375], [-125.3762, 43.36235, -3450.7568359375], [-125.38727, 43.35874, -3061.830078125], [-125.37681, 43.35448, -3449.53662109375]]], [[[-125.26716, 43.10722, -3438.41259765625], [-125.26239, 43.11669, -3981.9423828125], [-125.27036, 43.11585, -3443.92041015625], [-125.26716, 43.10722, -3438.41259765625]]], [[[-125.37583, 43.3903, -3503.192626953125], [-125.38512, 43.39441, -3061.830078125], [-125.38402, 43.38545, -3061.830078125], [-125.37583, 43.3903, -3503.192626953125]]], [[[-125.36226, 43.45012, -3837.9931640625], [-125.35845, 43.44719, -4173.55712890625], [-125.35698, 43.45262, -4199.501953125], [-125.36226, 43.45012, -3837.9931640625]]], [[[-125.27859, 43.11626, -3061.830078125], [-125.27355, 43.12426, -3460.4931640625], [-125.28215, 43.12488, -3061.830078125], [-125.27859, 43.11626, -3061.830078125]]], [[[-125.36383, 43.44598, -3794.092529296875], [-125.36866, 43.44201, -3536.9931640625], [-125.36047, 43.44185, -4149.02392578125], [-125.36383, 43.44598, -3794.092529296875]]], [[[-125.37681, 43.35448, -3449.53662109375], [-125.36842, 43.35756, -3967.6279296875], [-125.3762, 43.36235, -3450.7568359375], [-125.37681, 43.35448, -3449.53662109375]]], [[[-125.25057, 43.05069, -3452.563720703125], [-125.25782, 43.05612, -3061.830078125], [-125.25971, 43.04724, -3061.830078125], [-125.25057, 43.05069, -3452.563720703125]]], [[[-125.25782, 43.05612, -3061.830078125], [-125.24454, 43.05596, -3867.758056640625], [-125.25646, 43.06505, -3061.830078125], [-125.25782, 43.05612, -3061.830078125]]], [[[-125.36551, 43.47854, -3568.7568359375], [-125.37604, 43.47327, -3061.830078125], [-125.36433, 43.46934, -3574.100830078125], [-125.36551, 43.47854, -3568.7568359375]]], [[[-125.37681, 43.35448, -3449.53662109375], [-125.3678, 43.35064, -3976.996826171875], [-125.36842, 43.35756, -3967.6279296875], [-125.37681, 43.35448, -3449.53662109375]]], [[[-125.37367, 43.42281, -3568.19140625], [-125.37, 43.43308, -3635.681640625], [-125.37767, 43.42852, -3061.830078125], [-125.37367, 43.42281, -3568.19140625]]], [[[-125.37583, 43.3903, -3503.192626953125], [-125.37516, 43.38094, -3498.198974609375], [-125.36841, 43.3835, -3982.170654296875], [-125.37583, 43.3903, -3503.192626953125]]], [[[-125.25646, 43.06505, -3061.830078125], [-125.24454, 43.05596, -3867.758056640625], [-125.24467, 43.06498, -3888.451171875], [-125.25646, 43.06505, -3061.830078125]]], [[[-125.24423, 42.98606, -3490.62451171875], [-125.23794, 42.98463, -3847.750244140625], [-125.24065, 42.9895, -3837.043701171875], [-125.24423, 42.98606, -3490.62451171875]]], [[[-125.25118, 43.04334, -3447.416259765625], [-125.25933, 43.03825, -3061.830078125], [-125.25188, 43.03664, -3421.6982421875], [-125.25118, 43.04334, -3447.416259765625]]], [[[-125.37518, 43.37149, -3475.75439453125], [-125.37516, 43.38094, -3498.198974609375], [-125.38386, 43.37645, -3061.830078125], [-125.37518, 43.37149, -3475.75439453125]]], [[[-125.37, 43.43308, -3635.681640625], [-125.37683, 43.43748, -3061.830078125], [-125.37767, 43.42852, -3061.830078125], [-125.37, 43.43308, -3635.681640625]]], [[[-125.37681, 43.35448, -3449.53662109375], [-125.37529, 43.34706, -3448.347900390625], [-125.3678, 43.35064, -3976.996826171875], [-125.37681, 43.35448, -3449.53662109375]]], [[[-125.37206, 43.52328, -3642.602294921875], [-125.37045, 43.51452, -3708.628173828125], [-125.36036, 43.51993, -4478.244140625], [-125.37206, 43.52328, -3642.602294921875]]], [[[-125.26355, 43.09879, -3426.703125], [-125.25536, 43.09975, -3951.175537109375], [-125.25918, 43.10812, -3965.200439453125], [-125.26355, 43.09879, -3426.703125]]], [[[-125.37529, 43.34706, -3448.347900390625], [-125.36489, 43.34374, -3986.93603515625], [-125.3678, 43.35064, -3976.996826171875], [-125.37529, 43.34706, -3448.347900390625]]], [[[-125.25941, 43.0903, -3426.42529296875], [-125.25536, 43.09975, -3951.175537109375], [-125.26355, 43.09879, -3426.703125], [-125.25941, 43.0903, -3426.42529296875]]], [[[-125.37516, 43.38094, -3498.198974609375], [-125.37518, 43.37149, -3475.75439453125], [-125.36799, 43.3746, -3974.968017578125], [-125.37516, 43.38094, -3498.198974609375]]], [[[-125.26355, 43.09879, -3426.703125], [-125.25918, 43.10812, -3965.200439453125], [-125.26716, 43.10722, -3438.41259765625], [-125.26355, 43.09879, -3426.703125]]], [[[-125.25646, 43.06505, -3061.830078125], [-125.24467, 43.06498, -3888.451171875], [-125.24458, 43.07399, -3913.575439453125], [-125.25646, 43.06505, -3061.830078125]]], [[[-125.35105, 43.23974, -3061.830078125], [-125.34683, 43.23138, -3061.830078125], [-125.34174, 43.24432, -3514.34912109375], [-125.35105, 43.23974, -3061.830078125]]], [[[-125.37529, 43.34706, -3448.347900390625], [-125.37144, 43.33944, -3461.423583984375], [-125.36489, 43.34374, -3986.93603515625], [-125.37529, 43.34706, -3448.347900390625]]], [[[-125.37529, 43.34706, -3448.347900390625], [-125.38388, 43.34128, -3061.830078125], [-125.37144, 43.33944, -3461.423583984375], [-125.37529, 43.34706, -3448.347900390625]]], [[[-125.36715, 43.30787, -3558.26513671875], [-125.37385, 43.29841, -3061.830078125], [-125.36358, 43.29927, -3558.26513671875], [-125.36715, 43.30787, -3558.26513671875]]], [[[-125.37144, 43.33944, -3461.423583984375], [-125.38388, 43.34128, -3061.830078125], [-125.37728, 43.33368, -3061.830078125], [-125.37144, 43.33944, -3461.423583984375]]], [[[-125.36819, 43.32901, -3518.881591796875], [-125.37144, 43.33944, -3461.423583984375], [-125.37728, 43.33368, -3061.830078125], [-125.36819, 43.32901, -3518.881591796875]]], [[[-125.25188, 43.03664, -3421.6982421875], [-125.25818, 43.02929, -3061.830078125], [-125.24569, 43.03378, -3823.98388671875], [-125.25188, 43.03664, -3421.6982421875]]], [[[-125.35509, 43.28196, -3484.466796875], [-125.35985, 43.28979, -3494.280029296875], [-125.36791, 43.28114, -3061.830078125], [-125.35509, 43.28196, -3484.466796875]]], [[[-125.37144, 43.33944, -3461.423583984375], [-125.36819, 43.32901, -3518.881591796875], [-125.36264, 43.33549, -3999.45263671875], [-125.37144, 43.33944, -3461.423583984375]]], [[[-125.36866, 43.44201, -3536.9931640625], [-125.37785, 43.44644, -3061.830078125], [-125.37683, 43.43748, -3061.830078125], [-125.36866, 43.44201, -3536.9931640625]]], [[[-125.37144, 43.33944, -3461.423583984375], [-125.36264, 43.33549, -3999.45263671875], [-125.36489, 43.34374, -3986.93603515625], [-125.37144, 43.33944, -3461.423583984375]]], [[[-125.36866, 43.44201, -3536.9931640625], [-125.37, 43.43308, -3635.681640625], [-125.36282, 43.43561, -4120.857421875], [-125.36866, 43.44201, -3536.9931640625]]], [[[-125.27036, 43.11585, -3443.92041015625], [-125.26583, 43.12535, -3998.82421875], [-125.27355, 43.12426, -3460.4931640625], [-125.27036, 43.11585, -3443.92041015625]]], [[[-125.26294, 43.08227, -3061.830078125], [-125.25941, 43.0903, -3426.42529296875], [-125.26833, 43.09036, -3061.830078125], [-125.26294, 43.08227, -3061.830078125]]], [[[-125.36264, 43.33549, -3999.45263671875], [-125.36819, 43.32901, -3518.881591796875], [-125.36059, 43.32677, -4033.099853515625], [-125.36264, 43.33549, -3999.45263671875]]], [[[-125.37206, 43.52328, -3642.602294921875], [-125.36066, 43.52883, -4519.70166015625], [-125.37308, 43.53208, -3656.11083984375], [-125.37206, 43.52328, -3642.602294921875]]], [[[-125.36819, 43.32901, -3518.881591796875], [-125.36646, 43.3167, -3558.26513671875], [-125.36059, 43.32677, -4033.099853515625], [-125.36819, 43.32901, -3518.881591796875]]], [[[-125.36947, 43.4509, -3422.118408203125], [-125.37785, 43.44644, -3061.830078125], [-125.36866, 43.44201, -3536.9931640625], [-125.36947, 43.4509, -3422.118408203125]]], [[[-125.25844, 43.07391, -3061.830078125], [-125.24762, 43.0827, -3927.34130859375], [-125.26294, 43.08227, -3061.830078125], [-125.25844, 43.07391, -3061.830078125]]], [[[-125.36646, 43.3167, -3558.26513671875], [-125.36819, 43.32901, -3518.881591796875], [-125.37608, 43.32476, -3061.830078125], [-125.36646, 43.3167, -3558.26513671875]]], [[[-125.25303, 43.01443, -3405.6640625], [-125.25974, 43.02038, -3061.830078125], [-125.26115, 43.01145, -3061.830078125], [-125.25303, 43.01443, -3405.6640625]]], [[[-125.36884, 43.49645, -3628.030029296875], [-125.37906, 43.49113, -3061.830078125], [-125.36708, 43.48751, -3594.027099609375], [-125.36884, 43.49645, -3628.030029296875]]], [[[-125.26716, 43.10722, -3438.41259765625], [-125.27036, 43.11585, -3443.92041015625], [-125.27535, 43.10758, -3061.830078125], [-125.26716, 43.10722, -3438.41259765625]]], [[[-125.36646, 43.3167, -3558.26513671875], [-125.37608, 43.32476, -3061.830078125], [-125.37673, 43.31583, -3061.830078125], [-125.36646, 43.3167, -3558.26513671875]]], [[[-125.25941, 43.0903, -3426.42529296875], [-125.26294, 43.08227, -3061.830078125], [-125.24762, 43.0827, -3927.34130859375], [-125.25941, 43.0903, -3426.42529296875]]], [[[-125.36715, 43.30787, -3558.26513671875], [-125.36646, 43.3167, -3558.26513671875], [-125.37673, 43.31583, -3061.830078125], [-125.36715, 43.30787, -3558.26513671875]]], [[[-125.27585, 43.13164, -3508.457763671875], [-125.26583, 43.12535, -3998.82421875], [-125.2695, 43.13395, -4014.9404296875], [-125.27585, 43.13164, -3508.457763671875]]], [[[-125.37, 43.43308, -3635.681640625], [-125.36866, 43.44201, -3536.9931640625], [-125.37683, 43.43748, -3061.830078125], [-125.37, 43.43308, -3635.681640625]]], [[[-125.36646, 43.3167, -3558.26513671875], [-125.36715, 43.30787, -3558.26513671875], [-125.35985, 43.30901, -4097.50390625], [-125.36646, 43.3167, -3558.26513671875]]], [[[-125.25047, 42.99694, -3413.50341796875], [-125.25118, 43.00301, -3452.79296875], [-125.25973, 43.00254, -3061.830078125], [-125.25047, 42.99694, -3413.50341796875]]], [[[-125.36947, 43.4509, -3422.118408203125], [-125.36866, 43.44201, -3536.9931640625], [-125.36383, 43.44598, -3794.092529296875], [-125.36947, 43.4509, -3422.118408203125]]], [[[-125.34133, 43.27617, -4197.21875], [-125.34563, 43.26805, -3633.125], [-125.33753, 43.26771, -4204.42333984375], [-125.34133, 43.27617, -4197.21875]]], [[[-125.37, 43.43308, -3635.681640625], [-125.37367, 43.42281, -3568.19140625], [-125.36553, 43.42779, -4087.3671875], [-125.37, 43.43308, -3635.681640625]]], [[[-125.37644, 43.54571, -3694.40185546875], [-125.38747, 43.54477, -3061.830078125], [-125.38592, 43.53584, -3061.830078125], [-125.37644, 43.54571, -3694.40185546875]]], [[[-125.35964, 43.3179, -4066.72900390625], [-125.36646, 43.3167, -3558.26513671875], [-125.35985, 43.30901, -4097.50390625], [-125.35964, 43.3179, -4066.72900390625]]], [[[-125.27535, 43.10758, -3061.830078125], [-125.27036, 43.11585, -3443.92041015625], [-125.27859, 43.11626, -3061.830078125], [-125.27535, 43.10758, -3061.830078125]]], [[[-125.25209, 43.00835, -3445.697998046875], [-125.24594, 43.00618, -3806.89794921875], [-125.24655, 43.01156, -3805.63671875], [-125.25209, 43.00835, -3445.697998046875]]], [[[-125.36059, 43.32677, -4033.099853515625], [-125.36646, 43.3167, -3558.26513671875], [-125.35964, 43.3179, -4066.72900390625], [-125.36059, 43.32677, -4033.099853515625]]], [[[-125.36947, 43.4509, -3422.118408203125], [-125.36567, 43.45989, -3514.58349609375], [-125.37824, 43.45541, -3061.830078125], [-125.36947, 43.4509, -3422.118408203125]]], [[[-125.36358, 43.29927, -3558.26513671875], [-125.35985, 43.30901, -4097.50390625], [-125.36715, 43.30787, -3558.26513671875], [-125.36358, 43.29927, -3558.26513671875]]], [[[-125.36282, 43.43561, -4120.857421875], [-125.37, 43.43308, -3635.681640625], [-125.36553, 43.42779, -4087.3671875], [-125.36282, 43.43561, -4120.857421875]]], [[[-125.24423, 42.98606, -3490.62451171875], [-125.24065, 42.9895, -3837.043701171875], [-125.2481, 42.9908, -3411.556396484375], [-125.24423, 42.98606, -3490.62451171875]]], [[[-125.36358, 43.29927, -3558.26513671875], [-125.35601, 43.3006, -4141.595703125], [-125.35985, 43.30901, -4097.50390625], [-125.36358, 43.29927, -3558.26513671875]]], [[[-125.25118, 43.00301, -3452.79296875], [-125.25047, 42.99694, -3413.50341796875], [-125.24481, 43.00055, -3810.35498046875], [-125.25118, 43.00301, -3452.79296875]]], [[[-125.35985, 43.28979, -3494.280029296875], [-125.35601, 43.3006, -4141.595703125], [-125.36358, 43.29927, -3558.26513671875], [-125.35985, 43.28979, -3494.280029296875]]], [[[-125.35985, 43.28979, -3494.280029296875], [-125.35077, 43.29257, -4181.81640625], [-125.35601, 43.3006, -4141.595703125], [-125.35985, 43.28979, -3494.280029296875]]], [[[-125.377, 43.40775, -3488.427001953125], [-125.37676, 43.39929, -3494.75], [-125.36931, 43.40129, -4010.609375], [-125.377, 43.40775, -3488.427001953125]]], [[[-125.35509, 43.28196, -3484.466796875], [-125.35077, 43.29257, -4181.81640625], [-125.35985, 43.28979, -3494.280029296875], [-125.35509, 43.28196, -3484.466796875]]], [[[-125.35077, 43.29257, -4181.81640625], [-125.35509, 43.28196, -3484.466796875], [-125.34557, 43.28451, -4190.64208984375], [-125.35077, 43.29257, -4181.81640625]]], [[[-125.35005, 43.27467, -3538.302490234375], [-125.34557, 43.28451, -4190.64208984375], [-125.35509, 43.28196, -3484.466796875], [-125.35005, 43.27467, -3538.302490234375]]], [[[-125.37676, 43.39929, -3494.75], [-125.36897, 43.39239, -3994.84814453125], [-125.36931, 43.40129, -4010.609375], [-125.37676, 43.39929, -3494.75]]], [[[-125.34557, 43.28451, -4190.64208984375], [-125.35005, 43.27467, -3538.302490234375], [-125.34133, 43.27617, -4197.21875], [-125.34557, 43.28451, -4190.64208984375]]], [[[-125.35005, 43.27467, -3538.302490234375], [-125.35509, 43.28196, -3484.466796875], [-125.36174, 43.27337, -3061.830078125], [-125.35005, 43.27467, -3538.302490234375]]], [[[-125.35005, 43.27467, -3538.302490234375], [-125.34563, 43.26805, -3633.125], [-125.34133, 43.27617, -4197.21875], [-125.35005, 43.27467, -3538.302490234375]]], [[[-125.36708, 43.48751, -3594.027099609375], [-125.35614, 43.48453, -4332.892578125], [-125.35794, 43.49333, -4364.5849609375], [-125.36708, 43.48751, -3594.027099609375]]], [[[-125.34563, 43.26805, -3633.125], [-125.35005, 43.27467, -3538.302490234375], [-125.35445, 43.26612, -3061.830078125], [-125.34563, 43.26805, -3633.125]]], [[[-125.34563, 43.26805, -3633.125], [-125.35445, 43.26612, -3061.830078125], [-125.34425, 43.26089, -3537.840576171875], [-125.34563, 43.26805, -3633.125]]], [[[-125.36383, 43.44598, -3794.092529296875], [-125.36047, 43.44185, -4149.02392578125], [-125.35845, 43.44719, -4173.55712890625], [-125.36383, 43.44598, -3794.092529296875]]], [[[-125.34425, 43.26089, -3537.840576171875], [-125.33753, 43.26771, -4204.42333984375], [-125.34563, 43.26805, -3633.125], [-125.34425, 43.26089, -3537.840576171875]]], [[[-125.36819, 43.32901, -3518.881591796875], [-125.37728, 43.33368, -3061.830078125], [-125.37608, 43.32476, -3061.830078125], [-125.36819, 43.32901, -3518.881591796875]]], [[[-125.33753, 43.26771, -4204.42333984375], [-125.34425, 43.26089, -3537.840576171875], [-125.33437, 43.25911, -4197.640625], [-125.33753, 43.26771, -4204.42333984375]]], [[[-125.25941, 43.0903, -3426.42529296875], [-125.25153, 43.09125, -3938.665283203125], [-125.25536, 43.09975, -3951.175537109375], [-125.25941, 43.0903, -3426.42529296875]]], [[[-125.25047, 42.99694, -3413.50341796875], [-125.2481, 42.9908, -3411.556396484375], [-125.24299, 42.99455, -3823.850341796875], [-125.25047, 42.99694, -3413.50341796875]]], [[[-125.34338, 43.25337, -3511.097900390625], [-125.33437, 43.25911, -4197.640625], [-125.34425, 43.26089, -3537.840576171875], [-125.34338, 43.25337, -3511.097900390625]]], [[[-125.34338, 43.25337, -3511.097900390625], [-125.35541, 43.25719, -3061.830078125], [-125.35454, 43.24837, -3061.830078125], [-125.34338, 43.25337, -3511.097900390625]]], [[[-125.33437, 43.25911, -4197.640625], [-125.34338, 43.25337, -3511.097900390625], [-125.33317, 43.25025, -4185.2578125], [-125.33437, 43.25911, -4197.640625]]], [[[-125.34174, 43.24432, -3514.34912109375], [-125.33317, 43.25025, -4185.2578125], [-125.34338, 43.25337, -3511.097900390625], [-125.34174, 43.24432, -3514.34912109375]]], [[[-125.36226, 43.45012, -3837.9931640625], [-125.35698, 43.45262, -4199.501953125], [-125.36228, 43.45514, -3765.36279296875], [-125.36226, 43.45012, -3837.9931640625]]], [[[-125.37367, 43.42281, -3568.19140625], [-125.38471, 43.42115, -3061.830078125], [-125.37619, 43.41545, -3492.2412109375], [-125.37367, 43.42281, -3568.19140625]]], [[[-125.34174, 43.24432, -3514.34912109375], [-125.33198, 43.24139, -4168.26904296875], [-125.33317, 43.25025, -4185.2578125], [-125.34174, 43.24432, -3514.34912109375]]], [[[-125.36708, 43.48751, -3594.027099609375], [-125.36551, 43.47854, -3568.7568359375], [-125.35614, 43.48453, -4332.892578125], [-125.36708, 43.48751, -3594.027099609375]]], [[[-125.36947, 43.4509, -3422.118408203125], [-125.37824, 43.45541, -3061.830078125], [-125.37785, 43.44644, -3061.830078125], [-125.36947, 43.4509, -3422.118408203125]]], [[[-125.34174, 43.24432, -3514.34912109375], [-125.33803, 43.23195, -3562.314208984375], [-125.33198, 43.24139, -4168.26904296875], [-125.34174, 43.24432, -3514.34912109375]]], [[[-125.25209, 43.00835, -3445.697998046875], [-125.25303, 43.01443, -3405.6640625], [-125.26115, 43.01145, -3061.830078125], [-125.25209, 43.00835, -3445.697998046875]]], [[[-125.33803, 43.23195, -3562.314208984375], [-125.34174, 43.24432, -3514.34912109375], [-125.34683, 43.23138, -3061.830078125], [-125.33803, 43.23195, -3562.314208984375]]], [[[-125.3378, 43.21468, -3061.830078125], [-125.33077, 43.21903, -3519.350830078125], [-125.34216, 43.22309, -3061.830078125], [-125.3378, 43.21468, -3061.830078125]]], [[[-125.34216, 43.22309, -3061.830078125], [-125.33803, 43.23195, -3562.314208984375], [-125.34683, 43.23138, -3061.830078125], [-125.34216, 43.22309, -3061.830078125]]], [[[-125.25047, 42.99694, -3413.50341796875], [-125.25973, 43.00254, -3061.830078125], [-125.25721, 42.99373, -3061.830078125], [-125.25047, 42.99694, -3413.50341796875]]], [[[-125.29618, 43.14983, -3061.830078125], [-125.29027, 43.15419, -3472.30224609375], [-125.30204, 43.15774, -3061.830078125], [-125.29618, 43.14983, -3061.830078125]]], [[[-125.36226, 43.45012, -3837.9931640625], [-125.36383, 43.44598, -3794.092529296875], [-125.35845, 43.44719, -4173.55712890625], [-125.36226, 43.45012, -3837.9931640625]]], [[[-125.26355, 43.09879, -3426.703125], [-125.27237, 43.09885, -3061.830078125], [-125.26833, 43.09036, -3061.830078125], [-125.26355, 43.09879, -3426.703125]]], [[[-125.37367, 43.42281, -3568.19140625], [-125.37767, 43.42852, -3061.830078125], [-125.38471, 43.42115, -3061.830078125], [-125.37367, 43.42281, -3568.19140625]]], [[[-125.33336, 43.22635, -3627.93017578125], [-125.33803, 43.23195, -3562.314208984375], [-125.34216, 43.22309, -3061.830078125], [-125.33336, 43.22635, -3627.93017578125]]], [[[-125.35567, 43.45882, -4228.1611328125], [-125.36228, 43.45514, -3765.36279296875], [-125.35698, 43.45262, -4199.501953125], [-125.35567, 43.45882, -4228.1611328125]]], [[[-125.37516, 43.38094, -3498.198974609375], [-125.36799, 43.3746, -3974.968017578125], [-125.36841, 43.3835, -3982.170654296875], [-125.37516, 43.38094, -3498.198974609375]]], [[[-125.25941, 43.0903, -3426.42529296875], [-125.24762, 43.0827, -3927.34130859375], [-125.25153, 43.09125, -3938.665283203125], [-125.25941, 43.0903, -3426.42529296875]]], [[[-125.33336, 43.22635, -3627.93017578125], [-125.33011, 43.23259, -4151.17041015625], [-125.33803, 43.23195, -3562.314208984375], [-125.33336, 43.22635, -3627.93017578125]]], [[[-125.377, 43.40775, -3488.427001953125], [-125.38661, 43.40335, -3061.830078125], [-125.37676, 43.39929, -3494.75], [-125.377, 43.40775, -3488.427001953125]]], [[[-125.26716, 43.10722, -3438.41259765625], [-125.27535, 43.10758, -3061.830078125], [-125.27237, 43.09885, -3061.830078125], [-125.26716, 43.10722, -3438.41259765625]]], [[[-125.35985, 43.28979, -3494.280029296875], [-125.37192, 43.28952, -3061.830078125], [-125.36791, 43.28114, -3061.830078125], [-125.35985, 43.28979, -3494.280029296875]]], [[[-125.33336, 43.22635, -3627.93017578125], [-125.32482, 43.22445, -4140.43359375], [-125.33011, 43.23259, -4151.17041015625], [-125.33336, 43.22635, -3627.93017578125]]], [[[-125.36715, 43.30787, -3558.26513671875], [-125.37742, 43.307, -3061.830078125], [-125.37385, 43.29841, -3061.830078125], [-125.36715, 43.30787, -3558.26513671875]]], [[[-125.36228, 43.45514, -3765.36279296875], [-125.36567, 43.45989, -3514.58349609375], [-125.36947, 43.4509, -3422.118408203125], [-125.36228, 43.45514, -3765.36279296875]]], [[[-125.25844, 43.07391, -3061.830078125], [-125.24458, 43.07399, -3913.575439453125], [-125.24762, 43.0827, -3927.34130859375], [-125.25844, 43.07391, -3061.830078125]]], [[[-125.25296, 42.98531, -3061.830078125], [-125.2481, 42.9908, -3411.556396484375], [-125.25721, 42.99373, -3061.830078125], [-125.25296, 42.98531, -3061.830078125]]], [[[-125.33077, 43.21903, -3519.350830078125], [-125.32482, 43.22445, -4140.43359375], [-125.33336, 43.22635, -3627.93017578125], [-125.33077, 43.21903, -3519.350830078125]]], [[[-125.33077, 43.21903, -3519.350830078125], [-125.32032, 43.21605, -4125.8505859375], [-125.32482, 43.22445, -4140.43359375], [-125.33077, 43.21903, -3519.350830078125]]], [[[-125.36358, 43.29927, -3558.26513671875], [-125.37192, 43.28952, -3061.830078125], [-125.35985, 43.28979, -3494.280029296875], [-125.36358, 43.29927, -3558.26513671875]]], [[[-125.32971, 43.19784, -3061.830078125], [-125.32225, 43.20426, -3526.238037109375], [-125.33355, 43.20623, -3061.830078125], [-125.32971, 43.19784, -3061.830078125]]], [[[-125.36884, 43.49645, -3628.030029296875], [-125.38056, 43.50007, -3061.830078125], [-125.37906, 43.49113, -3061.830078125], [-125.36884, 43.49645, -3628.030029296875]]], [[[-125.37676, 43.39929, -3494.75], [-125.37583, 43.3903, -3503.192626953125], [-125.36897, 43.39239, -3994.84814453125], [-125.37676, 43.39929, -3494.75]]], [[[-125.33077, 43.21903, -3519.350830078125], [-125.32637, 43.21197, -3540.079345703125], [-125.32032, 43.21605, -4125.8505859375], [-125.33077, 43.21903, -3519.350830078125]]], [[[-125.36715, 43.30787, -3558.26513671875], [-125.37673, 43.31583, -3061.830078125], [-125.37742, 43.307, -3061.830078125], [-125.36715, 43.30787, -3558.26513671875]]], [[[-125.32637, 43.21197, -3540.079345703125], [-125.33077, 43.21903, -3519.350830078125], [-125.3378, 43.21468, -3061.830078125], [-125.32637, 43.21197, -3540.079345703125]]], [[[-125.37179, 43.53965, -3879.135009765625], [-125.38592, 43.53584, -3061.830078125], [-125.37308, 43.53208, -3656.11083984375], [-125.37179, 43.53965, -3879.135009765625]]], [[[-125.36866, 43.44201, -3536.9931640625], [-125.36282, 43.43561, -4120.857421875], [-125.36047, 43.44185, -4149.02392578125], [-125.36866, 43.44201, -3536.9931640625]]], [[[-125.33355, 43.20623, -3061.830078125], [-125.32637, 43.21197, -3540.079345703125], [-125.3378, 43.21468, -3061.830078125], [-125.33355, 43.20623, -3061.830078125]]], [[[-125.30118, 43.17161, -3530.759033203125], [-125.31241, 43.17403, -3061.830078125], [-125.3076, 43.16575, -3061.830078125], [-125.30118, 43.17161, -3530.759033203125]]], [[[-125.32225, 43.20426, -3526.238037109375], [-125.32637, 43.21197, -3540.079345703125], [-125.33355, 43.20623, -3061.830078125], [-125.32225, 43.20426, -3526.238037109375]]], [[[-125.32637, 43.21197, -3540.079345703125], [-125.32225, 43.20426, -3526.238037109375], [-125.31572, 43.20768, -4112.69970703125], [-125.32637, 43.21197, -3540.079345703125]]], [[[-125.32637, 43.21197, -3540.079345703125], [-125.31572, 43.20768, -4112.69970703125], [-125.32032, 43.21605, -4125.8505859375], [-125.32637, 43.21197, -3540.079345703125]]], [[[-125.377, 43.40775, -3488.427001953125], [-125.37619, 43.41545, -3492.2412109375], [-125.38672, 43.41234, -3061.830078125], [-125.377, 43.40775, -3488.427001953125]]], [[[-125.32225, 43.20426, -3526.238037109375], [-125.31089, 43.19939, -4100.43115234375], [-125.31572, 43.20768, -4112.69970703125], [-125.32225, 43.20426, -3526.238037109375]]], [[[-125.32225, 43.20426, -3526.238037109375], [-125.31791, 43.19665, -3508.585693359375], [-125.31089, 43.19939, -4100.43115234375], [-125.32225, 43.20426, -3526.238037109375]]], [[[-125.31791, 43.19665, -3508.585693359375], [-125.32225, 43.20426, -3526.238037109375], [-125.32971, 43.19784, -3061.830078125], [-125.31791, 43.19665, -3508.585693359375]]], [[[-125.37516, 43.38094, -3498.198974609375], [-125.38402, 43.38545, -3061.830078125], [-125.38386, 43.37645, -3061.830078125], [-125.37516, 43.38094, -3498.198974609375]]], [[[-125.28215, 43.12488, -3061.830078125], [-125.27585, 43.13164, -3508.457763671875], [-125.28627, 43.13336, -3061.830078125], [-125.28215, 43.12488, -3061.830078125]]], [[[-125.25188, 43.03664, -3421.6982421875], [-125.24507, 43.04061, -3834.402099609375], [-125.25118, 43.04334, -3447.416259765625], [-125.25188, 43.03664, -3421.6982421875]]], [[[-125.31791, 43.19665, -3508.585693359375], [-125.32971, 43.19784, -3061.830078125], [-125.32346, 43.19009, -3061.830078125], [-125.31791, 43.19665, -3508.585693359375]]], [[[-125.37518, 43.37149, -3475.75439453125], [-125.38386, 43.37645, -3061.830078125], [-125.38456, 43.36748, -3061.830078125], [-125.37518, 43.37149, -3475.75439453125]]], [[[-125.31791, 43.19665, -3508.585693359375], [-125.32346, 43.19009, -3061.830078125], [-125.31201, 43.18852, -3544.91943359375], [-125.31791, 43.19665, -3508.585693359375]]], [[[-125.37518, 43.37149, -3475.75439453125], [-125.3762, 43.36235, -3450.7568359375], [-125.36806, 43.36577, -3968.324462890625], [-125.37518, 43.37149, -3475.75439453125]]], [[[-125.31791, 43.19665, -3508.585693359375], [-125.31201, 43.18852, -3544.91943359375], [-125.30593, 43.19114, -4088.497314453125], [-125.31791, 43.19665, -3508.585693359375]]], [[[-125.35005, 43.27467, -3538.302490234375], [-125.36174, 43.27337, -3061.830078125], [-125.35445, 43.26612, -3061.830078125], [-125.35005, 43.27467, -3538.302490234375]]], [[[-125.25118, 43.04334, -3447.416259765625], [-125.24472, 43.0476, -3849.060791015625], [-125.25057, 43.05069, -3452.563720703125], [-125.25118, 43.04334, -3447.416259765625]]], [[[-125.34338, 43.25337, -3511.097900390625], [-125.34425, 43.26089, -3537.840576171875], [-125.35541, 43.25719, -3061.830078125], [-125.34338, 43.25337, -3511.097900390625]]], [[[-125.31791, 43.19665, -3508.585693359375], [-125.30593, 43.19114, -4088.497314453125], [-125.31089, 43.19939, -4100.43115234375], [-125.31791, 43.19665, -3508.585693359375]]], [[[-125.36228, 43.45514, -3765.36279296875], [-125.36947, 43.4509, -3422.118408203125], [-125.36226, 43.45012, -3837.9931640625], [-125.36228, 43.45514, -3765.36279296875]]], [[[-125.25209, 43.00835, -3445.697998046875], [-125.26115, 43.01145, -3061.830078125], [-125.25973, 43.00254, -3061.830078125], [-125.25209, 43.00835, -3445.697998046875]]], [[[-125.2481, 42.9908, -3411.556396484375], [-125.25296, 42.98531, -3061.830078125], [-125.24423, 42.98606, -3490.62451171875], [-125.2481, 42.9908, -3411.556396484375]]], [[[-125.377, 43.40775, -3488.427001953125], [-125.38672, 43.41234, -3061.830078125], [-125.38661, 43.40335, -3061.830078125], [-125.377, 43.40775, -3488.427001953125]]], [[[-125.31201, 43.18852, -3544.91943359375], [-125.30083, 43.18293, -4075.777099609375], [-125.30593, 43.19114, -4088.497314453125], [-125.31201, 43.18852, -3544.91943359375]]], [[[-125.36567, 43.45989, -3514.58349609375], [-125.35567, 43.45882, -4228.1611328125], [-125.35481, 43.46677, -4262.0595703125], [-125.36567, 43.45989, -3514.58349609375]]], [[[-125.31201, 43.18852, -3544.91943359375], [-125.3069, 43.17889, -3488.550048828125], [-125.30083, 43.18293, -4075.777099609375], [-125.31201, 43.18852, -3544.91943359375]]], [[[-125.36806, 43.36577, -3968.324462890625], [-125.3762, 43.36235, -3450.7568359375], [-125.36842, 43.35756, -3967.6279296875], [-125.36806, 43.36577, -3968.324462890625]]], [[[-125.3069, 43.17889, -3488.550048828125], [-125.31201, 43.18852, -3544.91943359375], [-125.31743, 43.18225, -3061.830078125], [-125.3069, 43.17889, -3488.550048828125]]], [[[-125.25818, 43.02929, -3061.830078125], [-125.24639, 43.02582, -3812.103759765625], [-125.24569, 43.03378, -3823.98388671875], [-125.25818, 43.02929, -3061.830078125]]], [[[-125.31241, 43.17403, -3061.830078125], [-125.3069, 43.17889, -3488.550048828125], [-125.31743, 43.18225, -3061.830078125], [-125.31241, 43.17403, -3061.830078125]]], [[[-125.36383, 43.44598, -3794.092529296875], [-125.36226, 43.45012, -3837.9931640625], [-125.36947, 43.4509, -3422.118408203125], [-125.36383, 43.44598, -3794.092529296875]]], [[[-125.37045, 43.51452, -3708.628173828125], [-125.38358, 43.51793, -3061.830078125], [-125.38207, 43.509, -3061.830078125], [-125.37045, 43.51452, -3708.628173828125]]], [[[-125.30118, 43.17161, -3530.759033203125], [-125.3069, 43.17889, -3488.550048828125], [-125.31241, 43.17403, -3061.830078125], [-125.30118, 43.17161, -3530.759033203125]]], [[[-125.3762, 43.36235, -3450.7568359375], [-125.37518, 43.37149, -3475.75439453125], [-125.38456, 43.36748, -3061.830078125], [-125.3762, 43.36235, -3450.7568359375]]], [[[-125.37644, 43.54571, -3694.40185546875], [-125.38592, 43.53584, -3061.830078125], [-125.37179, 43.53965, -3879.135009765625], [-125.37644, 43.54571, -3694.40185546875]]], [[[-125.25188, 43.03664, -3421.6982421875], [-125.24569, 43.03378, -3823.98388671875], [-125.24507, 43.04061, -3834.402099609375], [-125.25188, 43.03664, -3421.6982421875]]], [[[-125.37619, 43.41545, -3492.2412109375], [-125.377, 43.40775, -3488.427001953125], [-125.36888, 43.41018, -4030.55322265625], [-125.37619, 43.41545, -3492.2412109375]]], [[[-125.3069, 43.17889, -3488.550048828125], [-125.30118, 43.17161, -3530.759033203125], [-125.29558, 43.17477, -4063.990478515625], [-125.3069, 43.17889, -3488.550048828125]]], [[[-125.37206, 43.52328, -3642.602294921875], [-125.36036, 43.51993, -4478.244140625], [-125.36066, 43.52883, -4519.70166015625], [-125.37206, 43.52328, -3642.602294921875]]], [[[-125.3069, 43.17889, -3488.550048828125], [-125.29558, 43.17477, -4063.990478515625], [-125.30083, 43.18293, -4075.777099609375], [-125.3069, 43.17889, -3488.550048828125]]], [[[-125.37031, 43.5055, -3649.769775390625], [-125.38056, 43.50007, -3061.830078125], [-125.36884, 43.49645, -3628.030029296875], [-125.37031, 43.5055, -3649.769775390625]]], [[[-125.37644, 43.54571, -3694.40185546875], [-125.37179, 43.53965, -3879.135009765625], [-125.36423, 43.5464, -4590.1845703125], [-125.37644, 43.54571, -3694.40185546875]]], [[[-125.30118, 43.17161, -3530.759033203125], [-125.29014, 43.16668, -4053.049560546875], [-125.29558, 43.17477, -4063.990478515625], [-125.30118, 43.17161, -3530.759033203125]]], [[[-125.30118, 43.17161, -3530.759033203125], [-125.29599, 43.16353, -3511.356201171875], [-125.29014, 43.16668, -4053.049560546875], [-125.30118, 43.17161, -3530.759033203125]]], [[[-125.36551, 43.47854, -3568.7568359375], [-125.37755, 43.4822, -3061.830078125], [-125.37604, 43.47327, -3061.830078125], [-125.36551, 43.47854, -3568.7568359375]]], [[[-125.29599, 43.16353, -3511.356201171875], [-125.30118, 43.17161, -3530.759033203125], [-125.3076, 43.16575, -3061.830078125], [-125.29599, 43.16353, -3511.356201171875]]], [[[-125.23262, 42.97118, -3558.26513671875], [-125.24218, 42.98009, -3414.35009765625], [-125.24284, 42.97033, -3061.830078125], [-125.23262, 42.97118, -3558.26513671875]]], [[[-125.30204, 43.15774, -3061.830078125], [-125.29599, 43.16353, -3511.356201171875], [-125.3076, 43.16575, -3061.830078125], [-125.30204, 43.15774, -3061.830078125]]], [[[-125.25974, 43.02038, -3061.830078125], [-125.24671, 43.01795, -3805.41015625], [-125.24639, 43.02582, -3812.103759765625], [-125.25974, 43.02038, -3061.830078125]]], [[[-125.29027, 43.15419, -3472.30224609375], [-125.29599, 43.16353, -3511.356201171875], [-125.30204, 43.15774, -3061.830078125], [-125.29027, 43.15419, -3472.30224609375]]], [[[-125.29599, 43.16353, -3511.356201171875], [-125.29027, 43.15419, -3472.30224609375], [-125.28456, 43.15864, -4045.1005859375], [-125.29599, 43.16353, -3511.356201171875]]], [[[-125.29599, 43.16353, -3511.356201171875], [-125.28456, 43.15864, -4045.1005859375], [-125.29014, 43.16668, -4053.049560546875], [-125.29599, 43.16353, -3511.356201171875]]], [[[-125.25057, 43.05069, -3452.563720703125], [-125.24454, 43.05596, -3867.758056640625], [-125.25782, 43.05612, -3061.830078125], [-125.25057, 43.05069, -3452.563720703125]]], [[[-125.36708, 43.48751, -3594.027099609375], [-125.35794, 43.49333, -4364.5849609375], [-125.36884, 43.49645, -3628.030029296875], [-125.36708, 43.48751, -3594.027099609375]]], [[[-125.29027, 43.15419, -3472.30224609375], [-125.27917, 43.15054, -4036.78076171875], [-125.28456, 43.15864, -4045.1005859375], [-125.29027, 43.15419, -3472.30224609375]]], [[[-125.25818, 43.02929, -3061.830078125], [-125.25188, 43.03664, -3421.6982421875], [-125.25933, 43.03825, -3061.830078125], [-125.25818, 43.02929, -3061.830078125]]], [[[-125.29027, 43.15419, -3472.30224609375], [-125.28477, 43.14563, -3468.475341796875], [-125.27917, 43.15054, -4036.78076171875], [-125.29027, 43.15419, -3472.30224609375]]], [[[-125.37045, 43.51452, -3708.628173828125], [-125.37206, 43.52328, -3642.602294921875], [-125.38358, 43.51793, -3061.830078125], [-125.37045, 43.51452, -3708.628173828125]]], [[[-125.35509, 43.28196, -3484.466796875], [-125.36791, 43.28114, -3061.830078125], [-125.36174, 43.27337, -3061.830078125], [-125.35509, 43.28196, -3484.466796875]]], [[[-125.28477, 43.14563, -3468.475341796875], [-125.29027, 43.15419, -3472.30224609375], [-125.29618, 43.14983, -3061.830078125], [-125.28477, 43.14563, -3468.475341796875]]], [[[-125.28477, 43.14563, -3468.475341796875], [-125.29618, 43.14983, -3061.830078125], [-125.29101, 43.14166, -3061.830078125], [-125.28477, 43.14563, -3468.475341796875]]], [[[-125.37308, 43.53208, -3656.11083984375], [-125.38509, 43.52686, -3061.830078125], [-125.37206, 43.52328, -3642.602294921875], [-125.37308, 43.53208, -3656.11083984375]]], [[[-125.27969, 43.13803, -3491.615234375], [-125.28477, 43.14563, -3468.475341796875], [-125.29101, 43.14166, -3061.830078125], [-125.27969, 43.13803, -3491.615234375]]], [[[-125.28477, 43.14563, -3468.475341796875], [-125.27969, 43.13803, -3491.615234375], [-125.27417, 43.1423, -4026.61962890625], [-125.28477, 43.14563, -3468.475341796875]]], [[[-125.36228, 43.45514, -3765.36279296875], [-125.35567, 43.45882, -4228.1611328125], [-125.36567, 43.45989, -3514.58349609375], [-125.36228, 43.45514, -3765.36279296875]]], [[[-125.24218, 42.98009, -3414.35009765625], [-125.23397, 42.97862, -3860.052001953125], [-125.23794, 42.98463, -3847.750244140625], [-125.24218, 42.98009, -3414.35009765625]]], [[[-125.28477, 43.14563, -3468.475341796875], [-125.27417, 43.1423, -4026.61962890625], [-125.27917, 43.15054, -4036.78076171875], [-125.28477, 43.14563, -3468.475341796875]]], [[[-125.25057, 43.05069, -3452.563720703125], [-125.25971, 43.04724, -3061.830078125], [-125.25118, 43.04334, -3447.416259765625], [-125.25057, 43.05069, -3452.563720703125]]], [[[-125.27969, 43.13803, -3491.615234375], [-125.2695, 43.13395, -4014.9404296875], [-125.27417, 43.1423, -4026.61962890625], [-125.27969, 43.13803, -3491.615234375]]], [[[-125.37045, 43.51452, -3708.628173828125], [-125.38207, 43.509, -3061.830078125], [-125.37031, 43.5055, -3649.769775390625], [-125.37045, 43.51452, -3708.628173828125]]], [[[-125.27585, 43.13164, -3508.457763671875], [-125.27969, 43.13803, -3491.615234375], [-125.28627, 43.13336, -3061.830078125], [-125.27585, 43.13164, -3508.457763671875]]], [[[-125.27585, 43.13164, -3508.457763671875], [-125.28215, 43.12488, -3061.830078125], [-125.27355, 43.12426, -3460.4931640625], [-125.27585, 43.13164, -3508.457763671875]]], [[[-125.27036, 43.11585, -3443.92041015625], [-125.26239, 43.11669, -3981.9423828125], [-125.26583, 43.12535, -3998.82421875], [-125.27036, 43.11585, -3443.92041015625]]], [[[-125.36709, 43.55506, -4620.646484375], [-125.37313, 43.55458, -4173.93017578125], [-125.36423, 43.5464, -4590.1845703125], [-125.36709, 43.55506, -4620.646484375]]], [[[-125.26716, 43.10722, -3438.41259765625], [-125.25918, 43.10812, -3965.200439453125], [-125.26239, 43.11669, -3981.9423828125], [-125.26716, 43.10722, -3438.41259765625]]], [[[-125.24218, 42.98009, -3414.35009765625], [-125.24423, 42.98606, -3490.62451171875], [-125.25296, 42.98531, -3061.830078125], [-125.24218, 42.98009, -3414.35009765625]]], [[[-125.36567, 43.45989, -3514.58349609375], [-125.37654, 43.4643, -3061.830078125], [-125.37824, 43.45541, -3061.830078125], [-125.36567, 43.45989, -3514.58349609375]]], [[[-125.36433, 43.46934, -3574.100830078125], [-125.37604, 43.47327, -3061.830078125], [-125.37654, 43.4643, -3061.830078125], [-125.36433, 43.46934, -3574.100830078125]]], [[[-125.26355, 43.09879, -3426.703125], [-125.26833, 43.09036, -3061.830078125], [-125.25941, 43.0903, -3426.42529296875], [-125.26355, 43.09879, -3426.703125]]], [[[-125.26716, 43.10722, -3438.41259765625], [-125.27237, 43.09885, -3061.830078125], [-125.26355, 43.09879, -3426.703125], [-125.26716, 43.10722, -3438.41259765625]]], [[[-125.27036, 43.11585, -3443.92041015625], [-125.27355, 43.12426, -3460.4931640625], [-125.27859, 43.11626, -3061.830078125], [-125.27036, 43.11585, -3443.92041015625]]], [[[-125.25646, 43.06505, -3061.830078125], [-125.24458, 43.07399, -3913.575439453125], [-125.25844, 43.07391, -3061.830078125], [-125.25646, 43.06505, -3061.830078125]]], [[[-125.25057, 43.05069, -3452.563720703125], [-125.24472, 43.0476, -3849.060791015625], [-125.24454, 43.05596, -3867.758056640625], [-125.25057, 43.05069, -3452.563720703125]]], [[[-125.33198, 43.24139, -4168.26904296875], [-125.33803, 43.23195, -3562.314208984375], [-125.33011, 43.23259, -4151.17041015625], [-125.33198, 43.24139, -4168.26904296875]]], [[[-125.36567, 43.45989, -3514.58349609375], [-125.35481, 43.46677, -4262.0595703125], [-125.36433, 43.46934, -3574.100830078125], [-125.36567, 43.45989, -3514.58349609375]]], [[[-125.25933, 43.03825, -3061.830078125], [-125.25118, 43.04334, -3447.416259765625], [-125.25971, 43.04724, -3061.830078125], [-125.25933, 43.03825, -3061.830078125]]], [[[-125.25974, 43.02038, -3061.830078125], [-125.24639, 43.02582, -3812.103759765625], [-125.25818, 43.02929, -3061.830078125], [-125.25974, 43.02038, -3061.830078125]]], [[[-125.36358, 43.29927, -3558.26513671875], [-125.37385, 43.29841, -3061.830078125], [-125.37192, 43.28952, -3061.830078125], [-125.36358, 43.29927, -3558.26513671875]]], [[[-125.25303, 43.01443, -3405.6640625], [-125.24671, 43.01795, -3805.41015625], [-125.25974, 43.02038, -3061.830078125], [-125.25303, 43.01443, -3405.6640625]]], [[[-125.25209, 43.00835, -3445.697998046875], [-125.24655, 43.01156, -3805.63671875], [-125.25303, 43.01443, -3405.6640625], [-125.25209, 43.00835, -3445.697998046875]]], [[[-125.25118, 43.00301, -3452.79296875], [-125.24594, 43.00618, -3806.89794921875], [-125.25209, 43.00835, -3445.697998046875], [-125.25118, 43.00301, -3452.79296875]]], [[[-125.36551, 43.47854, -3568.7568359375], [-125.36708, 43.48751, -3594.027099609375], [-125.37755, 43.4822, -3061.830078125], [-125.36551, 43.47854, -3568.7568359375]]], [[[-125.25118, 43.00301, -3452.79296875], [-125.24481, 43.00055, -3810.35498046875], [-125.24594, 43.00618, -3806.89794921875], [-125.25118, 43.00301, -3452.79296875]]], [[[-125.24423, 42.98606, -3490.62451171875], [-125.24218, 42.98009, -3414.35009765625], [-125.23794, 42.98463, -3847.750244140625], [-125.24423, 42.98606, -3490.62451171875]]], [[[-125.24218, 42.98009, -3414.35009765625], [-125.25296, 42.98531, -3061.830078125], [-125.24753, 42.97724, -3061.830078125], [-125.24218, 42.98009, -3414.35009765625]]], [[[-125.24284, 42.97033, -3061.830078125], [-125.24218, 42.98009, -3414.35009765625], [-125.24753, 42.97724, -3061.830078125], [-125.24284, 42.97033, -3061.830078125]]], [[[-125.27969, 43.13803, -3491.615234375], [-125.29101, 43.14166, -3061.830078125], [-125.28627, 43.13336, -3061.830078125], [-125.27969, 43.13803, -3491.615234375]]], [[[-125.36567, 43.45989, -3514.58349609375], [-125.36433, 43.46934, -3574.100830078125], [-125.37654, 43.4643, -3061.830078125], [-125.36567, 43.45989, -3514.58349609375]]], [[[-125.37644, 43.54571, -3694.40185546875], [-125.37313, 43.55458, -4173.93017578125], [-125.38145, 43.55391, -3558.26513671875], [-125.37644, 43.54571, -3694.40185546875]]], [[[-125.34174, 43.24432, -3514.34912109375], [-125.34338, 43.25337, -3511.097900390625], [-125.35454, 43.24837, -3061.830078125], [-125.34174, 43.24432, -3514.34912109375]]], [[[-125.25209, 43.00835, -3445.697998046875], [-125.25973, 43.00254, -3061.830078125], [-125.25118, 43.00301, -3452.79296875], [-125.25209, 43.00835, -3445.697998046875]]], [[[-125.37516, 43.38094, -3498.198974609375], [-125.37583, 43.3903, -3503.192626953125], [-125.38402, 43.38545, -3061.830078125], [-125.37516, 43.38094, -3498.198974609375]]], [[[-125.34425, 43.26089, -3537.840576171875], [-125.35445, 43.26612, -3061.830078125], [-125.35541, 43.25719, -3061.830078125], [-125.34425, 43.26089, -3537.840576171875]]], [[[-125.37583, 43.3903, -3503.192626953125], [-125.37676, 43.39929, -3494.75], [-125.38512, 43.39441, -3061.830078125], [-125.37583, 43.3903, -3503.192626953125]]], [[[-125.37619, 43.41545, -3492.2412109375], [-125.36888, 43.41018, -4030.55322265625], [-125.36769, 43.41904, -4057.468994140625], [-125.37619, 43.41545, -3492.2412109375]]], [[[-125.37031, 43.5055, -3649.769775390625], [-125.38207, 43.509, -3061.830078125], [-125.38056, 43.50007, -3061.830078125], [-125.37031, 43.5055, -3649.769775390625]]], [[[-125.36423, 43.5464, -4590.1845703125], [-125.37179, 43.53965, -3879.135009765625], [-125.36179, 43.53768, -4557.62060546875], [-125.36423, 43.5464, -4590.1845703125]]], [[[-125.37308, 43.53208, -3656.11083984375], [-125.36179, 43.53768, -4557.62060546875], [-125.37179, 43.53965, -3879.135009765625], [-125.37308, 43.53208, -3656.11083984375]]], [[[-125.37308, 43.53208, -3656.11083984375], [-125.36066, 43.52883, -4519.70166015625], [-125.36179, 43.53768, -4557.62060546875], [-125.37308, 43.53208, -3656.11083984375]]], [[[-125.38509, 43.52686, -3061.830078125], [-125.38358, 43.51793, -3061.830078125], [-125.37206, 43.52328, -3642.602294921875], [-125.38509, 43.52686, -3061.830078125]]], [[[-125.37045, 43.51452, -3708.628173828125], [-125.36034, 43.51103, -4436.12060546875], [-125.36036, 43.51993, -4478.244140625], [-125.37045, 43.51452, -3708.628173828125]]], [[[-125.37045, 43.51452, -3708.628173828125], [-125.37031, 43.5055, -3649.769775390625], [-125.36034, 43.51103, -4436.12060546875], [-125.37045, 43.51452, -3708.628173828125]]], [[[-125.37031, 43.5055, -3649.769775390625], [-125.35957, 43.50215, -4398.48828125], [-125.36034, 43.51103, -4436.12060546875], [-125.37031, 43.5055, -3649.769775390625]]], [[[-125.37031, 43.5055, -3649.769775390625], [-125.36884, 43.49645, -3628.030029296875], [-125.35957, 43.50215, -4398.48828125], [-125.37031, 43.5055, -3649.769775390625]]], [[[-125.36884, 43.49645, -3628.030029296875], [-125.35794, 43.49333, -4364.5849609375], [-125.35957, 43.50215, -4398.48828125], [-125.36884, 43.49645, -3628.030029296875]]], [[[-125.36708, 43.48751, -3594.027099609375], [-125.37906, 43.49113, -3061.830078125], [-125.37755, 43.4822, -3061.830078125], [-125.36708, 43.48751, -3594.027099609375]]], [[[-125.35614, 43.48453, -4332.892578125], [-125.36551, 43.47854, -3568.7568359375], [-125.35502, 43.47567, -4299.16845703125], [-125.35614, 43.48453, -4332.892578125]]], [[[-125.36433, 43.46934, -3574.100830078125], [-125.35502, 43.47567, -4299.16845703125], [-125.36551, 43.47854, -3568.7568359375], [-125.36433, 43.46934, -3574.100830078125]]], [[[-125.35502, 43.47567, -4299.16845703125], [-125.36433, 43.46934, -3574.100830078125], [-125.35481, 43.46677, -4262.0595703125], [-125.35502, 43.47567, -4299.16845703125]]], [[[-125.36553, 43.42779, -4087.3671875], [-125.37367, 43.42281, -3568.19140625], [-125.36769, 43.41904, -4057.468994140625], [-125.36553, 43.42779, -4087.3671875]]], [[[-125.37619, 43.41545, -3492.2412109375], [-125.38471, 43.42115, -3061.830078125], [-125.38672, 43.41234, -3061.830078125], [-125.37619, 43.41545, -3492.2412109375]]], [[[-125.377, 43.40775, -3488.427001953125], [-125.36931, 43.40129, -4010.609375], [-125.36888, 43.41018, -4030.55322265625], [-125.377, 43.40775, -3488.427001953125]]], [[[-125.37676, 43.39929, -3494.75], [-125.38661, 43.40335, -3061.830078125], [-125.38512, 43.39441, -3061.830078125], [-125.37676, 43.39929, -3494.75]]], [[[-125.37583, 43.3903, -3503.192626953125], [-125.36841, 43.3835, -3982.170654296875], [-125.36897, 43.39239, -3994.84814453125], [-125.37583, 43.3903, -3503.192626953125]]], [[[-125.37518, 43.37149, -3475.75439453125], [-125.36806, 43.36577, -3968.324462890625], [-125.36799, 43.3746, -3974.968017578125], [-125.37518, 43.37149, -3475.75439453125]]], [[[-125.23397, 42.97862, -3860.052001953125], [-125.24218, 42.98009, -3414.35009765625], [-125.23262, 42.97118, -3558.26513671875], [-125.23397, 42.97862, -3860.052001953125]]], [[[-125.22812, 42.97154, -3894.197265625], [-125.23397, 42.97862, -3860.052001953125], [-125.23262, 42.97118, -3558.26513671875], [-125.22812, 42.97154, -3894.197265625]]], [[[-125.37313, 43.55458, -4173.93017578125], [-125.37644, 43.54571, -3694.40185546875], [-125.36423, 43.5464, -4590.1845703125], [-125.37313, 43.55458, -4173.93017578125]]], [[[-125.38145, 43.55391, -3558.26513671875], [-125.39177, 43.55304, -3061.830078125], [-125.38747, 43.54477, -3061.830078125], [-125.38145, 43.55391, -3558.26513671875]]], [[[-125.37644, 43.54571, -3694.40185546875], [-125.38145, 43.55391, -3558.26513671875], [-125.38747, 43.54477, -3061.830078125], [-125.37644, 43.54571, -3694.40185546875]]]]}}]}