{"type": "FeatureCollection", "features": [{"type": "Feature", "properties": {"name": "AW_VANC_1", "CFM_ID": 248, "region": "Offshore_BC", "primary_state/province": "BC", "secondary_state/province": null, "avg_dip": 60, "dip_dir": "NE", "rake": 90, "slip_sense": "Reverse", "fault_level": 2, "NSHM23_sliprates": null, "QFFDAgeCatBin": null, "QFFDAgeBin": null, "upper_depth": -2.3, "upper_depth_constraint": "seismic imaging", "lower_depth": -5.7, "lower_depth_constraint": "megathrust", "3D_model_constraints": "trace and 1 MCS line", "reference": "Lucas et al. (2025); Carbotte et al. (2023)", "nshm23_id": null, "lineage": null, "usgs_qffd_#": null, "comments": "vergence from USGS sparker line", "id": "248"}, "geometry": {"type": "MultiPolygon", "coordinates": [[[[-128.17063, 49.62846, -3896.08813477], [-128.1856, 49.62797, -3803.57250977], [-128.17924, 49.62341, -3128.35791016], [-128.17063, 49.62846, -3896.08813477]]], [[[-128.26626, 49.6137, -2857.21313477], [-128.27574, 49.61926, -3438.22998047], [-128.27735, 49.61601, -2874.83618164], [-128.26626, 49.6137, -2857.21313477]]], [[[-128.44914, 49.63363, -2810.24023438], [-128.45981, 49.62752, -2324.35009766], [-128.44601, 49.62799, -2324.35009766], [-128.44914, 49.63363, -2810.24023438]]], [[[-128.2089, 49.6213, -2837.73535156], [-128.19967, 49.62008, -2712.52783203], [-128.20193, 49.62439, -3215.36767578], [-128.2089, 49.6213, -2837.73535156]]], [[[-128.2089, 49.6213, -2837.73535156], [-128.21965, 49.62176, -3262.51806641], [-128.21627, 49.61898, -2652.84399414], [-128.2089, 49.6213, -2837.73535156]]], [[[-128.55255, 49.68718, -3369.02758789], [-128.55424, 49.67953, -2759.61206055], [-128.54231, 49.68115, -3353.63916016], [-128.55255, 49.68718, -3369.02758789]]], [[[-128.20193, 49.62439, -3215.36767578], [-128.19967, 49.62008, -2712.52783203], [-128.19199, 49.62395, -3189.66650391], [-128.20193, 49.62439, -3215.36767578]]], [[[-128.18765, 49.61973, -2742.4284668], [-128.19408, 49.61383, -2324.35009766], [-128.17494, 49.61735, -2324.35009766], [-128.18765, 49.61973, -2742.4284668]]], [[[-128.5645, 49.68594, -2778.27246094], [-128.55424, 49.67953, -2759.61206055], [-128.55255, 49.68718, -3369.02758789], [-128.5645, 49.68594, -2778.27246094]]], [[[-128.43966, 49.63317, -2817.75610352], [-128.43414, 49.63751, -3334.41552734], [-128.44298, 49.63728, -3302.97387695], [-128.43966, 49.63317, -2817.75610352]]], [[[-128.39029, 49.62464, -2787.71850586], [-128.38317, 49.62978, -3459.94995117], [-128.39686, 49.63094, -3415.10986328], [-128.39029, 49.62464, -2787.71850586]]], [[[-128.17166, 49.63384, -4746.28027344], [-128.15994, 49.63442, -4780.515625], [-128.16656, 49.63932, -5528.01708984], [-128.17166, 49.63384, -4746.28027344]]], [[[-128.5645, 49.68594, -2778.27246094], [-128.56755, 49.67729, -2324.35009766], [-128.55424, 49.67953, -2759.61206055], [-128.5645, 49.68594, -2778.27246094]]], [[[-128.22061, 49.62512, -4068.86499023], [-128.2182, 49.62967, -4954.90332031], [-128.23059, 49.62729, -4758.87011719], [-128.22061, 49.62512, -4068.86499023]]], [[[-128.41999, 49.62864, -2762.59887695], [-128.40554, 49.62581, -2742.18286133], [-128.41034, 49.63288, -3381.49487305], [-128.41999, 49.62864, -2762.59887695]]], [[[-128.43083, 49.63197, -2815.71264648], [-128.43327, 49.62493, -2324.35009766], [-128.41999, 49.62864, -2762.59887695], [-128.43083, 49.63197, -2815.71264648]]], [[[-128.26209, 49.61951, -3585.75488281], [-128.24838, 49.62003, -3763.02124023], [-128.25712, 49.62487, -4399.00390625], [-128.26209, 49.61951, -3585.75488281]]], [[[-128.33796, 49.62055, -3118.30664062], [-128.33049, 49.61577, -2854.73706055], [-128.33291, 49.6243, -3651.84008789], [-128.33796, 49.62055, -3118.30664062]]], [[[-128.2089, 49.6213, -2837.73535156], [-128.21001, 49.62493, -3479.71582031], [-128.21965, 49.62176, -3262.51806641], [-128.2089, 49.6213, -2837.73535156]]], [[[-128.17063, 49.62846, -3896.08813477], [-128.15994, 49.63442, -4780.515625], [-128.17166, 49.63384, -4746.28027344], [-128.17063, 49.62846, -3896.08813477]]], [[[-128.37649, 49.62316, -2811.08789062], [-128.36648, 49.61521, -2324.35009766], [-128.36277, 49.62187, -2837.66967773], [-128.37649, 49.62316, -2811.08789062]]], [[[-128.43966, 49.63317, -2817.75610352], [-128.44914, 49.63363, -2810.24023438], [-128.44601, 49.62799, -2324.35009766], [-128.43966, 49.63317, -2817.75610352]]], [[[-128.15275, 49.63937, -5567.73974609], [-128.15994, 49.63442, -4780.515625], [-128.14532, 49.63844, -5051.97558594], [-128.15275, 49.63937, -5567.73974609]]], [[[-128.44914, 49.63363, -2810.24023438], [-128.43966, 49.63317, -2817.75610352], [-128.44298, 49.63728, -3302.97387695], [-128.44914, 49.63363, -2810.24023438]]], [[[-128.56755, 49.67729, -2324.35009766], [-128.5645, 49.68594, -2778.27246094], [-128.57704, 49.68371, -2324.35009766], [-128.56755, 49.67729, -2324.35009766]]], [[[-128.37649, 49.62316, -2811.08789062], [-128.38317, 49.62978, -3459.94995117], [-128.39029, 49.62464, -2787.71850586], [-128.37649, 49.62316, -2811.08789062]]], [[[-128.52647, 49.66541, -2764.90966797], [-128.53618, 49.66035, -2324.35009766], [-128.52379, 49.65786, -2324.35009766], [-128.52647, 49.66541, -2764.90966797]]], [[[-128.22061, 49.62512, -4068.86499023], [-128.23059, 49.62729, -4758.87011719], [-128.23387, 49.62145, -3851.39208984], [-128.22061, 49.62512, -4068.86499023]]], [[[-128.32359, 49.62204, -3684.40478516], [-128.33291, 49.6243, -3651.84008789], [-128.33049, 49.61577, -2854.73706055], [-128.32359, 49.62204, -3684.40478516]]], [[[-128.40554, 49.62581, -2742.18286133], [-128.42042, 49.62167, -2324.35009766], [-128.40701, 49.62002, -2324.35009766], [-128.40554, 49.62581, -2742.18286133]]], [[[-128.21627, 49.61898, -2652.84399414], [-128.21965, 49.62176, -3262.51806641], [-128.22776, 49.6176, -2925.11547852], [-128.21627, 49.61898, -2652.84399414]]], [[[-128.40554, 49.62581, -2742.18286133], [-128.39686, 49.63094, -3415.10986328], [-128.41034, 49.63288, -3381.49487305], [-128.40554, 49.62581, -2742.18286133]]], [[[-128.19967, 49.62008, -2712.52783203], [-128.18765, 49.61973, -2742.4284668], [-128.19199, 49.62395, -3189.66650391], [-128.19967, 49.62008, -2712.52783203]]], [[[-128.17063, 49.62846, -3896.08813477], [-128.15649, 49.63064, -3851.95019531], [-128.15994, 49.63442, -4780.515625], [-128.17063, 49.62846, -3896.08813477]]], [[[-128.57454, 49.69245, -2770.78955078], [-128.57704, 49.68371, -2324.35009766], [-128.5645, 49.68594, -2778.27246094], [-128.57454, 49.69245, -2770.78955078]]], [[[-128.43083, 49.63197, -2815.71264648], [-128.43414, 49.63751, -3334.41552734], [-128.43966, 49.63317, -2817.75610352], [-128.43083, 49.63197, -2815.71264648]]], [[[-128.41999, 49.62864, -2762.59887695], [-128.41034, 49.63288, -3381.49487305], [-128.42301, 49.63573, -3359.58007812], [-128.41999, 49.62864, -2762.59887695]]], [[[-128.57454, 49.69245, -2770.78955078], [-128.5862, 49.69036, -2324.35009766], [-128.57704, 49.68371, -2324.35009766], [-128.57454, 49.69245, -2770.78955078]]], [[[-128.45949, 49.6354, -2783.65820312], [-128.44914, 49.63363, -2810.24023438], [-128.45143, 49.63861, -3287.36352539], [-128.45949, 49.6354, -2783.65820312]]], [[[-128.2089, 49.6213, -2837.73535156], [-128.20193, 49.62439, -3215.36767578], [-128.21001, 49.62493, -3479.71582031], [-128.2089, 49.6213, -2837.73535156]]], [[[-128.57454, 49.69245, -2770.78955078], [-128.58673, 49.69696, -2660.27807617], [-128.5862, 49.69036, -2324.35009766], [-128.57454, 49.69245, -2770.78955078]]], [[[-128.33796, 49.62055, -3118.30664062], [-128.34141, 49.60981, -2324.35009766], [-128.33049, 49.61577, -2854.73706055], [-128.33796, 49.62055, -3118.30664062]]], [[[-128.57454, 49.69245, -2770.78955078], [-128.57866, 49.69855, -3006.27832031], [-128.58673, 49.69696, -2660.27807617], [-128.57454, 49.69245, -2770.78955078]]], [[[-128.18327, 49.63346, -4601.46337891], [-128.19343, 49.63645, -5305.01513672], [-128.19618, 49.63186, -4434.390625], [-128.18327, 49.63346, -4601.46337891]]], [[[-128.50166, 49.64756, -2324.35009766], [-128.50402, 49.65697, -2763.03466797], [-128.51319, 49.65211, -2324.35009766], [-128.50166, 49.64756, -2324.35009766]]], [[[-128.18327, 49.63346, -4601.46337891], [-128.18033, 49.63899, -5456.5078125], [-128.19343, 49.63645, -5305.01513672], [-128.18327, 49.63346, -4601.46337891]]], [[[-128.19865, 49.62765, -3670.65917969], [-128.19618, 49.63186, -4434.390625], [-128.20784, 49.62902, -4212.39111328], [-128.19865, 49.62765, -3670.65917969]]], [[[-128.17924, 49.62341, -3128.35791016], [-128.18765, 49.61973, -2742.4284668], [-128.17494, 49.61735, -2324.35009766], [-128.17924, 49.62341, -3128.35791016]]], [[[-128.3002, 49.60832, -2324.35009766], [-128.30478, 49.61482, -2874.83618164], [-128.31393, 49.60816, -2324.35009766], [-128.3002, 49.60832, -2324.35009766]]], [[[-128.57454, 49.69245, -2770.78955078], [-128.57026, 49.6989, -3402.55053711], [-128.57866, 49.69855, -3006.27832031], [-128.57454, 49.69245, -2770.78955078]]], [[[-128.14532, 49.63844, -5051.97558594], [-128.15994, 49.63442, -4780.515625], [-128.15089, 49.63454, -4451.29980469], [-128.14532, 49.63844, -5051.97558594]]], [[[-128.57454, 49.69245, -2770.78955078], [-128.56223, 49.69335, -3385.97802734], [-128.57026, 49.6989, -3402.55053711], [-128.57454, 49.69245, -2770.78955078]]], [[[-128.27574, 49.61926, -3438.22998047], [-128.27067, 49.62448, -4223.60253906], [-128.28412, 49.62298, -4065.86816406], [-128.27574, 49.61926, -3438.22998047]]], [[[-128.20193, 49.62439, -3215.36767578], [-128.19865, 49.62765, -3670.65917969], [-128.21001, 49.62493, -3479.71582031], [-128.20193, 49.62439, -3215.36767578]]], [[[-128.57454, 49.69245, -2770.78955078], [-128.5645, 49.68594, -2778.27246094], [-128.56223, 49.69335, -3385.97802734], [-128.57454, 49.69245, -2770.78955078]]], [[[-128.33049, 49.61577, -2854.73706055], [-128.32773, 49.60859, -2324.35009766], [-128.31841, 49.61606, -3013.609375], [-128.33049, 49.61577, -2854.73706055]]], [[[-128.21965, 49.62176, -3262.51806641], [-128.23387, 49.62145, -3851.39208984], [-128.22776, 49.6176, -2925.11547852], [-128.21965, 49.62176, -3262.51806641]]], [[[-128.25453, 49.61413, -2949.80322266], [-128.26626, 49.6137, -2857.21313477], [-128.26007, 49.60674, -2324.35009766], [-128.25453, 49.61413, -2949.80322266]]], [[[-128.55255, 49.68718, -3369.02758789], [-128.56223, 49.69335, -3385.97802734], [-128.5645, 49.68594, -2778.27246094], [-128.55255, 49.68718, -3369.02758789]]], [[[-128.63381, 49.71554, -3308.34130859], [-128.6379, 49.71258, -2874.83618164], [-128.62151, 49.71097, -3317.91381836], [-128.63381, 49.71554, -3308.34130859]]], [[[-128.19618, 49.63186, -4434.390625], [-128.19343, 49.63645, -5305.01513672], [-128.20613, 49.63324, -5141.02539062], [-128.19618, 49.63186, -4434.390625]]], [[[-128.17063, 49.62846, -3896.08813477], [-128.16577, 49.624, -2874.83618164], [-128.15649, 49.63064, -3851.95019531], [-128.17063, 49.62846, -3896.08813477]]], [[[-128.17166, 49.63384, -4746.28027344], [-128.18033, 49.63899, -5456.5078125], [-128.18327, 49.63346, -4601.46337891], [-128.17166, 49.63384, -4746.28027344]]], [[[-128.17063, 49.62846, -3896.08813477], [-128.17924, 49.62341, -3128.35791016], [-128.16577, 49.624, -2874.83618164], [-128.17063, 49.62846, -3896.08813477]]], [[[-128.19865, 49.62765, -3670.65917969], [-128.1856, 49.62797, -3803.57250977], [-128.19618, 49.63186, -4434.390625], [-128.19865, 49.62765, -3670.65917969]]], [[[-128.34141, 49.60981, -2324.35009766], [-128.34914, 49.62019, -2876.24316406], [-128.35354, 49.61366, -2324.35009766], [-128.34141, 49.60981, -2324.35009766]]], [[[-128.42042, 49.62167, -2324.35009766], [-128.41999, 49.62864, -2762.59887695], [-128.43327, 49.62493, -2324.35009766], [-128.42042, 49.62167, -2324.35009766]]], [[[-128.27735, 49.61601, -2874.83618164], [-128.2865, 49.60935, -2324.35009766], [-128.27309, 49.60729, -2324.35009766], [-128.27735, 49.61601, -2874.83618164]]], [[[-128.57866, 49.69855, -3006.27832031], [-128.57026, 49.6989, -3402.55053711], [-128.57691, 49.70286, -3410.89160156], [-128.57866, 49.69855, -3006.27832031]]], [[[-128.17063, 49.62846, -3896.08813477], [-128.17166, 49.63384, -4746.28027344], [-128.18327, 49.63346, -4601.46337891], [-128.17063, 49.62846, -3896.08813477]]], [[[-128.53494, 49.6688, -2782.18164062], [-128.54403, 49.67398, -2766.92358398], [-128.5467, 49.66556, -2324.35009766], [-128.53494, 49.6688, -2782.18164062]]], [[[-128.33796, 49.62055, -3118.30664062], [-128.34914, 49.62019, -2876.24316406], [-128.34141, 49.60981, -2324.35009766], [-128.33796, 49.62055, -3118.30664062]]], [[[-128.31841, 49.61606, -3013.609375], [-128.31144, 49.62182, -3800.38647461], [-128.32359, 49.62204, -3684.40478516], [-128.31841, 49.61606, -3013.609375]]], [[[-128.57866, 49.69855, -3006.27832031], [-128.57691, 49.70286, -3410.89160156], [-128.58564, 49.70215, -3018.50097656], [-128.57866, 49.69855, -3006.27832031]]], [[[-128.58673, 49.69696, -2660.27807617], [-128.57866, 49.69855, -3006.27832031], [-128.58564, 49.70215, -3018.50097656], [-128.58673, 49.69696, -2660.27807617]]], [[[-128.20784, 49.62902, -4212.39111328], [-128.20613, 49.63324, -5141.02539062], [-128.2182, 49.62967, -4954.90332031], [-128.20784, 49.62902, -4212.39111328]]], [[[-128.34914, 49.62019, -2876.24316406], [-128.34313, 49.62599, -3614.30371094], [-128.35591, 49.62706, -3561.10131836], [-128.34914, 49.62019, -2876.24316406]]], [[[-128.58673, 49.69696, -2660.27807617], [-128.58564, 49.70215, -3018.50097656], [-128.59545, 49.70094, -2871.13500977], [-128.58673, 49.69696, -2660.27807617]]], [[[-128.52647, 49.66541, -2764.90966797], [-128.53494, 49.6688, -2782.18164062], [-128.53618, 49.66035, -2324.35009766], [-128.52647, 49.66541, -2764.90966797]]], [[[-128.31393, 49.60816, -2324.35009766], [-128.31841, 49.61606, -3013.609375], [-128.32773, 49.60859, -2324.35009766], [-128.31393, 49.60816, -2324.35009766]]], [[[-128.58673, 49.69696, -2660.27807617], [-128.59545, 49.70094, -2871.13500977], [-128.59762, 49.6954, -2324.35009766], [-128.58673, 49.69696, -2660.27807617]]], [[[-128.47669, 49.64556, -2778.55834961], [-128.4829, 49.65087, -2840.00268555], [-128.48936, 49.64514, -2324.35009766], [-128.47669, 49.64556, -2778.55834961]]], [[[-128.24147, 49.6157, -3053.88256836], [-128.22776, 49.6176, -2925.11547852], [-128.23387, 49.62145, -3851.39208984], [-128.24147, 49.6157, -3053.88256836]]], [[[-128.1856, 49.62797, -3803.57250977], [-128.17063, 49.62846, -3896.08813477], [-128.18327, 49.63346, -4601.46337891], [-128.1856, 49.62797, -3803.57250977]]], [[[-128.36277, 49.62187, -2837.66967773], [-128.35354, 49.61366, -2324.35009766], [-128.34914, 49.62019, -2876.24316406], [-128.36277, 49.62187, -2837.66967773]]], [[[-128.23387, 49.62145, -3851.39208984], [-128.24359, 49.62555, -4583.41308594], [-128.24838, 49.62003, -3763.02124023], [-128.23387, 49.62145, -3851.39208984]]], [[[-128.58673, 49.69696, -2660.27807617], [-128.59762, 49.6954, -2324.35009766], [-128.5862, 49.69036, -2324.35009766], [-128.58673, 49.69696, -2660.27807617]]], [[[-128.59545, 49.70094, -2871.13500977], [-128.60548, 49.70074, -2832.4699707], [-128.59762, 49.6954, -2324.35009766], [-128.59545, 49.70094, -2871.13500977]]], [[[-128.22061, 49.62512, -4068.86499023], [-128.20784, 49.62902, -4212.39111328], [-128.2182, 49.62967, -4954.90332031], [-128.22061, 49.62512, -4068.86499023]]], [[[-128.20746, 49.61565, -2324.35009766], [-128.2089, 49.6213, -2837.73535156], [-128.21627, 49.61898, -2652.84399414], [-128.20746, 49.61565, -2324.35009766]]], [[[-128.21001, 49.62493, -3479.71582031], [-128.19865, 49.62765, -3670.65917969], [-128.20784, 49.62902, -4212.39111328], [-128.21001, 49.62493, -3479.71582031]]], [[[-128.60548, 49.70074, -2832.4699707], [-128.59545, 49.70094, -2871.13500977], [-128.60139, 49.7047, -3341.41772461], [-128.60548, 49.70074, -2832.4699707]]], [[[-128.26626, 49.6137, -2857.21313477], [-128.27735, 49.61601, -2874.83618164], [-128.27309, 49.60729, -2324.35009766], [-128.26626, 49.6137, -2857.21313477]]], [[[-128.60548, 49.70074, -2832.4699707], [-128.60139, 49.7047, -3341.41772461], [-128.61081, 49.70669, -3324.02270508], [-128.60548, 49.70074, -2832.4699707]]], [[[-128.54403, 49.67398, -2766.92358398], [-128.55424, 49.67953, -2759.61206055], [-128.5565, 49.6719, -2324.35009766], [-128.54403, 49.67398, -2766.92358398]]], [[[-128.60548, 49.70074, -2832.4699707], [-128.61081, 49.70669, -3324.02270508], [-128.6151, 49.70115, -2759.09692383], [-128.60548, 49.70074, -2832.4699707]]], [[[-128.26626, 49.6137, -2857.21313477], [-128.26209, 49.61951, -3585.75488281], [-128.27574, 49.61926, -3438.22998047], [-128.26626, 49.6137, -2857.21313477]]], [[[-128.22776, 49.6176, -2925.11547852], [-128.23392, 49.6122, -2324.35009766], [-128.22128, 49.61562, -2324.35009766], [-128.22776, 49.6176, -2925.11547852]]], [[[-128.60548, 49.70074, -2832.4699707], [-128.6151, 49.70115, -2759.09692383], [-128.61109, 49.69379, -2324.35009766], [-128.60548, 49.70074, -2832.4699707]]], [[[-128.30478, 49.61482, -2874.83618164], [-128.31841, 49.61606, -3013.609375], [-128.31393, 49.60816, -2324.35009766], [-128.30478, 49.61482, -2874.83618164]]], [[[-128.24838, 49.62003, -3763.02124023], [-128.24359, 49.62555, -4583.41308594], [-128.25712, 49.62487, -4399.00390625], [-128.24838, 49.62003, -3763.02124023]]], [[[-128.15649, 49.63064, -3851.95019531], [-128.15089, 49.63454, -4451.29980469], [-128.15994, 49.63442, -4780.515625], [-128.15649, 49.63064, -3851.95019531]]], [[[-128.60548, 49.70074, -2832.4699707], [-128.61109, 49.69379, -2324.35009766], [-128.59762, 49.6954, -2324.35009766], [-128.60548, 49.70074, -2832.4699707]]], [[[-128.6151, 49.70115, -2759.09692383], [-128.62378, 49.69622, -2324.35009766], [-128.61109, 49.69379, -2324.35009766], [-128.6151, 49.70115, -2759.09692383]]], [[[-128.19199, 49.62395, -3189.66650391], [-128.17924, 49.62341, -3128.35791016], [-128.1856, 49.62797, -3803.57250977], [-128.19199, 49.62395, -3189.66650391]]], [[[-128.36277, 49.62187, -2837.66967773], [-128.36955, 49.62832, -3508.890625], [-128.37649, 49.62316, -2811.08789062], [-128.36277, 49.62187, -2837.66967773]]], [[[-128.46913, 49.64007, -2771.1418457], [-128.46919, 49.64843, -3312.56640625], [-128.47669, 49.64556, -2778.55834961], [-128.46913, 49.64007, -2771.1418457]]], [[[-128.17924, 49.62341, -3128.35791016], [-128.19199, 49.62395, -3189.66650391], [-128.18765, 49.61973, -2742.4284668], [-128.17924, 49.62341, -3128.35791016]]], [[[-128.33049, 49.61577, -2854.73706055], [-128.31841, 49.61606, -3013.609375], [-128.32359, 49.62204, -3684.40478516], [-128.33049, 49.61577, -2854.73706055]]], [[[-128.51319, 49.65211, -2324.35009766], [-128.51612, 49.66173, -2765.28686523], [-128.52379, 49.65786, -2324.35009766], [-128.51319, 49.65211, -2324.35009766]]], [[[-128.49299, 49.65319, -2776.53955078], [-128.49711, 49.66086, -3331.2800293], [-128.50402, 49.65697, -2763.03466797], [-128.49299, 49.65319, -2776.53955078]]], [[[-128.6151, 49.70115, -2759.09692383], [-128.62429, 49.70528, -2784.31811523], [-128.62378, 49.69622, -2324.35009766], [-128.6151, 49.70115, -2759.09692383]]], [[[-128.29105, 49.61498, -2874.83618164], [-128.30478, 49.61482, -2874.83618164], [-128.3002, 49.60832, -2324.35009766], [-128.29105, 49.61498, -2874.83618164]]], [[[-128.51612, 49.66173, -2765.28686523], [-128.50824, 49.66614, -3339.48608398], [-128.52054, 49.67023, -3334.22485352], [-128.51612, 49.66173, -2765.28686523]]], [[[-128.62429, 49.70528, -2784.31811523], [-128.6151, 49.70115, -2759.09692383], [-128.61081, 49.70669, -3324.02270508], [-128.62429, 49.70528, -2784.31811523]]], [[[-128.21965, 49.62176, -3262.51806641], [-128.22061, 49.62512, -4068.86499023], [-128.23387, 49.62145, -3851.39208984], [-128.21965, 49.62176, -3262.51806641]]], [[[-128.61081, 49.70669, -3324.02270508], [-128.62151, 49.71097, -3317.91381836], [-128.62429, 49.70528, -2784.31811523], [-128.61081, 49.70669, -3324.02270508]]], [[[-128.19967, 49.62008, -2712.52783203], [-128.19408, 49.61383, -2324.35009766], [-128.18765, 49.61973, -2742.4284668], [-128.19967, 49.62008, -2712.52783203]]], [[[-128.6379, 49.71258, -2874.83618164], [-128.64702, 49.70589, -2324.35009766], [-128.63496, 49.70149, -2324.35009766], [-128.6379, 49.71258, -2874.83618164]]], [[[-128.53494, 49.6688, -2782.18164062], [-128.52647, 49.66541, -2764.90966797], [-128.52054, 49.67023, -3334.22485352], [-128.53494, 49.6688, -2782.18164062]]], [[[-128.36277, 49.62187, -2837.66967773], [-128.36648, 49.61521, -2324.35009766], [-128.35354, 49.61366, -2324.35009766], [-128.36277, 49.62187, -2837.66967773]]], [[[-128.49299, 49.65319, -2776.53955078], [-128.50402, 49.65697, -2763.03466797], [-128.50166, 49.64756, -2324.35009766], [-128.49299, 49.65319, -2776.53955078]]], [[[-128.62429, 49.70528, -2784.31811523], [-128.63496, 49.70149, -2324.35009766], [-128.62378, 49.69622, -2324.35009766], [-128.62429, 49.70528, -2784.31811523]]], [[[-128.49299, 49.65319, -2776.53955078], [-128.48563, 49.65697, -3334.68017578], [-128.49711, 49.66086, -3331.2800293], [-128.49299, 49.65319, -2776.53955078]]], [[[-128.29105, 49.61498, -2874.83618164], [-128.28412, 49.62298, -4065.86816406], [-128.29775, 49.62217, -3932.63305664], [-128.29105, 49.61498, -2874.83618164]]], [[[-128.19967, 49.62008, -2712.52783203], [-128.20746, 49.61565, -2324.35009766], [-128.19408, 49.61383, -2324.35009766], [-128.19967, 49.62008, -2712.52783203]]], [[[-128.45949, 49.6354, -2783.65820312], [-128.46913, 49.64007, -2771.1418457], [-128.47169, 49.63161, -2324.35009766], [-128.45949, 49.6354, -2783.65820312]]], [[[-128.51612, 49.66173, -2765.28686523], [-128.51319, 49.65211, -2324.35009766], [-128.50402, 49.65697, -2763.03466797], [-128.51612, 49.66173, -2765.28686523]]], [[[-128.25453, 49.61413, -2949.80322266], [-128.24669, 49.60878, -2324.35009766], [-128.24147, 49.6157, -3053.88256836], [-128.25453, 49.61413, -2949.80322266]]], [[[-128.43083, 49.63197, -2815.71264648], [-128.42301, 49.63573, -3359.58007812], [-128.43414, 49.63751, -3334.41552734], [-128.43083, 49.63197, -2815.71264648]]], [[[-128.29105, 49.61498, -2874.83618164], [-128.3002, 49.60832, -2324.35009766], [-128.2865, 49.60935, -2324.35009766], [-128.29105, 49.61498, -2874.83618164]]], [[[-128.13976, 49.64234, -5652.63623047], [-128.15275, 49.63937, -5567.73974609], [-128.14532, 49.63844, -5051.97558594], [-128.13976, 49.64234, -5652.63623047]]], [[[-128.45949, 49.6354, -2783.65820312], [-128.47169, 49.63161, -2324.35009766], [-128.45981, 49.62752, -2324.35009766], [-128.45949, 49.6354, -2783.65820312]]], [[[-128.27735, 49.61601, -2874.83618164], [-128.29105, 49.61498, -2874.83618164], [-128.2865, 49.60935, -2324.35009766], [-128.27735, 49.61601, -2874.83618164]]], [[[-128.59545, 49.70094, -2871.13500977], [-128.59217, 49.70466, -3372.15429688], [-128.60139, 49.7047, -3341.41772461], [-128.59545, 49.70094, -2871.13500977]]], [[[-128.26209, 49.61951, -3585.75488281], [-128.25712, 49.62487, -4399.00390625], [-128.27067, 49.62448, -4223.60253906], [-128.26209, 49.61951, -3585.75488281]]], [[[-128.58564, 49.70215, -3018.50097656], [-128.59217, 49.70466, -3372.15429688], [-128.59545, 49.70094, -2871.13500977], [-128.58564, 49.70215, -3018.50097656]]], [[[-128.58564, 49.70215, -3018.50097656], [-128.58344, 49.70574, -3411.03759766], [-128.59217, 49.70466, -3372.15429688], [-128.58564, 49.70215, -3018.50097656]]], [[[-128.58564, 49.70215, -3018.50097656], [-128.57691, 49.70286, -3410.89160156], [-128.58344, 49.70574, -3411.03759766], [-128.58564, 49.70215, -3018.50097656]]], [[[-128.27574, 49.61926, -3438.22998047], [-128.26209, 49.61951, -3585.75488281], [-128.27067, 49.62448, -4223.60253906], [-128.27574, 49.61926, -3438.22998047]]], [[[-128.46913, 49.64007, -2771.1418457], [-128.48189, 49.63767, -2324.35009766], [-128.47169, 49.63161, -2324.35009766], [-128.46913, 49.64007, -2771.1418457]]], [[[-128.5565, 49.6719, -2324.35009766], [-128.55424, 49.67953, -2759.61206055], [-128.56755, 49.67729, -2324.35009766], [-128.5565, 49.6719, -2324.35009766]]], [[[-128.30478, 49.61482, -2874.83618164], [-128.29775, 49.62217, -3932.63305664], [-128.31144, 49.62182, -3800.38647461], [-128.30478, 49.61482, -2874.83618164]]], [[[-128.54403, 49.67398, -2766.92358398], [-128.5565, 49.6719, -2324.35009766], [-128.5467, 49.66556, -2324.35009766], [-128.54403, 49.67398, -2766.92358398]]], [[[-128.62151, 49.71097, -3317.91381836], [-128.6379, 49.71258, -2874.83618164], [-128.62429, 49.70528, -2784.31811523], [-128.62151, 49.71097, -3317.91381836]]], [[[-128.54403, 49.67398, -2766.92358398], [-128.54231, 49.68115, -3353.63916016], [-128.55424, 49.67953, -2759.61206055], [-128.54403, 49.67398, -2766.92358398]]], [[[-128.17924, 49.62341, -3128.35791016], [-128.17494, 49.61735, -2324.35009766], [-128.16577, 49.624, -2874.83618164], [-128.17924, 49.62341, -3128.35791016]]], [[[-128.20193, 49.62439, -3215.36767578], [-128.19199, 49.62395, -3189.66650391], [-128.19865, 49.62765, -3670.65917969], [-128.20193, 49.62439, -3215.36767578]]], [[[-128.54403, 49.67398, -2766.92358398], [-128.53207, 49.67512, -3337.46313477], [-128.54231, 49.68115, -3353.63916016], [-128.54403, 49.67398, -2766.92358398]]], [[[-128.34914, 49.62019, -2876.24316406], [-128.35591, 49.62706, -3561.10131836], [-128.36277, 49.62187, -2837.66967773], [-128.34914, 49.62019, -2876.24316406]]], [[[-128.34141, 49.60981, -2324.35009766], [-128.32773, 49.60859, -2324.35009766], [-128.33049, 49.61577, -2854.73706055], [-128.34141, 49.60981, -2324.35009766]]], [[[-128.33796, 49.62055, -3118.30664062], [-128.34313, 49.62599, -3614.30371094], [-128.34914, 49.62019, -2876.24316406], [-128.33796, 49.62055, -3118.30664062]]], [[[-128.30478, 49.61482, -2874.83618164], [-128.29105, 49.61498, -2874.83618164], [-128.29775, 49.62217, -3932.63305664], [-128.30478, 49.61482, -2874.83618164]]], [[[-128.52647, 49.66541, -2764.90966797], [-128.52379, 49.65786, -2324.35009766], [-128.51612, 49.66173, -2765.28686523], [-128.52647, 49.66541, -2764.90966797]]], [[[-128.54403, 49.67398, -2766.92358398], [-128.53494, 49.6688, -2782.18164062], [-128.53207, 49.67512, -3337.46313477], [-128.54403, 49.67398, -2766.92358398]]], [[[-128.53494, 49.6688, -2782.18164062], [-128.5467, 49.66556, -2324.35009766], [-128.53618, 49.66035, -2324.35009766], [-128.53494, 49.6688, -2782.18164062]]], [[[-128.16656, 49.63932, -5528.01708984], [-128.15994, 49.63442, -4780.515625], [-128.15275, 49.63937, -5567.73974609], [-128.16656, 49.63932, -5528.01708984]]], [[[-128.24669, 49.60878, -2324.35009766], [-128.25453, 49.61413, -2949.80322266], [-128.26007, 49.60674, -2324.35009766], [-128.24669, 49.60878, -2324.35009766]]], [[[-128.53494, 49.6688, -2782.18164062], [-128.52054, 49.67023, -3334.22485352], [-128.53207, 49.67512, -3337.46313477], [-128.53494, 49.6688, -2782.18164062]]], [[[-128.51612, 49.66173, -2765.28686523], [-128.52054, 49.67023, -3334.22485352], [-128.52647, 49.66541, -2764.90966797], [-128.51612, 49.66173, -2765.28686523]]], [[[-128.23387, 49.62145, -3851.39208984], [-128.24838, 49.62003, -3763.02124023], [-128.24147, 49.6157, -3053.88256836], [-128.23387, 49.62145, -3851.39208984]]], [[[-128.50402, 49.65697, -2763.03466797], [-128.50824, 49.66614, -3339.48608398], [-128.51612, 49.66173, -2765.28686523], [-128.50402, 49.65697, -2763.03466797]]], [[[-128.62429, 49.70528, -2784.31811523], [-128.6379, 49.71258, -2874.83618164], [-128.63496, 49.70149, -2324.35009766], [-128.62429, 49.70528, -2784.31811523]]], [[[-128.1856, 49.62797, -3803.57250977], [-128.19865, 49.62765, -3670.65917969], [-128.19199, 49.62395, -3189.66650391], [-128.1856, 49.62797, -3803.57250977]]], [[[-128.50402, 49.65697, -2763.03466797], [-128.49711, 49.66086, -3331.2800293], [-128.50824, 49.66614, -3339.48608398], [-128.50402, 49.65697, -2763.03466797]]], [[[-128.4829, 49.65087, -2840.00268555], [-128.48563, 49.65697, -3334.68017578], [-128.49299, 49.65319, -2776.53955078], [-128.4829, 49.65087, -2840.00268555]]], [[[-128.23387, 49.62145, -3851.39208984], [-128.23059, 49.62729, -4758.87011719], [-128.24359, 49.62555, -4583.41308594], [-128.23387, 49.62145, -3851.39208984]]], [[[-128.26626, 49.6137, -2857.21313477], [-128.27309, 49.60729, -2324.35009766], [-128.26007, 49.60674, -2324.35009766], [-128.26626, 49.6137, -2857.21313477]]], [[[-128.4829, 49.65087, -2840.00268555], [-128.47615, 49.65377, -3336.07250977], [-128.48563, 49.65697, -3334.68017578], [-128.4829, 49.65087, -2840.00268555]]], [[[-128.27574, 49.61926, -3438.22998047], [-128.28412, 49.62298, -4065.86816406], [-128.29105, 49.61498, -2874.83618164], [-128.27574, 49.61926, -3438.22998047]]], [[[-128.23392, 49.6122, -2324.35009766], [-128.24147, 49.6157, -3053.88256836], [-128.24669, 49.60878, -2324.35009766], [-128.23392, 49.6122, -2324.35009766]]], [[[-128.47669, 49.64556, -2778.55834961], [-128.47615, 49.65377, -3336.07250977], [-128.4829, 49.65087, -2840.00268555], [-128.47669, 49.64556, -2778.55834961]]], [[[-128.25453, 49.61413, -2949.80322266], [-128.26209, 49.61951, -3585.75488281], [-128.26626, 49.6137, -2857.21313477], [-128.25453, 49.61413, -2949.80322266]]], [[[-128.47669, 49.64556, -2778.55834961], [-128.46919, 49.64843, -3312.56640625], [-128.47615, 49.65377, -3336.07250977], [-128.47669, 49.64556, -2778.55834961]]], [[[-128.31841, 49.61606, -3013.609375], [-128.30478, 49.61482, -2874.83618164], [-128.31144, 49.62182, -3800.38647461], [-128.31841, 49.61606, -3013.609375]]], [[[-128.46913, 49.64007, -2771.1418457], [-128.46063, 49.64257, -3290.78442383], [-128.46919, 49.64843, -3312.56640625], [-128.46913, 49.64007, -2771.1418457]]], [[[-128.40554, 49.62581, -2742.18286133], [-128.39342, 49.61875, -2324.35009766], [-128.39029, 49.62464, -2787.71850586], [-128.40554, 49.62581, -2742.18286133]]], [[[-128.20746, 49.61565, -2324.35009766], [-128.19967, 49.62008, -2712.52783203], [-128.2089, 49.6213, -2837.73535156], [-128.20746, 49.61565, -2324.35009766]]], [[[-128.47669, 49.64556, -2778.55834961], [-128.48189, 49.63767, -2324.35009766], [-128.46913, 49.64007, -2771.1418457], [-128.47669, 49.64556, -2778.55834961]]], [[[-128.45949, 49.6354, -2783.65820312], [-128.46063, 49.64257, -3290.78442383], [-128.46913, 49.64007, -2771.1418457], [-128.45949, 49.6354, -2783.65820312]]], [[[-128.45949, 49.6354, -2783.65820312], [-128.45143, 49.63861, -3287.36352539], [-128.46063, 49.64257, -3290.78442383], [-128.45949, 49.6354, -2783.65820312]]], [[[-128.44914, 49.63363, -2810.24023438], [-128.45949, 49.6354, -2783.65820312], [-128.45981, 49.62752, -2324.35009766], [-128.44914, 49.63363, -2810.24023438]]], [[[-128.43327, 49.62493, -2324.35009766], [-128.43966, 49.63317, -2817.75610352], [-128.44601, 49.62799, -2324.35009766], [-128.43327, 49.62493, -2324.35009766]]], [[[-128.44914, 49.63363, -2810.24023438], [-128.44298, 49.63728, -3302.97387695], [-128.45143, 49.63861, -3287.36352539], [-128.44914, 49.63363, -2810.24023438]]], [[[-128.43083, 49.63197, -2815.71264648], [-128.41999, 49.62864, -2762.59887695], [-128.42301, 49.63573, -3359.58007812], [-128.43083, 49.63197, -2815.71264648]]], [[[-128.20746, 49.61565, -2324.35009766], [-128.21627, 49.61898, -2652.84399414], [-128.22128, 49.61562, -2324.35009766], [-128.20746, 49.61565, -2324.35009766]]], [[[-128.33796, 49.62055, -3118.30664062], [-128.33291, 49.6243, -3651.84008789], [-128.34313, 49.62599, -3614.30371094], [-128.33796, 49.62055, -3118.30664062]]], [[[-128.37649, 49.62316, -2811.08789062], [-128.38002, 49.61657, -2324.35009766], [-128.36648, 49.61521, -2324.35009766], [-128.37649, 49.62316, -2811.08789062]]], [[[-128.43083, 49.63197, -2815.71264648], [-128.43966, 49.63317, -2817.75610352], [-128.43327, 49.62493, -2324.35009766], [-128.43083, 49.63197, -2815.71264648]]], [[[-128.40554, 49.62581, -2742.18286133], [-128.41999, 49.62864, -2762.59887695], [-128.42042, 49.62167, -2324.35009766], [-128.40554, 49.62581, -2742.18286133]]], [[[-128.21627, 49.61898, -2652.84399414], [-128.22776, 49.6176, -2925.11547852], [-128.22128, 49.61562, -2324.35009766], [-128.21627, 49.61898, -2652.84399414]]], [[[-128.40554, 49.62581, -2742.18286133], [-128.39029, 49.62464, -2787.71850586], [-128.39686, 49.63094, -3415.10986328], [-128.40554, 49.62581, -2742.18286133]]], [[[-128.40554, 49.62581, -2742.18286133], [-128.40701, 49.62002, -2324.35009766], [-128.39342, 49.61875, -2324.35009766], [-128.40554, 49.62581, -2742.18286133]]], [[[-128.39029, 49.62464, -2787.71850586], [-128.39342, 49.61875, -2324.35009766], [-128.38002, 49.61657, -2324.35009766], [-128.39029, 49.62464, -2787.71850586]]], [[[-128.37649, 49.62316, -2811.08789062], [-128.36955, 49.62832, -3508.890625], [-128.38317, 49.62978, -3459.94995117], [-128.37649, 49.62316, -2811.08789062]]], [[[-128.39029, 49.62464, -2787.71850586], [-128.38002, 49.61657, -2324.35009766], [-128.37649, 49.62316, -2811.08789062], [-128.39029, 49.62464, -2787.71850586]]], [[[-128.36277, 49.62187, -2837.66967773], [-128.35591, 49.62706, -3561.10131836], [-128.36955, 49.62832, -3508.890625], [-128.36277, 49.62187, -2837.66967773]]], [[[-128.25453, 49.61413, -2949.80322266], [-128.24838, 49.62003, -3763.02124023], [-128.26209, 49.61951, -3585.75488281], [-128.25453, 49.61413, -2949.80322266]]], [[[-128.21965, 49.62176, -3262.51806641], [-128.21001, 49.62493, -3479.71582031], [-128.22061, 49.62512, -4068.86499023], [-128.21965, 49.62176, -3262.51806641]]], [[[-128.47669, 49.64556, -2778.55834961], [-128.48936, 49.64514, -2324.35009766], [-128.48189, 49.63767, -2324.35009766], [-128.47669, 49.64556, -2778.55834961]]], [[[-128.25453, 49.61413, -2949.80322266], [-128.24147, 49.6157, -3053.88256836], [-128.24838, 49.62003, -3763.02124023], [-128.25453, 49.61413, -2949.80322266]]], [[[-128.21001, 49.62493, -3479.71582031], [-128.20784, 49.62902, -4212.39111328], [-128.22061, 49.62512, -4068.86499023], [-128.21001, 49.62493, -3479.71582031]]], [[[-128.27574, 49.61926, -3438.22998047], [-128.29105, 49.61498, -2874.83618164], [-128.27735, 49.61601, -2874.83618164], [-128.27574, 49.61926, -3438.22998047]]], [[[-128.22776, 49.6176, -2925.11547852], [-128.24147, 49.6157, -3053.88256836], [-128.23392, 49.6122, -2324.35009766], [-128.22776, 49.6176, -2925.11547852]]], [[[-128.19618, 49.63186, -4434.390625], [-128.20613, 49.63324, -5141.02539062], [-128.20784, 49.62902, -4212.39111328], [-128.19618, 49.63186, -4434.390625]]], [[[-128.17166, 49.63384, -4746.28027344], [-128.16656, 49.63932, -5528.01708984], [-128.18033, 49.63899, -5456.5078125], [-128.17166, 49.63384, -4746.28027344]]], [[[-128.1856, 49.62797, -3803.57250977], [-128.18327, 49.63346, -4601.46337891], [-128.19618, 49.63186, -4434.390625], [-128.1856, 49.62797, -3803.57250977]]], [[[-128.49299, 49.65319, -2776.53955078], [-128.48936, 49.64514, -2324.35009766], [-128.4829, 49.65087, -2840.00268555], [-128.49299, 49.65319, -2776.53955078]]], [[[-128.49299, 49.65319, -2776.53955078], [-128.50166, 49.64756, -2324.35009766], [-128.48936, 49.64514, -2324.35009766], [-128.49299, 49.65319, -2776.53955078]]]]}}]}