{"type": "FeatureCollection", "features": [{"type": "Feature", "properties": {"name": "AW_VANC_10", "CFM_ID": 249, "region": "Offshore_BC", "primary_state/province": "BC", "secondary_state/province": null, "avg_dip": 60.0, "dip_dir": "NE", "rake": 90, "slip_sense": "Reverse", "fault_level": 2, "NSHM23_sliprates": null, "QFFDAgeCatBin": null, "QFFDAgeBin": null, "upper_depth": -1.7, "upper_depth_constraint": "bathymetry", "lower_depth": -5.5, "lower_depth_constraint": "megathrust", "3D_model_constraints": "trace extended at constant dip", "reference": "Lucas et al. (2025); Balster-Gee et al. (2023)", "nshm23_id": null, "lineage": null, "usgs_qffd_#": null, "comments": "vergence from USGS sparker line", "id": "249"}, "geometry": {"type": "MultiPolygon", "coordinates": [[[[-127.42839, 49.19831, -5053.7353515625], [-127.42534, 49.20315, -5549.00390625], [-127.43275, 49.20212, -4591.32421875], [-127.42839, 49.19831, -5053.7353515625]]], [[[-127.40779, 49.11264, -4344.13916015625], [-127.41036, 49.12118, -4356.6787109375], [-127.41572, 49.11598, -3495.39697265625], [-127.40779, 49.11264, -4344.13916015625]]], [[[-127.43329, 49.18598, -3966.426513671875], [-127.42858, 49.19078, -4739.169921875], [-127.43491, 49.19438, -4096.939453125], [-127.43329, 49.18598, -3966.426513671875]]], [[[-127.43965, 49.17022, -2547.12060546875], [-127.44255, 49.17878, -2521.65380859375], [-127.44683, 49.17348, -1786.8648681640625], [-127.43965, 49.17022, -2547.12060546875]]], [[[-127.4236, 49.19455, -5497.701171875], [-127.42534, 49.20315, -5549.00390625], [-127.42839, 49.19831, -5053.7353515625], [-127.4236, 49.19455, -5497.701171875]]], [[[-127.41435, 49.09401, -2784.07861328125], [-127.41742, 49.10226, -2738.767333984375], [-127.42166, 49.09699, -1994.544921875], [-127.41435, 49.09401, -2784.07861328125]]], [[[-127.43491, 49.19438, -4096.939453125], [-127.43275, 49.20212, -4591.32421875], [-127.44017, 49.20108, -3633.64501953125], [-127.43491, 49.19438, -4096.939453125]]], [[[-127.44255, 49.17878, -2521.65380859375], [-127.44585, 49.18827, -2514.738037109375], [-127.44986, 49.18195, -1762.8240966796875], [-127.44255, 49.17878, -2521.65380859375]]], [[[-127.42858, 49.19078, -4739.169921875], [-127.4236, 49.19455, -5497.701171875], [-127.42839, 49.19831, -5053.7353515625], [-127.42858, 49.19078, -4739.169921875]]], [[[-127.43965, 49.17022, -2547.12060546875], [-127.44683, 49.17348, -1786.8648681640625], [-127.444, 49.16499, -1809.3480224609375], [-127.43965, 49.17022, -2547.12060546875]]], [[[-127.42858, 49.19078, -4739.169921875], [-127.42119, 49.186, -5451.7607421875], [-127.4236, 49.19455, -5497.701171875], [-127.42858, 49.19078, -4739.169921875]]], [[[-127.4384, 49.18385, -3249.04052734375], [-127.43547, 49.17521, -3254.381103515625], [-127.43062, 49.17719, -3929.153564453125], [-127.4384, 49.18385, -3249.04052734375]]], [[[-127.41036, 49.12118, -4356.6787109375], [-127.40527, 49.12606, -5170.84765625], [-127.41297, 49.12974, -4366.24755859375], [-127.41036, 49.12118, -4356.6787109375]]], [[[-127.42177, 49.16383, -4512.08203125], [-127.41421, 49.16033, -5312.22802734375], [-127.41657, 49.16889, -5350.59765625], [-127.42177, 49.16383, -4512.08203125]]], [[[-127.42589, 49.18137, -4676.53369140625], [-127.42119, 49.186, -5451.7607421875], [-127.42858, 49.19078, -4739.169921875], [-127.42589, 49.18137, -4676.53369140625]]], [[[-127.4184, 49.12448, -3492.089599609375], [-127.42613, 49.12767, -2662.19482421875], [-127.4233, 49.11917, -2684.467041015625], [-127.4184, 49.12448, -3492.089599609375]]], [[[-127.41317, 49.08687, -2653.980224609375], [-127.416, 49.08, -2039.509033203125], [-127.40819, 49.08112, -3048.853271484375], [-127.41317, 49.08687, -2653.980224609375]]], [[[-127.42589, 49.18137, -4676.53369140625], [-127.41877, 49.17746, -5401.2451171875], [-127.42119, 49.186, -5451.7607421875], [-127.42589, 49.18137, -4676.53369140625]]], [[[-127.4384, 49.18385, -3249.04052734375], [-127.44129, 49.19274, -3248.048828125], [-127.44585, 49.18827, -2514.738037109375], [-127.4384, 49.18385, -3249.04052734375]]], [[[-127.42361, 49.17287, -4627.23291015625], [-127.41877, 49.17746, -5401.2451171875], [-127.42589, 49.18137, -4676.53369140625], [-127.42361, 49.17287, -4627.23291015625]]], [[[-127.42613, 49.12767, -2662.19482421875], [-127.42865, 49.136, -2644.20166015625], [-127.43331, 49.13093, -1902.0997314453125], [-127.42613, 49.12767, -2662.19482421875]]], [[[-127.42361, 49.17287, -4627.23291015625], [-127.41657, 49.16889, -5350.59765625], [-127.41877, 49.17746, -5401.2451171875], [-127.42361, 49.17287, -4627.23291015625]]], [[[-127.43088, 49.14477, -2621.866455078125], [-127.43825, 49.148, -1854.941162109375], [-127.43545, 49.13951, -1879.396728515625], [-127.43088, 49.14477, -2621.866455078125]]], [[[-127.42361, 49.17287, -4627.23291015625], [-127.42177, 49.16383, -4512.08203125], [-127.41657, 49.16889, -5350.59765625], [-127.42361, 49.17287, -4627.23291015625]]], [[[-127.42177, 49.16383, -4512.08203125], [-127.42361, 49.17287, -4627.23291015625], [-127.42829, 49.16815, -3872.70849609375], [-127.42177, 49.16383, -4512.08203125]]], [[[-127.40945, 49.09824, -3553.677734375], [-127.41742, 49.10226, -2738.767333984375], [-127.41435, 49.09401, -2784.07861328125], [-127.40945, 49.09824, -3553.677734375]]], [[[-127.42854, 49.15898, -3488.700927734375], [-127.42177, 49.16383, -4512.08203125], [-127.42829, 49.16815, -3872.70849609375], [-127.42854, 49.15898, -3488.700927734375]]], [[[-127.4184, 49.12448, -3492.089599609375], [-127.41036, 49.12118, -4356.6787109375], [-127.41297, 49.12974, -4366.24755859375], [-127.4184, 49.12448, -3492.089599609375]]], [[[-127.42102, 49.13293, -3494.6591796875], [-127.42865, 49.136, -2644.20166015625], [-127.42613, 49.12767, -2662.19482421875], [-127.42102, 49.13293, -3494.6591796875]]], [[[-127.42854, 49.15898, -3488.700927734375], [-127.42, 49.15544, -4407.955078125], [-127.42177, 49.16383, -4512.08203125], [-127.42854, 49.15898, -3488.700927734375]]], [[[-127.42102, 49.13293, -3494.6591796875], [-127.42613, 49.12767, -2662.19482421875], [-127.4184, 49.12448, -3492.089599609375], [-127.42102, 49.13293, -3494.6591796875]]], [[[-127.42854, 49.15898, -3488.700927734375], [-127.42582, 49.15017, -3477.674560546875], [-127.42, 49.15544, -4407.955078125], [-127.42854, 49.15898, -3488.700927734375]]], [[[-127.4118, 49.15178, -5270.14208984375], [-127.41421, 49.16033, -5312.22802734375], [-127.42, 49.15544, -4407.955078125], [-127.4118, 49.15178, -5270.14208984375]]], [[[-127.42854, 49.15898, -3488.700927734375], [-127.43375, 49.15331, -2625.581298828125], [-127.42582, 49.15017, -3477.674560546875], [-127.42854, 49.15898, -3488.700927734375]]], [[[-127.43275, 49.20212, -4591.32421875], [-127.43491, 49.19438, -4096.939453125], [-127.42839, 49.19831, -5053.7353515625], [-127.43275, 49.20212, -4591.32421875]]], [[[-127.43375, 49.15331, -2625.581298828125], [-127.42854, 49.15898, -3488.700927734375], [-127.43683, 49.16172, -2569.9765625], [-127.43375, 49.15331, -2625.581298828125]]], [[[-127.43375, 49.15331, -2625.581298828125], [-127.43683, 49.16172, -2569.9765625], [-127.44116, 49.15649, -1831.83056640625], [-127.43375, 49.15331, -2625.581298828125]]], [[[-127.43329, 49.18598, -3966.426513671875], [-127.43491, 49.19438, -4096.939453125], [-127.44129, 49.19274, -3248.048828125], [-127.43329, 49.18598, -3966.426513671875]]], [[[-127.43375, 49.15331, -2625.581298828125], [-127.44116, 49.15649, -1831.83056640625], [-127.43825, 49.148, -1854.941162109375], [-127.43375, 49.15331, -2625.581298828125]]], [[[-127.40945, 49.09824, -3553.677734375], [-127.40246, 49.09571, -4321.9990234375], [-127.40502, 49.10403, -4339.73388671875], [-127.40945, 49.09824, -3553.677734375]]], [[[-127.43088, 49.14477, -2621.866455078125], [-127.43375, 49.15331, -2625.581298828125], [-127.43825, 49.148, -1854.941162109375], [-127.43088, 49.14477, -2621.866455078125]]], [[[-127.42865, 49.136, -2644.20166015625], [-127.43545, 49.13951, -1879.396728515625], [-127.43331, 49.13093, -1902.0997314453125], [-127.42865, 49.136, -2644.20166015625]]], [[[-127.43088, 49.14477, -2621.866455078125], [-127.42582, 49.15017, -3477.674560546875], [-127.43375, 49.15331, -2625.581298828125], [-127.43088, 49.14477, -2621.866455078125]]], [[[-127.43683, 49.16172, -2569.9765625], [-127.43965, 49.17022, -2547.12060546875], [-127.444, 49.16499, -1809.3480224609375], [-127.43683, 49.16172, -2569.9765625]]], [[[-127.41301, 49.10741, -3503.56396484375], [-127.42046, 49.11069, -2707.316162109375], [-127.41742, 49.10226, -2738.767333984375], [-127.41301, 49.10741, -3503.56396484375]]], [[[-127.42582, 49.15017, -3477.674560546875], [-127.43088, 49.14477, -2621.866455078125], [-127.42317, 49.14153, -3473.191162109375], [-127.42582, 49.15017, -3477.674560546875]]], [[[-127.4233, 49.11917, -2684.467041015625], [-127.42613, 49.12767, -2662.19482421875], [-127.43048, 49.12244, -1924.5823974609375], [-127.4233, 49.11917, -2684.467041015625]]], [[[-127.44585, 49.18827, -2514.738037109375], [-127.44129, 49.19274, -3248.048828125], [-127.45037, 49.19522, -2215.008056640625], [-127.44585, 49.18827, -2514.738037109375]]], [[[-127.42582, 49.15017, -3477.674560546875], [-127.42317, 49.14153, -3473.191162109375], [-127.41734, 49.14693, -4380.0078125], [-127.42582, 49.15017, -3477.674560546875]]], [[[-127.42582, 49.15017, -3477.674560546875], [-127.41734, 49.14693, -4380.0078125], [-127.42, 49.15544, -4407.955078125], [-127.42582, 49.15017, -3477.674560546875]]], [[[-127.41734, 49.14693, -4380.0078125], [-127.4118, 49.15178, -5270.14208984375], [-127.42, 49.15544, -4407.955078125], [-127.41734, 49.14693, -4380.0078125]]], [[[-127.41734, 49.14693, -4380.0078125], [-127.40948, 49.14322, -5235.34228515625], [-127.4118, 49.15178, -5270.14208984375], [-127.41734, 49.14693, -4380.0078125]]], [[[-127.41529, 49.13839, -4383.49267578125], [-127.40948, 49.14322, -5235.34228515625], [-127.41734, 49.14693, -4380.0078125], [-127.41529, 49.13839, -4383.49267578125]]], [[[-127.42317, 49.14153, -3473.191162109375], [-127.42102, 49.13293, -3494.6591796875], [-127.41529, 49.13839, -4383.49267578125], [-127.42317, 49.14153, -3473.191162109375]]], [[[-127.41529, 49.13839, -4383.49267578125], [-127.4077, 49.13461, -5202.83837890625], [-127.40948, 49.14322, -5235.34228515625], [-127.41529, 49.13839, -4383.49267578125]]], [[[-127.43062, 49.17719, -3929.153564453125], [-127.42829, 49.16815, -3872.70849609375], [-127.42361, 49.17287, -4627.23291015625], [-127.43062, 49.17719, -3929.153564453125]]], [[[-127.41297, 49.12974, -4366.24755859375], [-127.4077, 49.13461, -5202.83837890625], [-127.41529, 49.13839, -4383.49267578125], [-127.41297, 49.12974, -4366.24755859375]]], [[[-127.41297, 49.12974, -4366.24755859375], [-127.40527, 49.12606, -5170.84765625], [-127.4077, 49.13461, -5202.83837890625], [-127.41297, 49.12974, -4366.24755859375]]], [[[-127.41036, 49.12118, -4356.6787109375], [-127.4028, 49.11751, -5146.36181640625], [-127.40527, 49.12606, -5170.84765625], [-127.41036, 49.12118, -4356.6787109375]]], [[[-127.4384, 49.18385, -3249.04052734375], [-127.43329, 49.18598, -3966.426513671875], [-127.44129, 49.19274, -3248.048828125], [-127.4384, 49.18385, -3249.04052734375]]], [[[-127.40779, 49.11264, -4344.13916015625], [-127.4028, 49.11751, -5146.36181640625], [-127.41036, 49.12118, -4356.6787109375], [-127.40779, 49.11264, -4344.13916015625]]], [[[-127.39929, 49.08884, -4446.6650390625], [-127.39255, 49.08336, -5067.54150390625], [-127.39508, 49.0919, -5084.96142578125], [-127.39929, 49.08884, -4446.6650390625]]], [[[-127.43329, 49.18598, -3966.426513671875], [-127.43062, 49.17719, -3929.153564453125], [-127.42589, 49.18137, -4676.53369140625], [-127.43329, 49.18598, -3966.426513671875]]], [[[-127.40779, 49.11264, -4344.13916015625], [-127.40039, 49.10895, -5121.7197265625], [-127.4028, 49.11751, -5146.36181640625], [-127.40779, 49.11264, -4344.13916015625]]], [[[-127.44759, 49.20004, -2675.965576171875], [-127.45037, 49.19522, -2215.008056640625], [-127.44129, 49.19274, -3248.048828125], [-127.44759, 49.20004, -2675.965576171875]]], [[[-127.40502, 49.10403, -4339.73388671875], [-127.40039, 49.10895, -5121.7197265625], [-127.40779, 49.11264, -4344.13916015625], [-127.40502, 49.10403, -4339.73388671875]]], [[[-127.44129, 49.19274, -3248.048828125], [-127.44017, 49.20108, -3633.64501953125], [-127.44759, 49.20004, -2675.965576171875], [-127.44129, 49.19274, -3248.048828125]]], [[[-127.40502, 49.10403, -4339.73388671875], [-127.39763, 49.10044, -5102.28564453125], [-127.40039, 49.10895, -5121.7197265625], [-127.40502, 49.10403, -4339.73388671875]]], [[[-127.40246, 49.09571, -4321.9990234375], [-127.39763, 49.10044, -5102.28564453125], [-127.40502, 49.10403, -4339.73388671875], [-127.40246, 49.09571, -4321.9990234375]]], [[[-127.40246, 49.09571, -4321.9990234375], [-127.39508, 49.0919, -5084.96142578125], [-127.39763, 49.10044, -5102.28564453125], [-127.40246, 49.09571, -4321.9990234375]]], [[[-127.4384, 49.18385, -3249.04052734375], [-127.44585, 49.18827, -2514.738037109375], [-127.44255, 49.17878, -2521.65380859375], [-127.4384, 49.18385, -3249.04052734375]]], [[[-127.40246, 49.09571, -4321.9990234375], [-127.39929, 49.08884, -4446.6650390625], [-127.39508, 49.0919, -5084.96142578125], [-127.40246, 49.09571, -4321.9990234375]]], [[[-127.40661, 49.08909, -3550.376708984375], [-127.39929, 49.08884, -4446.6650390625], [-127.40246, 49.09571, -4321.9990234375], [-127.40661, 49.08909, -3550.376708984375]]], [[[-127.40661, 49.08909, -3550.376708984375], [-127.40037, 49.08224, -4058.197265625], [-127.39929, 49.08884, -4446.6650390625], [-127.40661, 49.08909, -3550.376708984375]]], [[[-127.43329, 49.18598, -3966.426513671875], [-127.42589, 49.18137, -4676.53369140625], [-127.42858, 49.19078, -4739.169921875], [-127.43329, 49.18598, -3966.426513671875]]], [[[-127.42102, 49.13293, -3494.6591796875], [-127.41297, 49.12974, -4366.24755859375], [-127.41529, 49.13839, -4383.49267578125], [-127.42102, 49.13293, -3494.6591796875]]], [[[-127.45037, 49.19522, -2215.008056640625], [-127.44759, 49.20004, -2675.965576171875], [-127.455, 49.199, -1718.2860107421875], [-127.45037, 49.19522, -2215.008056640625]]], [[[-127.42102, 49.13293, -3494.6591796875], [-127.4184, 49.12448, -3492.089599609375], [-127.41297, 49.12974, -4366.24755859375], [-127.42102, 49.13293, -3494.6591796875]]], [[[-127.40661, 49.08909, -3550.376708984375], [-127.40819, 49.08112, -3048.853271484375], [-127.40037, 49.08224, -4058.197265625], [-127.40661, 49.08909, -3550.376708984375]]], [[[-127.4384, 49.18385, -3249.04052734375], [-127.43062, 49.17719, -3929.153564453125], [-127.43329, 49.18598, -3966.426513671875], [-127.4384, 49.18385, -3249.04052734375]]], [[[-127.41317, 49.08687, -2653.980224609375], [-127.41435, 49.09401, -2784.07861328125], [-127.41883, 49.0885, -2017.027587890625], [-127.41317, 49.08687, -2653.980224609375]]], [[[-127.40661, 49.08909, -3550.376708984375], [-127.41317, 49.08687, -2653.980224609375], [-127.40819, 49.08112, -3048.853271484375], [-127.40661, 49.08909, -3550.376708984375]]], [[[-127.43547, 49.17521, -3254.381103515625], [-127.42829, 49.16815, -3872.70849609375], [-127.43062, 49.17719, -3929.153564453125], [-127.43547, 49.17521, -3254.381103515625]]], [[[-127.40661, 49.08909, -3550.376708984375], [-127.41435, 49.09401, -2784.07861328125], [-127.41317, 49.08687, -2653.980224609375], [-127.40661, 49.08909, -3550.376708984375]]], [[[-127.40945, 49.09824, -3553.677734375], [-127.41435, 49.09401, -2784.07861328125], [-127.40661, 49.08909, -3550.376708984375], [-127.40945, 49.09824, -3553.677734375]]], [[[-127.43313, 49.16675, -3220.960205078125], [-127.42854, 49.15898, -3488.700927734375], [-127.42829, 49.16815, -3872.70849609375], [-127.43313, 49.16675, -3220.960205078125]]], [[[-127.40945, 49.09824, -3553.677734375], [-127.41301, 49.10741, -3503.56396484375], [-127.41742, 49.10226, -2738.767333984375], [-127.40945, 49.09824, -3553.677734375]]], [[[-127.42317, 49.14153, -3473.191162109375], [-127.42865, 49.136, -2644.20166015625], [-127.42102, 49.13293, -3494.6591796875], [-127.42317, 49.14153, -3473.191162109375]]], [[[-127.41301, 49.10741, -3503.56396484375], [-127.40945, 49.09824, -3553.677734375], [-127.40502, 49.10403, -4339.73388671875], [-127.41301, 49.10741, -3503.56396484375]]], [[[-127.41301, 49.10741, -3503.56396484375], [-127.40502, 49.10403, -4339.73388671875], [-127.40779, 49.11264, -4344.13916015625], [-127.41301, 49.10741, -3503.56396484375]]], [[[-127.41301, 49.10741, -3503.56396484375], [-127.40779, 49.11264, -4344.13916015625], [-127.41572, 49.11598, -3495.39697265625], [-127.41301, 49.10741, -3503.56396484375]]], [[[-127.44585, 49.18827, -2514.738037109375], [-127.45281, 49.19043, -1739.38134765625], [-127.44986, 49.18195, -1762.8240966796875], [-127.44585, 49.18827, -2514.738037109375]]], [[[-127.41301, 49.10741, -3503.56396484375], [-127.41572, 49.11598, -3495.39697265625], [-127.42046, 49.11069, -2707.316162109375], [-127.41301, 49.10741, -3503.56396484375]]], [[[-127.42046, 49.11069, -2707.316162109375], [-127.42479, 49.10544, -1969.7215576171875], [-127.41742, 49.10226, -2738.767333984375], [-127.42046, 49.11069, -2707.316162109375]]], [[[-127.41317, 49.08687, -2653.980224609375], [-127.41883, 49.0885, -2017.027587890625], [-127.416, 49.08, -2039.509033203125], [-127.41317, 49.08687, -2653.980224609375]]], [[[-127.42046, 49.11069, -2707.316162109375], [-127.42765, 49.11394, -1947.064453125], [-127.42479, 49.10544, -1969.7215576171875], [-127.42046, 49.11069, -2707.316162109375]]], [[[-127.40945, 49.09824, -3553.677734375], [-127.40661, 49.08909, -3550.376708984375], [-127.40246, 49.09571, -4321.9990234375], [-127.40945, 49.09824, -3553.677734375]]], [[[-127.42046, 49.11069, -2707.316162109375], [-127.4233, 49.11917, -2684.467041015625], [-127.42765, 49.11394, -1947.064453125], [-127.42046, 49.11069, -2707.316162109375]]], [[[-127.4233, 49.11917, -2684.467041015625], [-127.42046, 49.11069, -2707.316162109375], [-127.41572, 49.11598, -3495.39697265625], [-127.4233, 49.11917, -2684.467041015625]]], [[[-127.4184, 49.12448, -3492.089599609375], [-127.4233, 49.11917, -2684.467041015625], [-127.41572, 49.11598, -3495.39697265625], [-127.4184, 49.12448, -3492.089599609375]]], [[[-127.42865, 49.136, -2644.20166015625], [-127.42317, 49.14153, -3473.191162109375], [-127.43088, 49.14477, -2621.866455078125], [-127.42865, 49.136, -2644.20166015625]]], [[[-127.43313, 49.16675, -3220.960205078125], [-127.43547, 49.17521, -3254.381103515625], [-127.43965, 49.17022, -2547.12060546875], [-127.43313, 49.16675, -3220.960205078125]]], [[[-127.42865, 49.136, -2644.20166015625], [-127.43088, 49.14477, -2621.866455078125], [-127.43545, 49.13951, -1879.396728515625], [-127.42865, 49.136, -2644.20166015625]]], [[[-127.42613, 49.12767, -2662.19482421875], [-127.43331, 49.13093, -1902.0997314453125], [-127.43048, 49.12244, -1924.5823974609375], [-127.42613, 49.12767, -2662.19482421875]]], [[[-127.4233, 49.11917, -2684.467041015625], [-127.43048, 49.12244, -1924.5823974609375], [-127.42765, 49.11394, -1947.064453125], [-127.4233, 49.11917, -2684.467041015625]]], [[[-127.42317, 49.14153, -3473.191162109375], [-127.41529, 49.13839, -4383.49267578125], [-127.41734, 49.14693, -4380.0078125], [-127.42317, 49.14153, -3473.191162109375]]], [[[-127.4184, 49.12448, -3492.089599609375], [-127.41572, 49.11598, -3495.39697265625], [-127.41036, 49.12118, -4356.6787109375], [-127.4184, 49.12448, -3492.089599609375]]], [[[-127.42166, 49.09699, -1994.544921875], [-127.41742, 49.10226, -2738.767333984375], [-127.42479, 49.10544, -1969.7215576171875], [-127.42166, 49.09699, -1994.544921875]]], [[[-127.43062, 49.17719, -3929.153564453125], [-127.42361, 49.17287, -4627.23291015625], [-127.42589, 49.18137, -4676.53369140625], [-127.43062, 49.17719, -3929.153564453125]]], [[[-127.41435, 49.09401, -2784.07861328125], [-127.42166, 49.09699, -1994.544921875], [-127.41883, 49.0885, -2017.027587890625], [-127.41435, 49.09401, -2784.07861328125]]], [[[-127.39255, 49.08336, -5067.54150390625], [-127.39929, 49.08884, -4446.6650390625], [-127.40037, 49.08224, -4058.197265625], [-127.39255, 49.08336, -5067.54150390625]]], [[[-127.42177, 49.16383, -4512.08203125], [-127.42, 49.15544, -4407.955078125], [-127.41421, 49.16033, -5312.22802734375], [-127.42177, 49.16383, -4512.08203125]]], [[[-127.45281, 49.19043, -1739.38134765625], [-127.45037, 49.19522, -2215.008056640625], [-127.455, 49.199, -1718.2860107421875], [-127.45281, 49.19043, -1739.38134765625]]], [[[-127.43683, 49.16172, -2569.9765625], [-127.444, 49.16499, -1809.3480224609375], [-127.44116, 49.15649, -1831.83056640625], [-127.43683, 49.16172, -2569.9765625]]], [[[-127.43313, 49.16675, -3220.960205078125], [-127.43965, 49.17022, -2547.12060546875], [-127.43683, 49.16172, -2569.9765625], [-127.43313, 49.16675, -3220.960205078125]]], [[[-127.43547, 49.17521, -3254.381103515625], [-127.43313, 49.16675, -3220.960205078125], [-127.42829, 49.16815, -3872.70849609375], [-127.43547, 49.17521, -3254.381103515625]]], [[[-127.43547, 49.17521, -3254.381103515625], [-127.4384, 49.18385, -3249.04052734375], [-127.44255, 49.17878, -2521.65380859375], [-127.43547, 49.17521, -3254.381103515625]]], [[[-127.43547, 49.17521, -3254.381103515625], [-127.44255, 49.17878, -2521.65380859375], [-127.43965, 49.17022, -2547.12060546875], [-127.43547, 49.17521, -3254.381103515625]]], [[[-127.44255, 49.17878, -2521.65380859375], [-127.44986, 49.18195, -1762.8240966796875], [-127.44683, 49.17348, -1786.8648681640625], [-127.44255, 49.17878, -2521.65380859375]]], [[[-127.43491, 49.19438, -4096.939453125], [-127.44017, 49.20108, -3633.64501953125], [-127.44129, 49.19274, -3248.048828125], [-127.43491, 49.19438, -4096.939453125]]], [[[-127.42858, 49.19078, -4739.169921875], [-127.42839, 49.19831, -5053.7353515625], [-127.43491, 49.19438, -4096.939453125], [-127.42858, 49.19078, -4739.169921875]]], [[[-127.44585, 49.18827, -2514.738037109375], [-127.45037, 49.19522, -2215.008056640625], [-127.45281, 49.19043, -1739.38134765625], [-127.44585, 49.18827, -2514.738037109375]]], [[[-127.42854, 49.15898, -3488.700927734375], [-127.43313, 49.16675, -3220.960205078125], [-127.43683, 49.16172, -2569.9765625], [-127.42854, 49.15898, -3488.700927734375]]]]}}]}