{"type": "FeatureCollection", "features": [{"type": "Feature", "properties": {"name": "AW_VANC_12", "CFM_ID": 251, "region": "Offshore_BC", "primary_state/province": "BC", "secondary_state/province": null, "avg_dip": 60, "dip_dir": "NE", "rake": 90, "slip_sense": "Reverse", "fault_level": 2, "NSHM23_sliprates": null, "QFFDAgeCatBin": null, "QFFDAgeBin": null, "upper_depth": -1.6, "upper_depth_constraint": "bathymetry", "lower_depth": -6.4, "lower_depth_constraint": "megathrust", "3D_model_constraints": "trace extended at constant dip", "reference": "Lucas et al. (2025) ", "nshm23_id": null, "lineage": null, "usgs_qffd_#": null, "comments": null, "id": "251"}, "geometry": {"type": "MultiPolygon", "coordinates": [[[[-127.23045, 49.02768, -2538.560302734375], [-127.23866, 49.02866, -1775.781494140625], [-127.23121, 49.02147, -1778.0166015625], [-127.23045, 49.02768, -2538.560302734375]]], [[[-127.27632, 49.09469, -2294.387451171875], [-127.27607, 49.10228, -2516.423095703125], [-127.282, 49.1, -1649.3800048828125], [-127.27632, 49.09469, -2294.387451171875]]], [[[-127.23758, 49.03463, -2560.4833984375], [-127.2465, 49.03569, -1779.1673583984375], [-127.23866, 49.02866, -1775.781494140625], [-127.23758, 49.03463, -2560.4833984375]]], [[[-127.2565, 49.06135, -3355.862548828125], [-127.26109, 49.06875, -3339.189208984375], [-127.26473, 49.06334, -2519.291748046875], [-127.2565, 49.06135, -3355.862548828125]]], [[[-127.27058, 49.09574, -3103.000244140625], [-127.27607, 49.10228, -2516.423095703125], [-127.27632, 49.09469, -2294.387451171875], [-127.27058, 49.09574, -3103.000244140625]]], [[[-127.27058, 49.09574, -3103.000244140625], [-127.27015, 49.10456, -3383.46630859375], [-127.27607, 49.10228, -2516.423095703125], [-127.27058, 49.09574, -3103.000244140625]]], [[[-127.22602, 49.04742, -5223.8251953125], [-127.21745, 49.04685, -6026.04150390625], [-127.2257, 49.05365, -5981.79638671875], [-127.22602, 49.04742, -5223.8251953125]]], [[[-127.25369, 49.08427, -5066.3017578125], [-127.24798, 49.08711, -5927.30029296875], [-127.25422, 49.091, -5199.06982421875], [-127.25369, 49.08427, -5066.3017578125]]], [[[-127.25288, 49.06748, -4223.20556640625], [-127.25685, 49.07394, -4212.64697265625], [-127.26109, 49.06875, -3339.189208984375], [-127.25288, 49.06748, -4223.20556640625]]], [[[-127.24239, 49.05417, -4296.3486328125], [-127.23486, 49.04754, -4340.40478515625], [-127.23389, 49.05391, -5165.47998046875], [-127.24239, 49.05417, -4296.3486328125]]], [[[-127.26447, 49.09768, -3985.31787109375], [-127.27015, 49.10456, -3383.46630859375], [-127.27058, 49.09574, -3103.000244140625], [-127.26447, 49.09768, -3985.31787109375]]], [[[-127.25311, 49.04842, -2556.466064453125], [-127.26188, 49.04988, -1786.28857421875], [-127.25447, 49.04266, -1782.854736328125], [-127.25311, 49.04842, -2556.466064453125]]], [[[-127.22809, 49.03392, -3447.691650390625], [-127.23758, 49.03463, -2560.4833984375], [-127.23045, 49.02768, -2538.560302734375], [-127.22809, 49.03392, -3447.691650390625]]], [[[-127.22291, 49.02675, -3236.829833984375], [-127.22809, 49.03392, -3447.691650390625], [-127.23045, 49.02768, -2538.560302734375], [-127.22291, 49.02675, -3236.829833984375]]], [[[-127.25945, 49.0816, -4205.2021484375], [-127.25182, 49.07818, -5062.556640625], [-127.25369, 49.08427, -5066.3017578125], [-127.25945, 49.0816, -4205.2021484375]]], [[[-127.26473, 49.06334, -2519.291748046875], [-127.27261, 49.06578, -1757.7216796875], [-127.26757, 49.05772, -1777.6007080078125], [-127.26473, 49.06334, -2519.291748046875]]], [[[-127.2257, 49.05365, -5981.79638671875], [-127.23251, 49.05994, -5951.08154296875], [-127.23389, 49.05391, -5165.47998046875], [-127.2257, 49.05365, -5981.79638671875]]], [[[-127.25182, 49.07818, -5062.556640625], [-127.24428, 49.0769, -5917.49072265625], [-127.24634, 49.08164, -5918.5625], [-127.25182, 49.07818, -5062.556640625]]], [[[-127.26447, 49.09768, -3985.31787109375], [-127.26422, 49.10685, -4250.50927734375], [-127.27015, 49.10456, -3383.46630859375], [-127.26447, 49.09768, -3985.31787109375]]], [[[-127.21786, 49.02817, -3919.068359375], [-127.2143, 49.02118, -3343.395751953125], [-127.20701, 49.02136, -4046.116943359375], [-127.21786, 49.02817, -3919.068359375]]], [[[-127.25236, 49.11141, -5984.595703125], [-127.25829, 49.10913, -5117.552734375], [-127.25093, 49.10273, -5960.9443359375], [-127.25236, 49.11141, -5984.595703125]]], [[[-127.25991, 49.09076, -4419.19091796875], [-127.25369, 49.08427, -5066.3017578125], [-127.25422, 49.091, -5199.06982421875], [-127.25991, 49.09076, -4419.19091796875]]], [[[-127.26447, 49.09768, -3985.31787109375], [-127.25705, 49.09927, -5037.373046875], [-127.26422, 49.10685, -4250.50927734375], [-127.26447, 49.09768, -3985.31787109375]]], [[[-127.20701, 49.02136, -4046.116943359375], [-127.19914, 49.02078, -4678.05615234375], [-127.20978, 49.02755, -4627.7841796875], [-127.20701, 49.02136, -4046.116943359375]]], [[[-127.25991, 49.09076, -4419.19091796875], [-127.25705, 49.09927, -5037.373046875], [-127.26447, 49.09768, -3985.31787109375], [-127.25991, 49.09076, -4419.19091796875]]], [[[-127.27341, 49.0877, -2501.555908203125], [-127.28019, 49.09137, -1678.4244384765625], [-127.27828, 49.08275, -1706.622314453125], [-127.27341, 49.0877, -2501.555908203125]]], [[[-127.25705, 49.09927, -5037.373046875], [-127.25991, 49.09076, -4419.19091796875], [-127.25422, 49.091, -5199.06982421875], [-127.25705, 49.09927, -5037.373046875]]], [[[-127.20072, 49.02672, -5376.31640625], [-127.19079, 49.0207, -5425.85986328125], [-127.19226, 49.0267, -6153.24609375], [-127.20072, 49.02672, -5376.31640625]]], [[[-127.25369, 49.08427, -5066.3017578125], [-127.24634, 49.08164, -5918.5625], [-127.24798, 49.08711, -5927.30029296875], [-127.25369, 49.08427, -5066.3017578125]]], [[[-127.18124, 49.01416, -5460.005859375], [-127.18248, 49.02082, -6210.67236328125], [-127.19079, 49.0207, -5425.85986328125], [-127.18124, 49.01416, -5460.005859375]]], [[[-127.24502, 49.06664, -5103.62939453125], [-127.23742, 49.06563, -5933.72607421875], [-127.24109, 49.0717, -5925.306640625], [-127.24502, 49.06664, -5103.62939453125]]], [[[-127.18635, 48.99709, -2668.744140625], [-127.19378, 48.99687, -1961.9010009765625], [-127.184, 48.991, -2007.5970458984375], [-127.18635, 48.99709, -2668.744140625]]], [[[-127.19433, 49.00291, -2724.52978515625], [-127.20297, 49.00901, -2701.095703125], [-127.20308, 49.00306, -1913.747314453125], [-127.19433, 49.00291, -2724.52978515625]]], [[[-127.19914, 49.02078, -4678.05615234375], [-127.19079, 49.0207, -5425.85986328125], [-127.20072, 49.02672, -5376.31640625], [-127.19914, 49.02078, -4678.05615234375]]], [[[-127.19914, 49.02078, -4678.05615234375], [-127.19767, 49.01478, -3962.7734375], [-127.19017, 49.01449, -4644.861328125], [-127.19914, 49.02078, -4678.05615234375]]], [[[-127.25705, 49.09927, -5037.373046875], [-127.25422, 49.091, -5199.06982421875], [-127.24939, 49.09426, -5942.47021484375], [-127.25705, 49.09927, -5037.373046875]]], [[[-127.26908, 49.07114, -2522.17724609375], [-127.27147, 49.07974, -2551.290771484375], [-127.27605, 49.07416, -1733.659423828125], [-127.26908, 49.07114, -2522.17724609375]]], [[[-127.25705, 49.09927, -5037.373046875], [-127.24939, 49.09426, -5942.47021484375], [-127.25093, 49.10273, -5960.9443359375], [-127.25705, 49.09927, -5037.373046875]]], [[[-127.23758, 49.03463, -2560.4833984375], [-127.23866, 49.02866, -1775.781494140625], [-127.23045, 49.02768, -2538.560302734375], [-127.23758, 49.03463, -2560.4833984375]]], [[[-127.25099, 49.05425, -3398.733642578125], [-127.2565, 49.06135, -3355.862548828125], [-127.25971, 49.05543, -2545.630859375], [-127.25099, 49.05425, -3398.733642578125]]], [[[-127.25945, 49.0816, -4205.2021484375], [-127.25991, 49.09076, -4419.19091796875], [-127.26645, 49.08715, -3432.98681640625], [-127.25945, 49.0816, -4205.2021484375]]], [[[-127.27341, 49.0877, -2501.555908203125], [-127.27632, 49.09469, -2294.387451171875], [-127.28019, 49.09137, -1678.4244384765625], [-127.27341, 49.0877, -2501.555908203125]]], [[[-127.24869, 49.07251, -5080.09423828125], [-127.24428, 49.0769, -5917.49072265625], [-127.25182, 49.07818, -5062.556640625], [-127.24869, 49.07251, -5080.09423828125]]], [[[-127.22274, 49.02127, -2554.12744140625], [-127.23121, 49.02147, -1778.0166015625], [-127.22186, 49.01531, -1825.98974609375], [-127.22274, 49.02127, -2554.12744140625]]], [[[-127.20297, 49.00901, -2701.095703125], [-127.21341, 49.01537, -2602.518798828125], [-127.21215, 49.0094, -1871.3804931640625], [-127.20297, 49.00901, -2701.095703125]]], [[[-127.24392, 49.04754, -3421.028076171875], [-127.2455, 49.04154, -2562.2099609375], [-127.2361, 49.04081, -3430.342529296875], [-127.24392, 49.04754, -3421.028076171875]]], [[[-127.22291, 49.02675, -3236.829833984375], [-127.23045, 49.02768, -2538.560302734375], [-127.22274, 49.02127, -2554.12744140625], [-127.22291, 49.02675, -3236.829833984375]]], [[[-127.18124, 49.01416, -5460.005859375], [-127.1716, 49.00604, -5297.63037109375], [-127.17343, 49.01444, -6257.19384765625], [-127.18124, 49.01416, -5460.005859375]]], [[[-127.26473, 49.06334, -2519.291748046875], [-127.26757, 49.05772, -1777.6007080078125], [-127.25971, 49.05543, -2545.630859375], [-127.26473, 49.06334, -2519.291748046875]]], [[[-127.19767, 49.01478, -3962.7734375], [-127.19143, 49.00781, -3654.04443359375], [-127.19017, 49.01449, -4644.861328125], [-127.19767, 49.01478, -3962.7734375]]], [[[-127.25093, 49.10273, -5960.9443359375], [-127.25829, 49.10913, -5117.552734375], [-127.25705, 49.09927, -5037.373046875], [-127.25093, 49.10273, -5960.9443359375]]], [[[-127.18124, 49.01416, -5460.005859375], [-127.17343, 49.01444, -6257.19384765625], [-127.18248, 49.02082, -6210.67236328125], [-127.18124, 49.01416, -5460.005859375]]], [[[-127.2143, 49.02118, -3343.395751953125], [-127.22274, 49.02127, -2554.12744140625], [-127.21341, 49.01537, -2602.518798828125], [-127.2143, 49.02118, -3343.395751953125]]], [[[-127.23486, 49.04754, -4340.40478515625], [-127.22698, 49.04095, -4372.3984375], [-127.22602, 49.04742, -5223.8251953125], [-127.23486, 49.04754, -4340.40478515625]]], [[[-127.22809, 49.03392, -3447.691650390625], [-127.2361, 49.04081, -3430.342529296875], [-127.23758, 49.03463, -2560.4833984375], [-127.22809, 49.03392, -3447.691650390625]]], [[[-127.21341, 49.01537, -2602.518798828125], [-127.22186, 49.01531, -1825.98974609375], [-127.21215, 49.0094, -1871.3804931640625], [-127.21341, 49.01537, -2602.518798828125]]], [[[-127.24392, 49.04754, -3421.028076171875], [-127.25311, 49.04842, -2556.466064453125], [-127.2455, 49.04154, -2562.2099609375], [-127.24392, 49.04754, -3421.028076171875]]], [[[-127.25705, 49.09927, -5037.373046875], [-127.25829, 49.10913, -5117.552734375], [-127.26422, 49.10685, -4250.50927734375], [-127.25705, 49.09927, -5037.373046875]]], [[[-127.19017, 49.01449, -4644.861328125], [-127.19143, 49.00781, -3654.04443359375], [-127.18226, 49.00875, -4654.61083984375], [-127.19017, 49.01449, -4644.861328125]]], [[[-127.2565, 49.06135, -3355.862548828125], [-127.25288, 49.06748, -4223.20556640625], [-127.26109, 49.06875, -3339.189208984375], [-127.2565, 49.06135, -3355.862548828125]]], [[[-127.21022, 49.03394, -5335.533203125], [-127.20172, 49.03281, -6098.810546875], [-127.20932, 49.03995, -6066.29150390625], [-127.21022, 49.03394, -5335.533203125]]], [[[-127.2646, 49.07704, -3347.5966796875], [-127.26645, 49.08715, -3432.98681640625], [-127.27147, 49.07974, -2551.290771484375], [-127.2646, 49.07704, -3347.5966796875]]], [[[-127.24239, 49.05417, -4296.3486328125], [-127.24392, 49.04754, -3421.028076171875], [-127.23486, 49.04754, -4340.40478515625], [-127.24239, 49.05417, -4296.3486328125]]], [[[-127.27147, 49.07974, -2551.290771484375], [-127.27828, 49.08275, -1706.622314453125], [-127.27605, 49.07416, -1733.659423828125], [-127.27147, 49.07974, -2551.290771484375]]], [[[-127.25422, 49.091, -5199.06982421875], [-127.24798, 49.08711, -5927.30029296875], [-127.24939, 49.09426, -5942.47021484375], [-127.25422, 49.091, -5199.06982421875]]], [[[-127.26908, 49.07114, -2522.17724609375], [-127.27261, 49.06578, -1757.7216796875], [-127.26473, 49.06334, -2519.291748046875], [-127.26908, 49.07114, -2522.17724609375]]], [[[-127.25311, 49.04842, -2556.466064453125], [-127.25971, 49.05543, -2545.630859375], [-127.26188, 49.04988, -1786.28857421875], [-127.25311, 49.04842, -2556.466064453125]]], [[[-127.19767, 49.01478, -3962.7734375], [-127.20701, 49.02136, -4046.116943359375], [-127.2045, 49.01493, -3348.1240234375], [-127.19767, 49.01478, -3962.7734375]]], [[[-127.25099, 49.05425, -3398.733642578125], [-127.24861, 49.06093, -4263.68896484375], [-127.2565, 49.06135, -3355.862548828125], [-127.25099, 49.05425, -3398.733642578125]]], [[[-127.25182, 49.07818, -5062.556640625], [-127.24634, 49.08164, -5918.5625], [-127.25369, 49.08427, -5066.3017578125], [-127.25182, 49.07818, -5062.556640625]]], [[[-127.2455, 49.04154, -2562.2099609375], [-127.25311, 49.04842, -2556.466064453125], [-127.25447, 49.04266, -1782.854736328125], [-127.2455, 49.04154, -2562.2099609375]]], [[[-127.24869, 49.07251, -5080.09423828125], [-127.24109, 49.0717, -5925.306640625], [-127.24428, 49.0769, -5917.49072265625], [-127.24869, 49.07251, -5080.09423828125]]], [[[-127.2455, 49.04154, -2562.2099609375], [-127.25447, 49.04266, -1782.854736328125], [-127.2465, 49.03569, -1779.1673583984375], [-127.2455, 49.04154, -2562.2099609375]]], [[[-127.23486, 49.04754, -4340.40478515625], [-127.2361, 49.04081, -3430.342529296875], [-127.22698, 49.04095, -4372.3984375], [-127.23486, 49.04754, -4340.40478515625]]], [[[-127.24502, 49.06664, -5103.62939453125], [-127.24109, 49.0717, -5925.306640625], [-127.24869, 49.07251, -5080.09423828125], [-127.24502, 49.06664, -5103.62939453125]]], [[[-127.18226, 49.00875, -4654.61083984375], [-127.17761, 49.00262, -4258.384765625], [-127.1716, 49.00604, -5297.63037109375], [-127.18226, 49.00875, -4654.61083984375]]], [[[-127.24056, 49.0602, -5128.72900390625], [-127.23742, 49.06563, -5933.72607421875], [-127.24502, 49.06664, -5103.62939453125], [-127.24056, 49.0602, -5128.72900390625]]], [[[-127.2143, 49.02118, -3343.395751953125], [-127.21786, 49.02817, -3919.068359375], [-127.22291, 49.02675, -3236.829833984375], [-127.2143, 49.02118, -3343.395751953125]]], [[[-127.24056, 49.0602, -5128.72900390625], [-127.23251, 49.05994, -5951.08154296875], [-127.23742, 49.06563, -5933.72607421875], [-127.24056, 49.0602, -5128.72900390625]]], [[[-127.21794, 49.04078, -5269.1728515625], [-127.20932, 49.03995, -6066.29150390625], [-127.21745, 49.04685, -6026.04150390625], [-127.21794, 49.04078, -5269.1728515625]]], [[[-127.24056, 49.0602, -5128.72900390625], [-127.23389, 49.05391, -5165.47998046875], [-127.23251, 49.05994, -5951.08154296875], [-127.24056, 49.0602, -5128.72900390625]]], [[[-127.19017, 49.01449, -4644.861328125], [-127.18226, 49.00875, -4654.61083984375], [-127.18124, 49.01416, -5460.005859375], [-127.19017, 49.01449, -4644.861328125]]], [[[-127.24056, 49.0602, -5128.72900390625], [-127.24239, 49.05417, -4296.3486328125], [-127.23389, 49.05391, -5165.47998046875], [-127.24056, 49.0602, -5128.72900390625]]], [[[-127.19914, 49.02078, -4678.05615234375], [-127.20072, 49.02672, -5376.31640625], [-127.20978, 49.02755, -4627.7841796875], [-127.19914, 49.02078, -4678.05615234375]]], [[[-127.25991, 49.09076, -4419.19091796875], [-127.25945, 49.0816, -4205.2021484375], [-127.25369, 49.08427, -5066.3017578125], [-127.25991, 49.09076, -4419.19091796875]]], [[[-127.24239, 49.05417, -4296.3486328125], [-127.24056, 49.0602, -5128.72900390625], [-127.24861, 49.06093, -4263.68896484375], [-127.24239, 49.05417, -4296.3486328125]]], [[[-127.25099, 49.05425, -3398.733642578125], [-127.24239, 49.05417, -4296.3486328125], [-127.24861, 49.06093, -4263.68896484375], [-127.25099, 49.05425, -3398.733642578125]]], [[[-127.24239, 49.05417, -4296.3486328125], [-127.25099, 49.05425, -3398.733642578125], [-127.24392, 49.04754, -3421.028076171875], [-127.24239, 49.05417, -4296.3486328125]]], [[[-127.23486, 49.04754, -4340.40478515625], [-127.22602, 49.04742, -5223.8251953125], [-127.23389, 49.05391, -5165.47998046875], [-127.23486, 49.04754, -4340.40478515625]]], [[[-127.2646, 49.07704, -3347.5966796875], [-127.27147, 49.07974, -2551.290771484375], [-127.26908, 49.07114, -2522.17724609375], [-127.2646, 49.07704, -3347.5966796875]]], [[[-127.23486, 49.04754, -4340.40478515625], [-127.24392, 49.04754, -3421.028076171875], [-127.2361, 49.04081, -3430.342529296875], [-127.23486, 49.04754, -4340.40478515625]]], [[[-127.18226, 49.00875, -4654.61083984375], [-127.1716, 49.00604, -5297.63037109375], [-127.18124, 49.01416, -5460.005859375], [-127.18226, 49.00875, -4654.61083984375]]], [[[-127.18635, 48.99709, -2668.744140625], [-127.184, 48.991, -2007.5970458984375], [-127.17807, 48.99327, -2878.6015625], [-127.18635, 48.99709, -2668.744140625]]], [[[-127.25288, 49.06748, -4223.20556640625], [-127.2565, 49.06135, -3355.862548828125], [-127.24861, 49.06093, -4263.68896484375], [-127.25288, 49.06748, -4223.20556640625]]], [[[-127.25099, 49.05425, -3398.733642578125], [-127.25311, 49.04842, -2556.466064453125], [-127.24392, 49.04754, -3421.028076171875], [-127.25099, 49.05425, -3398.733642578125]]], [[[-127.18318, 49.00035, -3427.415283203125], [-127.17807, 48.99327, -2878.6015625], [-127.17214, 48.99554, -3749.60595703125], [-127.18318, 49.00035, -3427.415283203125]]], [[[-127.25099, 49.05425, -3398.733642578125], [-127.25971, 49.05543, -2545.630859375], [-127.25311, 49.04842, -2556.466064453125], [-127.25099, 49.05425, -3398.733642578125]]], [[[-127.2565, 49.06135, -3355.862548828125], [-127.26473, 49.06334, -2519.291748046875], [-127.25971, 49.05543, -2545.630859375], [-127.2565, 49.06135, -3355.862548828125]]], [[[-127.22602, 49.04742, -5223.8251953125], [-127.2257, 49.05365, -5981.79638671875], [-127.23389, 49.05391, -5165.47998046875], [-127.22602, 49.04742, -5223.8251953125]]], [[[-127.20297, 49.00901, -2701.095703125], [-127.21215, 49.0094, -1871.3804931640625], [-127.20308, 49.00306, -1913.747314453125], [-127.20297, 49.00901, -2701.095703125]]], [[[-127.16027, 49.00008, -5491.61474609375], [-127.1716, 49.00604, -5297.63037109375], [-127.1662, 48.99781, -4620.6103515625], [-127.16027, 49.00008, -5491.61474609375]]], [[[-127.26908, 49.07114, -2522.17724609375], [-127.27605, 49.07416, -1733.659423828125], [-127.27261, 49.06578, -1757.7216796875], [-127.26908, 49.07114, -2522.17724609375]]], [[[-127.22698, 49.04095, -4372.3984375], [-127.2361, 49.04081, -3430.342529296875], [-127.22809, 49.03392, -3447.691650390625], [-127.22698, 49.04095, -4372.3984375]]], [[[-127.2646, 49.07704, -3347.5966796875], [-127.25945, 49.0816, -4205.2021484375], [-127.26645, 49.08715, -3432.98681640625], [-127.2646, 49.07704, -3347.5966796875]]], [[[-127.21898, 49.03465, -4486.54541015625], [-127.21022, 49.03394, -5335.533203125], [-127.21794, 49.04078, -5269.1728515625], [-127.21898, 49.03465, -4486.54541015625]]], [[[-127.2646, 49.07704, -3347.5966796875], [-127.25685, 49.07394, -4212.64697265625], [-127.25945, 49.0816, -4205.2021484375], [-127.2646, 49.07704, -3347.5966796875]]], [[[-127.19143, 49.00781, -3654.04443359375], [-127.17761, 49.00262, -4258.384765625], [-127.18226, 49.00875, -4654.61083984375], [-127.19143, 49.00781, -3654.04443359375]]], [[[-127.2646, 49.07704, -3347.5966796875], [-127.26109, 49.06875, -3339.189208984375], [-127.25685, 49.07394, -4212.64697265625], [-127.2646, 49.07704, -3347.5966796875]]], [[[-127.2646, 49.07704, -3347.5966796875], [-127.26908, 49.07114, -2522.17724609375], [-127.26109, 49.06875, -3339.189208984375], [-127.2646, 49.07704, -3347.5966796875]]], [[[-127.26645, 49.08715, -3432.98681640625], [-127.25991, 49.09076, -4419.19091796875], [-127.26447, 49.09768, -3985.31787109375], [-127.26645, 49.08715, -3432.98681640625]]], [[[-127.22698, 49.04095, -4372.3984375], [-127.22809, 49.03392, -3447.691650390625], [-127.21898, 49.03465, -4486.54541015625], [-127.22698, 49.04095, -4372.3984375]]], [[[-127.26109, 49.06875, -3339.189208984375], [-127.26908, 49.07114, -2522.17724609375], [-127.26473, 49.06334, -2519.291748046875], [-127.26109, 49.06875, -3339.189208984375]]], [[[-127.24869, 49.07251, -5080.09423828125], [-127.25685, 49.07394, -4212.64697265625], [-127.25288, 49.06748, -4223.20556640625], [-127.24869, 49.07251, -5080.09423828125]]], [[[-127.25685, 49.07394, -4212.64697265625], [-127.24869, 49.07251, -5080.09423828125], [-127.25182, 49.07818, -5062.556640625], [-127.25685, 49.07394, -4212.64697265625]]], [[[-127.21022, 49.03394, -5335.533203125], [-127.20932, 49.03995, -6066.29150390625], [-127.21794, 49.04078, -5269.1728515625], [-127.21022, 49.03394, -5335.533203125]]], [[[-127.20072, 49.02672, -5376.31640625], [-127.19226, 49.0267, -6153.24609375], [-127.20172, 49.03281, -6098.810546875], [-127.20072, 49.02672, -5376.31640625]]], [[[-127.25945, 49.0816, -4205.2021484375], [-127.25685, 49.07394, -4212.64697265625], [-127.25182, 49.07818, -5062.556640625], [-127.25945, 49.0816, -4205.2021484375]]], [[[-127.26645, 49.08715, -3432.98681640625], [-127.26447, 49.09768, -3985.31787109375], [-127.27058, 49.09574, -3103.000244140625], [-127.26645, 49.08715, -3432.98681640625]]], [[[-127.26645, 49.08715, -3432.98681640625], [-127.27058, 49.09574, -3103.000244140625], [-127.27341, 49.0877, -2501.555908203125], [-127.26645, 49.08715, -3432.98681640625]]], [[[-127.15433, 49.00235, -6362.619140625], [-127.16403, 49.00829, -6308.02490234375], [-127.16027, 49.00008, -5491.61474609375], [-127.15433, 49.00235, -6362.619140625]]], [[[-127.24502, 49.06664, -5103.62939453125], [-127.24861, 49.06093, -4263.68896484375], [-127.24056, 49.0602, -5128.72900390625], [-127.24502, 49.06664, -5103.62939453125]]], [[[-127.18318, 49.00035, -3427.415283203125], [-127.17761, 49.00262, -4258.384765625], [-127.19143, 49.00781, -3654.04443359375], [-127.18318, 49.00035, -3427.415283203125]]], [[[-127.26645, 49.08715, -3432.98681640625], [-127.27341, 49.0877, -2501.555908203125], [-127.27147, 49.07974, -2551.290771484375], [-127.26645, 49.08715, -3432.98681640625]]], [[[-127.27147, 49.07974, -2551.290771484375], [-127.27341, 49.0877, -2501.555908203125], [-127.27828, 49.08275, -1706.622314453125], [-127.27147, 49.07974, -2551.290771484375]]], [[[-127.19143, 49.00781, -3654.04443359375], [-127.20297, 49.00901, -2701.095703125], [-127.19433, 49.00291, -2724.52978515625], [-127.19143, 49.00781, -3654.04443359375]]], [[[-127.27341, 49.0877, -2501.555908203125], [-127.27058, 49.09574, -3103.000244140625], [-127.27632, 49.09469, -2294.387451171875], [-127.27341, 49.0877, -2501.555908203125]]], [[[-127.27632, 49.09469, -2294.387451171875], [-127.282, 49.1, -1649.3800048828125], [-127.28019, 49.09137, -1678.4244384765625], [-127.27632, 49.09469, -2294.387451171875]]], [[[-127.25288, 49.06748, -4223.20556640625], [-127.24502, 49.06664, -5103.62939453125], [-127.24869, 49.07251, -5080.09423828125], [-127.25288, 49.06748, -4223.20556640625]]], [[[-127.2045, 49.01493, -3348.1240234375], [-127.2143, 49.02118, -3343.395751953125], [-127.21341, 49.01537, -2602.518798828125], [-127.2045, 49.01493, -3348.1240234375]]], [[[-127.24502, 49.06664, -5103.62939453125], [-127.25288, 49.06748, -4223.20556640625], [-127.24861, 49.06093, -4263.68896484375], [-127.24502, 49.06664, -5103.62939453125]]], [[[-127.25971, 49.05543, -2545.630859375], [-127.26757, 49.05772, -1777.6007080078125], [-127.26188, 49.04988, -1786.28857421875], [-127.25971, 49.05543, -2545.630859375]]], [[[-127.23758, 49.03463, -2560.4833984375], [-127.2455, 49.04154, -2562.2099609375], [-127.2465, 49.03569, -1779.1673583984375], [-127.23758, 49.03463, -2560.4833984375]]], [[[-127.2361, 49.04081, -3430.342529296875], [-127.2455, 49.04154, -2562.2099609375], [-127.23758, 49.03463, -2560.4833984375], [-127.2361, 49.04081, -3430.342529296875]]], [[[-127.22698, 49.04095, -4372.3984375], [-127.21898, 49.03465, -4486.54541015625], [-127.21794, 49.04078, -5269.1728515625], [-127.22698, 49.04095, -4372.3984375]]], [[[-127.22698, 49.04095, -4372.3984375], [-127.21794, 49.04078, -5269.1728515625], [-127.22602, 49.04742, -5223.8251953125], [-127.22698, 49.04095, -4372.3984375]]], [[[-127.21786, 49.02817, -3919.068359375], [-127.20978, 49.02755, -4627.7841796875], [-127.21898, 49.03465, -4486.54541015625], [-127.21786, 49.02817, -3919.068359375]]], [[[-127.21794, 49.04078, -5269.1728515625], [-127.21745, 49.04685, -6026.04150390625], [-127.22602, 49.04742, -5223.8251953125], [-127.21794, 49.04078, -5269.1728515625]]], [[[-127.19017, 49.01449, -4644.861328125], [-127.18124, 49.01416, -5460.005859375], [-127.19079, 49.0207, -5425.85986328125], [-127.19017, 49.01449, -4644.861328125]]], [[[-127.21022, 49.03394, -5335.533203125], [-127.20072, 49.02672, -5376.31640625], [-127.20172, 49.03281, -6098.810546875], [-127.21022, 49.03394, -5335.533203125]]], [[[-127.20701, 49.02136, -4046.116943359375], [-127.2143, 49.02118, -3343.395751953125], [-127.2045, 49.01493, -3348.1240234375], [-127.20701, 49.02136, -4046.116943359375]]], [[[-127.20072, 49.02672, -5376.31640625], [-127.21022, 49.03394, -5335.533203125], [-127.20978, 49.02755, -4627.7841796875], [-127.20072, 49.02672, -5376.31640625]]], [[[-127.19767, 49.01478, -3962.7734375], [-127.2045, 49.01493, -3348.1240234375], [-127.19143, 49.00781, -3654.04443359375], [-127.19767, 49.01478, -3962.7734375]]], [[[-127.19914, 49.02078, -4678.05615234375], [-127.19017, 49.01449, -4644.861328125], [-127.19079, 49.0207, -5425.85986328125], [-127.19914, 49.02078, -4678.05615234375]]], [[[-127.20701, 49.02136, -4046.116943359375], [-127.19767, 49.01478, -3962.7734375], [-127.19914, 49.02078, -4678.05615234375], [-127.20701, 49.02136, -4046.116943359375]]], [[[-127.17761, 49.00262, -4258.384765625], [-127.1662, 48.99781, -4620.6103515625], [-127.1716, 49.00604, -5297.63037109375], [-127.17761, 49.00262, -4258.384765625]]], [[[-127.17761, 49.00262, -4258.384765625], [-127.17214, 48.99554, -3749.60595703125], [-127.1662, 48.99781, -4620.6103515625], [-127.17761, 49.00262, -4258.384765625]]], [[[-127.17761, 49.00262, -4258.384765625], [-127.18318, 49.00035, -3427.415283203125], [-127.17214, 48.99554, -3749.60595703125], [-127.17761, 49.00262, -4258.384765625]]], [[[-127.1716, 49.00604, -5297.63037109375], [-127.16403, 49.00829, -6308.02490234375], [-127.17343, 49.01444, -6257.19384765625], [-127.1716, 49.00604, -5297.63037109375]]], [[[-127.21786, 49.02817, -3919.068359375], [-127.21898, 49.03465, -4486.54541015625], [-127.22809, 49.03392, -3447.691650390625], [-127.21786, 49.02817, -3919.068359375]]], [[[-127.18318, 49.00035, -3427.415283203125], [-127.18635, 48.99709, -2668.744140625], [-127.17807, 48.99327, -2878.6015625], [-127.18318, 49.00035, -3427.415283203125]]], [[[-127.18635, 48.99709, -2668.744140625], [-127.18318, 49.00035, -3427.415283203125], [-127.19433, 49.00291, -2724.52978515625], [-127.18635, 48.99709, -2668.744140625]]], [[[-127.19433, 49.00291, -2724.52978515625], [-127.19378, 48.99687, -1961.9010009765625], [-127.18635, 48.99709, -2668.744140625], [-127.19433, 49.00291, -2724.52978515625]]], [[[-127.19433, 49.00291, -2724.52978515625], [-127.20308, 49.00306, -1913.747314453125], [-127.19378, 48.99687, -1961.9010009765625], [-127.19433, 49.00291, -2724.52978515625]]], [[[-127.2045, 49.01493, -3348.1240234375], [-127.20297, 49.00901, -2701.095703125], [-127.19143, 49.00781, -3654.04443359375], [-127.2045, 49.01493, -3348.1240234375]]], [[[-127.2045, 49.01493, -3348.1240234375], [-127.21341, 49.01537, -2602.518798828125], [-127.20297, 49.00901, -2701.095703125], [-127.2045, 49.01493, -3348.1240234375]]], [[[-127.22291, 49.02675, -3236.829833984375], [-127.22274, 49.02127, -2554.12744140625], [-127.2143, 49.02118, -3343.395751953125], [-127.22291, 49.02675, -3236.829833984375]]], [[[-127.21786, 49.02817, -3919.068359375], [-127.22809, 49.03392, -3447.691650390625], [-127.22291, 49.02675, -3236.829833984375], [-127.21786, 49.02817, -3919.068359375]]], [[[-127.21786, 49.02817, -3919.068359375], [-127.20701, 49.02136, -4046.116943359375], [-127.20978, 49.02755, -4627.7841796875], [-127.21786, 49.02817, -3919.068359375]]], [[[-127.21022, 49.03394, -5335.533203125], [-127.21898, 49.03465, -4486.54541015625], [-127.20978, 49.02755, -4627.7841796875], [-127.21022, 49.03394, -5335.533203125]]], [[[-127.22274, 49.02127, -2554.12744140625], [-127.23045, 49.02768, -2538.560302734375], [-127.23121, 49.02147, -1778.0166015625], [-127.22274, 49.02127, -2554.12744140625]]], [[[-127.21341, 49.01537, -2602.518798828125], [-127.22274, 49.02127, -2554.12744140625], [-127.22186, 49.01531, -1825.98974609375], [-127.21341, 49.01537, -2602.518798828125]]], [[[-127.19143, 49.00781, -3654.04443359375], [-127.19433, 49.00291, -2724.52978515625], [-127.18318, 49.00035, -3427.415283203125], [-127.19143, 49.00781, -3654.04443359375]]], [[[-127.18248, 49.02082, -6210.67236328125], [-127.19226, 49.0267, -6153.24609375], [-127.19079, 49.0207, -5425.85986328125], [-127.18248, 49.02082, -6210.67236328125]]], [[[-127.16403, 49.00829, -6308.02490234375], [-127.1716, 49.00604, -5297.63037109375], [-127.16027, 49.00008, -5491.61474609375], [-127.16403, 49.00829, -6308.02490234375]]]]}}]}