{"type": "FeatureCollection", "features": [{"type": "Feature", "properties": {"name": "AW_VANC_14", "CFM_ID": 253, "region": "Offshore_BC", "primary_state/province": "BC", "secondary_state/province": null, "avg_dip": 60, "dip_dir": "NE", "rake": 90, "slip_sense": "Reverse", "fault_level": 2, "NSHM23_sliprates": null, "QFFDAgeCatBin": null, "QFFDAgeBin": null, "upper_depth": -2.8, "upper_depth_constraint": "bathymetry", "lower_depth": -5.1, "lower_depth_constraint": "megathrust", "3D_model_constraints": "trace extended at constant dip", "reference": "Lucas et al. (2025); Balster-Gee et al. (2023)", "nshm23_id": null, "lineage": null, "usgs_qffd_#": null, "comments": "vergence from USGS sparker line", "id": "253"}, "geometry": {"type": "MultiPolygon", "coordinates": [[[[-127.15885, 48.83014, -4791.07421875], [-127.16494, 48.83949, -4858.279296875], [-127.16846, 48.83662, -4149.72705078125], [-127.15885, 48.83014, -4791.07421875]]], [[[-127.16436, 48.82868, -3972.345458984375], [-127.15885, 48.83014, -4791.07421875], [-127.16846, 48.83662, -4149.72705078125], [-127.16436, 48.82868, -3972.345458984375]]], [[[-127.15621, 48.82315, -4092.905517578125], [-127.15885, 48.83014, -4791.07421875], [-127.16436, 48.82868, -3972.345458984375], [-127.15621, 48.82315, -4092.905517578125]]], [[[-127.15621, 48.82315, -4092.905517578125], [-127.14666, 48.82221, -4788.82177734375], [-127.15885, 48.83014, -4791.07421875], [-127.15621, 48.82315, -4092.905517578125]]], [[[-127.14666, 48.82221, -4788.82177734375], [-127.15621, 48.82315, -4092.905517578125], [-127.14529, 48.81499, -3875.48779296875], [-127.14666, 48.82221, -4788.82177734375]]], [[[-127.14529, 48.81499, -3875.48779296875], [-127.13545, 48.81585, -4811.224609375], [-127.14666, 48.82221, -4788.82177734375], [-127.14529, 48.81499, -3875.48779296875]]], [[[-127.14529, 48.81499, -3875.48779296875], [-127.13345, 48.80889, -3932.274658203125], [-127.13545, 48.81585, -4811.224609375], [-127.14529, 48.81499, -3875.48779296875]]], [[[-127.15596, 48.83452, -5566.966796875], [-127.16494, 48.83949, -4858.279296875], [-127.15885, 48.83014, -4791.07421875], [-127.15596, 48.83452, -5566.966796875]]], [[[-127.14529, 48.81499, -3875.48779296875], [-127.14426, 48.80759, -2871.28125], [-127.13345, 48.80889, -3932.274658203125], [-127.14529, 48.81499, -3875.48779296875]]], [[[-127.14529, 48.81499, -3875.48779296875], [-127.15441, 48.81278, -2778.41015625], [-127.14426, 48.80759, -2871.28125], [-127.14529, 48.81499, -3875.48779296875]]], [[[-127.1556, 48.81839, -3473.3916015625], [-127.15441, 48.81278, -2778.41015625], [-127.14529, 48.81499, -3875.48779296875], [-127.1556, 48.81839, -3473.3916015625]]], [[[-127.1556, 48.81839, -3473.3916015625], [-127.16395, 48.81815, -2720.849853515625], [-127.15441, 48.81278, -2778.41015625], [-127.1556, 48.81839, -3473.3916015625]]], [[[-127.16738, 48.82438, -3188.547119140625], [-127.16395, 48.81815, -2720.849853515625], [-127.1556, 48.81839, -3473.3916015625], [-127.16738, 48.82438, -3188.547119140625]]], [[[-127.16738, 48.82438, -3188.547119140625], [-127.17328, 48.8197, -2012.60107421875], [-127.16395, 48.81815, -2720.849853515625], [-127.16738, 48.82438, -3188.547119140625]]], [[[-127.16738, 48.82438, -3188.547119140625], [-127.17197, 48.83374, -3441.174560546875], [-127.17549, 48.83087, -2732.622314453125], [-127.16738, 48.82438, -3188.547119140625]]], [[[-127.16738, 48.82438, -3188.547119140625], [-127.17549, 48.83087, -2732.622314453125], [-127.17328, 48.8197, -2012.60107421875], [-127.16738, 48.82438, -3188.547119140625]]], [[[-127.16436, 48.82868, -3972.345458984375], [-127.17197, 48.83374, -3441.174560546875], [-127.16738, 48.82438, -3188.547119140625], [-127.16436, 48.82868, -3972.345458984375]]], [[[-127.16436, 48.82868, -3972.345458984375], [-127.16846, 48.83662, -4149.72705078125], [-127.17197, 48.83374, -3441.174560546875], [-127.16436, 48.82868, -3972.345458984375]]], [[[-127.15621, 48.82315, -4092.905517578125], [-127.16436, 48.82868, -3972.345458984375], [-127.16738, 48.82438, -3188.547119140625], [-127.15621, 48.82315, -4092.905517578125]]], [[[-127.16738, 48.82438, -3188.547119140625], [-127.1556, 48.81839, -3473.3916015625], [-127.15621, 48.82315, -4092.905517578125], [-127.16738, 48.82438, -3188.547119140625]]], [[[-127.1556, 48.81839, -3473.3916015625], [-127.14529, 48.81499, -3875.48779296875], [-127.15621, 48.82315, -4092.905517578125], [-127.1556, 48.81839, -3473.3916015625]]], [[[-127.16395, 48.81815, -2720.849853515625], [-127.17328, 48.8197, -2012.60107421875], [-127.16431, 48.81287, -1942.4324951171875], [-127.16395, 48.81815, -2720.849853515625]]], [[[-127.0688, 48.77636, -3213.40478515625], [-127.07527, 48.77224, -2077.718505859375], [-127.06012, 48.77017, -2797.840576171875], [-127.0688, 48.77636, -3213.40478515625]]], [[[-127.15441, 48.81278, -2778.41015625], [-127.16395, 48.81815, -2720.849853515625], [-127.16431, 48.81287, -1942.4324951171875], [-127.15441, 48.81278, -2778.41015625]]], [[[-127.15441, 48.81278, -2778.41015625], [-127.16431, 48.81287, -1942.4324951171875], [-127.15414, 48.80668, -1931.6995849609375], [-127.15441, 48.81278, -2778.41015625]]], [[[-127.15441, 48.81278, -2778.41015625], [-127.15414, 48.80668, -1931.6995849609375], [-127.14426, 48.80759, -2871.28125], [-127.15441, 48.81278, -2778.41015625]]], [[[-127.14426, 48.80759, -2871.28125], [-127.15414, 48.80668, -1931.6995849609375], [-127.14352, 48.80083, -1919.7803955078125], [-127.14426, 48.80759, -2871.28125]]], [[[-127.14426, 48.80759, -2871.28125], [-127.14352, 48.80083, -1919.7803955078125], [-127.13456, 48.80276, -2776.80078125], [-127.14426, 48.80759, -2871.28125]]], [[[-127.13345, 48.80889, -3932.274658203125], [-127.14426, 48.80759, -2871.28125], [-127.13456, 48.80276, -2776.80078125], [-127.13345, 48.80889, -3932.274658203125]]], [[[-127.12653, 48.80419, -3405.31005859375], [-127.13345, 48.80889, -3932.274658203125], [-127.13456, 48.80276, -2776.80078125], [-127.12653, 48.80419, -3405.31005859375]]], [[[-127.12653, 48.80419, -3405.31005859375], [-127.11919, 48.80543, -3966.94580078125], [-127.13345, 48.80889, -3932.274658203125], [-127.12653, 48.80419, -3405.31005859375]]], [[[-127.12653, 48.80419, -3405.31005859375], [-127.12118, 48.7991, -2859.74462890625], [-127.11919, 48.80543, -3966.94580078125], [-127.12653, 48.80419, -3405.31005859375]]], [[[-127.12653, 48.80419, -3405.31005859375], [-127.13456, 48.80276, -2776.80078125], [-127.12118, 48.7991, -2859.74462890625], [-127.12653, 48.80419, -3405.31005859375]]], [[[-127.12118, 48.7991, -2859.74462890625], [-127.13456, 48.80276, -2776.80078125], [-127.1308, 48.79742, -1910.7845458984375], [-127.12118, 48.7991, -2859.74462890625]]], [[[-127.12118, 48.7991, -2859.74462890625], [-127.1308, 48.79742, -1910.7845458984375], [-127.11954, 48.79227, -1997.4364013671875], [-127.12118, 48.7991, -2859.74462890625]]], [[[-127.11109, 48.79341, -2869.2333984375], [-127.12118, 48.7991, -2859.74462890625], [-127.11954, 48.79227, -1997.4364013671875], [-127.11109, 48.79341, -2869.2333984375]]], [[[-127.11019, 48.80021, -3926.3671875], [-127.12118, 48.7991, -2859.74462890625], [-127.11109, 48.79341, -2869.2333984375], [-127.11019, 48.80021, -3926.3671875]]], [[[-127.0555, 48.78725, -5897.63427734375], [-127.06034, 48.783, -4873.6962890625], [-127.04847, 48.77969, -5146.6025390625], [-127.0555, 48.78725, -5897.63427734375]]], [[[-127.11919, 48.80543, -3966.94580078125], [-127.12118, 48.7991, -2859.74462890625], [-127.11019, 48.80021, -3926.3671875], [-127.11919, 48.80543, -3966.94580078125]]], [[[-127.11919, 48.80543, -3966.94580078125], [-127.11019, 48.80021, -3926.3671875], [-127.11151, 48.80746, -4876.2998046875], [-127.11919, 48.80543, -3966.94580078125]]], [[[-127.11919, 48.80543, -3966.94580078125], [-127.11151, 48.80746, -4876.2998046875], [-127.12328, 48.81098, -4857.85107421875], [-127.11919, 48.80543, -3966.94580078125]]], [[[-127.13345, 48.80889, -3932.274658203125], [-127.11919, 48.80543, -3966.94580078125], [-127.12328, 48.81098, -4857.85107421875], [-127.13345, 48.80889, -3932.274658203125]]], [[[-127.16143, 48.84236, -5566.83154296875], [-127.16494, 48.83949, -4858.279296875], [-127.15596, 48.83452, -5566.966796875], [-127.16143, 48.84236, -5566.83154296875]]], [[[-127.13345, 48.80889, -3932.274658203125], [-127.12328, 48.81098, -4857.85107421875], [-127.13545, 48.81585, -4811.224609375], [-127.13345, 48.80889, -3932.274658203125]]], [[[-127.12328, 48.81098, -4857.85107421875], [-127.12721, 48.81708, -5657.76318359375], [-127.13545, 48.81585, -4811.224609375], [-127.12328, 48.81098, -4857.85107421875]]], [[[-127.17549, 48.83087, -2732.622314453125], [-127.179, 48.828, -2024.0699462890625], [-127.17328, 48.8197, -2012.60107421875], [-127.17549, 48.83087, -2732.622314453125]]], [[[-127.12328, 48.81098, -4857.85107421875], [-127.11543, 48.81359, -5706.875], [-127.12721, 48.81708, -5657.76318359375], [-127.12328, 48.81098, -4857.85107421875]]], [[[-127.11151, 48.80746, -4876.2998046875], [-127.11543, 48.81359, -5706.875], [-127.12328, 48.81098, -4857.85107421875], [-127.11151, 48.80746, -4876.2998046875]]], [[[-127.11151, 48.80746, -4876.2998046875], [-127.10428, 48.80937, -5749.66845703125], [-127.11543, 48.81359, -5706.875], [-127.11151, 48.80746, -4876.2998046875]]], [[[-127.11151, 48.80746, -4876.2998046875], [-127.10159, 48.80225, -4948.1298828125], [-127.10428, 48.80937, -5749.66845703125], [-127.11151, 48.80746, -4876.2998046875]]], [[[-127.10159, 48.80225, -4948.1298828125], [-127.11151, 48.80746, -4876.2998046875], [-127.11019, 48.80021, -3926.3671875], [-127.10159, 48.80225, -4948.1298828125]]], [[[-127.09739, 48.79541, -4308.72265625], [-127.10159, 48.80225, -4948.1298828125], [-127.11019, 48.80021, -3926.3671875], [-127.09739, 48.79541, -4308.72265625]]], [[[-127.04458, 48.78287, -5929.52294921875], [-127.0555, 48.78725, -5897.63427734375], [-127.04847, 48.77969, -5146.6025390625], [-127.04458, 48.78287, -5929.52294921875]]], [[[-127.09739, 48.79541, -4308.72265625], [-127.08913, 48.79762, -5071.83251953125], [-127.10159, 48.80225, -4948.1298828125], [-127.09739, 48.79541, -4308.72265625]]], [[[-127.09739, 48.79541, -4308.72265625], [-127.08394, 48.79255, -4217.9267578125], [-127.08913, 48.79762, -5071.83251953125], [-127.09739, 48.79541, -4308.72265625]]], [[[-127.08394, 48.79255, -4217.9267578125], [-127.09739, 48.79541, -4308.72265625], [-127.09019, 48.79035, -3529.527099609375], [-127.08394, 48.79255, -4217.9267578125]]], [[[-127.08394, 48.79255, -4217.9267578125], [-127.09019, 48.79035, -3529.527099609375], [-127.07624, 48.78533, -3566.73388671875], [-127.08394, 48.79255, -4217.9267578125]]], [[[-127.08394, 48.79255, -4217.9267578125], [-127.07624, 48.78533, -3566.73388671875], [-127.07135, 48.78823, -4386.98583984375], [-127.08394, 48.79255, -4217.9267578125]]], [[[-127.08394, 48.79255, -4217.9267578125], [-127.07135, 48.78823, -4386.98583984375], [-127.07722, 48.79494, -5072.25], [-127.08394, 48.79255, -4217.9267578125]]], [[[-127.08394, 48.79255, -4217.9267578125], [-127.07722, 48.79494, -5072.25], [-127.08913, 48.79762, -5071.83251953125], [-127.08394, 48.79255, -4217.9267578125]]], [[[-127.07722, 48.79494, -5072.25], [-127.08278, 48.80025, -5822.0302734375], [-127.08913, 48.79762, -5071.83251953125], [-127.07722, 48.79494, -5072.25]]], [[[-127.07722, 48.79494, -5072.25], [-127.07108, 48.79723, -5867.7255859375], [-127.08278, 48.80025, -5822.0302734375], [-127.07722, 48.79494, -5072.25]]], [[[-127.06539, 48.79011, -5237.0107421875], [-127.07108, 48.79723, -5867.7255859375], [-127.07722, 48.79494, -5072.25], [-127.06539, 48.79011, -5237.0107421875]]], [[[-127.06539, 48.79011, -5237.0107421875], [-127.06235, 48.79293, -5891.2744140625], [-127.07108, 48.79723, -5867.7255859375], [-127.06539, 48.79011, -5237.0107421875]]], [[[-127.06539, 48.79011, -5237.0107421875], [-127.0555, 48.78725, -5897.63427734375], [-127.06235, 48.79293, -5891.2744140625], [-127.06539, 48.79011, -5237.0107421875]]], [[[-127.06539, 48.79011, -5237.0107421875], [-127.06034, 48.783, -4873.6962890625], [-127.0555, 48.78725, -5897.63427734375], [-127.06539, 48.79011, -5237.0107421875]]], [[[-127.06034, 48.783, -4873.6962890625], [-127.06539, 48.79011, -5237.0107421875], [-127.07135, 48.78823, -4386.98583984375], [-127.06034, 48.783, -4873.6962890625]]], [[[-127.07135, 48.78823, -4386.98583984375], [-127.06503, 48.77973, -4019.51416015625], [-127.06034, 48.783, -4873.6962890625], [-127.07135, 48.78823, -4386.98583984375]]], [[[-127.07135, 48.78823, -4386.98583984375], [-127.07624, 48.78533, -3566.73388671875], [-127.06503, 48.77973, -4019.51416015625], [-127.07135, 48.78823, -4386.98583984375]]], [[[-127.0688, 48.77636, -3213.40478515625], [-127.06503, 48.77973, -4019.51416015625], [-127.07624, 48.78533, -3566.73388671875], [-127.0688, 48.77636, -3213.40478515625]]], [[[-127.06503, 48.77973, -4019.51416015625], [-127.0688, 48.77636, -3213.40478515625], [-127.05623, 48.77335, -3580.76123046875], [-127.06503, 48.77973, -4019.51416015625]]], [[[-127.06503, 48.77973, -4019.51416015625], [-127.05623, 48.77335, -3580.76123046875], [-127.05235, 48.77652, -4363.681640625], [-127.06503, 48.77973, -4019.51416015625]]], [[[-127.06503, 48.77973, -4019.51416015625], [-127.05235, 48.77652, -4363.681640625], [-127.06034, 48.783, -4873.6962890625], [-127.06503, 48.77973, -4019.51416015625]]], [[[-127.04847, 48.77969, -5146.6025390625], [-127.06034, 48.783, -4873.6962890625], [-127.05235, 48.77652, -4363.681640625], [-127.04847, 48.77969, -5146.6025390625]]], [[[-127.0688, 48.77636, -3213.40478515625], [-127.06012, 48.77017, -2797.840576171875], [-127.05623, 48.77335, -3580.76123046875], [-127.0688, 48.77636, -3213.40478515625]]], [[[-127.0688, 48.77636, -3213.40478515625], [-127.07667, 48.77924, -2761.2607421875], [-127.07527, 48.77224, -2077.718505859375], [-127.0688, 48.77636, -3213.40478515625]]], [[[-127.0688, 48.77636, -3213.40478515625], [-127.07624, 48.78533, -3566.73388671875], [-127.07667, 48.77924, -2761.2607421875], [-127.0688, 48.77636, -3213.40478515625]]], [[[-127.07624, 48.78533, -3566.73388671875], [-127.08615, 48.78487, -2810.144775390625], [-127.07667, 48.77924, -2761.2607421875], [-127.07624, 48.78533, -3566.73388671875]]], [[[-127.09019, 48.79035, -3529.527099609375], [-127.08615, 48.78487, -2810.144775390625], [-127.07624, 48.78533, -3566.73388671875], [-127.09019, 48.79035, -3529.527099609375]]], [[[-127.09019, 48.79035, -3529.527099609375], [-127.10003, 48.78868, -2866.90966796875], [-127.08615, 48.78487, -2810.144775390625], [-127.09019, 48.79035, -3529.527099609375]]], [[[-127.10313, 48.79388, -3605.17236328125], [-127.10003, 48.78868, -2866.90966796875], [-127.09019, 48.79035, -3529.527099609375], [-127.10313, 48.79388, -3605.17236328125]]], [[[-127.10313, 48.79388, -3605.17236328125], [-127.11109, 48.79341, -2869.2333984375], [-127.10003, 48.78868, -2866.90966796875], [-127.10313, 48.79388, -3605.17236328125]]], [[[-127.10313, 48.79388, -3605.17236328125], [-127.11019, 48.80021, -3926.3671875], [-127.11109, 48.79341, -2869.2333984375], [-127.10313, 48.79388, -3605.17236328125]]], [[[-127.10313, 48.79388, -3605.17236328125], [-127.09739, 48.79541, -4308.72265625], [-127.11019, 48.80021, -3926.3671875], [-127.10313, 48.79388, -3605.17236328125]]], [[[-127.10313, 48.79388, -3605.17236328125], [-127.09019, 48.79035, -3529.527099609375], [-127.09739, 48.79541, -4308.72265625], [-127.10313, 48.79388, -3605.17236328125]]], [[[-127.10003, 48.78868, -2866.90966796875], [-127.11109, 48.79341, -2869.2333984375], [-127.10887, 48.78647, -2050.783203125], [-127.10003, 48.78868, -2866.90966796875]]], [[[-127.10003, 48.78868, -2866.90966796875], [-127.10887, 48.78647, -2050.783203125], [-127.09563, 48.7841, -2059.13623046875], [-127.10003, 48.78868, -2866.90966796875]]], [[[-127.08615, 48.78487, -2810.144775390625], [-127.10003, 48.78868, -2866.90966796875], [-127.09563, 48.7841, -2059.13623046875], [-127.08615, 48.78487, -2810.144775390625]]], [[[-127.08615, 48.78487, -2810.144775390625], [-127.09563, 48.7841, -2059.13623046875], [-127.08385, 48.77935, -2066.23779296875], [-127.08615, 48.78487, -2810.144775390625]]], [[[-127.07667, 48.77924, -2761.2607421875], [-127.08615, 48.78487, -2810.144775390625], [-127.08385, 48.77935, -2066.23779296875], [-127.07667, 48.77924, -2761.2607421875]]], [[[-127.07667, 48.77924, -2761.2607421875], [-127.08385, 48.77935, -2066.23779296875], [-127.07527, 48.77224, -2077.718505859375], [-127.07667, 48.77924, -2761.2607421875]]], [[[-127.11109, 48.79341, -2869.2333984375], [-127.11954, 48.79227, -1997.4364013671875], [-127.10887, 48.78647, -2050.783203125], [-127.11109, 48.79341, -2869.2333984375]]], [[[-127.07135, 48.78823, -4386.98583984375], [-127.06539, 48.79011, -5237.0107421875], [-127.07722, 48.79494, -5072.25], [-127.07135, 48.78823, -4386.98583984375]]], [[[-127.08278, 48.80025, -5822.0302734375], [-127.09431, 48.80376, -5778.36865234375], [-127.08913, 48.79762, -5071.83251953125], [-127.08278, 48.80025, -5822.0302734375]]], [[[-127.10159, 48.80225, -4948.1298828125], [-127.08913, 48.79762, -5071.83251953125], [-127.09431, 48.80376, -5778.36865234375], [-127.10159, 48.80225, -4948.1298828125]]], [[[-127.10159, 48.80225, -4948.1298828125], [-127.09431, 48.80376, -5778.36865234375], [-127.10428, 48.80937, -5749.66845703125], [-127.10159, 48.80225, -4948.1298828125]]], [[[-127.12721, 48.81708, -5657.76318359375], [-127.1374, 48.82251, -5625.24365234375], [-127.13545, 48.81585, -4811.224609375], [-127.12721, 48.81708, -5657.76318359375]]], [[[-127.14666, 48.82221, -4788.82177734375], [-127.13545, 48.81585, -4811.224609375], [-127.1374, 48.82251, -5625.24365234375], [-127.14666, 48.82221, -4788.82177734375]]], [[[-127.14666, 48.82221, -4788.82177734375], [-127.1374, 48.82251, -5625.24365234375], [-127.14718, 48.82826, -5592.50634765625], [-127.14666, 48.82221, -4788.82177734375]]], [[[-127.14666, 48.82221, -4788.82177734375], [-127.14718, 48.82826, -5592.50634765625], [-127.15885, 48.83014, -4791.07421875], [-127.14666, 48.82221, -4788.82177734375]]], [[[-127.14718, 48.82826, -5592.50634765625], [-127.15596, 48.83452, -5566.966796875], [-127.15885, 48.83014, -4791.07421875], [-127.14718, 48.82826, -5592.50634765625]]], [[[-127.13456, 48.80276, -2776.80078125], [-127.14352, 48.80083, -1919.7803955078125], [-127.1308, 48.79742, -1910.7845458984375], [-127.13456, 48.80276, -2776.80078125]]], [[[-127.06012, 48.77017, -2797.840576171875], [-127.07527, 48.77224, -2077.718505859375], [-127.064, 48.767, -2014.9200439453125], [-127.06012, 48.77017, -2797.840576171875]]]]}}]}