{"type": "FeatureCollection", "features": [{"type": "Feature", "properties": {"name": "AW_VANC_17", "CFM_ID": 256, "region": "Offshore_BC", "primary_state/province": "BC", "secondary_state/province": null, "avg_dip": 60, "dip_dir": "NE", "rake": 90, "slip_sense": "Reverse", "fault_level": 2, "NSHM23_sliprates": null, "QFFDAgeCatBin": null, "QFFDAgeBin": null, "upper_depth": -2.8, "upper_depth_constraint": "bathymetry", "lower_depth": -6.2, "lower_depth_constraint": "megathrust", "3D_model_constraints": "trace extended at constant dip", "reference": "Lucas et al. (2025); Balster-Gee et al. (2023)", "nshm23_id": null, "lineage": null, "usgs_qffd_#": null, "comments": "vergence from USGS sparker line", "id": "256"}, "geometry": {"type": "MultiPolygon", "coordinates": [[[[-126.88386, 48.71268, -6257.732421875], [-126.88593, 48.7178, -6294.810546875], [-126.8928, 48.71771, -5503.3779296875], [-126.88386, 48.71268, -6257.732421875]]], [[[-126.90406, 48.69593, -2858.78173828125], [-126.91106, 48.69951, -2105.697021484375], [-126.90812, 48.69072, -2092.302978515625], [-126.90406, 48.69593, -2858.78173828125]]], [[[-126.92202, 48.76915, -6506.90283203125], [-126.92842, 48.77707, -6519.240234375], [-126.93041, 48.77137, -5761.25439453125], [-126.92202, 48.76915, -6506.90283203125]]], [[[-127.03518, 48.82605, -2674.5419921875], [-127.04285, 48.82682, -1903.443603515625], [-127.03605, 48.81905, -1906.377685546875], [-127.03518, 48.82605, -2674.5419921875]]], [[[-126.97987, 48.8097, -4865.07275390625], [-126.97199, 48.81109, -5704.576171875], [-126.98233, 48.81505, -5702.22998046875], [-126.97987, 48.8097, -4865.07275390625]]], [[[-126.91028, 48.73449, -4845.8447265625], [-126.90565, 48.7273, -4765.7109375], [-126.90152, 48.73177, -5610.5517578125], [-126.91028, 48.73449, -4845.8447265625]]], [[[-126.93247, 48.73309, -2163.70703125], [-126.94082, 48.73573, -1401.810546875], [-126.93535, 48.72752, -1378.6304931640625], [-126.93247, 48.73309, -2163.70703125]]], [[[-126.90093, 48.68753, -2851.27294921875], [-126.90406, 48.69593, -2858.78173828125], [-126.90812, 48.69072, -2092.302978515625], [-126.90093, 48.68753, -2851.27294921875]]], [[[-126.88668, 48.7019, -5401.33251953125], [-126.87969, 48.69851, -6161.80419921875], [-126.88207, 48.70661, -6216.587890625], [-126.88668, 48.7019, -5401.33251953125]]], [[[-126.88823, 48.67837, -3601.158935546875], [-126.89654, 48.67987, -2842.083740234375], [-126.88842, 48.67244, -2964.2431640625], [-126.88823, 48.67837, -3601.158935546875]]], [[[-126.93297, 48.7657, -4966.001953125], [-126.92675, 48.75801, -4976.25537109375], [-126.92423, 48.76348, -5749.89892578125], [-126.93297, 48.7657, -4966.001953125]]], [[[-126.96287, 48.77306, -2393.788330078125], [-126.97225, 48.77533, -1691.7503662109375], [-126.96489, 48.76785, -1589.9122314453125], [-126.96287, 48.77306, -2393.788330078125]]], [[[-126.97606, 48.78861, -2578.911865234375], [-126.98283, 48.79634, -2672.38525390625], [-126.98505, 48.79106, -1881.757568359375], [-126.97606, 48.78861, -2578.911865234375]]], [[[-126.90812, 48.69072, -2092.302978515625], [-126.91221, 48.68564, -1326.8868408203125], [-126.90461, 48.68242, -2071.65380859375], [-126.90812, 48.69072, -2092.302978515625]]], [[[-127.02907, 48.83383, -4113.73046875], [-127.03887, 48.83887, -3699.506103515625], [-127.0351, 48.83176, -3259.752197265625], [-127.02907, 48.83383, -4113.73046875]]], [[[-126.89253, 48.66803, -2029.8138427734375], [-126.89317, 48.66215, -1276.9315185546875], [-126.88577, 48.66149, -1967.3526611328125], [-126.89253, 48.66803, -2029.8138427734375]]], [[[-126.92681, 48.72516, -2153.112060546875], [-126.93535, 48.72752, -1378.6304931640625], [-126.92935, 48.71947, -1370.3477783203125], [-126.92681, 48.72516, -2153.112060546875]]], [[[-126.8784, 48.68472, -5301.89501953125], [-126.86958, 48.68218, -6012.4560546875], [-126.876, 48.69, -6081.3681640625], [-126.8784, 48.68472, -5301.89501953125]]], [[[-126.9211, 48.71689, -2149.859130859375], [-126.92681, 48.72516, -2153.112060546875], [-126.92935, 48.71947, -1370.3477783203125], [-126.9211, 48.71689, -2149.859130859375]]], [[[-126.99113, 48.81441, -4948.81640625], [-126.99392, 48.82023, -5684.34521484375], [-127.00299, 48.82035, -4908.5927734375], [-126.99113, 48.81441, -4948.81640625]]], [[[-126.95721, 48.78296, -4081.502685546875], [-126.96168, 48.79007, -4262.43017578125], [-126.96678, 48.78613, -3323.4775390625], [-126.95721, 48.78296, -4081.502685546875]]], [[[-127.02633, 48.82553, -3599.8212890625], [-127.0351, 48.83176, -3259.752197265625], [-127.03518, 48.82605, -2674.5419921875], [-127.02633, 48.82553, -3599.8212890625]]], [[[-126.96168, 48.79007, -4262.43017578125], [-126.95721, 48.78296, -4081.502685546875], [-126.95314, 48.78799, -5010.30859375], [-126.96168, 48.79007, -4262.43017578125]]], [[[-127.02633, 48.82553, -3599.8212890625], [-127.02907, 48.83383, -4113.73046875], [-127.0351, 48.83176, -3259.752197265625], [-127.02633, 48.82553, -3599.8212890625]]], [[[-126.95144, 48.79412, -5780.1630859375], [-126.94995, 48.79987, -6537.20654296875], [-126.95819, 48.80128, -5809.7724609375], [-126.95144, 48.79412, -5780.1630859375]]], [[[-126.88593, 48.7178, -6294.810546875], [-126.88939, 48.72259, -6314.88623046875], [-126.8928, 48.71771, -5503.3779296875], [-126.88593, 48.7178, -6294.810546875]]], [[[-126.85404, 48.66749, -5927.87353515625], [-126.86179, 48.67485, -5957.9111328125], [-126.86396, 48.6716, -5365.46435546875], [-126.85404, 48.66749, -5927.87353515625]]], [[[-127.02633, 48.82553, -3599.8212890625], [-127.02121, 48.82884, -4481.5810546875], [-127.02907, 48.83383, -4113.73046875], [-127.02633, 48.82553, -3599.8212890625]]], [[[-126.92851, 48.75235, -4272.1484375], [-126.92675, 48.75801, -4976.25537109375], [-126.93616, 48.75996, -4093.1982421875], [-126.92851, 48.75235, -4272.1484375]]], [[[-126.95819, 48.80128, -5809.7724609375], [-126.94995, 48.79987, -6537.20654296875], [-126.95703, 48.80706, -6539.634765625], [-126.95819, 48.80128, -5809.7724609375]]], [[[-126.97588, 48.80243, -4050.88427734375], [-126.97147, 48.80596, -4889.79541015625], [-126.97987, 48.8097, -4865.07275390625], [-126.97588, 48.80243, -4050.88427734375]]], [[[-126.91193, 48.71438, -3031.94482421875], [-126.90718, 48.70546, -2882.461181640625], [-126.90091, 48.7089, -3856.813720703125], [-126.91193, 48.71438, -3031.94482421875]]], [[[-126.9293, 48.73853, -2972.40576171875], [-126.93247, 48.73309, -2163.70703125], [-126.92347, 48.73097, -3035.9912109375], [-126.9293, 48.73853, -2972.40576171875]]], [[[-127.00729, 48.80844, -2650.98876953125], [-127.01681, 48.81315, -2601.043701171875], [-127.01553, 48.80732, -1824.9351806640625], [-127.00729, 48.80844, -2650.98876953125]]], [[[-127.02633, 48.82553, -3599.8212890625], [-127.014, 48.82173, -4187.50390625], [-127.02121, 48.82884, -4481.5810546875], [-127.02633, 48.82553, -3599.8212890625]]], [[[-126.9211, 48.71689, -2149.859130859375], [-126.92935, 48.71947, -1370.3477783203125], [-126.92412, 48.71119, -1362.8524169921875], [-126.9211, 48.71689, -2149.859130859375]]], [[[-126.95024, 48.75735, -2276.674072265625], [-126.95612, 48.76523, -2331.033203125], [-126.95887, 48.75983, -1527.4287109375], [-126.95024, 48.75735, -2276.674072265625]]], [[[-126.86999, 48.66997, -4556.90478515625], [-126.86643, 48.66249, -4082.779296875], [-126.86023, 48.66499, -5005.326171875], [-126.86999, 48.66997, -4556.90478515625]]], [[[-126.94655, 48.7628, -3180.048828125], [-126.95024, 48.75735, -2276.674072265625], [-126.94158, 48.75506, -3044.31103515625], [-126.94655, 48.7628, -3180.048828125]]], [[[-126.94443, 48.7862, -5793.4921875], [-126.94299, 48.79218, -6530.6943359375], [-126.95144, 48.79412, -5780.1630859375], [-126.94443, 48.7862, -5793.4921875]]], [[[-127.014, 48.82173, -4187.50390625], [-127.02633, 48.82553, -3599.8212890625], [-127.01843, 48.81895, -3369.5234375], [-127.014, 48.82173, -4187.50390625]]], [[[-126.89151, 48.69707, -4551.4609375], [-126.88368, 48.69372, -5372.27490234375], [-126.88668, 48.7019, -5401.33251953125], [-126.89151, 48.69707, -4551.4609375]]], [[[-126.86396, 48.6716, -5365.46435546875], [-126.86999, 48.66997, -4556.90478515625], [-126.86023, 48.66499, -5005.326171875], [-126.86396, 48.6716, -5365.46435546875]]], [[[-126.93616, 48.75996, -4093.1982421875], [-126.94257, 48.76794, -4097.24072265625], [-126.94655, 48.7628, -3180.048828125], [-126.93616, 48.75996, -4093.1982421875]]], [[[-126.90091, 48.7089, -3856.813720703125], [-126.8939, 48.70499, -4597.1083984375], [-126.89644, 48.71323, -4700.94482421875], [-126.90091, 48.7089, -3856.813720703125]]], [[[-126.99817, 48.80921, -3450.352783203125], [-127.00729, 48.80844, -2650.98876953125], [-126.99558, 48.80432, -2707.006103515625], [-126.99817, 48.80921, -3450.352783203125]]], [[[-127.00918, 48.8143, -3444.535400390625], [-127.014, 48.82173, -4187.50390625], [-127.01843, 48.81895, -3369.5234375], [-127.00918, 48.8143, -3444.535400390625]]], [[[-126.99558, 48.80432, -2707.006103515625], [-127.00357, 48.80319, -1911.712158203125], [-126.99182, 48.79879, -1975.2127685546875], [-126.99558, 48.80432, -2707.006103515625]]], [[[-126.9359, 48.74671, -2939.177734375], [-126.94437, 48.74926, -2211.83984375], [-126.93835, 48.74122, -2170.05810546875], [-126.9359, 48.74671, -2939.177734375]]], [[[-127.0014, 48.81499, -4230.08154296875], [-127.014, 48.82173, -4187.50390625], [-127.00918, 48.8143, -3444.535400390625], [-127.0014, 48.81499, -4230.08154296875]]], [[[-127.014, 48.82173, -4187.50390625], [-127.0014, 48.81499, -4230.08154296875], [-127.00299, 48.82035, -4908.5927734375], [-127.014, 48.82173, -4187.50390625]]], [[[-126.93968, 48.77343, -4925.041015625], [-126.94257, 48.76794, -4097.24072265625], [-126.93297, 48.7657, -4966.001953125], [-126.93968, 48.77343, -4925.041015625]]], [[[-126.87224, 48.67701, -5145.6494140625], [-126.88245, 48.68077, -4469.494140625], [-126.87958, 48.67429, -4080.588623046875], [-126.87224, 48.67701, -5145.6494140625]]], [[[-126.95024, 48.75735, -2276.674072265625], [-126.95887, 48.75983, -1527.4287109375], [-126.95285, 48.7518, -1485.3455810546875], [-126.95024, 48.75735, -2276.674072265625]]], [[[-126.86999, 48.66997, -4556.90478515625], [-126.86396, 48.6716, -5365.46435546875], [-126.87224, 48.67701, -5145.6494140625], [-126.86999, 48.66997, -4556.90478515625]]], [[[-127.01373, 48.82676, -5021.44970703125], [-127.014, 48.82173, -4187.50390625], [-127.00299, 48.82035, -4908.5927734375], [-127.01373, 48.82676, -5021.44970703125]]], [[[-126.91791, 48.72299, -2985.650390625], [-126.92681, 48.72516, -2153.112060546875], [-126.9211, 48.71689, -2149.859130859375], [-126.91791, 48.72299, -2985.650390625]]], [[[-127.02689, 48.81908, -2682.29052734375], [-127.03605, 48.81905, -1906.377685546875], [-127.02561, 48.81333, -1863.8616943359375], [-127.02689, 48.81908, -2682.29052734375]]], [[[-126.9293, 48.73853, -2972.40576171875], [-126.93835, 48.74122, -2170.05810546875], [-126.93247, 48.73309, -2163.70703125], [-126.9293, 48.73853, -2972.40576171875]]], [[[-126.92851, 48.75235, -4272.1484375], [-126.92068, 48.75012, -4960.0751953125], [-126.92675, 48.75801, -4976.25537109375], [-126.92851, 48.75235, -4272.1484375]]], [[[-127.014, 48.82173, -4187.50390625], [-127.01373, 48.82676, -5021.44970703125], [-127.02121, 48.82884, -4481.5810546875], [-127.014, 48.82173, -4187.50390625]]], [[[-126.94655, 48.7628, -3180.048828125], [-126.95612, 48.76523, -2331.033203125], [-126.95024, 48.75735, -2276.674072265625], [-126.94655, 48.7628, -3180.048828125]]], [[[-126.94158, 48.75506, -3044.31103515625], [-126.94437, 48.74926, -2211.83984375], [-126.9359, 48.74671, -2939.177734375], [-126.94158, 48.75506, -3044.31103515625]]], [[[-127.02633, 48.82553, -3599.8212890625], [-127.03518, 48.82605, -2674.5419921875], [-127.02689, 48.81908, -2682.29052734375], [-127.02633, 48.82553, -3599.8212890625]]], [[[-126.89317, 48.68502, -3648.543701171875], [-126.89654, 48.67987, -2842.083740234375], [-126.88823, 48.67837, -3601.158935546875], [-126.89317, 48.68502, -3648.543701171875]]], [[[-126.90812, 48.69072, -2092.302978515625], [-126.91513, 48.6944, -1341.9251708984375], [-126.91221, 48.68564, -1326.8868408203125], [-126.90812, 48.69072, -2092.302978515625]]], [[[-126.91822, 48.75559, -5728.0263671875], [-126.90977, 48.75313, -6460.82958984375], [-126.91581, 48.76117, -6490.51806640625], [-126.91822, 48.75559, -5728.0263671875]]], [[[-127.01373, 48.82676, -5021.44970703125], [-127.02274, 48.83594, -5004.53466796875], [-127.02121, 48.82884, -4481.5810546875], [-127.01373, 48.82676, -5021.44970703125]]], [[[-126.86999, 48.66997, -4556.90478515625], [-126.87224, 48.67701, -5145.6494140625], [-126.87958, 48.67429, -4080.588623046875], [-126.86999, 48.66997, -4556.90478515625]]], [[[-126.89654, 48.67987, -2842.083740234375], [-126.90461, 48.68242, -2071.65380859375], [-126.89897, 48.67484, -2080.036865234375], [-126.89654, 48.67987, -2842.083740234375]]], [[[-126.97606, 48.78861, -2578.911865234375], [-126.98505, 48.79106, -1881.757568359375], [-126.97828, 48.78332, -1788.3055419921875], [-126.97606, 48.78861, -2578.911865234375]]], [[[-126.87881, 48.6575, -2237.68505859375], [-126.88229, 48.66515, -2740.664306640625], [-126.88577, 48.66149, -1967.3526611328125], [-126.87881, 48.6575, -2237.68505859375]]], [[[-126.88245, 48.68077, -4469.494140625], [-126.8784, 48.68472, -5301.89501953125], [-126.88768, 48.68849, -4546.63134765625], [-126.88245, 48.68077, -4469.494140625]]], [[[-127.01373, 48.82676, -5021.44970703125], [-127.01373, 48.83252, -5658.91064453125], [-127.02274, 48.83594, -5004.53466796875], [-127.01373, 48.82676, -5021.44970703125]]], [[[-127.00918, 48.8143, -3444.535400390625], [-127.00729, 48.80844, -2650.98876953125], [-126.99817, 48.80921, -3450.352783203125], [-127.00918, 48.8143, -3444.535400390625]]], [[[-126.86643, 48.66249, -4082.779296875], [-126.87667, 48.66772, -3612.70654296875], [-126.87262, 48.65999, -3160.232177734375], [-126.86643, 48.66249, -4082.779296875]]], [[[-126.86396, 48.6716, -5365.46435546875], [-126.86179, 48.67485, -5957.9111328125], [-126.87224, 48.67701, -5145.6494140625], [-126.86396, 48.6716, -5365.46435546875]]], [[[-126.88229, 48.66515, -2740.664306640625], [-126.87881, 48.6575, -2237.68505859375], [-126.87262, 48.65999, -3160.232177734375], [-126.88229, 48.66515, -2740.664306640625]]], [[[-126.96049, 48.7781, -3220.06640625], [-126.96287, 48.77306, -2393.788330078125], [-126.95294, 48.7705, -3170.83837890625], [-126.96049, 48.7781, -3220.06640625]]], [[[-126.96678, 48.78613, -3323.4775390625], [-126.97375, 48.7943, -3422.92529296875], [-126.97606, 48.78861, -2578.911865234375], [-126.96678, 48.78613, -3323.4775390625]]], [[[-126.88229, 48.66515, -2740.664306640625], [-126.87667, 48.66772, -3612.70654296875], [-126.88842, 48.67244, -2964.2431640625], [-126.88229, 48.66515, -2740.664306640625]]], [[[-126.88229, 48.66515, -2740.664306640625], [-126.89253, 48.66803, -2029.8138427734375], [-126.88577, 48.66149, -1967.3526611328125], [-126.88229, 48.66515, -2740.664306640625]]], [[[-127.051, 48.834, -1898.7679443359375], [-127.04285, 48.82682, -1903.443603515625], [-127.04494, 48.83644, -2799.136962890625], [-127.051, 48.834, -1898.7679443359375]]], [[[-127.01373, 48.82676, -5021.44970703125], [-127.00424, 48.82581, -5663.814453125], [-127.01373, 48.83252, -5658.91064453125], [-127.01373, 48.82676, -5021.44970703125]]], [[[-126.97375, 48.7943, -3422.92529296875], [-126.96168, 48.79007, -4262.43017578125], [-126.96787, 48.79605, -4231.61767578125], [-126.97375, 48.7943, -3422.92529296875]]], [[[-126.98804, 48.80894, -4122.68994140625], [-126.99817, 48.80921, -3450.352783203125], [-126.98512, 48.80297, -3224.16455078125], [-126.98804, 48.80894, -4122.68994140625]]], [[[-127.01681, 48.81315, -2601.043701171875], [-127.02689, 48.81908, -2682.29052734375], [-127.02561, 48.81333, -1863.8616943359375], [-127.01681, 48.81315, -2601.043701171875]]], [[[-127.01373, 48.82676, -5021.44970703125], [-127.00299, 48.82035, -4908.5927734375], [-127.00424, 48.82581, -5663.814453125], [-127.01373, 48.82676, -5021.44970703125]]], [[[-127.04285, 48.82682, -1903.443603515625], [-127.03518, 48.82605, -2674.5419921875], [-127.04494, 48.83644, -2799.136962890625], [-127.04285, 48.82682, -1903.443603515625]]], [[[-126.96168, 48.79007, -4262.43017578125], [-126.95314, 48.78799, -5010.30859375], [-126.95956, 48.79538, -5044.6728515625], [-126.96168, 48.79007, -4262.43017578125]]], [[[-127.00424, 48.82581, -5663.814453125], [-127.00299, 48.82035, -4908.5927734375], [-126.99392, 48.82023, -5684.34521484375], [-127.00424, 48.82581, -5663.814453125]]], [[[-126.99392, 48.82023, -5684.34521484375], [-126.99565, 48.8261, -6429.58837890625], [-127.00424, 48.82581, -5663.814453125], [-126.99392, 48.82023, -5684.34521484375]]], [[[-126.90685, 48.73947, -5669.6826171875], [-126.89845, 48.73682, -6397.3759765625], [-126.90412, 48.74497, -6432.72900390625], [-126.90685, 48.73947, -5669.6826171875]]], [[[-126.93835, 48.74122, -2170.05810546875], [-126.94437, 48.74926, -2211.83984375], [-126.94682, 48.74376, -1443.2628173828125], [-126.93835, 48.74122, -2170.05810546875]]], [[[-126.94443, 48.7862, -5793.4921875], [-126.93552, 48.7847, -6528.5966796875], [-126.94299, 48.79218, -6530.6943359375], [-126.94443, 48.7862, -5793.4921875]]], [[[-126.99392, 48.82023, -5684.34521484375], [-126.98527, 48.82031, -6454.7802734375], [-126.99565, 48.8261, -6429.58837890625], [-126.99392, 48.82023, -5684.34521484375]]], [[[-127.0014, 48.81499, -4230.08154296875], [-126.99113, 48.81441, -4948.81640625], [-127.00299, 48.82035, -4908.5927734375], [-127.0014, 48.81499, -4230.08154296875]]], [[[-126.92068, 48.75012, -4960.0751953125], [-126.9123, 48.74764, -5692.599609375], [-126.91822, 48.75559, -5728.0263671875], [-126.92068, 48.75012, -4960.0751953125]]], [[[-126.87667, 48.66772, -3612.70654296875], [-126.87958, 48.67429, -4080.588623046875], [-126.88842, 48.67244, -2964.2431640625], [-126.87667, 48.66772, -3612.70654296875]]], [[[-126.90167, 48.72041, -4720.62890625], [-126.8928, 48.71771, -5503.3779296875], [-126.89737, 48.72458, -5543.59326171875], [-126.90167, 48.72041, -4720.62890625]]], [[[-127.00918, 48.8143, -3444.535400390625], [-127.01681, 48.81315, -2601.043701171875], [-127.00729, 48.80844, -2650.98876953125], [-127.00918, 48.8143, -3444.535400390625]]], [[[-126.98527, 48.82031, -6454.7802734375], [-126.99392, 48.82023, -5684.34521484375], [-126.98233, 48.81505, -5702.22998046875], [-126.98527, 48.82031, -6454.7802734375]]], [[[-126.9123, 48.74764, -5692.599609375], [-126.90412, 48.74497, -6432.72900390625], [-126.90977, 48.75313, -6460.82958984375], [-126.9123, 48.74764, -5692.599609375]]], [[[-126.97355, 48.81592, -6496.1435546875], [-126.98527, 48.82031, -6454.7802734375], [-126.98233, 48.81505, -5702.22998046875], [-126.97355, 48.81592, -6496.1435546875]]], [[[-126.89966, 48.70111, -3668.5361328125], [-126.89151, 48.69707, -4551.4609375], [-126.8939, 48.70499, -4597.1083984375], [-126.89966, 48.70111, -3668.5361328125]]], [[[-126.97199, 48.81109, -5704.576171875], [-126.97355, 48.81592, -6496.1435546875], [-126.98233, 48.81505, -5702.22998046875], [-126.97199, 48.81109, -5704.576171875]]], [[[-126.93835, 48.74122, -2170.05810546875], [-126.94682, 48.74376, -1443.2628173828125], [-126.94082, 48.73573, -1401.810546875], [-126.93835, 48.74122, -2170.05810546875]]], [[[-126.92675, 48.75801, -4976.25537109375], [-126.91822, 48.75559, -5728.0263671875], [-126.92423, 48.76348, -5749.89892578125], [-126.92675, 48.75801, -4976.25537109375]]], [[[-126.97199, 48.81109, -5704.576171875], [-126.96376, 48.81228, -6531.09814453125], [-126.97355, 48.81592, -6496.1435546875], [-126.97199, 48.81109, -5704.576171875]]], [[[-126.99558, 48.80432, -2707.006103515625], [-127.00729, 48.80844, -2650.98876953125], [-127.00357, 48.80319, -1911.712158203125], [-126.99558, 48.80432, -2707.006103515625]]], [[[-126.96426, 48.80688, -5752.28955078125], [-126.96376, 48.81228, -6531.09814453125], [-126.97199, 48.81109, -5704.576171875], [-126.96426, 48.80688, -5752.28955078125]]], [[[-126.96426, 48.80688, -5752.28955078125], [-126.95703, 48.80706, -6539.634765625], [-126.96376, 48.81228, -6531.09814453125], [-126.96426, 48.80688, -5752.28955078125]]], [[[-126.98283, 48.79634, -2672.38525390625], [-126.99182, 48.79879, -1975.2127685546875], [-126.98505, 48.79106, -1881.757568359375], [-126.98283, 48.79634, -2672.38525390625]]], [[[-126.96426, 48.80688, -5752.28955078125], [-126.95819, 48.80128, -5809.7724609375], [-126.95703, 48.80706, -6539.634765625], [-126.96426, 48.80688, -5752.28955078125]]], [[[-126.96426, 48.80688, -5752.28955078125], [-126.96613, 48.80123, -4960.76318359375], [-126.95819, 48.80128, -5809.7724609375], [-126.96426, 48.80688, -5752.28955078125]]], [[[-126.9145, 48.72952, -3934.778076171875], [-126.91028, 48.73449, -4845.8447265625], [-126.91955, 48.73703, -3990.413330078125], [-126.9145, 48.72952, -3934.778076171875]]], [[[-126.96613, 48.80123, -4960.76318359375], [-126.96426, 48.80688, -5752.28955078125], [-126.97147, 48.80596, -4889.79541015625], [-126.96613, 48.80123, -4960.76318359375]]], [[[-126.915, 48.74214, -4934.26318359375], [-126.91028, 48.73449, -4845.8447265625], [-126.90685, 48.73947, -5669.6826171875], [-126.915, 48.74214, -4934.26318359375]]], [[[-126.92681, 48.72516, -2153.112060546875], [-126.93247, 48.73309, -2163.70703125], [-126.93535, 48.72752, -1378.6304931640625], [-126.92681, 48.72516, -2153.112060546875]]], [[[-126.89656, 48.69268, -3692.7724609375], [-126.88768, 48.68849, -4546.63134765625], [-126.89151, 48.69707, -4551.4609375], [-126.89656, 48.69268, -3692.7724609375]]], [[[-126.91822, 48.75559, -5728.0263671875], [-126.91581, 48.76117, -6490.51806640625], [-126.92423, 48.76348, -5749.89892578125], [-126.91822, 48.75559, -5728.0263671875]]], [[[-126.97588, 48.80243, -4050.88427734375], [-126.96613, 48.80123, -4960.76318359375], [-126.97147, 48.80596, -4889.79541015625], [-126.97588, 48.80243, -4050.88427734375]]], [[[-126.96613, 48.80123, -4960.76318359375], [-126.97588, 48.80243, -4050.88427734375], [-126.96787, 48.79605, -4231.61767578125], [-126.96613, 48.80123, -4960.76318359375]]], [[[-126.96613, 48.80123, -4960.76318359375], [-126.96787, 48.79605, -4231.61767578125], [-126.95956, 48.79538, -5044.6728515625], [-126.96613, 48.80123, -4960.76318359375]]], [[[-126.89644, 48.71323, -4700.94482421875], [-126.88919, 48.70962, -5421.89111328125], [-126.8928, 48.71771, -5503.3779296875], [-126.89644, 48.71323, -4700.94482421875]]], [[[-126.88919, 48.70962, -5421.89111328125], [-126.88207, 48.70661, -6216.587890625], [-126.88386, 48.71268, -6257.732421875], [-126.88919, 48.70962, -5421.89111328125]]], [[[-126.90685, 48.73947, -5669.6826171875], [-126.90412, 48.74497, -6432.72900390625], [-126.9123, 48.74764, -5692.599609375], [-126.90685, 48.73947, -5669.6826171875]]], [[[-126.95956, 48.79538, -5044.6728515625], [-126.95819, 48.80128, -5809.7724609375], [-126.96613, 48.80123, -4960.76318359375], [-126.95956, 48.79538, -5044.6728515625]]], [[[-126.95956, 48.79538, -5044.6728515625], [-126.95144, 48.79412, -5780.1630859375], [-126.95819, 48.80128, -5809.7724609375], [-126.95956, 48.79538, -5044.6728515625]]], [[[-126.90152, 48.73177, -5610.5517578125], [-126.89332, 48.72894, -6351.900390625], [-126.89845, 48.73682, -6397.3759765625], [-126.90152, 48.73177, -5610.5517578125]]], [[[-126.95956, 48.79538, -5044.6728515625], [-126.95314, 48.78799, -5010.30859375], [-126.95144, 48.79412, -5780.1630859375], [-126.95956, 48.79538, -5044.6728515625]]], [[[-127.00918, 48.8143, -3444.535400390625], [-126.99817, 48.80921, -3450.352783203125], [-127.0014, 48.81499, -4230.08154296875], [-127.00918, 48.8143, -3444.535400390625]]], [[[-126.96049, 48.7781, -3220.06640625], [-126.95721, 48.78296, -4081.502685546875], [-126.96678, 48.78613, -3323.4775390625], [-126.96049, 48.7781, -3220.06640625]]], [[[-126.89654, 48.67987, -2842.083740234375], [-126.89897, 48.67484, -2080.036865234375], [-126.88842, 48.67244, -2964.2431640625], [-126.89654, 48.67987, -2842.083740234375]]], [[[-126.88668, 48.7019, -5401.33251953125], [-126.88207, 48.70661, -6216.587890625], [-126.88919, 48.70962, -5421.89111328125], [-126.88668, 48.7019, -5401.33251953125]]], [[[-126.94998, 48.77565, -4007.12841796875], [-126.95721, 48.78296, -4081.502685546875], [-126.96049, 48.7781, -3220.06640625], [-126.94998, 48.77565, -4007.12841796875]]], [[[-126.91193, 48.71438, -3031.94482421875], [-126.91558, 48.70876, -2129.62109375], [-126.90718, 48.70546, -2882.461181640625], [-126.91193, 48.71438, -3031.94482421875]]], [[[-126.95721, 48.78296, -4081.502685546875], [-126.94998, 48.77565, -4007.12841796875], [-126.9467, 48.78061, -4916.2255859375], [-126.95721, 48.78296, -4081.502685546875]]], [[[-126.97375, 48.7943, -3422.92529296875], [-126.96678, 48.78613, -3323.4775390625], [-126.96168, 48.79007, -4262.43017578125], [-126.97375, 48.7943, -3422.92529296875]]], [[[-126.89966, 48.70111, -3668.5361328125], [-126.90718, 48.70546, -2882.461181640625], [-126.90406, 48.69593, -2858.78173828125], [-126.89966, 48.70111, -3668.5361328125]]], [[[-126.95721, 48.78296, -4081.502685546875], [-126.9467, 48.78061, -4916.2255859375], [-126.95314, 48.78799, -5010.30859375], [-126.95721, 48.78296, -4081.502685546875]]], [[[-126.94443, 48.7862, -5793.4921875], [-126.95314, 48.78799, -5010.30859375], [-126.9467, 48.78061, -4916.2255859375], [-126.94443, 48.7862, -5793.4921875]]], [[[-127.00729, 48.80844, -2650.98876953125], [-127.01553, 48.80732, -1824.9351806640625], [-127.00357, 48.80319, -1911.712158203125], [-127.00729, 48.80844, -2650.98876953125]]], [[[-126.88823, 48.67837, -3601.158935546875], [-126.88842, 48.67244, -2964.2431640625], [-126.87958, 48.67429, -4080.588623046875], [-126.88823, 48.67837, -3601.158935546875]]], [[[-126.90093, 48.68753, -2851.27294921875], [-126.89654, 48.67987, -2842.083740234375], [-126.89317, 48.68502, -3648.543701171875], [-126.90093, 48.68753, -2851.27294921875]]], [[[-126.91106, 48.69951, -2105.697021484375], [-126.91558, 48.70876, -2129.62109375], [-126.91811, 48.70315, -1355.56884765625], [-126.91106, 48.69951, -2105.697021484375]]], [[[-126.92347, 48.73097, -3035.9912109375], [-126.93247, 48.73309, -2163.70703125], [-126.92681, 48.72516, -2153.112060546875], [-126.92347, 48.73097, -3035.9912109375]]], [[[-126.95314, 48.78799, -5010.30859375], [-126.94443, 48.7862, -5793.4921875], [-126.95144, 48.79412, -5780.1630859375], [-126.95314, 48.78799, -5010.30859375]]], [[[-126.91106, 48.69951, -2105.697021484375], [-126.91811, 48.70315, -1355.56884765625], [-126.91513, 48.6944, -1341.9251708984375], [-126.91106, 48.69951, -2105.697021484375]]], [[[-126.96287, 48.77306, -2393.788330078125], [-126.96953, 48.7805, -2483.628173828125], [-126.97225, 48.77533, -1691.7503662109375], [-126.96287, 48.77306, -2393.788330078125]]], [[[-126.88823, 48.67837, -3601.158935546875], [-126.87958, 48.67429, -4080.588623046875], [-126.88245, 48.68077, -4469.494140625], [-126.88823, 48.67837, -3601.158935546875]]], [[[-126.94158, 48.75506, -3044.31103515625], [-126.95024, 48.75735, -2276.674072265625], [-126.94437, 48.74926, -2211.83984375], [-126.94158, 48.75506, -3044.31103515625]]], [[[-126.93692, 48.77901, -5745.95263671875], [-126.93552, 48.7847, -6528.5966796875], [-126.94443, 48.7862, -5793.4921875], [-126.93692, 48.77901, -5745.95263671875]]], [[[-126.94437, 48.74926, -2211.83984375], [-126.95024, 48.75735, -2276.674072265625], [-126.95285, 48.7518, -1485.3455810546875], [-126.94437, 48.74926, -2211.83984375]]], [[[-126.88368, 48.69372, -5372.27490234375], [-126.87969, 48.69851, -6161.80419921875], [-126.88668, 48.7019, -5401.33251953125], [-126.88368, 48.69372, -5372.27490234375]]], [[[-126.90167, 48.72041, -4720.62890625], [-126.89644, 48.71323, -4700.94482421875], [-126.8928, 48.71771, -5503.3779296875], [-126.90167, 48.72041, -4720.62890625]]], [[[-127.0014, 48.81499, -4230.08154296875], [-126.98804, 48.80894, -4122.68994140625], [-126.99113, 48.81441, -4948.81640625], [-127.0014, 48.81499, -4230.08154296875]]], [[[-126.89253, 48.66803, -2029.8138427734375], [-126.89897, 48.67484, -2080.036865234375], [-126.90129, 48.66933, -1282.19677734375], [-126.89253, 48.66803, -2029.8138427734375]]], [[[-126.93692, 48.77901, -5745.95263671875], [-126.92842, 48.77707, -6519.240234375], [-126.93552, 48.7847, -6528.5966796875], [-126.93692, 48.77901, -5745.95263671875]]], [[[-126.93692, 48.77901, -5745.95263671875], [-126.93041, 48.77137, -5761.25439453125], [-126.92842, 48.77707, -6519.240234375], [-126.93692, 48.77901, -5745.95263671875]]], [[[-126.97588, 48.80243, -4050.88427734375], [-126.97987, 48.8097, -4865.07275390625], [-126.98804, 48.80894, -4122.68994140625], [-126.97588, 48.80243, -4050.88427734375]]], [[[-126.99182, 48.79879, -1975.2127685546875], [-126.98283, 48.79634, -2672.38525390625], [-126.98512, 48.80297, -3224.16455078125], [-126.99182, 48.79879, -1975.2127685546875]]], [[[-126.94437, 48.74926, -2211.83984375], [-126.95285, 48.7518, -1485.3455810546875], [-126.94682, 48.74376, -1443.2628173828125], [-126.94437, 48.74926, -2211.83984375]]], [[[-126.96049, 48.7781, -3220.06640625], [-126.96953, 48.7805, -2483.628173828125], [-126.96287, 48.77306, -2393.788330078125], [-126.96049, 48.7781, -3220.06640625]]], [[[-126.98804, 48.80894, -4122.68994140625], [-127.0014, 48.81499, -4230.08154296875], [-126.99817, 48.80921, -3450.352783203125], [-126.98804, 48.80894, -4122.68994140625]]], [[[-126.93692, 48.77901, -5745.95263671875], [-126.93968, 48.77343, -4925.041015625], [-126.93041, 48.77137, -5761.25439453125], [-126.93692, 48.77901, -5745.95263671875]]], [[[-126.88577, 48.66149, -1967.3526611328125], [-126.885, 48.655, -1315.137939453125], [-126.87881, 48.6575, -2237.68505859375], [-126.88577, 48.66149, -1967.3526611328125]]], [[[-126.93968, 48.77343, -4925.041015625], [-126.93692, 48.77901, -5745.95263671875], [-126.9467, 48.78061, -4916.2255859375], [-126.93968, 48.77343, -4925.041015625]]], [[[-126.89966, 48.70111, -3668.5361328125], [-126.89656, 48.69268, -3692.7724609375], [-126.89151, 48.69707, -4551.4609375], [-126.89966, 48.70111, -3668.5361328125]]], [[[-126.95612, 48.76523, -2331.033203125], [-126.96489, 48.76785, -1589.9122314453125], [-126.95887, 48.75983, -1527.4287109375], [-126.95612, 48.76523, -2331.033203125]]], [[[-126.94998, 48.77565, -4007.12841796875], [-126.93968, 48.77343, -4925.041015625], [-126.9467, 48.78061, -4916.2255859375], [-126.94998, 48.77565, -4007.12841796875]]], [[[-126.85404, 48.66749, -5927.87353515625], [-126.86396, 48.6716, -5365.46435546875], [-126.86023, 48.66499, -5005.326171875], [-126.85404, 48.66749, -5927.87353515625]]], [[[-126.93968, 48.77343, -4925.041015625], [-126.94998, 48.77565, -4007.12841796875], [-126.94257, 48.76794, -4097.24072265625], [-126.93968, 48.77343, -4925.041015625]]], [[[-126.94257, 48.76794, -4097.24072265625], [-126.94998, 48.77565, -4007.12841796875], [-126.95294, 48.7705, -3170.83837890625], [-126.94257, 48.76794, -4097.24072265625]]], [[[-126.99113, 48.81441, -4948.81640625], [-126.97987, 48.8097, -4865.07275390625], [-126.98233, 48.81505, -5702.22998046875], [-126.99113, 48.81441, -4948.81640625]]], [[[-126.88245, 48.68077, -4469.494140625], [-126.88768, 48.68849, -4546.63134765625], [-126.89317, 48.68502, -3648.543701171875], [-126.88245, 48.68077, -4469.494140625]]], [[[-126.89897, 48.67484, -2080.036865234375], [-126.90461, 48.68242, -2071.65380859375], [-126.90805, 48.6771, -1308.2208251953125], [-126.89897, 48.67484, -2080.036865234375]]], [[[-127.02689, 48.81908, -2682.29052734375], [-127.03518, 48.82605, -2674.5419921875], [-127.03605, 48.81905, -1906.377685546875], [-127.02689, 48.81908, -2682.29052734375]]], [[[-126.93968, 48.77343, -4925.041015625], [-126.93297, 48.7657, -4966.001953125], [-126.93041, 48.77137, -5761.25439453125], [-126.93968, 48.77343, -4925.041015625]]], [[[-126.93297, 48.7657, -4966.001953125], [-126.92423, 48.76348, -5749.89892578125], [-126.93041, 48.77137, -5761.25439453125], [-126.93297, 48.7657, -4966.001953125]]], [[[-126.87224, 48.67701, -5145.6494140625], [-126.8784, 48.68472, -5301.89501953125], [-126.88245, 48.68077, -4469.494140625], [-126.87224, 48.67701, -5145.6494140625]]], [[[-126.91558, 48.70876, -2129.62109375], [-126.92412, 48.71119, -1362.8524169921875], [-126.91811, 48.70315, -1355.56884765625], [-126.91558, 48.70876, -2129.62109375]]], [[[-126.93616, 48.75996, -4093.1982421875], [-126.92675, 48.75801, -4976.25537109375], [-126.93297, 48.7657, -4966.001953125], [-126.93616, 48.75996, -4093.1982421875]]], [[[-126.96168, 48.79007, -4262.43017578125], [-126.95956, 48.79538, -5044.6728515625], [-126.96787, 48.79605, -4231.61767578125], [-126.96168, 48.79007, -4262.43017578125]]], [[[-126.90805, 48.6771, -1308.2208251953125], [-126.90461, 48.68242, -2071.65380859375], [-126.91221, 48.68564, -1326.8868408203125], [-126.90805, 48.6771, -1308.2208251953125]]], [[[-126.97588, 48.80243, -4050.88427734375], [-126.98512, 48.80297, -3224.16455078125], [-126.97375, 48.7943, -3422.92529296875], [-126.97588, 48.80243, -4050.88427734375]]], [[[-126.91028, 48.73449, -4845.8447265625], [-126.90152, 48.73177, -5610.5517578125], [-126.90685, 48.73947, -5669.6826171875], [-126.91028, 48.73449, -4845.8447265625]]], [[[-126.90093, 48.68753, -2851.27294921875], [-126.90461, 48.68242, -2071.65380859375], [-126.89654, 48.67987, -2842.083740234375], [-126.90093, 48.68753, -2851.27294921875]]], [[[-126.97987, 48.8097, -4865.07275390625], [-126.97147, 48.80596, -4889.79541015625], [-126.97199, 48.81109, -5704.576171875], [-126.97987, 48.8097, -4865.07275390625]]], [[[-126.92243, 48.7448, -4285.98779296875], [-126.92068, 48.75012, -4960.0751953125], [-126.92851, 48.75235, -4272.1484375], [-126.92243, 48.7448, -4285.98779296875]]], [[[-126.89656, 48.69268, -3692.7724609375], [-126.90406, 48.69593, -2858.78173828125], [-126.90093, 48.68753, -2851.27294921875], [-126.89656, 48.69268, -3692.7724609375]]], [[[-126.88842, 48.67244, -2964.2431640625], [-126.89253, 48.66803, -2029.8138427734375], [-126.88229, 48.66515, -2740.664306640625], [-126.88842, 48.67244, -2964.2431640625]]], [[[-126.94998, 48.77565, -4007.12841796875], [-126.96049, 48.7781, -3220.06640625], [-126.95294, 48.7705, -3170.83837890625], [-126.94998, 48.77565, -4007.12841796875]]], [[[-126.88919, 48.70962, -5421.89111328125], [-126.88386, 48.71268, -6257.732421875], [-126.8928, 48.71771, -5503.3779296875], [-126.88919, 48.70962, -5421.89111328125]]], [[[-126.92243, 48.7448, -4285.98779296875], [-126.915, 48.74214, -4934.26318359375], [-126.92068, 48.75012, -4960.0751953125], [-126.92243, 48.7448, -4285.98779296875]]], [[[-127.01843, 48.81895, -3369.5234375], [-127.02633, 48.82553, -3599.8212890625], [-127.02689, 48.81908, -2682.29052734375], [-127.01843, 48.81895, -3369.5234375]]], [[[-126.91955, 48.73703, -3990.413330078125], [-126.915, 48.74214, -4934.26318359375], [-126.92243, 48.7448, -4285.98779296875], [-126.91955, 48.73703, -3990.413330078125]]], [[[-126.89897, 48.67484, -2080.036865234375], [-126.90805, 48.6771, -1308.2208251953125], [-126.90129, 48.66933, -1282.19677734375], [-126.89897, 48.67484, -2080.036865234375]]], [[[-126.96678, 48.78613, -3323.4775390625], [-126.97606, 48.78861, -2578.911865234375], [-126.96953, 48.7805, -2483.628173828125], [-126.96678, 48.78613, -3323.4775390625]]], [[[-126.93247, 48.73309, -2163.70703125], [-126.93835, 48.74122, -2170.05810546875], [-126.94082, 48.73573, -1401.810546875], [-126.93247, 48.73309, -2163.70703125]]], [[[-127.01681, 48.81315, -2601.043701171875], [-127.02561, 48.81333, -1863.8616943359375], [-127.01553, 48.80732, -1824.9351806640625], [-127.01681, 48.81315, -2601.043701171875]]], [[[-126.89966, 48.70111, -3668.5361328125], [-126.90406, 48.69593, -2858.78173828125], [-126.89656, 48.69268, -3692.7724609375], [-126.89966, 48.70111, -3668.5361328125]]], [[[-126.90093, 48.68753, -2851.27294921875], [-126.90812, 48.69072, -2092.302978515625], [-126.90461, 48.68242, -2071.65380859375], [-126.90093, 48.68753, -2851.27294921875]]], [[[-126.91955, 48.73703, -3990.413330078125], [-126.91028, 48.73449, -4845.8447265625], [-126.915, 48.74214, -4934.26318359375], [-126.91955, 48.73703, -3990.413330078125]]], [[[-126.91028, 48.73449, -4845.8447265625], [-126.9145, 48.72952, -3934.778076171875], [-126.90565, 48.7273, -4765.7109375], [-126.91028, 48.73449, -4845.8447265625]]], [[[-127.01843, 48.81895, -3369.5234375], [-127.02689, 48.81908, -2682.29052734375], [-127.01681, 48.81315, -2601.043701171875], [-127.01843, 48.81895, -3369.5234375]]], [[[-126.92347, 48.73097, -3035.9912109375], [-126.92681, 48.72516, -2153.112060546875], [-126.91791, 48.72299, -2985.650390625], [-126.92347, 48.73097, -3035.9912109375]]], [[[-126.89966, 48.70111, -3668.5361328125], [-126.8939, 48.70499, -4597.1083984375], [-126.90091, 48.7089, -3856.813720703125], [-126.89966, 48.70111, -3668.5361328125]]], [[[-126.90497, 48.71547, -3920.438232421875], [-126.89644, 48.71323, -4700.94482421875], [-126.90167, 48.72041, -4720.62890625], [-126.90497, 48.71547, -3920.438232421875]]], [[[-126.98804, 48.80894, -4122.68994140625], [-126.98512, 48.80297, -3224.16455078125], [-126.97588, 48.80243, -4050.88427734375], [-126.98804, 48.80894, -4122.68994140625]]], [[[-126.915, 48.74214, -4934.26318359375], [-126.90685, 48.73947, -5669.6826171875], [-126.9123, 48.74764, -5692.599609375], [-126.915, 48.74214, -4934.26318359375]]], [[[-126.92068, 48.75012, -4960.0751953125], [-126.915, 48.74214, -4934.26318359375], [-126.9123, 48.74764, -5692.599609375], [-126.92068, 48.75012, -4960.0751953125]]], [[[-126.99182, 48.79879, -1975.2127685546875], [-126.98512, 48.80297, -3224.16455078125], [-126.99558, 48.80432, -2707.006103515625], [-126.99182, 48.79879, -1975.2127685546875]]], [[[-126.92675, 48.75801, -4976.25537109375], [-126.92068, 48.75012, -4960.0751953125], [-126.91822, 48.75559, -5728.0263671875], [-126.92675, 48.75801, -4976.25537109375]]], [[[-126.98512, 48.80297, -3224.16455078125], [-126.99817, 48.80921, -3450.352783203125], [-126.99558, 48.80432, -2707.006103515625], [-126.98512, 48.80297, -3224.16455078125]]], [[[-127.00918, 48.8143, -3444.535400390625], [-127.01843, 48.81895, -3369.5234375], [-127.01681, 48.81315, -2601.043701171875], [-127.00918, 48.8143, -3444.535400390625]]], [[[-126.88768, 48.68849, -4546.63134765625], [-126.8784, 48.68472, -5301.89501953125], [-126.88368, 48.69372, -5372.27490234375], [-126.88768, 48.68849, -4546.63134765625]]], [[[-126.97147, 48.80596, -4889.79541015625], [-126.96426, 48.80688, -5752.28955078125], [-126.97199, 48.81109, -5704.576171875], [-126.97147, 48.80596, -4889.79541015625]]], [[[-126.95612, 48.76523, -2331.033203125], [-126.96287, 48.77306, -2393.788330078125], [-126.96489, 48.76785, -1589.9122314453125], [-126.95612, 48.76523, -2331.033203125]]], [[[-126.90091, 48.7089, -3856.813720703125], [-126.89644, 48.71323, -4700.94482421875], [-126.90497, 48.71547, -3920.438232421875], [-126.90091, 48.7089, -3856.813720703125]]], [[[-126.9123, 48.74764, -5692.599609375], [-126.90977, 48.75313, -6460.82958984375], [-126.91822, 48.75559, -5728.0263671875], [-126.9123, 48.74764, -5692.599609375]]], [[[-126.90152, 48.73177, -5610.5517578125], [-126.89845, 48.73682, -6397.3759765625], [-126.90685, 48.73947, -5669.6826171875], [-126.90152, 48.73177, -5610.5517578125]]], [[[-126.89737, 48.72458, -5543.59326171875], [-126.89332, 48.72894, -6351.900390625], [-126.90152, 48.73177, -5610.5517578125], [-126.89737, 48.72458, -5543.59326171875]]], [[[-126.99113, 48.81441, -4948.81640625], [-126.98804, 48.80894, -4122.68994140625], [-126.97987, 48.8097, -4865.07275390625], [-126.99113, 48.81441, -4948.81640625]]], [[[-126.89737, 48.72458, -5543.59326171875], [-126.88939, 48.72259, -6314.88623046875], [-126.89332, 48.72894, -6351.900390625], [-126.89737, 48.72458, -5543.59326171875]]], [[[-126.97588, 48.80243, -4050.88427734375], [-126.97375, 48.7943, -3422.92529296875], [-126.96787, 48.79605, -4231.61767578125], [-126.97588, 48.80243, -4050.88427734375]]], [[[-126.89737, 48.72458, -5543.59326171875], [-126.8928, 48.71771, -5503.3779296875], [-126.88939, 48.72259, -6314.88623046875], [-126.89737, 48.72458, -5543.59326171875]]], [[[-126.86999, 48.66997, -4556.90478515625], [-126.87667, 48.66772, -3612.70654296875], [-126.86643, 48.66249, -4082.779296875], [-126.86999, 48.66997, -4556.90478515625]]], [[[-126.97606, 48.78861, -2578.911865234375], [-126.97828, 48.78332, -1788.3055419921875], [-126.96953, 48.7805, -2483.628173828125], [-126.97606, 48.78861, -2578.911865234375]]], [[[-126.89966, 48.70111, -3668.5361328125], [-126.90091, 48.7089, -3856.813720703125], [-126.90718, 48.70546, -2882.461181640625], [-126.89966, 48.70111, -3668.5361328125]]], [[[-126.99113, 48.81441, -4948.81640625], [-126.98233, 48.81505, -5702.22998046875], [-126.99392, 48.82023, -5684.34521484375], [-126.99113, 48.81441, -4948.81640625]]], [[[-126.91558, 48.70876, -2129.62109375], [-126.91193, 48.71438, -3031.94482421875], [-126.9211, 48.71689, -2149.859130859375], [-126.91558, 48.70876, -2129.62109375]]], [[[-126.91558, 48.70876, -2129.62109375], [-126.9211, 48.71689, -2149.859130859375], [-126.92412, 48.71119, -1362.8524169921875], [-126.91558, 48.70876, -2129.62109375]]], [[[-126.90718, 48.70546, -2882.461181640625], [-126.91558, 48.70876, -2129.62109375], [-126.91106, 48.69951, -2105.697021484375], [-126.90718, 48.70546, -2882.461181640625]]], [[[-126.90406, 48.69593, -2858.78173828125], [-126.90718, 48.70546, -2882.461181640625], [-126.91106, 48.69951, -2105.697021484375], [-126.90406, 48.69593, -2858.78173828125]]], [[[-126.89656, 48.69268, -3692.7724609375], [-126.90093, 48.68753, -2851.27294921875], [-126.89317, 48.68502, -3648.543701171875], [-126.89656, 48.69268, -3692.7724609375]]], [[[-126.89656, 48.69268, -3692.7724609375], [-126.89317, 48.68502, -3648.543701171875], [-126.88768, 48.68849, -4546.63134765625], [-126.89656, 48.69268, -3692.7724609375]]], [[[-126.89151, 48.69707, -4551.4609375], [-126.88768, 48.68849, -4546.63134765625], [-126.88368, 48.69372, -5372.27490234375], [-126.89151, 48.69707, -4551.4609375]]], [[[-126.8939, 48.70499, -4597.1083984375], [-126.89151, 48.69707, -4551.4609375], [-126.88668, 48.7019, -5401.33251953125], [-126.8939, 48.70499, -4597.1083984375]]], [[[-126.8939, 48.70499, -4597.1083984375], [-126.88668, 48.7019, -5401.33251953125], [-126.88919, 48.70962, -5421.89111328125], [-126.8939, 48.70499, -4597.1083984375]]], [[[-126.89644, 48.71323, -4700.94482421875], [-126.8939, 48.70499, -4597.1083984375], [-126.88919, 48.70962, -5421.89111328125], [-126.89644, 48.71323, -4700.94482421875]]], [[[-126.88368, 48.69372, -5372.27490234375], [-126.876, 48.69, -6081.3681640625], [-126.87969, 48.69851, -6161.80419921875], [-126.88368, 48.69372, -5372.27490234375]]], [[[-126.8784, 48.68472, -5301.89501953125], [-126.876, 48.69, -6081.3681640625], [-126.88368, 48.69372, -5372.27490234375], [-126.8784, 48.68472, -5301.89501953125]]], [[[-126.87224, 48.67701, -5145.6494140625], [-126.86958, 48.68218, -6012.4560546875], [-126.8784, 48.68472, -5301.89501953125], [-126.87224, 48.67701, -5145.6494140625]]], [[[-126.87224, 48.67701, -5145.6494140625], [-126.86179, 48.67485, -5957.9111328125], [-126.86958, 48.68218, -6012.4560546875], [-126.87224, 48.67701, -5145.6494140625]]], [[[-126.95294, 48.7705, -3170.83837890625], [-126.95612, 48.76523, -2331.033203125], [-126.94655, 48.7628, -3180.048828125], [-126.95294, 48.7705, -3170.83837890625]]], [[[-126.86999, 48.66997, -4556.90478515625], [-126.87958, 48.67429, -4080.588623046875], [-126.87667, 48.66772, -3612.70654296875], [-126.86999, 48.66997, -4556.90478515625]]], [[[-126.87667, 48.66772, -3612.70654296875], [-126.88229, 48.66515, -2740.664306640625], [-126.87262, 48.65999, -3160.232177734375], [-126.87667, 48.66772, -3612.70654296875]]], [[[-126.88842, 48.67244, -2964.2431640625], [-126.89897, 48.67484, -2080.036865234375], [-126.89253, 48.66803, -2029.8138427734375], [-126.88842, 48.67244, -2964.2431640625]]], [[[-126.9359, 48.74671, -2939.177734375], [-126.93835, 48.74122, -2170.05810546875], [-126.9293, 48.73853, -2972.40576171875], [-126.9359, 48.74671, -2939.177734375]]], [[[-126.91106, 48.69951, -2105.697021484375], [-126.91513, 48.6944, -1341.9251708984375], [-126.90812, 48.69072, -2092.302978515625], [-126.91106, 48.69951, -2105.697021484375]]], [[[-126.89253, 48.66803, -2029.8138427734375], [-126.90129, 48.66933, -1282.19677734375], [-126.89317, 48.66215, -1276.9315185546875], [-126.89253, 48.66803, -2029.8138427734375]]], [[[-126.88577, 48.66149, -1967.3526611328125], [-126.89317, 48.66215, -1276.9315185546875], [-126.885, 48.655, -1315.137939453125], [-126.88577, 48.66149, -1967.3526611328125]]], [[[-126.89317, 48.68502, -3648.543701171875], [-126.88823, 48.67837, -3601.158935546875], [-126.88245, 48.68077, -4469.494140625], [-126.89317, 48.68502, -3648.543701171875]]], [[[-126.97375, 48.7943, -3422.92529296875], [-126.98283, 48.79634, -2672.38525390625], [-126.97606, 48.78861, -2578.911865234375], [-126.97375, 48.7943, -3422.92529296875]]], [[[-126.95294, 48.7705, -3170.83837890625], [-126.96287, 48.77306, -2393.788330078125], [-126.95612, 48.76523, -2331.033203125], [-126.95294, 48.7705, -3170.83837890625]]], [[[-126.96049, 48.7781, -3220.06640625], [-126.96678, 48.78613, -3323.4775390625], [-126.96953, 48.7805, -2483.628173828125], [-126.96049, 48.7781, -3220.06640625]]], [[[-126.94257, 48.76794, -4097.24072265625], [-126.95294, 48.7705, -3170.83837890625], [-126.94655, 48.7628, -3180.048828125], [-126.94257, 48.76794, -4097.24072265625]]], [[[-126.98512, 48.80297, -3224.16455078125], [-126.98283, 48.79634, -2672.38525390625], [-126.97375, 48.7943, -3422.92529296875], [-126.98512, 48.80297, -3224.16455078125]]], [[[-126.96953, 48.7805, -2483.628173828125], [-126.97828, 48.78332, -1788.3055419921875], [-126.97225, 48.77533, -1691.7503662109375], [-126.96953, 48.7805, -2483.628173828125]]], [[[-126.93616, 48.75996, -4093.1982421875], [-126.93297, 48.7657, -4966.001953125], [-126.94257, 48.76794, -4097.24072265625], [-126.93616, 48.75996, -4093.1982421875]]], [[[-126.93616, 48.75996, -4093.1982421875], [-126.94655, 48.7628, -3180.048828125], [-126.94158, 48.75506, -3044.31103515625], [-126.93616, 48.75996, -4093.1982421875]]], [[[-126.93405, 48.75215, -3631.7373046875], [-126.93616, 48.75996, -4093.1982421875], [-126.94158, 48.75506, -3044.31103515625], [-126.93405, 48.75215, -3631.7373046875]]], [[[-126.93405, 48.75215, -3631.7373046875], [-126.92851, 48.75235, -4272.1484375], [-126.93616, 48.75996, -4093.1982421875], [-126.93405, 48.75215, -3631.7373046875]]], [[[-126.92772, 48.74422, -3637.150146484375], [-126.92851, 48.75235, -4272.1484375], [-126.93405, 48.75215, -3631.7373046875], [-126.92772, 48.74422, -3637.150146484375]]], [[[-126.92772, 48.74422, -3637.150146484375], [-126.92243, 48.7448, -4285.98779296875], [-126.92851, 48.75235, -4272.1484375], [-126.92772, 48.74422, -3637.150146484375]]], [[[-126.92772, 48.74422, -3637.150146484375], [-126.91955, 48.73703, -3990.413330078125], [-126.92243, 48.7448, -4285.98779296875], [-126.92772, 48.74422, -3637.150146484375]]], [[[-126.91955, 48.73703, -3990.413330078125], [-126.92772, 48.74422, -3637.150146484375], [-126.9293, 48.73853, -2972.40576171875], [-126.91955, 48.73703, -3990.413330078125]]], [[[-126.91955, 48.73703, -3990.413330078125], [-126.9293, 48.73853, -2972.40576171875], [-126.92347, 48.73097, -3035.9912109375], [-126.91955, 48.73703, -3990.413330078125]]], [[[-126.9145, 48.72952, -3934.778076171875], [-126.91955, 48.73703, -3990.413330078125], [-126.92347, 48.73097, -3035.9912109375], [-126.9145, 48.72952, -3934.778076171875]]], [[[-126.9145, 48.72952, -3934.778076171875], [-126.92347, 48.73097, -3035.9912109375], [-126.91791, 48.72299, -2985.650390625], [-126.9145, 48.72952, -3934.778076171875]]], [[[-126.9145, 48.72952, -3934.778076171875], [-126.91791, 48.72299, -2985.650390625], [-126.91001, 48.72226, -3868.541015625], [-126.9145, 48.72952, -3934.778076171875]]], [[[-126.91001, 48.72226, -3868.541015625], [-126.90565, 48.7273, -4765.7109375], [-126.9145, 48.72952, -3934.778076171875], [-126.91001, 48.72226, -3868.541015625]]], [[[-126.91001, 48.72226, -3868.541015625], [-126.90167, 48.72041, -4720.62890625], [-126.90565, 48.7273, -4765.7109375], [-126.91001, 48.72226, -3868.541015625]]], [[[-126.90497, 48.71547, -3920.438232421875], [-126.90167, 48.72041, -4720.62890625], [-126.91001, 48.72226, -3868.541015625], [-126.90497, 48.71547, -3920.438232421875]]], [[[-126.91001, 48.72226, -3868.541015625], [-126.91193, 48.71438, -3031.94482421875], [-126.90497, 48.71547, -3920.438232421875], [-126.91001, 48.72226, -3868.541015625]]], [[[-126.91001, 48.72226, -3868.541015625], [-126.91791, 48.72299, -2985.650390625], [-126.91193, 48.71438, -3031.94482421875], [-126.91001, 48.72226, -3868.541015625]]], [[[-126.91791, 48.72299, -2985.650390625], [-126.9211, 48.71689, -2149.859130859375], [-126.91193, 48.71438, -3031.94482421875], [-126.91791, 48.72299, -2985.650390625]]], [[[-126.91193, 48.71438, -3031.94482421875], [-126.90091, 48.7089, -3856.813720703125], [-126.90497, 48.71547, -3920.438232421875], [-126.91193, 48.71438, -3031.94482421875]]], [[[-126.90565, 48.7273, -4765.7109375], [-126.90167, 48.72041, -4720.62890625], [-126.89737, 48.72458, -5543.59326171875], [-126.90565, 48.7273, -4765.7109375]]], [[[-126.90565, 48.7273, -4765.7109375], [-126.89737, 48.72458, -5543.59326171875], [-126.90152, 48.73177, -5610.5517578125], [-126.90565, 48.7273, -4765.7109375]]], [[[-126.92772, 48.74422, -3637.150146484375], [-126.9359, 48.74671, -2939.177734375], [-126.9293, 48.73853, -2972.40576171875], [-126.92772, 48.74422, -3637.150146484375]]], [[[-126.92772, 48.74422, -3637.150146484375], [-126.93405, 48.75215, -3631.7373046875], [-126.9359, 48.74671, -2939.177734375], [-126.92772, 48.74422, -3637.150146484375]]], [[[-126.93405, 48.75215, -3631.7373046875], [-126.94158, 48.75506, -3044.31103515625], [-126.9359, 48.74671, -2939.177734375], [-126.93405, 48.75215, -3631.7373046875]]], [[[-126.92423, 48.76348, -5749.89892578125], [-126.91581, 48.76117, -6490.51806640625], [-126.92202, 48.76915, -6506.90283203125], [-126.92423, 48.76348, -5749.89892578125]]], [[[-126.92423, 48.76348, -5749.89892578125], [-126.92202, 48.76915, -6506.90283203125], [-126.93041, 48.77137, -5761.25439453125], [-126.92423, 48.76348, -5749.89892578125]]], [[[-126.94443, 48.7862, -5793.4921875], [-126.9467, 48.78061, -4916.2255859375], [-126.93692, 48.77901, -5745.95263671875], [-126.94443, 48.7862, -5793.4921875]]], [[[-126.95144, 48.79412, -5780.1630859375], [-126.94299, 48.79218, -6530.6943359375], [-126.94995, 48.79987, -6537.20654296875], [-126.95144, 48.79412, -5780.1630859375]]], [[[-127.00424, 48.82581, -5663.814453125], [-126.99565, 48.8261, -6429.58837890625], [-127.00607, 48.83151, -6400.47216796875], [-127.00424, 48.82581, -5663.814453125]]], [[[-127.00424, 48.82581, -5663.814453125], [-127.00607, 48.83151, -6400.47216796875], [-127.01373, 48.83252, -5658.91064453125], [-127.00424, 48.82581, -5663.814453125]]], [[[-127.01373, 48.83252, -5658.91064453125], [-127.00607, 48.83151, -6400.47216796875], [-127.01258, 48.83897, -6405.9833984375], [-127.01373, 48.83252, -5658.91064453125]]], [[[-127.01845, 48.83916, -5814.02099609375], [-127.01373, 48.83252, -5658.91064453125], [-127.01258, 48.83897, -6405.9833984375], [-127.01845, 48.83916, -5814.02099609375]]], [[[-127.01845, 48.83916, -5814.02099609375], [-127.02274, 48.83594, -5004.53466796875], [-127.01373, 48.83252, -5658.91064453125], [-127.01845, 48.83916, -5814.02099609375]]], [[[-127.02274, 48.83594, -5004.53466796875], [-127.01845, 48.83916, -5814.02099609375], [-127.02674, 48.84375, -5500.244140625], [-127.02274, 48.83594, -5004.53466796875]]], [[[-127.02274, 48.83594, -5004.53466796875], [-127.02674, 48.84375, -5500.244140625], [-127.0328, 48.84131, -4599.875], [-127.02274, 48.83594, -5004.53466796875]]], [[[-127.02274, 48.83594, -5004.53466796875], [-127.0328, 48.84131, -4599.875], [-127.02907, 48.83383, -4113.73046875], [-127.02274, 48.83594, -5004.53466796875]]], [[[-127.02121, 48.82884, -4481.5810546875], [-127.02274, 48.83594, -5004.53466796875], [-127.02907, 48.83383, -4113.73046875], [-127.02121, 48.82884, -4481.5810546875]]], [[[-127.02907, 48.83383, -4113.73046875], [-127.0328, 48.84131, -4599.875], [-127.03887, 48.83887, -3699.506103515625], [-127.02907, 48.83383, -4113.73046875]]], [[[-127.0351, 48.83176, -3259.752197265625], [-127.03887, 48.83887, -3699.506103515625], [-127.04494, 48.83644, -2799.136962890625], [-127.0351, 48.83176, -3259.752197265625]]], [[[-127.02067, 48.84619, -6400.61328125], [-127.02674, 48.84375, -5500.244140625], [-127.01845, 48.83916, -5814.02099609375], [-127.02067, 48.84619, -6400.61328125]]], [[[-127.02067, 48.84619, -6400.61328125], [-127.01845, 48.83916, -5814.02099609375], [-127.01258, 48.83897, -6405.9833984375], [-127.02067, 48.84619, -6400.61328125]]], [[[-127.04494, 48.83644, -2799.136962890625], [-127.03518, 48.82605, -2674.5419921875], [-127.0351, 48.83176, -3259.752197265625], [-127.04494, 48.83644, -2799.136962890625]]]]}}]}