{"type": "FeatureCollection", "features": [{"type": "Feature", "properties": {"name": "AW_VANC_2", "CFM_ID": 259, "region": "Offshore_BC", "primary_state/province": "BC", "secondary_state/province": null, "avg_dip": 39, "dip_dir": "SW", "rake": 90, "slip_sense": "Reverse", "fault_level": 2, "NSHM23_sliprates": null, "QFFDAgeCatBin": null, "QFFDAgeBin": null, "upper_depth": -2.3, "upper_depth_constraint": "seismic imaging", "lower_depth": -5.9, "lower_depth_constraint": "megathrust", "3D_model_constraints": "trace and 1 MCS line", "reference": "Lucas et al. (2025); Carbotte et al. (2023)", "nshm23_id": null, "lineage": null, "usgs_qffd_#": null, "comments": "fault depth interpretation from Lucas et al. (2025); Carbotte et al. (2023) used to aid in model building", "id": "259"}, "geometry": {"type": "MultiPolygon", "coordinates": [[[[-127.88403, 49.53133, -4792.96875], [-127.88859, 49.52329, -5279.1884765625], [-127.87521, 49.52606, -4828.12646484375], [-127.88403, 49.53133, -4792.96875]]], [[[-127.99246, 49.59087, -4205.70458984375], [-128.00571, 49.58988, -4690.94677734375], [-127.99528, 49.58261, -4757.47216796875], [-127.99246, 49.59087, -4205.70458984375]]], [[[-128.03552, 49.63126, -2964.735107421875], [-128.04055, 49.63805, -2274.6201171875], [-128.04858, 49.63417, -2964.735107421875], [-128.03552, 49.63126, -2964.735107421875]]], [[[-128.11241, 49.63256, -4901.845703125], [-128.11389, 49.64157, -4288.5400390625], [-128.12463, 49.63635, -4922.06005859375], [-128.11241, 49.63256, -4901.845703125]]], [[[-127.83011, 49.52401, -3685.4013671875], [-127.81636, 49.52033, -3628.59033203125], [-127.82301, 49.52888, -2975.833984375], [-127.83011, 49.52401, -3685.4013671875]]], [[[-127.808, 49.5243, -2964.735107421875], [-127.82301, 49.52888, -2975.833984375], [-127.81636, 49.52033, -3628.59033203125], [-127.808, 49.5243, -2964.735107421875]]], [[[-127.9629, 49.58731, -2918.585205078125], [-127.95094, 49.58695, -2274.6201171875], [-127.95908, 49.5942, -2274.6201171875], [-127.9629, 49.58731, -2918.585205078125]]], [[[-127.89208, 49.53679, -4864.44970703125], [-127.89649, 49.52855, -5280.54150390625], [-127.88403, 49.53133, -4792.96875], [-127.89208, 49.53679, -4864.44970703125]]], [[[-127.97601, 49.57757, -4150.45068359375], [-127.98096, 49.57, -4761.2265625], [-127.9689, 49.5727, -4249.0302734375], [-127.97601, 49.57757, -4150.45068359375]]], [[[-127.93566, 49.56761, -3653.423828125], [-127.92236, 49.56279, -3731.374755859375], [-127.92494, 49.57101, -2972.38623046875], [-127.93566, 49.56761, -3653.423828125]]], [[[-128.10136, 49.63768, -4255.701171875], [-128.11389, 49.64157, -4288.5400390625], [-128.11241, 49.63256, -4901.845703125], [-128.10136, 49.63768, -4255.701171875]]], [[[-128.10136, 49.63768, -4255.701171875], [-128.10563, 49.64564, -3628.59033203125], [-128.11389, 49.64157, -4288.5400390625], [-128.10136, 49.63768, -4255.701171875]]], [[[-127.93594, 49.5601, -4364.19970703125], [-127.93566, 49.56761, -3653.423828125], [-127.94776, 49.56454, -4317.2734375], [-127.93594, 49.5601, -4364.19970703125]]], [[[-127.88401, 49.54761, -4033.732666015625], [-127.89227, 49.54503, -4533.70556640625], [-127.87977, 49.53967, -4209.6240234375], [-127.88401, 49.54761, -4033.732666015625]]], [[[-127.87539, 49.55957, -2848.353759765625], [-127.87556, 49.56674, -2274.6201171875], [-127.88493, 49.56275, -2997.070556640625], [-127.87539, 49.55957, -2848.353759765625]]], [[[-127.95898, 49.56876, -4247.6630859375], [-127.96279, 49.57814, -3537.515869140625], [-127.9689, 49.5727, -4249.0302734375], [-127.95898, 49.56876, -4247.6630859375]]], [[[-127.87236, 49.53402, -4226.59912109375], [-127.88403, 49.53133, -4792.96875], [-127.87521, 49.52606, -4828.12646484375], [-127.87236, 49.53402, -4226.59912109375]]], [[[-128.00756, 49.61119, -3588.407470703125], [-128.01097, 49.60401, -4196.87548828125], [-127.99925, 49.605, -3560.3095703125], [-128.00756, 49.61119, -3588.407470703125]]], [[[-128.09183, 49.64173, -3550.1875], [-128.10563, 49.64564, -3628.59033203125], [-128.10136, 49.63768, -4255.701171875], [-128.09183, 49.64173, -3550.1875]]], [[[-127.8514, 49.53175, -3675.186767578125], [-127.85157, 49.52326, -4439.5859375], [-127.84213, 49.52679, -3842.732421875], [-127.8514, 49.53175, -3675.186767578125]]], [[[-127.87804, 49.51859, -5322.560546875], [-127.89099, 49.51549, -5779.20654296875], [-127.87989, 49.51027, -5832.0126953125], [-127.87804, 49.51859, -5322.560546875]]], [[[-127.89296, 49.55314, -4092.419921875], [-127.90226, 49.55042, -4584.5712890625], [-127.89227, 49.54503, -4533.70556640625], [-127.89296, 49.55314, -4092.419921875]]], [[[-127.9078, 49.56113, -3583.328369140625], [-127.89782, 49.56417, -3001.25830078125], [-127.91246, 49.56713, -2954.39453125], [-127.9078, 49.56113, -3583.328369140625]]], [[[-127.91863, 49.54323, -5371.44921875], [-127.91338, 49.54887, -4967.00634765625], [-127.92602, 49.54743, -5182.78759765625], [-127.91863, 49.54323, -5371.44921875]]], [[[-128.09183, 49.64173, -3550.1875], [-128.09728, 49.64963, -2964.735107421875], [-128.10563, 49.64564, -3628.59033203125], [-128.09183, 49.64173, -3550.1875]]], [[[-127.98096, 49.57, -4761.2265625], [-127.98815, 49.57547, -4758.962890625], [-127.99329, 49.56767, -5221.7099609375], [-127.98096, 49.57, -4761.2265625]]], [[[-127.98105, 49.59154, -3692.6826171875], [-127.97324, 49.59686, -2996.523681640625], [-127.98836, 49.59866, -3368.83837890625], [-127.98105, 49.59154, -3692.6826171875]]], [[[-128.09183, 49.64173, -3550.1875], [-128.08644, 49.64668, -2893.463134765625], [-128.09728, 49.64963, -2964.735107421875], [-128.09183, 49.64173, -3550.1875]]], [[[-128.03715, 49.60949, -4746.033203125], [-128.02445, 49.60397, -4692.0263671875], [-128.02898, 49.61392, -4199.86865234375], [-128.03715, 49.60949, -4746.033203125]]], [[[-128.09183, 49.64173, -3550.1875], [-128.07662, 49.6414, -2969.22802734375], [-128.08644, 49.64668, -2893.463134765625], [-128.09183, 49.64173, -3550.1875]]], [[[-127.83681, 49.53323, -3052.2685546875], [-127.84976, 49.5387, -2944.741943359375], [-127.8514, 49.53175, -3675.186767578125], [-127.83681, 49.53323, -3052.2685546875]]], [[[-128.06287, 49.618, -4922.06005859375], [-128.07593, 49.6209, -4922.06005859375], [-128.07224, 49.61444, -5251.23291015625], [-128.06287, 49.618, -4922.06005859375]]], [[[-127.8514, 49.53175, -3675.186767578125], [-127.86284, 49.52903, -4295.05322265625], [-127.85157, 49.52326, -4439.5859375], [-127.8514, 49.53175, -3675.186767578125]]], [[[-127.89782, 49.56417, -3001.25830078125], [-127.88918, 49.56823, -2274.6201171875], [-127.90262, 49.57027, -2274.6201171875], [-127.89782, 49.56417, -3001.25830078125]]], [[[-127.89296, 49.55314, -4092.419921875], [-127.89424, 49.55893, -3654.6171875], [-127.90928, 49.5561, -4234.46875], [-127.89296, 49.55314, -4092.419921875]]], [[[-127.90303, 49.54256, -5023.52978515625], [-127.90434, 49.53452, -5334.05126953125], [-127.89208, 49.53679, -4864.44970703125], [-127.90303, 49.54256, -5023.52978515625]]], [[[-128.08162, 49.63577, -3646.576416015625], [-128.07662, 49.6414, -2969.22802734375], [-128.09183, 49.64173, -3550.1875], [-128.08162, 49.63577, -3646.576416015625]]], [[[-127.97601, 49.57757, -4150.45068359375], [-127.98815, 49.57547, -4758.962890625], [-127.98096, 49.57, -4761.2265625], [-127.97601, 49.57757, -4150.45068359375]]], [[[-127.85755, 49.50972, -5423.7861328125], [-127.85672, 49.50081, -5942.23828125], [-127.84605, 49.50595, -5432.15185546875], [-127.85755, 49.50972, -5423.7861328125]]], [[[-128.07662, 49.6414, -2969.22802734375], [-128.08162, 49.63577, -3646.576416015625], [-128.07054, 49.63259, -3591.877197265625], [-128.07662, 49.6414, -2969.22802734375]]], [[[-128.08854, 49.62497, -4782.443359375], [-128.09822, 49.6201, -5299.4951171875], [-128.08527, 49.6172, -5268.0078125], [-128.08854, 49.62497, -4782.443359375]]], [[[-127.98373, 49.58341, -4222.8662109375], [-127.99528, 49.58261, -4757.47216796875], [-127.98815, 49.57547, -4758.962890625], [-127.98373, 49.58341, -4222.8662109375]]], [[[-127.88401, 49.54761, -4033.732666015625], [-127.87323, 49.54618, -3532.50390625], [-127.88136, 49.55442, -3504.4951171875], [-127.88401, 49.54761, -4033.732666015625]]], [[[-128.04387, 49.62728, -3628.59033203125], [-128.05693, 49.63019, -3628.59033203125], [-128.05212, 49.62321, -4288.5400390625], [-128.04387, 49.62728, -3628.59033203125]]], [[[-127.89424, 49.55893, -3654.6171875], [-127.88493, 49.56275, -2997.070556640625], [-127.89782, 49.56417, -3001.25830078125], [-127.89424, 49.55893, -3654.6171875]]], [[[-128.07662, 49.6414, -2969.22802734375], [-128.07054, 49.63259, -3591.877197265625], [-128.06328, 49.6368, -2939.095947265625], [-128.07662, 49.6414, -2969.22802734375]]], [[[-128.00171, 49.59738, -4092.6904296875], [-127.99246, 49.59087, -4205.70458984375], [-127.98836, 49.59866, -3368.83837890625], [-128.00171, 49.59738, -4092.6904296875]]], [[[-127.98105, 49.59154, -3692.6826171875], [-127.99246, 49.59087, -4205.70458984375], [-127.98373, 49.58341, -4222.8662109375], [-127.98105, 49.59154, -3692.6826171875]]], [[[-127.83681, 49.53323, -3052.2685546875], [-127.82301, 49.52888, -2975.833984375], [-127.82642, 49.53723, -2274.6201171875], [-127.83681, 49.53323, -3052.2685546875]]], [[[-127.85755, 49.50972, -5423.7861328125], [-127.86825, 49.5056, -5887.7880859375], [-127.85672, 49.50081, -5942.23828125], [-127.85755, 49.50972, -5423.7861328125]]], [[[-127.98815, 49.57547, -4758.962890625], [-128.00065, 49.57476, -5203.927734375], [-127.99329, 49.56767, -5221.7099609375], [-127.98815, 49.57547, -4758.962890625]]], [[[-127.83857, 49.5192, -4396.07568359375], [-127.83537, 49.51109, -4922.06005859375], [-127.82462, 49.51628, -4288.5400390625], [-127.83857, 49.5192, -4396.07568359375]]], [[[-127.81454, 49.53267, -2274.6201171875], [-127.82642, 49.53723, -2274.6201171875], [-127.82301, 49.52888, -2975.833984375], [-127.81454, 49.53267, -2274.6201171875]]], [[[-127.99925, 49.605, -3560.3095703125], [-127.98836, 49.59866, -3368.83837890625], [-127.9885, 49.60616, -2901.92431640625], [-127.99925, 49.605, -3560.3095703125]]], [[[-127.86284, 49.52903, -4295.05322265625], [-127.87521, 49.52606, -4828.12646484375], [-127.86234, 49.52009, -4927.8330078125], [-127.86284, 49.52903, -4295.05322265625]]], [[[-128.06328, 49.6368, -2939.095947265625], [-128.066, 49.64408, -2274.6201171875], [-128.07662, 49.6414, -2969.22802734375], [-128.06328, 49.6368, -2939.095947265625]]], [[[-127.8514, 49.53175, -3675.186767578125], [-127.84976, 49.5387, -2944.741943359375], [-127.86351, 49.53809, -3552.012939453125], [-127.8514, 49.53175, -3675.186767578125]]], [[[-127.99607, 49.61271, -2922.966796875], [-127.98456, 49.61331, -2274.6201171875], [-127.99321, 49.61999, -2274.6201171875], [-127.99607, 49.61271, -2922.966796875]]], [[[-128.05168, 49.61273, -4922.06005859375], [-128.06287, 49.618, -4922.06005859375], [-128.05993, 49.61058, -5230.38623046875], [-128.05168, 49.61273, -4922.06005859375]]], [[[-128.09029, 49.6327, -4243.67138671875], [-128.10136, 49.63768, -4255.701171875], [-128.10078, 49.62858, -4817.60986328125], [-128.09029, 49.6327, -4243.67138671875]]], [[[-127.87521, 49.52606, -4828.12646484375], [-127.87804, 49.51859, -5322.560546875], [-127.86234, 49.52009, -4927.8330078125], [-127.87521, 49.52606, -4828.12646484375]]], [[[-127.8689, 49.55325, -2918.585205078125], [-127.86528, 49.56081, -2274.6201171875], [-127.87539, 49.55957, -2848.353759765625], [-127.8689, 49.55325, -2918.585205078125]]], [[[-127.83681, 49.53323, -3052.2685546875], [-127.82642, 49.53723, -2274.6201171875], [-127.83883, 49.54114, -2274.6201171875], [-127.83681, 49.53323, -3052.2685546875]]], [[[-127.87539, 49.55957, -2848.353759765625], [-127.86528, 49.56081, -2274.6201171875], [-127.87556, 49.56674, -2274.6201171875], [-127.87539, 49.55957, -2848.353759765625]]], [[[-128.06328, 49.6368, -2939.095947265625], [-128.05401, 49.64001, -2274.6201171875], [-128.066, 49.64408, -2274.6201171875], [-128.06328, 49.6368, -2939.095947265625]]], [[[-127.9689, 49.5727, -4249.0302734375], [-127.97106, 49.56531, -4810.3212890625], [-127.95898, 49.56876, -4247.6630859375], [-127.9689, 49.5727, -4249.0302734375]]], [[[-127.90303, 49.54256, -5023.52978515625], [-127.89208, 49.53679, -4864.44970703125], [-127.89227, 49.54503, -4533.70556640625], [-127.90303, 49.54256, -5023.52978515625]]], [[[-127.93594, 49.5601, -4364.19970703125], [-127.92391, 49.55493, -4566.3369140625], [-127.92236, 49.56279, -3731.374755859375], [-127.93594, 49.5601, -4364.19970703125]]], [[[-128.06328, 49.6368, -2939.095947265625], [-128.04858, 49.63417, -2964.735107421875], [-128.05401, 49.64001, -2274.6201171875], [-128.06328, 49.6368, -2939.095947265625]]], [[[-127.92391, 49.55493, -4566.3369140625], [-127.93594, 49.5601, -4364.19970703125], [-127.93691, 49.55218, -4983.974609375], [-127.92391, 49.55493, -4566.3369140625]]], [[[-128.04858, 49.63417, -2964.735107421875], [-128.06328, 49.6368, -2939.095947265625], [-128.05693, 49.63019, -3628.59033203125], [-128.04858, 49.63417, -2964.735107421875]]], [[[-128.04387, 49.62728, -3628.59033203125], [-128.04858, 49.63417, -2964.735107421875], [-128.05693, 49.63019, -3628.59033203125], [-128.04387, 49.62728, -3628.59033203125]]], [[[-128.04858, 49.63417, -2964.735107421875], [-128.04387, 49.62728, -3628.59033203125], [-128.03552, 49.63126, -2964.735107421875], [-128.04858, 49.63417, -2964.735107421875]]], [[[-127.86351, 49.53809, -3552.012939453125], [-127.84976, 49.5387, -2944.741943359375], [-127.86125, 49.54574, -2908.13525390625], [-127.86351, 49.53809, -3552.012939453125]]], [[[-127.90928, 49.5561, -4234.46875], [-127.92236, 49.56279, -3731.374755859375], [-127.92391, 49.55493, -4566.3369140625], [-127.90928, 49.5561, -4234.46875]]], [[[-128.03552, 49.63126, -2964.735107421875], [-128.02748, 49.63514, -2274.6201171875], [-128.04055, 49.63805, -2274.6201171875], [-128.03552, 49.63126, -2964.735107421875]]], [[[-128.02432, 49.626, -2964.735107421875], [-128.01936, 49.61739, -3544.46337890625], [-128.01446, 49.6226, -2898.340576171875], [-128.02432, 49.626, -2964.735107421875]]], [[[-127.93566, 49.56761, -3653.423828125], [-127.92494, 49.57101, -2972.38623046875], [-127.93737, 49.575, -2963.29052734375], [-127.93566, 49.56761, -3653.423828125]]], [[[-127.89649, 49.52855, -5280.54150390625], [-127.90131, 49.52077, -5726.96728515625], [-127.88859, 49.52329, -5279.1884765625], [-127.89649, 49.52855, -5280.54150390625]]], [[[-128.01936, 49.61739, -3544.46337890625], [-128.00502, 49.61786, -2957.356689453125], [-128.01446, 49.6226, -2898.340576171875], [-128.01936, 49.61739, -3544.46337890625]]], [[[-128.02432, 49.626, -2964.735107421875], [-128.02748, 49.63514, -2274.6201171875], [-128.03552, 49.63126, -2964.735107421875], [-128.02432, 49.626, -2964.735107421875]]], [[[-127.91338, 49.54887, -4967.00634765625], [-127.90226, 49.55042, -4584.5712890625], [-127.90928, 49.5561, -4234.46875], [-127.91338, 49.54887, -4967.00634765625]]], [[[-128.09029, 49.6327, -4243.67138671875], [-128.10078, 49.62858, -4817.60986328125], [-128.08854, 49.62497, -4782.443359375], [-128.09029, 49.6327, -4243.67138671875]]], [[[-127.84976, 49.5387, -2944.741943359375], [-127.83681, 49.53323, -3052.2685546875], [-127.83883, 49.54114, -2274.6201171875], [-127.84976, 49.5387, -2944.741943359375]]], [[[-127.94883, 49.57229, -3590.2412109375], [-127.93566, 49.56761, -3653.423828125], [-127.93737, 49.575, -2963.29052734375], [-127.94883, 49.57229, -3590.2412109375]]], [[[-127.88493, 49.56275, -2997.070556640625], [-127.88918, 49.56823, -2274.6201171875], [-127.89782, 49.56417, -3001.25830078125], [-127.88493, 49.56275, -2997.070556640625]]], [[[-128.02432, 49.626, -2964.735107421875], [-128.01629, 49.62988, -2274.6201171875], [-128.02748, 49.63514, -2274.6201171875], [-128.02432, 49.626, -2964.735107421875]]], [[[-128.01452, 49.59624, -4692.7568359375], [-128.0186, 49.58789, -5173.77490234375], [-128.00571, 49.58988, -4690.94677734375], [-128.01452, 49.59624, -4692.7568359375]]], [[[-127.90434, 49.53452, -5334.05126953125], [-127.91444, 49.53374, -5686.16943359375], [-127.90871, 49.52749, -5700.9619140625], [-127.90434, 49.53452, -5334.05126953125]]], [[[-127.97302, 49.58578, -3541.1162109375], [-127.97601, 49.57757, -4150.45068359375], [-127.96279, 49.57814, -3537.515869140625], [-127.97302, 49.58578, -3541.1162109375]]], [[[-127.84213, 49.52679, -3842.732421875], [-127.83011, 49.52401, -3685.4013671875], [-127.83681, 49.53323, -3052.2685546875], [-127.84213, 49.52679, -3842.732421875]]], [[[-127.84213, 49.52679, -3842.732421875], [-127.85157, 49.52326, -4439.5859375], [-127.83857, 49.5192, -4396.07568359375], [-127.84213, 49.52679, -3842.732421875]]], [[[-127.89782, 49.56417, -3001.25830078125], [-127.90262, 49.57027, -2274.6201171875], [-127.91246, 49.56713, -2954.39453125], [-127.89782, 49.56417, -3001.25830078125]]], [[[-128.01097, 49.60401, -4196.87548828125], [-128.02445, 49.60397, -4692.0263671875], [-128.01452, 49.59624, -4692.7568359375], [-128.01097, 49.60401, -4196.87548828125]]], [[[-128.01446, 49.6226, -2898.340576171875], [-128.01629, 49.62988, -2274.6201171875], [-128.02432, 49.626, -2964.735107421875], [-128.01446, 49.6226, -2898.340576171875]]], [[[-127.99925, 49.605, -3560.3095703125], [-127.9885, 49.60616, -2901.92431640625], [-127.99607, 49.61271, -2922.966796875], [-127.99925, 49.605, -3560.3095703125]]], [[[-128.01446, 49.6226, -2898.340576171875], [-128.00464, 49.62504, -2274.6201171875], [-128.01629, 49.62988, -2274.6201171875], [-128.01446, 49.6226, -2898.340576171875]]], [[[-127.97302, 49.58578, -3541.1162109375], [-127.96279, 49.57814, -3537.515869140625], [-127.9629, 49.58731, -2918.585205078125], [-127.97302, 49.58578, -3541.1162109375]]], [[[-127.92602, 49.54743, -5182.78759765625], [-127.91338, 49.54887, -4967.00634765625], [-127.92391, 49.55493, -4566.3369140625], [-127.92602, 49.54743, -5182.78759765625]]], [[[-127.97324, 49.59686, -2996.523681640625], [-127.96565, 49.60188, -2274.6201171875], [-127.97764, 49.60577, -2274.6201171875], [-127.97324, 49.59686, -2996.523681640625]]], [[[-127.91198, 49.54004, -5380.84716796875], [-127.91338, 49.54887, -4967.00634765625], [-127.91863, 49.54323, -5371.44921875], [-127.91198, 49.54004, -5380.84716796875]]], [[[-128.00502, 49.61786, -2957.356689453125], [-128.00464, 49.62504, -2274.6201171875], [-128.01446, 49.6226, -2898.340576171875], [-128.00502, 49.61786, -2957.356689453125]]], [[[-127.93691, 49.55218, -4983.974609375], [-127.92602, 49.54743, -5182.78759765625], [-127.92391, 49.55493, -4566.3369140625], [-127.93691, 49.55218, -4983.974609375]]], [[[-128.00502, 49.61786, -2957.356689453125], [-127.99321, 49.61999, -2274.6201171875], [-128.00464, 49.62504, -2274.6201171875], [-128.00502, 49.61786, -2957.356689453125]]], [[[-127.91246, 49.56713, -2954.39453125], [-127.90262, 49.57027, -2274.6201171875], [-127.91486, 49.57431, -2274.6201171875], [-127.91246, 49.56713, -2954.39453125]]], [[[-127.98815, 49.57547, -4758.962890625], [-127.99528, 49.58261, -4757.47216796875], [-128.00065, 49.57476, -5203.927734375], [-127.98815, 49.57547, -4758.962890625]]], [[[-127.88136, 49.55442, -3504.4951171875], [-127.89296, 49.55314, -4092.419921875], [-127.88401, 49.54761, -4033.732666015625], [-127.88136, 49.55442, -3504.4951171875]]], [[[-128.00502, 49.61786, -2957.356689453125], [-127.99607, 49.61271, -2922.966796875], [-127.99321, 49.61999, -2274.6201171875], [-128.00502, 49.61786, -2957.356689453125]]], [[[-127.98373, 49.58341, -4222.8662109375], [-127.99246, 49.59087, -4205.70458984375], [-127.99528, 49.58261, -4757.47216796875], [-127.98373, 49.58341, -4222.8662109375]]], [[[-127.94883, 49.57229, -3590.2412109375], [-127.93737, 49.575, -2963.29052734375], [-127.95095, 49.57978, -2934.31640625], [-127.94883, 49.57229, -3590.2412109375]]], [[[-127.90303, 49.54256, -5023.52978515625], [-127.89227, 49.54503, -4533.70556640625], [-127.90226, 49.55042, -4584.5712890625], [-127.90303, 49.54256, -5023.52978515625]]], [[[-127.99528, 49.58261, -4757.47216796875], [-128.00847, 49.58192, -5197.08935546875], [-128.00065, 49.57476, -5203.927734375], [-127.99528, 49.58261, -4757.47216796875]]], [[[-128.00756, 49.61119, -3588.407470703125], [-127.99607, 49.61271, -2922.966796875], [-128.00502, 49.61786, -2957.356689453125], [-128.00756, 49.61119, -3588.407470703125]]], [[[-127.92494, 49.57101, -2972.38623046875], [-127.92723, 49.57826, -2274.6201171875], [-127.93737, 49.575, -2963.29052734375], [-127.92494, 49.57101, -2972.38623046875]]], [[[-128.03715, 49.60949, -4746.033203125], [-128.05168, 49.61273, -4922.06005859375], [-128.04822, 49.60594, -5204.55224609375], [-128.03715, 49.60949, -4746.033203125]]], [[[-127.8689, 49.55325, -2918.585205078125], [-127.85785, 49.55324, -2274.6201171875], [-127.86528, 49.56081, -2274.6201171875], [-127.8689, 49.55325, -2918.585205078125]]], [[[-128.00756, 49.61119, -3588.407470703125], [-127.99925, 49.605, -3560.3095703125], [-127.99607, 49.61271, -2922.966796875], [-128.00756, 49.61119, -3588.407470703125]]], [[[-128.02445, 49.60397, -4692.0263671875], [-128.03679, 49.60104, -5178.46142578125], [-128.02701, 49.59491, -5164.1884765625], [-128.02445, 49.60397, -4692.0263671875]]], [[[-127.97324, 49.59686, -2996.523681640625], [-127.95908, 49.5942, -2274.6201171875], [-127.96565, 49.60188, -2274.6201171875], [-127.97324, 49.59686, -2996.523681640625]]], [[[-127.92236, 49.56279, -3731.374755859375], [-127.93566, 49.56761, -3653.423828125], [-127.93594, 49.5601, -4364.19970703125], [-127.92236, 49.56279, -3731.374755859375]]], [[[-127.98105, 49.59154, -3692.6826171875], [-127.98836, 49.59866, -3368.83837890625], [-127.99246, 49.59087, -4205.70458984375], [-127.98105, 49.59154, -3692.6826171875]]], [[[-128.06287, 49.618, -4922.06005859375], [-128.07224, 49.61444, -5251.23291015625], [-128.05993, 49.61058, -5230.38623046875], [-128.06287, 49.618, -4922.06005859375]]], [[[-127.94857, 49.55638, -4938.49267578125], [-127.96041, 49.55252, -5405.35498046875], [-127.94853, 49.54813, -5479.0732421875], [-127.94857, 49.55638, -4938.49267578125]]], [[[-127.91863, 49.54323, -5371.44921875], [-127.92602, 49.54743, -5182.78759765625], [-127.9272, 49.54089, -5618.83056640625], [-127.91863, 49.54323, -5371.44921875]]], [[[-127.87977, 49.53967, -4209.6240234375], [-127.86351, 49.53809, -3552.012939453125], [-127.87323, 49.54618, -3532.50390625], [-127.87977, 49.53967, -4209.6240234375]]], [[[-127.93737, 49.575, -2963.29052734375], [-127.92723, 49.57826, -2274.6201171875], [-127.93983, 49.58193, -2274.6201171875], [-127.93737, 49.575, -2963.29052734375]]], [[[-127.91198, 49.54004, -5380.84716796875], [-127.91972, 49.53818, -5665.91552734375], [-127.91444, 49.53374, -5686.16943359375], [-127.91198, 49.54004, -5380.84716796875]]], [[[-127.88401, 49.54761, -4033.732666015625], [-127.87977, 49.53967, -4209.6240234375], [-127.87323, 49.54618, -3532.50390625], [-127.88401, 49.54761, -4033.732666015625]]], [[[-127.92236, 49.56279, -3731.374755859375], [-127.9078, 49.56113, -3583.328369140625], [-127.91246, 49.56713, -2954.39453125], [-127.92236, 49.56279, -3731.374755859375]]], [[[-127.95095, 49.57978, -2934.31640625], [-127.93737, 49.575, -2963.29052734375], [-127.93983, 49.58193, -2274.6201171875], [-127.95095, 49.57978, -2934.31640625]]], [[[-127.83857, 49.5192, -4396.07568359375], [-127.82462, 49.51628, -4288.5400390625], [-127.83011, 49.52401, -3685.4013671875], [-127.83857, 49.5192, -4396.07568359375]]], [[[-127.92236, 49.56279, -3731.374755859375], [-127.91246, 49.56713, -2954.39453125], [-127.92494, 49.57101, -2972.38623046875], [-127.92236, 49.56279, -3731.374755859375]]], [[[-127.86828, 49.51366, -5416.69091796875], [-127.87989, 49.51027, -5832.0126953125], [-127.86825, 49.5056, -5887.7880859375], [-127.86828, 49.51366, -5416.69091796875]]], [[[-128.01889, 49.61037, -4110.43212890625], [-128.01097, 49.60401, -4196.87548828125], [-128.00756, 49.61119, -3588.407470703125], [-128.01889, 49.61037, -4110.43212890625]]], [[[-127.92494, 49.57101, -2972.38623046875], [-127.91486, 49.57431, -2274.6201171875], [-127.92723, 49.57826, -2274.6201171875], [-127.92494, 49.57101, -2972.38623046875]]], [[[-127.93566, 49.56761, -3653.423828125], [-127.94883, 49.57229, -3590.2412109375], [-127.94776, 49.56454, -4317.2734375], [-127.93566, 49.56761, -3653.423828125]]], [[[-127.88136, 49.55442, -3504.4951171875], [-127.8689, 49.55325, -2918.585205078125], [-127.87539, 49.55957, -2848.353759765625], [-127.88136, 49.55442, -3504.4951171875]]], [[[-127.91198, 49.54004, -5380.84716796875], [-127.91863, 49.54323, -5371.44921875], [-127.91972, 49.53818, -5665.91552734375], [-127.91198, 49.54004, -5380.84716796875]]], [[[-127.95095, 49.57978, -2934.31640625], [-127.93983, 49.58193, -2274.6201171875], [-127.95094, 49.58695, -2274.6201171875], [-127.95095, 49.57978, -2934.31640625]]], [[[-127.83011, 49.52401, -3685.4013671875], [-127.82462, 49.51628, -4288.5400390625], [-127.81636, 49.52033, -3628.59033203125], [-127.83011, 49.52401, -3685.4013671875]]], [[[-127.91198, 49.54004, -5380.84716796875], [-127.90303, 49.54256, -5023.52978515625], [-127.91338, 49.54887, -4967.00634765625], [-127.91198, 49.54004, -5380.84716796875]]], [[[-127.91338, 49.54887, -4967.00634765625], [-127.90928, 49.5561, -4234.46875], [-127.92391, 49.55493, -4566.3369140625], [-127.91338, 49.54887, -4967.00634765625]]], [[[-128.01889, 49.61037, -4110.43212890625], [-128.02445, 49.60397, -4692.0263671875], [-128.01097, 49.60401, -4196.87548828125], [-128.01889, 49.61037, -4110.43212890625]]], [[[-127.9078, 49.56113, -3583.328369140625], [-127.89424, 49.55893, -3654.6171875], [-127.89782, 49.56417, -3001.25830078125], [-127.9078, 49.56113, -3583.328369140625]]], [[[-127.83857, 49.5192, -4396.07568359375], [-127.8489, 49.51446, -4972.00830078125], [-127.83537, 49.51109, -4922.06005859375], [-127.83857, 49.5192, -4396.07568359375]]], [[[-127.96003, 49.56078, -4888.35205078125], [-127.97214, 49.5571, -5335.6240234375], [-127.96041, 49.55252, -5405.35498046875], [-127.96003, 49.56078, -4888.35205078125]]], [[[-127.86125, 49.54574, -2908.13525390625], [-127.85785, 49.55324, -2274.6201171875], [-127.8689, 49.55325, -2918.585205078125], [-127.86125, 49.54574, -2908.13525390625]]], [[[-128.01936, 49.61739, -3544.46337890625], [-128.03267, 49.62201, -3628.59033203125], [-128.02898, 49.61392, -4199.86865234375], [-128.01936, 49.61739, -3544.46337890625]]], [[[-127.89424, 49.55893, -3654.6171875], [-127.88136, 49.55442, -3504.4951171875], [-127.88493, 49.56275, -2997.070556640625], [-127.89424, 49.55893, -3654.6171875]]], [[[-127.86284, 49.52903, -4295.05322265625], [-127.87236, 49.53402, -4226.59912109375], [-127.87521, 49.52606, -4828.12646484375], [-127.86284, 49.52903, -4295.05322265625]]], [[[-127.88136, 49.55442, -3504.4951171875], [-127.89424, 49.55893, -3654.6171875], [-127.89296, 49.55314, -4092.419921875], [-127.88136, 49.55442, -3504.4951171875]]], [[[-128.01889, 49.61037, -4110.43212890625], [-128.02898, 49.61392, -4199.86865234375], [-128.02445, 49.60397, -4692.0263671875], [-128.01889, 49.61037, -4110.43212890625]]], [[[-127.95898, 49.56876, -4247.6630859375], [-127.94776, 49.56454, -4317.2734375], [-127.94883, 49.57229, -3590.2412109375], [-127.95898, 49.56876, -4247.6630859375]]], [[[-128.07662, 49.6414, -2969.22802734375], [-128.066, 49.64408, -2274.6201171875], [-128.07709, 49.64945, -2274.6201171875], [-128.07662, 49.6414, -2969.22802734375]]], [[[-127.85157, 49.52326, -4439.5859375], [-127.8489, 49.51446, -4972.00830078125], [-127.83857, 49.5192, -4396.07568359375], [-127.85157, 49.52326, -4439.5859375]]], [[[-128.00171, 49.59738, -4092.6904296875], [-128.01097, 49.60401, -4196.87548828125], [-128.01452, 49.59624, -4692.7568359375], [-128.00171, 49.59738, -4092.6904296875]]], [[[-128.01889, 49.61037, -4110.43212890625], [-128.01936, 49.61739, -3544.46337890625], [-128.02898, 49.61392, -4199.86865234375], [-128.01889, 49.61037, -4110.43212890625]]], [[[-127.96279, 49.57814, -3537.515869140625], [-127.94883, 49.57229, -3590.2412109375], [-127.95095, 49.57978, -2934.31640625], [-127.96279, 49.57814, -3537.515869140625]]], [[[-127.88403, 49.53133, -4792.96875], [-127.89649, 49.52855, -5280.54150390625], [-127.88859, 49.52329, -5279.1884765625], [-127.88403, 49.53133, -4792.96875]]], [[[-128.01889, 49.61037, -4110.43212890625], [-128.00756, 49.61119, -3588.407470703125], [-128.01936, 49.61739, -3544.46337890625], [-128.01889, 49.61037, -4110.43212890625]]], [[[-127.94776, 49.56454, -4317.2734375], [-127.94857, 49.55638, -4938.49267578125], [-127.93594, 49.5601, -4364.19970703125], [-127.94776, 49.56454, -4317.2734375]]], [[[-127.92602, 49.54743, -5182.78759765625], [-127.93654, 49.54468, -5559.75634765625], [-127.9272, 49.54089, -5618.83056640625], [-127.92602, 49.54743, -5182.78759765625]]], [[[-127.9689, 49.5727, -4249.0302734375], [-127.96279, 49.57814, -3537.515869140625], [-127.97601, 49.57757, -4150.45068359375], [-127.9689, 49.5727, -4249.0302734375]]], [[[-128.0786, 49.62824, -4287.279296875], [-128.08854, 49.62497, -4782.443359375], [-128.07593, 49.6209, -4922.06005859375], [-128.0786, 49.62824, -4287.279296875]]], [[[-128.00756, 49.61119, -3588.407470703125], [-128.00502, 49.61786, -2957.356689453125], [-128.01936, 49.61739, -3544.46337890625], [-128.00756, 49.61119, -3588.407470703125]]], [[[-127.93691, 49.55218, -4983.974609375], [-127.94853, 49.54813, -5479.0732421875], [-127.93654, 49.54468, -5559.75634765625], [-127.93691, 49.55218, -4983.974609375]]], [[[-127.90928, 49.5561, -4234.46875], [-127.9078, 49.56113, -3583.328369140625], [-127.92236, 49.56279, -3731.374755859375], [-127.90928, 49.5561, -4234.46875]]], [[[-127.85755, 49.50972, -5423.7861328125], [-127.86234, 49.52009, -4927.8330078125], [-127.86828, 49.51366, -5416.69091796875], [-127.85755, 49.50972, -5423.7861328125]]], [[[-127.86284, 49.52903, -4295.05322265625], [-127.8514, 49.53175, -3675.186767578125], [-127.86351, 49.53809, -3552.012939453125], [-127.86284, 49.52903, -4295.05322265625]]], [[[-127.95898, 49.56876, -4247.6630859375], [-127.96003, 49.56078, -4888.35205078125], [-127.94776, 49.56454, -4317.2734375], [-127.95898, 49.56876, -4247.6630859375]]], [[[-128.02432, 49.626, -2964.735107421875], [-128.03267, 49.62201, -3628.59033203125], [-128.01936, 49.61739, -3544.46337890625], [-128.02432, 49.626, -2964.735107421875]]], [[[-127.97324, 49.59686, -2996.523681640625], [-127.97302, 49.58578, -3541.1162109375], [-127.9629, 49.58731, -2918.585205078125], [-127.97324, 49.59686, -2996.523681640625]]], [[[-128.04093, 49.61795, -4288.5400390625], [-128.04387, 49.62728, -3628.59033203125], [-128.05212, 49.62321, -4288.5400390625], [-128.04093, 49.61795, -4288.5400390625]]], [[[-128.03552, 49.63126, -2964.735107421875], [-128.03267, 49.62201, -3628.59033203125], [-128.02432, 49.626, -2964.735107421875], [-128.03552, 49.63126, -2964.735107421875]]], [[[-127.87323, 49.54618, -3532.50390625], [-127.86351, 49.53809, -3552.012939453125], [-127.86125, 49.54574, -2908.13525390625], [-127.87323, 49.54618, -3532.50390625]]], [[[-128.08854, 49.62497, -4782.443359375], [-128.08527, 49.6172, -5268.0078125], [-128.07593, 49.6209, -4922.06005859375], [-128.08854, 49.62497, -4782.443359375]]], [[[-127.88136, 49.55442, -3504.4951171875], [-127.87539, 49.55957, -2848.353759765625], [-127.88493, 49.56275, -2997.070556640625], [-127.88136, 49.55442, -3504.4951171875]]], [[[-127.98105, 49.59154, -3692.6826171875], [-127.98373, 49.58341, -4222.8662109375], [-127.97302, 49.58578, -3541.1162109375], [-127.98105, 49.59154, -3692.6826171875]]], [[[-127.85157, 49.52326, -4439.5859375], [-127.86234, 49.52009, -4927.8330078125], [-127.8489, 49.51446, -4972.00830078125], [-127.85157, 49.52326, -4439.5859375]]], [[[-128.03267, 49.62201, -3628.59033203125], [-128.03552, 49.63126, -2964.735107421875], [-128.04387, 49.62728, -3628.59033203125], [-128.03267, 49.62201, -3628.59033203125]]], [[[-128.03267, 49.62201, -3628.59033203125], [-128.04387, 49.62728, -3628.59033203125], [-128.04093, 49.61795, -4288.5400390625], [-128.03267, 49.62201, -3628.59033203125]]], [[[-127.8489, 49.51446, -4972.00830078125], [-127.84605, 49.50595, -5432.15185546875], [-127.83537, 49.51109, -4922.06005859375], [-127.8489, 49.51446, -4972.00830078125]]], [[[-127.86125, 49.54574, -2908.13525390625], [-127.85025, 49.54575, -2274.6201171875], [-127.85785, 49.55324, -2274.6201171875], [-127.86125, 49.54574, -2908.13525390625]]], [[[-127.98836, 49.59866, -3368.83837890625], [-127.97764, 49.60577, -2274.6201171875], [-127.9885, 49.60616, -2901.92431640625], [-127.98836, 49.59866, -3368.83837890625]]], [[[-128.03715, 49.60949, -4746.033203125], [-128.04093, 49.61795, -4288.5400390625], [-128.05168, 49.61273, -4922.06005859375], [-128.03715, 49.60949, -4746.033203125]]], [[[-128.00171, 49.59738, -4092.6904296875], [-128.00571, 49.58988, -4690.94677734375], [-127.99246, 49.59087, -4205.70458984375], [-128.00171, 49.59738, -4092.6904296875]]], [[[-127.89208, 49.53679, -4864.44970703125], [-127.90434, 49.53452, -5334.05126953125], [-127.89649, 49.52855, -5280.54150390625], [-127.89208, 49.53679, -4864.44970703125]]], [[[-128.02898, 49.61392, -4199.86865234375], [-128.03267, 49.62201, -3628.59033203125], [-128.04093, 49.61795, -4288.5400390625], [-128.02898, 49.61392, -4199.86865234375]]], [[[-128.09183, 49.64173, -3550.1875], [-128.10136, 49.63768, -4255.701171875], [-128.09029, 49.6327, -4243.67138671875], [-128.09183, 49.64173, -3550.1875]]], [[[-128.02898, 49.61392, -4199.86865234375], [-128.04093, 49.61795, -4288.5400390625], [-128.03715, 49.60949, -4746.033203125], [-128.02898, 49.61392, -4199.86865234375]]], [[[-128.08854, 49.62497, -4782.443359375], [-128.10078, 49.62858, -4817.60986328125], [-128.09822, 49.6201, -5299.4951171875], [-128.08854, 49.62497, -4782.443359375]]], [[[-127.90434, 49.53452, -5334.05126953125], [-127.90871, 49.52749, -5700.9619140625], [-127.89649, 49.52855, -5280.54150390625], [-127.90434, 49.53452, -5334.05126953125]]], [[[-127.87977, 49.53967, -4209.6240234375], [-127.87236, 49.53402, -4226.59912109375], [-127.86351, 49.53809, -3552.012939453125], [-127.87977, 49.53967, -4209.6240234375]]], [[[-128.01452, 49.59624, -4692.7568359375], [-128.02701, 49.59491, -5164.1884765625], [-128.0186, 49.58789, -5173.77490234375], [-128.01452, 49.59624, -4692.7568359375]]], [[[-127.89208, 49.53679, -4864.44970703125], [-127.88403, 49.53133, -4792.96875], [-127.87977, 49.53967, -4209.6240234375], [-127.89208, 49.53679, -4864.44970703125]]], [[[-127.95898, 49.56876, -4247.6630859375], [-127.97106, 49.56531, -4810.3212890625], [-127.96003, 49.56078, -4888.35205078125], [-127.95898, 49.56876, -4247.6630859375]]], [[[-128.03715, 49.60949, -4746.033203125], [-128.04822, 49.60594, -5204.55224609375], [-128.03679, 49.60104, -5178.46142578125], [-128.03715, 49.60949, -4746.033203125]]], [[[-127.97324, 49.59686, -2996.523681640625], [-127.98105, 49.59154, -3692.6826171875], [-127.97302, 49.58578, -3541.1162109375], [-127.97324, 49.59686, -2996.523681640625]]], [[[-128.01452, 49.59624, -4692.7568359375], [-128.02445, 49.60397, -4692.0263671875], [-128.02701, 49.59491, -5164.1884765625], [-128.01452, 49.59624, -4692.7568359375]]], [[[-127.86284, 49.52903, -4295.05322265625], [-127.86234, 49.52009, -4927.8330078125], [-127.85157, 49.52326, -4439.5859375], [-127.86284, 49.52903, -4295.05322265625]]], [[[-128.02445, 49.60397, -4692.0263671875], [-128.03715, 49.60949, -4746.033203125], [-128.03679, 49.60104, -5178.46142578125], [-128.02445, 49.60397, -4692.0263671875]]], [[[-127.91246, 49.56713, -2954.39453125], [-127.91486, 49.57431, -2274.6201171875], [-127.92494, 49.57101, -2972.38623046875], [-127.91246, 49.56713, -2954.39453125]]], [[[-128.05168, 49.61273, -4922.06005859375], [-128.05993, 49.61058, -5230.38623046875], [-128.04822, 49.60594, -5204.55224609375], [-128.05168, 49.61273, -4922.06005859375]]], [[[-127.9885, 49.60616, -2901.92431640625], [-127.98456, 49.61331, -2274.6201171875], [-127.99607, 49.61271, -2922.966796875], [-127.9885, 49.60616, -2901.92431640625]]], [[[-127.97106, 49.56531, -4810.3212890625], [-127.98334, 49.56218, -5272.84716796875], [-127.97214, 49.5571, -5335.6240234375], [-127.97106, 49.56531, -4810.3212890625]]], [[[-127.87804, 49.51859, -5322.560546875], [-127.88859, 49.52329, -5279.1884765625], [-127.89099, 49.51549, -5779.20654296875], [-127.87804, 49.51859, -5322.560546875]]], [[[-127.96003, 49.56078, -4888.35205078125], [-127.96041, 49.55252, -5405.35498046875], [-127.94857, 49.55638, -4938.49267578125], [-127.96003, 49.56078, -4888.35205078125]]], [[[-127.89296, 49.55314, -4092.419921875], [-127.90928, 49.5561, -4234.46875], [-127.90226, 49.55042, -4584.5712890625], [-127.89296, 49.55314, -4092.419921875]]], [[[-127.96279, 49.57814, -3537.515869140625], [-127.95095, 49.57978, -2934.31640625], [-127.9629, 49.58731, -2918.585205078125], [-127.96279, 49.57814, -3537.515869140625]]], [[[-127.86828, 49.51366, -5416.69091796875], [-127.86825, 49.5056, -5887.7880859375], [-127.85755, 49.50972, -5423.7861328125], [-127.86828, 49.51366, -5416.69091796875]]], [[[-127.89424, 49.55893, -3654.6171875], [-127.9078, 49.56113, -3583.328369140625], [-127.90928, 49.5561, -4234.46875], [-127.89424, 49.55893, -3654.6171875]]], [[[-127.9629, 49.58731, -2918.585205078125], [-127.95908, 49.5942, -2274.6201171875], [-127.97324, 49.59686, -2996.523681640625], [-127.9629, 49.58731, -2918.585205078125]]], [[[-127.98373, 49.58341, -4222.8662109375], [-127.98815, 49.57547, -4758.962890625], [-127.97601, 49.57757, -4150.45068359375], [-127.98373, 49.58341, -4222.8662109375]]], [[[-127.94776, 49.56454, -4317.2734375], [-127.96003, 49.56078, -4888.35205078125], [-127.94857, 49.55638, -4938.49267578125], [-127.94776, 49.56454, -4317.2734375]]], [[[-127.86234, 49.52009, -4927.8330078125], [-127.87804, 49.51859, -5322.560546875], [-127.86828, 49.51366, -5416.69091796875], [-127.86234, 49.52009, -4927.8330078125]]], [[[-127.85755, 49.50972, -5423.7861328125], [-127.8489, 49.51446, -4972.00830078125], [-127.86234, 49.52009, -4927.8330078125], [-127.85755, 49.50972, -5423.7861328125]]], [[[-127.98836, 49.59866, -3368.83837890625], [-127.97324, 49.59686, -2996.523681640625], [-127.97764, 49.60577, -2274.6201171875], [-127.98836, 49.59866, -3368.83837890625]]], [[[-127.89649, 49.52855, -5280.54150390625], [-127.90871, 49.52749, -5700.9619140625], [-127.90131, 49.52077, -5726.96728515625], [-127.89649, 49.52855, -5280.54150390625]]], [[[-127.9689, 49.5727, -4249.0302734375], [-127.98096, 49.57, -4761.2265625], [-127.97106, 49.56531, -4810.3212890625], [-127.9689, 49.5727, -4249.0302734375]]], [[[-127.94857, 49.55638, -4938.49267578125], [-127.94853, 49.54813, -5479.0732421875], [-127.93691, 49.55218, -4983.974609375], [-127.94857, 49.55638, -4938.49267578125]]], [[[-128.00171, 49.59738, -4092.6904296875], [-127.99925, 49.605, -3560.3095703125], [-128.01097, 49.60401, -4196.87548828125], [-128.00171, 49.59738, -4092.6904296875]]], [[[-127.87236, 49.53402, -4226.59912109375], [-127.87977, 49.53967, -4209.6240234375], [-127.88403, 49.53133, -4792.96875], [-127.87236, 49.53402, -4226.59912109375]]], [[[-127.98096, 49.57, -4761.2265625], [-127.99329, 49.56767, -5221.7099609375], [-127.98334, 49.56218, -5272.84716796875], [-127.98096, 49.57, -4761.2265625]]], [[[-128.00171, 49.59738, -4092.6904296875], [-127.98836, 49.59866, -3368.83837890625], [-127.99925, 49.605, -3560.3095703125], [-128.00171, 49.59738, -4092.6904296875]]], [[[-127.91338, 49.54887, -4967.00634765625], [-127.90303, 49.54256, -5023.52978515625], [-127.90226, 49.55042, -4584.5712890625], [-127.91338, 49.54887, -4967.00634765625]]], [[[-127.97106, 49.56531, -4810.3212890625], [-127.98096, 49.57, -4761.2265625], [-127.98334, 49.56218, -5272.84716796875], [-127.97106, 49.56531, -4810.3212890625]]], [[[-128.00171, 49.59738, -4092.6904296875], [-128.01452, 49.59624, -4692.7568359375], [-128.00571, 49.58988, -4690.94677734375], [-128.00171, 49.59738, -4092.6904296875]]], [[[-128.05212, 49.62321, -4288.5400390625], [-128.06519, 49.62612, -4288.5400390625], [-128.06287, 49.618, -4922.06005859375], [-128.05212, 49.62321, -4288.5400390625]]], [[[-127.91198, 49.54004, -5380.84716796875], [-127.91444, 49.53374, -5686.16943359375], [-127.90434, 49.53452, -5334.05126953125], [-127.91198, 49.54004, -5380.84716796875]]], [[[-127.9885, 49.60616, -2901.92431640625], [-127.97764, 49.60577, -2274.6201171875], [-127.98456, 49.61331, -2274.6201171875], [-127.9885, 49.60616, -2901.92431640625]]], [[[-127.83681, 49.53323, -3052.2685546875], [-127.83011, 49.52401, -3685.4013671875], [-127.82301, 49.52888, -2975.833984375], [-127.83681, 49.53323, -3052.2685546875]]], [[[-127.83681, 49.53323, -3052.2685546875], [-127.8514, 49.53175, -3675.186767578125], [-127.84213, 49.52679, -3842.732421875], [-127.83681, 49.53323, -3052.2685546875]]], [[[-127.96003, 49.56078, -4888.35205078125], [-127.97106, 49.56531, -4810.3212890625], [-127.97214, 49.5571, -5335.6240234375], [-127.96003, 49.56078, -4888.35205078125]]], [[[-128.00571, 49.58988, -4690.94677734375], [-128.0186, 49.58789, -5173.77490234375], [-128.00847, 49.58192, -5197.08935546875], [-128.00571, 49.58988, -4690.94677734375]]], [[[-127.8489, 49.51446, -4972.00830078125], [-127.85755, 49.50972, -5423.7861328125], [-127.84605, 49.50595, -5432.15185546875], [-127.8489, 49.51446, -4972.00830078125]]], [[[-127.88859, 49.52329, -5279.1884765625], [-127.90131, 49.52077, -5726.96728515625], [-127.89099, 49.51549, -5779.20654296875], [-127.88859, 49.52329, -5279.1884765625]]], [[[-128.00571, 49.58988, -4690.94677734375], [-128.00847, 49.58192, -5197.08935546875], [-127.99528, 49.58261, -4757.47216796875], [-128.00571, 49.58988, -4690.94677734375]]], [[[-127.93594, 49.5601, -4364.19970703125], [-127.94857, 49.55638, -4938.49267578125], [-127.93691, 49.55218, -4983.974609375], [-127.93594, 49.5601, -4364.19970703125]]], [[[-127.87977, 49.53967, -4209.6240234375], [-127.89227, 49.54503, -4533.70556640625], [-127.89208, 49.53679, -4864.44970703125], [-127.87977, 49.53967, -4209.6240234375]]], [[[-127.87521, 49.52606, -4828.12646484375], [-127.88859, 49.52329, -5279.1884765625], [-127.87804, 49.51859, -5322.560546875], [-127.87521, 49.52606, -4828.12646484375]]], [[[-127.92602, 49.54743, -5182.78759765625], [-127.93691, 49.55218, -4983.974609375], [-127.93654, 49.54468, -5559.75634765625], [-127.92602, 49.54743, -5182.78759765625]]], [[[-127.84213, 49.52679, -3842.732421875], [-127.83857, 49.5192, -4396.07568359375], [-127.83011, 49.52401, -3685.4013671875], [-127.84213, 49.52679, -3842.732421875]]], [[[-127.84976, 49.5387, -2944.741943359375], [-127.85025, 49.54575, -2274.6201171875], [-127.86125, 49.54574, -2908.13525390625], [-127.84976, 49.5387, -2944.741943359375]]], [[[-127.87323, 49.54618, -3532.50390625], [-127.8689, 49.55325, -2918.585205078125], [-127.88136, 49.55442, -3504.4951171875], [-127.87323, 49.54618, -3532.50390625]]], [[[-127.9629, 49.58731, -2918.585205078125], [-127.95095, 49.57978, -2934.31640625], [-127.95094, 49.58695, -2274.6201171875], [-127.9629, 49.58731, -2918.585205078125]]], [[[-128.10078, 49.62858, -4817.60986328125], [-128.11094, 49.62342, -5351.71923828125], [-128.09822, 49.6201, -5299.4951171875], [-128.10078, 49.62858, -4817.60986328125]]], [[[-127.95898, 49.56876, -4247.6630859375], [-127.94883, 49.57229, -3590.2412109375], [-127.96279, 49.57814, -3537.515869140625], [-127.95898, 49.56876, -4247.6630859375]]], [[[-127.88493, 49.56275, -2997.070556640625], [-127.87556, 49.56674, -2274.6201171875], [-127.88918, 49.56823, -2274.6201171875], [-127.88493, 49.56275, -2997.070556640625]]], [[[-127.97302, 49.58578, -3541.1162109375], [-127.98373, 49.58341, -4222.8662109375], [-127.97601, 49.57757, -4150.45068359375], [-127.97302, 49.58578, -3541.1162109375]]], [[[-127.84976, 49.5387, -2944.741943359375], [-127.83883, 49.54114, -2274.6201171875], [-127.85025, 49.54575, -2274.6201171875], [-127.84976, 49.5387, -2944.741943359375]]], [[[-127.87236, 49.53402, -4226.59912109375], [-127.86284, 49.52903, -4295.05322265625], [-127.86351, 49.53809, -3552.012939453125], [-127.87236, 49.53402, -4226.59912109375]]], [[[-127.86828, 49.51366, -5416.69091796875], [-127.87804, 49.51859, -5322.560546875], [-127.87989, 49.51027, -5832.0126953125], [-127.86828, 49.51366, -5416.69091796875]]], [[[-127.91198, 49.54004, -5380.84716796875], [-127.90434, 49.53452, -5334.05126953125], [-127.90303, 49.54256, -5023.52978515625], [-127.91198, 49.54004, -5380.84716796875]]], [[[-127.91863, 49.54323, -5371.44921875], [-127.9272, 49.54089, -5618.83056640625], [-127.91972, 49.53818, -5665.91552734375], [-127.91863, 49.54323, -5371.44921875]]], [[[-127.89296, 49.55314, -4092.419921875], [-127.89227, 49.54503, -4533.70556640625], [-127.88401, 49.54761, -4033.732666015625], [-127.89296, 49.55314, -4092.419921875]]], [[[-127.87323, 49.54618, -3532.50390625], [-127.86125, 49.54574, -2908.13525390625], [-127.8689, 49.55325, -2918.585205078125], [-127.87323, 49.54618, -3532.50390625]]], [[[-128.04093, 49.61795, -4288.5400390625], [-128.05212, 49.62321, -4288.5400390625], [-128.05168, 49.61273, -4922.06005859375], [-128.04093, 49.61795, -4288.5400390625]]], [[[-128.05212, 49.62321, -4288.5400390625], [-128.05693, 49.63019, -3628.59033203125], [-128.06519, 49.62612, -4288.5400390625], [-128.05212, 49.62321, -4288.5400390625]]], [[[-128.05168, 49.61273, -4922.06005859375], [-128.05212, 49.62321, -4288.5400390625], [-128.06287, 49.618, -4922.06005859375], [-128.05168, 49.61273, -4922.06005859375]]], [[[-128.06287, 49.618, -4922.06005859375], [-128.06519, 49.62612, -4288.5400390625], [-128.07593, 49.6209, -4922.06005859375], [-128.06287, 49.618, -4922.06005859375]]], [[[-128.0786, 49.62824, -4287.279296875], [-128.07593, 49.6209, -4922.06005859375], [-128.06519, 49.62612, -4288.5400390625], [-128.0786, 49.62824, -4287.279296875]]], [[[-128.0786, 49.62824, -4287.279296875], [-128.09029, 49.6327, -4243.67138671875], [-128.08854, 49.62497, -4782.443359375], [-128.0786, 49.62824, -4287.279296875]]], [[[-128.08162, 49.63577, -3646.576416015625], [-128.09029, 49.6327, -4243.67138671875], [-128.0786, 49.62824, -4287.279296875], [-128.08162, 49.63577, -3646.576416015625]]], [[[-128.09183, 49.64173, -3550.1875], [-128.09029, 49.6327, -4243.67138671875], [-128.08162, 49.63577, -3646.576416015625], [-128.09183, 49.64173, -3550.1875]]], [[[-128.07593, 49.6209, -4922.06005859375], [-128.08527, 49.6172, -5268.0078125], [-128.07224, 49.61444, -5251.23291015625], [-128.07593, 49.6209, -4922.06005859375]]], [[[-128.10078, 49.62858, -4817.60986328125], [-128.11241, 49.63256, -4901.845703125], [-128.11094, 49.62342, -5351.71923828125], [-128.10078, 49.62858, -4817.60986328125]]], [[[-128.10136, 49.63768, -4255.701171875], [-128.11241, 49.63256, -4901.845703125], [-128.10078, 49.62858, -4817.60986328125], [-128.10136, 49.63768, -4255.701171875]]], [[[-128.11241, 49.63256, -4901.845703125], [-128.12341, 49.62713, -5406.41357421875], [-128.11094, 49.62342, -5351.71923828125], [-128.11241, 49.63256, -4901.845703125]]], [[[-128.0786, 49.62824, -4287.279296875], [-128.07054, 49.63259, -3591.877197265625], [-128.08162, 49.63577, -3646.576416015625], [-128.0786, 49.62824, -4287.279296875]]], [[[-128.07054, 49.63259, -3591.877197265625], [-128.0786, 49.62824, -4287.279296875], [-128.06519, 49.62612, -4288.5400390625], [-128.07054, 49.63259, -3591.877197265625]]], [[[-128.07054, 49.63259, -3591.877197265625], [-128.06519, 49.62612, -4288.5400390625], [-128.05693, 49.63019, -3628.59033203125], [-128.07054, 49.63259, -3591.877197265625]]], [[[-128.07054, 49.63259, -3591.877197265625], [-128.05693, 49.63019, -3628.59033203125], [-128.06328, 49.6368, -2939.095947265625], [-128.07054, 49.63259, -3591.877197265625]]], [[[-128.04858, 49.63417, -2964.735107421875], [-128.04055, 49.63805, -2274.6201171875], [-128.05401, 49.64001, -2274.6201171875], [-128.04858, 49.63417, -2964.735107421875]]], [[[-128.07662, 49.6414, -2969.22802734375], [-128.07709, 49.64945, -2274.6201171875], [-128.08644, 49.64668, -2893.463134765625], [-128.07662, 49.6414, -2969.22802734375]]], [[[-128.08925, 49.65351, -2274.6201171875], [-128.08644, 49.64668, -2893.463134765625], [-128.07709, 49.64945, -2274.6201171875], [-128.08925, 49.65351, -2274.6201171875]]], [[[-128.08644, 49.64668, -2893.463134765625], [-128.08925, 49.65351, -2274.6201171875], [-128.09728, 49.64963, -2964.735107421875], [-128.08644, 49.64668, -2893.463134765625]]], [[[-128.12463, 49.63635, -4922.06005859375], [-128.13579, 49.63095, -5455.46142578125], [-128.12341, 49.62713, -5406.41357421875], [-128.12463, 49.63635, -4922.06005859375]]], [[[-128.11241, 49.63256, -4901.845703125], [-128.12463, 49.63635, -4922.06005859375], [-128.12341, 49.62713, -5406.41357421875], [-128.11241, 49.63256, -4901.845703125]]], [[[-127.81454, 49.53267, -2274.6201171875], [-127.82301, 49.52888, -2975.833984375], [-127.808, 49.5243, -2964.735107421875], [-127.81454, 49.53267, -2274.6201171875]]], [[[-127.79997, 49.52816, -2274.6201171875], [-127.81454, 49.53267, -2274.6201171875], [-127.808, 49.5243, -2964.735107421875], [-127.79997, 49.52816, -2274.6201171875]]]]}}]}