{"type": "FeatureCollection", "features": [{"type": "Feature", "properties": {"name": "AW_VANC_23", "CFM_ID": 263, "region": "Offshore_WAOR", "primary_state/province": "WA", "secondary_state/province": null, "avg_dip": 38, "dip_dir": "SW", "rake": 90, "slip_sense": "Reverse", "fault_level": 2, "NSHM23_sliprates": null, "QFFDAgeCatBin": null, "QFFDAgeBin": null, "upper_depth": -2.0, "upper_depth_constraint": "seismic imaging", "lower_depth": -5.8, "lower_depth_constraint": "megathrust", "3D_model_constraints": "trace and 1 MCS line (see comments)", "reference": "Ledeczi et al. (2024); Carbotte et al. (2023)", "nshm23_id": null, "lineage": null, "usgs_qffd_#": null, "comments": "used depth interpretations from AW_WASH_3 (interpreted as same fault, just cut by strike-slip); fault depth interpretation from Ledeczi et al. (2024); Carbotte et al. (2023) used to aid in model building", "id": "263"}, "geometry": {"type": "MultiPolygon", "coordinates": [[[[-126.23115, 47.7443, -3215.37158203125], [-126.22578, 47.73633, -3194.009033203125], [-126.22023, 47.7428, -2562.144287109375], [-126.23115, 47.7443, -3215.37158203125]]], [[[-126.2149, 47.73476, -2548.562744140625], [-126.20273, 47.73341, -2029.7099609375], [-126.20831, 47.74148, -2029.7099609375], [-126.2149, 47.73476, -2548.562744140625]]], [[[-126.23677, 47.73795, -3754.360107421875], [-126.23115, 47.7443, -3215.37158203125], [-126.24354, 47.74637, -3858.090087890625], [-126.23677, 47.73795, -3754.360107421875]]], [[[-126.22341, 47.6865, -4274.79736328125], [-126.22683, 47.69465, -4266.5556640625], [-126.23449, 47.68928, -4803.802734375], [-126.22341, 47.6865, -4274.79736328125]]], [[[-126.22962, 47.75881, -2638.03076171875], [-126.21827, 47.75739, -2029.7099609375], [-126.2238, 47.76557, -2029.7099609375], [-126.22962, 47.75881, -2638.03076171875]]], [[[-126.26386, 47.78067, -4050.36572265625], [-126.27152, 47.78923, -4016.02294921875], [-126.27644, 47.78234, -4661.94482421875], [-126.26386, 47.78067, -4050.36572265625]]], [[[-126.22964, 47.70308, -4256.5927734375], [-126.23293, 47.71192, -4278.8193359375], [-126.24048, 47.70604, -4804.4453125], [-126.22964, 47.70308, -4256.5927734375]]], [[[-126.29179, 47.817, -3215.664306640625], [-126.2796, 47.8176, -2488.0068359375], [-126.28761, 47.824, -2538.774169921875], [-126.29179, 47.817, -3215.664306640625]]], [[[-126.26196, 47.7568, -4655.6962890625], [-126.2529, 47.7636, -3948.427001953125], [-126.26625, 47.76524, -4677.16845703125], [-126.26196, 47.7568, -4655.6962890625]]], [[[-126.22626, 47.71645, -3783.295166015625], [-126.2185, 47.72192, -3215.988037109375], [-126.22902, 47.72388, -3772.784912109375], [-126.22626, 47.71645, -3783.295166015625]]], [[[-126.30538, 47.79608, -5119.37451171875], [-126.30149, 47.80347, -4496.4853515625], [-126.31293, 47.80192, -5083.17333984375], [-126.30538, 47.79608, -5119.37451171875]]], [[[-126.2194, 47.69815, -3745.025390625], [-126.22964, 47.70308, -4256.5927734375], [-126.22683, 47.69465, -4266.5556640625], [-126.2194, 47.69815, -3745.025390625]]], [[[-126.30538, 47.79608, -5119.37451171875], [-126.31775, 47.79473, -5663.7958984375], [-126.3088, 47.78857, -5684.31103515625], [-126.30538, 47.79608, -5119.37451171875]]], [[[-126.20507, 47.64058, -4745.73583984375], [-126.21296, 47.64916, -4819.51513671875], [-126.21793, 47.64085, -5317.654296875], [-126.20507, 47.64058, -4745.73583984375]]], [[[-126.42342, 47.9061, -3937.29296875], [-126.40969, 47.90017, -3706.370849609375], [-126.4135, 47.90819, -3314.932373046875], [-126.42342, 47.9061, -3937.29296875]]], [[[-126.25834, 47.77203, -4037.176025390625], [-126.2708, 47.77372, -4697.58203125], [-126.26625, 47.76524, -4677.16845703125], [-126.25834, 47.77203, -4037.176025390625]]], [[[-126.27152, 47.78923, -4016.02294921875], [-126.26386, 47.78067, -4050.36572265625], [-126.25782, 47.78784, -3399.56494140625], [-126.27152, 47.78923, -4016.02294921875]]], [[[-126.29519, 47.77571, -5717.15966796875], [-126.2887, 47.78262, -5187.75537109375], [-126.30092, 47.78207, -5703.1533203125], [-126.29519, 47.77571, -5717.15966796875]]], [[[-126.2185, 47.72192, -3215.988037109375], [-126.21561, 47.71379, -3208.51171875], [-126.20831, 47.7194, -2564.93115234375], [-126.2185, 47.72192, -3215.988037109375]]], [[[-126.33521, 47.8643, -2660.53271484375], [-126.34578, 47.86158, -3468.3935546875], [-126.33615, 47.85695, -3289.01318359375], [-126.33521, 47.8643, -2660.53271484375]]], [[[-126.29605, 47.83174, -2609.13720703125], [-126.28432, 47.8316, -2029.7099609375], [-126.29135, 47.83911, -2029.7099609375], [-126.29605, 47.83174, -2609.13720703125]]], [[[-126.24871, 47.75437, -3947.6318359375], [-126.2529, 47.7636, -3948.427001953125], [-126.26196, 47.7568, -4655.6962890625], [-126.24871, 47.75437, -3947.6318359375]]], [[[-126.23293, 47.71192, -4278.8193359375], [-126.24348, 47.71497, -4805.03857421875], [-126.24048, 47.70604, -4804.4453125], [-126.23293, 47.71192, -4278.8193359375]]], [[[-126.20157, 47.66209, -3730.926513671875], [-126.1957, 47.65246, -3760.09228515625], [-126.19088, 47.65982, -3210.891357421875], [-126.20157, 47.66209, -3730.926513671875]]], [[[-126.22474, 47.75053, -2566.318603515625], [-126.21827, 47.75739, -2029.7099609375], [-126.22962, 47.75881, -2638.03076171875], [-126.22474, 47.75053, -2566.318603515625]]], [[[-126.25834, 47.77203, -4037.176025390625], [-126.24988, 47.77978, -3338.599365234375], [-126.26386, 47.78067, -4050.36572265625], [-126.25834, 47.77203, -4037.176025390625]]], [[[-126.23803, 47.7767, -2646.939697265625], [-126.23437, 47.76796, -2679.451904296875], [-126.22776, 47.77403, -2029.7099609375], [-126.23803, 47.7767, -2646.939697265625]]], [[[-126.25202, 47.70903, -5313.1796875], [-126.26086, 47.70303, -5810.01904296875], [-126.24916, 47.70011, -5317.79736328125], [-126.25202, 47.70903, -5313.1796875]]], [[[-126.23803, 47.7767, -2646.939697265625], [-126.22776, 47.77403, -2029.7099609375], [-126.22953, 47.78288, -2029.7099609375], [-126.23803, 47.7767, -2646.939697265625]]], [[[-126.44539, 47.90358, -5084.20947265625], [-126.44545, 47.90954, -4545.47021484375], [-126.45607, 47.90753, -5108.0], [-126.44539, 47.90358, -5084.20947265625]]], [[[-126.43419, 47.90416, -4615.38330078125], [-126.44545, 47.90954, -4545.47021484375], [-126.44539, 47.90358, -5084.20947265625], [-126.43419, 47.90416, -4615.38330078125]]], [[[-126.24295, 47.6833, -5333.25390625], [-126.24628, 47.69155, -5323.49658203125], [-126.25496, 47.68555, -5824.27197265625], [-126.24295, 47.6833, -5333.25390625]]], [[[-126.23108, 47.68112, -4823.83447265625], [-126.24295, 47.6833, -5333.25390625], [-126.23905, 47.67479, -5337.6943359375], [-126.23108, 47.68112, -4823.83447265625]]], [[[-126.43419, 47.90416, -4615.38330078125], [-126.4356, 47.9114, -3902.5302734375], [-126.44545, 47.90954, -4545.47021484375], [-126.43419, 47.90416, -4615.38330078125]]], [[[-126.1957, 47.65246, -3760.09228515625], [-126.19447, 47.64224, -4112.6982421875], [-126.1846, 47.64429, -3487.600341796875], [-126.1957, 47.65246, -3760.09228515625]]], [[[-126.30538, 47.79608, -5119.37451171875], [-126.31293, 47.80192, -5083.17333984375], [-126.31775, 47.79473, -5663.7958984375], [-126.30538, 47.79608, -5119.37451171875]]], [[[-126.30925, 47.84626, -2529.94775390625], [-126.29677, 47.8471, -2029.7099609375], [-126.30538, 47.85397, -2029.7099609375], [-126.30925, 47.84626, -2529.94775390625]]], [[[-126.30278, 47.8396, -2553.802490234375], [-126.29135, 47.83911, -2029.7099609375], [-126.29677, 47.8471, -2029.7099609375], [-126.30278, 47.8396, -2553.802490234375]]], [[[-126.23678, 47.72159, -4293.6865234375], [-126.23242, 47.73019, -3784.38720703125], [-126.24204, 47.73128, -4298.09765625], [-126.23678, 47.72159, -4293.6865234375]]], [[[-126.24051, 47.76135, -3307.630859375], [-126.24538, 47.77082, -3338.45361328125], [-126.2529, 47.7636, -3948.427001953125], [-126.24051, 47.76135, -3307.630859375]]], [[[-126.42342, 47.9061, -3937.29296875], [-126.4356, 47.9114, -3902.5302734375], [-126.43419, 47.90416, -4615.38330078125], [-126.42342, 47.9061, -3937.29296875]]], [[[-126.2149, 47.73476, -2548.562744140625], [-126.20831, 47.74148, -2029.7099609375], [-126.22023, 47.7428, -2562.144287109375], [-126.2149, 47.73476, -2548.562744140625]]], [[[-126.22578, 47.73633, -3194.009033203125], [-126.22122, 47.72899, -3188.966064453125], [-126.2149, 47.73476, -2548.562744140625], [-126.22578, 47.73633, -3194.009033203125]]], [[[-126.20184, 47.70082, -2557.62255859375], [-126.19477, 47.70746, -2029.7099609375], [-126.20593, 47.71003, -2611.482666015625], [-126.20184, 47.70082, -2557.62255859375]]], [[[-126.28444, 47.7902, -4629.1572265625], [-126.29303, 47.79714, -4545.9267578125], [-126.29666, 47.78969, -5160.6083984375], [-126.28444, 47.7902, -4629.1572265625]]], [[[-126.24724, 47.74011, -4275.74169921875], [-126.23677, 47.73795, -3754.360107421875], [-126.24354, 47.74637, -3858.090087890625], [-126.24724, 47.74011, -4275.74169921875]]], [[[-126.23579, 47.75249, -3262.220703125], [-126.23115, 47.7443, -3215.37158203125], [-126.22474, 47.75053, -2566.318603515625], [-126.23579, 47.75249, -3262.220703125]]], [[[-126.42342, 47.9061, -3937.29296875], [-126.42549, 47.91333, -3287.10009765625], [-126.4356, 47.9114, -3902.5302734375], [-126.42342, 47.9061, -3937.29296875]]], [[[-126.1957, 47.65246, -3760.09228515625], [-126.1846, 47.64429, -3487.600341796875], [-126.18514, 47.65208, -3188.75341796875], [-126.1957, 47.65246, -3760.09228515625]]], [[[-126.24538, 47.77082, -3338.45361328125], [-126.23803, 47.7767, -2646.939697265625], [-126.24988, 47.77978, -3338.599365234375], [-126.24538, 47.77082, -3338.45361328125]]], [[[-126.2185, 47.72192, -3215.988037109375], [-126.20831, 47.7194, -2564.93115234375], [-126.21055, 47.7271, -2534.120849609375], [-126.2185, 47.72192, -3215.988037109375]]], [[[-126.22683, 47.69465, -4266.5556640625], [-126.22964, 47.70308, -4256.5927734375], [-126.23759, 47.69741, -4805.248046875], [-126.22683, 47.69465, -4266.5556640625]]], [[[-126.28933, 47.80382, -3837.395751953125], [-126.29689, 47.81026, -3839.805908203125], [-126.30149, 47.80347, -4496.4853515625], [-126.28933, 47.80382, -3837.395751953125]]], [[[-126.25515, 47.71795, -5303.35546875], [-126.26714, 47.72044, -5793.423828125], [-126.26364, 47.71179, -5803.0869140625], [-126.25515, 47.71795, -5303.35546875]]], [[[-126.2796, 47.8176, -2488.0068359375], [-126.27455, 47.82549, -2029.7099609375], [-126.28761, 47.824, -2538.774169921875], [-126.2796, 47.8176, -2488.0068359375]]], [[[-126.22474, 47.75053, -2566.318603515625], [-126.22023, 47.7428, -2562.144287109375], [-126.21267, 47.74923, -2029.7099609375], [-126.22474, 47.75053, -2566.318603515625]]], [[[-126.19038, 47.67507, -2582.15966796875], [-126.17863, 47.67334, -2029.7099609375], [-126.18343, 47.68169, -2029.7099609375], [-126.19038, 47.67507, -2582.15966796875]]], [[[-126.25202, 47.70903, -5313.1796875], [-126.26364, 47.71179, -5803.0869140625], [-126.26086, 47.70303, -5810.01904296875], [-126.25202, 47.70903, -5313.1796875]]], [[[-126.22724, 47.67287, -4827.16064453125], [-126.23108, 47.68112, -4823.83447265625], [-126.23905, 47.67479, -5337.6943359375], [-126.22724, 47.67287, -4827.16064453125]]], [[[-126.28933, 47.80382, -3837.395751953125], [-126.28433, 47.81074, -3157.959716796875], [-126.29689, 47.81026, -3839.805908203125], [-126.28933, 47.80382, -3837.395751953125]]], [[[-126.4135, 47.90819, -3314.932373046875], [-126.42549, 47.91333, -3287.10009765625], [-126.42342, 47.9061, -3937.29296875], [-126.4135, 47.90819, -3314.932373046875]]], [[[-126.20669, 47.67134, -3726.201904296875], [-126.21216, 47.68067, -3771.4541015625], [-126.21602, 47.67162, -4262.05859375], [-126.20669, 47.67134, -3726.201904296875]]], [[[-126.3824, 47.86398, -4941.21826171875], [-126.39327, 47.87005, -4918.16455078125], [-126.39458, 47.86208, -5520.70068359375], [-126.3824, 47.86398, -4941.21826171875]]], [[[-126.21234, 47.70384, -3210.630859375], [-126.20876, 47.69504, -3184.0234375], [-126.20184, 47.70082, -2557.62255859375], [-126.21234, 47.70384, -3210.630859375]]], [[[-126.22683, 47.69465, -4266.5556640625], [-126.23759, 47.69741, -4805.248046875], [-126.23449, 47.68928, -4803.802734375], [-126.22683, 47.69465, -4266.5556640625]]], [[[-126.4135, 47.90819, -3314.932373046875], [-126.41624, 47.91505, -2595.25], [-126.42549, 47.91333, -3287.10009765625], [-126.4135, 47.90819, -3314.932373046875]]], [[[-126.21234, 47.70384, -3210.630859375], [-126.2194, 47.69815, -3745.025390625], [-126.20876, 47.69504, -3184.0234375], [-126.21234, 47.70384, -3210.630859375]]], [[[-126.26559, 47.8031, -2652.40966796875], [-126.25505, 47.80203, -2029.7099609375], [-126.26076, 47.81016, -2029.7099609375], [-126.26559, 47.8031, -2652.40966796875]]], [[[-126.2185, 47.72192, -3215.988037109375], [-126.22626, 47.71645, -3783.295166015625], [-126.21561, 47.71379, -3208.51171875], [-126.2185, 47.72192, -3215.988037109375]]], [[[-126.29303, 47.79714, -4545.9267578125], [-126.30538, 47.79608, -5119.37451171875], [-126.29666, 47.78969, -5160.6083984375], [-126.29303, 47.79714, -4545.9267578125]]], [[[-126.22258, 47.70756, -3741.540283203125], [-126.21561, 47.71379, -3208.51171875], [-126.22626, 47.71645, -3783.295166015625], [-126.22258, 47.70756, -3741.540283203125]]], [[[-126.20716, 47.65609, -4269.26806640625], [-126.21175, 47.66398, -4254.6357421875], [-126.21841, 47.65732, -4814.29638671875], [-126.20716, 47.65609, -4269.26806640625]]], [[[-126.18528, 47.66646, -2566.542724609375], [-126.1733, 47.6651, -2029.7099609375], [-126.17863, 47.67334, -2029.7099609375], [-126.18528, 47.66646, -2566.542724609375]]], [[[-126.25515, 47.71795, -5303.35546875], [-126.25969, 47.72719, -5289.05908203125], [-126.26714, 47.72044, -5793.423828125], [-126.25515, 47.71795, -5303.35546875]]], [[[-126.25306, 47.73352, -4801.15185546875], [-126.26528, 47.73505, -5315.73046875], [-126.25969, 47.72719, -5289.05908203125], [-126.25306, 47.73352, -4801.15185546875]]], [[[-126.19803, 47.69287, -2540.613525390625], [-126.18619, 47.69049, -2029.7099609375], [-126.18984, 47.69911, -2029.7099609375], [-126.19803, 47.69287, -2540.613525390625]]], [[[-126.4135, 47.90819, -3314.932373046875], [-126.40685, 47.91074, -2673.005615234375], [-126.41624, 47.91505, -2595.25], [-126.4135, 47.90819, -3314.932373046875]]], [[[-126.19478, 47.68466, -2563.4501953125], [-126.18619, 47.69049, -2029.7099609375], [-126.19803, 47.69287, -2540.613525390625], [-126.19478, 47.68466, -2563.4501953125]]], [[[-126.32004, 47.84538, -3210.510986328125], [-126.30925, 47.84626, -2529.94775390625], [-126.31754, 47.85249, -2544.51123046875], [-126.32004, 47.84538, -3210.510986328125]]], [[[-126.20507, 47.64058, -4745.73583984375], [-126.19447, 47.64224, -4112.6982421875], [-126.20215, 47.64808, -4305.28271484375], [-126.20507, 47.64058, -4745.73583984375]]], [[[-126.4135, 47.90819, -3314.932373046875], [-126.39932, 47.9042, -2893.459228515625], [-126.40685, 47.91074, -2673.005615234375], [-126.4135, 47.90819, -3314.932373046875]]], [[[-126.24204, 47.73128, -4298.09765625], [-126.25306, 47.73352, -4801.15185546875], [-126.24757, 47.72468, -4803.8984375], [-126.24204, 47.73128, -4298.09765625]]], [[[-126.19478, 47.68466, -2563.4501953125], [-126.18343, 47.68169, -2029.7099609375], [-126.18619, 47.69049, -2029.7099609375], [-126.19478, 47.68466, -2563.4501953125]]], [[[-126.27293, 47.81062, -2521.34521484375], [-126.26076, 47.81016, -2029.7099609375], [-126.26688, 47.81813, -2029.7099609375], [-126.27293, 47.81062, -2521.34521484375]]], [[[-126.25969, 47.72719, -5289.05908203125], [-126.26528, 47.73505, -5315.73046875], [-126.272, 47.72878, -5781.4150390625], [-126.25969, 47.72719, -5289.05908203125]]], [[[-126.39932, 47.9042, -2893.459228515625], [-126.4135, 47.90819, -3314.932373046875], [-126.40969, 47.90017, -3706.370849609375], [-126.39932, 47.9042, -2893.459228515625]]], [[[-126.22286, 47.66501, -4813.50244140625], [-126.23051, 47.65843, -5342.15087890625], [-126.21841, 47.65732, -4814.29638671875], [-126.22286, 47.66501, -4813.50244140625]]], [[[-126.27889, 47.76756, -5227.46142578125], [-126.28293, 47.77547, -5206.76611328125], [-126.29099, 47.76931, -5727.82177734375], [-126.27889, 47.76756, -5227.46142578125]]], [[[-126.20716, 47.65609, -4269.26806640625], [-126.21841, 47.65732, -4814.29638671875], [-126.21296, 47.64916, -4819.51513671875], [-126.20716, 47.65609, -4269.26806640625]]], [[[-126.2205, 47.67889, -4314.08837890625], [-126.23108, 47.68112, -4823.83447265625], [-126.22724, 47.67287, -4827.16064453125], [-126.2205, 47.67889, -4314.08837890625]]], [[[-126.39862, 47.89519, -3415.623779296875], [-126.39932, 47.9042, -2893.459228515625], [-126.40969, 47.90017, -3706.370849609375], [-126.39862, 47.89519, -3415.623779296875]]], [[[-126.22578, 47.73633, -3194.009033203125], [-126.2149, 47.73476, -2548.562744140625], [-126.22023, 47.7428, -2562.144287109375], [-126.22578, 47.73633, -3194.009033203125]]], [[[-126.23678, 47.72159, -4293.6865234375], [-126.24757, 47.72468, -4803.8984375], [-126.24348, 47.71497, -4805.03857421875], [-126.23678, 47.72159, -4293.6865234375]]], [[[-126.39862, 47.89519, -3415.623779296875], [-126.38856, 47.89692, -2703.36376953125], [-126.39932, 47.9042, -2893.459228515625], [-126.39862, 47.89519, -3415.623779296875]]], [[[-126.19088, 47.65982, -3210.891357421875], [-126.17981, 47.65813, -2564.065673828125], [-126.18528, 47.66646, -2566.542724609375], [-126.19088, 47.65982, -3210.891357421875]]], [[[-126.23449, 47.68928, -4803.802734375], [-126.23759, 47.69741, -4805.248046875], [-126.24628, 47.69155, -5323.49658203125], [-126.23449, 47.68928, -4803.802734375]]], [[[-126.24051, 47.76135, -3307.630859375], [-126.23579, 47.75249, -3262.220703125], [-126.22962, 47.75881, -2638.03076171875], [-126.24051, 47.76135, -3307.630859375]]], [[[-126.23293, 47.71192, -4278.8193359375], [-126.23678, 47.72159, -4293.6865234375], [-126.24348, 47.71497, -4805.03857421875], [-126.23293, 47.71192, -4278.8193359375]]], [[[-126.20507, 47.64058, -4745.73583984375], [-126.20215, 47.64808, -4305.28271484375], [-126.21296, 47.64916, -4819.51513671875], [-126.20507, 47.64058, -4745.73583984375]]], [[[-126.21216, 47.68067, -3771.4541015625], [-126.2205, 47.67889, -4314.08837890625], [-126.21602, 47.67162, -4262.05859375], [-126.21216, 47.68067, -3771.4541015625]]], [[[-126.2668, 47.79606, -3339.664306640625], [-126.25557, 47.7956, -2737.14501953125], [-126.26559, 47.8031, -2652.40966796875], [-126.2668, 47.79606, -3339.664306640625]]], [[[-126.24204, 47.73128, -4298.09765625], [-126.24724, 47.74011, -4275.74169921875], [-126.25306, 47.73352, -4801.15185546875], [-126.24204, 47.73128, -4298.09765625]]], [[[-126.22286, 47.66501, -4813.50244140625], [-126.22724, 47.67287, -4827.16064453125], [-126.23499, 47.66649, -5342.2265625], [-126.22286, 47.66501, -4813.50244140625]]], [[[-126.20669, 47.67134, -3726.201904296875], [-126.20157, 47.66209, -3730.926513671875], [-126.19606, 47.66855, -3205.421875], [-126.20669, 47.67134, -3726.201904296875]]], [[[-126.23449, 47.68928, -4803.802734375], [-126.24295, 47.6833, -5333.25390625], [-126.23108, 47.68112, -4823.83447265625], [-126.23449, 47.68928, -4803.802734375]]], [[[-126.38811, 47.8868, -3386.298095703125], [-126.38856, 47.89692, -2703.36376953125], [-126.39862, 47.89519, -3415.623779296875], [-126.38811, 47.8868, -3386.298095703125]]], [[[-126.18528, 47.66646, -2566.542724609375], [-126.17863, 47.67334, -2029.7099609375], [-126.19038, 47.67507, -2582.15966796875], [-126.18528, 47.66646, -2566.542724609375]]], [[[-126.23115, 47.7443, -3215.37158203125], [-126.22023, 47.7428, -2562.144287109375], [-126.22474, 47.75053, -2566.318603515625], [-126.23115, 47.7443, -3215.37158203125]]], [[[-126.20669, 47.67134, -3726.201904296875], [-126.21602, 47.67162, -4262.05859375], [-126.21175, 47.66398, -4254.6357421875], [-126.20669, 47.67134, -3726.201904296875]]], [[[-126.20507, 47.64058, -4745.73583984375], [-126.20567, 47.63161, -5108.0], [-126.1951, 47.6336, -4545.47021484375], [-126.20507, 47.64058, -4745.73583984375]]], [[[-126.38811, 47.8868, -3386.298095703125], [-126.38033, 47.89044, -2665.7724609375], [-126.38856, 47.89692, -2703.36376953125], [-126.38811, 47.8868, -3386.298095703125]]], [[[-126.19088, 47.65982, -3210.891357421875], [-126.18514, 47.65208, -3188.75341796875], [-126.17981, 47.65813, -2564.065673828125], [-126.19088, 47.65982, -3210.891357421875]]], [[[-126.23449, 47.68928, -4803.802734375], [-126.24628, 47.69155, -5323.49658203125], [-126.24295, 47.6833, -5333.25390625], [-126.23449, 47.68928, -4803.802734375]]], [[[-126.38033, 47.89044, -2665.7724609375], [-126.38811, 47.8868, -3386.298095703125], [-126.37779, 47.88028, -3372.806884765625], [-126.38033, 47.89044, -2665.7724609375]]], [[[-126.21841, 47.65732, -4814.29638671875], [-126.22529, 47.65036, -5340.267578125], [-126.21296, 47.64916, -4819.51513671875], [-126.21841, 47.65732, -4814.29638671875]]], [[[-126.30278, 47.8396, -2553.802490234375], [-126.29677, 47.8471, -2029.7099609375], [-126.30925, 47.84626, -2529.94775390625], [-126.30278, 47.8396, -2553.802490234375]]], [[[-126.2205, 47.67889, -4314.08837890625], [-126.22341, 47.6865, -4274.79736328125], [-126.23108, 47.68112, -4823.83447265625], [-126.2205, 47.67889, -4314.08837890625]]], [[[-126.23678, 47.72159, -4293.6865234375], [-126.22626, 47.71645, -3783.295166015625], [-126.22902, 47.72388, -3772.784912109375], [-126.23678, 47.72159, -4293.6865234375]]], [[[-126.24916, 47.70011, -5317.79736328125], [-126.26086, 47.70303, -5810.01904296875], [-126.25809, 47.69426, -5817.67626953125], [-126.24916, 47.70011, -5317.79736328125]]], [[[-126.24871, 47.75437, -3947.6318359375], [-126.23579, 47.75249, -3262.220703125], [-126.24051, 47.76135, -3307.630859375], [-126.24871, 47.75437, -3947.6318359375]]], [[[-126.21841, 47.65732, -4814.29638671875], [-126.23051, 47.65843, -5342.15087890625], [-126.22529, 47.65036, -5340.267578125], [-126.21841, 47.65732, -4814.29638671875]]], [[[-126.37779, 47.88028, -3372.806884765625], [-126.37217, 47.88606, -2539.26220703125], [-126.38033, 47.89044, -2665.7724609375], [-126.37779, 47.88028, -3372.806884765625]]], [[[-126.24916, 47.70011, -5317.79736328125], [-126.24048, 47.70604, -4804.4453125], [-126.25202, 47.70903, -5313.1796875], [-126.24916, 47.70011, -5317.79736328125]]], [[[-126.2708, 47.77372, -4697.58203125], [-126.27889, 47.76756, -5227.46142578125], [-126.26625, 47.76524, -4677.16845703125], [-126.2708, 47.77372, -4697.58203125]]], [[[-126.28761, 47.824, -2538.774169921875], [-126.28432, 47.8316, -2029.7099609375], [-126.29605, 47.83174, -2609.13720703125], [-126.28761, 47.824, -2538.774169921875]]], [[[-126.20507, 47.64058, -4745.73583984375], [-126.1951, 47.6336, -4545.47021484375], [-126.19447, 47.64224, -4112.6982421875], [-126.20507, 47.64058, -4745.73583984375]]], [[[-126.24628, 47.69155, -5323.49658203125], [-126.25809, 47.69426, -5817.67626953125], [-126.25496, 47.68555, -5824.27197265625], [-126.24628, 47.69155, -5323.49658203125]]], [[[-126.1957, 47.65246, -3760.09228515625], [-126.20215, 47.64808, -4305.28271484375], [-126.19447, 47.64224, -4112.6982421875], [-126.1957, 47.65246, -3760.09228515625]]], [[[-126.29666, 47.78969, -5160.6083984375], [-126.3088, 47.78857, -5684.31103515625], [-126.30092, 47.78207, -5703.1533203125], [-126.29666, 47.78969, -5160.6083984375]]], [[[-126.22286, 47.66501, -4813.50244140625], [-126.23499, 47.66649, -5342.2265625], [-126.23051, 47.65843, -5342.15087890625], [-126.22286, 47.66501, -4813.50244140625]]], [[[-126.37779, 47.88028, -3372.806884765625], [-126.36515, 47.88057, -2654.564453125], [-126.37217, 47.88606, -2539.26220703125], [-126.37779, 47.88028, -3372.806884765625]]], [[[-126.25306, 47.73352, -4801.15185546875], [-126.25742, 47.74069, -4791.60986328125], [-126.26528, 47.73505, -5315.73046875], [-126.25306, 47.73352, -4801.15185546875]]], [[[-126.23293, 47.71192, -4278.8193359375], [-126.22258, 47.70756, -3741.540283203125], [-126.22626, 47.71645, -3783.295166015625], [-126.23293, 47.71192, -4278.8193359375]]], [[[-126.25969, 47.72719, -5289.05908203125], [-126.272, 47.72878, -5781.4150390625], [-126.26714, 47.72044, -5793.423828125], [-126.25969, 47.72719, -5289.05908203125]]], [[[-126.25515, 47.71795, -5303.35546875], [-126.24757, 47.72468, -4803.8984375], [-126.25969, 47.72719, -5289.05908203125], [-126.25515, 47.71795, -5303.35546875]]], [[[-126.22964, 47.70308, -4256.5927734375], [-126.2194, 47.69815, -3745.025390625], [-126.22258, 47.70756, -3741.540283203125], [-126.22964, 47.70308, -4256.5927734375]]], [[[-126.26559, 47.8031, -2652.40966796875], [-126.25557, 47.7956, -2737.14501953125], [-126.25505, 47.80203, -2029.7099609375], [-126.26559, 47.8031, -2652.40966796875]]], [[[-126.2799, 47.79683, -3904.146484375], [-126.29303, 47.79714, -4545.9267578125], [-126.28444, 47.7902, -4629.1572265625], [-126.2799, 47.79683, -3904.146484375]]], [[[-126.36515, 47.88057, -2654.564453125], [-126.37779, 47.88028, -3372.806884765625], [-126.36711, 47.87348, -3467.128662109375], [-126.36515, 47.88057, -2654.564453125]]], [[[-126.22122, 47.72899, -3188.966064453125], [-126.21055, 47.7271, -2534.120849609375], [-126.2149, 47.73476, -2548.562744140625], [-126.22122, 47.72899, -3188.966064453125]]], [[[-126.27152, 47.78923, -4016.02294921875], [-126.25782, 47.78784, -3399.56494140625], [-126.2668, 47.79606, -3339.664306640625], [-126.27152, 47.78923, -4016.02294921875]]], [[[-126.24348, 47.71497, -4805.03857421875], [-126.25202, 47.70903, -5313.1796875], [-126.24048, 47.70604, -4804.4453125], [-126.24348, 47.71497, -4805.03857421875]]], [[[-126.2194, 47.69815, -3745.025390625], [-126.21234, 47.70384, -3210.630859375], [-126.22258, 47.70756, -3741.540283203125], [-126.2194, 47.69815, -3745.025390625]]], [[[-126.23905, 47.67479, -5337.6943359375], [-126.24295, 47.6833, -5333.25390625], [-126.25111, 47.67697, -5831.80615234375], [-126.23905, 47.67479, -5337.6943359375]]], [[[-126.22341, 47.6865, -4274.79736328125], [-126.23449, 47.68928, -4803.802734375], [-126.23108, 47.68112, -4823.83447265625], [-126.22341, 47.6865, -4274.79736328125]]], [[[-126.28933, 47.80382, -3837.395751953125], [-126.30149, 47.80347, -4496.4853515625], [-126.29303, 47.79714, -4545.9267578125], [-126.28933, 47.80382, -3837.395751953125]]], [[[-126.36711, 47.87348, -3467.128662109375], [-126.35489, 47.87418, -2759.211669921875], [-126.36515, 47.88057, -2654.564453125], [-126.36711, 47.87348, -3467.128662109375]]], [[[-126.24354, 47.74637, -3858.090087890625], [-126.23579, 47.75249, -3262.220703125], [-126.24871, 47.75437, -3947.6318359375], [-126.24354, 47.74637, -3858.090087890625]]], [[[-126.21596, 47.68948, -3752.957763671875], [-126.21216, 47.68067, -3771.4541015625], [-126.20515, 47.68693, -3197.0107421875], [-126.21596, 47.68948, -3752.957763671875]]], [[[-126.36711, 47.87348, -3467.128662109375], [-126.35585, 47.86678, -3522.635009765625], [-126.35489, 47.87418, -2759.211669921875], [-126.36711, 47.87348, -3467.128662109375]]], [[[-126.23905, 47.67479, -5337.6943359375], [-126.25111, 47.67697, -5831.80615234375], [-126.24716, 47.66841, -5838.10498046875], [-126.23905, 47.67479, -5337.6943359375]]], [[[-126.22122, 47.72899, -3188.966064453125], [-126.2185, 47.72192, -3215.988037109375], [-126.21055, 47.7271, -2534.120849609375], [-126.22122, 47.72899, -3188.966064453125]]], [[[-126.25202, 47.70903, -5313.1796875], [-126.25515, 47.71795, -5303.35546875], [-126.26364, 47.71179, -5803.0869140625], [-126.25202, 47.70903, -5313.1796875]]], [[[-126.24051, 47.76135, -3307.630859375], [-126.22962, 47.75881, -2638.03076171875], [-126.23437, 47.76796, -2679.451904296875], [-126.24051, 47.76135, -3307.630859375]]], [[[-126.20157, 47.66209, -3730.926513671875], [-126.20669, 47.67134, -3726.201904296875], [-126.21175, 47.66398, -4254.6357421875], [-126.20157, 47.66209, -3730.926513671875]]], [[[-126.35585, 47.86678, -3522.635009765625], [-126.36711, 47.87348, -3467.128662109375], [-126.36927, 47.86538, -4272.75146484375], [-126.35585, 47.86678, -3522.635009765625]]], [[[-126.22258, 47.70756, -3741.540283203125], [-126.21234, 47.70384, -3210.630859375], [-126.21561, 47.71379, -3208.51171875], [-126.22258, 47.70756, -3741.540283203125]]], [[[-126.1957, 47.65246, -3760.09228515625], [-126.20157, 47.66209, -3730.926513671875], [-126.20716, 47.65609, -4269.26806640625], [-126.1957, 47.65246, -3760.09228515625]]], [[[-126.21234, 47.70384, -3210.630859375], [-126.20184, 47.70082, -2557.62255859375], [-126.20593, 47.71003, -2611.482666015625], [-126.21234, 47.70384, -3210.630859375]]], [[[-126.28761, 47.824, -2538.774169921875], [-126.27455, 47.82549, -2029.7099609375], [-126.28432, 47.8316, -2029.7099609375], [-126.28761, 47.824, -2538.774169921875]]], [[[-126.24916, 47.70011, -5317.79736328125], [-126.25809, 47.69426, -5817.67626953125], [-126.24628, 47.69155, -5323.49658203125], [-126.24916, 47.70011, -5317.79736328125]]], [[[-126.1957, 47.65246, -3760.09228515625], [-126.20716, 47.65609, -4269.26806640625], [-126.20215, 47.64808, -4305.28271484375], [-126.1957, 47.65246, -3760.09228515625]]], [[[-126.35585, 47.86678, -3522.635009765625], [-126.36927, 47.86538, -4272.75146484375], [-126.35854, 47.8583, -4328.8935546875], [-126.35585, 47.86678, -3522.635009765625]]], [[[-126.21596, 47.68948, -3752.957763671875], [-126.22683, 47.69465, -4266.5556640625], [-126.22341, 47.6865, -4274.79736328125], [-126.21596, 47.68948, -3752.957763671875]]], [[[-126.1957, 47.65246, -3760.09228515625], [-126.18514, 47.65208, -3188.75341796875], [-126.19088, 47.65982, -3210.891357421875], [-126.1957, 47.65246, -3760.09228515625]]], [[[-126.22902, 47.72388, -3772.784912109375], [-126.22122, 47.72899, -3188.966064453125], [-126.23242, 47.73019, -3784.38720703125], [-126.22902, 47.72388, -3772.784912109375]]], [[[-126.30592, 47.81792, -3908.0380859375], [-126.31374, 47.82699, -3888.05078125], [-126.31858, 47.81963, -4528.017578125], [-126.30592, 47.81792, -3908.0380859375]]], [[[-126.24354, 47.74637, -3858.090087890625], [-126.23115, 47.7443, -3215.37158203125], [-126.23579, 47.75249, -3262.220703125], [-126.24354, 47.74637, -3858.090087890625]]], [[[-126.35585, 47.86678, -3522.635009765625], [-126.35854, 47.8583, -4328.8935546875], [-126.34578, 47.86158, -3468.3935546875], [-126.35585, 47.86678, -3522.635009765625]]], [[[-126.29666, 47.78969, -5160.6083984375], [-126.30092, 47.78207, -5703.1533203125], [-126.2887, 47.78262, -5187.75537109375], [-126.29666, 47.78969, -5160.6083984375]]], [[[-126.23803, 47.7767, -2646.939697265625], [-126.22953, 47.78288, -2029.7099609375], [-126.24079, 47.78398, -2554.9169921875], [-126.23803, 47.7767, -2646.939697265625]]], [[[-126.24295, 47.6833, -5333.25390625], [-126.25496, 47.68555, -5824.27197265625], [-126.25111, 47.67697, -5831.80615234375], [-126.24295, 47.6833, -5333.25390625]]], [[[-126.28444, 47.7902, -4629.1572265625], [-126.29666, 47.78969, -5160.6083984375], [-126.2887, 47.78262, -5187.75537109375], [-126.28444, 47.7902, -4629.1572265625]]], [[[-126.29959, 47.8246, -3259.225341796875], [-126.28761, 47.824, -2538.774169921875], [-126.29605, 47.83174, -2609.13720703125], [-126.29959, 47.8246, -3259.225341796875]]], [[[-126.24724, 47.74011, -4275.74169921875], [-126.24354, 47.74637, -3858.090087890625], [-126.25826, 47.74778, -4673.73388671875], [-126.24724, 47.74011, -4275.74169921875]]], [[[-126.35585, 47.86678, -3522.635009765625], [-126.34578, 47.86158, -3468.3935546875], [-126.34422, 47.86876, -2726.197265625], [-126.35585, 47.86678, -3522.635009765625]]], [[[-126.27644, 47.78234, -4661.94482421875], [-126.2887, 47.78262, -5187.75537109375], [-126.28293, 47.77547, -5206.76611328125], [-126.27644, 47.78234, -4661.94482421875]]], [[[-126.21175, 47.66398, -4254.6357421875], [-126.21602, 47.67162, -4262.05859375], [-126.22286, 47.66501, -4813.50244140625], [-126.21175, 47.66398, -4254.6357421875]]], [[[-126.21055, 47.7271, -2534.120849609375], [-126.20273, 47.73341, -2029.7099609375], [-126.2149, 47.73476, -2548.562744140625], [-126.21055, 47.7271, -2534.120849609375]]], [[[-126.24348, 47.71497, -4805.03857421875], [-126.25515, 47.71795, -5303.35546875], [-126.25202, 47.70903, -5313.1796875], [-126.24348, 47.71497, -4805.03857421875]]], [[[-126.19803, 47.69287, -2540.613525390625], [-126.18984, 47.69911, -2029.7099609375], [-126.20184, 47.70082, -2557.62255859375], [-126.19803, 47.69287, -2540.613525390625]]], [[[-126.35585, 47.86678, -3522.635009765625], [-126.34422, 47.86876, -2726.197265625], [-126.35489, 47.87418, -2759.211669921875], [-126.35585, 47.86678, -3522.635009765625]]], [[[-126.28933, 47.80382, -3837.395751953125], [-126.2799, 47.79683, -3904.146484375], [-126.27692, 47.80385, -3243.174072265625], [-126.28933, 47.80382, -3837.395751953125]]], [[[-126.24724, 47.74011, -4275.74169921875], [-126.25742, 47.74069, -4791.60986328125], [-126.25306, 47.73352, -4801.15185546875], [-126.24724, 47.74011, -4275.74169921875]]], [[[-126.34422, 47.86876, -2726.197265625], [-126.34465, 47.87538, -2029.7099609375], [-126.35489, 47.87418, -2759.211669921875], [-126.34422, 47.86876, -2726.197265625]]], [[[-126.2194, 47.69815, -3745.025390625], [-126.21596, 47.68948, -3752.957763671875], [-126.20876, 47.69504, -3184.0234375], [-126.2194, 47.69815, -3745.025390625]]], [[[-126.20157, 47.66209, -3730.926513671875], [-126.19088, 47.65982, -3210.891357421875], [-126.19606, 47.66855, -3205.421875], [-126.20157, 47.66209, -3730.926513671875]]], [[[-126.2238, 47.76557, -2029.7099609375], [-126.22776, 47.77403, -2029.7099609375], [-126.23437, 47.76796, -2679.451904296875], [-126.2238, 47.76557, -2029.7099609375]]], [[[-126.34422, 47.86876, -2726.197265625], [-126.33346, 47.87229, -2029.7099609375], [-126.34465, 47.87538, -2029.7099609375], [-126.34422, 47.86876, -2726.197265625]]], [[[-126.25834, 47.77203, -4037.176025390625], [-126.26625, 47.76524, -4677.16845703125], [-126.2529, 47.7636, -3948.427001953125], [-126.25834, 47.77203, -4037.176025390625]]], [[[-126.23803, 47.7767, -2646.939697265625], [-126.24538, 47.77082, -3338.45361328125], [-126.23437, 47.76796, -2679.451904296875], [-126.23803, 47.7767, -2646.939697265625]]], [[[-126.28933, 47.80382, -3837.395751953125], [-126.27692, 47.80385, -3243.174072265625], [-126.28433, 47.81074, -3157.959716796875], [-126.28933, 47.80382, -3837.395751953125]]], [[[-126.33877, 47.84935, -3898.376953125], [-126.32783, 47.8509, -3260.048095703125], [-126.33615, 47.85695, -3289.01318359375], [-126.33877, 47.84935, -3898.376953125]]], [[[-126.21561, 47.71379, -3208.51171875], [-126.20593, 47.71003, -2611.482666015625], [-126.20831, 47.7194, -2564.93115234375], [-126.21561, 47.71379, -3208.51171875]]], [[[-126.33521, 47.8643, -2660.53271484375], [-126.33346, 47.87229, -2029.7099609375], [-126.34422, 47.86876, -2726.197265625], [-126.33521, 47.8643, -2660.53271484375]]], [[[-126.24538, 47.77082, -3338.45361328125], [-126.24051, 47.76135, -3307.630859375], [-126.23437, 47.76796, -2679.451904296875], [-126.24538, 47.77082, -3338.45361328125]]], [[[-126.21296, 47.64916, -4819.51513671875], [-126.22529, 47.65036, -5340.267578125], [-126.21793, 47.64085, -5317.654296875], [-126.21296, 47.64916, -4819.51513671875]]], [[[-126.33521, 47.8643, -2660.53271484375], [-126.32471, 47.86598, -2029.7099609375], [-126.33346, 47.87229, -2029.7099609375], [-126.33521, 47.8643, -2660.53271484375]]], [[[-126.28444, 47.7902, -4629.1572265625], [-126.2887, 47.78262, -5187.75537109375], [-126.27644, 47.78234, -4661.94482421875], [-126.28444, 47.7902, -4629.1572265625]]], [[[-126.23803, 47.7767, -2646.939697265625], [-126.24079, 47.78398, -2554.9169921875], [-126.24988, 47.77978, -3338.599365234375], [-126.23803, 47.7767, -2646.939697265625]]], [[[-126.20593, 47.71003, -2611.482666015625], [-126.19833, 47.71602, -2029.7099609375], [-126.20831, 47.7194, -2564.93115234375], [-126.20593, 47.71003, -2611.482666015625]]], [[[-126.32606, 47.85817, -2586.9794921875], [-126.32471, 47.86598, -2029.7099609375], [-126.33521, 47.8643, -2660.53271484375], [-126.32606, 47.85817, -2586.9794921875]]], [[[-126.23242, 47.73019, -3784.38720703125], [-126.22578, 47.73633, -3194.009033203125], [-126.23677, 47.73795, -3754.360107421875], [-126.23242, 47.73019, -3784.38720703125]]], [[[-126.22474, 47.75053, -2566.318603515625], [-126.21267, 47.74923, -2029.7099609375], [-126.21827, 47.75739, -2029.7099609375], [-126.22474, 47.75053, -2566.318603515625]]], [[[-126.27644, 47.78234, -4661.94482421875], [-126.28293, 47.77547, -5206.76611328125], [-126.2708, 47.77372, -4697.58203125], [-126.27644, 47.78234, -4661.94482421875]]], [[[-126.30592, 47.81792, -3908.0380859375], [-126.29689, 47.81026, -3839.805908203125], [-126.29179, 47.817, -3215.664306640625], [-126.30592, 47.81792, -3908.0380859375]]], [[[-126.23677, 47.73795, -3754.360107421875], [-126.22578, 47.73633, -3194.009033203125], [-126.23115, 47.7443, -3215.37158203125], [-126.23677, 47.73795, -3754.360107421875]]], [[[-126.32606, 47.85817, -2586.9794921875], [-126.31447, 47.86056, -2029.7099609375], [-126.32471, 47.86598, -2029.7099609375], [-126.32606, 47.85817, -2586.9794921875]]], [[[-126.23242, 47.73019, -3784.38720703125], [-126.22122, 47.72899, -3188.966064453125], [-126.22578, 47.73633, -3194.009033203125], [-126.23242, 47.73019, -3784.38720703125]]], [[[-126.35489, 47.87418, -2759.211669921875], [-126.34465, 47.87538, -2029.7099609375], [-126.35448, 47.88113, -2029.7099609375], [-126.35489, 47.87418, -2759.211669921875]]], [[[-126.30149, 47.80347, -4496.4853515625], [-126.30538, 47.79608, -5119.37451171875], [-126.29303, 47.79714, -4545.9267578125], [-126.30149, 47.80347, -4496.4853515625]]], [[[-126.23678, 47.72159, -4293.6865234375], [-126.22902, 47.72388, -3772.784912109375], [-126.23242, 47.73019, -3784.38720703125], [-126.23678, 47.72159, -4293.6865234375]]], [[[-126.31754, 47.85249, -2544.51123046875], [-126.31447, 47.86056, -2029.7099609375], [-126.32606, 47.85817, -2586.9794921875], [-126.31754, 47.85249, -2544.51123046875]]], [[[-126.32783, 47.8509, -3260.048095703125], [-126.31754, 47.85249, -2544.51123046875], [-126.32606, 47.85817, -2586.9794921875], [-126.32783, 47.8509, -3260.048095703125]]], [[[-126.31754, 47.85249, -2544.51123046875], [-126.30538, 47.85397, -2029.7099609375], [-126.31447, 47.86056, -2029.7099609375], [-126.31754, 47.85249, -2544.51123046875]]], [[[-126.21216, 47.68067, -3771.4541015625], [-126.20106, 47.67815, -3200.25732421875], [-126.20515, 47.68693, -3197.0107421875], [-126.21216, 47.68067, -3771.4541015625]]], [[[-126.20593, 47.71003, -2611.482666015625], [-126.19477, 47.70746, -2029.7099609375], [-126.19833, 47.71602, -2029.7099609375], [-126.20593, 47.71003, -2611.482666015625]]], [[[-126.21216, 47.68067, -3771.4541015625], [-126.21596, 47.68948, -3752.957763671875], [-126.22341, 47.6865, -4274.79736328125], [-126.21216, 47.68067, -3771.4541015625]]], [[[-126.21596, 47.68948, -3752.957763671875], [-126.2194, 47.69815, -3745.025390625], [-126.22683, 47.69465, -4266.5556640625], [-126.21596, 47.68948, -3752.957763671875]]], [[[-126.30925, 47.84626, -2529.94775390625], [-126.30538, 47.85397, -2029.7099609375], [-126.31754, 47.85249, -2544.51123046875], [-126.30925, 47.84626, -2529.94775390625]]], [[[-126.20831, 47.7194, -2564.93115234375], [-126.19851, 47.725, -2029.7099609375], [-126.21055, 47.7271, -2534.120849609375], [-126.20831, 47.7194, -2564.93115234375]]], [[[-126.19038, 47.67507, -2582.15966796875], [-126.18343, 47.68169, -2029.7099609375], [-126.19478, 47.68466, -2563.4501953125], [-126.19038, 47.67507, -2582.15966796875]]], [[[-126.18528, 47.66646, -2566.542724609375], [-126.17981, 47.65813, -2564.065673828125], [-126.1733, 47.6651, -2029.7099609375], [-126.18528, 47.66646, -2566.542724609375]]], [[[-126.29605, 47.83174, -2609.13720703125], [-126.29135, 47.83911, -2029.7099609375], [-126.30278, 47.8396, -2553.802490234375], [-126.29605, 47.83174, -2609.13720703125]]], [[[-126.25834, 47.77203, -4037.176025390625], [-126.26386, 47.78067, -4050.36572265625], [-126.2708, 47.77372, -4697.58203125], [-126.25834, 47.77203, -4037.176025390625]]], [[[-126.2796, 47.8176, -2488.0068359375], [-126.26688, 47.81813, -2029.7099609375], [-126.27455, 47.82549, -2029.7099609375], [-126.2796, 47.8176, -2488.0068359375]]], [[[-126.27293, 47.81062, -2521.34521484375], [-126.26688, 47.81813, -2029.7099609375], [-126.2796, 47.8176, -2488.0068359375], [-126.27293, 47.81062, -2521.34521484375]]], [[[-126.26559, 47.8031, -2652.40966796875], [-126.26076, 47.81016, -2029.7099609375], [-126.27293, 47.81062, -2521.34521484375], [-126.26559, 47.8031, -2652.40966796875]]], [[[-126.2708, 47.77372, -4697.58203125], [-126.28293, 47.77547, -5206.76611328125], [-126.27889, 47.76756, -5227.46142578125], [-126.2708, 47.77372, -4697.58203125]]], [[[-126.2668, 47.79606, -3339.664306640625], [-126.25782, 47.78784, -3399.56494140625], [-126.25557, 47.7956, -2737.14501953125], [-126.2668, 47.79606, -3339.664306640625]]], [[[-126.22286, 47.66501, -4813.50244140625], [-126.21602, 47.67162, -4262.05859375], [-126.22724, 47.67287, -4827.16064453125], [-126.22286, 47.66501, -4813.50244140625]]], [[[-126.24871, 47.75437, -3947.6318359375], [-126.24051, 47.76135, -3307.630859375], [-126.2529, 47.7636, -3948.427001953125], [-126.24871, 47.75437, -3947.6318359375]]], [[[-126.29666, 47.78969, -5160.6083984375], [-126.30538, 47.79608, -5119.37451171875], [-126.3088, 47.78857, -5684.31103515625], [-126.29666, 47.78969, -5160.6083984375]]], [[[-126.27644, 47.78234, -4661.94482421875], [-126.2708, 47.77372, -4697.58203125], [-126.26386, 47.78067, -4050.36572265625], [-126.27644, 47.78234, -4661.94482421875]]], [[[-126.22962, 47.75881, -2638.03076171875], [-126.2238, 47.76557, -2029.7099609375], [-126.23437, 47.76796, -2679.451904296875], [-126.22962, 47.75881, -2638.03076171875]]], [[[-126.28293, 47.77547, -5206.76611328125], [-126.2887, 47.78262, -5187.75537109375], [-126.29519, 47.77571, -5717.15966796875], [-126.28293, 47.77547, -5206.76611328125]]], [[[-126.2799, 47.79683, -3904.146484375], [-126.28933, 47.80382, -3837.395751953125], [-126.29303, 47.79714, -4545.9267578125], [-126.2799, 47.79683, -3904.146484375]]], [[[-126.21216, 47.68067, -3771.4541015625], [-126.20669, 47.67134, -3726.201904296875], [-126.20106, 47.67815, -3200.25732421875], [-126.21216, 47.68067, -3771.4541015625]]], [[[-126.28293, 47.77547, -5206.76611328125], [-126.29519, 47.77571, -5717.15966796875], [-126.29099, 47.76931, -5727.82177734375], [-126.28293, 47.77547, -5206.76611328125]]], [[[-126.25834, 47.77203, -4037.176025390625], [-126.24538, 47.77082, -3338.45361328125], [-126.24988, 47.77978, -3338.599365234375], [-126.25834, 47.77203, -4037.176025390625]]], [[[-126.25834, 47.77203, -4037.176025390625], [-126.2529, 47.7636, -3948.427001953125], [-126.24538, 47.77082, -3338.45361328125], [-126.25834, 47.77203, -4037.176025390625]]], [[[-126.22122, 47.72899, -3188.966064453125], [-126.22902, 47.72388, -3772.784912109375], [-126.2185, 47.72192, -3215.988037109375], [-126.22122, 47.72899, -3188.966064453125]]], [[[-126.20831, 47.7194, -2564.93115234375], [-126.19833, 47.71602, -2029.7099609375], [-126.19851, 47.725, -2029.7099609375], [-126.20831, 47.7194, -2564.93115234375]]], [[[-126.23579, 47.75249, -3262.220703125], [-126.22474, 47.75053, -2566.318603515625], [-126.22962, 47.75881, -2638.03076171875], [-126.23579, 47.75249, -3262.220703125]]], [[[-126.22023, 47.7428, -2562.144287109375], [-126.20831, 47.74148, -2029.7099609375], [-126.21267, 47.74923, -2029.7099609375], [-126.22023, 47.7428, -2562.144287109375]]], [[[-126.21055, 47.7271, -2534.120849609375], [-126.19851, 47.725, -2029.7099609375], [-126.20273, 47.73341, -2029.7099609375], [-126.21055, 47.7271, -2534.120849609375]]], [[[-126.20184, 47.70082, -2557.62255859375], [-126.18984, 47.69911, -2029.7099609375], [-126.19477, 47.70746, -2029.7099609375], [-126.20184, 47.70082, -2557.62255859375]]], [[[-126.24757, 47.72468, -4803.8984375], [-126.25515, 47.71795, -5303.35546875], [-126.24348, 47.71497, -4805.03857421875], [-126.24757, 47.72468, -4803.8984375]]], [[[-126.24724, 47.74011, -4275.74169921875], [-126.25826, 47.74778, -4673.73388671875], [-126.25742, 47.74069, -4791.60986328125], [-126.24724, 47.74011, -4275.74169921875]]], [[[-126.21296, 47.64916, -4819.51513671875], [-126.20215, 47.64808, -4305.28271484375], [-126.20716, 47.65609, -4269.26806640625], [-126.21296, 47.64916, -4819.51513671875]]], [[[-126.2205, 47.67889, -4314.08837890625], [-126.22724, 47.67287, -4827.16064453125], [-126.21602, 47.67162, -4262.05859375], [-126.2205, 47.67889, -4314.08837890625]]], [[[-126.20716, 47.65609, -4269.26806640625], [-126.20157, 47.66209, -3730.926513671875], [-126.21175, 47.66398, -4254.6357421875], [-126.20716, 47.65609, -4269.26806640625]]], [[[-126.20507, 47.64058, -4745.73583984375], [-126.21793, 47.64085, -5317.654296875], [-126.20567, 47.63161, -5108.0], [-126.20507, 47.64058, -4745.73583984375]]], [[[-126.21216, 47.68067, -3771.4541015625], [-126.22341, 47.6865, -4274.79736328125], [-126.2205, 47.67889, -4314.08837890625], [-126.21216, 47.68067, -3771.4541015625]]], [[[-126.22724, 47.67287, -4827.16064453125], [-126.23905, 47.67479, -5337.6943359375], [-126.23499, 47.66649, -5342.2265625], [-126.22724, 47.67287, -4827.16064453125]]], [[[-126.23905, 47.67479, -5337.6943359375], [-126.24716, 47.66841, -5838.10498046875], [-126.23499, 47.66649, -5342.2265625], [-126.23905, 47.67479, -5337.6943359375]]], [[[-126.24724, 47.74011, -4275.74169921875], [-126.24204, 47.73128, -4298.09765625], [-126.23677, 47.73795, -3754.360107421875], [-126.24724, 47.74011, -4275.74169921875]]], [[[-126.23678, 47.72159, -4293.6865234375], [-126.24204, 47.73128, -4298.09765625], [-126.24757, 47.72468, -4803.8984375], [-126.23678, 47.72159, -4293.6865234375]]], [[[-126.23293, 47.71192, -4278.8193359375], [-126.22626, 47.71645, -3783.295166015625], [-126.23678, 47.72159, -4293.6865234375], [-126.23293, 47.71192, -4278.8193359375]]], [[[-126.23293, 47.71192, -4278.8193359375], [-126.22964, 47.70308, -4256.5927734375], [-126.22258, 47.70756, -3741.540283203125], [-126.23293, 47.71192, -4278.8193359375]]], [[[-126.23759, 47.69741, -4805.248046875], [-126.22964, 47.70308, -4256.5927734375], [-126.24048, 47.70604, -4804.4453125], [-126.23759, 47.69741, -4805.248046875]]], [[[-126.23759, 47.69741, -4805.248046875], [-126.24048, 47.70604, -4804.4453125], [-126.24916, 47.70011, -5317.79736328125], [-126.23759, 47.69741, -4805.248046875]]], [[[-126.23759, 47.69741, -4805.248046875], [-126.24916, 47.70011, -5317.79736328125], [-126.24628, 47.69155, -5323.49658203125], [-126.23759, 47.69741, -4805.248046875]]], [[[-126.21561, 47.71379, -3208.51171875], [-126.21234, 47.70384, -3210.630859375], [-126.20593, 47.71003, -2611.482666015625], [-126.21561, 47.71379, -3208.51171875]]], [[[-126.20876, 47.69504, -3184.0234375], [-126.19803, 47.69287, -2540.613525390625], [-126.20184, 47.70082, -2557.62255859375], [-126.20876, 47.69504, -3184.0234375]]], [[[-126.19803, 47.69287, -2540.613525390625], [-126.20876, 47.69504, -3184.0234375], [-126.20515, 47.68693, -3197.0107421875], [-126.19803, 47.69287, -2540.613525390625]]], [[[-126.20515, 47.68693, -3197.0107421875], [-126.19478, 47.68466, -2563.4501953125], [-126.19803, 47.69287, -2540.613525390625], [-126.20515, 47.68693, -3197.0107421875]]], [[[-126.20515, 47.68693, -3197.0107421875], [-126.20106, 47.67815, -3200.25732421875], [-126.19478, 47.68466, -2563.4501953125], [-126.20515, 47.68693, -3197.0107421875]]], [[[-126.20106, 47.67815, -3200.25732421875], [-126.19038, 47.67507, -2582.15966796875], [-126.19478, 47.68466, -2563.4501953125], [-126.20106, 47.67815, -3200.25732421875]]], [[[-126.19038, 47.67507, -2582.15966796875], [-126.20106, 47.67815, -3200.25732421875], [-126.19606, 47.66855, -3205.421875], [-126.19038, 47.67507, -2582.15966796875]]], [[[-126.19606, 47.66855, -3205.421875], [-126.18528, 47.66646, -2566.542724609375], [-126.19038, 47.67507, -2582.15966796875], [-126.19606, 47.66855, -3205.421875]]], [[[-126.18528, 47.66646, -2566.542724609375], [-126.19606, 47.66855, -3205.421875], [-126.19088, 47.65982, -3210.891357421875], [-126.18528, 47.66646, -2566.542724609375]]], [[[-126.20669, 47.67134, -3726.201904296875], [-126.19606, 47.66855, -3205.421875], [-126.20106, 47.67815, -3200.25732421875], [-126.20669, 47.67134, -3726.201904296875]]], [[[-126.21596, 47.68948, -3752.957763671875], [-126.20515, 47.68693, -3197.0107421875], [-126.20876, 47.69504, -3184.0234375], [-126.21596, 47.68948, -3752.957763671875]]], [[[-126.23677, 47.73795, -3754.360107421875], [-126.24204, 47.73128, -4298.09765625], [-126.23242, 47.73019, -3784.38720703125], [-126.23677, 47.73795, -3754.360107421875]]], [[[-126.25306, 47.73352, -4801.15185546875], [-126.25969, 47.72719, -5289.05908203125], [-126.24757, 47.72468, -4803.8984375], [-126.25306, 47.73352, -4801.15185546875]]], [[[-126.24354, 47.74637, -3858.090087890625], [-126.24871, 47.75437, -3947.6318359375], [-126.25826, 47.74778, -4673.73388671875], [-126.24354, 47.74637, -3858.090087890625]]], [[[-126.24871, 47.75437, -3947.6318359375], [-126.26196, 47.7568, -4655.6962890625], [-126.25826, 47.74778, -4673.73388671875], [-126.24871, 47.75437, -3947.6318359375]]], [[[-126.25826, 47.74778, -4673.73388671875], [-126.26196, 47.7568, -4655.6962890625], [-126.27158, 47.75064, -5249.3154296875], [-126.25826, 47.74778, -4673.73388671875]]], [[[-126.26887, 47.74227, -5298.02734375], [-126.25826, 47.74778, -4673.73388671875], [-126.27158, 47.75064, -5249.3154296875], [-126.26887, 47.74227, -5298.02734375]]], [[[-126.25826, 47.74778, -4673.73388671875], [-126.26887, 47.74227, -5298.02734375], [-126.25742, 47.74069, -4791.60986328125], [-126.25826, 47.74778, -4673.73388671875]]], [[[-126.25742, 47.74069, -4791.60986328125], [-126.26887, 47.74227, -5298.02734375], [-126.26528, 47.73505, -5315.73046875], [-126.25742, 47.74069, -4791.60986328125]]], [[[-126.26887, 47.74227, -5298.02734375], [-126.27668, 47.73658, -5769.45703125], [-126.26528, 47.73505, -5315.73046875], [-126.26887, 47.74227, -5298.02734375]]], [[[-126.26887, 47.74227, -5298.02734375], [-126.28012, 47.74438, -5759.53662109375], [-126.27668, 47.73658, -5769.45703125], [-126.26887, 47.74227, -5298.02734375]]], [[[-126.26887, 47.74227, -5298.02734375], [-126.27158, 47.75064, -5249.3154296875], [-126.28012, 47.74438, -5759.53662109375], [-126.26887, 47.74227, -5298.02734375]]], [[[-126.27158, 47.75064, -5249.3154296875], [-126.28377, 47.75299, -5749.0341796875], [-126.28012, 47.74438, -5759.53662109375], [-126.27158, 47.75064, -5249.3154296875]]], [[[-126.27528, 47.75919, -5241.94482421875], [-126.28377, 47.75299, -5749.0341796875], [-126.27158, 47.75064, -5249.3154296875], [-126.27528, 47.75919, -5241.94482421875]]], [[[-126.27528, 47.75919, -5241.94482421875], [-126.28746, 47.76161, -5738.1533203125], [-126.28377, 47.75299, -5749.0341796875], [-126.27528, 47.75919, -5241.94482421875]]], [[[-126.27528, 47.75919, -5241.94482421875], [-126.27889, 47.76756, -5227.46142578125], [-126.28746, 47.76161, -5738.1533203125], [-126.27528, 47.75919, -5241.94482421875]]], [[[-126.27528, 47.75919, -5241.94482421875], [-126.26625, 47.76524, -4677.16845703125], [-126.27889, 47.76756, -5227.46142578125], [-126.27528, 47.75919, -5241.94482421875]]], [[[-126.27528, 47.75919, -5241.94482421875], [-126.26196, 47.7568, -4655.6962890625], [-126.26625, 47.76524, -4677.16845703125], [-126.27528, 47.75919, -5241.94482421875]]], [[[-126.26196, 47.7568, -4655.6962890625], [-126.27528, 47.75919, -5241.94482421875], [-126.27158, 47.75064, -5249.3154296875], [-126.26196, 47.7568, -4655.6962890625]]], [[[-126.27889, 47.76756, -5227.46142578125], [-126.29099, 47.76931, -5727.82177734375], [-126.28746, 47.76161, -5738.1533203125], [-126.27889, 47.76756, -5227.46142578125]]], [[[-126.26528, 47.73505, -5315.73046875], [-126.27668, 47.73658, -5769.45703125], [-126.272, 47.72878, -5781.4150390625], [-126.26528, 47.73505, -5315.73046875]]], [[[-126.23499, 47.66649, -5342.2265625], [-126.24716, 47.66841, -5838.10498046875], [-126.24281, 47.65994, -5844.27734375], [-126.23499, 47.66649, -5342.2265625]]], [[[-126.23051, 47.65843, -5342.15087890625], [-126.23499, 47.66649, -5342.2265625], [-126.24281, 47.65994, -5844.27734375], [-126.23051, 47.65843, -5342.15087890625]]], [[[-126.23051, 47.65843, -5342.15087890625], [-126.24281, 47.65994, -5844.27734375], [-126.23785, 47.65163, -5844.515625], [-126.23051, 47.65843, -5342.15087890625]]], [[[-126.22529, 47.65036, -5340.267578125], [-126.23051, 47.65843, -5342.15087890625], [-126.23785, 47.65163, -5844.515625], [-126.22529, 47.65036, -5340.267578125]]], [[[-126.22529, 47.65036, -5340.267578125], [-126.23785, 47.65163, -5844.515625], [-126.2322, 47.64352, -5844.9501953125], [-126.22529, 47.65036, -5340.267578125]]], [[[-126.21793, 47.64085, -5317.654296875], [-126.22529, 47.65036, -5340.267578125], [-126.2322, 47.64352, -5844.9501953125], [-126.21793, 47.64085, -5317.654296875]]], [[[-126.21793, 47.64085, -5317.654296875], [-126.2322, 47.64352, -5844.9501953125], [-126.2262, 47.63552, -5844.4306640625], [-126.21793, 47.64085, -5317.654296875]]], [[[-126.21508, 47.62985, -5566.759765625], [-126.21793, 47.64085, -5317.654296875], [-126.2262, 47.63552, -5844.4306640625], [-126.21508, 47.62985, -5566.759765625]]], [[[-126.21793, 47.64085, -5317.654296875], [-126.21508, 47.62985, -5566.759765625], [-126.20567, 47.63161, -5108.0], [-126.21793, 47.64085, -5317.654296875]]], [[[-126.20799, 47.62225, -5566.759765625], [-126.20567, 47.63161, -5108.0], [-126.21508, 47.62985, -5566.759765625], [-126.20799, 47.62225, -5566.759765625]]], [[[-126.20799, 47.62225, -5566.759765625], [-126.19858, 47.624, -5108.0], [-126.20567, 47.63161, -5108.0], [-126.20799, 47.62225, -5566.759765625]]], [[[-126.19858, 47.624, -5108.0], [-126.18801, 47.62599, -4545.47021484375], [-126.1951, 47.6336, -4545.47021484375], [-126.19858, 47.624, -5108.0]]], [[[-126.19858, 47.624, -5108.0], [-126.1951, 47.6336, -4545.47021484375], [-126.20567, 47.63161, -5108.0], [-126.19858, 47.624, -5108.0]]], [[[-126.18801, 47.62599, -4545.47021484375], [-126.18529, 47.63544, -3902.5302734375], [-126.1951, 47.6336, -4545.47021484375], [-126.18801, 47.62599, -4545.47021484375]]], [[[-126.18801, 47.62599, -4545.47021484375], [-126.17821, 47.62783, -3902.5302734375], [-126.18529, 47.63544, -3902.5302734375], [-126.18801, 47.62599, -4545.47021484375]]], [[[-126.17821, 47.62783, -3902.5302734375], [-126.16813, 47.62973, -3287.10009765625], [-126.17521, 47.63734, -3287.10009765625], [-126.17821, 47.62783, -3902.5302734375]]], [[[-126.17821, 47.62783, -3902.5302734375], [-126.17521, 47.63734, -3287.10009765625], [-126.18529, 47.63544, -3902.5302734375], [-126.17821, 47.62783, -3902.5302734375]]], [[[-126.1846, 47.64429, -3487.600341796875], [-126.18529, 47.63544, -3902.5302734375], [-126.17521, 47.63734, -3287.10009765625], [-126.1846, 47.64429, -3487.600341796875]]], [[[-126.1846, 47.64429, -3487.600341796875], [-126.19447, 47.64224, -4112.6982421875], [-126.18529, 47.63544, -3902.5302734375], [-126.1846, 47.64429, -3487.600341796875]]], [[[-126.19447, 47.64224, -4112.6982421875], [-126.1951, 47.6336, -4545.47021484375], [-126.18529, 47.63544, -3902.5302734375], [-126.19447, 47.64224, -4112.6982421875]]], [[[-126.1846, 47.64429, -3487.600341796875], [-126.17521, 47.63734, -3287.10009765625], [-126.1744, 47.64829, -2663.97998046875], [-126.1846, 47.64429, -3487.600341796875]]], [[[-126.18514, 47.65208, -3188.75341796875], [-126.1846, 47.64429, -3487.600341796875], [-126.1744, 47.64829, -2663.97998046875], [-126.18514, 47.65208, -3188.75341796875]]], [[[-126.18514, 47.65208, -3188.75341796875], [-126.1744, 47.64829, -2663.97998046875], [-126.17981, 47.65813, -2564.065673828125], [-126.18514, 47.65208, -3188.75341796875]]], [[[-126.17981, 47.65813, -2564.065673828125], [-126.1744, 47.64829, -2663.97998046875], [-126.16796, 47.65686, -2029.7099609375], [-126.17981, 47.65813, -2564.065673828125]]], [[[-126.17981, 47.65813, -2564.065673828125], [-126.16796, 47.65686, -2029.7099609375], [-126.1733, 47.6651, -2029.7099609375], [-126.17981, 47.65813, -2564.065673828125]]], [[[-126.1744, 47.64829, -2663.97998046875], [-126.16263, 47.64863, -2029.7099609375], [-126.16796, 47.65686, -2029.7099609375], [-126.1744, 47.64829, -2663.97998046875]]], [[[-126.1744, 47.64829, -2663.97998046875], [-126.166, 47.63904, -2595.25], [-126.16263, 47.64863, -2029.7099609375], [-126.1744, 47.64829, -2663.97998046875]]], [[[-126.166, 47.63904, -2595.25], [-126.1744, 47.64829, -2663.97998046875], [-126.17521, 47.63734, -3287.10009765625], [-126.166, 47.63904, -2595.25]]], [[[-126.166, 47.63904, -2595.25], [-126.17521, 47.63734, -3287.10009765625], [-126.16813, 47.62973, -3287.10009765625], [-126.166, 47.63904, -2595.25]]], [[[-126.16813, 47.62973, -3287.10009765625], [-126.15892, 47.63143, -2595.25], [-126.166, 47.63904, -2595.25], [-126.16813, 47.62973, -3287.10009765625]]], [[[-126.15892, 47.63143, -2595.25], [-126.1485, 47.63339, -2029.7099609375], [-126.15558, 47.641, -2029.7099609375], [-126.15892, 47.63143, -2595.25]]], [[[-126.15892, 47.63143, -2595.25], [-126.15558, 47.641, -2029.7099609375], [-126.166, 47.63904, -2595.25], [-126.15892, 47.63143, -2595.25]]], [[[-126.166, 47.63904, -2595.25], [-126.15558, 47.641, -2029.7099609375], [-126.16263, 47.64863, -2029.7099609375], [-126.166, 47.63904, -2595.25]]], [[[-126.21243, 47.62021, -5830.4775390625], [-126.20513, 47.61274, -5815.615234375], [-126.20799, 47.62225, -5566.759765625], [-126.21243, 47.62021, -5830.4775390625]]], [[[-126.20799, 47.62225, -5566.759765625], [-126.21962, 47.62774, -5837.14794921875], [-126.21243, 47.62021, -5830.4775390625], [-126.20799, 47.62225, -5566.759765625]]], [[[-126.20799, 47.62225, -5566.759765625], [-126.21508, 47.62985, -5566.759765625], [-126.21962, 47.62774, -5837.14794921875], [-126.20799, 47.62225, -5566.759765625]]], [[[-126.21508, 47.62985, -5566.759765625], [-126.2262, 47.63552, -5844.4306640625], [-126.21962, 47.62774, -5837.14794921875], [-126.21508, 47.62985, -5566.759765625]]], [[[-126.21175, 47.66398, -4254.6357421875], [-126.22286, 47.66501, -4813.50244140625], [-126.21841, 47.65732, -4814.29638671875], [-126.21175, 47.66398, -4254.6357421875]]], [[[-126.24079, 47.78398, -2554.9169921875], [-126.22953, 47.78288, -2029.7099609375], [-126.23492, 47.7911, -2029.7099609375], [-126.24079, 47.78398, -2554.9169921875]]], [[[-126.24079, 47.78398, -2554.9169921875], [-126.23492, 47.7911, -2029.7099609375], [-126.24709, 47.78917, -2668.27294921875], [-126.24079, 47.78398, -2554.9169921875]]], [[[-126.24079, 47.78398, -2554.9169921875], [-126.24709, 47.78917, -2668.27294921875], [-126.24988, 47.77978, -3338.599365234375], [-126.24079, 47.78398, -2554.9169921875]]], [[[-126.25782, 47.78784, -3399.56494140625], [-126.24988, 47.77978, -3338.599365234375], [-126.24709, 47.78917, -2668.27294921875], [-126.25782, 47.78784, -3399.56494140625]]], [[[-126.26386, 47.78067, -4050.36572265625], [-126.24988, 47.77978, -3338.599365234375], [-126.25782, 47.78784, -3399.56494140625], [-126.26386, 47.78067, -4050.36572265625]]], [[[-126.25782, 47.78784, -3399.56494140625], [-126.24709, 47.78917, -2668.27294921875], [-126.25557, 47.7956, -2737.14501953125], [-126.25782, 47.78784, -3399.56494140625]]], [[[-126.24709, 47.78917, -2668.27294921875], [-126.24468, 47.79674, -2029.7099609375], [-126.25557, 47.7956, -2737.14501953125], [-126.24709, 47.78917, -2668.27294921875]]], [[[-126.24709, 47.78917, -2668.27294921875], [-126.23492, 47.7911, -2029.7099609375], [-126.24468, 47.79674, -2029.7099609375], [-126.24709, 47.78917, -2668.27294921875]]], [[[-126.24468, 47.79674, -2029.7099609375], [-126.25505, 47.80203, -2029.7099609375], [-126.25557, 47.7956, -2737.14501953125], [-126.24468, 47.79674, -2029.7099609375]]], [[[-126.31293, 47.80192, -5083.17333984375], [-126.32479, 47.80002, -5647.4482421875], [-126.31775, 47.79473, -5663.7958984375], [-126.31293, 47.80192, -5083.17333984375]]], [[[-126.31293, 47.80192, -5083.17333984375], [-126.3194, 47.80699, -5114.99462890625], [-126.32479, 47.80002, -5647.4482421875], [-126.31293, 47.80192, -5083.17333984375]]], [[[-126.30976, 47.81041, -4527.7685546875], [-126.3194, 47.80699, -5114.99462890625], [-126.31293, 47.80192, -5083.17333984375], [-126.30976, 47.81041, -4527.7685546875]]], [[[-126.30976, 47.81041, -4527.7685546875], [-126.3246, 47.81307, -5078.3701171875], [-126.3194, 47.80699, -5114.99462890625], [-126.30976, 47.81041, -4527.7685546875]]], [[[-126.31858, 47.81963, -4528.017578125], [-126.3246, 47.81307, -5078.3701171875], [-126.30976, 47.81041, -4527.7685546875], [-126.31858, 47.81963, -4528.017578125]]], [[[-126.31858, 47.81963, -4528.017578125], [-126.33142, 47.82087, -5064.47607421875], [-126.3246, 47.81307, -5078.3701171875], [-126.31858, 47.81963, -4528.017578125]]], [[[-126.31858, 47.81963, -4528.017578125], [-126.32649, 47.82832, -4510.5625], [-126.33142, 47.82087, -5064.47607421875], [-126.31858, 47.81963, -4528.017578125]]], [[[-126.32649, 47.82832, -4510.5625], [-126.31858, 47.81963, -4528.017578125], [-126.31374, 47.82699, -3888.05078125], [-126.32649, 47.82832, -4510.5625]]], [[[-126.31374, 47.82699, -3888.05078125], [-126.32166, 47.83572, -3835.966552734375], [-126.32649, 47.82832, -4510.5625], [-126.31374, 47.82699, -3888.05078125]]], [[[-126.32166, 47.83572, -3835.966552734375], [-126.31374, 47.82699, -3888.05078125], [-126.30746, 47.833, -3245.805908203125], [-126.32166, 47.83572, -3835.966552734375]]], [[[-126.32166, 47.83572, -3835.966552734375], [-126.30746, 47.833, -3245.805908203125], [-126.31347, 47.83974, -3191.083984375], [-126.32166, 47.83572, -3835.966552734375]]], [[[-126.32166, 47.83572, -3835.966552734375], [-126.31347, 47.83974, -3191.083984375], [-126.32004, 47.84538, -3210.510986328125], [-126.32166, 47.83572, -3835.966552734375]]], [[[-126.32166, 47.83572, -3835.966552734375], [-126.32004, 47.84538, -3210.510986328125], [-126.33049, 47.84307, -3881.0732421875], [-126.32166, 47.83572, -3835.966552734375]]], [[[-126.32166, 47.83572, -3835.966552734375], [-126.33049, 47.84307, -3881.0732421875], [-126.33383, 47.83526, -4524.41552734375], [-126.32166, 47.83572, -3835.966552734375]]], [[[-126.32649, 47.82832, -4510.5625], [-126.32166, 47.83572, -3835.966552734375], [-126.33383, 47.83526, -4524.41552734375], [-126.32649, 47.82832, -4510.5625]]], [[[-126.32649, 47.82832, -4510.5625], [-126.33383, 47.83526, -4524.41552734375], [-126.33861, 47.82769, -5084.76416015625], [-126.32649, 47.82832, -4510.5625]]], [[[-126.32649, 47.82832, -4510.5625], [-126.33861, 47.82769, -5084.76416015625], [-126.33142, 47.82087, -5064.47607421875], [-126.32649, 47.82832, -4510.5625]]], [[[-126.33861, 47.82769, -5084.76416015625], [-126.34374, 47.82017, -5607.19384765625], [-126.33142, 47.82087, -5064.47607421875], [-126.33861, 47.82769, -5084.76416015625]]], [[[-126.33861, 47.82769, -5084.76416015625], [-126.35089, 47.82754, -5593.71435546875], [-126.34374, 47.82017, -5607.19384765625], [-126.33861, 47.82769, -5084.76416015625]]], [[[-126.3458, 47.83506, -5070.05224609375], [-126.35089, 47.82754, -5593.71435546875], [-126.33861, 47.82769, -5084.76416015625], [-126.3458, 47.83506, -5070.05224609375]]], [[[-126.3458, 47.83506, -5070.05224609375], [-126.35819, 47.83504, -5579.85009765625], [-126.35089, 47.82754, -5593.71435546875], [-126.3458, 47.83506, -5070.05224609375]]], [[[-126.3458, 47.83506, -5070.05224609375], [-126.35414, 47.84274, -5037.23779296875], [-126.35819, 47.83504, -5579.85009765625], [-126.3458, 47.83506, -5070.05224609375]]], [[[-126.34184, 47.84272, -4502.7412109375], [-126.35414, 47.84274, -5037.23779296875], [-126.3458, 47.83506, -5070.05224609375], [-126.34184, 47.84272, -4502.7412109375]]], [[[-126.34184, 47.84272, -4502.7412109375], [-126.35125, 47.8499, -4516.26904296875], [-126.35414, 47.84274, -5037.23779296875], [-126.34184, 47.84272, -4502.7412109375]]], [[[-126.35125, 47.8499, -4516.26904296875], [-126.34184, 47.84272, -4502.7412109375], [-126.33877, 47.84935, -3898.376953125], [-126.35125, 47.8499, -4516.26904296875]]], [[[-126.35125, 47.8499, -4516.26904296875], [-126.33877, 47.84935, -3898.376953125], [-126.34648, 47.85455, -3948.63623046875], [-126.35125, 47.8499, -4516.26904296875]]], [[[-126.35125, 47.8499, -4516.26904296875], [-126.34648, 47.85455, -3948.63623046875], [-126.35854, 47.8583, -4328.8935546875], [-126.35125, 47.8499, -4516.26904296875]]], [[[-126.35125, 47.8499, -4516.26904296875], [-126.35854, 47.8583, -4328.8935546875], [-126.36312, 47.84991, -5026.3828125], [-126.35125, 47.8499, -4516.26904296875]]], [[[-126.35125, 47.8499, -4516.26904296875], [-126.36312, 47.84991, -5026.3828125], [-126.35414, 47.84274, -5037.23779296875], [-126.35125, 47.8499, -4516.26904296875]]], [[[-126.35414, 47.84274, -5037.23779296875], [-126.36312, 47.84991, -5026.3828125], [-126.36654, 47.84203, -5566.34619140625], [-126.35414, 47.84274, -5037.23779296875]]], [[[-126.36654, 47.84202, -5566.759765625], [-126.35414, 47.84274, -5037.23779296875], [-126.36654, 47.84203, -5566.34619140625], [-126.36654, 47.84202, -5566.759765625]]], [[[-126.36654, 47.84202, -5566.759765625], [-126.35819, 47.83504, -5579.85009765625], [-126.35414, 47.84274, -5037.23779296875], [-126.36654, 47.84202, -5566.759765625]]], [[[-126.36312, 47.84991, -5026.3828125], [-126.37532, 47.84908, -5551.89306640625], [-126.36654, 47.84203, -5566.34619140625], [-126.36312, 47.84991, -5026.3828125]]], [[[-126.36312, 47.84991, -5026.3828125], [-126.37182, 47.85724, -4994.490234375], [-126.37532, 47.84908, -5551.89306640625], [-126.36312, 47.84991, -5026.3828125]]], [[[-126.35854, 47.8583, -4328.8935546875], [-126.37182, 47.85724, -4994.490234375], [-126.36312, 47.84991, -5026.3828125], [-126.35854, 47.8583, -4328.8935546875]]], [[[-126.36927, 47.86538, -4272.75146484375], [-126.37182, 47.85724, -4994.490234375], [-126.35854, 47.8583, -4328.8935546875], [-126.36927, 47.86538, -4272.75146484375]]], [[[-126.36927, 47.86538, -4272.75146484375], [-126.3824, 47.86398, -4941.21826171875], [-126.37182, 47.85724, -4994.490234375], [-126.36927, 47.86538, -4272.75146484375]]], [[[-126.38054, 47.87201, -4214.21728515625], [-126.3824, 47.86398, -4941.21826171875], [-126.36927, 47.86538, -4272.75146484375], [-126.38054, 47.87201, -4214.21728515625]]], [[[-126.38054, 47.87201, -4214.21728515625], [-126.39327, 47.87005, -4918.16455078125], [-126.3824, 47.86398, -4941.21826171875], [-126.38054, 47.87201, -4214.21728515625]]], [[[-126.38054, 47.87201, -4214.21728515625], [-126.39152, 47.87822, -4182.9931640625], [-126.39327, 47.87005, -4918.16455078125], [-126.38054, 47.87201, -4214.21728515625]]], [[[-126.39152, 47.87822, -4182.9931640625], [-126.38054, 47.87201, -4214.21728515625], [-126.37779, 47.88028, -3372.806884765625], [-126.39152, 47.87822, -4182.9931640625]]], [[[-126.38811, 47.8868, -3386.298095703125], [-126.39152, 47.87822, -4182.9931640625], [-126.37779, 47.88028, -3372.806884765625], [-126.38811, 47.8868, -3386.298095703125]]], [[[-126.38811, 47.8868, -3386.298095703125], [-126.39773, 47.88734, -3830.168212890625], [-126.39152, 47.87822, -4182.9931640625], [-126.38811, 47.8868, -3386.298095703125]]], [[[-126.38811, 47.8868, -3386.298095703125], [-126.39862, 47.89519, -3415.623779296875], [-126.39773, 47.88734, -3830.168212890625], [-126.38811, 47.8868, -3386.298095703125]]], [[[-126.39773, 47.88734, -3830.168212890625], [-126.39862, 47.89519, -3415.623779296875], [-126.40997, 47.89075, -4263.15087890625], [-126.39773, 47.88734, -3830.168212890625]]], [[[-126.39773, 47.88734, -3830.168212890625], [-126.40997, 47.89075, -4263.15087890625], [-126.40261, 47.88285, -4372.78466796875], [-126.39773, 47.88734, -3830.168212890625]]], [[[-126.39152, 47.87822, -4182.9931640625], [-126.39773, 47.88734, -3830.168212890625], [-126.40261, 47.88285, -4372.78466796875], [-126.39152, 47.87822, -4182.9931640625]]], [[[-126.39152, 47.87822, -4182.9931640625], [-126.40261, 47.88285, -4372.78466796875], [-126.40382, 47.87569, -4918.27392578125], [-126.39152, 47.87822, -4182.9931640625]]], [[[-126.39152, 47.87822, -4182.9931640625], [-126.40382, 47.87569, -4918.27392578125], [-126.39327, 47.87005, -4918.16455078125], [-126.39152, 47.87822, -4182.9931640625]]], [[[-126.40382, 47.87569, -4918.27392578125], [-126.40515, 47.86792, -5504.10302734375], [-126.39327, 47.87005, -4918.16455078125], [-126.40382, 47.87569, -4918.27392578125]]], [[[-126.40382, 47.87569, -4918.27392578125], [-126.41568, 47.8738, -5487.65478515625], [-126.40515, 47.86792, -5504.10302734375], [-126.40382, 47.87569, -4918.27392578125]]], [[[-126.40382, 47.87569, -4918.27392578125], [-126.41331, 47.8818, -4922.02734375], [-126.41568, 47.8738, -5487.65478515625], [-126.40382, 47.87569, -4918.27392578125]]], [[[-126.40261, 47.88285, -4372.78466796875], [-126.41331, 47.8818, -4922.02734375], [-126.40382, 47.87569, -4918.27392578125], [-126.40261, 47.88285, -4372.78466796875]]], [[[-126.40997, 47.89075, -4263.15087890625], [-126.41331, 47.8818, -4922.02734375], [-126.40261, 47.88285, -4372.78466796875], [-126.40997, 47.89075, -4263.15087890625]]], [[[-126.40997, 47.89075, -4263.15087890625], [-126.42165, 47.88878, -4923.42724609375], [-126.41331, 47.8818, -4922.02734375], [-126.40997, 47.89075, -4263.15087890625]]], [[[-126.40997, 47.89075, -4263.15087890625], [-126.42161, 47.89842, -4442.421875], [-126.42165, 47.88878, -4923.42724609375], [-126.40997, 47.89075, -4263.15087890625]]], [[[-126.40997, 47.89075, -4263.15087890625], [-126.40969, 47.90017, -3706.370849609375], [-126.42161, 47.89842, -4442.421875], [-126.40997, 47.89075, -4263.15087890625]]], [[[-126.40997, 47.89075, -4263.15087890625], [-126.39862, 47.89519, -3415.623779296875], [-126.40969, 47.90017, -3706.370849609375], [-126.40997, 47.89075, -4263.15087890625]]], [[[-126.42161, 47.89842, -4442.421875], [-126.40969, 47.90017, -3706.370849609375], [-126.42342, 47.9061, -3937.29296875], [-126.42161, 47.89842, -4442.421875]]], [[[-126.42161, 47.89842, -4442.421875], [-126.42342, 47.9061, -3937.29296875], [-126.43419, 47.90416, -4615.38330078125], [-126.42161, 47.89842, -4442.421875]]], [[[-126.42161, 47.89842, -4442.421875], [-126.43419, 47.90416, -4615.38330078125], [-126.43069, 47.89504, -5019.1591796875], [-126.42161, 47.89842, -4442.421875]]], [[[-126.42161, 47.89842, -4442.421875], [-126.43069, 47.89504, -5019.1591796875], [-126.42165, 47.88878, -4923.42724609375], [-126.42161, 47.89842, -4442.421875]]], [[[-126.42165, 47.88878, -4923.42724609375], [-126.43069, 47.89504, -5019.1591796875], [-126.43337, 47.88742, -5469.0048828125], [-126.42165, 47.88878, -4923.42724609375]]], [[[-126.42165, 47.88878, -4923.42724609375], [-126.43337, 47.88742, -5469.0048828125], [-126.42517, 47.88036, -5475.384765625], [-126.42165, 47.88878, -4923.42724609375]]], [[[-126.41331, 47.8818, -4922.02734375], [-126.42165, 47.88878, -4923.42724609375], [-126.42517, 47.88036, -5475.384765625], [-126.41331, 47.8818, -4922.02734375]]], [[[-126.41331, 47.8818, -4922.02734375], [-126.42517, 47.88036, -5475.384765625], [-126.41568, 47.8738, -5487.65478515625], [-126.41331, 47.8818, -4922.02734375]]], [[[-126.43069, 47.89504, -5019.1591796875], [-126.44003, 47.89364, -5464.69873046875], [-126.43337, 47.88742, -5469.0048828125], [-126.43069, 47.89504, -5019.1591796875]]], [[[-126.43069, 47.89504, -5019.1591796875], [-126.43829, 47.89912, -5132.884765625], [-126.44003, 47.89364, -5464.69873046875], [-126.43069, 47.89504, -5019.1591796875]]], [[[-126.43069, 47.89504, -5019.1591796875], [-126.43419, 47.90416, -4615.38330078125], [-126.43829, 47.89912, -5132.884765625], [-126.43069, 47.89504, -5019.1591796875]]], [[[-126.43419, 47.90416, -4615.38330078125], [-126.44539, 47.90358, -5084.20947265625], [-126.43829, 47.89912, -5132.884765625], [-126.43419, 47.90416, -4615.38330078125]]], [[[-126.43829, 47.89912, -5132.884765625], [-126.44539, 47.90358, -5084.20947265625], [-126.44572, 47.89824, -5459.76025390625], [-126.43829, 47.89912, -5132.884765625]]], [[[-126.43829, 47.89912, -5132.884765625], [-126.44572, 47.89824, -5459.76025390625], [-126.44003, 47.89364, -5464.69873046875], [-126.43829, 47.89912, -5132.884765625]]], [[[-126.44539, 47.90358, -5084.20947265625], [-126.45274, 47.9021, -5451.30859375], [-126.44572, 47.89824, -5459.76025390625], [-126.44539, 47.90358, -5084.20947265625]]], [[[-126.39458, 47.86208, -5520.70068359375], [-126.39327, 47.87005, -4918.16455078125], [-126.40515, 47.86792, -5504.10302734375], [-126.39458, 47.86208, -5520.70068359375]]], [[[-126.3824, 47.86398, -4941.21826171875], [-126.39458, 47.86208, -5520.70068359375], [-126.38424, 47.85605, -5537.001953125], [-126.3824, 47.86398, -4941.21826171875]]], [[[-126.37182, 47.85724, -4994.490234375], [-126.3824, 47.86398, -4941.21826171875], [-126.38424, 47.85605, -5537.001953125], [-126.37182, 47.85724, -4994.490234375]]], [[[-126.37182, 47.85724, -4994.490234375], [-126.38424, 47.85605, -5537.001953125], [-126.37532, 47.84908, -5551.89306640625], [-126.37182, 47.85724, -4994.490234375]]], [[[-126.38054, 47.87201, -4214.21728515625], [-126.36711, 47.87348, -3467.128662109375], [-126.37779, 47.88028, -3372.806884765625], [-126.38054, 47.87201, -4214.21728515625]]], [[[-126.38054, 47.87201, -4214.21728515625], [-126.36927, 47.86538, -4272.75146484375], [-126.36711, 47.87348, -3467.128662109375], [-126.38054, 47.87201, -4214.21728515625]]], [[[-126.34648, 47.85455, -3948.63623046875], [-126.34578, 47.86158, -3468.3935546875], [-126.35854, 47.8583, -4328.8935546875], [-126.34648, 47.85455, -3948.63623046875]]], [[[-126.34648, 47.85455, -3948.63623046875], [-126.33615, 47.85695, -3289.01318359375], [-126.34578, 47.86158, -3468.3935546875], [-126.34648, 47.85455, -3948.63623046875]]], [[[-126.33877, 47.84935, -3898.376953125], [-126.33615, 47.85695, -3289.01318359375], [-126.34648, 47.85455, -3948.63623046875], [-126.33877, 47.84935, -3898.376953125]]], [[[-126.33049, 47.84307, -3881.0732421875], [-126.32783, 47.8509, -3260.048095703125], [-126.33877, 47.84935, -3898.376953125], [-126.33049, 47.84307, -3881.0732421875]]], [[[-126.33049, 47.84307, -3881.0732421875], [-126.32004, 47.84538, -3210.510986328125], [-126.32783, 47.8509, -3260.048095703125], [-126.33049, 47.84307, -3881.0732421875]]], [[[-126.32783, 47.8509, -3260.048095703125], [-126.32004, 47.84538, -3210.510986328125], [-126.31754, 47.85249, -2544.51123046875], [-126.32783, 47.8509, -3260.048095703125]]], [[[-126.33615, 47.85695, -3289.01318359375], [-126.32783, 47.8509, -3260.048095703125], [-126.32606, 47.85817, -2586.9794921875], [-126.33615, 47.85695, -3289.01318359375]]], [[[-126.33615, 47.85695, -3289.01318359375], [-126.32606, 47.85817, -2586.9794921875], [-126.33521, 47.8643, -2660.53271484375], [-126.33615, 47.85695, -3289.01318359375]]], [[[-126.34578, 47.86158, -3468.3935546875], [-126.33521, 47.8643, -2660.53271484375], [-126.34422, 47.86876, -2726.197265625], [-126.34578, 47.86158, -3468.3935546875]]], [[[-126.32004, 47.84538, -3210.510986328125], [-126.31347, 47.83974, -3191.083984375], [-126.30925, 47.84626, -2529.94775390625], [-126.32004, 47.84538, -3210.510986328125]]], [[[-126.31347, 47.83974, -3191.083984375], [-126.30278, 47.8396, -2553.802490234375], [-126.30925, 47.84626, -2529.94775390625], [-126.31347, 47.83974, -3191.083984375]]], [[[-126.31347, 47.83974, -3191.083984375], [-126.30746, 47.833, -3245.805908203125], [-126.30278, 47.8396, -2553.802490234375], [-126.31347, 47.83974, -3191.083984375]]], [[[-126.30746, 47.833, -3245.805908203125], [-126.29605, 47.83174, -2609.13720703125], [-126.30278, 47.8396, -2553.802490234375], [-126.30746, 47.833, -3245.805908203125]]], [[[-126.33936, 47.81504, -5615.162109375], [-126.33142, 47.82087, -5064.47607421875], [-126.34374, 47.82017, -5607.19384765625], [-126.33936, 47.81504, -5615.162109375]]], [[[-126.30746, 47.833, -3245.805908203125], [-126.29959, 47.8246, -3259.225341796875], [-126.29605, 47.83174, -2609.13720703125], [-126.30746, 47.833, -3245.805908203125]]], [[[-126.3246, 47.81307, -5078.3701171875], [-126.33936, 47.81504, -5615.162109375], [-126.33552, 47.81074, -5623.04638671875], [-126.3246, 47.81307, -5078.3701171875]]], [[[-126.31374, 47.82699, -3888.05078125], [-126.29959, 47.8246, -3259.225341796875], [-126.30746, 47.833, -3245.805908203125], [-126.31374, 47.82699, -3888.05078125]]], [[[-126.31374, 47.82699, -3888.05078125], [-126.30592, 47.81792, -3908.0380859375], [-126.29959, 47.8246, -3259.225341796875], [-126.31374, 47.82699, -3888.05078125]]], [[[-126.30976, 47.81041, -4527.7685546875], [-126.30592, 47.81792, -3908.0380859375], [-126.31858, 47.81963, -4528.017578125], [-126.30976, 47.81041, -4527.7685546875]]], [[[-126.29689, 47.81026, -3839.805908203125], [-126.30592, 47.81792, -3908.0380859375], [-126.30976, 47.81041, -4527.7685546875], [-126.29689, 47.81026, -3839.805908203125]]], [[[-126.30592, 47.81792, -3908.0380859375], [-126.29179, 47.817, -3215.664306640625], [-126.29959, 47.8246, -3259.225341796875], [-126.30592, 47.81792, -3908.0380859375]]], [[[-126.29959, 47.8246, -3259.225341796875], [-126.29179, 47.817, -3215.664306640625], [-126.28761, 47.824, -2538.774169921875], [-126.29959, 47.8246, -3259.225341796875]]], [[[-126.29179, 47.817, -3215.664306640625], [-126.28433, 47.81074, -3157.959716796875], [-126.2796, 47.8176, -2488.0068359375], [-126.29179, 47.817, -3215.664306640625]]], [[[-126.28433, 47.81074, -3157.959716796875], [-126.29179, 47.817, -3215.664306640625], [-126.29689, 47.81026, -3839.805908203125], [-126.28433, 47.81074, -3157.959716796875]]], [[[-126.28433, 47.81074, -3157.959716796875], [-126.27293, 47.81062, -2521.34521484375], [-126.2796, 47.8176, -2488.0068359375], [-126.28433, 47.81074, -3157.959716796875]]], [[[-126.28433, 47.81074, -3157.959716796875], [-126.27692, 47.80385, -3243.174072265625], [-126.27293, 47.81062, -2521.34521484375], [-126.28433, 47.81074, -3157.959716796875]]], [[[-126.27692, 47.80385, -3243.174072265625], [-126.26559, 47.8031, -2652.40966796875], [-126.27293, 47.81062, -2521.34521484375], [-126.27692, 47.80385, -3243.174072265625]]], [[[-126.27692, 47.80385, -3243.174072265625], [-126.2668, 47.79606, -3339.664306640625], [-126.26559, 47.8031, -2652.40966796875], [-126.27692, 47.80385, -3243.174072265625]]], [[[-126.2799, 47.79683, -3904.146484375], [-126.2668, 47.79606, -3339.664306640625], [-126.27692, 47.80385, -3243.174072265625], [-126.2799, 47.79683, -3904.146484375]]], [[[-126.2799, 47.79683, -3904.146484375], [-126.27152, 47.78923, -4016.02294921875], [-126.2668, 47.79606, -3339.664306640625], [-126.2799, 47.79683, -3904.146484375]]], [[[-126.27152, 47.78923, -4016.02294921875], [-126.2799, 47.79683, -3904.146484375], [-126.28444, 47.7902, -4629.1572265625], [-126.27152, 47.78923, -4016.02294921875]]], [[[-126.28444, 47.7902, -4629.1572265625], [-126.27644, 47.78234, -4661.94482421875], [-126.27152, 47.78923, -4016.02294921875], [-126.28444, 47.7902, -4629.1572265625]]], [[[-126.30149, 47.80347, -4496.4853515625], [-126.29689, 47.81026, -3839.805908203125], [-126.30976, 47.81041, -4527.7685546875], [-126.30149, 47.80347, -4496.4853515625]]], [[[-126.30976, 47.81041, -4527.7685546875], [-126.31293, 47.80192, -5083.17333984375], [-126.30149, 47.80347, -4496.4853515625], [-126.30976, 47.81041, -4527.7685546875]]], [[[-126.34184, 47.84272, -4502.7412109375], [-126.33049, 47.84307, -3881.0732421875], [-126.33877, 47.84935, -3898.376953125], [-126.34184, 47.84272, -4502.7412109375]]], [[[-126.33049, 47.84307, -3881.0732421875], [-126.34184, 47.84272, -4502.7412109375], [-126.33383, 47.83526, -4524.41552734375], [-126.33049, 47.84307, -3881.0732421875]]], [[[-126.34184, 47.84272, -4502.7412109375], [-126.3458, 47.83506, -5070.05224609375], [-126.33383, 47.83526, -4524.41552734375], [-126.34184, 47.84272, -4502.7412109375]]], [[[-126.3458, 47.83506, -5070.05224609375], [-126.33861, 47.82769, -5084.76416015625], [-126.33383, 47.83526, -4524.41552734375], [-126.3458, 47.83506, -5070.05224609375]]], [[[-126.3246, 47.81307, -5078.3701171875], [-126.33142, 47.82087, -5064.47607421875], [-126.33936, 47.81504, -5615.162109375], [-126.3246, 47.81307, -5078.3701171875]]], [[[-126.33103, 47.80593, -5632.88623046875], [-126.3246, 47.81307, -5078.3701171875], [-126.33552, 47.81074, -5623.04638671875], [-126.33103, 47.80593, -5632.88623046875]]], [[[-126.3194, 47.80699, -5114.99462890625], [-126.3246, 47.81307, -5078.3701171875], [-126.33103, 47.80593, -5632.88623046875], [-126.3194, 47.80699, -5114.99462890625]]], [[[-126.3194, 47.80699, -5114.99462890625], [-126.33103, 47.80593, -5632.88623046875], [-126.32479, 47.80002, -5647.4482421875], [-126.3194, 47.80699, -5114.99462890625]]], [[[-126.35489, 47.87418, -2759.211669921875], [-126.35448, 47.88113, -2029.7099609375], [-126.36515, 47.88057, -2654.564453125], [-126.35489, 47.87418, -2759.211669921875]]], [[[-126.36515, 47.88057, -2654.564453125], [-126.35448, 47.88113, -2029.7099609375], [-126.36081, 47.88873, -2029.7099609375], [-126.36515, 47.88057, -2654.564453125]]], [[[-126.36515, 47.88057, -2654.564453125], [-126.36081, 47.88873, -2029.7099609375], [-126.37217, 47.88606, -2539.26220703125], [-126.36515, 47.88057, -2654.564453125]]], [[[-126.36081, 47.88873, -2029.7099609375], [-126.37077, 47.89416, -2029.7099609375], [-126.37217, 47.88606, -2539.26220703125], [-126.36081, 47.88873, -2029.7099609375]]], [[[-126.38033, 47.89044, -2665.7724609375], [-126.37217, 47.88606, -2539.26220703125], [-126.37077, 47.89416, -2029.7099609375], [-126.38033, 47.89044, -2665.7724609375]]], [[[-126.37838, 47.90125, -2029.7099609375], [-126.38033, 47.89044, -2665.7724609375], [-126.37077, 47.89416, -2029.7099609375], [-126.37838, 47.90125, -2029.7099609375]]], [[[-126.37838, 47.90125, -2029.7099609375], [-126.38856, 47.89692, -2703.36376953125], [-126.38033, 47.89044, -2665.7724609375], [-126.37838, 47.90125, -2029.7099609375]]], [[[-126.38856, 47.89692, -2703.36376953125], [-126.37838, 47.90125, -2029.7099609375], [-126.39076, 47.90456, -2029.7099609375], [-126.38856, 47.89692, -2703.36376953125]]], [[[-126.38856, 47.89692, -2703.36376953125], [-126.39076, 47.90456, -2029.7099609375], [-126.39932, 47.9042, -2893.459228515625], [-126.38856, 47.89692, -2703.36376953125]]], [[[-126.39932, 47.9042, -2893.459228515625], [-126.39076, 47.90456, -2029.7099609375], [-126.3979, 47.91057, -2029.7099609375], [-126.39932, 47.9042, -2893.459228515625]]], [[[-126.39932, 47.9042, -2893.459228515625], [-126.3979, 47.91057, -2029.7099609375], [-126.40685, 47.91074, -2673.005615234375], [-126.39932, 47.9042, -2893.459228515625]]], [[[-126.40577, 47.91704, -2029.7099609375], [-126.40685, 47.91074, -2673.005615234375], [-126.3979, 47.91057, -2029.7099609375], [-126.40577, 47.91704, -2029.7099609375]]], [[[-126.40685, 47.91074, -2673.005615234375], [-126.40577, 47.91704, -2029.7099609375], [-126.41624, 47.91505, -2595.25], [-126.40685, 47.91074, -2673.005615234375]]], [[[-126.45607, 47.90753, -5108.0], [-126.46285, 47.90625, -5437.08544921875], [-126.45274, 47.9021, -5451.30859375], [-126.45607, 47.90753, -5108.0]]], [[[-126.44539, 47.90358, -5084.20947265625], [-126.45607, 47.90753, -5108.0], [-126.45274, 47.9021, -5451.30859375], [-126.44539, 47.90358, -5084.20947265625]]], [[[-126.15892, 47.63143, -2595.25], [-126.15097, 47.62288, -2595.25], [-126.1485, 47.63339, -2029.7099609375], [-126.15892, 47.63143, -2595.25]]], [[[-126.15097, 47.62288, -2595.25], [-126.14054, 47.62484, -2029.7099609375], [-126.1485, 47.63339, -2029.7099609375], [-126.15097, 47.62288, -2595.25]]], [[[-126.16813, 47.62973, -3287.10009765625], [-126.16017, 47.62118, -3287.10009765625], [-126.15892, 47.63143, -2595.25], [-126.16813, 47.62973, -3287.10009765625]]], [[[-126.15892, 47.63143, -2595.25], [-126.16017, 47.62118, -3287.10009765625], [-126.15097, 47.62288, -2595.25], [-126.15892, 47.63143, -2595.25]]], [[[-126.17821, 47.62783, -3902.5302734375], [-126.17025, 47.61928, -3902.5302734375], [-126.16813, 47.62973, -3287.10009765625], [-126.17821, 47.62783, -3902.5302734375]]], [[[-126.16813, 47.62973, -3287.10009765625], [-126.17025, 47.61928, -3902.5302734375], [-126.16017, 47.62118, -3287.10009765625], [-126.16813, 47.62973, -3287.10009765625]]], [[[-126.18801, 47.62599, -4545.47021484375], [-126.18005, 47.61744, -4545.47021484375], [-126.17821, 47.62783, -3902.5302734375], [-126.18801, 47.62599, -4545.47021484375]]], [[[-126.17821, 47.62783, -3902.5302734375], [-126.18005, 47.61744, -4545.47021484375], [-126.17025, 47.61928, -3902.5302734375], [-126.17821, 47.62783, -3902.5302734375]]], [[[-126.19858, 47.624, -5108.0], [-126.19062, 47.61545, -5108.0], [-126.18801, 47.62599, -4545.47021484375], [-126.19858, 47.624, -5108.0]]], [[[-126.18801, 47.62599, -4545.47021484375], [-126.19062, 47.61545, -5108.0], [-126.18005, 47.61744, -4545.47021484375], [-126.18801, 47.62599, -4545.47021484375]]], [[[-126.20799, 47.62225, -5566.759765625], [-126.20513, 47.61274, -5815.615234375], [-126.20003, 47.6137, -5566.759765625], [-126.20799, 47.62225, -5566.759765625]]], [[[-126.20799, 47.62225, -5566.759765625], [-126.20003, 47.6137, -5566.759765625], [-126.19858, 47.624, -5108.0], [-126.20799, 47.62225, -5566.759765625]]], [[[-126.19858, 47.624, -5108.0], [-126.20003, 47.6137, -5566.759765625], [-126.19062, 47.61545, -5108.0], [-126.19858, 47.624, -5108.0]]]]}}]}