{"type": "FeatureCollection", "features": [{"type": "Feature", "properties": {"name": "AW_VANC_25", "CFM_ID": 265, "region": "Offshore_WAOR", "primary_state/province": "WA", "secondary_state/province": null, "avg_dip": 60, "dip_dir": "SW", "rake": 90, "slip_sense": "Reverse", "fault_level": 2, "NSHM23_sliprates": null, "QFFDAgeCatBin": null, "QFFDAgeBin": null, "upper_depth": -0.6, "upper_depth_constraint": "bathymetry", "lower_depth": -12.0, "lower_depth_constraint": "megathrust", "3D_model_constraints": "trace extended at constant dip", "reference": "Ledeczi et al. (2024); Balster-Gee et al. (2023)", "nshm23_id": null, "lineage": null, "usgs_qffd_#": null, "comments": "vergence from USGS sparker line", "id": "265"}, "geometry": {"type": "MultiPolygon", "coordinates": [[[[-126.26309, 47.88371, -4203.5048828125], [-126.26544, 47.87767, -5010.3828125], [-126.25682, 47.87665, -4145.095703125], [-126.26309, 47.88371, -4203.5048828125]]], [[[-126.31241, 47.92377, -5781.724609375], [-126.31413, 47.92821, -5389.1728515625], [-126.32085, 47.93026, -5778.35302734375], [-126.31241, 47.92377, -5781.724609375]]], [[[-126.25682, 47.87665, -4145.095703125], [-126.2558, 47.88338, -3373.188720703125], [-126.26309, 47.88371, -4203.5048828125], [-126.25682, 47.87665, -4145.095703125]]], [[[-126.30632, 47.92782, -4669.4970703125], [-126.31413, 47.92821, -5389.1728515625], [-126.31241, 47.92377, -5781.724609375], [-126.30632, 47.92782, -4669.4970703125]]], [[[-126.30632, 47.92782, -4669.4970703125], [-126.31588, 47.93261, -4994.2236328125], [-126.31413, 47.92821, -5389.1728515625], [-126.30632, 47.92782, -4669.4970703125]]], [[[-126.30632, 47.92782, -4669.4970703125], [-126.31091, 47.93496, -4210.09423828125], [-126.31588, 47.93261, -4994.2236328125], [-126.30632, 47.92782, -4669.4970703125]]], [[[-126.30013, 47.92968, -3824.790771484375], [-126.31091, 47.93496, -4210.09423828125], [-126.30632, 47.92782, -4669.4970703125], [-126.30013, 47.92968, -3824.790771484375]]], [[[-126.30013, 47.92968, -3824.790771484375], [-126.30594, 47.93731, -3425.96484375], [-126.31091, 47.93496, -4210.09423828125], [-126.30013, 47.92968, -3824.790771484375]]], [[[-126.29491, 47.93228, -2981.13525390625], [-126.30594, 47.93731, -3425.96484375], [-126.30013, 47.92968, -3824.790771484375], [-126.29491, 47.93228, -2981.13525390625]]], [[[-126.29491, 47.93228, -2981.13525390625], [-126.30097, 47.93965, -2641.83544921875], [-126.30594, 47.93731, -3425.96484375], [-126.29491, 47.93228, -2981.13525390625]]], [[[-126.29491, 47.93228, -2981.13525390625], [-126.29388, 47.93726, -2250.4033203125], [-126.30097, 47.93965, -2641.83544921875], [-126.29491, 47.93228, -2981.13525390625]]], [[[-126.29491, 47.93228, -2981.13525390625], [-126.28681, 47.93485, -1858.3739013671875], [-126.29388, 47.93726, -2250.4033203125], [-126.29491, 47.93228, -2981.13525390625]]], [[[-126.29491, 47.93228, -2981.13525390625], [-126.28625, 47.92865, -2588.421630859375], [-126.28681, 47.93485, -1858.3739013671875], [-126.29491, 47.93228, -2981.13525390625]]], [[[-126.28797, 47.92336, -3427.516845703125], [-126.28625, 47.92865, -2588.421630859375], [-126.29491, 47.93228, -2981.13525390625], [-126.28797, 47.92336, -3427.516845703125]]], [[[-126.28797, 47.92336, -3427.516845703125], [-126.27859, 47.92166, -2604.30517578125], [-126.28625, 47.92865, -2588.421630859375], [-126.28797, 47.92336, -3427.516845703125]]], [[[-126.28797, 47.92336, -3427.516845703125], [-126.28004, 47.91528, -3412.800048828125], [-126.27859, 47.92166, -2604.30517578125], [-126.28797, 47.92336, -3427.516845703125]]], [[[-126.28722, 47.9151, -4236.43310546875], [-126.28004, 47.91528, -3412.800048828125], [-126.28797, 47.92336, -3427.516845703125], [-126.28722, 47.9151, -4236.43310546875]]], [[[-126.28722, 47.9151, -4236.43310546875], [-126.28071, 47.90711, -4205.84765625], [-126.28004, 47.91528, -3412.800048828125], [-126.28722, 47.9151, -4236.43310546875]]], [[[-126.28071, 47.90711, -4205.84765625], [-126.28722, 47.9151, -4236.43310546875], [-126.2886, 47.90825, -5024.859375], [-126.28071, 47.90711, -4205.84765625]]], [[[-126.28071, 47.90711, -4205.84765625], [-126.2886, 47.90825, -5024.859375], [-126.2826, 47.90073, -5030.244140625], [-126.28071, 47.90711, -4205.84765625]]], [[[-126.28071, 47.90711, -4205.84765625], [-126.2826, 47.90073, -5030.244140625], [-126.2742, 47.89937, -4221.662109375], [-126.28071, 47.90711, -4205.84765625]]], [[[-126.27347, 47.9071, -3384.469482421875], [-126.28071, 47.90711, -4205.84765625], [-126.2742, 47.89937, -4221.662109375], [-126.27347, 47.9071, -3384.469482421875]]], [[[-126.27347, 47.9071, -3384.469482421875], [-126.28004, 47.91528, -3412.800048828125], [-126.28071, 47.90711, -4205.84765625], [-126.27347, 47.9071, -3384.469482421875]]], [[[-126.27347, 47.9071, -3384.469482421875], [-126.27191, 47.91377, -2598.99267578125], [-126.28004, 47.91528, -3412.800048828125], [-126.27347, 47.9071, -3384.469482421875]]], [[[-126.27347, 47.9071, -3384.469482421875], [-126.26496, 47.90536, -2601.25390625], [-126.27191, 47.91377, -2598.99267578125], [-126.27347, 47.9071, -3384.469482421875]]], [[[-126.26681, 47.89911, -3399.469482421875], [-126.26496, 47.90536, -2601.25390625], [-126.27347, 47.9071, -3384.469482421875], [-126.26681, 47.89911, -3399.469482421875]]], [[[-126.26681, 47.89911, -3399.469482421875], [-126.25856, 47.89723, -2596.352783203125], [-126.26496, 47.90536, -2601.25390625], [-126.26681, 47.89911, -3399.469482421875]]], [[[-126.26681, 47.89911, -3399.469482421875], [-126.26082, 47.89105, -3373.61669921875], [-126.25856, 47.89723, -2596.352783203125], [-126.26681, 47.89911, -3399.469482421875]]], [[[-126.26681, 47.89911, -3399.469482421875], [-126.26817, 47.89146, -4222.43505859375], [-126.26082, 47.89105, -3373.61669921875], [-126.26681, 47.89911, -3399.469482421875]]], [[[-126.26681, 47.89911, -3399.469482421875], [-126.2742, 47.89937, -4221.662109375], [-126.26817, 47.89146, -4222.43505859375], [-126.26681, 47.89911, -3399.469482421875]]], [[[-126.27347, 47.9071, -3384.469482421875], [-126.2742, 47.89937, -4221.662109375], [-126.26681, 47.89911, -3399.469482421875], [-126.27347, 47.9071, -3384.469482421875]]], [[[-126.2742, 47.89937, -4221.662109375], [-126.27628, 47.89304, -5035.41650390625], [-126.26817, 47.89146, -4222.43505859375], [-126.2742, 47.89937, -4221.662109375]]], [[[-126.2742, 47.89937, -4221.662109375], [-126.2826, 47.90073, -5030.244140625], [-126.27628, 47.89304, -5035.41650390625], [-126.2742, 47.89937, -4221.662109375]]], [[[-126.27628, 47.89304, -5035.41650390625], [-126.2826, 47.90073, -5030.244140625], [-126.28445, 47.89506, -5790.91064453125], [-126.27628, 47.89304, -5035.41650390625]]], [[[-126.27628, 47.89304, -5035.41650390625], [-126.28445, 47.89506, -5790.91064453125], [-126.27857, 47.88741, -5792.689453125], [-126.27628, 47.89304, -5035.41650390625]]], [[[-126.2707, 47.88506, -5031.990234375], [-126.27628, 47.89304, -5035.41650390625], [-126.27857, 47.88741, -5792.689453125], [-126.2707, 47.88506, -5031.990234375]]], [[[-126.2707, 47.88506, -5031.990234375], [-126.26817, 47.89146, -4222.43505859375], [-126.27628, 47.89304, -5035.41650390625], [-126.2707, 47.88506, -5031.990234375]]], [[[-126.26309, 47.88371, -4203.5048828125], [-126.26817, 47.89146, -4222.43505859375], [-126.2707, 47.88506, -5031.990234375], [-126.26309, 47.88371, -4203.5048828125]]], [[[-126.26309, 47.88371, -4203.5048828125], [-126.26082, 47.89105, -3373.61669921875], [-126.26817, 47.89146, -4222.43505859375], [-126.26309, 47.88371, -4203.5048828125]]], [[[-126.2558, 47.88338, -3373.188720703125], [-126.26082, 47.89105, -3373.61669921875], [-126.26309, 47.88371, -4203.5048828125], [-126.2558, 47.88338, -3373.188720703125]]], [[[-126.2558, 47.88338, -3373.188720703125], [-126.25278, 47.88857, -2577.46923828125], [-126.26082, 47.89105, -3373.61669921875], [-126.2558, 47.88338, -3373.188720703125]]], [[[-126.24617, 47.88075, -2551.115234375], [-126.25278, 47.88857, -2577.46923828125], [-126.2558, 47.88338, -3373.188720703125], [-126.24617, 47.88075, -2551.115234375]]], [[[-126.25278, 47.88857, -2577.46923828125], [-126.24617, 47.88075, -2551.115234375], [-126.2445, 47.88614, -1837.7999267578125], [-126.25278, 47.88857, -2577.46923828125]]], [[[-126.25278, 47.88857, -2577.46923828125], [-126.2445, 47.88614, -1837.7999267578125], [-126.25053, 47.89465, -1845.3284912109375], [-126.25278, 47.88857, -2577.46923828125]]], [[[-126.25278, 47.88857, -2577.46923828125], [-126.25053, 47.89465, -1845.3284912109375], [-126.25856, 47.89723, -2596.352783203125], [-126.25278, 47.88857, -2577.46923828125]]], [[[-126.26082, 47.89105, -3373.61669921875], [-126.25278, 47.88857, -2577.46923828125], [-126.25856, 47.89723, -2596.352783203125], [-126.26082, 47.89105, -3373.61669921875]]], [[[-126.25856, 47.89723, -2596.352783203125], [-126.25053, 47.89465, -1845.3284912109375], [-126.25662, 47.90316, -1854.3548583984375], [-126.25856, 47.89723, -2596.352783203125]]], [[[-126.25856, 47.89723, -2596.352783203125], [-126.25662, 47.90316, -1854.3548583984375], [-126.26496, 47.90536, -2601.25390625], [-126.25856, 47.89723, -2596.352783203125]]], [[[-126.25662, 47.90316, -1854.3548583984375], [-126.26357, 47.91137, -1859.7835693359375], [-126.26496, 47.90536, -2601.25390625], [-126.25662, 47.90316, -1854.3548583984375]]], [[[-126.26357, 47.91137, -1859.7835693359375], [-126.27191, 47.91377, -2598.99267578125], [-126.26496, 47.90536, -2601.25390625], [-126.26357, 47.91137, -1859.7835693359375]]], [[[-126.27191, 47.91377, -2598.99267578125], [-126.26357, 47.91137, -1859.7835693359375], [-126.27006, 47.91974, -1860.3646240234375], [-126.27191, 47.91377, -2598.99267578125]]], [[[-126.27191, 47.91377, -2598.99267578125], [-126.27006, 47.91974, -1860.3646240234375], [-126.27859, 47.92166, -2604.30517578125], [-126.27191, 47.91377, -2598.99267578125]]], [[[-126.27859, 47.92166, -2604.30517578125], [-126.28004, 47.91528, -3412.800048828125], [-126.27191, 47.91377, -2598.99267578125], [-126.27859, 47.92166, -2604.30517578125]]], [[[-126.27859, 47.92166, -2604.30517578125], [-126.27006, 47.91974, -1860.3646240234375], [-126.27767, 47.92767, -1859.074951171875], [-126.27859, 47.92166, -2604.30517578125]]], [[[-126.27859, 47.92166, -2604.30517578125], [-126.27767, 47.92767, -1859.074951171875], [-126.28625, 47.92865, -2588.421630859375], [-126.27859, 47.92166, -2604.30517578125]]], [[[-126.28681, 47.93485, -1858.3739013671875], [-126.28625, 47.92865, -2588.421630859375], [-126.27767, 47.92767, -1859.074951171875], [-126.28681, 47.93485, -1858.3739013671875]]], [[[-126.24617, 47.88075, -2551.115234375], [-126.23585, 47.87892, -1842.032958984375], [-126.2445, 47.88614, -1837.7999267578125], [-126.24617, 47.88075, -2551.115234375]]], [[[-126.24617, 47.88075, -2551.115234375], [-126.24012, 47.87479, -2861.92333984375], [-126.23585, 47.87892, -1842.032958984375], [-126.24617, 47.88075, -2551.115234375]]], [[[-126.25055, 47.87768, -3341.99462890625], [-126.24012, 47.87479, -2861.92333984375], [-126.24617, 47.88075, -2551.115234375], [-126.25055, 47.87768, -3341.99462890625]]], [[[-126.25055, 47.87768, -3341.99462890625], [-126.24582, 47.87232, -3725.4267578125], [-126.24012, 47.87479, -2861.92333984375], [-126.25055, 47.87768, -3341.99462890625]]], [[[-126.25682, 47.87665, -4145.095703125], [-126.24582, 47.87232, -3725.4267578125], [-126.25055, 47.87768, -3341.99462890625], [-126.25682, 47.87665, -4145.095703125]]], [[[-126.25065, 47.86991, -4507.75341796875], [-126.24582, 47.87232, -3725.4267578125], [-126.25682, 47.87665, -4145.095703125], [-126.25065, 47.86991, -4507.75341796875]]], [[[-126.24582, 47.87232, -3725.4267578125], [-126.25065, 47.86991, -4507.75341796875], [-126.24036, 47.86581, -4208.71923828125], [-126.24582, 47.87232, -3725.4267578125]]], [[[-126.24582, 47.87232, -3725.4267578125], [-126.24036, 47.86581, -4208.71923828125], [-126.23524, 47.8682, -3400.880126953125], [-126.24582, 47.87232, -3725.4267578125]]], [[[-126.24582, 47.87232, -3725.4267578125], [-126.23524, 47.8682, -3400.880126953125], [-126.24012, 47.87479, -2861.92333984375], [-126.24582, 47.87232, -3725.4267578125]]], [[[-126.24012, 47.87479, -2861.92333984375], [-126.23524, 47.8682, -3400.880126953125], [-126.23012, 47.8706, -2593.041015625], [-126.24012, 47.87479, -2861.92333984375]]], [[[-126.24012, 47.87479, -2861.92333984375], [-126.23012, 47.8706, -2593.041015625], [-126.23271, 47.87498, -2235.305908203125], [-126.24012, 47.87479, -2861.92333984375]]], [[[-126.24012, 47.87479, -2861.92333984375], [-126.23271, 47.87498, -2235.305908203125], [-126.23585, 47.87892, -1842.032958984375], [-126.24012, 47.87479, -2861.92333984375]]], [[[-126.225, 47.873, -1785.2020263671875], [-126.23585, 47.87892, -1842.032958984375], [-126.23271, 47.87498, -2235.305908203125], [-126.225, 47.873, -1785.2020263671875]]], [[[-126.225, 47.873, -1785.2020263671875], [-126.23271, 47.87498, -2235.305908203125], [-126.23012, 47.8706, -2593.041015625], [-126.225, 47.873, -1785.2020263671875]]], [[[-126.25065, 47.86991, -4507.75341796875], [-126.24548, 47.86341, -5016.55859375], [-126.24036, 47.86581, -4208.71923828125], [-126.25065, 47.86991, -4507.75341796875]]], [[[-126.24548, 47.86341, -5016.55859375], [-126.25065, 47.86991, -4507.75341796875], [-126.25245, 47.86517, -5430.21533203125], [-126.24548, 47.86341, -5016.55859375]]], [[[-126.24548, 47.86341, -5016.55859375], [-126.25245, 47.86517, -5430.21533203125], [-126.2506, 47.86101, -5824.3974609375], [-126.24548, 47.86341, -5016.55859375]]], [[[-126.25245, 47.86517, -5430.21533203125], [-126.25995, 47.86652, -5810.45068359375], [-126.2506, 47.86101, -5824.3974609375], [-126.25245, 47.86517, -5430.21533203125]]], [[[-126.25897, 47.87099, -5001.75537109375], [-126.25995, 47.86652, -5810.45068359375], [-126.25245, 47.86517, -5430.21533203125], [-126.25897, 47.87099, -5001.75537109375]]], [[[-126.25897, 47.87099, -5001.75537109375], [-126.26763, 47.87211, -5799.86474609375], [-126.25995, 47.86652, -5810.45068359375], [-126.25897, 47.87099, -5001.75537109375]]], [[[-126.25897, 47.87099, -5001.75537109375], [-126.26544, 47.87767, -5010.3828125], [-126.26763, 47.87211, -5799.86474609375], [-126.25897, 47.87099, -5001.75537109375]]], [[[-126.25682, 47.87665, -4145.095703125], [-126.26544, 47.87767, -5010.3828125], [-126.25897, 47.87099, -5001.75537109375], [-126.25682, 47.87665, -4145.095703125]]], [[[-126.26309, 47.88371, -4203.5048828125], [-126.2707, 47.88506, -5031.990234375], [-126.26544, 47.87767, -5010.3828125], [-126.26309, 47.88371, -4203.5048828125]]], [[[-126.2707, 47.88506, -5031.990234375], [-126.27351, 47.87949, -5794.15283203125], [-126.26544, 47.87767, -5010.3828125], [-126.2707, 47.88506, -5031.990234375]]], [[[-126.2707, 47.88506, -5031.990234375], [-126.27857, 47.88741, -5792.689453125], [-126.27351, 47.87949, -5794.15283203125], [-126.2707, 47.88506, -5031.990234375]]], [[[-126.26544, 47.87767, -5010.3828125], [-126.27351, 47.87949, -5794.15283203125], [-126.26763, 47.87211, -5799.86474609375], [-126.26544, 47.87767, -5010.3828125]]], [[[-126.25682, 47.87665, -4145.095703125], [-126.25055, 47.87768, -3341.99462890625], [-126.2558, 47.88338, -3373.188720703125], [-126.25682, 47.87665, -4145.095703125]]], [[[-126.24617, 47.88075, -2551.115234375], [-126.2558, 47.88338, -3373.188720703125], [-126.25055, 47.87768, -3341.99462890625], [-126.24617, 47.88075, -2551.115234375]]], [[[-126.25682, 47.87665, -4145.095703125], [-126.25897, 47.87099, -5001.75537109375], [-126.25065, 47.86991, -4507.75341796875], [-126.25682, 47.87665, -4145.095703125]]], [[[-126.25897, 47.87099, -5001.75537109375], [-126.25245, 47.86517, -5430.21533203125], [-126.25065, 47.86991, -4507.75341796875], [-126.25897, 47.87099, -5001.75537109375]]], [[[-126.2826, 47.90073, -5030.244140625], [-126.29085, 47.90252, -5787.90966796875], [-126.28445, 47.89506, -5790.91064453125], [-126.2826, 47.90073, -5030.244140625]]], [[[-126.2826, 47.90073, -5030.244140625], [-126.2886, 47.90825, -5024.859375], [-126.29085, 47.90252, -5787.90966796875], [-126.2826, 47.90073, -5030.244140625]]], [[[-126.2886, 47.90825, -5024.859375], [-126.29673, 47.91017, -5788.4970703125], [-126.29085, 47.90252, -5787.90966796875], [-126.2886, 47.90825, -5024.859375]]], [[[-126.29549, 47.91601, -5026.78759765625], [-126.29673, 47.91017, -5788.4970703125], [-126.2886, 47.90825, -5024.859375], [-126.29549, 47.91601, -5026.78759765625]]], [[[-126.29549, 47.91601, -5026.78759765625], [-126.30405, 47.91724, -5786.4892578125], [-126.29673, 47.91017, -5788.4970703125], [-126.29549, 47.91601, -5026.78759765625]]], [[[-126.29549, 47.91601, -5026.78759765625], [-126.30339, 47.92233, -5076.28955078125], [-126.30405, 47.91724, -5786.4892578125], [-126.29549, 47.91601, -5026.78759765625]]], [[[-126.29553, 47.92272, -4253.29443359375], [-126.30339, 47.92233, -5076.28955078125], [-126.29549, 47.91601, -5026.78759765625], [-126.29553, 47.92272, -4253.29443359375]]], [[[-126.29553, 47.92272, -4253.29443359375], [-126.30632, 47.92782, -4669.4970703125], [-126.30339, 47.92233, -5076.28955078125], [-126.29553, 47.92272, -4253.29443359375]]], [[[-126.29553, 47.92272, -4253.29443359375], [-126.30013, 47.92968, -3824.790771484375], [-126.30632, 47.92782, -4669.4970703125], [-126.29553, 47.92272, -4253.29443359375]]], [[[-126.28797, 47.92336, -3427.516845703125], [-126.30013, 47.92968, -3824.790771484375], [-126.29553, 47.92272, -4253.29443359375], [-126.28797, 47.92336, -3427.516845703125]]], [[[-126.28797, 47.92336, -3427.516845703125], [-126.29491, 47.93228, -2981.13525390625], [-126.30013, 47.92968, -3824.790771484375], [-126.28797, 47.92336, -3427.516845703125]]], [[[-126.28722, 47.9151, -4236.43310546875], [-126.28797, 47.92336, -3427.516845703125], [-126.29553, 47.92272, -4253.29443359375], [-126.28722, 47.9151, -4236.43310546875]]], [[[-126.28722, 47.9151, -4236.43310546875], [-126.29553, 47.92272, -4253.29443359375], [-126.29549, 47.91601, -5026.78759765625], [-126.28722, 47.9151, -4236.43310546875]]], [[[-126.29549, 47.91601, -5026.78759765625], [-126.2886, 47.90825, -5024.859375], [-126.28722, 47.9151, -4236.43310546875], [-126.29549, 47.91601, -5026.78759765625]]], [[[-126.30339, 47.92233, -5076.28955078125], [-126.30632, 47.92782, -4669.4970703125], [-126.31241, 47.92377, -5781.724609375], [-126.30339, 47.92233, -5076.28955078125]]], [[[-126.30339, 47.92233, -5076.28955078125], [-126.31241, 47.92377, -5781.724609375], [-126.30405, 47.91724, -5786.4892578125], [-126.30339, 47.92233, -5076.28955078125]]], [[[-126.296, 47.942, -1857.7060546875], [-126.29388, 47.93726, -2250.4033203125], [-126.28681, 47.93485, -1858.3739013671875], [-126.296, 47.942, -1857.7060546875]]], [[[-126.296, 47.942, -1857.7060546875], [-126.30097, 47.93965, -2641.83544921875], [-126.29388, 47.93726, -2250.4033203125], [-126.296, 47.942, -1857.7060546875]]], [[[-126.31413, 47.92821, -5389.1728515625], [-126.31588, 47.93261, -4994.2236328125], [-126.32085, 47.93026, -5778.35302734375], [-126.31413, 47.92821, -5389.1728515625]]]]}}]}