{"type": "FeatureCollection", "features": [{"type": "Feature", "properties": {"name": "AW_WASH_1", "CFM_ID": 274, "region": "Offshore_WAOR", "primary_state/province": "WA", "secondary_state/province": null, "avg_dip": 38, "dip_dir": "SW", "rake": 90, "slip_sense": "Reverse", "fault_level": 2, "NSHM23_sliprates": null, "QFFDAgeCatBin": null, "QFFDAgeBin": null, "upper_depth": -2.0, "upper_depth_constraint": "seismic imaging", "lower_depth": -5.7, "lower_depth_constraint": "megathrust", "3D_model_constraints": "trace and 1 MCS line (see comments)", "reference": "Ledeczi et al. (2024); Carbotte et al. (2023) ", "nshm23_id": null, "lineage": null, "usgs_qffd_#": null, "comments": "used depth interpretations from AW_WASH_2 (interpreted as same fault, just cut by strike-slip); fault depth interpretation from Ledeczi et al. (2024); Carbotte et al. (2023) used to aid in model building", "id": "274"}, "geometry": {"type": "MultiPolygon", "coordinates": [[[[-126.31394, 47.6752, -5106.8193359375], [-126.31803, 47.68297, -5090.078125], [-126.32455, 47.6773, -5676.828125], [-126.31394, 47.6752, -5106.8193359375]]], [[[-126.30931, 47.66644, -5115.34716796875], [-126.31967, 47.66889, -5688.837890625], [-126.3153, 47.66035, -5700.15478515625], [-126.30931, 47.66644, -5115.34716796875]]], [[[-126.31667, 47.73914, -4035.26123046875], [-126.3119, 47.72984, -4108.40380859375], [-126.30664, 47.73626, -3566.612060546875], [-126.31667, 47.73914, -4035.26123046875]]], [[[-126.36538, 47.79985, -4349.77490234375], [-126.37744, 47.80044, -4924.0751953125], [-126.37103, 47.79302, -4942.45654296875], [-126.36538, 47.79985, -4349.77490234375]]], [[[-126.29162, 47.63319, -5096.8701171875], [-126.30261, 47.63547, -5717.91162109375], [-126.30009, 47.62841, -5714.3974609375], [-126.29162, 47.63319, -5096.8701171875]]], [[[-126.32635, 47.71745, -5085.3759765625], [-126.33595, 47.72122, -5636.88916015625], [-126.33414, 47.7123, -5644.0087890625], [-126.32635, 47.71745, -5085.3759765625]]], [[[-126.28155, 47.67195, -3444.323974609375], [-126.2798, 47.68236, -3009.996826171875], [-126.28802, 47.67816, -3647.47314453125], [-126.28155, 47.67195, -3444.323974609375]]], [[[-126.4137, 47.84064, -4931.81005859375], [-126.41481, 47.84925, -4487.7001953125], [-126.42496, 47.8473, -5096.8701171875], [-126.4137, 47.84064, -4931.81005859375]]], [[[-126.31246, 47.74576, -3579.28125], [-126.3181, 47.75412, -3617.293212890625], [-126.32205, 47.74772, -4063.2666015625], [-126.31246, 47.74576, -3579.28125]]], [[[-126.40476, 47.84271, -4386.57177734375], [-126.41481, 47.84925, -4487.7001953125], [-126.4137, 47.84064, -4931.81005859375], [-126.40476, 47.84271, -4386.57177734375]]], [[[-126.29528, 47.74744, -2561.10546875], [-126.29156, 47.73964, -2551.909912109375], [-126.28127, 47.74381, -2025.3299560546875], [-126.29528, 47.74744, -2561.10546875]]], [[[-126.37128, 47.80709, -4331.07373046875], [-126.38357, 47.80775, -4921.3505859375], [-126.37744, 47.80044, -4924.0751953125], [-126.37128, 47.80709, -4331.07373046875]]], [[[-126.39588, 47.83739, -4238.78369140625], [-126.40476, 47.84271, -4386.57177734375], [-126.40367, 47.83248, -4847.61962890625], [-126.39588, 47.83739, -4238.78369140625]]], [[[-126.29369, 47.72302, -3109.349853515625], [-126.30003, 47.71644, -3571.922607421875], [-126.29045, 47.71398, -2989.812255859375], [-126.29369, 47.72302, -3109.349853515625]]], [[[-126.40476, 47.84271, -4386.57177734375], [-126.40427, 47.85122, -3926.25], [-126.41481, 47.84925, -4487.7001953125], [-126.40476, 47.84271, -4386.57177734375]]], [[[-126.29705, 47.75402, -2481.423828125], [-126.28617, 47.75156, -2025.3299560546875], [-126.28998, 47.76004, -2025.3299560546875], [-126.29705, 47.75402, -2481.423828125]]], [[[-126.39305, 47.84447, -3744.06103515625], [-126.40427, 47.85122, -3926.25], [-126.40476, 47.84271, -4386.57177734375], [-126.39305, 47.84447, -3744.06103515625]]], [[[-126.29434, 47.69936, -3461.7470703125], [-126.28675, 47.70655, -2865.11181640625], [-126.29697, 47.7073, -3477.33740234375], [-126.29434, 47.69936, -3461.7470703125]]], [[[-126.33862, 47.74348, -5042.01708984375], [-126.34443, 47.73713, -5610.240234375], [-126.33397, 47.7351, -5040.84912109375], [-126.33862, 47.74348, -5042.01708984375]]], [[[-126.25142, 47.64078, -2655.821044921875], [-126.24215, 47.64253, -2025.3299560546875], [-126.24608, 47.65101, -2025.3299560546875], [-126.25142, 47.64078, -2655.821044921875]]], [[[-126.39305, 47.84447, -3744.06103515625], [-126.39465, 47.85305, -3263.22998046875], [-126.40427, 47.85122, -3926.25], [-126.39305, 47.84447, -3744.06103515625]]], [[[-126.28151, 47.63513, -4487.7001953125], [-126.27494, 47.64557, -3926.25], [-126.28544, 47.64361, -4487.7001953125], [-126.28151, 47.63513, -4487.7001953125]]], [[[-126.30312, 47.74324, -3102.093994140625], [-126.29156, 47.73964, -2551.909912109375], [-126.29528, 47.74744, -2561.10546875], [-126.30312, 47.74324, -3102.093994140625]]], [[[-126.3796, 47.82943, -3824.584716796875], [-126.36851, 47.82915, -3192.976806640625], [-126.37859, 47.83884, -3247.8623046875], [-126.3796, 47.82943, -3824.584716796875]]], [[[-126.3119, 47.72984, -4108.40380859375], [-126.3229, 47.73294, -4529.90576171875], [-126.31892, 47.72337, -4567.99169921875], [-126.3119, 47.72984, -4108.40380859375]]], [[[-126.38438, 47.84677, -3122.4736328125], [-126.39465, 47.85305, -3263.22998046875], [-126.39305, 47.84447, -3744.06103515625], [-126.38438, 47.84677, -3122.4736328125]]], [[[-126.27101, 47.63709, -3926.25], [-126.25917, 47.62717, -3263.22998046875], [-126.26142, 47.6389, -3263.22998046875], [-126.27101, 47.63709, -3926.25]]], [[[-126.26142, 47.6389, -3263.22998046875], [-126.24917, 47.62904, -2655.821044921875], [-126.25142, 47.64078, -2655.821044921875], [-126.26142, 47.6389, -3263.22998046875]]], [[[-126.28151, 47.63513, -4487.7001953125], [-126.27101, 47.63709, -3926.25], [-126.27494, 47.64557, -3926.25], [-126.28151, 47.63513, -4487.7001953125]]], [[[-126.30238, 47.72677, -3596.880615234375], [-126.30003, 47.71644, -3571.922607421875], [-126.29369, 47.72302, -3109.349853515625], [-126.30238, 47.72677, -3596.880615234375]]], [[[-126.35962, 47.79195, -4422.923828125], [-126.37103, 47.79302, -4942.45654296875], [-126.36422, 47.78497, -4965.87353515625], [-126.35962, 47.79195, -4422.923828125]]], [[[-126.28802, 47.67816, -3647.47314453125], [-126.29179, 47.67076, -4083.263427734375], [-126.28155, 47.67195, -3444.323974609375], [-126.28802, 47.67816, -3647.47314453125]]], [[[-126.34913, 47.74562, -5595.82861328125], [-126.33862, 47.74348, -5042.01708984375], [-126.34339, 47.7518, -5027.2998046875], [-126.34913, 47.74562, -5595.82861328125]]], [[[-126.38438, 47.84677, -3122.4736328125], [-126.38461, 47.85494, -2655.821044921875], [-126.39465, 47.85305, -3263.22998046875], [-126.38438, 47.84677, -3122.4736328125]]], [[[-126.3796, 47.82943, -3824.584716796875], [-126.39167, 47.83004, -4368.95654296875], [-126.38501, 47.82243, -4375.8642578125], [-126.3796, 47.82943, -3824.584716796875]]], [[[-126.35297, 47.78344, -4450.330078125], [-126.35843, 47.77676, -4985.943359375], [-126.34747, 47.77508, -4464.95849609375], [-126.35297, 47.78344, -4450.330078125]]], [[[-126.29162, 47.63319, -5096.8701171875], [-126.28544, 47.64361, -4487.7001953125], [-126.29556, 47.64167, -5096.8701171875], [-126.29162, 47.63319, -5096.8701171875]]], [[[-126.34914, 47.74561, -5595.80712890625], [-126.34913, 47.74559, -5595.83935546875], [-126.34913, 47.74561, -5595.833984375], [-126.34914, 47.74561, -5595.80712890625]]], [[[-126.39167, 47.83004, -4368.95654296875], [-126.40367, 47.83248, -4847.61962890625], [-126.39642, 47.82347, -4902.0498046875], [-126.39167, 47.83004, -4368.95654296875]]], [[[-126.2798, 47.68236, -3009.996826171875], [-126.2728, 47.67636, -2817.770263671875], [-126.26977, 47.68575, -2467.681884765625], [-126.2798, 47.68236, -3009.996826171875]]], [[[-126.35962, 47.79195, -4422.923828125], [-126.36422, 47.78497, -4965.87353515625], [-126.35297, 47.78344, -4450.330078125], [-126.35962, 47.79195, -4422.923828125]]], [[[-126.38438, 47.84677, -3122.4736328125], [-126.37684, 47.8496, -2575.12158203125], [-126.38461, 47.85494, -2655.821044921875], [-126.38438, 47.84677, -3122.4736328125]]], [[[-126.30878, 47.71988, -4086.05615234375], [-126.3119, 47.72984, -4108.40380859375], [-126.31892, 47.72337, -4567.99169921875], [-126.30878, 47.71988, -4086.05615234375]]], [[[-126.34913, 47.74562, -5595.82861328125], [-126.34913, 47.74561, -5595.833984375], [-126.33862, 47.74348, -5042.01708984375], [-126.34913, 47.74562, -5595.82861328125]]], [[[-126.37072, 47.84281, -2640.529052734375], [-126.36721, 47.84956, -2025.3299560546875], [-126.37684, 47.8496, -2575.12158203125], [-126.37072, 47.84281, -2640.529052734375]]], [[[-126.38438, 47.84677, -3122.4736328125], [-126.37072, 47.84281, -2640.529052734375], [-126.37684, 47.8496, -2575.12158203125], [-126.38438, 47.84677, -3122.4736328125]]], [[[-126.29528, 47.74744, -2561.10546875], [-126.28127, 47.74381, -2025.3299560546875], [-126.28617, 47.75156, -2025.3299560546875], [-126.29528, 47.74744, -2561.10546875]]], [[[-126.3532, 47.76855, -4998.84619140625], [-126.34747, 47.77508, -4464.95849609375], [-126.35843, 47.77676, -4985.943359375], [-126.3532, 47.76855, -4998.84619140625]]], [[[-126.30312, 47.74324, -3102.093994140625], [-126.29703, 47.73378, -3108.008544921875], [-126.29156, 47.73964, -2551.909912109375], [-126.30312, 47.74324, -3102.093994140625]]], [[[-126.39588, 47.83739, -4238.78369140625], [-126.40367, 47.83248, -4847.61962890625], [-126.39167, 47.83004, -4368.95654296875], [-126.39588, 47.83739, -4238.78369140625]]], [[[-126.29253, 47.64936, -4733.38525390625], [-126.294, 47.65646, -4610.35986328125], [-126.30091, 47.64978, -5197.572265625], [-126.29253, 47.64936, -4733.38525390625]]], [[[-126.294, 47.65646, -4610.35986328125], [-126.29854, 47.66442, -4590.85595703125], [-126.30471, 47.65829, -5140.94384765625], [-126.294, 47.65646, -4610.35986328125]]], [[[-126.37859, 47.83884, -3247.8623046875], [-126.37072, 47.84281, -2640.529052734375], [-126.38438, 47.84677, -3122.4736328125], [-126.37859, 47.83884, -3247.8623046875]]], [[[-126.28127, 47.74381, -2025.3299560546875], [-126.29156, 47.73964, -2551.909912109375], [-126.28261, 47.73508, -2025.3299560546875], [-126.28127, 47.74381, -2025.3299560546875]]], [[[-126.31892, 47.72337, -4567.99169921875], [-126.32912, 47.72698, -5081.05615234375], [-126.32635, 47.71745, -5085.3759765625], [-126.31892, 47.72337, -4567.99169921875]]], [[[-126.34136, 47.78272, -3932.996826171875], [-126.33392, 47.77861, -3647.9580078125], [-126.32949, 47.78429, -3158.141845703125], [-126.34136, 47.78272, -3932.996826171875]]], [[[-126.2863, 47.66213, -4068.34521484375], [-126.29854, 47.66442, -4590.85595703125], [-126.294, 47.65646, -4610.35986328125], [-126.2863, 47.66213, -4068.34521484375]]], [[[-126.29162, 47.63319, -5096.8701171875], [-126.30009, 47.62841, -5714.3974609375], [-126.28936, 47.62146, -5096.8701171875], [-126.29162, 47.63319, -5096.8701171875]]], [[[-126.33397, 47.7351, -5040.84912109375], [-126.33966, 47.72905, -5624.68701171875], [-126.32912, 47.72698, -5081.05615234375], [-126.33397, 47.7351, -5040.84912109375]]], [[[-126.36381, 47.83569, -2640.67822265625], [-126.37072, 47.84281, -2640.529052734375], [-126.37859, 47.83884, -3247.8623046875], [-126.36381, 47.83569, -2640.67822265625]]], [[[-126.27101, 47.63709, -3926.25], [-126.26875, 47.62535, -3926.25], [-126.25917, 47.62717, -3263.22998046875], [-126.27101, 47.63709, -3926.25]]], [[[-126.37284, 47.82166, -3825.47998046875], [-126.38501, 47.82243, -4375.8642578125], [-126.37838, 47.8146, -4373.38427734375], [-126.37284, 47.82166, -3825.47998046875]]], [[[-126.31874, 47.76908, -3120.0283203125], [-126.30818, 47.76718, -2600.837890625], [-126.31332, 47.77567, -2595.861572265625], [-126.31874, 47.76908, -3120.0283203125]]], [[[-126.3072, 47.68102, -4553.99169921875], [-126.31394, 47.6752, -5106.8193359375], [-126.30294, 47.67287, -4592.8427734375], [-126.3072, 47.68102, -4553.99169921875]]], [[[-126.30003, 47.71644, -3571.922607421875], [-126.30238, 47.72677, -3596.880615234375], [-126.30878, 47.71988, -4086.05615234375], [-126.30003, 47.71644, -3571.922607421875]]], [[[-126.33397, 47.7351, -5040.84912109375], [-126.32912, 47.72698, -5081.05615234375], [-126.3229, 47.73294, -4529.90576171875], [-126.33397, 47.7351, -5040.84912109375]]], [[[-126.29045, 47.71398, -2989.812255859375], [-126.28675, 47.70655, -2865.11181640625], [-126.27897, 47.71238, -2447.84912109375], [-126.29045, 47.71398, -2989.812255859375]]], [[[-126.36381, 47.83569, -2640.67822265625], [-126.35912, 47.8424, -2025.3299560546875], [-126.37072, 47.84281, -2640.529052734375], [-126.36381, 47.83569, -2640.67822265625]]], [[[-126.39167, 47.83004, -4368.95654296875], [-126.39642, 47.82347, -4902.0498046875], [-126.38501, 47.82243, -4375.8642578125], [-126.39167, 47.83004, -4368.95654296875]]], [[[-126.3373, 47.77302, -4047.369873046875], [-126.32838, 47.77063, -3633.19921875], [-126.33392, 47.77861, -3647.9580078125], [-126.3373, 47.77302, -4047.369873046875]]], [[[-126.37103, 47.79302, -4942.45654296875], [-126.38194, 47.79383, -5506.73046875], [-126.37502, 47.78625, -5523.021484375], [-126.37103, 47.79302, -4942.45654296875]]], [[[-126.31667, 47.73914, -4035.26123046875], [-126.32777, 47.74144, -4515.9755859375], [-126.3229, 47.73294, -4529.90576171875], [-126.31667, 47.73914, -4035.26123046875]]], [[[-126.30091, 47.64978, -5197.572265625], [-126.3062, 47.64336, -5714.52978515625], [-126.29556, 47.64167, -5096.8701171875], [-126.30091, 47.64978, -5197.572265625]]], [[[-126.35297, 47.78344, -4450.330078125], [-126.36422, 47.78497, -4965.87353515625], [-126.35843, 47.77676, -4985.943359375], [-126.35297, 47.78344, -4450.330078125]]], [[[-126.29369, 47.72302, -3109.349853515625], [-126.28326, 47.72022, -2545.58984375], [-126.28791, 47.72948, -2679.2138671875], [-126.29369, 47.72302, -3109.349853515625]]], [[[-126.37838, 47.8146, -4373.38427734375], [-126.38501, 47.82243, -4375.8642578125], [-126.38983, 47.8155, -4914.703125], [-126.37838, 47.8146, -4373.38427734375]]], [[[-126.30732, 47.75237, -3046.1259765625], [-126.29705, 47.75402, -2481.423828125], [-126.30224, 47.75964, -2522.7724609375], [-126.30732, 47.75237, -3046.1259765625]]], [[[-126.36381, 47.83569, -2640.67822265625], [-126.35149, 47.83502, -2025.3299560546875], [-126.35912, 47.8424, -2025.3299560546875], [-126.36381, 47.83569, -2640.67822265625]]], [[[-126.33778, 47.75823, -4518.95751953125], [-126.34812, 47.76014, -5012.8984375], [-126.34339, 47.7518, -5027.2998046875], [-126.33778, 47.75823, -4518.95751953125]]], [[[-126.35602, 47.82812, -2588.602783203125], [-126.35149, 47.83502, -2025.3299560546875], [-126.36381, 47.83569, -2640.67822265625], [-126.35602, 47.82812, -2588.602783203125]]], [[[-126.33182, 47.76442, -4049.361083984375], [-126.34214, 47.76662, -4478.828125], [-126.33778, 47.75823, -4518.95751953125], [-126.33182, 47.76442, -4049.361083984375]]], [[[-126.3532, 47.76855, -4998.84619140625], [-126.35843, 47.77676, -4985.943359375], [-126.36383, 47.77043, -5552.02978515625], [-126.3532, 47.76855, -4998.84619140625]]], [[[-126.29528, 47.74744, -2561.10546875], [-126.28617, 47.75156, -2025.3299560546875], [-126.29705, 47.75402, -2481.423828125], [-126.29528, 47.74744, -2561.10546875]]], [[[-126.35602, 47.82812, -2588.602783203125], [-126.34472, 47.82729, -2025.3299560546875], [-126.35149, 47.83502, -2025.3299560546875], [-126.35602, 47.82812, -2588.602783203125]]], [[[-126.34935, 47.82037, -2580.851806640625], [-126.34472, 47.82729, -2025.3299560546875], [-126.35602, 47.82812, -2588.602783203125], [-126.34935, 47.82037, -2580.851806640625]]], [[[-126.3796, 47.82943, -3824.584716796875], [-126.37859, 47.83884, -3247.8623046875], [-126.38565, 47.83616, -3808.728271484375], [-126.3796, 47.82943, -3824.584716796875]]], [[[-126.27142, 47.66779, -3001.901611328125], [-126.26382, 47.67095, -2446.069091796875], [-126.2728, 47.67636, -2817.770263671875], [-126.27142, 47.66779, -3001.901611328125]]], [[[-126.34935, 47.82037, -2580.851806640625], [-126.33851, 47.81933, -2025.3299560546875], [-126.34472, 47.82729, -2025.3299560546875], [-126.34935, 47.82037, -2580.851806640625]]], [[[-126.34339, 47.7518, -5027.2998046875], [-126.35387, 47.75393, -5581.15283203125], [-126.34913, 47.74562, -5595.82861328125], [-126.34339, 47.7518, -5027.2998046875]]], [[[-126.35843, 47.77676, -4985.943359375], [-126.36902, 47.77853, -5537.95263671875], [-126.36383, 47.77043, -5552.02978515625], [-126.35843, 47.77676, -4985.943359375]]], [[[-126.26382, 47.67095, -2446.069091796875], [-126.25384, 47.67459, -2025.3299560546875], [-126.26247, 47.68006, -2363.08642578125], [-126.26382, 47.67095, -2446.069091796875]]], [[[-126.34935, 47.82037, -2580.851806640625], [-126.34162, 47.81194, -2534.617919921875], [-126.33851, 47.81933, -2025.3299560546875], [-126.34935, 47.82037, -2580.851806640625]]], [[[-126.37284, 47.82166, -3825.47998046875], [-126.3796, 47.82943, -3824.584716796875], [-126.38501, 47.82243, -4375.8642578125], [-126.37284, 47.82166, -3825.47998046875]]], [[[-126.3119, 47.72984, -4108.40380859375], [-126.31667, 47.73914, -4035.26123046875], [-126.3229, 47.73294, -4529.90576171875], [-126.3119, 47.72984, -4108.40380859375]]], [[[-126.34935, 47.82037, -2580.851806640625], [-126.35338, 47.81295, -3114.13623046875], [-126.34162, 47.81194, -2534.617919921875], [-126.34935, 47.82037, -2580.851806640625]]], [[[-126.37128, 47.80709, -4331.07373046875], [-126.36574, 47.81378, -3790.488037109375], [-126.37838, 47.8146, -4373.38427734375], [-126.37128, 47.80709, -4331.07373046875]]], [[[-126.35338, 47.81295, -3114.13623046875], [-126.34935, 47.82037, -2580.851806640625], [-126.36096, 47.82096, -3165.426513671875], [-126.35338, 47.81295, -3114.13623046875]]], [[[-126.27101, 47.63709, -3926.25], [-126.26142, 47.6389, -3263.22998046875], [-126.26535, 47.64739, -3263.22998046875], [-126.27101, 47.63709, -3926.25]]], [[[-126.24917, 47.62904, -2655.821044921875], [-126.26142, 47.6389, -3263.22998046875], [-126.25917, 47.62717, -3263.22998046875], [-126.24917, 47.62904, -2655.821044921875]]], [[[-126.31892, 47.72337, -4567.99169921875], [-126.3229, 47.73294, -4529.90576171875], [-126.32912, 47.72698, -5081.05615234375], [-126.31892, 47.72337, -4567.99169921875]]], [[[-126.38983, 47.8155, -4914.703125], [-126.39437, 47.80886, -5479.228515625], [-126.38357, 47.80775, -4921.3505859375], [-126.38983, 47.8155, -4914.703125]]], [[[-126.36574, 47.81378, -3790.488037109375], [-126.35338, 47.81295, -3114.13623046875], [-126.36096, 47.82096, -3165.426513671875], [-126.36574, 47.81378, -3790.488037109375]]], [[[-126.26505, 47.65357, -3087.05322265625], [-126.25535, 47.64926, -2655.821044921875], [-126.26147, 47.66069, -2689.268798828125], [-126.26505, 47.65357, -3087.05322265625]]], [[[-126.34214, 47.76662, -4478.828125], [-126.34812, 47.76014, -5012.8984375], [-126.33778, 47.75823, -4518.95751953125], [-126.34214, 47.76662, -4478.828125]]], [[[-126.3796, 47.82943, -3824.584716796875], [-126.37284, 47.82166, -3825.47998046875], [-126.36851, 47.82915, -3192.976806640625], [-126.3796, 47.82943, -3824.584716796875]]], [[[-126.28882, 47.68505, -3439.292236328125], [-126.28802, 47.67816, -3647.47314453125], [-126.2798, 47.68236, -3009.996826171875], [-126.28882, 47.68505, -3439.292236328125]]], [[[-126.26505, 47.65357, -3087.05322265625], [-126.27477, 47.6546, -3650.5693359375], [-126.26535, 47.64739, -3263.22998046875], [-126.26505, 47.65357, -3087.05322265625]]], [[[-126.27807, 47.66338, -3552.8671875], [-126.2863, 47.66213, -4068.34521484375], [-126.27477, 47.6546, -3650.5693359375], [-126.27807, 47.66338, -3552.8671875]]], [[[-126.4137, 47.84064, -4931.81005859375], [-126.42162, 47.83937, -5432.0859375], [-126.41418, 47.83201, -5443.4580078125], [-126.4137, 47.84064, -4931.81005859375]]], [[[-126.36574, 47.81378, -3790.488037109375], [-126.35767, 47.80606, -3689.7646484375], [-126.35338, 47.81295, -3114.13623046875], [-126.36574, 47.81378, -3790.488037109375]]], [[[-126.35767, 47.80606, -3689.7646484375], [-126.36574, 47.81378, -3790.488037109375], [-126.37128, 47.80709, -4331.07373046875], [-126.35767, 47.80606, -3689.7646484375]]], [[[-126.3373, 47.77302, -4047.369873046875], [-126.34747, 47.77508, -4464.95849609375], [-126.34214, 47.76662, -4478.828125], [-126.3373, 47.77302, -4047.369873046875]]], [[[-126.29556, 47.64167, -5096.8701171875], [-126.28544, 47.64361, -4487.7001953125], [-126.29253, 47.64936, -4733.38525390625], [-126.29556, 47.64167, -5096.8701171875]]], [[[-126.32822, 47.75591, -4122.34912109375], [-126.32205, 47.74772, -4063.2666015625], [-126.3181, 47.75412, -3617.293212890625], [-126.32822, 47.75591, -4122.34912109375]]], [[[-126.26977, 47.68575, -2467.681884765625], [-126.25927, 47.69018, -2025.3299560546875], [-126.26831, 47.69393, -2025.3299560546875], [-126.26977, 47.68575, -2467.681884765625]]], [[[-126.29162, 47.63319, -5096.8701171875], [-126.29556, 47.64167, -5096.8701171875], [-126.30261, 47.63547, -5717.91162109375], [-126.29162, 47.63319, -5096.8701171875]]], [[[-126.294, 47.65646, -4610.35986328125], [-126.28345, 47.65226, -4193.37646484375], [-126.2863, 47.66213, -4068.34521484375], [-126.294, 47.65646, -4610.35986328125]]], [[[-126.36851, 47.82915, -3192.976806640625], [-126.35602, 47.82812, -2588.602783203125], [-126.36381, 47.83569, -2640.67822265625], [-126.36851, 47.82915, -3192.976806640625]]], [[[-126.35767, 47.80606, -3689.7646484375], [-126.37128, 47.80709, -4331.07373046875], [-126.36538, 47.79985, -4349.77490234375], [-126.35767, 47.80606, -3689.7646484375]]], [[[-126.28345, 47.65226, -4193.37646484375], [-126.28544, 47.64361, -4487.7001953125], [-126.27494, 47.64557, -3926.25], [-126.28345, 47.65226, -4193.37646484375]]], [[[-126.26382, 47.67095, -2446.069091796875], [-126.25627, 47.66575, -2025.3299560546875], [-126.25384, 47.67459, -2025.3299560546875], [-126.26382, 47.67095, -2446.069091796875]]], [[[-126.3104, 47.68843, -4547.4599609375], [-126.3072, 47.68102, -4553.99169921875], [-126.29948, 47.68656, -4029.81494140625], [-126.3104, 47.68843, -4547.4599609375]]], [[[-126.34727, 47.79094, -3898.3486328125], [-126.35962, 47.79195, -4422.923828125], [-126.35297, 47.78344, -4450.330078125], [-126.34727, 47.79094, -3898.3486328125]]], [[[-126.29703, 47.73378, -3108.008544921875], [-126.30238, 47.72677, -3596.880615234375], [-126.29369, 47.72302, -3109.349853515625], [-126.29703, 47.73378, -3108.008544921875]]], [[[-126.35308, 47.79866, -3811.080078125], [-126.35767, 47.80606, -3689.7646484375], [-126.36538, 47.79985, -4349.77490234375], [-126.35308, 47.79866, -3811.080078125]]], [[[-126.2863, 47.66213, -4068.34521484375], [-126.29179, 47.67076, -4083.263427734375], [-126.29854, 47.66442, -4590.85595703125], [-126.2863, 47.66213, -4068.34521484375]]], [[[-126.31667, 47.73914, -4035.26123046875], [-126.32205, 47.74772, -4063.2666015625], [-126.32777, 47.74144, -4515.9755859375], [-126.31667, 47.73914, -4035.26123046875]]], [[[-126.35308, 47.79866, -3811.080078125], [-126.34567, 47.80494, -3068.8876953125], [-126.35767, 47.80606, -3689.7646484375], [-126.35308, 47.79866, -3811.080078125]]], [[[-126.26958, 47.66058, -3139.03173828125], [-126.26147, 47.66069, -2689.268798828125], [-126.27142, 47.66779, -3001.901611328125], [-126.26958, 47.66058, -3139.03173828125]]], [[[-126.38983, 47.8155, -4914.703125], [-126.39642, 47.82347, -4902.0498046875], [-126.40066, 47.8167, -5467.5009765625], [-126.38983, 47.8155, -4914.703125]]], [[[-126.35308, 47.79866, -3811.080078125], [-126.34096, 47.79812, -3149.000244140625], [-126.34567, 47.80494, -3068.8876953125], [-126.35308, 47.79866, -3811.080078125]]], [[[-126.32315, 47.69978, -5070.923828125], [-126.33056, 47.69439, -5657.95361328125], [-126.32073, 47.69106, -5098.85986328125], [-126.32315, 47.69978, -5070.923828125]]], [[[-126.38983, 47.8155, -4914.703125], [-126.40066, 47.8167, -5467.5009765625], [-126.39437, 47.80886, -5479.228515625], [-126.38983, 47.8155, -4914.703125]]], [[[-126.26505, 47.65357, -3087.05322265625], [-126.26535, 47.64739, -3263.22998046875], [-126.25535, 47.64926, -2655.821044921875], [-126.26505, 47.65357, -3087.05322265625]]], [[[-126.28675, 47.70655, -2865.11181640625], [-126.27534, 47.70267, -2421.14111328125], [-126.27897, 47.71238, -2447.84912109375], [-126.28675, 47.70655, -2865.11181640625]]], [[[-126.32315, 47.69978, -5070.923828125], [-126.32486, 47.70833, -5066.2587890625], [-126.33281, 47.7033, -5650.56787109375], [-126.32315, 47.69978, -5070.923828125]]], [[[-126.36851, 47.82915, -3192.976806640625], [-126.36381, 47.83569, -2640.67822265625], [-126.37859, 47.83884, -3247.8623046875], [-126.36851, 47.82915, -3192.976806640625]]], [[[-126.34727, 47.79094, -3898.3486328125], [-126.34096, 47.79812, -3149.000244140625], [-126.35308, 47.79866, -3811.080078125], [-126.34727, 47.79094, -3898.3486328125]]], [[[-126.30294, 47.67287, -4592.8427734375], [-126.31394, 47.6752, -5106.8193359375], [-126.30931, 47.66644, -5115.34716796875], [-126.30294, 47.67287, -4592.8427734375]]], [[[-126.29179, 47.67076, -4083.263427734375], [-126.30294, 47.67287, -4592.8427734375], [-126.29854, 47.66442, -4590.85595703125], [-126.29179, 47.67076, -4083.263427734375]]], [[[-126.35843, 47.77676, -4985.943359375], [-126.36422, 47.78497, -4965.87353515625], [-126.36902, 47.77853, -5537.95263671875], [-126.35843, 47.77676, -4985.943359375]]], [[[-126.31892, 47.72337, -4567.99169921875], [-126.32635, 47.71745, -5085.3759765625], [-126.3166, 47.71365, -4541.27783203125], [-126.31892, 47.72337, -4567.99169921875]]], [[[-126.25535, 47.64926, -2655.821044921875], [-126.26535, 47.64739, -3263.22998046875], [-126.26142, 47.6389, -3263.22998046875], [-126.25535, 47.64926, -2655.821044921875]]], [[[-126.30091, 47.64978, -5197.572265625], [-126.31039, 47.65194, -5710.013671875], [-126.3062, 47.64336, -5714.52978515625], [-126.30091, 47.64978, -5197.572265625]]], [[[-126.2966, 47.67886, -4098.5107421875], [-126.3072, 47.68102, -4553.99169921875], [-126.30294, 47.67287, -4592.8427734375], [-126.2966, 47.67886, -4098.5107421875]]], [[[-126.34096, 47.79812, -3149.000244140625], [-126.34727, 47.79094, -3898.3486328125], [-126.33634, 47.79066, -3259.16650390625], [-126.34096, 47.79812, -3149.000244140625]]], [[[-126.294, 47.65646, -4610.35986328125], [-126.29253, 47.64936, -4733.38525390625], [-126.28345, 47.65226, -4193.37646484375], [-126.294, 47.65646, -4610.35986328125]]], [[[-126.32949, 47.78429, -3158.141845703125], [-126.31791, 47.78309, -2576.58935546875], [-126.32337, 47.7903, -2590.249755859375], [-126.32949, 47.78429, -3158.141845703125]]], [[[-126.33634, 47.79066, -3259.16650390625], [-126.32902, 47.79714, -2606.20263671875], [-126.34096, 47.79812, -3149.000244140625], [-126.33634, 47.79066, -3259.16650390625]]], [[[-126.38565, 47.83616, -3808.728271484375], [-126.39305, 47.84447, -3744.06103515625], [-126.39588, 47.83739, -4238.78369140625], [-126.38565, 47.83616, -3808.728271484375]]], [[[-126.32337, 47.7903, -2590.249755859375], [-126.32902, 47.79714, -2606.20263671875], [-126.33634, 47.79066, -3259.16650390625], [-126.32337, 47.7903, -2590.249755859375]]], [[[-126.32902, 47.79714, -2606.20263671875], [-126.32337, 47.7903, -2590.249755859375], [-126.31857, 47.7972, -2025.3299560546875], [-126.32902, 47.79714, -2606.20263671875]]], [[[-126.30931, 47.66644, -5115.34716796875], [-126.3153, 47.66035, -5700.15478515625], [-126.30471, 47.65829, -5140.94384765625], [-126.30931, 47.66644, -5115.34716796875]]], [[[-126.31489, 47.70487, -4531.17626953125], [-126.32486, 47.70833, -5066.2587890625], [-126.32315, 47.69978, -5070.923828125], [-126.31489, 47.70487, -4531.17626953125]]], [[[-126.29703, 47.73378, -3108.008544921875], [-126.29369, 47.72302, -3109.349853515625], [-126.28791, 47.72948, -2679.2138671875], [-126.29703, 47.73378, -3108.008544921875]]], [[[-126.37838, 47.8146, -4373.38427734375], [-126.38983, 47.8155, -4914.703125], [-126.38357, 47.80775, -4921.3505859375], [-126.37838, 47.8146, -4373.38427734375]]], [[[-126.29253, 47.64936, -4733.38525390625], [-126.28544, 47.64361, -4487.7001953125], [-126.28345, 47.65226, -4193.37646484375], [-126.29253, 47.64936, -4733.38525390625]]], [[[-126.32486, 47.70833, -5066.2587890625], [-126.33414, 47.7123, -5644.0087890625], [-126.33281, 47.7033, -5650.56787109375], [-126.32486, 47.70833, -5066.2587890625]]], [[[-126.33182, 47.76442, -4049.361083984375], [-126.32822, 47.75591, -4122.34912109375], [-126.32272, 47.76211, -3610.368896484375], [-126.33182, 47.76442, -4049.361083984375]]], [[[-126.32099, 47.806, -2025.3299560546875], [-126.32902, 47.79714, -2606.20263671875], [-126.31857, 47.7972, -2025.3299560546875], [-126.32099, 47.806, -2025.3299560546875]]], [[[-126.27477, 47.6546, -3650.5693359375], [-126.27494, 47.64557, -3926.25], [-126.26535, 47.64739, -3263.22998046875], [-126.27477, 47.6546, -3650.5693359375]]], [[[-126.30446, 47.70159, -4036.933349609375], [-126.30651, 47.71018, -4038.644775390625], [-126.31489, 47.70487, -4531.17626953125], [-126.30446, 47.70159, -4036.933349609375]]], [[[-126.32949, 47.78429, -3158.141845703125], [-126.32404, 47.77702, -3126.503662109375], [-126.31791, 47.78309, -2576.58935546875], [-126.32949, 47.78429, -3158.141845703125]]], [[[-126.32099, 47.806, -2025.3299560546875], [-126.33328, 47.80456, -2482.576416015625], [-126.32902, 47.79714, -2606.20263671875], [-126.32099, 47.806, -2025.3299560546875]]], [[[-126.31489, 47.70487, -4531.17626953125], [-126.32315, 47.69978, -5070.923828125], [-126.31291, 47.69643, -4557.5341796875], [-126.31489, 47.70487, -4531.17626953125]]], [[[-126.32404, 47.77702, -3126.503662109375], [-126.31332, 47.77567, -2595.861572265625], [-126.31791, 47.78309, -2576.58935546875], [-126.32404, 47.77702, -3126.503662109375]]], [[[-126.33328, 47.80456, -2482.576416015625], [-126.32099, 47.806, -2025.3299560546875], [-126.33021, 47.81234, -2025.3299560546875], [-126.33328, 47.80456, -2482.576416015625]]], [[[-126.28464, 47.69867, -2897.281005859375], [-126.2913, 47.69198, -3402.280029296875], [-126.27906, 47.69164, -2688.1572265625], [-126.28464, 47.69867, -2897.281005859375]]], [[[-126.39642, 47.82347, -4902.0498046875], [-126.40723, 47.82443, -5456.21630859375], [-126.40066, 47.8167, -5467.5009765625], [-126.39642, 47.82347, -4902.0498046875]]], [[[-126.33328, 47.80456, -2482.576416015625], [-126.33021, 47.81234, -2025.3299560546875], [-126.34162, 47.81194, -2534.617919921875], [-126.33328, 47.80456, -2482.576416015625]]], [[[-126.31394, 47.6752, -5106.8193359375], [-126.32455, 47.6773, -5676.828125], [-126.31967, 47.66889, -5688.837890625], [-126.31394, 47.6752, -5106.8193359375]]], [[[-126.3104, 47.68843, -4547.4599609375], [-126.31291, 47.69643, -4557.5341796875], [-126.32073, 47.69106, -5098.85986328125], [-126.3104, 47.68843, -4547.4599609375]]], [[[-126.34567, 47.80494, -3068.8876953125], [-126.33328, 47.80456, -2482.576416015625], [-126.34162, 47.81194, -2534.617919921875], [-126.34567, 47.80494, -3068.8876953125]]], [[[-126.29162, 47.63319, -5096.8701171875], [-126.28151, 47.63513, -4487.7001953125], [-126.28544, 47.64361, -4487.7001953125], [-126.29162, 47.63319, -5096.8701171875]]], [[[-126.36721, 47.84956, -2025.3299560546875], [-126.37072, 47.84281, -2640.529052734375], [-126.35912, 47.8424, -2025.3299560546875], [-126.36721, 47.84956, -2025.3299560546875]]], [[[-126.3104, 47.68843, -4547.4599609375], [-126.32073, 47.69106, -5098.85986328125], [-126.31803, 47.68297, -5090.078125], [-126.3104, 47.68843, -4547.4599609375]]], [[[-126.27101, 47.63709, -3926.25], [-126.26535, 47.64739, -3263.22998046875], [-126.27494, 47.64557, -3926.25], [-126.27101, 47.63709, -3926.25]]], [[[-126.27477, 47.6546, -3650.5693359375], [-126.28345, 47.65226, -4193.37646484375], [-126.27494, 47.64557, -3926.25], [-126.27477, 47.6546, -3650.5693359375]]], [[[-126.27142, 47.66779, -3001.901611328125], [-126.26147, 47.66069, -2689.268798828125], [-126.26382, 47.67095, -2446.069091796875], [-126.27142, 47.66779, -3001.901611328125]]], [[[-126.24917, 47.62904, -2655.821044921875], [-126.2399, 47.6308, -2025.3299560546875], [-126.25142, 47.64078, -2655.821044921875], [-126.24917, 47.62904, -2655.821044921875]]], [[[-126.38565, 47.83616, -3808.728271484375], [-126.37859, 47.83884, -3247.8623046875], [-126.39305, 47.84447, -3744.06103515625], [-126.38565, 47.83616, -3808.728271484375]]], [[[-126.34096, 47.79812, -3149.000244140625], [-126.33328, 47.80456, -2482.576416015625], [-126.34567, 47.80494, -3068.8876953125], [-126.34096, 47.79812, -3149.000244140625]]], [[[-126.29162, 47.63319, -5096.8701171875], [-126.28936, 47.62146, -5096.8701171875], [-126.27925, 47.6234, -4487.7001953125], [-126.29162, 47.63319, -5096.8701171875]]], [[[-126.37103, 47.79302, -4942.45654296875], [-126.37744, 47.80044, -4924.0751953125], [-126.38194, 47.79383, -5506.73046875], [-126.37103, 47.79302, -4942.45654296875]]], [[[-126.36538, 47.79985, -4349.77490234375], [-126.37103, 47.79302, -4942.45654296875], [-126.35962, 47.79195, -4422.923828125], [-126.36538, 47.79985, -4349.77490234375]]], [[[-126.26142, 47.6389, -3263.22998046875], [-126.25142, 47.64078, -2655.821044921875], [-126.25535, 47.64926, -2655.821044921875], [-126.26142, 47.6389, -3263.22998046875]]], [[[-126.31246, 47.74576, -3579.28125], [-126.30312, 47.74324, -3102.093994140625], [-126.30732, 47.75237, -3046.1259765625], [-126.31246, 47.74576, -3579.28125]]], [[[-126.34096, 47.79812, -3149.000244140625], [-126.32902, 47.79714, -2606.20263671875], [-126.33328, 47.80456, -2482.576416015625], [-126.34096, 47.79812, -3149.000244140625]]], [[[-126.28155, 47.67195, -3444.323974609375], [-126.27142, 47.66779, -3001.901611328125], [-126.2728, 47.67636, -2817.770263671875], [-126.28155, 47.67195, -3444.323974609375]]], [[[-126.35338, 47.81295, -3114.13623046875], [-126.34567, 47.80494, -3068.8876953125], [-126.34162, 47.81194, -2534.617919921875], [-126.35338, 47.81295, -3114.13623046875]]], [[[-126.32455, 47.6773, -5676.828125], [-126.31803, 47.68297, -5090.078125], [-126.32803, 47.68558, -5666.10595703125], [-126.32455, 47.6773, -5676.828125]]], [[[-126.31246, 47.74576, -3579.28125], [-126.30664, 47.73626, -3566.612060546875], [-126.30312, 47.74324, -3102.093994140625], [-126.31246, 47.74576, -3579.28125]]], [[[-126.2728, 47.67636, -2817.770263671875], [-126.26382, 47.67095, -2446.069091796875], [-126.26247, 47.68006, -2363.08642578125], [-126.2728, 47.67636, -2817.770263671875]]], [[[-126.27807, 47.66338, -3552.8671875], [-126.28155, 47.67195, -3444.323974609375], [-126.2863, 47.66213, -4068.34521484375], [-126.27807, 47.66338, -3552.8671875]]], [[[-126.36851, 47.82915, -3192.976806640625], [-126.36096, 47.82096, -3165.426513671875], [-126.35602, 47.82812, -2588.602783203125], [-126.36851, 47.82915, -3192.976806640625]]], [[[-126.35338, 47.81295, -3114.13623046875], [-126.35767, 47.80606, -3689.7646484375], [-126.34567, 47.80494, -3068.8876953125], [-126.35338, 47.81295, -3114.13623046875]]], [[[-126.28882, 47.68505, -3439.292236328125], [-126.2798, 47.68236, -3009.996826171875], [-126.27906, 47.69164, -2688.1572265625], [-126.28882, 47.68505, -3439.292236328125]]], [[[-126.33021, 47.81234, -2025.3299560546875], [-126.33851, 47.81933, -2025.3299560546875], [-126.34162, 47.81194, -2534.617919921875], [-126.33021, 47.81234, -2025.3299560546875]]], [[[-126.32315, 47.69978, -5070.923828125], [-126.33281, 47.7033, -5650.56787109375], [-126.33056, 47.69439, -5657.95361328125], [-126.32315, 47.69978, -5070.923828125]]], [[[-126.32272, 47.76211, -3610.368896484375], [-126.31874, 47.76908, -3120.0283203125], [-126.32838, 47.77063, -3633.19921875], [-126.32272, 47.76211, -3610.368896484375]]], [[[-126.26147, 47.66069, -2689.268798828125], [-126.25535, 47.64926, -2655.821044921875], [-126.25517, 47.65751, -2025.3299560546875], [-126.26147, 47.66069, -2689.268798828125]]], [[[-126.30446, 47.70159, -4036.933349609375], [-126.31489, 47.70487, -4531.17626953125], [-126.31291, 47.69643, -4557.5341796875], [-126.30446, 47.70159, -4036.933349609375]]], [[[-126.37744, 47.80044, -4924.0751953125], [-126.38357, 47.80775, -4921.3505859375], [-126.38831, 47.80121, -5492.59423828125], [-126.37744, 47.80044, -4924.0751953125]]], [[[-126.31213, 47.78945, -2025.3299560546875], [-126.31857, 47.7972, -2025.3299560546875], [-126.32337, 47.7903, -2590.249755859375], [-126.31213, 47.78945, -2025.3299560546875]]], [[[-126.28151, 47.63513, -4487.7001953125], [-126.27925, 47.6234, -4487.7001953125], [-126.26875, 47.62535, -3926.25], [-126.28151, 47.63513, -4487.7001953125]]], [[[-126.30218, 47.69384, -4049.21240234375], [-126.30446, 47.70159, -4036.933349609375], [-126.31291, 47.69643, -4557.5341796875], [-126.30218, 47.69384, -4049.21240234375]]], [[[-126.3181, 47.75412, -3617.293212890625], [-126.31264, 47.76022, -3079.369873046875], [-126.32272, 47.76211, -3610.368896484375], [-126.3181, 47.75412, -3617.293212890625]]], [[[-126.31791, 47.78309, -2576.58935546875], [-126.31213, 47.78945, -2025.3299560546875], [-126.32337, 47.7903, -2590.249755859375], [-126.31791, 47.78309, -2576.58935546875]]], [[[-126.26382, 47.67095, -2446.069091796875], [-126.26147, 47.66069, -2689.268798828125], [-126.25627, 47.66575, -2025.3299560546875], [-126.26382, 47.67095, -2446.069091796875]]], [[[-126.2863, 47.66213, -4068.34521484375], [-126.28345, 47.65226, -4193.37646484375], [-126.27477, 47.6546, -3650.5693359375], [-126.2863, 47.66213, -4068.34521484375]]], [[[-126.34935, 47.82037, -2580.851806640625], [-126.35602, 47.82812, -2588.602783203125], [-126.36096, 47.82096, -3165.426513671875], [-126.34935, 47.82037, -2580.851806640625]]], [[[-126.31791, 47.78309, -2576.58935546875], [-126.30698, 47.78194, -2025.3299560546875], [-126.31213, 47.78945, -2025.3299560546875], [-126.31791, 47.78309, -2576.58935546875]]], [[[-126.2728, 47.67636, -2817.770263671875], [-126.26247, 47.68006, -2363.08642578125], [-126.26977, 47.68575, -2467.681884765625], [-126.2728, 47.67636, -2817.770263671875]]], [[[-126.31332, 47.77567, -2595.861572265625], [-126.30698, 47.78194, -2025.3299560546875], [-126.31791, 47.78309, -2576.58935546875], [-126.31332, 47.77567, -2595.861572265625]]], [[[-126.31332, 47.77567, -2595.861572265625], [-126.30321, 47.77369, -2025.3299560546875], [-126.30698, 47.78194, -2025.3299560546875], [-126.31332, 47.77567, -2595.861572265625]]], [[[-126.32272, 47.76211, -3610.368896484375], [-126.31264, 47.76022, -3079.369873046875], [-126.31874, 47.76908, -3120.0283203125], [-126.32272, 47.76211, -3610.368896484375]]], [[[-126.25535, 47.64926, -2655.821044921875], [-126.24608, 47.65101, -2025.3299560546875], [-126.25517, 47.65751, -2025.3299560546875], [-126.25535, 47.64926, -2655.821044921875]]], [[[-126.30091, 47.64978, -5197.572265625], [-126.30471, 47.65829, -5140.94384765625], [-126.31039, 47.65194, -5710.013671875], [-126.30091, 47.64978, -5197.572265625]]], [[[-126.32949, 47.78429, -3158.141845703125], [-126.33392, 47.77861, -3647.9580078125], [-126.32404, 47.77702, -3126.503662109375], [-126.32949, 47.78429, -3158.141845703125]]], [[[-126.30818, 47.76718, -2600.837890625], [-126.30321, 47.77369, -2025.3299560546875], [-126.31332, 47.77567, -2595.861572265625], [-126.30818, 47.76718, -2600.837890625]]], [[[-126.30931, 47.66644, -5115.34716796875], [-126.31394, 47.6752, -5106.8193359375], [-126.31967, 47.66889, -5688.837890625], [-126.30931, 47.66644, -5115.34716796875]]], [[[-126.2913, 47.69198, -3402.280029296875], [-126.28464, 47.69867, -2897.281005859375], [-126.29434, 47.69936, -3461.7470703125], [-126.2913, 47.69198, -3402.280029296875]]], [[[-126.32404, 47.77702, -3126.503662109375], [-126.31874, 47.76908, -3120.0283203125], [-126.31332, 47.77567, -2595.861572265625], [-126.32404, 47.77702, -3126.503662109375]]], [[[-126.27807, 47.66338, -3552.8671875], [-126.26958, 47.66058, -3139.03173828125], [-126.27142, 47.66779, -3001.901611328125], [-126.27807, 47.66338, -3552.8671875]]], [[[-126.32073, 47.69106, -5098.85986328125], [-126.32803, 47.68558, -5666.10595703125], [-126.31803, 47.68297, -5090.078125], [-126.32073, 47.69106, -5098.85986328125]]], [[[-126.34136, 47.78272, -3932.996826171875], [-126.32949, 47.78429, -3158.141845703125], [-126.33634, 47.79066, -3259.16650390625], [-126.34136, 47.78272, -3932.996826171875]]], [[[-126.2913, 47.69198, -3402.280029296875], [-126.29434, 47.69936, -3461.7470703125], [-126.30218, 47.69384, -4049.21240234375], [-126.2913, 47.69198, -3402.280029296875]]], [[[-126.31246, 47.74576, -3579.28125], [-126.30732, 47.75237, -3046.1259765625], [-126.3181, 47.75412, -3617.293212890625], [-126.31246, 47.74576, -3579.28125]]], [[[-126.30818, 47.76718, -2600.837890625], [-126.29746, 47.76608, -2025.3299560546875], [-126.30321, 47.77369, -2025.3299560546875], [-126.30818, 47.76718, -2600.837890625]]], [[[-126.32073, 47.69106, -5098.85986328125], [-126.33056, 47.69439, -5657.95361328125], [-126.32803, 47.68558, -5666.10595703125], [-126.32073, 47.69106, -5098.85986328125]]], [[[-126.30446, 47.70159, -4036.933349609375], [-126.29434, 47.69936, -3461.7470703125], [-126.29697, 47.7073, -3477.33740234375], [-126.30446, 47.70159, -4036.933349609375]]], [[[-126.30294, 47.67287, -4592.8427734375], [-126.30931, 47.66644, -5115.34716796875], [-126.29854, 47.66442, -4590.85595703125], [-126.30294, 47.67287, -4592.8427734375]]], [[[-126.29434, 47.69936, -3461.7470703125], [-126.30446, 47.70159, -4036.933349609375], [-126.30218, 47.69384, -4049.21240234375], [-126.29434, 47.69936, -3461.7470703125]]], [[[-126.30224, 47.75964, -2522.7724609375], [-126.29746, 47.76608, -2025.3299560546875], [-126.30818, 47.76718, -2600.837890625], [-126.30224, 47.75964, -2522.7724609375]]], [[[-126.29179, 47.67076, -4083.263427734375], [-126.2966, 47.67886, -4098.5107421875], [-126.30294, 47.67287, -4592.8427734375], [-126.29179, 47.67076, -4083.263427734375]]], [[[-126.32635, 47.71745, -5085.3759765625], [-126.32912, 47.72698, -5081.05615234375], [-126.33595, 47.72122, -5636.88916015625], [-126.32635, 47.71745, -5085.3759765625]]], [[[-126.29697, 47.7073, -3477.33740234375], [-126.28675, 47.70655, -2865.11181640625], [-126.29045, 47.71398, -2989.812255859375], [-126.29697, 47.7073, -3477.33740234375]]], [[[-126.30218, 47.69384, -4049.21240234375], [-126.31291, 47.69643, -4557.5341796875], [-126.3104, 47.68843, -4547.4599609375], [-126.30218, 47.69384, -4049.21240234375]]], [[[-126.38501, 47.82243, -4375.8642578125], [-126.39642, 47.82347, -4902.0498046875], [-126.38983, 47.8155, -4914.703125], [-126.38501, 47.82243, -4375.8642578125]]], [[[-126.30224, 47.75964, -2522.7724609375], [-126.28998, 47.76004, -2025.3299560546875], [-126.29746, 47.76608, -2025.3299560546875], [-126.30224, 47.75964, -2522.7724609375]]], [[[-126.26247, 47.68006, -2363.08642578125], [-126.25174, 47.68345, -2025.3299560546875], [-126.25927, 47.69018, -2025.3299560546875], [-126.26247, 47.68006, -2363.08642578125]]], [[[-126.38357, 47.80775, -4921.3505859375], [-126.39437, 47.80886, -5479.228515625], [-126.38831, 47.80121, -5492.59423828125], [-126.38357, 47.80775, -4921.3505859375]]], [[[-126.28802, 47.67816, -3647.47314453125], [-126.2966, 47.67886, -4098.5107421875], [-126.29179, 47.67076, -4083.263427734375], [-126.28802, 47.67816, -3647.47314453125]]], [[[-126.29705, 47.75402, -2481.423828125], [-126.28998, 47.76004, -2025.3299560546875], [-126.30224, 47.75964, -2522.7724609375], [-126.29705, 47.75402, -2481.423828125]]], [[[-126.29369, 47.72302, -3109.349853515625], [-126.29045, 47.71398, -2989.812255859375], [-126.28326, 47.72022, -2545.58984375], [-126.29369, 47.72302, -3109.349853515625]]], [[[-126.28464, 47.69867, -2897.281005859375], [-126.27906, 47.69164, -2688.1572265625], [-126.27534, 47.70267, -2421.14111328125], [-126.28464, 47.69867, -2897.281005859375]]], [[[-126.30664, 47.73626, -3566.612060546875], [-126.29703, 47.73378, -3108.008544921875], [-126.30312, 47.74324, -3102.093994140625], [-126.30664, 47.73626, -3566.612060546875]]], [[[-126.30664, 47.73626, -3566.612060546875], [-126.30238, 47.72677, -3596.880615234375], [-126.29703, 47.73378, -3108.008544921875], [-126.30664, 47.73626, -3566.612060546875]]], [[[-126.30664, 47.73626, -3566.612060546875], [-126.3119, 47.72984, -4108.40380859375], [-126.30238, 47.72677, -3596.880615234375], [-126.30664, 47.73626, -3566.612060546875]]], [[[-126.30651, 47.71018, -4038.644775390625], [-126.30878, 47.71988, -4086.05615234375], [-126.3166, 47.71365, -4541.27783203125], [-126.30651, 47.71018, -4038.644775390625]]], [[[-126.32205, 47.74772, -4063.2666015625], [-126.32822, 47.75591, -4122.34912109375], [-126.3327, 47.74958, -4522.7529296875], [-126.32205, 47.74772, -4063.2666015625]]], [[[-126.3119, 47.72984, -4108.40380859375], [-126.30878, 47.71988, -4086.05615234375], [-126.30238, 47.72677, -3596.880615234375], [-126.3119, 47.72984, -4108.40380859375]]], [[[-126.3373, 47.77302, -4047.369873046875], [-126.34136, 47.78272, -3932.996826171875], [-126.34747, 47.77508, -4464.95849609375], [-126.3373, 47.77302, -4047.369873046875]]], [[[-126.3327, 47.74958, -4522.7529296875], [-126.32777, 47.74144, -4515.9755859375], [-126.32205, 47.74772, -4063.2666015625], [-126.3327, 47.74958, -4522.7529296875]]], [[[-126.29703, 47.73378, -3108.008544921875], [-126.28791, 47.72948, -2679.2138671875], [-126.29156, 47.73964, -2551.909912109375], [-126.29703, 47.73378, -3108.008544921875]]], [[[-126.28791, 47.72948, -2679.2138671875], [-126.28261, 47.73508, -2025.3299560546875], [-126.29156, 47.73964, -2551.909912109375], [-126.28791, 47.72948, -2679.2138671875]]], [[[-126.34136, 47.78272, -3932.996826171875], [-126.3373, 47.77302, -4047.369873046875], [-126.33392, 47.77861, -3647.9580078125], [-126.34136, 47.78272, -3932.996826171875]]], [[[-126.33182, 47.76442, -4049.361083984375], [-126.32272, 47.76211, -3610.368896484375], [-126.32838, 47.77063, -3633.19921875], [-126.33182, 47.76442, -4049.361083984375]]], [[[-126.28791, 47.72948, -2679.2138671875], [-126.27834, 47.72672, -2025.3299560546875], [-126.28261, 47.73508, -2025.3299560546875], [-126.28791, 47.72948, -2679.2138671875]]], [[[-126.30003, 47.71644, -3571.922607421875], [-126.30651, 47.71018, -4038.644775390625], [-126.29697, 47.7073, -3477.33740234375], [-126.30003, 47.71644, -3571.922607421875]]], [[[-126.37128, 47.80709, -4331.07373046875], [-126.37744, 47.80044, -4924.0751953125], [-126.36538, 47.79985, -4349.77490234375], [-126.37128, 47.80709, -4331.07373046875]]], [[[-126.28326, 47.72022, -2545.58984375], [-126.27834, 47.72672, -2025.3299560546875], [-126.28791, 47.72948, -2679.2138671875], [-126.28326, 47.72022, -2545.58984375]]], [[[-126.31874, 47.76908, -3120.0283203125], [-126.31264, 47.76022, -3079.369873046875], [-126.30818, 47.76718, -2600.837890625], [-126.31874, 47.76908, -3120.0283203125]]], [[[-126.28326, 47.72022, -2545.58984375], [-126.2717, 47.71897, -2025.3299560546875], [-126.27834, 47.72672, -2025.3299560546875], [-126.28326, 47.72022, -2545.58984375]]], [[[-126.32272, 47.76211, -3610.368896484375], [-126.32822, 47.75591, -4122.34912109375], [-126.3181, 47.75412, -3617.293212890625], [-126.32272, 47.76211, -3610.368896484375]]], [[[-126.34136, 47.78272, -3932.996826171875], [-126.35297, 47.78344, -4450.330078125], [-126.34747, 47.77508, -4464.95849609375], [-126.34136, 47.78272, -3932.996826171875]]], [[[-126.27897, 47.71238, -2447.84912109375], [-126.2717, 47.71897, -2025.3299560546875], [-126.28326, 47.72022, -2545.58984375], [-126.27897, 47.71238, -2447.84912109375]]], [[[-126.3327, 47.74958, -4522.7529296875], [-126.32822, 47.75591, -4122.34912109375], [-126.33778, 47.75823, -4518.95751953125], [-126.3327, 47.74958, -4522.7529296875]]], [[[-126.27897, 47.71238, -2447.84912109375], [-126.26754, 47.71049, -2025.3299560546875], [-126.2717, 47.71897, -2025.3299560546875], [-126.27897, 47.71238, -2447.84912109375]]], [[[-126.34812, 47.76014, -5012.8984375], [-126.3532, 47.76855, -4998.84619140625], [-126.35867, 47.76223, -5566.330078125], [-126.34812, 47.76014, -5012.8984375]]], [[[-126.29434, 47.69936, -3461.7470703125], [-126.28464, 47.69867, -2897.281005859375], [-126.28675, 47.70655, -2865.11181640625], [-126.29434, 47.69936, -3461.7470703125]]], [[[-126.27534, 47.70267, -2421.14111328125], [-126.26754, 47.71049, -2025.3299560546875], [-126.27897, 47.71238, -2447.84912109375], [-126.27534, 47.70267, -2421.14111328125]]], [[[-126.32912, 47.72698, -5081.05615234375], [-126.33966, 47.72905, -5624.68701171875], [-126.33595, 47.72122, -5636.88916015625], [-126.32912, 47.72698, -5081.05615234375]]], [[[-126.3532, 47.76855, -4998.84619140625], [-126.36383, 47.77043, -5552.02978515625], [-126.35867, 47.76223, -5566.330078125], [-126.3532, 47.76855, -4998.84619140625]]], [[[-126.30651, 47.71018, -4038.644775390625], [-126.3166, 47.71365, -4541.27783203125], [-126.31489, 47.70487, -4531.17626953125], [-126.30651, 47.71018, -4038.644775390625]]], [[[-126.27534, 47.70267, -2421.14111328125], [-126.26358, 47.70226, -2025.3299560546875], [-126.26754, 47.71049, -2025.3299560546875], [-126.27534, 47.70267, -2421.14111328125]]], [[[-126.34339, 47.7518, -5027.2998046875], [-126.34812, 47.76014, -5012.8984375], [-126.35387, 47.75393, -5581.15283203125], [-126.34339, 47.7518, -5027.2998046875]]], [[[-126.32822, 47.75591, -4122.34912109375], [-126.33182, 47.76442, -4049.361083984375], [-126.33778, 47.75823, -4518.95751953125], [-126.32822, 47.75591, -4122.34912109375]]], [[[-126.27534, 47.70267, -2421.14111328125], [-126.26831, 47.69393, -2025.3299560546875], [-126.26358, 47.70226, -2025.3299560546875], [-126.27534, 47.70267, -2421.14111328125]]], [[[-126.27906, 47.69164, -2688.1572265625], [-126.26831, 47.69393, -2025.3299560546875], [-126.27534, 47.70267, -2421.14111328125], [-126.27906, 47.69164, -2688.1572265625]]], [[[-126.34747, 47.77508, -4464.95849609375], [-126.3532, 47.76855, -4998.84619140625], [-126.34214, 47.76662, -4478.828125], [-126.34747, 47.77508, -4464.95849609375]]], [[[-126.27906, 47.69164, -2688.1572265625], [-126.26977, 47.68575, -2467.681884765625], [-126.26831, 47.69393, -2025.3299560546875], [-126.27906, 47.69164, -2688.1572265625]]], [[[-126.33862, 47.74348, -5042.01708984375], [-126.34913, 47.74559, -5595.83935546875], [-126.34443, 47.73713, -5610.240234375], [-126.33862, 47.74348, -5042.01708984375]]], [[[-126.2798, 47.68236, -3009.996826171875], [-126.26977, 47.68575, -2467.681884765625], [-126.27906, 47.69164, -2688.1572265625], [-126.2798, 47.68236, -3009.996826171875]]], [[[-126.34812, 47.76014, -5012.8984375], [-126.34214, 47.76662, -4478.828125], [-126.3532, 47.76855, -4998.84619140625], [-126.34812, 47.76014, -5012.8984375]]], [[[-126.2798, 47.68236, -3009.996826171875], [-126.28155, 47.67195, -3444.323974609375], [-126.2728, 47.67636, -2817.770263671875], [-126.2798, 47.68236, -3009.996826171875]]], [[[-126.28882, 47.68505, -3439.292236328125], [-126.2966, 47.67886, -4098.5107421875], [-126.28802, 47.67816, -3647.47314453125], [-126.28882, 47.68505, -3439.292236328125]]], [[[-126.28882, 47.68505, -3439.292236328125], [-126.29948, 47.68656, -4029.81494140625], [-126.2966, 47.67886, -4098.5107421875], [-126.28882, 47.68505, -3439.292236328125]]], [[[-126.28882, 47.68505, -3439.292236328125], [-126.2913, 47.69198, -3402.280029296875], [-126.29948, 47.68656, -4029.81494140625], [-126.28882, 47.68505, -3439.292236328125]]], [[[-126.28882, 47.68505, -3439.292236328125], [-126.27906, 47.69164, -2688.1572265625], [-126.2913, 47.69198, -3402.280029296875], [-126.28882, 47.68505, -3439.292236328125]]], [[[-126.35308, 47.79866, -3811.080078125], [-126.36538, 47.79985, -4349.77490234375], [-126.35962, 47.79195, -4422.923828125], [-126.35308, 47.79866, -3811.080078125]]], [[[-126.26958, 47.66058, -3139.03173828125], [-126.26505, 47.65357, -3087.05322265625], [-126.26147, 47.66069, -2689.268798828125], [-126.26958, 47.66058, -3139.03173828125]]], [[[-126.2913, 47.69198, -3402.280029296875], [-126.30218, 47.69384, -4049.21240234375], [-126.29948, 47.68656, -4029.81494140625], [-126.2913, 47.69198, -3402.280029296875]]], [[[-126.3072, 47.68102, -4553.99169921875], [-126.31803, 47.68297, -5090.078125], [-126.31394, 47.6752, -5106.8193359375], [-126.3072, 47.68102, -4553.99169921875]]], [[[-126.30218, 47.69384, -4049.21240234375], [-126.3104, 47.68843, -4547.4599609375], [-126.29948, 47.68656, -4029.81494140625], [-126.30218, 47.69384, -4049.21240234375]]], [[[-126.29556, 47.64167, -5096.8701171875], [-126.3062, 47.64336, -5714.52978515625], [-126.30261, 47.63547, -5717.91162109375], [-126.29556, 47.64167, -5096.8701171875]]], [[[-126.30651, 47.71018, -4038.644775390625], [-126.30446, 47.70159, -4036.933349609375], [-126.29697, 47.7073, -3477.33740234375], [-126.30651, 47.71018, -4038.644775390625]]], [[[-126.26247, 47.68006, -2363.08642578125], [-126.25927, 47.69018, -2025.3299560546875], [-126.26977, 47.68575, -2467.681884765625], [-126.26247, 47.68006, -2363.08642578125]]], [[[-126.3166, 47.71365, -4541.27783203125], [-126.32486, 47.70833, -5066.2587890625], [-126.31489, 47.70487, -4531.17626953125], [-126.3166, 47.71365, -4541.27783203125]]], [[[-126.30471, 47.65829, -5140.94384765625], [-126.3153, 47.66035, -5700.15478515625], [-126.31039, 47.65194, -5710.013671875], [-126.30471, 47.65829, -5140.94384765625]]], [[[-126.32486, 47.70833, -5066.2587890625], [-126.3166, 47.71365, -4541.27783203125], [-126.32635, 47.71745, -5085.3759765625], [-126.32486, 47.70833, -5066.2587890625]]], [[[-126.25517, 47.65751, -2025.3299560546875], [-126.25627, 47.66575, -2025.3299560546875], [-126.26147, 47.66069, -2689.268798828125], [-126.25517, 47.65751, -2025.3299560546875]]], [[[-126.32486, 47.70833, -5066.2587890625], [-126.32635, 47.71745, -5085.3759765625], [-126.33414, 47.7123, -5644.0087890625], [-126.32486, 47.70833, -5066.2587890625]]], [[[-126.28151, 47.63513, -4487.7001953125], [-126.26875, 47.62535, -3926.25], [-126.27101, 47.63709, -3926.25], [-126.28151, 47.63513, -4487.7001953125]]], [[[-126.31291, 47.69643, -4557.5341796875], [-126.32315, 47.69978, -5070.923828125], [-126.32073, 47.69106, -5098.85986328125], [-126.31291, 47.69643, -4557.5341796875]]], [[[-126.3104, 47.68843, -4547.4599609375], [-126.31803, 47.68297, -5090.078125], [-126.3072, 47.68102, -4553.99169921875], [-126.3104, 47.68843, -4547.4599609375]]], [[[-126.2966, 47.67886, -4098.5107421875], [-126.29948, 47.68656, -4029.81494140625], [-126.3072, 47.68102, -4553.99169921875], [-126.2966, 47.67886, -4098.5107421875]]], [[[-126.2863, 47.66213, -4068.34521484375], [-126.28155, 47.67195, -3444.323974609375], [-126.29179, 47.67076, -4083.263427734375], [-126.2863, 47.66213, -4068.34521484375]]], [[[-126.28155, 47.67195, -3444.323974609375], [-126.27807, 47.66338, -3552.8671875], [-126.27142, 47.66779, -3001.901611328125], [-126.28155, 47.67195, -3444.323974609375]]], [[[-126.30091, 47.64978, -5197.572265625], [-126.294, 47.65646, -4610.35986328125], [-126.30471, 47.65829, -5140.94384765625], [-126.30091, 47.64978, -5197.572265625]]], [[[-126.32838, 47.77063, -3633.19921875], [-126.32404, 47.77702, -3126.503662109375], [-126.33392, 47.77861, -3647.9580078125], [-126.32838, 47.77063, -3633.19921875]]], [[[-126.27807, 47.66338, -3552.8671875], [-126.27477, 47.6546, -3650.5693359375], [-126.26958, 47.66058, -3139.03173828125], [-126.27807, 47.66338, -3552.8671875]]], [[[-126.26958, 47.66058, -3139.03173828125], [-126.27477, 47.6546, -3650.5693359375], [-126.26505, 47.65357, -3087.05322265625], [-126.26958, 47.66058, -3139.03173828125]]], [[[-126.29556, 47.64167, -5096.8701171875], [-126.29253, 47.64936, -4733.38525390625], [-126.30091, 47.64978, -5197.572265625], [-126.29556, 47.64167, -5096.8701171875]]], [[[-126.29162, 47.63319, -5096.8701171875], [-126.27925, 47.6234, -4487.7001953125], [-126.28151, 47.63513, -4487.7001953125], [-126.29162, 47.63319, -5096.8701171875]]], [[[-126.29854, 47.66442, -4590.85595703125], [-126.30931, 47.66644, -5115.34716796875], [-126.30471, 47.65829, -5140.94384765625], [-126.29854, 47.66442, -4590.85595703125]]], [[[-126.26247, 47.68006, -2363.08642578125], [-126.25384, 47.67459, -2025.3299560546875], [-126.25174, 47.68345, -2025.3299560546875], [-126.26247, 47.68006, -2363.08642578125]]], [[[-126.25142, 47.64078, -2655.821044921875], [-126.24608, 47.65101, -2025.3299560546875], [-126.25535, 47.64926, -2655.821044921875], [-126.25142, 47.64078, -2655.821044921875]]], [[[-126.33397, 47.7351, -5040.84912109375], [-126.34443, 47.73713, -5610.240234375], [-126.33966, 47.72905, -5624.68701171875], [-126.33397, 47.7351, -5040.84912109375]]], [[[-126.34913, 47.74561, -5595.833984375], [-126.34913, 47.74559, -5595.83935546875], [-126.33862, 47.74348, -5042.01708984375], [-126.34913, 47.74561, -5595.833984375]]], [[[-126.34914, 47.74561, -5595.80712890625], [-126.34913, 47.74561, -5595.833984375], [-126.34913, 47.74562, -5595.82861328125], [-126.34914, 47.74561, -5595.80712890625]]], [[[-126.34812, 47.76014, -5012.8984375], [-126.35867, 47.76223, -5566.330078125], [-126.35387, 47.75393, -5581.15283203125], [-126.34812, 47.76014, -5012.8984375]]], [[[-126.34727, 47.79094, -3898.3486328125], [-126.34136, 47.78272, -3932.996826171875], [-126.33634, 47.79066, -3259.16650390625], [-126.34727, 47.79094, -3898.3486328125]]], [[[-126.34136, 47.78272, -3932.996826171875], [-126.34727, 47.79094, -3898.3486328125], [-126.35297, 47.78344, -4450.330078125], [-126.34136, 47.78272, -3932.996826171875]]], [[[-126.37128, 47.80709, -4331.07373046875], [-126.37838, 47.8146, -4373.38427734375], [-126.38357, 47.80775, -4921.3505859375], [-126.37128, 47.80709, -4331.07373046875]]], [[[-126.37284, 47.82166, -3825.47998046875], [-126.37838, 47.8146, -4373.38427734375], [-126.36574, 47.81378, -3790.488037109375], [-126.37284, 47.82166, -3825.47998046875]]], [[[-126.3796, 47.82943, -3824.584716796875], [-126.38565, 47.83616, -3808.728271484375], [-126.39167, 47.83004, -4368.95654296875], [-126.3796, 47.82943, -3824.584716796875]]], [[[-126.39588, 47.83739, -4238.78369140625], [-126.39305, 47.84447, -3744.06103515625], [-126.40476, 47.84271, -4386.57177734375], [-126.39588, 47.83739, -4238.78369140625]]], [[[-126.37859, 47.83884, -3247.8623046875], [-126.38438, 47.84677, -3122.4736328125], [-126.39305, 47.84447, -3744.06103515625], [-126.37859, 47.83884, -3247.8623046875]]], [[[-126.38565, 47.83616, -3808.728271484375], [-126.39588, 47.83739, -4238.78369140625], [-126.39167, 47.83004, -4368.95654296875], [-126.38565, 47.83616, -3808.728271484375]]], [[[-126.40367, 47.83248, -4847.61962890625], [-126.40476, 47.84271, -4386.57177734375], [-126.4137, 47.84064, -4931.81005859375], [-126.40367, 47.83248, -4847.61962890625]]], [[[-126.40367, 47.83248, -4847.61962890625], [-126.4137, 47.84064, -4931.81005859375], [-126.41418, 47.83201, -5443.4580078125], [-126.40367, 47.83248, -4847.61962890625]]], [[[-126.40367, 47.83248, -4847.61962890625], [-126.41418, 47.83201, -5443.4580078125], [-126.40723, 47.82443, -5456.21630859375], [-126.40367, 47.83248, -4847.61962890625]]], [[[-126.39642, 47.82347, -4902.0498046875], [-126.40367, 47.83248, -4847.61962890625], [-126.40723, 47.82443, -5456.21630859375], [-126.39642, 47.82347, -4902.0498046875]]], [[[-126.37744, 47.80044, -4924.0751953125], [-126.38831, 47.80121, -5492.59423828125], [-126.38194, 47.79383, -5506.73046875], [-126.37744, 47.80044, -4924.0751953125]]], [[[-126.36422, 47.78497, -4965.87353515625], [-126.37103, 47.79302, -4942.45654296875], [-126.37502, 47.78625, -5523.021484375], [-126.36422, 47.78497, -4965.87353515625]]], [[[-126.36422, 47.78497, -4965.87353515625], [-126.37502, 47.78625, -5523.021484375], [-126.36902, 47.77853, -5537.95263671875], [-126.36422, 47.78497, -4965.87353515625]]], [[[-126.37284, 47.82166, -3825.47998046875], [-126.36096, 47.82096, -3165.426513671875], [-126.36851, 47.82915, -3192.976806640625], [-126.37284, 47.82166, -3825.47998046875]]], [[[-126.37284, 47.82166, -3825.47998046875], [-126.36574, 47.81378, -3790.488037109375], [-126.36096, 47.82096, -3165.426513671875], [-126.37284, 47.82166, -3825.47998046875]]], [[[-126.34727, 47.79094, -3898.3486328125], [-126.35308, 47.79866, -3811.080078125], [-126.35962, 47.79195, -4422.923828125], [-126.34727, 47.79094, -3898.3486328125]]], [[[-126.32337, 47.7903, -2590.249755859375], [-126.33634, 47.79066, -3259.16650390625], [-126.32949, 47.78429, -3158.141845703125], [-126.32337, 47.7903, -2590.249755859375]]], [[[-126.32838, 47.77063, -3633.19921875], [-126.31874, 47.76908, -3120.0283203125], [-126.32404, 47.77702, -3126.503662109375], [-126.32838, 47.77063, -3633.19921875]]], [[[-126.3181, 47.75412, -3617.293212890625], [-126.30732, 47.75237, -3046.1259765625], [-126.31264, 47.76022, -3079.369873046875], [-126.3181, 47.75412, -3617.293212890625]]], [[[-126.31246, 47.74576, -3579.28125], [-126.31667, 47.73914, -4035.26123046875], [-126.30664, 47.73626, -3566.612060546875], [-126.31246, 47.74576, -3579.28125]]], [[[-126.31667, 47.73914, -4035.26123046875], [-126.31246, 47.74576, -3579.28125], [-126.32205, 47.74772, -4063.2666015625], [-126.31667, 47.73914, -4035.26123046875]]], [[[-126.32777, 47.74144, -4515.9755859375], [-126.33397, 47.7351, -5040.84912109375], [-126.3229, 47.73294, -4529.90576171875], [-126.32777, 47.74144, -4515.9755859375]]], [[[-126.33397, 47.7351, -5040.84912109375], [-126.32777, 47.74144, -4515.9755859375], [-126.33862, 47.74348, -5042.01708984375], [-126.33397, 47.7351, -5040.84912109375]]], [[[-126.32777, 47.74144, -4515.9755859375], [-126.3327, 47.74958, -4522.7529296875], [-126.33862, 47.74348, -5042.01708984375], [-126.32777, 47.74144, -4515.9755859375]]], [[[-126.3327, 47.74958, -4522.7529296875], [-126.33778, 47.75823, -4518.95751953125], [-126.34339, 47.7518, -5027.2998046875], [-126.3327, 47.74958, -4522.7529296875]]], [[[-126.3327, 47.74958, -4522.7529296875], [-126.34339, 47.7518, -5027.2998046875], [-126.33862, 47.74348, -5042.01708984375], [-126.3327, 47.74958, -4522.7529296875]]], [[[-126.33182, 47.76442, -4049.361083984375], [-126.3373, 47.77302, -4047.369873046875], [-126.34214, 47.76662, -4478.828125], [-126.33182, 47.76442, -4049.361083984375]]], [[[-126.3373, 47.77302, -4047.369873046875], [-126.33182, 47.76442, -4049.361083984375], [-126.32838, 47.77063, -3633.19921875], [-126.3373, 47.77302, -4047.369873046875]]], [[[-126.28936, 47.62146, -5096.8701171875], [-126.30009, 47.62841, -5714.3974609375], [-126.29828, 47.61979, -5703.7666015625], [-126.28936, 47.62146, -5096.8701171875]]], [[[-126.29528, 47.74744, -2561.10546875], [-126.30732, 47.75237, -3046.1259765625], [-126.30312, 47.74324, -3102.093994140625], [-126.29528, 47.74744, -2561.10546875]]], [[[-126.29528, 47.74744, -2561.10546875], [-126.29705, 47.75402, -2481.423828125], [-126.30732, 47.75237, -3046.1259765625], [-126.29528, 47.74744, -2561.10546875]]], [[[-126.30224, 47.75964, -2522.7724609375], [-126.31264, 47.76022, -3079.369873046875], [-126.30732, 47.75237, -3046.1259765625], [-126.30224, 47.75964, -2522.7724609375]]], [[[-126.31264, 47.76022, -3079.369873046875], [-126.30224, 47.75964, -2522.7724609375], [-126.30818, 47.76718, -2600.837890625], [-126.31264, 47.76022, -3079.369873046875]]], [[[-126.30878, 47.71988, -4086.05615234375], [-126.31892, 47.72337, -4567.99169921875], [-126.3166, 47.71365, -4541.27783203125], [-126.30878, 47.71988, -4086.05615234375]]], [[[-126.30878, 47.71988, -4086.05615234375], [-126.30651, 47.71018, -4038.644775390625], [-126.30003, 47.71644, -3571.922607421875], [-126.30878, 47.71988, -4086.05615234375]]], [[[-126.29697, 47.7073, -3477.33740234375], [-126.29045, 47.71398, -2989.812255859375], [-126.30003, 47.71644, -3571.922607421875], [-126.29697, 47.7073, -3477.33740234375]]], [[[-126.28464, 47.69867, -2897.281005859375], [-126.27534, 47.70267, -2421.14111328125], [-126.28675, 47.70655, -2865.11181640625], [-126.28464, 47.69867, -2897.281005859375]]], [[[-126.29045, 47.71398, -2989.812255859375], [-126.27897, 47.71238, -2447.84912109375], [-126.28326, 47.72022, -2545.58984375], [-126.29045, 47.71398, -2989.812255859375]]], [[[-126.37531, 47.8567, -2025.3299560546875], [-126.37684, 47.8496, -2575.12158203125], [-126.36721, 47.84956, -2025.3299560546875], [-126.37531, 47.8567, -2025.3299560546875]]], [[[-126.37684, 47.8496, -2575.12158203125], [-126.37531, 47.8567, -2025.3299560546875], [-126.38461, 47.85494, -2655.821044921875], [-126.37684, 47.8496, -2575.12158203125]]], [[[-126.42496, 47.8473, -5096.8701171875], [-126.42972, 47.84641, -5419.583984375], [-126.42162, 47.83937, -5432.0859375], [-126.42496, 47.8473, -5096.8701171875]]], [[[-126.4137, 47.84064, -4931.81005859375], [-126.42496, 47.8473, -5096.8701171875], [-126.42162, 47.83937, -5432.0859375], [-126.4137, 47.84064, -4931.81005859375]]], [[[-126.25142, 47.64078, -2655.821044921875], [-126.2399, 47.6308, -2025.3299560546875], [-126.24215, 47.64253, -2025.3299560546875], [-126.25142, 47.64078, -2655.821044921875]]]]}}]}