{"type": "FeatureCollection", "features": [{"type": "Feature", "properties": {"name": "AW_WASH_15", "CFM_ID": 279, "region": "Offshore_WAOR", "primary_state/province": "WA", "secondary_state/province": null, "avg_dip": 60, "dip_dir": "SW", "rake": 90, "slip_sense": "Reverse", "fault_level": 2, "NSHM23_sliprates": null, "QFFDAgeCatBin": null, "QFFDAgeBin": null, "upper_depth": -2.0, "upper_depth_constraint": "bathymetry", "lower_depth": -5.7, "lower_depth_constraint": "megathrust", "3D_model_constraints": "trace extended at constant dip", "reference": "Ledeczi et al. (2024)", "nshm23_id": null, "lineage": null, "usgs_qffd_#": null, "comments": null, "id": "279"}, "geometry": {"type": "MultiPolygon", "coordinates": [[[[-126.09506, 47.20687, -3968.233154296875], [-126.08924, 47.19937, -3916.49853515625], [-126.08507, 47.20346, -3080.572509765625], [-126.09506, 47.20687, -3968.233154296875]]], [[[-126.11185, 47.21511, -5249.4521484375], [-126.11769, 47.21822, -5665.34375], [-126.11171, 47.21004, -5661.6435546875], [-126.11185, 47.21511, -5249.4521484375]]], [[[-126.11202, 47.22017, -4835.47900390625], [-126.11769, 47.21822, -5665.34375], [-126.11185, 47.21511, -5249.4521484375], [-126.11202, 47.22017, -4835.47900390625]]], [[[-126.02313, 47.09297, -4695.36083984375], [-126.02154, 47.08702, -5399.5], [-126.01566, 47.08901, -4538.462890625], [-126.02313, 47.09297, -4695.36083984375]]], [[[-126.10415, 47.21369, -4463.0947265625], [-126.11202, 47.22017, -4835.47900390625], [-126.11185, 47.21511, -5249.4521484375], [-126.10415, 47.21369, -4463.0947265625]]], [[[-126.05425, 47.15632, -3830.415283203125], [-126.04896, 47.15955, -2907.310791015625], [-126.05731, 47.16611, -2994.916748046875], [-126.05425, 47.15632, -3830.415283203125]]], [[[-126.10415, 47.21369, -4463.0947265625], [-126.10635, 47.22211, -4005.6142578125], [-126.11202, 47.22017, -4835.47900390625], [-126.10415, 47.21369, -4463.0947265625]]], [[[-126.09767, 47.21595, -3509.44189453125], [-126.10635, 47.22211, -4005.6142578125], [-126.10415, 47.21369, -4463.0947265625], [-126.09767, 47.21595, -3509.44189453125]]], [[[-126.02313, 47.09297, -4695.36083984375], [-126.03082, 47.09355, -5400.08740234375], [-126.02154, 47.08702, -5399.5], [-126.02313, 47.09297, -4695.36083984375]]], [[[-126.09767, 47.21595, -3509.44189453125], [-126.10067, 47.22406, -3175.749755859375], [-126.10635, 47.22211, -4005.6142578125], [-126.09767, 47.21595, -3509.44189453125]]], [[[-126.09767, 47.21595, -3509.44189453125], [-126.09476, 47.22093, -2745.337646484375], [-126.10067, 47.22406, -3175.749755859375], [-126.09767, 47.21595, -3509.44189453125]]], [[[-126.02051, 47.09635, -3951.184326171875], [-126.01566, 47.08901, -4538.462890625], [-126.00977, 47.09101, -3677.426025390625], [-126.02051, 47.09635, -3951.184326171875]]], [[[-126.09767, 47.21595, -3509.44189453125], [-126.08885, 47.2178, -2314.3388671875], [-126.09476, 47.22093, -2745.337646484375], [-126.09767, 47.21595, -3509.44189453125]]], [[[-126.08693, 47.18096, -5629.79931640625], [-126.08614, 47.18643, -4784.9609375], [-126.09326, 47.18541, -5631.3974609375], [-126.08693, 47.18096, -5629.79931640625]]], [[[-126.09066, 47.2114, -3068.10595703125], [-126.08885, 47.2178, -2314.3388671875], [-126.09767, 47.21595, -3509.44189453125], [-126.09066, 47.2114, -3068.10595703125]]], [[[-126.09066, 47.2114, -3068.10595703125], [-126.08271, 47.20961, -2282.793212890625], [-126.08885, 47.2178, -2314.3388671875], [-126.09066, 47.2114, -3068.10595703125]]], [[[-126.08507, 47.20346, -3080.572509765625], [-126.08271, 47.20961, -2282.793212890625], [-126.09066, 47.2114, -3068.10595703125], [-126.08507, 47.20346, -3080.572509765625]]], [[[-126.01318, 47.10206, -2597.88720703125], [-126.01543, 47.09812, -3202.396728515625], [-126.00519, 47.09683, -2391.41357421875], [-126.01318, 47.10206, -2597.88720703125]]], [[[-126.08507, 47.20346, -3080.572509765625], [-126.07656, 47.20141, -2251.7255859375], [-126.08271, 47.20961, -2282.793212890625], [-126.08507, 47.20346, -3080.572509765625]]], [[[-126.08453, 47.19203, -3982.013671875], [-126.08614, 47.18643, -4784.9609375], [-126.07641, 47.18561, -3938.656982421875], [-126.08453, 47.19203, -3982.013671875]]], [[[-126.0787, 47.19433, -3103.48828125], [-126.07656, 47.20141, -2251.7255859375], [-126.08507, 47.20346, -3080.572509765625], [-126.0787, 47.19433, -3103.48828125]]], [[[-126.02128, 47.1061, -3197.042236328125], [-126.02593, 47.11405, -3683.830322265625], [-126.02535, 47.10422, -3836.3583984375], [-126.02128, 47.1061, -3197.042236328125]]], [[[-126.0787, 47.19433, -3103.48828125], [-126.07016, 47.19344, -2224.703369140625], [-126.07656, 47.20141, -2251.7255859375], [-126.0787, 47.19433, -3103.48828125]]], [[[-126.06761, 47.18669, -2919.66357421875], [-126.07016, 47.19344, -2224.703369140625], [-126.0787, 47.19433, -3103.48828125], [-126.06761, 47.18669, -2919.66357421875]]], [[[-126.06761, 47.18669, -2919.66357421875], [-126.06185, 47.18759, -2180.37939453125], [-126.07016, 47.19344, -2224.703369140625], [-126.06761, 47.18669, -2919.66357421875]]], [[[-126.05922, 47.18059, -2172.5537109375], [-126.06185, 47.18759, -2180.37939453125], [-126.06761, 47.18669, -2919.66357421875], [-126.05922, 47.18059, -2172.5537109375]]], [[[-126.03339, 47.11627, -4634.9453125], [-126.0385, 47.12523, -4671.802734375], [-126.04077, 47.11919, -5472.974609375], [-126.03339, 47.11627, -4634.9453125]]], [[[-126.06352, 47.17655, -2924.50634765625], [-126.05922, 47.18059, -2172.5537109375], [-126.06761, 47.18669, -2919.66357421875], [-126.06352, 47.17655, -2924.50634765625]]], [[[-126.02876, 47.09963, -4632.2470703125], [-126.03147, 47.10749, -4598.8505859375], [-126.03648, 47.10154, -5412.80908203125], [-126.02876, 47.09963, -4632.2470703125]]], [[[-126.06352, 47.17655, -2924.50634765625], [-126.05656, 47.17267, -2190.394287109375], [-126.05922, 47.18059, -2172.5537109375], [-126.06352, 47.17655, -2924.50634765625]]], [[[-126.02934, 47.12279, -3820.06298828125], [-126.0385, 47.12523, -4671.802734375], [-126.03339, 47.11627, -4634.9453125], [-126.02934, 47.12279, -3820.06298828125]]], [[[-126.06352, 47.17655, -2924.50634765625], [-126.05731, 47.16611, -2994.916748046875], [-126.05656, 47.17267, -2190.394287109375], [-126.06352, 47.17655, -2924.50634765625]]], [[[-126.0385, 47.12523, -4671.802734375], [-126.04458, 47.13341, -4701.97314453125], [-126.04699, 47.12728, -5492.66796875], [-126.0385, 47.12523, -4671.802734375]]], [[[-126.06653, 47.16983, -3629.7529296875], [-126.05731, 47.16611, -2994.916748046875], [-126.06352, 47.17655, -2924.50634765625], [-126.06653, 47.16983, -3629.7529296875]]], [[[-126.01861, 47.11155, -2718.463623046875], [-126.02104, 47.12038, -2830.703369140625], [-126.02593, 47.11405, -3683.830322265625], [-126.01861, 47.11155, -2718.463623046875]]], [[[-126.06653, 47.16983, -3629.7529296875], [-126.06285, 47.163, -3970.746826171875], [-126.05731, 47.16611, -2994.916748046875], [-126.06653, 47.16983, -3629.7529296875]]], [[[-126.07181, 47.16408, -4712.77685546875], [-126.0799, 47.16539, -5586.76904296875], [-126.07259, 47.15838, -5572.33203125], [-126.07181, 47.16408, -4712.77685546875]]], [[[-126.06653, 47.16983, -3629.7529296875], [-126.07181, 47.16408, -4712.77685546875], [-126.06285, 47.163, -3970.746826171875], [-126.06653, 47.16983, -3629.7529296875]]], [[[-126.06653, 47.16983, -3629.7529296875], [-126.0756, 47.17079, -4773.73876953125], [-126.07181, 47.16408, -4712.77685546875], [-126.06653, 47.16983, -3629.7529296875]]], [[[-126.02313, 47.09297, -4695.36083984375], [-126.02051, 47.09635, -3951.184326171875], [-126.02876, 47.09963, -4632.2470703125], [-126.02313, 47.09297, -4695.36083984375]]], [[[-126.06653, 47.16983, -3629.7529296875], [-126.07147, 47.17569, -4004.454833984375], [-126.0756, 47.17079, -4773.73876953125], [-126.06653, 47.16983, -3629.7529296875]]], [[[-126.03536, 47.13106, -3798.9296875], [-126.04458, 47.13341, -4701.97314453125], [-126.0385, 47.12523, -4671.802734375], [-126.03536, 47.13106, -3798.9296875]]], [[[-126.07147, 47.17569, -4004.454833984375], [-126.06653, 47.16983, -3629.7529296875], [-126.06352, 47.17655, -2924.50634765625], [-126.07147, 47.17569, -4004.454833984375]]], [[[-126.07147, 47.17569, -4004.454833984375], [-126.06352, 47.17655, -2924.50634765625], [-126.06968, 47.18121, -3506.718505859375], [-126.07147, 47.17569, -4004.454833984375]]], [[[-126.07641, 47.18561, -3938.656982421875], [-126.07147, 47.17569, -4004.454833984375], [-126.06968, 47.18121, -3506.718505859375], [-126.07641, 47.18561, -3938.656982421875]]], [[[-126.07147, 47.17569, -4004.454833984375], [-126.07641, 47.18561, -3938.656982421875], [-126.07883, 47.17914, -4798.7099609375], [-126.07147, 47.17569, -4004.454833984375]]], [[[-126.02535, 47.10422, -3836.3583984375], [-126.03147, 47.10749, -4598.8505859375], [-126.02876, 47.09963, -4632.2470703125], [-126.02535, 47.10422, -3836.3583984375]]], [[[-126.07147, 47.17569, -4004.454833984375], [-126.07883, 47.17914, -4798.7099609375], [-126.0756, 47.17079, -4773.73876953125], [-126.07147, 47.17569, -4004.454833984375]]], [[[-126.0756, 47.17079, -4773.73876953125], [-126.07883, 47.17914, -4798.7099609375], [-126.08312, 47.17381, -5612.14599609375], [-126.0756, 47.17079, -4773.73876953125]]], [[[-126.01566, 47.08901, -4538.462890625], [-126.02051, 47.09635, -3951.184326171875], [-126.02313, 47.09297, -4695.36083984375], [-126.01566, 47.08901, -4538.462890625]]], [[[-126.0756, 47.17079, -4773.73876953125], [-126.08312, 47.17381, -5612.14599609375], [-126.0799, 47.16539, -5586.76904296875], [-126.0756, 47.17079, -4773.73876953125]]], [[[-126.07181, 47.16408, -4712.77685546875], [-126.0756, 47.17079, -4773.73876953125], [-126.0799, 47.16539, -5586.76904296875], [-126.07181, 47.16408, -4712.77685546875]]], [[[-126.06364, 47.15737, -4763.73974609375], [-126.07181, 47.16408, -4712.77685546875], [-126.07259, 47.15838, -5572.33203125], [-126.06364, 47.15737, -4763.73974609375]]], [[[-126.06285, 47.163, -3970.746826171875], [-126.07181, 47.16408, -4712.77685546875], [-126.06364, 47.15737, -4763.73974609375], [-126.06285, 47.163, -3970.746826171875]]], [[[-126.06285, 47.163, -3970.746826171875], [-126.06364, 47.15737, -4763.73974609375], [-126.05425, 47.15632, -3830.415283203125], [-126.06285, 47.163, -3970.746826171875]]], [[[-126.04149, 47.13928, -3827.5830078125], [-126.04458, 47.13341, -4701.97314453125], [-126.03536, 47.13106, -3798.9296875], [-126.04149, 47.13928, -3827.5830078125]]], [[[-126.05425, 47.15632, -3830.415283203125], [-126.05731, 47.16611, -2994.916748046875], [-126.06285, 47.163, -3970.746826171875], [-126.05425, 47.15632, -3830.415283203125]]], [[[-126.02934, 47.12279, -3820.06298828125], [-126.02104, 47.12038, -2830.703369140625], [-126.0253, 47.12821, -2868.302001953125], [-126.02934, 47.12279, -3820.06298828125]]], [[[-126.03536, 47.13106, -3798.9296875], [-126.0385, 47.12523, -4671.802734375], [-126.02934, 47.12279, -3820.06298828125], [-126.03536, 47.13106, -3798.9296875]]], [[[-126.05425, 47.15632, -3830.415283203125], [-126.04331, 47.15226, -2934.505859375], [-126.04896, 47.15955, -2907.310791015625], [-126.05425, 47.15632, -3830.415283203125]]], [[[-126.05425, 47.15632, -3830.415283203125], [-126.04785, 47.14743, -3838.448486328125], [-126.04331, 47.15226, -2934.505859375], [-126.05425, 47.15632, -3830.415283203125]]], [[[-126.05425, 47.15632, -3830.415283203125], [-126.0565, 47.14954, -4735.7978515625], [-126.04785, 47.14743, -3838.448486328125], [-126.05425, 47.15632, -3830.415283203125]]], [[[-126.05425, 47.15632, -3830.415283203125], [-126.06364, 47.15737, -4763.73974609375], [-126.0565, 47.14954, -4735.7978515625], [-126.05425, 47.15632, -3830.415283203125]]], [[[-126.0565, 47.14954, -4735.7978515625], [-126.06364, 47.15737, -4763.73974609375], [-126.06503, 47.15121, -5557.77685546875], [-126.0565, 47.14954, -4735.7978515625]]], [[[-126.0565, 47.14954, -4735.7978515625], [-126.06503, 47.15121, -5557.77685546875], [-126.05942, 47.14343, -5536.751953125], [-126.0565, 47.14954, -4735.7978515625]]], [[[-126.05111, 47.14151, -4712.25439453125], [-126.0565, 47.14954, -4735.7978515625], [-126.05942, 47.14343, -5536.751953125], [-126.05111, 47.14151, -4712.25439453125]]], [[[-126.04785, 47.14743, -3838.448486328125], [-126.0565, 47.14954, -4735.7978515625], [-126.05111, 47.14151, -4712.25439453125], [-126.04785, 47.14743, -3838.448486328125]]], [[[-126.04785, 47.14743, -3838.448486328125], [-126.05111, 47.14151, -4712.25439453125], [-126.04149, 47.13928, -3827.5830078125], [-126.04785, 47.14743, -3838.448486328125]]], [[[-126.04785, 47.14743, -3838.448486328125], [-126.04149, 47.13928, -3827.5830078125], [-126.03737, 47.14409, -2896.156005859375], [-126.04785, 47.14743, -3838.448486328125]]], [[[-126.04785, 47.14743, -3838.448486328125], [-126.03737, 47.14409, -2896.156005859375], [-126.04331, 47.15226, -2934.505859375], [-126.04785, 47.14743, -3838.448486328125]]], [[[-126.03737, 47.14409, -2896.156005859375], [-126.03471, 47.15013, -2043.8236083984375], [-126.04331, 47.15226, -2934.505859375], [-126.03737, 47.14409, -2896.156005859375]]], [[[-126.03737, 47.14409, -2896.156005859375], [-126.0281, 47.14211, -2027.030029296875], [-126.03471, 47.15013, -2043.8236083984375], [-126.03737, 47.14409, -2896.156005859375]]], [[[-126.0311, 47.1361, -2879.57763671875], [-126.0281, 47.14211, -2027.030029296875], [-126.03737, 47.14409, -2896.156005859375], [-126.0311, 47.1361, -2879.57763671875]]], [[[-126.0311, 47.1361, -2879.57763671875], [-126.02195, 47.13393, -1969.3487548828125], [-126.0281, 47.14211, -2027.030029296875], [-126.0311, 47.1361, -2879.57763671875]]], [[[-126.0253, 47.12821, -2868.302001953125], [-126.02195, 47.13393, -1969.3487548828125], [-126.0311, 47.1361, -2879.57763671875], [-126.0253, 47.12821, -2868.302001953125]]], [[[-126.0253, 47.12821, -2868.302001953125], [-126.01593, 47.12571, -1979.2978515625], [-126.02195, 47.13393, -1969.3487548828125], [-126.0253, 47.12821, -2868.302001953125]]], [[[-126.02104, 47.12038, -2830.703369140625], [-126.01593, 47.12571, -1979.2978515625], [-126.0253, 47.12821, -2868.302001953125], [-126.02104, 47.12038, -2830.703369140625]]], [[[-126.02104, 47.12038, -2830.703369140625], [-126.01395, 47.1166, -1970.849609375], [-126.01593, 47.12571, -1979.2978515625], [-126.02104, 47.12038, -2830.703369140625]]], [[[-126.01861, 47.11155, -2718.463623046875], [-126.01395, 47.1166, -1970.849609375], [-126.02104, 47.12038, -2830.703369140625], [-126.01861, 47.11155, -2718.463623046875]]], [[[-126.01861, 47.11155, -2718.463623046875], [-126.01208, 47.10777, -1975.485107421875], [-126.01395, 47.1166, -1970.849609375], [-126.01861, 47.11155, -2718.463623046875]]], [[[-126.01861, 47.11155, -2718.463623046875], [-126.01318, 47.10206, -2597.88720703125], [-126.01208, 47.10777, -1975.485107421875], [-126.01861, 47.11155, -2718.463623046875]]], [[[-126.02128, 47.1061, -3197.042236328125], [-126.01318, 47.10206, -2597.88720703125], [-126.01861, 47.11155, -2718.463623046875], [-126.02128, 47.1061, -3197.042236328125]]], [[[-126.02128, 47.1061, -3197.042236328125], [-126.01543, 47.09812, -3202.396728515625], [-126.01318, 47.10206, -2597.88720703125], [-126.02128, 47.1061, -3197.042236328125]]], [[[-126.02128, 47.1061, -3197.042236328125], [-126.02535, 47.10422, -3836.3583984375], [-126.01543, 47.09812, -3202.396728515625], [-126.02128, 47.1061, -3197.042236328125]]], [[[-126.02128, 47.1061, -3197.042236328125], [-126.01861, 47.11155, -2718.463623046875], [-126.02593, 47.11405, -3683.830322265625], [-126.02128, 47.1061, -3197.042236328125]]], [[[-126.02934, 47.12279, -3820.06298828125], [-126.02593, 47.11405, -3683.830322265625], [-126.02104, 47.12038, -2830.703369140625], [-126.02934, 47.12279, -3820.06298828125]]], [[[-126.02934, 47.12279, -3820.06298828125], [-126.03339, 47.11627, -4634.9453125], [-126.02593, 47.11405, -3683.830322265625], [-126.02934, 47.12279, -3820.06298828125]]], [[[-126.04149, 47.13928, -3827.5830078125], [-126.05111, 47.14151, -4712.25439453125], [-126.04458, 47.13341, -4701.97314453125], [-126.04149, 47.13928, -3827.5830078125]]], [[[-126.04458, 47.13341, -4701.97314453125], [-126.05111, 47.14151, -4712.25439453125], [-126.05303, 47.13543, -5515.3291015625], [-126.04458, 47.13341, -4701.97314453125]]], [[[-126.04458, 47.13341, -4701.97314453125], [-126.05303, 47.13543, -5515.3291015625], [-126.04699, 47.12728, -5492.66796875], [-126.04458, 47.13341, -4701.97314453125]]], [[[-126.0385, 47.12523, -4671.802734375], [-126.04699, 47.12728, -5492.66796875], [-126.04077, 47.11919, -5472.974609375], [-126.0385, 47.12523, -4671.802734375]]], [[[-126.03339, 47.11627, -4634.9453125], [-126.04077, 47.11919, -5472.974609375], [-126.03804, 47.11032, -5443.826171875], [-126.03339, 47.11627, -4634.9453125]]], [[[-126.03339, 47.11627, -4634.9453125], [-126.03804, 47.11032, -5443.826171875], [-126.03147, 47.10749, -4598.8505859375], [-126.03339, 47.11627, -4634.9453125]]], [[[-126.02593, 47.11405, -3683.830322265625], [-126.03339, 47.11627, -4634.9453125], [-126.03147, 47.10749, -4598.8505859375], [-126.02593, 47.11405, -3683.830322265625]]], [[[-126.07641, 47.18561, -3938.656982421875], [-126.06968, 47.18121, -3506.718505859375], [-126.06761, 47.18669, -2919.66357421875], [-126.07641, 47.18561, -3938.656982421875]]], [[[-126.02593, 47.11405, -3683.830322265625], [-126.03147, 47.10749, -4598.8505859375], [-126.02535, 47.10422, -3836.3583984375], [-126.02593, 47.11405, -3683.830322265625]]], [[[-126.02535, 47.10422, -3836.3583984375], [-126.02876, 47.09963, -4632.2470703125], [-126.02051, 47.09635, -3951.184326171875], [-126.02535, 47.10422, -3836.3583984375]]], [[[-126.02051, 47.09635, -3951.184326171875], [-126.01543, 47.09812, -3202.396728515625], [-126.02535, 47.10422, -3836.3583984375], [-126.02051, 47.09635, -3951.184326171875]]], [[[-126.02051, 47.09635, -3951.184326171875], [-126.00977, 47.09101, -3677.426025390625], [-126.01543, 47.09812, -3202.396728515625], [-126.02051, 47.09635, -3951.184326171875]]], [[[-126.02876, 47.09963, -4632.2470703125], [-126.03082, 47.09355, -5400.08740234375], [-126.02313, 47.09297, -4695.36083984375], [-126.02876, 47.09963, -4632.2470703125]]], [[[-126.02876, 47.09963, -4632.2470703125], [-126.03648, 47.10154, -5412.80908203125], [-126.03082, 47.09355, -5400.08740234375], [-126.02876, 47.09963, -4632.2470703125]]], [[[-126.03147, 47.10749, -4598.8505859375], [-126.03804, 47.11032, -5443.826171875], [-126.03648, 47.10154, -5412.80908203125], [-126.03147, 47.10749, -4598.8505859375]]], [[[-126.01543, 47.09812, -3202.396728515625], [-126.00977, 47.09101, -3677.426025390625], [-126.00389, 47.093, -2816.388916015625], [-126.01543, 47.09812, -3202.396728515625]]], [[[-126.00389, 47.093, -2816.388916015625], [-126.00519, 47.09683, -2391.41357421875], [-126.01543, 47.09812, -3202.396728515625], [-126.00389, 47.093, -2816.388916015625]]], [[[-125.998, 47.095, -1955.35205078125], [-126.00519, 47.09683, -2391.41357421875], [-126.00389, 47.093, -2816.388916015625], [-125.998, 47.095, -1955.35205078125]]], [[[-125.998, 47.095, -1955.35205078125], [-126.00649, 47.10066, -1966.4381103515625], [-126.00519, 47.09683, -2391.41357421875], [-125.998, 47.095, -1955.35205078125]]], [[[-126.00649, 47.10066, -1966.4381103515625], [-126.01318, 47.10206, -2597.88720703125], [-126.00519, 47.09683, -2391.41357421875], [-126.00649, 47.10066, -1966.4381103515625]]], [[[-126.01318, 47.10206, -2597.88720703125], [-126.00649, 47.10066, -1966.4381103515625], [-126.01208, 47.10777, -1975.485107421875], [-126.01318, 47.10206, -2597.88720703125]]], [[[-126.05111, 47.14151, -4712.25439453125], [-126.05942, 47.14343, -5536.751953125], [-126.05303, 47.13543, -5515.3291015625], [-126.05111, 47.14151, -4712.25439453125]]], [[[-126.04149, 47.13928, -3827.5830078125], [-126.03536, 47.13106, -3798.9296875], [-126.0311, 47.1361, -2879.57763671875], [-126.04149, 47.13928, -3827.5830078125]]], [[[-126.04149, 47.13928, -3827.5830078125], [-126.0311, 47.1361, -2879.57763671875], [-126.03737, 47.14409, -2896.156005859375], [-126.04149, 47.13928, -3827.5830078125]]], [[[-126.03536, 47.13106, -3798.9296875], [-126.0253, 47.12821, -2868.302001953125], [-126.0311, 47.1361, -2879.57763671875], [-126.03536, 47.13106, -3798.9296875]]], [[[-126.03536, 47.13106, -3798.9296875], [-126.02934, 47.12279, -3820.06298828125], [-126.0253, 47.12821, -2868.302001953125], [-126.03536, 47.13106, -3798.9296875]]], [[[-126.04331, 47.15226, -2934.505859375], [-126.03471, 47.15013, -2043.8236083984375], [-126.04044, 47.15844, -2075.822021484375], [-126.04331, 47.15226, -2934.505859375]]], [[[-126.04331, 47.15226, -2934.505859375], [-126.04044, 47.15844, -2075.822021484375], [-126.04896, 47.15955, -2907.310791015625], [-126.04331, 47.15226, -2934.505859375]]], [[[-126.04896, 47.15955, -2907.310791015625], [-126.04044, 47.15844, -2075.822021484375], [-126.04831, 47.16587, -2133.099365234375], [-126.04896, 47.15955, -2907.310791015625]]], [[[-126.04896, 47.15955, -2907.310791015625], [-126.04831, 47.16587, -2133.099365234375], [-126.05731, 47.16611, -2994.916748046875], [-126.04896, 47.15955, -2907.310791015625]]], [[[-126.04831, 47.16587, -2133.099365234375], [-126.05656, 47.17267, -2190.394287109375], [-126.05731, 47.16611, -2994.916748046875], [-126.04831, 47.16587, -2133.099365234375]]], [[[-126.06364, 47.15737, -4763.73974609375], [-126.07259, 47.15838, -5572.33203125], [-126.06503, 47.15121, -5557.77685546875], [-126.06364, 47.15737, -4763.73974609375]]], [[[-126.07883, 47.17914, -4798.7099609375], [-126.08693, 47.18096, -5629.79931640625], [-126.08312, 47.17381, -5612.14599609375], [-126.07883, 47.17914, -4798.7099609375]]], [[[-126.07883, 47.17914, -4798.7099609375], [-126.08614, 47.18643, -4784.9609375], [-126.08693, 47.18096, -5629.79931640625], [-126.07883, 47.17914, -4798.7099609375]]], [[[-126.07883, 47.17914, -4798.7099609375], [-126.07641, 47.18561, -3938.656982421875], [-126.08614, 47.18643, -4784.9609375], [-126.07883, 47.17914, -4798.7099609375]]], [[[-126.08453, 47.19203, -3982.013671875], [-126.09263, 47.19398, -4765.68701171875], [-126.08614, 47.18643, -4784.9609375], [-126.08453, 47.19203, -3982.013671875]]], [[[-126.08453, 47.19203, -3982.013671875], [-126.08924, 47.19937, -3916.49853515625], [-126.09263, 47.19398, -4765.68701171875], [-126.08453, 47.19203, -3982.013671875]]], [[[-126.0787, 47.19433, -3103.48828125], [-126.08924, 47.19937, -3916.49853515625], [-126.08453, 47.19203, -3982.013671875], [-126.0787, 47.19433, -3103.48828125]]], [[[-126.0787, 47.19433, -3103.48828125], [-126.08507, 47.20346, -3080.572509765625], [-126.08924, 47.19937, -3916.49853515625], [-126.0787, 47.19433, -3103.48828125]]], [[[-126.08924, 47.19937, -3916.49853515625], [-126.09506, 47.20687, -3968.233154296875], [-126.09768, 47.20064, -4803.5673828125], [-126.08924, 47.19937, -3916.49853515625]]], [[[-126.08924, 47.19937, -3916.49853515625], [-126.09768, 47.20064, -4803.5673828125], [-126.09263, 47.19398, -4765.68701171875], [-126.08924, 47.19937, -3916.49853515625]]], [[[-126.09263, 47.19398, -4765.68701171875], [-126.09768, 47.20064, -4803.5673828125], [-126.10081, 47.19504, -5644.90673828125], [-126.09263, 47.19398, -4765.68701171875]]], [[[-126.09263, 47.19398, -4765.68701171875], [-126.10081, 47.19504, -5644.90673828125], [-126.09693, 47.18964, -5638.48583984375], [-126.09263, 47.19398, -4765.68701171875]]], [[[-126.09693, 47.18964, -5638.48583984375], [-126.08614, 47.18643, -4784.9609375], [-126.09263, 47.19398, -4765.68701171875], [-126.09693, 47.18964, -5638.48583984375]]], [[[-126.09693, 47.18964, -5638.48583984375], [-126.09326, 47.18541, -5631.3974609375], [-126.08614, 47.18643, -4784.9609375], [-126.09693, 47.18964, -5638.48583984375]]], [[[-126.09768, 47.20064, -4803.5673828125], [-126.10576, 47.20186, -5652.220703125], [-126.10081, 47.19504, -5644.90673828125], [-126.09768, 47.20064, -4803.5673828125]]], [[[-126.09768, 47.20064, -4803.5673828125], [-126.10335, 47.20754, -4887.8662109375], [-126.10576, 47.20186, -5652.220703125], [-126.09768, 47.20064, -4803.5673828125]]], [[[-126.09506, 47.20687, -3968.233154296875], [-126.10335, 47.20754, -4887.8662109375], [-126.09768, 47.20064, -4803.5673828125], [-126.09506, 47.20687, -3968.233154296875]]], [[[-126.09506, 47.20687, -3968.233154296875], [-126.10415, 47.21369, -4463.0947265625], [-126.10335, 47.20754, -4887.8662109375], [-126.09506, 47.20687, -3968.233154296875]]], [[[-126.09506, 47.20687, -3968.233154296875], [-126.09767, 47.21595, -3509.44189453125], [-126.10415, 47.21369, -4463.0947265625], [-126.09506, 47.20687, -3968.233154296875]]], [[[-126.09066, 47.2114, -3068.10595703125], [-126.09767, 47.21595, -3509.44189453125], [-126.09506, 47.20687, -3968.233154296875], [-126.09066, 47.2114, -3068.10595703125]]], [[[-126.08507, 47.20346, -3080.572509765625], [-126.09066, 47.2114, -3068.10595703125], [-126.09506, 47.20687, -3968.233154296875], [-126.08507, 47.20346, -3080.572509765625]]], [[[-126.10335, 47.20754, -4887.8662109375], [-126.10415, 47.21369, -4463.0947265625], [-126.11171, 47.21004, -5661.6435546875], [-126.10335, 47.20754, -4887.8662109375]]], [[[-126.10335, 47.20754, -4887.8662109375], [-126.11171, 47.21004, -5661.6435546875], [-126.10576, 47.20186, -5652.220703125], [-126.10335, 47.20754, -4887.8662109375]]], [[[-126.10415, 47.21369, -4463.0947265625], [-126.11185, 47.21511, -5249.4521484375], [-126.11171, 47.21004, -5661.6435546875], [-126.10415, 47.21369, -4463.0947265625]]], [[[-126.07641, 47.18561, -3938.656982421875], [-126.0787, 47.19433, -3103.48828125], [-126.08453, 47.19203, -3982.013671875], [-126.07641, 47.18561, -3938.656982421875]]], [[[-126.07641, 47.18561, -3938.656982421875], [-126.06761, 47.18669, -2919.66357421875], [-126.0787, 47.19433, -3103.48828125], [-126.07641, 47.18561, -3938.656982421875]]], [[[-126.06968, 47.18121, -3506.718505859375], [-126.06352, 47.17655, -2924.50634765625], [-126.06761, 47.18669, -2919.66357421875], [-126.06968, 47.18121, -3506.718505859375]]], [[[-126.08885, 47.2178, -2314.3388671875], [-126.095, 47.226, -2345.885009765625], [-126.09476, 47.22093, -2745.337646484375], [-126.08885, 47.2178, -2314.3388671875]]], [[[-126.09476, 47.22093, -2745.337646484375], [-126.095, 47.226, -2345.885009765625], [-126.10067, 47.22406, -3175.749755859375], [-126.09476, 47.22093, -2745.337646484375]]]]}}]}