{"type": "FeatureCollection", "features": [{"type": "Feature", "properties": {"name": "AW_WASH_19", "CFM_ID": 283, "region": "Offshore_WAOR", "primary_state/province": "WA", "secondary_state/province": null, "avg_dip": 33, "dip_dir": "SW", "rake": 90, "slip_sense": "Reverse", "fault_level": 2, "NSHM23_sliprates": null, "QFFDAgeCatBin": null, "QFFDAgeBin": null, "upper_depth": -3.0, "upper_depth_constraint": "seismic imaging", "lower_depth": -4.5, "lower_depth_constraint": "megathrust", "3D_model_constraints": "trace and 1 MCS line", "reference": "Ledeczi et al. (2024); Carbotte et al. (2023)", "nshm23_id": null, "lineage": null, "usgs_qffd_#": null, "comments": null, "id": "283"}, "geometry": {"type": "MultiPolygon", "coordinates": [[[[-125.74826, 47.10191, -4760.525390625], [-125.74397, 47.1055, -4270.3095703125], [-125.73986, 47.1008, -4317.33203125], [-125.74826, 47.10191, -4760.525390625]]], [[[-125.72601, 47.04429, -4318.8408203125], [-125.72701, 47.05496, -4354.61328125], [-125.71864, 47.05027, -3702.109130859375], [-125.72601, 47.04429, -4318.8408203125]]], [[[-125.78788, 47.14932, -5233.0966796875], [-125.79968, 47.15137, -5605.68408203125], [-125.79096, 47.16133, -5364.79541015625], [-125.78788, 47.14932, -5233.0966796875]]], [[[-125.6733, 46.97143, -2881.772705078125], [-125.67023, 46.96398, -2889.787109375], [-125.68011, 46.96476, -3610.825439453125], [-125.6733, 46.97143, -2881.772705078125]]], [[[-125.74456, 47.02799, -5280.25146484375], [-125.75668, 47.03037, -5571.5869140625], [-125.74468, 47.03437, -5241.6787109375], [-125.74456, 47.02799, -5280.25146484375]]], [[[-125.75668, 47.03037, -5571.5869140625], [-125.74456, 47.02799, -5280.25146484375], [-125.75506, 47.02317, -5575.1337890625], [-125.75668, 47.03037, -5571.5869140625]]], [[[-125.70749, 47.03694, -2956.1708984375], [-125.71666, 47.04016, -3692.474853515625], [-125.71093, 47.04588, -2994.03857421875], [-125.70749, 47.03694, -2956.1708984375]]], [[[-125.78788, 47.14932, -5233.0966796875], [-125.79637, 47.14277, -5584.66650390625], [-125.79968, 47.15137, -5605.68408203125], [-125.78788, 47.14932, -5233.0966796875]]], [[[-125.67718, 46.94954, -3879.678955078125], [-125.68729, 46.94891, -4493.8408203125], [-125.6841, 46.95737, -4093.143310546875], [-125.67718, 46.94954, -3879.678955078125]]], [[[-125.78424, 47.14037, -5138.4560546875], [-125.79637, 47.14277, -5584.66650390625], [-125.78788, 47.14932, -5233.0966796875], [-125.78424, 47.14037, -5138.4560546875]]], [[[-125.70323, 47.02856, -2922.78857421875], [-125.70749, 47.03694, -2956.1708984375], [-125.6982, 47.03428, -2226.659912109375], [-125.70323, 47.02856, -2922.78857421875]]], [[[-125.68938, 46.99461, -3016.2958984375], [-125.68551, 47.00056, -2226.659912109375], [-125.68064, 46.99226, -2226.659912109375], [-125.68938, 46.99461, -3016.2958984375]]], [[[-125.72346, 47.03415, -4297.1083984375], [-125.72601, 47.04429, -4318.8408203125], [-125.71666, 47.04016, -3692.474853515625], [-125.72346, 47.03415, -4297.1083984375]]], [[[-125.73739, 47.11123, -3120.880126953125], [-125.73442, 47.11687, -2226.659912109375], [-125.73011, 47.10837, -2226.659912109375], [-125.73739, 47.11123, -3120.880126953125]]], [[[-125.78424, 47.14037, -5138.4560546875], [-125.79322, 47.13415, -5560.93212890625], [-125.79637, 47.14277, -5584.66650390625], [-125.78424, 47.14037, -5138.4560546875]]], [[[-125.75808, 47.00106, -5774.62890625], [-125.76735, 46.9942, -5980.8388671875], [-125.77158, 47.0026, -5982.45947265625], [-125.75808, 47.00106, -5774.62890625]]], [[[-125.70028, 47.0211, -2959.456787109375], [-125.69275, 47.0261, -2226.659912109375], [-125.69177, 47.01802, -2226.659912109375], [-125.70028, 47.0211, -2959.456787109375]]], [[[-125.75922, 47.12491, -4198.0888671875], [-125.76902, 47.12835, -4654.6474609375], [-125.75785, 47.13306, -3792.18359375], [-125.75922, 47.12491, -4198.0888671875]]], [[[-125.7469, 47.12893, -2976.983642578125], [-125.74943, 47.13801, -2954.643310546875], [-125.74103, 47.13423, -2226.659912109375], [-125.7469, 47.12893, -2976.983642578125]]], [[[-125.71785, 47.01763, -4299.935546875], [-125.72116, 47.02594, -4307.16796875], [-125.71049, 47.02343, -3671.921630859375], [-125.71785, 47.01763, -4299.935546875]]], [[[-125.75367, 46.99354, -5755.888671875], [-125.76735, 46.9942, -5980.8388671875], [-125.75808, 47.00106, -5774.62890625], [-125.75367, 46.99354, -5755.888671875]]], [[[-125.71093, 47.04588, -2994.03857421875], [-125.70688, 47.05123, -2226.659912109375], [-125.70228, 47.04281, -2226.659912109375], [-125.71093, 47.04588, -2994.03857421875]]], [[[-125.7812, 47.13109, -5146.99951171875], [-125.79322, 47.13415, -5560.93212890625], [-125.78424, 47.14037, -5138.4560546875], [-125.7812, 47.13109, -5146.99951171875]]], [[[-125.75749, 47.03765, -5549.3115234375], [-125.74468, 47.03437, -5241.6787109375], [-125.75668, 47.03037, -5571.5869140625], [-125.75749, 47.03765, -5549.3115234375]]], [[[-125.71312, 47.03124, -3627.393310546875], [-125.70323, 47.02856, -2922.78857421875], [-125.71049, 47.02343, -3671.921630859375], [-125.71312, 47.03124, -3627.393310546875]]], [[[-125.72424, 47.09132, -3101.15185546875], [-125.72477, 47.10015, -2226.659912109375], [-125.71831, 47.09232, -2226.659912109375], [-125.72424, 47.09132, -3101.15185546875]]], [[[-125.6832, 46.98573, -2941.42578125], [-125.68938, 46.99461, -3016.2958984375], [-125.68064, 46.99226, -2226.659912109375], [-125.6832, 46.98573, -2941.42578125]]], [[[-125.71666, 47.04016, -3692.474853515625], [-125.70749, 47.03694, -2956.1708984375], [-125.71312, 47.03124, -3627.393310546875], [-125.71666, 47.04016, -3692.474853515625]]], [[[-125.74526, 47.04198, -5213.21044921875], [-125.73401, 47.03821, -4790.67529296875], [-125.74468, 47.03437, -5241.6787109375], [-125.74526, 47.04198, -5213.21044921875]]], [[[-125.7812, 47.13109, -5146.99951171875], [-125.79099, 47.12539, -5557.23583984375], [-125.79322, 47.13415, -5560.93212890625], [-125.7812, 47.13109, -5146.99951171875]]], [[[-125.71049, 47.02343, -3671.921630859375], [-125.70028, 47.0211, -2959.456787109375], [-125.70683, 47.01563, -3656.33935546875], [-125.71049, 47.02343, -3671.921630859375]]], [[[-125.68358, 46.97216, -3586.976806640625], [-125.6733, 46.97143, -2881.772705078125], [-125.68011, 46.96476, -3610.825439453125], [-125.68358, 46.97216, -3586.976806640625]]], [[[-125.70962, 46.9805, -4727.74951171875], [-125.71367, 46.99018, -4706.82080078125], [-125.7038, 46.9898, -4255.0908203125], [-125.70962, 46.9805, -4727.74951171875]]], [[[-125.67201, 46.95684, -3245.02880859375], [-125.67718, 46.94954, -3879.678955078125], [-125.6841, 46.95737, -4093.143310546875], [-125.67201, 46.95684, -3245.02880859375]]], [[[-125.75727, 47.06713, -5513.94384765625], [-125.76688, 47.07533, -5628.7099609375], [-125.75433, 47.07738, -5430.419921875], [-125.75727, 47.06713, -5513.94384765625]]], [[[-125.77873, 47.12226, -5210.72119140625], [-125.79099, 47.12539, -5557.23583984375], [-125.7812, 47.13109, -5146.99951171875], [-125.77873, 47.12226, -5210.72119140625]]], [[[-125.71833, 47.0833, -3101.15185546875], [-125.72424, 47.09132, -3101.15185546875], [-125.71831, 47.09232, -2226.659912109375], [-125.71833, 47.0833, -3101.15185546875]]], [[[-125.66079, 46.95182, -2226.659912109375], [-125.67201, 46.95684, -3245.02880859375], [-125.66203, 46.95991, -2226.659912109375], [-125.66079, 46.95182, -2226.659912109375]]], [[[-125.74526, 47.04198, -5213.21044921875], [-125.75749, 47.03765, -5549.3115234375], [-125.75712, 47.04572, -5518.68359375], [-125.74526, 47.04198, -5213.21044921875]]], [[[-125.72964, 47.09498, -3686.07958984375], [-125.72424, 47.09132, -3101.15185546875], [-125.72771, 47.09077, -4062.2900390625], [-125.72964, 47.09498, -3686.07958984375]]], [[[-125.77873, 47.12226, -5210.72119140625], [-125.78895, 47.11661, -5567.24560546875], [-125.79099, 47.12539, -5557.23583984375], [-125.77873, 47.12226, -5210.72119140625]]], [[[-125.71752, 47.07626, -3432.667236328125], [-125.71364, 47.07802, -2910.6806640625], [-125.71087, 47.07207, -2852.22509765625], [-125.71752, 47.07626, -3432.667236328125]]], [[[-125.71876, 46.99843, -4755.89306640625], [-125.71367, 46.99018, -4706.82080078125], [-125.72584, 46.99175, -5097.345703125], [-125.71876, 46.99843, -4755.89306640625]]], [[[-125.72601, 47.04429, -4318.8408203125], [-125.71864, 47.05027, -3702.109130859375], [-125.71666, 47.04016, -3692.474853515625], [-125.72601, 47.04429, -4318.8408203125]]], [[[-125.77873, 47.12226, -5210.72119140625], [-125.77592, 47.11415, -5262.28369140625], [-125.78895, 47.11661, -5567.24560546875], [-125.77873, 47.12226, -5210.72119140625]]], [[[-125.70028, 47.0211, -2959.456787109375], [-125.70323, 47.02856, -2922.78857421875], [-125.69275, 47.0261, -2226.659912109375], [-125.70028, 47.0211, -2959.456787109375]]], [[[-125.7124, 47.05559, -2970.718994140625], [-125.71158, 47.06434, -2949.617919921875], [-125.70603, 47.05979, -2226.659912109375], [-125.7124, 47.05559, -2970.718994140625]]], [[[-125.75749, 47.03765, -5549.3115234375], [-125.75668, 47.03037, -5571.5869140625], [-125.76954, 47.03324, -5782.93359375], [-125.75749, 47.03765, -5549.3115234375]]], [[[-125.69874, 46.98094, -4212.001953125], [-125.7038, 46.9898, -4255.0908203125], [-125.69331, 46.98784, -3645.615234375], [-125.69874, 46.98094, -4212.001953125]]], [[[-125.73986, 47.1008, -4317.33203125], [-125.73729, 47.10438, -3749.28857421875], [-125.73417, 47.0986, -4062.2900390625], [-125.73986, 47.1008, -4317.33203125]]], [[[-125.71087, 47.07207, -2852.22509765625], [-125.70467, 47.07718, -2226.659912109375], [-125.70248, 47.06836, -2226.659912109375], [-125.71087, 47.07207, -2852.22509765625]]], [[[-125.75367, 46.99354, -5755.888671875], [-125.76189, 46.98613, -5975.9375], [-125.76735, 46.9942, -5980.8388671875], [-125.75367, 46.99354, -5755.888671875]]], [[[-125.72328, 47.08677, -3693.670166015625], [-125.72771, 47.09077, -4062.2900390625], [-125.72424, 47.09132, -3101.15185546875], [-125.72328, 47.08677, -3693.670166015625]]], [[[-125.76643, 47.11973, -4782.16015625], [-125.77592, 47.11415, -5262.28369140625], [-125.77873, 47.12226, -5210.72119140625], [-125.76643, 47.11973, -4782.16015625]]], [[[-125.66203, 46.95991, -2226.659912109375], [-125.67023, 46.96398, -2889.787109375], [-125.66301, 46.96888, -2226.659912109375], [-125.66203, 46.95991, -2226.659912109375]]], [[[-125.71093, 47.04588, -2994.03857421875], [-125.7124, 47.05559, -2970.718994140625], [-125.70688, 47.05123, -2226.659912109375], [-125.71093, 47.04588, -2994.03857421875]]], [[[-125.72737, 46.9532, -5666.54443359375], [-125.71853, 46.96191, -5326.73876953125], [-125.71709, 46.9528, -5411.16064453125], [-125.72737, 46.9532, -5666.54443359375]]], [[[-125.75749, 47.03765, -5549.3115234375], [-125.76957, 47.04135, -5759.2822265625], [-125.75712, 47.04572, -5518.68359375], [-125.75749, 47.03765, -5549.3115234375]]], [[[-125.76643, 47.11973, -4782.16015625], [-125.76355, 47.11106, -4918.96044921875], [-125.77592, 47.11415, -5262.28369140625], [-125.76643, 47.11973, -4782.16015625]]], [[[-125.72346, 47.03415, -4297.1083984375], [-125.71666, 47.04016, -3692.474853515625], [-125.71312, 47.03124, -3627.393310546875], [-125.72346, 47.03415, -4297.1083984375]]], [[[-125.66607, 46.97758, -2226.659912109375], [-125.67718, 46.97847, -2860.109619140625], [-125.67259, 46.98523, -2226.659912109375], [-125.66607, 46.97758, -2226.659912109375]]], [[[-125.71869, 47.06041, -3705.6865234375], [-125.7124, 47.05559, -2970.718994140625], [-125.71864, 47.05027, -3702.109130859375], [-125.71869, 47.06041, -3705.6865234375]]], [[[-125.75668, 47.03037, -5571.5869140625], [-125.76822, 47.0255, -5799.03076171875], [-125.76954, 47.03324, -5782.93359375], [-125.75668, 47.03037, -5571.5869140625]]], [[[-125.73719, 46.96926, -5693.61279296875], [-125.75034, 46.9702, -5961.607421875], [-125.74152, 46.97733, -5687.8505859375], [-125.73719, 46.96926, -5693.61279296875]]], [[[-125.76643, 47.11973, -4782.16015625], [-125.75571, 47.11607, -4374.8779296875], [-125.76355, 47.11106, -4918.96044921875], [-125.76643, 47.11973, -4782.16015625]]], [[[-125.77383, 47.07412, -5724.740234375], [-125.77279, 47.08335, -5628.7099609375], [-125.76688, 47.07533, -5628.7099609375], [-125.77383, 47.07412, -5724.740234375]]], [[[-125.73283, 47.02853, -4872.5185546875], [-125.72116, 47.02594, -4307.16796875], [-125.72963, 47.02003, -4831.048828125], [-125.73283, 47.02853, -4872.5185546875]]], [[[-125.75113, 47.12287, -3681.7255859375], [-125.7469, 47.12893, -2976.983642578125], [-125.74223, 47.11958, -3044.291015625], [-125.75113, 47.12287, -3681.7255859375]]], [[[-125.72584, 46.99175, -5097.345703125], [-125.71367, 46.99018, -4706.82080078125], [-125.72098, 46.98263, -5088.1259765625], [-125.72584, 46.99175, -5097.345703125]]], [[[-125.73206, 46.96102, -5676.95361328125], [-125.74009, 46.95388, -5932.83837890625], [-125.74484, 46.96215, -5948.60791015625], [-125.73206, 46.96102, -5676.95361328125]]], [[[-125.67201, 46.95684, -3245.02880859375], [-125.67023, 46.96398, -2889.787109375], [-125.66203, 46.95991, -2226.659912109375], [-125.67201, 46.95684, -3245.02880859375]]], [[[-125.75922, 47.12491, -4198.0888671875], [-125.75571, 47.11607, -4374.8779296875], [-125.76643, 47.11973, -4782.16015625], [-125.75922, 47.12491, -4198.0888671875]]], [[[-125.73206, 46.96102, -5676.95361328125], [-125.74484, 46.96215, -5948.60791015625], [-125.73719, 46.96926, -5693.61279296875], [-125.73206, 46.96102, -5676.95361328125]]], [[[-125.6733, 46.97143, -2881.772705078125], [-125.66607, 46.97758, -2226.659912109375], [-125.66301, 46.96888, -2226.659912109375], [-125.6733, 46.97143, -2881.772705078125]]], [[[-125.75571, 47.11607, -4374.8779296875], [-125.75922, 47.12491, -4198.0888671875], [-125.75113, 47.12287, -3681.7255859375], [-125.75571, 47.11607, -4374.8779296875]]], [[[-125.72249, 46.9448, -5656.5185546875], [-125.71709, 46.9528, -5411.16064453125], [-125.71025, 46.94492, -5344.13818359375], [-125.72249, 46.9448, -5656.5185546875]]], [[[-125.74591, 47.11529, -3711.830810546875], [-125.75571, 47.11607, -4374.8779296875], [-125.75113, 47.12287, -3681.7255859375], [-125.74591, 47.11529, -3711.830810546875]]], [[[-125.69729, 47.01253, -2984.31640625], [-125.69177, 47.01802, -2226.659912109375], [-125.68881, 47.00926, -2226.659912109375], [-125.69729, 47.01253, -2984.31640625]]], [[[-125.7667, 47.09323, -5430.419921875], [-125.75425, 47.09528, -5199.759765625], [-125.76024, 47.0854, -5430.419921875], [-125.7667, 47.09323, -5430.419921875]]], [[[-125.70028, 47.0211, -2959.456787109375], [-125.69177, 47.01802, -2226.659912109375], [-125.69729, 47.01253, -2984.31640625], [-125.70028, 47.0211, -2959.456787109375]]], [[[-125.75785, 47.13306, -3792.18359375], [-125.74943, 47.13801, -2954.643310546875], [-125.7469, 47.12893, -2976.983642578125], [-125.75785, 47.13306, -3792.18359375]]], [[[-125.7483, 46.98552, -5734.5849609375], [-125.75609, 46.97817, -5970.84375], [-125.76189, 46.98613, -5975.9375], [-125.7483, 46.98552, -5734.5849609375]]], [[[-125.74572, 47.11022, -4057.49072265625], [-125.75571, 47.11607, -4374.8779296875], [-125.74591, 47.11529, -3711.830810546875], [-125.74572, 47.11022, -4057.49072265625]]], [[[-125.71785, 47.01763, -4299.935546875], [-125.71049, 47.02343, -3671.921630859375], [-125.70683, 47.01563, -3656.33935546875], [-125.71785, 47.01763, -4299.935546875]]], [[[-125.68551, 47.00056, -2226.659912109375], [-125.6938, 47.0037, -3018.440185546875], [-125.68881, 47.00926, -2226.659912109375], [-125.68551, 47.00056, -2226.659912109375]]], [[[-125.73775, 47.09513, -4544.4599609375], [-125.73324, 47.09359, -4301.9287109375], [-125.73626, 47.08937, -4788.18994140625], [-125.73775, 47.09513, -4544.4599609375]]], [[[-125.69351, 46.97379, -4129.67626953125], [-125.68756, 46.97954, -3572.3994140625], [-125.68358, 46.97216, -3586.976806640625], [-125.69351, 46.97379, -4129.67626953125]]], [[[-125.699, 46.99736, -3711.659912109375], [-125.70325, 47.00707, -3705.120849609375], [-125.6938, 47.0037, -3018.440185546875], [-125.699, 46.99736, -3711.659912109375]]], [[[-125.73105, 46.99954, -5147.30615234375], [-125.73931, 46.99247, -5458.6298828125], [-125.74439, 47.00027, -5497.54052734375], [-125.73105, 46.99954, -5147.30615234375]]], [[[-125.70325, 47.00707, -3705.120849609375], [-125.70683, 47.01563, -3656.33935546875], [-125.69729, 47.01253, -2984.31640625], [-125.70325, 47.00707, -3705.120849609375]]], [[[-125.72737, 46.9532, -5666.54443359375], [-125.73206, 46.96102, -5676.95361328125], [-125.71853, 46.96191, -5326.73876953125], [-125.72737, 46.9532, -5666.54443359375]]], [[[-125.75571, 47.11607, -4374.8779296875], [-125.74572, 47.11022, -4057.49072265625], [-125.75302, 47.1076, -4642.23876953125], [-125.75571, 47.11607, -4374.8779296875]]], [[[-125.69601, 46.95608, -4703.9931640625], [-125.6841, 46.95737, -4093.143310546875], [-125.68729, 46.94891, -4493.8408203125], [-125.69601, 46.95608, -4703.9931640625]]], [[[-125.69729, 47.01253, -2984.31640625], [-125.70683, 47.01563, -3656.33935546875], [-125.70028, 47.0211, -2959.456787109375], [-125.69729, 47.01253, -2984.31640625]]], [[[-125.73719, 46.96926, -5693.61279296875], [-125.74484, 46.96215, -5948.60791015625], [-125.75034, 46.9702, -5961.607421875], [-125.73719, 46.96926, -5693.61279296875]]], [[[-125.75302, 47.1076, -4642.23876953125], [-125.76355, 47.11106, -4918.96044921875], [-125.75571, 47.11607, -4374.8779296875], [-125.75302, 47.1076, -4642.23876953125]]], [[[-125.70325, 47.00707, -3705.120849609375], [-125.69729, 47.01253, -2984.31640625], [-125.6938, 47.0037, -3018.440185546875], [-125.70325, 47.00707, -3705.120849609375]]], [[[-125.75302, 47.1076, -4642.23876953125], [-125.76167, 47.102, -5152.8818359375], [-125.76355, 47.11106, -4918.96044921875], [-125.75302, 47.1076, -4642.23876953125]]], [[[-125.74826, 47.10191, -4760.525390625], [-125.76167, 47.102, -5152.8818359375], [-125.75302, 47.1076, -4642.23876953125], [-125.74826, 47.10191, -4760.525390625]]], [[[-125.74826, 47.10191, -4760.525390625], [-125.75425, 47.09528, -5199.759765625], [-125.76167, 47.102, -5152.8818359375], [-125.74826, 47.10191, -4760.525390625]]], [[[-125.75425, 47.09528, -5199.759765625], [-125.74826, 47.10191, -4760.525390625], [-125.74273, 47.0972, -4788.18994140625], [-125.75425, 47.09528, -5199.759765625]]], [[[-125.73729, 47.10438, -3749.28857421875], [-125.73739, 47.11123, -3120.880126953125], [-125.7307, 47.09916, -3101.15185546875], [-125.73729, 47.10438, -3749.28857421875]]], [[[-125.74288, 47.09161, -4937.76513671875], [-125.75425, 47.09528, -5199.759765625], [-125.74273, 47.0972, -4788.18994140625], [-125.74288, 47.09161, -4937.76513671875]]], [[[-125.69874, 46.98094, -4212.001953125], [-125.68756, 46.97954, -3572.3994140625], [-125.69351, 46.97379, -4129.67626953125], [-125.69874, 46.98094, -4212.001953125]]], [[[-125.74273, 47.0972, -4788.18994140625], [-125.73775, 47.09513, -4544.4599609375], [-125.73626, 47.08937, -4788.18994140625], [-125.74273, 47.0972, -4788.18994140625]]], [[[-125.74288, 47.09161, -4937.76513671875], [-125.74778, 47.08745, -5199.759765625], [-125.75425, 47.09528, -5199.759765625], [-125.74288, 47.09161, -4937.76513671875]]], [[[-125.71709, 46.9528, -5411.16064453125], [-125.72249, 46.9448, -5656.5185546875], [-125.72737, 46.9532, -5666.54443359375], [-125.71709, 46.9528, -5411.16064453125]]], [[[-125.74288, 47.09161, -4937.76513671875], [-125.73776, 47.08469, -4943.34619140625], [-125.74778, 47.08745, -5199.759765625], [-125.74288, 47.09161, -4937.76513671875]]], [[[-125.73105, 46.99954, -5147.30615234375], [-125.71876, 46.99843, -4755.89306640625], [-125.72584, 46.99175, -5097.345703125], [-125.73105, 46.99954, -5147.30615234375]]], [[[-125.73776, 47.08469, -4943.34619140625], [-125.74288, 47.09161, -4937.76513671875], [-125.73626, 47.08937, -4788.18994140625], [-125.73776, 47.08469, -4943.34619140625]]], [[[-125.699, 46.99736, -3711.659912109375], [-125.68938, 46.99461, -3016.2958984375], [-125.69331, 46.98784, -3645.615234375], [-125.699, 46.99736, -3711.659912109375]]], [[[-125.73324, 47.09359, -4301.9287109375], [-125.73775, 47.09513, -4544.4599609375], [-125.73417, 47.0986, -4062.2900390625], [-125.73324, 47.09359, -4301.9287109375]]], [[[-125.73095, 47.08525, -4615.416015625], [-125.73776, 47.08469, -4943.34619140625], [-125.73626, 47.08937, -4788.18994140625], [-125.73095, 47.08525, -4615.416015625]]], [[[-125.73417, 47.0986, -4062.2900390625], [-125.72771, 47.09077, -4062.2900390625], [-125.73324, 47.09359, -4301.9287109375], [-125.73417, 47.0986, -4062.2900390625]]], [[[-125.69351, 46.97379, -4129.67626953125], [-125.68358, 46.97216, -3586.976806640625], [-125.69214, 46.96512, -4303.9873046875], [-125.69351, 46.97379, -4129.67626953125]]], [[[-125.73095, 47.08525, -4615.416015625], [-125.73036, 47.08135, -4788.18994140625], [-125.73776, 47.08469, -4943.34619140625], [-125.73095, 47.08525, -4615.416015625]]], [[[-125.72701, 47.05496, -4354.61328125], [-125.71869, 47.06041, -3705.6865234375], [-125.71864, 47.05027, -3702.109130859375], [-125.72701, 47.05496, -4354.61328125]]], [[[-125.73095, 47.08525, -4615.416015625], [-125.72562, 47.08094, -4385.876953125], [-125.73036, 47.08135, -4788.18994140625], [-125.73095, 47.08525, -4615.416015625]]], [[[-125.70739, 46.9544, -5128.1650390625], [-125.69872, 46.94697, -4927.650390625], [-125.71025, 46.94492, -5344.13818359375], [-125.70739, 46.9544, -5128.1650390625]]], [[[-125.73095, 47.08525, -4615.416015625], [-125.72625, 47.08585, -4226.29296875], [-125.72562, 47.08094, -4385.876953125], [-125.73095, 47.08525, -4615.416015625]]], [[[-125.71752, 47.07626, -3432.667236328125], [-125.71087, 47.07207, -2852.22509765625], [-125.71808, 47.06931, -3658.67822265625], [-125.71752, 47.07626, -3432.667236328125]]], [[[-125.69601, 46.95608, -4703.9931640625], [-125.69872, 46.94697, -4927.650390625], [-125.70739, 46.9544, -5128.1650390625], [-125.69601, 46.95608, -4703.9931640625]]], [[[-125.73102, 47.08935, -4392.89208984375], [-125.72625, 47.08585, -4226.29296875], [-125.73095, 47.08525, -4615.416015625], [-125.73102, 47.08935, -4392.89208984375]]], [[[-125.72625, 47.08585, -4226.29296875], [-125.73102, 47.08935, -4392.89208984375], [-125.72771, 47.09077, -4062.2900390625], [-125.72625, 47.08585, -4226.29296875]]], [[[-125.71752, 47.07626, -3432.667236328125], [-125.71833, 47.0833, -3101.15185546875], [-125.71364, 47.07802, -2910.6806640625], [-125.71752, 47.07626, -3432.667236328125]]], [[[-125.70749, 47.03694, -2956.1708984375], [-125.71093, 47.04588, -2994.03857421875], [-125.70228, 47.04281, -2226.659912109375], [-125.70749, 47.03694, -2956.1708984375]]], [[[-125.72771, 47.09077, -4062.2900390625], [-125.7218, 47.08275, -4062.2900390625], [-125.72625, 47.08585, -4226.29296875], [-125.72771, 47.09077, -4062.2900390625]]], [[[-125.74397, 47.1055, -4270.3095703125], [-125.74572, 47.11022, -4057.49072265625], [-125.73729, 47.10438, -3749.28857421875], [-125.74397, 47.1055, -4270.3095703125]]], [[[-125.72328, 47.08677, -3693.670166015625], [-125.7218, 47.08275, -4062.2900390625], [-125.72771, 47.09077, -4062.2900390625], [-125.72328, 47.08677, -3693.670166015625]]], [[[-125.70739, 46.9544, -5128.1650390625], [-125.71025, 46.94492, -5344.13818359375], [-125.71709, 46.9528, -5411.16064453125], [-125.70739, 46.9544, -5128.1650390625]]], [[[-125.72328, 47.08677, -3693.670166015625], [-125.72014, 47.08144, -3699.838134765625], [-125.7218, 47.08275, -4062.2900390625], [-125.72328, 47.08677, -3693.670166015625]]], [[[-125.71087, 47.07207, -2852.22509765625], [-125.71364, 47.07802, -2910.6806640625], [-125.70467, 47.07718, -2226.659912109375], [-125.71087, 47.07207, -2852.22509765625]]], [[[-125.72014, 47.08144, -3699.838134765625], [-125.72328, 47.08677, -3693.670166015625], [-125.71833, 47.0833, -3101.15185546875], [-125.72014, 47.08144, -3699.838134765625]]], [[[-125.73775, 47.09513, -4544.4599609375], [-125.73986, 47.1008, -4317.33203125], [-125.73417, 47.0986, -4062.2900390625], [-125.73775, 47.09513, -4544.4599609375]]], [[[-125.71752, 47.07626, -3432.667236328125], [-125.72014, 47.08144, -3699.838134765625], [-125.71833, 47.0833, -3101.15185546875], [-125.71752, 47.07626, -3432.667236328125]]], [[[-125.72014, 47.08144, -3699.838134765625], [-125.71752, 47.07626, -3432.667236328125], [-125.72207, 47.07706, -4014.81640625], [-125.72014, 47.08144, -3699.838134765625]]], [[[-125.72207, 47.07706, -4014.81640625], [-125.7218, 47.08275, -4062.2900390625], [-125.72014, 47.08144, -3699.838134765625], [-125.72207, 47.07706, -4014.81640625]]], [[[-125.6832, 46.98573, -2941.42578125], [-125.67259, 46.98523, -2226.659912109375], [-125.67718, 46.97847, -2860.109619140625], [-125.6832, 46.98573, -2941.42578125]]], [[[-125.72207, 47.07706, -4014.81640625], [-125.72562, 47.08094, -4385.876953125], [-125.7218, 47.08275, -4062.2900390625], [-125.72207, 47.07706, -4014.81640625]]], [[[-125.6832, 46.98573, -2941.42578125], [-125.68064, 46.99226, -2226.659912109375], [-125.67259, 46.98523, -2226.659912109375], [-125.6832, 46.98573, -2941.42578125]]], [[[-125.72207, 47.07706, -4014.81640625], [-125.72887, 47.07651, -4594.8486328125], [-125.72562, 47.08094, -4385.876953125], [-125.72207, 47.07706, -4014.81640625]]], [[[-125.72887, 47.07651, -4594.8486328125], [-125.72207, 47.07706, -4014.81640625], [-125.72444, 47.07182, -4267.50439453125], [-125.72887, 47.07651, -4594.8486328125]]], [[[-125.7326, 47.07026, -4773.52978515625], [-125.72887, 47.07651, -4594.8486328125], [-125.72444, 47.07182, -4267.50439453125], [-125.7326, 47.07026, -4773.52978515625]]], [[[-125.7326, 47.07026, -4773.52978515625], [-125.73608, 47.07598, -4958.74853515625], [-125.72887, 47.07651, -4594.8486328125], [-125.7326, 47.07026, -4773.52978515625]]], [[[-125.71364, 47.07802, -2910.6806640625], [-125.71241, 47.0843, -2226.659912109375], [-125.70467, 47.07718, -2226.659912109375], [-125.71364, 47.07802, -2910.6806640625]]], [[[-125.77492, 47.14711, -4660.244140625], [-125.78788, 47.14932, -5233.0966796875], [-125.78208, 47.15497, -5053.9423828125], [-125.77492, 47.14711, -4660.244140625]]], [[[-125.70962, 46.9805, -4727.74951171875], [-125.7038, 46.9898, -4255.0908203125], [-125.69874, 46.98094, -4212.001953125], [-125.70962, 46.9805, -4727.74951171875]]], [[[-125.73608, 47.07598, -4958.74853515625], [-125.7326, 47.07026, -4773.52978515625], [-125.74412, 47.07029, -5240.22314453125], [-125.73608, 47.07598, -4958.74853515625]]], [[[-125.72701, 47.05496, -4354.61328125], [-125.72528, 47.06473, -4299.18603515625], [-125.71869, 47.06041, -3705.6865234375], [-125.72701, 47.05496, -4354.61328125]]], [[[-125.73608, 47.07598, -4958.74853515625], [-125.74412, 47.07029, -5240.22314453125], [-125.74188, 47.07943, -5199.759765625], [-125.73608, 47.07598, -4958.74853515625]]], [[[-125.73608, 47.07598, -4958.74853515625], [-125.74188, 47.07943, -5199.759765625], [-125.73036, 47.08135, -4788.18994140625], [-125.73608, 47.07598, -4958.74853515625]]], [[[-125.74223, 47.11958, -3044.291015625], [-125.73863, 47.12539, -2226.659912109375], [-125.73442, 47.11687, -2226.659912109375], [-125.74223, 47.11958, -3044.291015625]]], [[[-125.75608, 47.16056, -3458.3076171875], [-125.76162, 47.15165, -3878.7578125], [-125.76358, 47.15993, -4197.28466796875], [-125.75608, 47.16056, -3458.3076171875]]], [[[-125.69874, 46.98094, -4212.001953125], [-125.69331, 46.98784, -3645.615234375], [-125.68756, 46.97954, -3572.3994140625], [-125.69874, 46.98094, -4212.001953125]]], [[[-125.73608, 47.07598, -4958.74853515625], [-125.73036, 47.08135, -4788.18994140625], [-125.72887, 47.07651, -4594.8486328125], [-125.73608, 47.07598, -4958.74853515625]]], [[[-125.72887, 47.07651, -4594.8486328125], [-125.73036, 47.08135, -4788.18994140625], [-125.72562, 47.08094, -4385.876953125], [-125.72887, 47.07651, -4594.8486328125]]], [[[-125.73776, 47.08469, -4943.34619140625], [-125.73036, 47.08135, -4788.18994140625], [-125.74188, 47.07943, -5199.759765625], [-125.73776, 47.08469, -4943.34619140625]]], [[[-125.73776, 47.08469, -4943.34619140625], [-125.74188, 47.07943, -5199.759765625], [-125.74778, 47.08745, -5199.759765625], [-125.73776, 47.08469, -4943.34619140625]]], [[[-125.74188, 47.07943, -5199.759765625], [-125.75433, 47.07738, -5430.419921875], [-125.74778, 47.08745, -5199.759765625], [-125.74188, 47.07943, -5199.759765625]]], [[[-125.70749, 47.03694, -2956.1708984375], [-125.70228, 47.04281, -2226.659912109375], [-125.6982, 47.03428, -2226.659912109375], [-125.70749, 47.03694, -2956.1708984375]]], [[[-125.73986, 47.1008, -4317.33203125], [-125.73775, 47.09513, -4544.4599609375], [-125.74273, 47.0972, -4788.18994140625], [-125.73986, 47.1008, -4317.33203125]]], [[[-125.75608, 47.16056, -3458.3076171875], [-125.75214, 47.16443, -2663.906005859375], [-125.74877, 47.16048, -2226.659912109375], [-125.75608, 47.16056, -3458.3076171875]]], [[[-125.69214, 46.96512, -4303.9873046875], [-125.68011, 46.96476, -3610.825439453125], [-125.6841, 46.95737, -4093.143310546875], [-125.69214, 46.96512, -4303.9873046875]]], [[[-125.74412, 47.07029, -5240.22314453125], [-125.75433, 47.07738, -5430.419921875], [-125.74188, 47.07943, -5199.759765625], [-125.74412, 47.07029, -5240.22314453125]]], [[[-125.74412, 47.07029, -5240.22314453125], [-125.75727, 47.06713, -5513.94384765625], [-125.75433, 47.07738, -5430.419921875], [-125.74412, 47.07029, -5240.22314453125]]], [[[-125.74412, 47.07029, -5240.22314453125], [-125.74738, 47.06136, -5273.869140625], [-125.75727, 47.06713, -5513.94384765625], [-125.74412, 47.07029, -5240.22314453125]]], [[[-125.74412, 47.07029, -5240.22314453125], [-125.73507, 47.06206, -4847.68994140625], [-125.74738, 47.06136, -5273.869140625], [-125.74412, 47.07029, -5240.22314453125]]], [[[-125.74412, 47.07029, -5240.22314453125], [-125.7326, 47.07026, -4773.52978515625], [-125.73507, 47.06206, -4847.68994140625], [-125.74412, 47.07029, -5240.22314453125]]], [[[-125.70028, 47.0211, -2959.456787109375], [-125.71049, 47.02343, -3671.921630859375], [-125.70323, 47.02856, -2922.78857421875], [-125.70028, 47.0211, -2959.456787109375]]], [[[-125.72528, 47.06473, -4299.18603515625], [-125.73507, 47.06206, -4847.68994140625], [-125.7326, 47.07026, -4773.52978515625], [-125.72528, 47.06473, -4299.18603515625]]], [[[-125.73729, 47.10438, -3749.28857421875], [-125.7307, 47.09916, -3101.15185546875], [-125.73417, 47.0986, -4062.2900390625], [-125.73729, 47.10438, -3749.28857421875]]], [[[-125.73507, 47.06206, -4847.68994140625], [-125.72528, 47.06473, -4299.18603515625], [-125.72701, 47.05496, -4354.61328125], [-125.73507, 47.06206, -4847.68994140625]]], [[[-125.73556, 47.04915, -4816.27734375], [-125.73507, 47.06206, -4847.68994140625], [-125.72701, 47.05496, -4354.61328125], [-125.73556, 47.04915, -4816.27734375]]], [[[-125.73507, 47.06206, -4847.68994140625], [-125.73556, 47.04915, -4816.27734375], [-125.74529, 47.0515, -5199.72705078125], [-125.73507, 47.06206, -4847.68994140625]]], [[[-125.73507, 47.06206, -4847.68994140625], [-125.74529, 47.0515, -5199.72705078125], [-125.74738, 47.06136, -5273.869140625], [-125.73507, 47.06206, -4847.68994140625]]], [[[-125.71869, 47.06041, -3705.6865234375], [-125.71158, 47.06434, -2949.617919921875], [-125.7124, 47.05559, -2970.718994140625], [-125.71869, 47.06041, -3705.6865234375]]], [[[-125.71785, 47.01763, -4299.935546875], [-125.70683, 47.01563, -3656.33935546875], [-125.7136, 47.00972, -4256.228515625], [-125.71785, 47.01763, -4299.935546875]]], [[[-125.74826, 47.10191, -4760.525390625], [-125.73986, 47.1008, -4317.33203125], [-125.74273, 47.0972, -4788.18994140625], [-125.74826, 47.10191, -4760.525390625]]], [[[-125.72601, 47.04429, -4318.8408203125], [-125.73556, 47.04915, -4816.27734375], [-125.72701, 47.05496, -4354.61328125], [-125.72601, 47.04429, -4318.8408203125]]], [[[-125.72116, 47.02594, -4307.16796875], [-125.72346, 47.03415, -4297.1083984375], [-125.71312, 47.03124, -3627.393310546875], [-125.72116, 47.02594, -4307.16796875]]], [[[-125.74529, 47.0515, -5199.72705078125], [-125.75678, 47.05521, -5499.3583984375], [-125.74738, 47.06136, -5273.869140625], [-125.74529, 47.0515, -5199.72705078125]]], [[[-125.74397, 47.1055, -4270.3095703125], [-125.74826, 47.10191, -4760.525390625], [-125.75302, 47.1076, -4642.23876953125], [-125.74397, 47.1055, -4270.3095703125]]], [[[-125.7038, 46.9898, -4255.0908203125], [-125.70941, 47.00012, -4286.3623046875], [-125.699, 46.99736, -3711.659912109375], [-125.7038, 46.9898, -4255.0908203125]]], [[[-125.74529, 47.0515, -5199.72705078125], [-125.75712, 47.04572, -5518.68359375], [-125.75678, 47.05521, -5499.3583984375], [-125.74529, 47.0515, -5199.72705078125]]], [[[-125.7038, 46.9898, -4255.0908203125], [-125.699, 46.99736, -3711.659912109375], [-125.69331, 46.98784, -3645.615234375], [-125.7038, 46.9898, -4255.0908203125]]], [[[-125.71808, 47.06931, -3658.67822265625], [-125.71158, 47.06434, -2949.617919921875], [-125.71869, 47.06041, -3705.6865234375], [-125.71808, 47.06931, -3658.67822265625]]], [[[-125.74529, 47.0515, -5199.72705078125], [-125.74526, 47.04198, -5213.21044921875], [-125.75712, 47.04572, -5518.68359375], [-125.74529, 47.0515, -5199.72705078125]]], [[[-125.70941, 47.00012, -4286.3623046875], [-125.70325, 47.00707, -3705.120849609375], [-125.699, 46.99736, -3711.659912109375], [-125.70941, 47.00012, -4286.3623046875]]], [[[-125.73556, 47.04915, -4816.27734375], [-125.74526, 47.04198, -5213.21044921875], [-125.74529, 47.0515, -5199.72705078125], [-125.73556, 47.04915, -4816.27734375]]], [[[-125.73283, 47.02853, -4872.5185546875], [-125.72346, 47.03415, -4297.1083984375], [-125.72116, 47.02594, -4307.16796875], [-125.73283, 47.02853, -4872.5185546875]]], [[[-125.73556, 47.04915, -4816.27734375], [-125.73401, 47.03821, -4790.67529296875], [-125.74526, 47.04198, -5213.21044921875], [-125.73556, 47.04915, -4816.27734375]]], [[[-125.73401, 47.03821, -4790.67529296875], [-125.73556, 47.04915, -4816.27734375], [-125.72601, 47.04429, -4318.8408203125], [-125.73401, 47.03821, -4790.67529296875]]], [[[-125.73729, 47.10438, -3749.28857421875], [-125.74572, 47.11022, -4057.49072265625], [-125.73739, 47.11123, -3120.880126953125], [-125.73729, 47.10438, -3749.28857421875]]], [[[-125.72346, 47.03415, -4297.1083984375], [-125.73401, 47.03821, -4790.67529296875], [-125.72601, 47.04429, -4318.8408203125], [-125.72346, 47.03415, -4297.1083984375]]], [[[-125.71666, 47.04016, -3692.474853515625], [-125.71864, 47.05027, -3702.109130859375], [-125.71093, 47.04588, -2994.03857421875], [-125.71666, 47.04016, -3692.474853515625]]], [[[-125.70323, 47.02856, -2922.78857421875], [-125.6982, 47.03428, -2226.659912109375], [-125.69275, 47.0261, -2226.659912109375], [-125.70323, 47.02856, -2922.78857421875]]], [[[-125.73283, 47.02853, -4872.5185546875], [-125.73401, 47.03821, -4790.67529296875], [-125.72346, 47.03415, -4297.1083984375], [-125.73283, 47.02853, -4872.5185546875]]], [[[-125.72963, 47.02003, -4831.048828125], [-125.71785, 47.01763, -4299.935546875], [-125.72632, 47.01231, -4807.0712890625], [-125.72963, 47.02003, -4831.048828125]]], [[[-125.74397, 47.1055, -4270.3095703125], [-125.75302, 47.1076, -4642.23876953125], [-125.74572, 47.11022, -4057.49072265625], [-125.74397, 47.1055, -4270.3095703125]]], [[[-125.73401, 47.03821, -4790.67529296875], [-125.73283, 47.02853, -4872.5185546875], [-125.74468, 47.03437, -5241.6787109375], [-125.73401, 47.03821, -4790.67529296875]]], [[[-125.71367, 46.99018, -4706.82080078125], [-125.70962, 46.9805, -4727.74951171875], [-125.72098, 46.98263, -5088.1259765625], [-125.71367, 46.99018, -4706.82080078125]]], [[[-125.71367, 46.99018, -4706.82080078125], [-125.70941, 47.00012, -4286.3623046875], [-125.7038, 46.9898, -4255.0908203125], [-125.71367, 46.99018, -4706.82080078125]]], [[[-125.75749, 47.03765, -5549.3115234375], [-125.74526, 47.04198, -5213.21044921875], [-125.74468, 47.03437, -5241.6787109375], [-125.75749, 47.03765, -5549.3115234375]]], [[[-125.73206, 46.96102, -5676.95361328125], [-125.72737, 46.9532, -5666.54443359375], [-125.74009, 46.95388, -5932.83837890625], [-125.73206, 46.96102, -5676.95361328125]]], [[[-125.69729, 47.01253, -2984.31640625], [-125.68881, 47.00926, -2226.659912109375], [-125.6938, 47.0037, -3018.440185546875], [-125.69729, 47.01253, -2984.31640625]]], [[[-125.7307, 47.09916, -3101.15185546875], [-125.73011, 47.10837, -2226.659912109375], [-125.72477, 47.10015, -2226.659912109375], [-125.7307, 47.09916, -3101.15185546875]]], [[[-125.7307, 47.09916, -3101.15185546875], [-125.73739, 47.11123, -3120.880126953125], [-125.73011, 47.10837, -2226.659912109375], [-125.7307, 47.09916, -3101.15185546875]]], [[[-125.74223, 47.11958, -3044.291015625], [-125.73442, 47.11687, -2226.659912109375], [-125.73739, 47.11123, -3120.880126953125], [-125.74223, 47.11958, -3044.291015625]]], [[[-125.75749, 47.03765, -5549.3115234375], [-125.76954, 47.03324, -5782.93359375], [-125.76957, 47.04135, -5759.2822265625], [-125.75749, 47.03765, -5549.3115234375]]], [[[-125.67023, 46.96398, -2889.787109375], [-125.6733, 46.97143, -2881.772705078125], [-125.66301, 46.96888, -2226.659912109375], [-125.67023, 46.96398, -2889.787109375]]], [[[-125.71367, 46.99018, -4706.82080078125], [-125.71876, 46.99843, -4755.89306640625], [-125.70941, 47.00012, -4286.3623046875], [-125.71367, 46.99018, -4706.82080078125]]], [[[-125.75668, 47.03037, -5571.5869140625], [-125.75506, 47.02317, -5575.1337890625], [-125.76822, 47.0255, -5799.03076171875], [-125.75668, 47.03037, -5571.5869140625]]], [[[-125.71364, 47.07802, -2910.6806640625], [-125.71833, 47.0833, -3101.15185546875], [-125.71241, 47.0843, -2226.659912109375], [-125.71364, 47.07802, -2910.6806640625]]], [[[-125.76822, 47.0255, -5799.03076171875], [-125.78131, 47.02839, -5953.62841796875], [-125.76954, 47.03324, -5782.93359375], [-125.76822, 47.0255, -5799.03076171875]]], [[[-125.7124, 47.05559, -2970.718994140625], [-125.70603, 47.05979, -2226.659912109375], [-125.70688, 47.05123, -2226.659912109375], [-125.7124, 47.05559, -2970.718994140625]]], [[[-125.68756, 46.97954, -3572.3994140625], [-125.6832, 46.98573, -2941.42578125], [-125.67718, 46.97847, -2860.109619140625], [-125.68756, 46.97954, -3572.3994140625]]], [[[-125.70323, 47.02856, -2922.78857421875], [-125.71312, 47.03124, -3627.393310546875], [-125.70749, 47.03694, -2956.1708984375], [-125.70323, 47.02856, -2922.78857421875]]], [[[-125.76822, 47.0255, -5799.03076171875], [-125.77897, 47.01965, -5969.4189453125], [-125.78131, 47.02839, -5953.62841796875], [-125.76822, 47.0255, -5799.03076171875]]], [[[-125.6733, 46.97143, -2881.772705078125], [-125.67718, 46.97847, -2860.109619140625], [-125.66607, 46.97758, -2226.659912109375], [-125.6733, 46.97143, -2881.772705078125]]], [[[-125.7655, 47.01764, -5797.47998046875], [-125.77897, 47.01965, -5969.4189453125], [-125.76822, 47.0255, -5799.03076171875], [-125.7655, 47.01764, -5797.47998046875]]], [[[-125.7655, 47.01764, -5797.47998046875], [-125.7752, 47.01114, -5979.068359375], [-125.77897, 47.01965, -5969.4189453125], [-125.7655, 47.01764, -5797.47998046875]]], [[[-125.68011, 46.96476, -3610.825439453125], [-125.67201, 46.95684, -3245.02880859375], [-125.6841, 46.95737, -4093.143310546875], [-125.68011, 46.96476, -3610.825439453125]]], [[[-125.76182, 47.00915, -5786.0576171875], [-125.7752, 47.01114, -5979.068359375], [-125.7655, 47.01764, -5797.47998046875], [-125.76182, 47.00915, -5786.0576171875]]], [[[-125.76182, 47.00915, -5786.0576171875], [-125.77158, 47.0026, -5982.45947265625], [-125.7752, 47.01114, -5979.068359375], [-125.76182, 47.00915, -5786.0576171875]]], [[[-125.75808, 47.00106, -5774.62890625], [-125.77158, 47.0026, -5982.45947265625], [-125.76182, 47.00915, -5786.0576171875], [-125.75808, 47.00106, -5774.62890625]]], [[[-125.71158, 47.06434, -2949.617919921875], [-125.70248, 47.06836, -2226.659912109375], [-125.70603, 47.05979, -2226.659912109375], [-125.71158, 47.06434, -2949.617919921875]]], [[[-125.71864, 47.05027, -3702.109130859375], [-125.7124, 47.05559, -2970.718994140625], [-125.71093, 47.04588, -2994.03857421875], [-125.71864, 47.05027, -3702.109130859375]]], [[[-125.7483, 46.98552, -5734.5849609375], [-125.76189, 46.98613, -5975.9375], [-125.75367, 46.99354, -5755.888671875], [-125.7483, 46.98552, -5734.5849609375]]], [[[-125.67201, 46.95684, -3245.02880859375], [-125.66852, 46.94909, -3211.53173828125], [-125.67718, 46.94954, -3879.678955078125], [-125.67201, 46.95684, -3245.02880859375]]], [[[-125.74152, 46.97733, -5687.8505859375], [-125.75609, 46.97817, -5970.84375], [-125.7483, 46.98552, -5734.5849609375], [-125.74152, 46.97733, -5687.8505859375]]], [[[-125.74152, 46.97733, -5687.8505859375], [-125.75034, 46.9702, -5961.607421875], [-125.75609, 46.97817, -5970.84375], [-125.74152, 46.97733, -5687.8505859375]]], [[[-125.72964, 47.09498, -3686.07958984375], [-125.72771, 47.09077, -4062.2900390625], [-125.73417, 47.0986, -4062.2900390625], [-125.72964, 47.09498, -3686.07958984375]]], [[[-125.69601, 46.95608, -4703.9931640625], [-125.68729, 46.94891, -4493.8408203125], [-125.69872, 46.94697, -4927.650390625], [-125.69601, 46.95608, -4703.9931640625]]], [[[-125.69214, 46.96512, -4303.9873046875], [-125.6841, 46.95737, -4093.143310546875], [-125.69601, 46.95608, -4703.9931640625], [-125.69214, 46.96512, -4303.9873046875]]], [[[-125.74397, 47.1055, -4270.3095703125], [-125.73729, 47.10438, -3749.28857421875], [-125.73986, 47.1008, -4317.33203125], [-125.74397, 47.1055, -4270.3095703125]]], [[[-125.69214, 46.96512, -4303.9873046875], [-125.68358, 46.97216, -3586.976806640625], [-125.68011, 46.96476, -3610.825439453125], [-125.69214, 46.96512, -4303.9873046875]]], [[[-125.72964, 47.09498, -3686.07958984375], [-125.73417, 47.0986, -4062.2900390625], [-125.7307, 47.09916, -3101.15185546875], [-125.72964, 47.09498, -3686.07958984375]]], [[[-125.699, 46.99736, -3711.659912109375], [-125.6938, 47.0037, -3018.440185546875], [-125.68938, 46.99461, -3016.2958984375], [-125.699, 46.99736, -3711.659912109375]]], [[[-125.7136, 47.00972, -4256.228515625], [-125.70325, 47.00707, -3705.120849609375], [-125.70941, 47.00012, -4286.3623046875], [-125.7136, 47.00972, -4256.228515625]]], [[[-125.7136, 47.00972, -4256.228515625], [-125.70683, 47.01563, -3656.33935546875], [-125.70325, 47.00707, -3705.120849609375], [-125.7136, 47.00972, -4256.228515625]]], [[[-125.72963, 47.02003, -4831.048828125], [-125.72116, 47.02594, -4307.16796875], [-125.71785, 47.01763, -4299.935546875], [-125.72963, 47.02003, -4831.048828125]]], [[[-125.68938, 46.99461, -3016.2958984375], [-125.6938, 47.0037, -3018.440185546875], [-125.68551, 47.00056, -2226.659912109375], [-125.68938, 46.99461, -3016.2958984375]]], [[[-125.72562, 47.08094, -4385.876953125], [-125.72625, 47.08585, -4226.29296875], [-125.7218, 47.08275, -4062.2900390625], [-125.72562, 47.08094, -4385.876953125]]], [[[-125.72964, 47.09498, -3686.07958984375], [-125.7307, 47.09916, -3101.15185546875], [-125.72424, 47.09132, -3101.15185546875], [-125.72964, 47.09498, -3686.07958984375]]], [[[-125.71087, 47.07207, -2852.22509765625], [-125.70248, 47.06836, -2226.659912109375], [-125.71158, 47.06434, -2949.617919921875], [-125.71087, 47.07207, -2852.22509765625]]], [[[-125.76688, 47.07533, -5628.7099609375], [-125.76024, 47.0854, -5430.419921875], [-125.75433, 47.07738, -5430.419921875], [-125.76688, 47.07533, -5628.7099609375]]], [[[-125.72116, 47.02594, -4307.16796875], [-125.71312, 47.03124, -3627.393310546875], [-125.71049, 47.02343, -3671.921630859375], [-125.72116, 47.02594, -4307.16796875]]], [[[-125.69331, 46.98784, -3645.615234375], [-125.68938, 46.99461, -3016.2958984375], [-125.6832, 46.98573, -2941.42578125], [-125.69331, 46.98784, -3645.615234375]]], [[[-125.69331, 46.98784, -3645.615234375], [-125.6832, 46.98573, -2941.42578125], [-125.68756, 46.97954, -3572.3994140625], [-125.69331, 46.98784, -3645.615234375]]], [[[-125.67201, 46.95684, -3245.02880859375], [-125.68011, 46.96476, -3610.825439453125], [-125.67023, 46.96398, -2889.787109375], [-125.67201, 46.95684, -3245.02880859375]]], [[[-125.68756, 46.97954, -3572.3994140625], [-125.67718, 46.97847, -2860.109619140625], [-125.68358, 46.97216, -3586.976806640625], [-125.68756, 46.97954, -3572.3994140625]]], [[[-125.6733, 46.97143, -2881.772705078125], [-125.68358, 46.97216, -3586.976806640625], [-125.67718, 46.97847, -2860.109619140625], [-125.6733, 46.97143, -2881.772705078125]]], [[[-125.71833, 47.0833, -3101.15185546875], [-125.71831, 47.09232, -2226.659912109375], [-125.71241, 47.0843, -2226.659912109375], [-125.71833, 47.0833, -3101.15185546875]]], [[[-125.71808, 47.06931, -3658.67822265625], [-125.71869, 47.06041, -3705.6865234375], [-125.72528, 47.06473, -4299.18603515625], [-125.71808, 47.06931, -3658.67822265625]]], [[[-125.71808, 47.06931, -3658.67822265625], [-125.71087, 47.07207, -2852.22509765625], [-125.71158, 47.06434, -2949.617919921875], [-125.71808, 47.06931, -3658.67822265625]]], [[[-125.72328, 47.08677, -3693.670166015625], [-125.72424, 47.09132, -3101.15185546875], [-125.71833, 47.0833, -3101.15185546875], [-125.72328, 47.08677, -3693.670166015625]]], [[[-125.72424, 47.09132, -3101.15185546875], [-125.7307, 47.09916, -3101.15185546875], [-125.72477, 47.10015, -2226.659912109375], [-125.72424, 47.09132, -3101.15185546875]]], [[[-125.74223, 47.11958, -3044.291015625], [-125.7469, 47.12893, -2976.983642578125], [-125.73863, 47.12539, -2226.659912109375], [-125.74223, 47.11958, -3044.291015625]]], [[[-125.75785, 47.13306, -3792.18359375], [-125.7469, 47.12893, -2976.983642578125], [-125.75113, 47.12287, -3681.7255859375], [-125.75785, 47.13306, -3792.18359375]]], [[[-125.75775, 47.14215, -3583.127197265625], [-125.74943, 47.13801, -2954.643310546875], [-125.75785, 47.13306, -3792.18359375], [-125.75775, 47.14215, -3583.127197265625]]], [[[-125.74943, 47.13801, -2954.643310546875], [-125.75775, 47.14215, -3583.127197265625], [-125.75171, 47.1468, -3007.434814453125], [-125.74943, 47.13801, -2954.643310546875]]], [[[-125.74943, 47.13801, -2954.643310546875], [-125.75171, 47.1468, -3007.434814453125], [-125.74382, 47.14299, -2226.659912109375], [-125.74943, 47.13801, -2954.643310546875]]], [[[-125.74943, 47.13801, -2954.643310546875], [-125.74382, 47.14299, -2226.659912109375], [-125.74103, 47.13423, -2226.659912109375], [-125.74943, 47.13801, -2954.643310546875]]], [[[-125.7469, 47.12893, -2976.983642578125], [-125.74103, 47.13423, -2226.659912109375], [-125.73863, 47.12539, -2226.659912109375], [-125.7469, 47.12893, -2976.983642578125]]], [[[-125.75171, 47.1468, -3007.434814453125], [-125.7457, 47.15177, -2226.659912109375], [-125.74382, 47.14299, -2226.659912109375], [-125.75171, 47.1468, -3007.434814453125]]], [[[-125.75171, 47.1468, -3007.434814453125], [-125.7527, 47.15492, -3028.38916015625], [-125.7457, 47.15177, -2226.659912109375], [-125.75171, 47.1468, -3007.434814453125]]], [[[-125.75171, 47.1468, -3007.434814453125], [-125.76162, 47.15165, -3878.7578125], [-125.7527, 47.15492, -3028.38916015625], [-125.75171, 47.1468, -3007.434814453125]]], [[[-125.76162, 47.15165, -3878.7578125], [-125.75171, 47.1468, -3007.434814453125], [-125.75775, 47.14215, -3583.127197265625], [-125.76162, 47.15165, -3878.7578125]]], [[[-125.76533, 47.14238, -4138.7734375], [-125.76162, 47.15165, -3878.7578125], [-125.75775, 47.14215, -3583.127197265625], [-125.76533, 47.14238, -4138.7734375]]], [[[-125.76533, 47.14238, -4138.7734375], [-125.77492, 47.14711, -4660.244140625], [-125.76162, 47.15165, -3878.7578125], [-125.76533, 47.14238, -4138.7734375]]], [[[-125.77492, 47.14711, -4660.244140625], [-125.76533, 47.14238, -4138.7734375], [-125.77184, 47.13691, -4618.87890625], [-125.77492, 47.14711, -4660.244140625]]], [[[-125.77184, 47.13691, -4618.87890625], [-125.78424, 47.14037, -5138.4560546875], [-125.77492, 47.14711, -4660.244140625], [-125.77184, 47.13691, -4618.87890625]]], [[[-125.77184, 47.13691, -4618.87890625], [-125.7812, 47.13109, -5146.99951171875], [-125.78424, 47.14037, -5138.4560546875], [-125.77184, 47.13691, -4618.87890625]]], [[[-125.76902, 47.12835, -4654.6474609375], [-125.7812, 47.13109, -5146.99951171875], [-125.77184, 47.13691, -4618.87890625], [-125.76902, 47.12835, -4654.6474609375]]], [[[-125.76902, 47.12835, -4654.6474609375], [-125.77873, 47.12226, -5210.72119140625], [-125.7812, 47.13109, -5146.99951171875], [-125.76902, 47.12835, -4654.6474609375]]], [[[-125.76902, 47.12835, -4654.6474609375], [-125.76643, 47.11973, -4782.16015625], [-125.77873, 47.12226, -5210.72119140625], [-125.76902, 47.12835, -4654.6474609375]]], [[[-125.75922, 47.12491, -4198.0888671875], [-125.76643, 47.11973, -4782.16015625], [-125.76902, 47.12835, -4654.6474609375], [-125.75922, 47.12491, -4198.0888671875]]], [[[-125.74439, 47.00027, -5497.54052734375], [-125.73931, 46.99247, -5458.6298828125], [-125.75367, 46.99354, -5755.888671875], [-125.74439, 47.00027, -5497.54052734375]]], [[[-125.75922, 47.12491, -4198.0888671875], [-125.75785, 47.13306, -3792.18359375], [-125.75113, 47.12287, -3681.7255859375], [-125.75922, 47.12491, -4198.0888671875]]], [[[-125.73378, 46.98446, -5417.9306640625], [-125.74152, 46.97733, -5687.8505859375], [-125.7483, 46.98552, -5734.5849609375], [-125.73378, 46.98446, -5417.9306640625]]], [[[-125.77184, 47.13691, -4618.87890625], [-125.75785, 47.13306, -3792.18359375], [-125.76902, 47.12835, -4654.6474609375], [-125.77184, 47.13691, -4618.87890625]]], [[[-125.75785, 47.13306, -3792.18359375], [-125.77184, 47.13691, -4618.87890625], [-125.76533, 47.14238, -4138.7734375], [-125.75785, 47.13306, -3792.18359375]]], [[[-125.75785, 47.13306, -3792.18359375], [-125.76533, 47.14238, -4138.7734375], [-125.75775, 47.14215, -3583.127197265625], [-125.75785, 47.13306, -3792.18359375]]], [[[-125.77492, 47.14711, -4660.244140625], [-125.78424, 47.14037, -5138.4560546875], [-125.78788, 47.14932, -5233.0966796875], [-125.77492, 47.14711, -4660.244140625]]], [[[-125.77492, 47.14711, -4660.244140625], [-125.78208, 47.15497, -5053.9423828125], [-125.77173, 47.15659, -4603.64453125], [-125.77492, 47.14711, -4660.244140625]]], [[[-125.76162, 47.15165, -3878.7578125], [-125.77492, 47.14711, -4660.244140625], [-125.77173, 47.15659, -4603.64453125], [-125.76162, 47.15165, -3878.7578125]]], [[[-125.76162, 47.15165, -3878.7578125], [-125.77173, 47.15659, -4603.64453125], [-125.76358, 47.15993, -4197.28466796875], [-125.76162, 47.15165, -3878.7578125]]], [[[-125.76162, 47.15165, -3878.7578125], [-125.75608, 47.16056, -3458.3076171875], [-125.7527, 47.15492, -3028.38916015625], [-125.76162, 47.15165, -3878.7578125]]], [[[-125.7527, 47.15492, -3028.38916015625], [-125.75608, 47.16056, -3458.3076171875], [-125.74877, 47.16048, -2226.659912109375], [-125.7527, 47.15492, -3028.38916015625]]], [[[-125.7527, 47.15492, -3028.38916015625], [-125.74877, 47.16048, -2226.659912109375], [-125.7457, 47.15177, -2226.659912109375], [-125.7527, 47.15492, -3028.38916015625]]], [[[-125.75608, 47.16056, -3458.3076171875], [-125.75551, 47.16839, -3101.15185546875], [-125.75214, 47.16443, -2663.906005859375], [-125.75608, 47.16056, -3458.3076171875]]], [[[-125.75608, 47.16056, -3458.3076171875], [-125.75958, 47.16657, -4061.598388671875], [-125.75551, 47.16839, -3101.15185546875], [-125.75608, 47.16056, -3458.3076171875]]], [[[-125.75608, 47.16056, -3458.3076171875], [-125.76358, 47.15993, -4197.28466796875], [-125.75958, 47.16657, -4061.598388671875], [-125.75608, 47.16056, -3458.3076171875]]], [[[-125.75958, 47.16657, -4061.598388671875], [-125.76358, 47.15993, -4197.28466796875], [-125.76861, 47.16476, -4795.08203125], [-125.75958, 47.16657, -4061.598388671875]]], [[[-125.77173, 47.15659, -4603.64453125], [-125.76861, 47.16476, -4795.08203125], [-125.76358, 47.15993, -4197.28466796875], [-125.77173, 47.15659, -4603.64453125]]], [[[-125.77173, 47.15659, -4603.64453125], [-125.77882, 47.16326, -5149.62255859375], [-125.76861, 47.16476, -4795.08203125], [-125.77173, 47.15659, -4603.64453125]]], [[[-125.77173, 47.15659, -4603.64453125], [-125.78208, 47.15497, -5053.9423828125], [-125.77882, 47.16326, -5149.62255859375], [-125.77173, 47.15659, -4603.64453125]]], [[[-125.78208, 47.15497, -5053.9423828125], [-125.79096, 47.16133, -5364.79541015625], [-125.77882, 47.16326, -5149.62255859375], [-125.78208, 47.15497, -5053.9423828125]]], [[[-125.78208, 47.15497, -5053.9423828125], [-125.78788, 47.14932, -5233.0966796875], [-125.79096, 47.16133, -5364.79541015625], [-125.78208, 47.15497, -5053.9423828125]]], [[[-125.74957, 47.16939, -2226.659912109375], [-125.75214, 47.16443, -2663.906005859375], [-125.75551, 47.16839, -3101.15185546875], [-125.74957, 47.16939, -2226.659912109375]]], [[[-125.74957, 47.16939, -2226.659912109375], [-125.74877, 47.16048, -2226.659912109375], [-125.75214, 47.16443, -2663.906005859375], [-125.74957, 47.16939, -2226.659912109375]]], [[[-125.74591, 47.11529, -3711.830810546875], [-125.75113, 47.12287, -3681.7255859375], [-125.74223, 47.11958, -3044.291015625], [-125.74591, 47.11529, -3711.830810546875]]], [[[-125.74591, 47.11529, -3711.830810546875], [-125.74223, 47.11958, -3044.291015625], [-125.73739, 47.11123, -3120.880126953125], [-125.74591, 47.11529, -3711.830810546875]]], [[[-125.74572, 47.11022, -4057.49072265625], [-125.74591, 47.11529, -3711.830810546875], [-125.73739, 47.11123, -3120.880126953125], [-125.74572, 47.11022, -4057.49072265625]]], [[[-125.74273, 47.0972, -4788.18994140625], [-125.73626, 47.08937, -4788.18994140625], [-125.74288, 47.09161, -4937.76513671875], [-125.74273, 47.0972, -4788.18994140625]]], [[[-125.73102, 47.08935, -4392.89208984375], [-125.73626, 47.08937, -4788.18994140625], [-125.73324, 47.09359, -4301.9287109375], [-125.73102, 47.08935, -4392.89208984375]]], [[[-125.73102, 47.08935, -4392.89208984375], [-125.73095, 47.08525, -4615.416015625], [-125.73626, 47.08937, -4788.18994140625], [-125.73102, 47.08935, -4392.89208984375]]], [[[-125.73102, 47.08935, -4392.89208984375], [-125.73324, 47.09359, -4301.9287109375], [-125.72771, 47.09077, -4062.2900390625], [-125.73102, 47.08935, -4392.89208984375]]], [[[-125.71808, 47.06931, -3658.67822265625], [-125.72207, 47.07706, -4014.81640625], [-125.71752, 47.07626, -3432.667236328125], [-125.71808, 47.06931, -3658.67822265625]]], [[[-125.71808, 47.06931, -3658.67822265625], [-125.72444, 47.07182, -4267.50439453125], [-125.72207, 47.07706, -4014.81640625], [-125.71808, 47.06931, -3658.67822265625]]], [[[-125.72444, 47.07182, -4267.50439453125], [-125.71808, 47.06931, -3658.67822265625], [-125.72528, 47.06473, -4299.18603515625], [-125.72444, 47.07182, -4267.50439453125]]], [[[-125.72444, 47.07182, -4267.50439453125], [-125.72528, 47.06473, -4299.18603515625], [-125.7326, 47.07026, -4773.52978515625], [-125.72444, 47.07182, -4267.50439453125]]], [[[-125.70253, 46.97199, -4605.02392578125], [-125.70962, 46.9805, -4727.74951171875], [-125.69874, 46.98094, -4212.001953125], [-125.70253, 46.97199, -4605.02392578125]]], [[[-125.73283, 47.02853, -4872.5185546875], [-125.72963, 47.02003, -4831.048828125], [-125.74192, 47.02144, -5250.0732421875], [-125.73283, 47.02853, -4872.5185546875]]], [[[-125.7254, 46.96837, -5419.05029296875], [-125.73206, 46.96102, -5676.95361328125], [-125.73719, 46.96926, -5693.61279296875], [-125.7254, 46.96837, -5419.05029296875]]], [[[-125.73283, 47.02853, -4872.5185546875], [-125.74192, 47.02144, -5250.0732421875], [-125.74456, 47.02799, -5280.25146484375], [-125.73283, 47.02853, -4872.5185546875]]], [[[-125.73283, 47.02853, -4872.5185546875], [-125.74456, 47.02799, -5280.25146484375], [-125.74468, 47.03437, -5241.6787109375], [-125.73283, 47.02853, -4872.5185546875]]], [[[-125.74192, 47.02144, -5250.0732421875], [-125.75506, 47.02317, -5575.1337890625], [-125.74456, 47.02799, -5280.25146484375], [-125.74192, 47.02144, -5250.0732421875]]], [[[-125.74192, 47.02144, -5250.0732421875], [-125.75215, 47.01563, -5550.89306640625], [-125.75506, 47.02317, -5575.1337890625], [-125.74192, 47.02144, -5250.0732421875]]], [[[-125.73897, 47.01413, -5210.9150390625], [-125.75215, 47.01563, -5550.89306640625], [-125.74192, 47.02144, -5250.0732421875], [-125.73897, 47.01413, -5210.9150390625]]], [[[-125.75215, 47.01563, -5550.89306640625], [-125.73897, 47.01413, -5210.9150390625], [-125.74841, 47.00768, -5523.4931640625], [-125.75215, 47.01563, -5550.89306640625]]], [[[-125.75215, 47.01563, -5550.89306640625], [-125.74841, 47.00768, -5523.4931640625], [-125.76182, 47.00915, -5786.0576171875], [-125.75215, 47.01563, -5550.89306640625]]], [[[-125.75215, 47.01563, -5550.89306640625], [-125.76182, 47.00915, -5786.0576171875], [-125.7655, 47.01764, -5797.47998046875], [-125.75215, 47.01563, -5550.89306640625]]], [[[-125.75506, 47.02317, -5575.1337890625], [-125.75215, 47.01563, -5550.89306640625], [-125.7655, 47.01764, -5797.47998046875], [-125.75506, 47.02317, -5575.1337890625]]], [[[-125.75506, 47.02317, -5575.1337890625], [-125.7655, 47.01764, -5797.47998046875], [-125.76822, 47.0255, -5799.03076171875], [-125.75506, 47.02317, -5575.1337890625]]], [[[-125.74841, 47.00768, -5523.4931640625], [-125.75808, 47.00106, -5774.62890625], [-125.76182, 47.00915, -5786.0576171875], [-125.74841, 47.00768, -5523.4931640625]]], [[[-125.74841, 47.00768, -5523.4931640625], [-125.74439, 47.00027, -5497.54052734375], [-125.75808, 47.00106, -5774.62890625], [-125.74841, 47.00768, -5523.4931640625]]], [[[-125.74841, 47.00768, -5523.4931640625], [-125.73489, 47.0069, -5171.498046875], [-125.74439, 47.00027, -5497.54052734375], [-125.74841, 47.00768, -5523.4931640625]]], [[[-125.73489, 47.0069, -5171.498046875], [-125.74841, 47.00768, -5523.4931640625], [-125.73897, 47.01413, -5210.9150390625], [-125.73489, 47.0069, -5171.498046875]]], [[[-125.72632, 47.01231, -4807.0712890625], [-125.73489, 47.0069, -5171.498046875], [-125.73897, 47.01413, -5210.9150390625], [-125.72632, 47.01231, -4807.0712890625]]], [[[-125.72174, 47.00566, -4731.767578125], [-125.73489, 47.0069, -5171.498046875], [-125.72632, 47.01231, -4807.0712890625], [-125.72174, 47.00566, -4731.767578125]]], [[[-125.72174, 47.00566, -4731.767578125], [-125.73105, 46.99954, -5147.30615234375], [-125.73489, 47.0069, -5171.498046875], [-125.72174, 47.00566, -4731.767578125]]], [[[-125.72174, 47.00566, -4731.767578125], [-125.71876, 46.99843, -4755.89306640625], [-125.73105, 46.99954, -5147.30615234375], [-125.72174, 47.00566, -4731.767578125]]], [[[-125.72174, 47.00566, -4731.767578125], [-125.70941, 47.00012, -4286.3623046875], [-125.71876, 46.99843, -4755.89306640625], [-125.72174, 47.00566, -4731.767578125]]], [[[-125.72174, 47.00566, -4731.767578125], [-125.7136, 47.00972, -4256.228515625], [-125.70941, 47.00012, -4286.3623046875], [-125.72174, 47.00566, -4731.767578125]]], [[[-125.72174, 47.00566, -4731.767578125], [-125.72632, 47.01231, -4807.0712890625], [-125.7136, 47.00972, -4256.228515625], [-125.72174, 47.00566, -4731.767578125]]], [[[-125.71785, 47.01763, -4299.935546875], [-125.7136, 47.00972, -4256.228515625], [-125.72632, 47.01231, -4807.0712890625], [-125.71785, 47.01763, -4299.935546875]]], [[[-125.70253, 46.97199, -4605.02392578125], [-125.69874, 46.98094, -4212.001953125], [-125.69351, 46.97379, -4129.67626953125], [-125.70253, 46.97199, -4605.02392578125]]], [[[-125.72963, 47.02003, -4831.048828125], [-125.72632, 47.01231, -4807.0712890625], [-125.73897, 47.01413, -5210.9150390625], [-125.72963, 47.02003, -4831.048828125]]], [[[-125.76852, 47.06676, -5692.10400390625], [-125.77985, 47.07277, -5805.62548828125], [-125.77383, 47.07412, -5724.740234375], [-125.76852, 47.06676, -5692.10400390625]]], [[[-125.72963, 47.02003, -4831.048828125], [-125.73897, 47.01413, -5210.9150390625], [-125.74192, 47.02144, -5250.0732421875], [-125.72963, 47.02003, -4831.048828125]]], [[[-125.73105, 46.99954, -5147.30615234375], [-125.72584, 46.99175, -5097.345703125], [-125.73931, 46.99247, -5458.6298828125], [-125.73105, 46.99954, -5147.30615234375]]], [[[-125.73105, 46.99954, -5147.30615234375], [-125.74439, 47.00027, -5497.54052734375], [-125.73489, 47.0069, -5171.498046875], [-125.73105, 46.99954, -5147.30615234375]]], [[[-125.74439, 47.00027, -5497.54052734375], [-125.75367, 46.99354, -5755.888671875], [-125.75808, 47.00106, -5774.62890625], [-125.74439, 47.00027, -5497.54052734375]]], [[[-125.75425, 47.09528, -5199.759765625], [-125.74778, 47.08745, -5199.759765625], [-125.76024, 47.0854, -5430.419921875], [-125.75425, 47.09528, -5199.759765625]]], [[[-125.73931, 46.99247, -5458.6298828125], [-125.7483, 46.98552, -5734.5849609375], [-125.75367, 46.99354, -5755.888671875], [-125.73931, 46.99247, -5458.6298828125]]], [[[-125.73378, 46.98446, -5417.9306640625], [-125.7483, 46.98552, -5734.5849609375], [-125.73931, 46.99247, -5458.6298828125], [-125.73378, 46.98446, -5417.9306640625]]], [[[-125.73378, 46.98446, -5417.9306640625], [-125.72832, 46.97584, -5393.4873046875], [-125.74152, 46.97733, -5687.8505859375], [-125.73378, 46.98446, -5417.9306640625]]], [[[-125.73378, 46.98446, -5417.9306640625], [-125.72098, 46.98263, -5088.1259765625], [-125.72832, 46.97584, -5393.4873046875], [-125.73378, 46.98446, -5417.9306640625]]], [[[-125.72584, 46.99175, -5097.345703125], [-125.72098, 46.98263, -5088.1259765625], [-125.73378, 46.98446, -5417.9306640625], [-125.72584, 46.99175, -5097.345703125]]], [[[-125.72584, 46.99175, -5097.345703125], [-125.73378, 46.98446, -5417.9306640625], [-125.73931, 46.99247, -5458.6298828125], [-125.72584, 46.99175, -5097.345703125]]], [[[-125.71499, 46.97257, -5062.39892578125], [-125.72832, 46.97584, -5393.4873046875], [-125.72098, 46.98263, -5088.1259765625], [-125.71499, 46.97257, -5062.39892578125]]], [[[-125.71499, 46.97257, -5062.39892578125], [-125.7254, 46.96837, -5419.05029296875], [-125.72832, 46.97584, -5393.4873046875], [-125.71499, 46.97257, -5062.39892578125]]], [[[-125.71499, 46.97257, -5062.39892578125], [-125.71853, 46.96191, -5326.73876953125], [-125.7254, 46.96837, -5419.05029296875], [-125.71499, 46.97257, -5062.39892578125]]], [[[-125.71499, 46.97257, -5062.39892578125], [-125.7054, 46.96362, -4893.3974609375], [-125.71853, 46.96191, -5326.73876953125], [-125.71499, 46.97257, -5062.39892578125]]], [[[-125.71499, 46.97257, -5062.39892578125], [-125.70253, 46.97199, -4605.02392578125], [-125.7054, 46.96362, -4893.3974609375], [-125.71499, 46.97257, -5062.39892578125]]], [[[-125.70962, 46.9805, -4727.74951171875], [-125.70253, 46.97199, -4605.02392578125], [-125.71499, 46.97257, -5062.39892578125], [-125.70962, 46.9805, -4727.74951171875]]], [[[-125.70253, 46.97199, -4605.02392578125], [-125.69351, 46.97379, -4129.67626953125], [-125.69214, 46.96512, -4303.9873046875], [-125.70253, 46.97199, -4605.02392578125]]], [[[-125.70253, 46.97199, -4605.02392578125], [-125.69214, 46.96512, -4303.9873046875], [-125.7054, 46.96362, -4893.3974609375], [-125.70253, 46.97199, -4605.02392578125]]], [[[-125.69214, 46.96512, -4303.9873046875], [-125.69601, 46.95608, -4703.9931640625], [-125.7054, 46.96362, -4893.3974609375], [-125.69214, 46.96512, -4303.9873046875]]], [[[-125.7054, 46.96362, -4893.3974609375], [-125.69601, 46.95608, -4703.9931640625], [-125.70739, 46.9544, -5128.1650390625], [-125.7054, 46.96362, -4893.3974609375]]], [[[-125.7054, 46.96362, -4893.3974609375], [-125.70739, 46.9544, -5128.1650390625], [-125.71853, 46.96191, -5326.73876953125], [-125.7054, 46.96362, -4893.3974609375]]], [[[-125.71853, 46.96191, -5326.73876953125], [-125.70739, 46.9544, -5128.1650390625], [-125.71709, 46.9528, -5411.16064453125], [-125.71853, 46.96191, -5326.73876953125]]], [[[-125.70962, 46.9805, -4727.74951171875], [-125.71499, 46.97257, -5062.39892578125], [-125.72098, 46.98263, -5088.1259765625], [-125.70962, 46.9805, -4727.74951171875]]], [[[-125.7254, 46.96837, -5419.05029296875], [-125.71853, 46.96191, -5326.73876953125], [-125.73206, 46.96102, -5676.95361328125], [-125.7254, 46.96837, -5419.05029296875]]], [[[-125.72832, 46.97584, -5393.4873046875], [-125.7254, 46.96837, -5419.05029296875], [-125.73719, 46.96926, -5693.61279296875], [-125.72832, 46.97584, -5393.4873046875]]], [[[-125.72832, 46.97584, -5393.4873046875], [-125.73719, 46.96926, -5693.61279296875], [-125.74152, 46.97733, -5687.8505859375], [-125.72832, 46.97584, -5393.4873046875]]], [[[-125.72737, 46.9532, -5666.54443359375], [-125.72249, 46.9448, -5656.5185546875], [-125.73508, 46.94567, -5915.390625], [-125.72737, 46.9532, -5666.54443359375]]], [[[-125.72737, 46.9532, -5666.54443359375], [-125.73508, 46.94567, -5915.390625], [-125.74009, 46.95388, -5932.83837890625], [-125.72737, 46.9532, -5666.54443359375]]], [[[-125.78194, 47.03727, -5936.154296875], [-125.76954, 47.03324, -5782.93359375], [-125.78131, 47.02839, -5953.62841796875], [-125.78194, 47.03727, -5936.154296875]]], [[[-125.76954, 47.03324, -5782.93359375], [-125.78194, 47.03727, -5936.154296875], [-125.76957, 47.04135, -5759.2822265625], [-125.76954, 47.03324, -5782.93359375]]], [[[-125.76957, 47.04135, -5759.2822265625], [-125.78194, 47.03727, -5936.154296875], [-125.78139, 47.04615, -5914.13525390625], [-125.76957, 47.04135, -5759.2822265625]]], [[[-125.76957, 47.04135, -5759.2822265625], [-125.78139, 47.04615, -5914.13525390625], [-125.76877, 47.04983, -5729.12158203125], [-125.76957, 47.04135, -5759.2822265625]]], [[[-125.75712, 47.04572, -5518.68359375], [-125.76957, 47.04135, -5759.2822265625], [-125.76877, 47.04983, -5729.12158203125], [-125.75712, 47.04572, -5518.68359375]]], [[[-125.75678, 47.05521, -5499.3583984375], [-125.75712, 47.04572, -5518.68359375], [-125.76877, 47.04983, -5729.12158203125], [-125.75678, 47.05521, -5499.3583984375]]], [[[-125.75678, 47.05521, -5499.3583984375], [-125.76877, 47.04983, -5729.12158203125], [-125.76789, 47.05896, -5698.47998046875], [-125.75678, 47.05521, -5499.3583984375]]], [[[-125.75678, 47.05521, -5499.3583984375], [-125.76789, 47.05896, -5698.47998046875], [-125.75727, 47.06713, -5513.94384765625], [-125.75678, 47.05521, -5499.3583984375]]], [[[-125.74738, 47.06136, -5273.869140625], [-125.75678, 47.05521, -5499.3583984375], [-125.75727, 47.06713, -5513.94384765625], [-125.74738, 47.06136, -5273.869140625]]], [[[-125.76852, 47.06676, -5692.10400390625], [-125.75727, 47.06713, -5513.94384765625], [-125.76789, 47.05896, -5698.47998046875], [-125.76852, 47.06676, -5692.10400390625]]], [[[-125.76852, 47.06676, -5692.10400390625], [-125.76688, 47.07533, -5628.7099609375], [-125.75727, 47.06713, -5513.94384765625], [-125.76852, 47.06676, -5692.10400390625]]], [[[-125.76852, 47.06676, -5692.10400390625], [-125.77383, 47.07412, -5724.740234375], [-125.76688, 47.07533, -5628.7099609375], [-125.76852, 47.06676, -5692.10400390625]]], [[[-125.76852, 47.06676, -5692.10400390625], [-125.77978, 47.06389, -5855.66455078125], [-125.77985, 47.07277, -5805.62548828125], [-125.76852, 47.06676, -5692.10400390625]]], [[[-125.76789, 47.05896, -5698.47998046875], [-125.77978, 47.06389, -5855.66455078125], [-125.76852, 47.06676, -5692.10400390625], [-125.76789, 47.05896, -5698.47998046875]]], [[[-125.76789, 47.05896, -5698.47998046875], [-125.78038, 47.05501, -5889.7236328125], [-125.77978, 47.06389, -5855.66455078125], [-125.76789, 47.05896, -5698.47998046875]]], [[[-125.76877, 47.04983, -5729.12158203125], [-125.78038, 47.05501, -5889.7236328125], [-125.76789, 47.05896, -5698.47998046875], [-125.76877, 47.04983, -5729.12158203125]]], [[[-125.76877, 47.04983, -5729.12158203125], [-125.78139, 47.04615, -5914.13525390625], [-125.78038, 47.05501, -5889.7236328125], [-125.76877, 47.04983, -5729.12158203125]]], [[[-125.77383, 47.07412, -5724.740234375], [-125.77985, 47.07277, -5805.62548828125], [-125.7809, 47.08161, -5743.76416015625], [-125.77383, 47.07412, -5724.740234375]]], [[[-125.76688, 47.07533, -5628.7099609375], [-125.77279, 47.08335, -5628.7099609375], [-125.76024, 47.0854, -5430.419921875], [-125.76688, 47.07533, -5628.7099609375]]], [[[-125.74778, 47.08745, -5199.759765625], [-125.75433, 47.07738, -5430.419921875], [-125.76024, 47.0854, -5430.419921875], [-125.74778, 47.08745, -5199.759765625]]], [[[-125.7667, 47.09323, -5430.419921875], [-125.76167, 47.102, -5152.8818359375], [-125.75425, 47.09528, -5199.759765625], [-125.7667, 47.09323, -5430.419921875]]], [[[-125.76167, 47.102, -5152.8818359375], [-125.7667, 47.09323, -5430.419921875], [-125.77293, 47.10439, -5356.9384765625], [-125.76167, 47.102, -5152.8818359375]]], [[[-125.76355, 47.11106, -4918.96044921875], [-125.76167, 47.102, -5152.8818359375], [-125.77293, 47.10439, -5356.9384765625], [-125.76355, 47.11106, -4918.96044921875]]], [[[-125.76355, 47.11106, -4918.96044921875], [-125.77293, 47.10439, -5356.9384765625], [-125.77592, 47.11415, -5262.28369140625], [-125.76355, 47.11106, -4918.96044921875]]], [[[-125.77592, 47.11415, -5262.28369140625], [-125.77293, 47.10439, -5356.9384765625], [-125.78551, 47.10804, -5577.67724609375], [-125.77592, 47.11415, -5262.28369140625]]], [[[-125.77592, 47.11415, -5262.28369140625], [-125.78551, 47.10804, -5577.67724609375], [-125.78895, 47.11661, -5567.24560546875], [-125.77592, 47.11415, -5262.28369140625]]], [[[-125.77293, 47.10439, -5356.9384765625], [-125.7834, 47.09927, -5623.40087890625], [-125.78551, 47.10804, -5577.67724609375], [-125.77293, 47.10439, -5356.9384765625]]], [[[-125.77293, 47.10439, -5356.9384765625], [-125.7667, 47.09323, -5430.419921875], [-125.7834, 47.09927, -5623.40087890625], [-125.77293, 47.10439, -5356.9384765625]]], [[[-125.77279, 47.08335, -5628.7099609375], [-125.7667, 47.09323, -5430.419921875], [-125.76024, 47.0854, -5430.419921875], [-125.77279, 47.08335, -5628.7099609375]]], [[[-125.661, 46.94682, -2563.042724609375], [-125.66852, 46.94909, -3211.53173828125], [-125.66079, 46.95182, -2226.659912109375], [-125.661, 46.94682, -2563.042724609375]]], [[[-125.66852, 46.94909, -3211.53173828125], [-125.67201, 46.95684, -3245.02880859375], [-125.66079, 46.95182, -2226.659912109375], [-125.66852, 46.94909, -3211.53173828125]]], [[[-125.77383, 47.07412, -5724.740234375], [-125.7809, 47.08161, -5743.76416015625], [-125.77279, 47.08335, -5628.7099609375], [-125.77383, 47.07412, -5724.740234375]]], [[[-125.77279, 47.08335, -5628.7099609375], [-125.7809, 47.08161, -5743.76416015625], [-125.78245, 47.09042, -5680.19384765625], [-125.77279, 47.08335, -5628.7099609375]]], [[[-125.78245, 47.09042, -5680.19384765625], [-125.7834, 47.09927, -5623.40087890625], [-125.7667, 47.09323, -5430.419921875], [-125.78245, 47.09042, -5680.19384765625]]], [[[-125.77279, 47.08335, -5628.7099609375], [-125.78245, 47.09042, -5680.19384765625], [-125.7667, 47.09323, -5430.419921875], [-125.77279, 47.08335, -5628.7099609375]]], [[[-125.79096, 47.16133, -5364.79541015625], [-125.79968, 47.15137, -5605.68408203125], [-125.80413, 47.1604, -5628.7099609375], [-125.79096, 47.16133, -5364.79541015625]]]]}}]}