{"type": "FeatureCollection", "features": [{"type": "Feature", "properties": {"name": "AW_WASH_22", "CFM_ID": 287, "region": "Offshore_WAOR", "primary_state/province": "WA", "secondary_state/province": null, "avg_dip": 39, "dip_dir": "SW", "rake": 90, "slip_sense": "Reverse", "fault_level": 2, "NSHM23_sliprates": null, "QFFDAgeCatBin": null, "QFFDAgeBin": null, "upper_depth": -2.5, "upper_depth_constraint": "seismic imaging", "lower_depth": -6.2, "lower_depth_constraint": "megathrust", "3D_model_constraints": "trace and 1 MCS line", "reference": "Ledeczi et al. (2024); Carbotte et al. (2023)", "nshm23_id": null, "lineage": null, "usgs_qffd_#": null, "comments": "fault depth interpretation from Ledeczi et al. (2024); Carbotte et al. (2023) used to aid in model building", "id": "287"}, "geometry": {"type": "MultiPolygon", "coordinates": [[[[-125.65413, 47.15148, -5403.173828125], [-125.65669, 47.16083, -5384.35791015625], [-125.66402, 47.15484, -5945.1298828125], [-125.65413, 47.15148, -5403.173828125]]], [[[-125.61166, 47.13199, -3288.236083984375], [-125.60204, 47.12865, -2728.949951171875], [-125.60676, 47.13704, -2728.949951171875], [-125.61166, 47.13199, -3288.236083984375]]], [[[-125.56057, 47.00377, -3305.862060546875], [-125.54882, 47.00216, -2728.949951171875], [-125.55495, 47.01, -2728.949951171875], [-125.56057, 47.00377, -3305.862060546875]]], [[[-125.61686, 47.04869, -5649.95166015625], [-125.62704, 47.05166, -6184.9365234375], [-125.62407, 47.043, -6192.796875], [-125.61686, 47.04869, -5649.95166015625]]], [[[-125.62621, 47.09039, -5539.15673828125], [-125.61651, 47.09012, -4927.787109375], [-125.624, 47.09814, -5232.759765625], [-125.62621, 47.09039, -5539.15673828125]]], [[[-125.58692, 47.05019, -3721.450927734375], [-125.58387, 47.04181, -3723.942138671875], [-125.57561, 47.04759, -3269.198486328125], [-125.58692, 47.05019, -3721.450927734375]]], [[[-125.59829, 47.0522, -4326.52685546875], [-125.58692, 47.05019, -3721.450927734375], [-125.59011, 47.05788, -3739.78173828125], [-125.59829, 47.0522, -4326.52685546875]]], [[[-125.63049, 47.10591, -5232.759765625], [-125.63803, 47.09542, -6098.03662109375], [-125.624, 47.09814, -5232.759765625], [-125.63049, 47.10591, -5232.759765625]]], [[[-125.60131, 47.00568, -5631.93408203125], [-125.61178, 47.00839, -6185.10009765625], [-125.60847, 46.99978, -6178.60400390625], [-125.60131, 47.00568, -5631.93408203125]]], [[[-125.63872, 47.17745, -3585.34326171875], [-125.64837, 47.18419, -3751.748046875], [-125.64863, 47.17663, -4299.4091796875], [-125.63872, 47.17745, -3585.34326171875]]], [[[-125.63274, 47.13736, -4209.68310546875], [-125.62257, 47.13379, -3743.153076171875], [-125.62617, 47.14328, -3718.842041015625], [-125.63274, 47.13736, -4209.68310546875]]], [[[-125.65041, 47.16772, -4773.32470703125], [-125.64863, 47.17663, -4299.4091796875], [-125.6575, 47.17556, -4960.8310546875], [-125.65041, 47.16772, -4773.32470703125]]], [[[-125.59724, 47.09501, -3663.647216796875], [-125.60719, 47.09293, -4222.869140625], [-125.59778, 47.0867, -3744.62158203125], [-125.59724, 47.09501, -3663.647216796875]]], [[[-125.57517, 47.0161, -3733.076171875], [-125.56432, 47.01319, -3305.817626953125], [-125.56674, 47.02219, -3267.010009765625], [-125.57517, 47.0161, -3733.076171875]]], [[[-125.56432, 47.01319, -3305.817626953125], [-125.55715, 47.01886, -2728.949951171875], [-125.56674, 47.02219, -3267.010009765625], [-125.56432, 47.01319, -3305.817626953125]]], [[[-125.61809, 47.149, -3308.8720703125], [-125.60838, 47.14596, -2728.949951171875], [-125.61136, 47.15463, -2728.949951171875], [-125.61809, 47.149, -3308.8720703125]]], [[[-125.584, 46.98446, -4923.60986328125], [-125.59423, 46.98614, -5597.37353515625], [-125.58624, 46.97604, -5232.759765625], [-125.584, 46.98446, -4923.60986328125]]], [[[-125.64571, 47.12665, -5425.11083984375], [-125.64958, 47.13452, -5417.33935546875], [-125.65635, 47.1287, -5975.33642578125], [-125.64571, 47.12665, -5425.11083984375]]], [[[-125.61486, 47.09964, -4533.1396484375], [-125.61178, 47.109, -3873.919921875], [-125.62134, 47.10741, -4533.1396484375], [-125.61486, 47.09964, -4533.1396484375]]], [[[-125.59499, 47.0441, -4306.07275390625], [-125.58387, 47.04181, -3723.942138671875], [-125.58692, 47.05019, -3721.450927734375], [-125.59499, 47.0441, -4306.07275390625]]], [[[-125.60747, 47.08406, -4349.88623046875], [-125.59642, 47.07728, -3763.455078125], [-125.59778, 47.0867, -3744.62158203125], [-125.60747, 47.08406, -4349.88623046875]]], [[[-125.66104, 47.17004, -5411.51416015625], [-125.66648, 47.18159, -5232.759765625], [-125.67126, 47.17192, -5944.28125], [-125.66104, 47.17004, -5411.51416015625]]], [[[-125.60204, 47.12865, -2728.949951171875], [-125.61166, 47.13199, -3288.236083984375], [-125.61375, 47.12579, -3587.321044921875], [-125.60204, 47.12865, -2728.949951171875]]], [[[-125.58632, 47.01829, -4321.60400390625], [-125.5903, 47.02636, -4388.33203125], [-125.59735, 47.0201, -5037.322265625], [-125.58632, 47.01829, -4321.60400390625]]], [[[-125.59735, 47.0201, -5037.322265625], [-125.6047, 47.01427, -5644.14306640625], [-125.59368, 47.01175, -4994.4365234375], [-125.59735, 47.0201, -5037.322265625]]], [[[-125.59735, 47.0201, -5037.322265625], [-125.60794, 47.02279, -5655.4267578125], [-125.6047, 47.01427, -5644.14306640625], [-125.59735, 47.0201, -5037.322265625]]], [[[-125.59724, 47.09501, -3663.647216796875], [-125.60529, 47.10123, -3873.919921875], [-125.60719, 47.09293, -4222.869140625], [-125.59724, 47.09501, -3663.647216796875]]], [[[-125.58257, 47.00953, -4285.04150390625], [-125.59368, 47.01175, -4994.4365234375], [-125.59084, 47.00308, -5010.68798828125], [-125.58257, 47.00953, -4285.04150390625]]], [[[-125.59308, 47.06658, -3747.892822265625], [-125.59011, 47.05788, -3739.78173828125], [-125.58136, 47.06339, -3275.517333984375], [-125.59308, 47.06658, -3747.892822265625]]], [[[-125.59423, 46.98614, -5597.37353515625], [-125.5961, 46.97439, -5866.560546875], [-125.58624, 46.97604, -5232.759765625], [-125.59423, 46.98614, -5597.37353515625]]], [[[-125.58803, 47.09175, -3285.027099609375], [-125.57764, 47.08733, -2728.949951171875], [-125.58064, 47.09606, -2728.949951171875], [-125.58803, 47.09175, -3285.027099609375]]], [[[-125.57415, 46.9863, -4212.21435546875], [-125.584, 46.98446, -4923.60986328125], [-125.57711, 46.97753, -4533.1396484375], [-125.57415, 46.9863, -4212.21435546875]]], [[[-125.57989, 46.99254, -4494.3310546875], [-125.57415, 46.9863, -4212.21435546875], [-125.56966, 46.99614, -3796.927978515625], [-125.57989, 46.99254, -4494.3310546875]]], [[[-125.58632, 47.01829, -4321.60400390625], [-125.5787, 47.02446, -3749.615966796875], [-125.5903, 47.02636, -4388.33203125], [-125.58632, 47.01829, -4321.60400390625]]], [[[-125.60747, 47.08406, -4349.88623046875], [-125.60719, 47.09293, -4222.869140625], [-125.61651, 47.09012, -4927.787109375], [-125.60747, 47.08406, -4349.88623046875]]], [[[-125.58632, 47.01829, -4321.60400390625], [-125.59735, 47.0201, -5037.322265625], [-125.59368, 47.01175, -4994.4365234375], [-125.58632, 47.01829, -4321.60400390625]]], [[[-125.65041, 47.16772, -4773.32470703125], [-125.64185, 47.16993, -4050.730712890625], [-125.64863, 47.17663, -4299.4091796875], [-125.65041, 47.16772, -4773.32470703125]]], [[[-125.62257, 47.13379, -3743.153076171875], [-125.61166, 47.13199, -3288.236083984375], [-125.6157, 47.14061, -3320.921875], [-125.62257, 47.13379, -3743.153076171875]]], [[[-125.59084, 47.00308, -5010.68798828125], [-125.59786, 46.9967, -5623.02587890625], [-125.58818, 46.99354, -5079.251953125], [-125.59084, 47.00308, -5010.68798828125]]], [[[-125.57168, 47.00619, -3756.646240234375], [-125.56966, 46.99614, -3796.927978515625], [-125.56057, 47.00377, -3305.862060546875], [-125.57168, 47.00619, -3756.646240234375]]], [[[-125.6157, 47.14061, -3320.921875], [-125.60676, 47.13704, -2728.949951171875], [-125.60838, 47.14596, -2728.949951171875], [-125.6157, 47.14061, -3320.921875]]], [[[-125.58387, 47.04181, -3723.942138671875], [-125.58151, 47.0324, -3751.905517578125], [-125.57306, 47.03835, -3305.7431640625], [-125.58387, 47.04181, -3723.942138671875]]], [[[-125.60719, 47.09293, -4222.869140625], [-125.60529, 47.10123, -3873.919921875], [-125.61486, 47.09964, -4533.1396484375], [-125.60719, 47.09293, -4222.869140625]]], [[[-125.63872, 47.17745, -3585.34326171875], [-125.64031, 47.18495, -3169.53564453125], [-125.64837, 47.18419, -3751.748046875], [-125.63872, 47.17745, -3585.34326171875]]], [[[-125.60172, 47.06028, -4367.4716796875], [-125.59011, 47.05788, -3739.78173828125], [-125.59308, 47.06658, -3747.892822265625], [-125.60172, 47.06028, -4367.4716796875]]], [[[-125.59193, 47.03531, -4300.9599609375], [-125.58151, 47.0324, -3751.905517578125], [-125.58387, 47.04181, -3723.942138671875], [-125.59193, 47.03531, -4300.9599609375]]], [[[-125.58098, 47.00035, -4398.92626953125], [-125.58818, 46.99354, -5079.251953125], [-125.57989, 46.99254, -4494.3310546875], [-125.58098, 47.00035, -4398.92626953125]]], [[[-125.58098, 47.00035, -4398.92626953125], [-125.56966, 46.99614, -3796.927978515625], [-125.57168, 47.00619, -3756.646240234375], [-125.58098, 47.00035, -4398.92626953125]]], [[[-125.62045, 47.1578, -3317.18115234375], [-125.61344, 47.1635, -2728.949951171875], [-125.62413, 47.1651, -3290.409423828125], [-125.62045, 47.1578, -3317.18115234375]]], [[[-125.62134, 47.10741, -4533.1396484375], [-125.61178, 47.109, -3873.919921875], [-125.61621, 47.11744, -3873.919921875], [-125.62134, 47.10741, -4533.1396484375]]], [[[-125.61061, 47.03145, -5641.42822265625], [-125.61371, 47.04015, -5647.923828125], [-125.62093, 47.03436, -6194.177734375], [-125.61061, 47.03145, -5641.42822265625]]], [[[-125.57168, 47.00619, -3756.646240234375], [-125.56057, 47.00377, -3305.862060546875], [-125.56432, 47.01319, -3305.817626953125], [-125.57168, 47.00619, -3756.646240234375]]], [[[-125.59423, 46.98614, -5597.37353515625], [-125.60517, 46.99117, -6166.80908203125], [-125.60258, 46.98245, -6153.4345703125], [-125.59423, 46.98614, -5597.37353515625]]], [[[-125.58632, 47.01829, -4321.60400390625], [-125.57517, 47.0161, -3733.076171875], [-125.5787, 47.02446, -3749.615966796875], [-125.58632, 47.01829, -4321.60400390625]]], [[[-125.6575, 47.17556, -4960.8310546875], [-125.65732, 47.18309, -4533.1396484375], [-125.66648, 47.18159, -5232.759765625], [-125.6575, 47.17556, -4960.8310546875]]], [[[-125.58151, 47.0324, -3751.905517578125], [-125.5695, 47.02999, -3265.483154296875], [-125.57306, 47.03835, -3305.7431640625], [-125.58151, 47.0324, -3751.905517578125]]], [[[-125.59499, 47.0441, -4306.07275390625], [-125.60595, 47.04596, -5013.69677734375], [-125.6027, 47.03749, -5006.2392578125], [-125.59499, 47.0441, -4306.07275390625]]], [[[-125.60491, 47.11931, -3404.583984375], [-125.59559, 47.12083, -2728.949951171875], [-125.60204, 47.12865, -2728.949951171875], [-125.60491, 47.11931, -3404.583984375]]], [[[-125.59399, 47.1031, -3404.583984375], [-125.58064, 47.09606, -2728.949951171875], [-125.58468, 47.10462, -2728.949951171875], [-125.59399, 47.1031, -3404.583984375]]], [[[-125.57561, 47.04759, -3269.198486328125], [-125.56634, 47.04406, -2728.949951171875], [-125.56724, 47.05285, -2728.949951171875], [-125.57561, 47.04759, -3269.198486328125]]], [[[-125.58136, 47.06339, -3275.517333984375], [-125.57058, 47.06152, -2728.949951171875], [-125.5759, 47.06972, -2728.949951171875], [-125.58136, 47.06339, -3275.517333984375]]], [[[-125.63494, 47.1654, -3800.9306640625], [-125.64276, 47.16159, -4371.4794921875], [-125.63189, 47.1593, -3787.438720703125], [-125.63494, 47.1654, -3800.9306640625]]], [[[-125.62413, 47.1651, -3290.409423828125], [-125.63494, 47.1654, -3800.9306640625], [-125.63189, 47.1593, -3787.438720703125], [-125.62413, 47.1651, -3290.409423828125]]], [[[-125.62413, 47.1651, -3290.409423828125], [-125.61344, 47.1635, -2728.949951171875], [-125.61913, 47.17168, -2728.9375], [-125.62413, 47.1651, -3290.409423828125]]], [[[-125.60131, 47.00568, -5631.93408203125], [-125.6047, 47.01427, -5644.14306640625], [-125.61178, 47.00839, -6185.10009765625], [-125.60131, 47.00568, -5631.93408203125]]], [[[-125.58151, 47.0324, -3751.905517578125], [-125.5903, 47.02636, -4388.33203125], [-125.5787, 47.02446, -3749.615966796875], [-125.58151, 47.0324, -3751.905517578125]]], [[[-125.64276, 47.16159, -4371.4794921875], [-125.63494, 47.1654, -3800.9306640625], [-125.64185, 47.16993, -4050.730712890625], [-125.64276, 47.16159, -4371.4794921875]]], [[[-125.58098, 47.00035, -4398.92626953125], [-125.57989, 46.99254, -4494.3310546875], [-125.56966, 46.99614, -3796.927978515625], [-125.58098, 47.00035, -4398.92626953125]]], [[[-125.55714, 46.99629, -3263.24951171875], [-125.54882, 47.00216, -2728.949951171875], [-125.56057, 47.00377, -3305.862060546875], [-125.55714, 46.99629, -3263.24951171875]]], [[[-125.62045, 47.1578, -3317.18115234375], [-125.61136, 47.15463, -2728.949951171875], [-125.61344, 47.1635, -2728.949951171875], [-125.62045, 47.1578, -3317.18115234375]]], [[[-125.61061, 47.03145, -5641.42822265625], [-125.60026, 47.02891, -5024.82421875], [-125.6027, 47.03749, -5006.2392578125], [-125.61061, 47.03145, -5641.42822265625]]], [[[-125.59499, 47.0441, -4306.07275390625], [-125.58692, 47.05019, -3721.450927734375], [-125.59829, 47.0522, -4326.52685546875], [-125.59499, 47.0441, -4306.07275390625]]], [[[-125.59829, 47.0522, -4326.52685546875], [-125.59011, 47.05788, -3739.78173828125], [-125.60172, 47.06028, -4367.4716796875], [-125.59829, 47.0522, -4326.52685546875]]], [[[-125.63049, 47.10591, -5232.759765625], [-125.64334, 47.10353, -6063.10498046875], [-125.63803, 47.09542, -6098.03662109375], [-125.63049, 47.10591, -5232.759765625]]], [[[-125.60026, 47.02891, -5024.82421875], [-125.60794, 47.02279, -5655.4267578125], [-125.59735, 47.0201, -5037.322265625], [-125.60026, 47.02891, -5024.82421875]]], [[[-125.63562, 47.14522, -4226.89892578125], [-125.63274, 47.13736, -4209.68310546875], [-125.62617, 47.14328, -3718.842041015625], [-125.63562, 47.14522, -4226.89892578125]]], [[[-125.59786, 46.9967, -5623.02587890625], [-125.60131, 47.00568, -5631.93408203125], [-125.60847, 46.99978, -6178.60400390625], [-125.59786, 46.9967, -5623.02587890625]]], [[[-125.60172, 47.06028, -4367.4716796875], [-125.603, 47.06931, -4269.806640625], [-125.61154, 47.0629, -4997.19775390625], [-125.60172, 47.06028, -4367.4716796875]]], [[[-125.62197, 47.06575, -5622.59716796875], [-125.62382, 47.07423, -5605.17919921875], [-125.63187, 47.06916, -6156.3994140625], [-125.62197, 47.06575, -5622.59716796875]]], [[[-125.65041, 47.16772, -4773.32470703125], [-125.6575, 47.17556, -4960.8310546875], [-125.66104, 47.17004, -5411.51416015625], [-125.65041, 47.16772, -4773.32470703125]]], [[[-125.63423, 47.12279, -4816.37158203125], [-125.62578, 47.11585, -4533.1396484375], [-125.62449, 47.1242, -4125.96044921875], [-125.63423, 47.12279, -4816.37158203125]]], [[[-125.58257, 47.00953, -4285.04150390625], [-125.57168, 47.00619, -3756.646240234375], [-125.57517, 47.0161, -3733.076171875], [-125.58257, 47.00953, -4285.04150390625]]], [[[-125.63562, 47.14522, -4226.89892578125], [-125.6382, 47.15347, -4264.392578125], [-125.6448, 47.14782, -4819.58154296875], [-125.63562, 47.14522, -4226.89892578125]]], [[[-125.61595, 47.07987, -5004.37451171875], [-125.62518, 47.08291, -5593.12109375], [-125.62382, 47.07423, -5605.17919921875], [-125.61595, 47.07987, -5004.37451171875]]], [[[-125.59642, 47.07728, -3763.455078125], [-125.587, 47.08276, -3290.229736328125], [-125.59778, 47.0867, -3744.62158203125], [-125.59642, 47.07728, -3763.455078125]]], [[[-125.61506, 47.01701, -6192.24169921875], [-125.60794, 47.02279, -5655.4267578125], [-125.61815, 47.02566, -6194.61767578125], [-125.61506, 47.01701, -6192.24169921875]]], [[[-125.55629, 46.98099, -3404.583984375], [-125.56391, 46.9876, -3645.36279296875], [-125.56757, 46.97912, -3873.919921875], [-125.55629, 46.98099, -3404.583984375]]], [[[-125.60131, 47.00568, -5631.93408203125], [-125.59368, 47.01175, -4994.4365234375], [-125.6047, 47.01427, -5644.14306640625], [-125.60131, 47.00568, -5631.93408203125]]], [[[-125.66104, 47.17004, -5411.51416015625], [-125.67126, 47.17192, -5944.28125], [-125.66698, 47.16351, -5948.63037109375], [-125.66104, 47.17004, -5411.51416015625]]], [[[-125.61061, 47.03145, -5641.42822265625], [-125.61815, 47.02566, -6194.61767578125], [-125.60794, 47.02279, -5655.4267578125], [-125.61061, 47.03145, -5641.42822265625]]], [[[-125.64781, 47.15709, -4850.76123046875], [-125.65669, 47.16083, -5384.35791015625], [-125.65413, 47.15148, -5403.173828125], [-125.64781, 47.15709, -4850.76123046875]]], [[[-125.55714, 46.99629, -3263.24951171875], [-125.55482, 46.98867, -3213.76318359375], [-125.5467, 46.9934, -2728.949951171875], [-125.55714, 46.99629, -3263.24951171875]]], [[[-125.62518, 47.08291, -5593.12109375], [-125.63343, 47.07799, -6140.025390625], [-125.62382, 47.07423, -5605.17919921875], [-125.62518, 47.08291, -5593.12109375]]], [[[-125.61651, 47.09012, -4927.787109375], [-125.62621, 47.09039, -5539.15673828125], [-125.62518, 47.08291, -5593.12109375], [-125.61651, 47.09012, -4927.787109375]]], [[[-125.59642, 47.07728, -3763.455078125], [-125.58527, 47.07277, -3336.56396484375], [-125.587, 47.08276, -3290.229736328125], [-125.59642, 47.07728, -3763.455078125]]], [[[-125.57306, 47.03835, -3305.7431640625], [-125.56299, 47.03589, -2728.949951171875], [-125.56634, 47.04406, -2728.949951171875], [-125.57306, 47.03835, -3305.7431640625]]], [[[-125.63984, 47.13178, -4846.63818359375], [-125.64958, 47.13452, -5417.33935546875], [-125.64571, 47.12665, -5425.11083984375], [-125.63984, 47.13178, -4846.63818359375]]], [[[-125.58692, 47.05019, -3721.450927734375], [-125.57561, 47.04759, -3269.198486328125], [-125.57768, 47.05555, -3240.3837890625], [-125.58692, 47.05019, -3721.450927734375]]], [[[-125.624, 47.09814, -5232.759765625], [-125.61651, 47.09012, -4927.787109375], [-125.61486, 47.09964, -4533.1396484375], [-125.624, 47.09814, -5232.759765625]]], [[[-125.60529, 47.10123, -3873.919921875], [-125.59399, 47.1031, -3404.583984375], [-125.60047, 47.11087, -3404.583984375], [-125.60529, 47.10123, -3873.919921875]]], [[[-125.56674, 47.02219, -3267.010009765625], [-125.55856, 47.02779, -2728.949951171875], [-125.5695, 47.02999, -3265.483154296875], [-125.56674, 47.02219, -3267.010009765625]]], [[[-125.61959, 47.05718, -5638.9482421875], [-125.62963, 47.06039, -6171.49609375], [-125.62704, 47.05166, -6184.9365234375], [-125.61959, 47.05718, -5638.9482421875]]], [[[-125.5695, 47.02999, -3265.483154296875], [-125.56299, 47.03589, -2728.949951171875], [-125.57306, 47.03835, -3305.7431640625], [-125.5695, 47.02999, -3265.483154296875]]], [[[-125.5787, 47.02446, -3749.615966796875], [-125.57517, 47.0161, -3733.076171875], [-125.56674, 47.02219, -3267.010009765625], [-125.5787, 47.02446, -3749.615966796875]]], [[[-125.603, 47.06931, -4269.806640625], [-125.59642, 47.07728, -3763.455078125], [-125.60698, 47.07607, -4421.2587890625], [-125.603, 47.06931, -4269.806640625]]], [[[-125.61375, 47.12579, -3587.321044921875], [-125.62449, 47.1242, -4125.96044921875], [-125.61621, 47.11744, -3873.919921875], [-125.61375, 47.12579, -3587.321044921875]]], [[[-125.6382, 47.15347, -4264.392578125], [-125.63562, 47.14522, -4226.89892578125], [-125.62848, 47.15183, -3739.45166015625], [-125.6382, 47.15347, -4264.392578125]]], [[[-125.60047, 47.11087, -3404.583984375], [-125.59559, 47.12083, -2728.949951171875], [-125.60491, 47.11931, -3404.583984375], [-125.60047, 47.11087, -3404.583984375]]], [[[-125.62621, 47.09039, -5539.15673828125], [-125.63476, 47.08685, -6116.2314453125], [-125.62518, 47.08291, -5593.12109375], [-125.62621, 47.09039, -5539.15673828125]]], [[[-125.58818, 46.99354, -5079.251953125], [-125.59786, 46.9967, -5623.02587890625], [-125.59423, 46.98614, -5597.37353515625], [-125.58818, 46.99354, -5079.251953125]]], [[[-125.61686, 47.04869, -5649.95166015625], [-125.61959, 47.05718, -5638.9482421875], [-125.62704, 47.05166, -6184.9365234375], [-125.61686, 47.04869, -5649.95166015625]]], [[[-125.59499, 47.0441, -4306.07275390625], [-125.59829, 47.0522, -4326.52685546875], [-125.60595, 47.04596, -5013.69677734375], [-125.59499, 47.0441, -4306.07275390625]]], [[[-125.61178, 47.109, -3873.919921875], [-125.60491, 47.11931, -3404.583984375], [-125.61621, 47.11744, -3873.919921875], [-125.61178, 47.109, -3873.919921875]]], [[[-125.64958, 47.13452, -5417.33935546875], [-125.65988, 47.13726, -5957.13916015625], [-125.65635, 47.1287, -5975.33642578125], [-125.64958, 47.13452, -5417.33935546875]]], [[[-125.63124, 47.1302, -4342.033203125], [-125.63984, 47.13178, -4846.63818359375], [-125.63423, 47.12279, -4816.37158203125], [-125.63124, 47.1302, -4342.033203125]]], [[[-125.58257, 47.00953, -4285.04150390625], [-125.58098, 47.00035, -4398.92626953125], [-125.57168, 47.00619, -3756.646240234375], [-125.58257, 47.00953, -4285.04150390625]]], [[[-125.64571, 47.12665, -5425.11083984375], [-125.65635, 47.1287, -5975.33642578125], [-125.65203, 47.1203, -6002.1279296875], [-125.64571, 47.12665, -5425.11083984375]]], [[[-125.57989, 46.99254, -4494.3310546875], [-125.584, 46.98446, -4923.60986328125], [-125.57415, 46.9863, -4212.21435546875], [-125.57989, 46.99254, -4494.3310546875]]], [[[-125.56391, 46.9876, -3645.36279296875], [-125.55629, 46.98099, -3404.583984375], [-125.55482, 46.98867, -3213.76318359375], [-125.56391, 46.9876, -3645.36279296875]]], [[[-125.59724, 47.09501, -3663.647216796875], [-125.59399, 47.1031, -3404.583984375], [-125.60529, 47.10123, -3873.919921875], [-125.59724, 47.09501, -3663.647216796875]]], [[[-125.62257, 47.13379, -3743.153076171875], [-125.62449, 47.1242, -4125.96044921875], [-125.61375, 47.12579, -3587.321044921875], [-125.62257, 47.13379, -3743.153076171875]]], [[[-125.56391, 46.9876, -3645.36279296875], [-125.56966, 46.99614, -3796.927978515625], [-125.57415, 46.9863, -4212.21435546875], [-125.56391, 46.9876, -3645.36279296875]]], [[[-125.61371, 47.04015, -5647.923828125], [-125.60595, 47.04596, -5013.69677734375], [-125.61686, 47.04869, -5649.95166015625], [-125.61371, 47.04015, -5647.923828125]]], [[[-125.63274, 47.13736, -4209.68310546875], [-125.63984, 47.13178, -4846.63818359375], [-125.63124, 47.1302, -4342.033203125], [-125.63274, 47.13736, -4209.68310546875]]], [[[-125.59193, 47.03531, -4300.9599609375], [-125.58387, 47.04181, -3723.942138671875], [-125.59499, 47.0441, -4306.07275390625], [-125.59193, 47.03531, -4300.9599609375]]], [[[-125.58257, 47.00953, -4285.04150390625], [-125.57517, 47.0161, -3733.076171875], [-125.58632, 47.01829, -4321.60400390625], [-125.58257, 47.00953, -4285.04150390625]]], [[[-125.63492, 47.11435, -5232.759765625], [-125.64334, 47.10353, -6063.10498046875], [-125.63049, 47.10591, -5232.759765625], [-125.63492, 47.11435, -5232.759765625]]], [[[-125.61595, 47.07987, -5004.37451171875], [-125.61651, 47.09012, -4927.787109375], [-125.62518, 47.08291, -5593.12109375], [-125.61595, 47.07987, -5004.37451171875]]], [[[-125.59778, 47.0867, -3744.62158203125], [-125.58803, 47.09175, -3285.027099609375], [-125.59724, 47.09501, -3663.647216796875], [-125.59778, 47.0867, -3744.62158203125]]], [[[-125.57768, 47.05555, -3240.3837890625], [-125.57058, 47.06152, -2728.949951171875], [-125.58136, 47.06339, -3275.517333984375], [-125.57768, 47.05555, -3240.3837890625]]], [[[-125.58803, 47.09175, -3285.027099609375], [-125.58064, 47.09606, -2728.949951171875], [-125.59399, 47.1031, -3404.583984375], [-125.58803, 47.09175, -3285.027099609375]]], [[[-125.63274, 47.13736, -4209.68310546875], [-125.63124, 47.1302, -4342.033203125], [-125.62257, 47.13379, -3743.153076171875], [-125.63274, 47.13736, -4209.68310546875]]], [[[-125.65041, 47.16772, -4773.32470703125], [-125.64276, 47.16159, -4371.4794921875], [-125.64185, 47.16993, -4050.730712890625], [-125.65041, 47.16772, -4773.32470703125]]], [[[-125.60916, 47.05424, -5026.92822265625], [-125.61686, 47.04869, -5649.95166015625], [-125.60595, 47.04596, -5013.69677734375], [-125.60916, 47.05424, -5026.92822265625]]], [[[-125.65669, 47.16083, -5384.35791015625], [-125.66104, 47.17004, -5411.51416015625], [-125.66698, 47.16351, -5948.63037109375], [-125.65669, 47.16083, -5384.35791015625]]], [[[-125.63423, 47.12279, -4816.37158203125], [-125.64249, 47.12004, -5463.99560546875], [-125.63492, 47.11435, -5232.759765625], [-125.63423, 47.12279, -4816.37158203125]]], [[[-125.55714, 46.99629, -3263.24951171875], [-125.56391, 46.9876, -3645.36279296875], [-125.55482, 46.98867, -3213.76318359375], [-125.55714, 46.99629, -3263.24951171875]]], [[[-125.60491, 47.11931, -3404.583984375], [-125.61178, 47.109, -3873.919921875], [-125.60047, 47.11087, -3404.583984375], [-125.60491, 47.11931, -3404.583984375]]], [[[-125.60916, 47.05424, -5026.92822265625], [-125.61154, 47.0629, -4997.19775390625], [-125.61959, 47.05718, -5638.9482421875], [-125.60916, 47.05424, -5026.92822265625]]], [[[-125.62617, 47.14328, -3718.842041015625], [-125.6157, 47.14061, -3320.921875], [-125.61809, 47.149, -3308.8720703125], [-125.62617, 47.14328, -3718.842041015625]]], [[[-125.57415, 46.9863, -4212.21435546875], [-125.57711, 46.97753, -4533.1396484375], [-125.56757, 46.97912, -3873.919921875], [-125.57415, 46.9863, -4212.21435546875]]], [[[-125.62257, 47.13379, -3743.153076171875], [-125.61375, 47.12579, -3587.321044921875], [-125.61166, 47.13199, -3288.236083984375], [-125.62257, 47.13379, -3743.153076171875]]], [[[-125.65206, 47.1425, -5405.0712890625], [-125.66171, 47.14608, -5953.20068359375], [-125.65988, 47.13726, -5957.13916015625], [-125.65206, 47.1425, -5405.0712890625]]], [[[-125.5695, 47.02999, -3265.483154296875], [-125.55856, 47.02779, -2728.949951171875], [-125.56299, 47.03589, -2728.949951171875], [-125.5695, 47.02999, -3265.483154296875]]], [[[-125.603, 47.06931, -4269.806640625], [-125.60698, 47.07607, -4421.2587890625], [-125.61397, 47.0708, -5000.54296875], [-125.603, 47.06931, -4269.806640625]]], [[[-125.57517, 47.0161, -3733.076171875], [-125.57168, 47.00619, -3756.646240234375], [-125.56432, 47.01319, -3305.817626953125], [-125.57517, 47.0161, -3733.076171875]]], [[[-125.59308, 47.06658, -3747.892822265625], [-125.58136, 47.06339, -3275.517333984375], [-125.58527, 47.07277, -3336.56396484375], [-125.59308, 47.06658, -3747.892822265625]]], [[[-125.58151, 47.0324, -3751.905517578125], [-125.5787, 47.02446, -3749.615966796875], [-125.5695, 47.02999, -3265.483154296875], [-125.58151, 47.0324, -3751.905517578125]]], [[[-125.56674, 47.02219, -3267.010009765625], [-125.55715, 47.01886, -2728.949951171875], [-125.55856, 47.02779, -2728.949951171875], [-125.56674, 47.02219, -3267.010009765625]]], [[[-125.63494, 47.1654, -3800.9306640625], [-125.62413, 47.1651, -3290.409423828125], [-125.63076, 47.17158, -3304.208251953125], [-125.63494, 47.1654, -3800.9306640625]]], [[[-125.61061, 47.03145, -5641.42822265625], [-125.62093, 47.03436, -6194.177734375], [-125.61815, 47.02566, -6194.61767578125], [-125.61061, 47.03145, -5641.42822265625]]], [[[-125.587, 47.08276, -3290.229736328125], [-125.58527, 47.07277, -3336.56396484375], [-125.57898, 47.07841, -2728.949951171875], [-125.587, 47.08276, -3290.229736328125]]], [[[-125.63423, 47.12279, -4816.37158203125], [-125.63492, 47.11435, -5232.759765625], [-125.62578, 47.11585, -4533.1396484375], [-125.63423, 47.12279, -4816.37158203125]]], [[[-125.59642, 47.07728, -3763.455078125], [-125.59308, 47.06658, -3747.892822265625], [-125.58527, 47.07277, -3336.56396484375], [-125.59642, 47.07728, -3763.455078125]]], [[[-125.6382, 47.15347, -4264.392578125], [-125.62848, 47.15183, -3739.45166015625], [-125.63189, 47.1593, -3787.438720703125], [-125.6382, 47.15347, -4264.392578125]]], [[[-125.62848, 47.15183, -3739.45166015625], [-125.61809, 47.149, -3308.8720703125], [-125.62045, 47.1578, -3317.18115234375], [-125.62848, 47.15183, -3739.45166015625]]], [[[-125.65669, 47.16083, -5384.35791015625], [-125.66698, 47.16351, -5948.63037109375], [-125.66402, 47.15484, -5945.1298828125], [-125.65669, 47.16083, -5384.35791015625]]], [[[-125.60529, 47.10123, -3873.919921875], [-125.60047, 47.11087, -3404.583984375], [-125.61178, 47.109, -3873.919921875], [-125.60529, 47.10123, -3873.919921875]]], [[[-125.63124, 47.1302, -4342.033203125], [-125.63423, 47.12279, -4816.37158203125], [-125.62449, 47.1242, -4125.96044921875], [-125.63124, 47.1302, -4342.033203125]]], [[[-125.60698, 47.07607, -4421.2587890625], [-125.61595, 47.07987, -5004.37451171875], [-125.61397, 47.0708, -5000.54296875], [-125.60698, 47.07607, -4421.2587890625]]], [[[-125.61061, 47.03145, -5641.42822265625], [-125.6027, 47.03749, -5006.2392578125], [-125.61371, 47.04015, -5647.923828125], [-125.61061, 47.03145, -5641.42822265625]]], [[[-125.59011, 47.05788, -3739.78173828125], [-125.57768, 47.05555, -3240.3837890625], [-125.58136, 47.06339, -3275.517333984375], [-125.59011, 47.05788, -3739.78173828125]]], [[[-125.603, 47.06931, -4269.806640625], [-125.59308, 47.06658, -3747.892822265625], [-125.59642, 47.07728, -3763.455078125], [-125.603, 47.06931, -4269.806640625]]], [[[-125.624, 47.09814, -5232.759765625], [-125.63803, 47.09542, -6098.03662109375], [-125.62621, 47.09039, -5539.15673828125], [-125.624, 47.09814, -5232.759765625]]], [[[-125.6382, 47.15347, -4264.392578125], [-125.63189, 47.1593, -3787.438720703125], [-125.64276, 47.16159, -4371.4794921875], [-125.6382, 47.15347, -4264.392578125]]], [[[-125.65413, 47.15148, -5403.173828125], [-125.66402, 47.15484, -5945.1298828125], [-125.66171, 47.14608, -5953.20068359375], [-125.65413, 47.15148, -5403.173828125]]], [[[-125.63872, 47.17745, -3585.34326171875], [-125.63076, 47.17158, -3304.208251953125], [-125.62782, 47.17752, -2597.49365234375], [-125.63872, 47.17745, -3585.34326171875]]], [[[-125.603, 47.06931, -4269.806640625], [-125.61397, 47.0708, -5000.54296875], [-125.61154, 47.0629, -4997.19775390625], [-125.603, 47.06931, -4269.806640625]]], [[[-125.6047, 47.01427, -5644.14306640625], [-125.60794, 47.02279, -5655.4267578125], [-125.61506, 47.01701, -6192.24169921875], [-125.6047, 47.01427, -5644.14306640625]]], [[[-125.56966, 46.99614, -3796.927978515625], [-125.56391, 46.9876, -3645.36279296875], [-125.55714, 46.99629, -3263.24951171875], [-125.56966, 46.99614, -3796.927978515625]]], [[[-125.6426, 47.13962, -4795.2939453125], [-125.64958, 47.13452, -5417.33935546875], [-125.63984, 47.13178, -4846.63818359375], [-125.6426, 47.13962, -4795.2939453125]]], [[[-125.64276, 47.16159, -4371.4794921875], [-125.64781, 47.15709, -4850.76123046875], [-125.6382, 47.15347, -4264.392578125], [-125.64276, 47.16159, -4371.4794921875]]], [[[-125.59829, 47.0522, -4326.52685546875], [-125.60916, 47.05424, -5026.92822265625], [-125.60595, 47.04596, -5013.69677734375], [-125.59829, 47.0522, -4326.52685546875]]], [[[-125.62848, 47.15183, -3739.45166015625], [-125.62617, 47.14328, -3718.842041015625], [-125.61809, 47.149, -3308.8720703125], [-125.62848, 47.15183, -3739.45166015625]]], [[[-125.59399, 47.1031, -3404.583984375], [-125.58468, 47.10462, -2728.949951171875], [-125.59116, 47.11239, -2728.949951171875], [-125.59399, 47.1031, -3404.583984375]]], [[[-125.64185, 47.16993, -4050.730712890625], [-125.63494, 47.1654, -3800.9306640625], [-125.63076, 47.17158, -3304.208251953125], [-125.64185, 47.16993, -4050.730712890625]]], [[[-125.59778, 47.0867, -3744.62158203125], [-125.587, 47.08276, -3290.229736328125], [-125.58803, 47.09175, -3285.027099609375], [-125.59778, 47.0867, -3744.62158203125]]], [[[-125.624, 47.09814, -5232.759765625], [-125.61486, 47.09964, -4533.1396484375], [-125.62134, 47.10741, -4533.1396484375], [-125.624, 47.09814, -5232.759765625]]], [[[-125.62617, 47.14328, -3718.842041015625], [-125.62257, 47.13379, -3743.153076171875], [-125.6157, 47.14061, -3320.921875], [-125.62617, 47.14328, -3718.842041015625]]], [[[-125.58136, 47.06339, -3275.517333984375], [-125.5759, 47.06972, -2728.949951171875], [-125.58527, 47.07277, -3336.56396484375], [-125.58136, 47.06339, -3275.517333984375]]], [[[-125.59011, 47.05788, -3739.78173828125], [-125.58692, 47.05019, -3721.450927734375], [-125.57768, 47.05555, -3240.3837890625], [-125.59011, 47.05788, -3739.78173828125]]], [[[-125.62197, 47.06575, -5622.59716796875], [-125.61397, 47.0708, -5000.54296875], [-125.62382, 47.07423, -5605.17919921875], [-125.62197, 47.06575, -5622.59716796875]]], [[[-125.59084, 47.00308, -5010.68798828125], [-125.60131, 47.00568, -5631.93408203125], [-125.59786, 46.9967, -5623.02587890625], [-125.59084, 47.00308, -5010.68798828125]]], [[[-125.63274, 47.13736, -4209.68310546875], [-125.63562, 47.14522, -4226.89892578125], [-125.6426, 47.13962, -4795.2939453125], [-125.63274, 47.13736, -4209.68310546875]]], [[[-125.64185, 47.16993, -4050.730712890625], [-125.63872, 47.17745, -3585.34326171875], [-125.64863, 47.17663, -4299.4091796875], [-125.64185, 47.16993, -4050.730712890625]]], [[[-125.63187, 47.06916, -6156.3994140625], [-125.62382, 47.07423, -5605.17919921875], [-125.63343, 47.07799, -6140.025390625], [-125.63187, 47.06916, -6156.3994140625]]], [[[-125.57768, 47.05555, -3240.3837890625], [-125.56724, 47.05285, -2728.949951171875], [-125.57058, 47.06152, -2728.949951171875], [-125.57768, 47.05555, -3240.3837890625]]], [[[-125.60204, 47.12865, -2728.949951171875], [-125.61375, 47.12579, -3587.321044921875], [-125.60491, 47.11931, -3404.583984375], [-125.60204, 47.12865, -2728.949951171875]]], [[[-125.62413, 47.1651, -3290.409423828125], [-125.61913, 47.17168, -2728.9375], [-125.63076, 47.17158, -3304.208251953125], [-125.62413, 47.1651, -3290.409423828125]]], [[[-125.64249, 47.12004, -5463.99560546875], [-125.63423, 47.12279, -4816.37158203125], [-125.64571, 47.12665, -5425.11083984375], [-125.64249, 47.12004, -5463.99560546875]]], [[[-125.62045, 47.1578, -3317.18115234375], [-125.63189, 47.1593, -3787.438720703125], [-125.62848, 47.15183, -3739.45166015625], [-125.62045, 47.1578, -3317.18115234375]]], [[[-125.58803, 47.09175, -3285.027099609375], [-125.587, 47.08276, -3290.229736328125], [-125.57764, 47.08733, -2728.949951171875], [-125.58803, 47.09175, -3285.027099609375]]], [[[-125.59423, 46.98614, -5597.37353515625], [-125.59786, 46.9967, -5623.02587890625], [-125.60517, 46.99117, -6166.80908203125], [-125.59423, 46.98614, -5597.37353515625]]], [[[-125.63274, 47.13736, -4209.68310546875], [-125.6426, 47.13962, -4795.2939453125], [-125.63984, 47.13178, -4846.63818359375], [-125.63274, 47.13736, -4209.68310546875]]], [[[-125.64863, 47.17663, -4299.4091796875], [-125.64837, 47.18419, -3751.748046875], [-125.65732, 47.18309, -4533.1396484375], [-125.64863, 47.17663, -4299.4091796875]]], [[[-125.65041, 47.16772, -4773.32470703125], [-125.66104, 47.17004, -5411.51416015625], [-125.65669, 47.16083, -5384.35791015625], [-125.65041, 47.16772, -4773.32470703125]]], [[[-125.64249, 47.12004, -5463.99560546875], [-125.64571, 47.12665, -5425.11083984375], [-125.65203, 47.1203, -6002.1279296875], [-125.64249, 47.12004, -5463.99560546875]]], [[[-125.61371, 47.04015, -5647.923828125], [-125.62407, 47.043, -6192.796875], [-125.62093, 47.03436, -6194.177734375], [-125.61371, 47.04015, -5647.923828125]]], [[[-125.61809, 47.149, -3308.8720703125], [-125.61136, 47.15463, -2728.949951171875], [-125.62045, 47.1578, -3317.18115234375], [-125.61809, 47.149, -3308.8720703125]]], [[[-125.6047, 47.01427, -5644.14306640625], [-125.61506, 47.01701, -6192.24169921875], [-125.61178, 47.00839, -6185.10009765625], [-125.6047, 47.01427, -5644.14306640625]]], [[[-125.58624, 46.97604, -5232.759765625], [-125.57711, 46.97753, -4533.1396484375], [-125.584, 46.98446, -4923.60986328125], [-125.58624, 46.97604, -5232.759765625]]], [[[-125.6426, 47.13962, -4795.2939453125], [-125.6448, 47.14782, -4819.58154296875], [-125.65206, 47.1425, -5405.0712890625], [-125.6426, 47.13962, -4795.2939453125]]], [[[-125.63189, 47.1593, -3787.438720703125], [-125.62045, 47.1578, -3317.18115234375], [-125.62413, 47.1651, -3290.409423828125], [-125.63189, 47.1593, -3787.438720703125]]], [[[-125.60595, 47.04596, -5013.69677734375], [-125.61371, 47.04015, -5647.923828125], [-125.6027, 47.03749, -5006.2392578125], [-125.60595, 47.04596, -5013.69677734375]]], [[[-125.59786, 46.9967, -5623.02587890625], [-125.60847, 46.99978, -6178.60400390625], [-125.60517, 46.99117, -6166.80908203125], [-125.59786, 46.9967, -5623.02587890625]]], [[[-125.58387, 47.04181, -3723.942138671875], [-125.57306, 47.03835, -3305.7431640625], [-125.57561, 47.04759, -3269.198486328125], [-125.58387, 47.04181, -3723.942138671875]]], [[[-125.55714, 46.99629, -3263.24951171875], [-125.5467, 46.9934, -2728.949951171875], [-125.54882, 47.00216, -2728.949951171875], [-125.55714, 46.99629, -3263.24951171875]]], [[[-125.64958, 47.13452, -5417.33935546875], [-125.65206, 47.1425, -5405.0712890625], [-125.65988, 47.13726, -5957.13916015625], [-125.64958, 47.13452, -5417.33935546875]]], [[[-125.58257, 47.00953, -4285.04150390625], [-125.59084, 47.00308, -5010.68798828125], [-125.58098, 47.00035, -4398.92626953125], [-125.58257, 47.00953, -4285.04150390625]]], [[[-125.65413, 47.15148, -5403.173828125], [-125.66171, 47.14608, -5953.20068359375], [-125.65206, 47.1425, -5405.0712890625], [-125.65413, 47.15148, -5403.173828125]]], [[[-125.62518, 47.08291, -5593.12109375], [-125.63476, 47.08685, -6116.2314453125], [-125.63343, 47.07799, -6140.025390625], [-125.62518, 47.08291, -5593.12109375]]], [[[-125.61595, 47.07987, -5004.37451171875], [-125.62382, 47.07423, -5605.17919921875], [-125.61397, 47.0708, -5000.54296875], [-125.61595, 47.07987, -5004.37451171875]]], [[[-125.60916, 47.05424, -5026.92822265625], [-125.61959, 47.05718, -5638.9482421875], [-125.61686, 47.04869, -5649.95166015625], [-125.60916, 47.05424, -5026.92822265625]]], [[[-125.61154, 47.0629, -4997.19775390625], [-125.62197, 47.06575, -5622.59716796875], [-125.61959, 47.05718, -5638.9482421875], [-125.61154, 47.0629, -4997.19775390625]]], [[[-125.61397, 47.0708, -5000.54296875], [-125.62197, 47.06575, -5622.59716796875], [-125.61154, 47.0629, -4997.19775390625], [-125.61397, 47.0708, -5000.54296875]]], [[[-125.63124, 47.1302, -4342.033203125], [-125.62449, 47.1242, -4125.96044921875], [-125.62257, 47.13379, -3743.153076171875], [-125.63124, 47.1302, -4342.033203125]]], [[[-125.57768, 47.05555, -3240.3837890625], [-125.57561, 47.04759, -3269.198486328125], [-125.56724, 47.05285, -2728.949951171875], [-125.57768, 47.05555, -3240.3837890625]]], [[[-125.58818, 46.99354, -5079.251953125], [-125.59423, 46.98614, -5597.37353515625], [-125.584, 46.98446, -4923.60986328125], [-125.58818, 46.99354, -5079.251953125]]], [[[-125.62197, 47.06575, -5622.59716796875], [-125.63187, 47.06916, -6156.3994140625], [-125.62963, 47.06039, -6171.49609375], [-125.62197, 47.06575, -5622.59716796875]]], [[[-125.60026, 47.02891, -5024.82421875], [-125.61061, 47.03145, -5641.42822265625], [-125.60794, 47.02279, -5655.4267578125], [-125.60026, 47.02891, -5024.82421875]]], [[[-125.64863, 47.17663, -4299.4091796875], [-125.65732, 47.18309, -4533.1396484375], [-125.6575, 47.17556, -4960.8310546875], [-125.64863, 47.17663, -4299.4091796875]]], [[[-125.58257, 47.00953, -4285.04150390625], [-125.58632, 47.01829, -4321.60400390625], [-125.59368, 47.01175, -4994.4365234375], [-125.58257, 47.00953, -4285.04150390625]]], [[[-125.603, 47.06931, -4269.806640625], [-125.60172, 47.06028, -4367.4716796875], [-125.59308, 47.06658, -3747.892822265625], [-125.603, 47.06931, -4269.806640625]]], [[[-125.64781, 47.15709, -4850.76123046875], [-125.65041, 47.16772, -4773.32470703125], [-125.65669, 47.16083, -5384.35791015625], [-125.64781, 47.15709, -4850.76123046875]]], [[[-125.60698, 47.07607, -4421.2587890625], [-125.60747, 47.08406, -4349.88623046875], [-125.61595, 47.07987, -5004.37451171875], [-125.60698, 47.07607, -4421.2587890625]]], [[[-125.56391, 46.9876, -3645.36279296875], [-125.57415, 46.9863, -4212.21435546875], [-125.56757, 46.97912, -3873.919921875], [-125.56391, 46.9876, -3645.36279296875]]], [[[-125.5903, 47.02636, -4388.33203125], [-125.58151, 47.0324, -3751.905517578125], [-125.59193, 47.03531, -4300.9599609375], [-125.5903, 47.02636, -4388.33203125]]], [[[-125.59399, 47.1031, -3404.583984375], [-125.59116, 47.11239, -2728.949951171875], [-125.60047, 47.11087, -3404.583984375], [-125.59399, 47.1031, -3404.583984375]]], [[[-125.6448, 47.14782, -4819.58154296875], [-125.6426, 47.13962, -4795.2939453125], [-125.63562, 47.14522, -4226.89892578125], [-125.6448, 47.14782, -4819.58154296875]]], [[[-125.60047, 47.11087, -3404.583984375], [-125.59116, 47.11239, -2728.949951171875], [-125.59559, 47.12083, -2728.949951171875], [-125.60047, 47.11087, -3404.583984375]]], [[[-125.6575, 47.17556, -4960.8310546875], [-125.66648, 47.18159, -5232.759765625], [-125.66104, 47.17004, -5411.51416015625], [-125.6575, 47.17556, -4960.8310546875]]], [[[-125.56432, 47.01319, -3305.817626953125], [-125.55495, 47.01, -2728.949951171875], [-125.55715, 47.01886, -2728.949951171875], [-125.56432, 47.01319, -3305.817626953125]]], [[[-125.59829, 47.0522, -4326.52685546875], [-125.60172, 47.06028, -4367.4716796875], [-125.60916, 47.05424, -5026.92822265625], [-125.59829, 47.0522, -4326.52685546875]]], [[[-125.60747, 47.08406, -4349.88623046875], [-125.60698, 47.07607, -4421.2587890625], [-125.59642, 47.07728, -3763.455078125], [-125.60747, 47.08406, -4349.88623046875]]], [[[-125.60747, 47.08406, -4349.88623046875], [-125.61651, 47.09012, -4927.787109375], [-125.61595, 47.07987, -5004.37451171875], [-125.60747, 47.08406, -4349.88623046875]]], [[[-125.60747, 47.08406, -4349.88623046875], [-125.59778, 47.0867, -3744.62158203125], [-125.60719, 47.09293, -4222.869140625], [-125.60747, 47.08406, -4349.88623046875]]], [[[-125.61486, 47.09964, -4533.1396484375], [-125.60529, 47.10123, -3873.919921875], [-125.61178, 47.109, -3873.919921875], [-125.61486, 47.09964, -4533.1396484375]]], [[[-125.56057, 47.00377, -3305.862060546875], [-125.55495, 47.01, -2728.949951171875], [-125.56432, 47.01319, -3305.817626953125], [-125.56057, 47.00377, -3305.862060546875]]], [[[-125.624, 47.09814, -5232.759765625], [-125.62134, 47.10741, -4533.1396484375], [-125.63049, 47.10591, -5232.759765625], [-125.624, 47.09814, -5232.759765625]]], [[[-125.63562, 47.14522, -4226.89892578125], [-125.62617, 47.14328, -3718.842041015625], [-125.62848, 47.15183, -3739.45166015625], [-125.63562, 47.14522, -4226.89892578125]]], [[[-125.64185, 47.16993, -4050.730712890625], [-125.63076, 47.17158, -3304.208251953125], [-125.63872, 47.17745, -3585.34326171875], [-125.64185, 47.16993, -4050.730712890625]]], [[[-125.58098, 47.00035, -4398.92626953125], [-125.59084, 47.00308, -5010.68798828125], [-125.58818, 46.99354, -5079.251953125], [-125.58098, 47.00035, -4398.92626953125]]], [[[-125.6426, 47.13962, -4795.2939453125], [-125.65206, 47.1425, -5405.0712890625], [-125.64958, 47.13452, -5417.33935546875], [-125.6426, 47.13962, -4795.2939453125]]], [[[-125.59399, 47.1031, -3404.583984375], [-125.59724, 47.09501, -3663.647216796875], [-125.58803, 47.09175, -3285.027099609375], [-125.59399, 47.1031, -3404.583984375]]], [[[-125.57306, 47.03835, -3305.7431640625], [-125.56634, 47.04406, -2728.949951171875], [-125.57561, 47.04759, -3269.198486328125], [-125.57306, 47.03835, -3305.7431640625]]], [[[-125.60491, 47.11931, -3404.583984375], [-125.61375, 47.12579, -3587.321044921875], [-125.61621, 47.11744, -3873.919921875], [-125.60491, 47.11931, -3404.583984375]]], [[[-125.60719, 47.09293, -4222.869140625], [-125.61486, 47.09964, -4533.1396484375], [-125.61651, 47.09012, -4927.787109375], [-125.60719, 47.09293, -4222.869140625]]], [[[-125.63984, 47.13178, -4846.63818359375], [-125.64571, 47.12665, -5425.11083984375], [-125.63423, 47.12279, -4816.37158203125], [-125.63984, 47.13178, -4846.63818359375]]], [[[-125.59368, 47.01175, -4994.4365234375], [-125.60131, 47.00568, -5631.93408203125], [-125.59084, 47.00308, -5010.68798828125], [-125.59368, 47.01175, -4994.4365234375]]], [[[-125.57989, 46.99254, -4494.3310546875], [-125.58818, 46.99354, -5079.251953125], [-125.584, 46.98446, -4923.60986328125], [-125.57989, 46.99254, -4494.3310546875]]], [[[-125.6157, 47.14061, -3320.921875], [-125.60838, 47.14596, -2728.949951171875], [-125.61809, 47.149, -3308.8720703125], [-125.6157, 47.14061, -3320.921875]]], [[[-125.60172, 47.06028, -4367.4716796875], [-125.61154, 47.0629, -4997.19775390625], [-125.60916, 47.05424, -5026.92822265625], [-125.60172, 47.06028, -4367.4716796875]]], [[[-125.61166, 47.13199, -3288.236083984375], [-125.60676, 47.13704, -2728.949951171875], [-125.6157, 47.14061, -3320.921875], [-125.61166, 47.13199, -3288.236083984375]]], [[[-125.61371, 47.04015, -5647.923828125], [-125.61686, 47.04869, -5649.95166015625], [-125.62407, 47.043, -6192.796875], [-125.61371, 47.04015, -5647.923828125]]], [[[-125.61959, 47.05718, -5638.9482421875], [-125.62197, 47.06575, -5622.59716796875], [-125.62963, 47.06039, -6171.49609375], [-125.61959, 47.05718, -5638.9482421875]]], [[[-125.64276, 47.16159, -4371.4794921875], [-125.65041, 47.16772, -4773.32470703125], [-125.64781, 47.15709, -4850.76123046875], [-125.64276, 47.16159, -4371.4794921875]]], [[[-125.62134, 47.10741, -4533.1396484375], [-125.61621, 47.11744, -3873.919921875], [-125.62578, 47.11585, -4533.1396484375], [-125.62134, 47.10741, -4533.1396484375]]], [[[-125.63049, 47.10591, -5232.759765625], [-125.62134, 47.10741, -4533.1396484375], [-125.62578, 47.11585, -4533.1396484375], [-125.63049, 47.10591, -5232.759765625]]], [[[-125.63049, 47.10591, -5232.759765625], [-125.62578, 47.11585, -4533.1396484375], [-125.63492, 47.11435, -5232.759765625], [-125.63049, 47.10591, -5232.759765625]]], [[[-125.62449, 47.1242, -4125.96044921875], [-125.62578, 47.11585, -4533.1396484375], [-125.61621, 47.11744, -3873.919921875], [-125.62449, 47.1242, -4125.96044921875]]], [[[-125.6448, 47.14782, -4819.58154296875], [-125.6382, 47.15347, -4264.392578125], [-125.64781, 47.15709, -4850.76123046875], [-125.6448, 47.14782, -4819.58154296875]]], [[[-125.6448, 47.14782, -4819.58154296875], [-125.64781, 47.15709, -4850.76123046875], [-125.65413, 47.15148, -5403.173828125], [-125.6448, 47.14782, -4819.58154296875]]], [[[-125.6448, 47.14782, -4819.58154296875], [-125.65413, 47.15148, -5403.173828125], [-125.65206, 47.1425, -5405.0712890625], [-125.6448, 47.14782, -4819.58154296875]]], [[[-125.59193, 47.03531, -4300.9599609375], [-125.59499, 47.0441, -4306.07275390625], [-125.6027, 47.03749, -5006.2392578125], [-125.59193, 47.03531, -4300.9599609375]]], [[[-125.60026, 47.02891, -5024.82421875], [-125.59193, 47.03531, -4300.9599609375], [-125.6027, 47.03749, -5006.2392578125], [-125.60026, 47.02891, -5024.82421875]]], [[[-125.5903, 47.02636, -4388.33203125], [-125.59193, 47.03531, -4300.9599609375], [-125.60026, 47.02891, -5024.82421875], [-125.5903, 47.02636, -4388.33203125]]], [[[-125.5903, 47.02636, -4388.33203125], [-125.60026, 47.02891, -5024.82421875], [-125.59735, 47.0201, -5037.322265625], [-125.5903, 47.02636, -4388.33203125]]], [[[-125.5787, 47.02446, -3749.615966796875], [-125.56674, 47.02219, -3267.010009765625], [-125.5695, 47.02999, -3265.483154296875], [-125.5787, 47.02446, -3749.615966796875]]], [[[-125.56966, 46.99614, -3796.927978515625], [-125.55714, 46.99629, -3263.24951171875], [-125.56057, 47.00377, -3305.862060546875], [-125.56966, 46.99614, -3796.927978515625]]], [[[-125.5759, 47.06972, -2728.949951171875], [-125.57898, 47.07841, -2728.949951171875], [-125.58527, 47.07277, -3336.56396484375], [-125.5759, 47.06972, -2728.949951171875]]], [[[-125.587, 47.08276, -3290.229736328125], [-125.57898, 47.07841, -2728.949951171875], [-125.57764, 47.08733, -2728.949951171875], [-125.587, 47.08276, -3290.229736328125]]], [[[-125.62782, 47.17752, -2597.49365234375], [-125.63076, 47.17158, -3304.208251953125], [-125.61913, 47.17168, -2728.9375], [-125.62782, 47.17752, -2597.49365234375]]], [[[-125.55629, 46.98099, -3404.583984375], [-125.547, 46.98251, -2728.949951171875], [-125.55482, 46.98867, -3213.76318359375], [-125.55629, 46.98099, -3404.583984375]]], [[[-125.55482, 46.98867, -3213.76318359375], [-125.547, 46.98251, -2728.949951171875], [-125.5467, 46.9934, -2728.949951171875], [-125.55482, 46.98867, -3213.76318359375]]], [[[-125.59423, 46.98614, -5597.37353515625], [-125.60258, 46.98245, -6153.4345703125], [-125.5961, 46.97439, -5866.560546875], [-125.59423, 46.98614, -5597.37353515625]]], [[[-125.60258, 46.98245, -6153.4345703125], [-125.60058, 46.97365, -6137.9453125], [-125.5961, 46.97439, -5866.560546875], [-125.60258, 46.98245, -6153.4345703125]]], [[[-125.67126, 47.17192, -5944.28125], [-125.66648, 47.18159, -5232.759765625], [-125.67746, 47.17975, -5932.087890625], [-125.67126, 47.17192, -5944.28125]]], [[[-125.64249, 47.12004, -5463.99560546875], [-125.64723, 47.11229, -6012.97998046875], [-125.63492, 47.11435, -5232.759765625], [-125.64249, 47.12004, -5463.99560546875]]], [[[-125.65203, 47.1203, -6002.1279296875], [-125.64723, 47.11229, -6012.97998046875], [-125.64249, 47.12004, -5463.99560546875], [-125.65203, 47.1203, -6002.1279296875]]], [[[-125.63803, 47.09542, -6098.03662109375], [-125.63476, 47.08685, -6116.2314453125], [-125.62621, 47.09039, -5539.15673828125], [-125.63803, 47.09542, -6098.03662109375]]], [[[-125.63492, 47.11435, -5232.759765625], [-125.64723, 47.11229, -6012.97998046875], [-125.64334, 47.10353, -6063.10498046875], [-125.63492, 47.11435, -5232.759765625]]], [[[-125.63287, 47.18515, -2540.197265625], [-125.64031, 47.18495, -3169.53564453125], [-125.62782, 47.17752, -2597.49365234375], [-125.63287, 47.18515, -2540.197265625]]], [[[-125.62782, 47.17752, -2597.49365234375], [-125.64031, 47.18495, -3169.53564453125], [-125.63872, 47.17745, -3585.34326171875], [-125.62782, 47.17752, -2597.49365234375]]]]}}]}