{"type": "FeatureCollection", "features": [{"type": "Feature", "properties": {"name": "AW_WASH_25", "CFM_ID": 290, "region": "Offshore_WAOR", "primary_state/province": "WA", "secondary_state/province": null, "avg_dip": 41, "dip_dir": "SW", "rake": 90, "slip_sense": "Reverse", "fault_level": 2, "NSHM23_sliprates": null, "QFFDAgeCatBin": null, "QFFDAgeBin": null, "upper_depth": -0.8, "upper_depth_constraint": "seismic imaging", "lower_depth": -10.6, "lower_depth_constraint": "megathrust", "3D_model_constraints": "trace and 1 MCS line", "reference": "Ledeczi et al. (2024); Carbotte et al. (2023)", "nshm23_id": null, "lineage": null, "usgs_qffd_#": null, "comments": null, "id": "290"}, "geometry": {"type": "MultiPolygon", "coordinates": [[[[-125.3716, 47.17597, -5602.5380859375], [-125.3656, 47.16567, -5650.5478515625], [-125.37677, 47.16787, -6126.7890625], [-125.3716, 47.17597, -5602.5380859375]]], [[[-125.41364, 47.20123, -6622.73193359375], [-125.42482, 47.20362, -6994.208984375], [-125.40994, 47.20729, -6338.34326171875], [-125.41364, 47.20123, -6622.73193359375]]], [[[-125.41364, 47.20123, -6622.73193359375], [-125.42072, 47.19502, -6977.7841796875], [-125.42482, 47.20362, -6994.208984375], [-125.41364, 47.20123, -6622.73193359375]]], [[[-125.40877, 47.19416, -6556.3408203125], [-125.42072, 47.19502, -6977.7841796875], [-125.41364, 47.20123, -6622.73193359375], [-125.40877, 47.19416, -6556.3408203125]]], [[[-125.37621, 47.20548, -4161.33251953125], [-125.38226, 47.21188, -4527.74755859375], [-125.37435, 47.21342, -3694.002197265625], [-125.37621, 47.20548, -4161.33251953125]]], [[[-125.40877, 47.19416, -6556.3408203125], [-125.41474, 47.18696, -6966.86181640625], [-125.42072, 47.19502, -6977.7841796875], [-125.40877, 47.19416, -6556.3408203125]]], [[[-125.40255, 47.18713, -6543.74853515625], [-125.41474, 47.18696, -6966.86181640625], [-125.40877, 47.19416, -6556.3408203125], [-125.40255, 47.18713, -6543.74853515625]]], [[[-125.37677, 47.16787, -6126.7890625], [-125.38278, 47.16146, -6620.9248046875], [-125.38827, 47.17027, -6613.52783203125], [-125.37677, 47.16787, -6126.7890625]]], [[[-125.40994, 47.20729, -6338.34326171875], [-125.42482, 47.20362, -6994.208984375], [-125.41728, 47.21419, -6648.00048828125], [-125.40994, 47.20729, -6338.34326171875]]], [[[-125.40255, 47.18713, -6543.74853515625], [-125.40675, 47.17974, -6968.27783203125], [-125.41474, 47.18696, -6966.86181640625], [-125.40255, 47.18713, -6543.74853515625]]], [[[-125.39991, 47.20896, -5793.02392578125], [-125.40738, 47.21581, -6096.95751953125], [-125.39737, 47.2175, -5559.99169921875], [-125.39991, 47.20896, -5793.02392578125]]], [[[-125.3947, 47.17903, -6579.04736328125], [-125.40675, 47.17974, -6968.27783203125], [-125.40255, 47.18713, -6543.74853515625], [-125.3947, 47.17903, -6579.04736328125]]], [[[-125.3905, 47.21053, -5211.18017578125], [-125.38834, 47.21899, -4924.71337890625], [-125.38226, 47.21188, -4527.74755859375], [-125.3905, 47.21053, -5211.18017578125]]], [[[-125.3947, 47.17903, -6579.04736328125], [-125.40037, 47.17181, -6979.9521484375], [-125.40675, 47.17974, -6968.27783203125], [-125.3947, 47.17903, -6579.04736328125]]], [[[-125.38827, 47.17027, -6613.52783203125], [-125.40037, 47.17181, -6979.9521484375], [-125.3947, 47.17903, -6579.04736328125], [-125.38827, 47.17027, -6613.52783203125]]], [[[-125.38827, 47.17027, -6613.52783203125], [-125.39528, 47.16346, -6999.4306640625], [-125.40037, 47.17181, -6979.9521484375], [-125.38827, 47.17027, -6613.52783203125]]], [[[-125.38278, 47.16146, -6620.9248046875], [-125.39528, 47.16346, -6999.4306640625], [-125.38827, 47.17027, -6613.52783203125], [-125.38278, 47.16146, -6620.9248046875]]], [[[-125.38371, 47.20324, -4894.91064453125], [-125.38594, 47.19392, -5426.09423828125], [-125.39242, 47.20206, -5509.89794921875], [-125.38371, 47.20324, -4894.91064453125]]], [[[-125.38278, 47.16146, -6620.9248046875], [-125.39091, 47.15491, -7016.45458984375], [-125.39528, 47.16346, -6999.4306640625], [-125.38278, 47.16146, -6620.9248046875]]], [[[-125.38278, 47.16146, -6620.9248046875], [-125.3787, 47.15354, -6664.6494140625], [-125.39091, 47.15491, -7016.45458984375], [-125.38278, 47.16146, -6620.9248046875]]], [[[-125.36961, 47.15774, -6072.61962890625], [-125.3787, 47.15354, -6664.6494140625], [-125.38278, 47.16146, -6620.9248046875], [-125.36961, 47.15774, -6072.61962890625]]], [[[-125.36961, 47.15774, -6072.61962890625], [-125.36787, 47.14849, -6303.041015625], [-125.3787, 47.15354, -6664.6494140625], [-125.36961, 47.15774, -6072.61962890625]]], [[[-125.36561, 47.19172, -4138.58740234375], [-125.35751, 47.18392, -4126.3330078125], [-125.36756, 47.18467, -4899.1650390625], [-125.36561, 47.19172, -4138.58740234375]]], [[[-125.36961, 47.15774, -6072.61962890625], [-125.35846, 47.15044, -5768.443359375], [-125.36787, 47.14849, -6303.041015625], [-125.36961, 47.15774, -6072.61962890625]]], [[[-125.3716, 47.17597, -5602.5380859375], [-125.37924, 47.18472, -5597.3935546875], [-125.36756, 47.18467, -4899.1650390625], [-125.3716, 47.17597, -5602.5380859375]]], [[[-125.35732, 47.1588, -5406.06201171875], [-125.35846, 47.15044, -5768.443359375], [-125.36961, 47.15774, -6072.61962890625], [-125.35732, 47.1588, -5406.06201171875]]], [[[-125.35732, 47.1588, -5406.06201171875], [-125.34847, 47.15156, -5155.228515625], [-125.35846, 47.15044, -5768.443359375], [-125.35732, 47.1588, -5406.06201171875]]], [[[-125.36251, 47.2138, -2785.570068359375], [-125.3735, 47.22146, -3424.872314453125], [-125.36447, 47.2228, -2785.570068359375], [-125.36251, 47.2138, -2785.570068359375]]], [[[-125.35732, 47.1588, -5406.06201171875], [-125.34816, 47.16005, -4721.96142578125], [-125.34847, 47.15156, -5155.228515625], [-125.35732, 47.1588, -5406.06201171875]]], [[[-125.35478, 47.16802, -4878.33251953125], [-125.34816, 47.16005, -4721.96142578125], [-125.35732, 47.1588, -5406.06201171875], [-125.35478, 47.16802, -4878.33251953125]]], [[[-125.34816, 47.16005, -4721.96142578125], [-125.35478, 47.16802, -4878.33251953125], [-125.3464, 47.16874, -4117.69970703125], [-125.34816, 47.16005, -4721.96142578125]]], [[[-125.34816, 47.16005, -4721.96142578125], [-125.3464, 47.16874, -4117.69970703125], [-125.34072, 47.16091, -4022.9814453125], [-125.34816, 47.16005, -4721.96142578125]]], [[[-125.34816, 47.16005, -4721.96142578125], [-125.34072, 47.16091, -4022.9814453125], [-125.34022, 47.15288, -4470.43212890625], [-125.34816, 47.16005, -4721.96142578125]]], [[[-125.34816, 47.16005, -4721.96142578125], [-125.34022, 47.15288, -4470.43212890625], [-125.34847, 47.15156, -5155.228515625], [-125.34816, 47.16005, -4721.96142578125]]], [[[-125.34847, 47.15156, -5155.228515625], [-125.34022, 47.15288, -4470.43212890625], [-125.33997, 47.14499, -4944.44140625], [-125.34847, 47.15156, -5155.228515625]]], [[[-125.39242, 47.20206, -5509.89794921875], [-125.40267, 47.20076, -6065.9287109375], [-125.39991, 47.20896, -5793.02392578125], [-125.39242, 47.20206, -5509.89794921875]]], [[[-125.34847, 47.15156, -5155.228515625], [-125.33997, 47.14499, -4944.44140625], [-125.34916, 47.14347, -5581.6455078125], [-125.34847, 47.15156, -5155.228515625]]], [[[-125.31566, 47.14887, -2785.570068359375], [-125.32472, 47.14751, -3440.376220703125], [-125.32198, 47.15689, -2785.570068359375], [-125.31566, 47.14887, -2785.570068359375]]], [[[-125.34847, 47.15156, -5155.228515625], [-125.34916, 47.14347, -5581.6455078125], [-125.35846, 47.15044, -5768.443359375], [-125.34847, 47.15156, -5155.228515625]]], [[[-125.37924, 47.18472, -5597.3935546875], [-125.3716, 47.17597, -5602.5380859375], [-125.38333, 47.17728, -6097.85791015625], [-125.37924, 47.18472, -5597.3935546875]]], [[[-125.35846, 47.15044, -5768.443359375], [-125.34916, 47.14347, -5581.6455078125], [-125.35916, 47.1418, -6139.34228515625], [-125.35846, 47.15044, -5768.443359375]]], [[[-125.36077, 47.17789, -4809.8154296875], [-125.36756, 47.18467, -4899.1650390625], [-125.35751, 47.18392, -4126.3330078125], [-125.36077, 47.17789, -4809.8154296875]]], [[[-125.35846, 47.15044, -5768.443359375], [-125.35916, 47.1418, -6139.34228515625], [-125.36787, 47.14849, -6303.041015625], [-125.35846, 47.15044, -5768.443359375]]], [[[-125.3464, 47.16874, -4117.69970703125], [-125.34286, 47.17524, -3383.027587890625], [-125.33787, 47.1672, -3372.02587890625], [-125.3464, 47.16874, -4117.69970703125]]], [[[-125.36787, 47.14849, -6303.041015625], [-125.35916, 47.1418, -6139.34228515625], [-125.36933, 47.14012, -6681.30615234375], [-125.36787, 47.14849, -6303.041015625]]], [[[-125.36787, 47.14849, -6303.041015625], [-125.36933, 47.14012, -6681.30615234375], [-125.37699, 47.14615, -6770.41064453125], [-125.36787, 47.14849, -6303.041015625]]], [[[-125.3787, 47.15354, -6664.6494140625], [-125.36787, 47.14849, -6303.041015625], [-125.37699, 47.14615, -6770.41064453125], [-125.3787, 47.15354, -6664.6494140625]]], [[[-125.3787, 47.15354, -6664.6494140625], [-125.37699, 47.14615, -6770.41064453125], [-125.38609, 47.14648, -7038.02783203125], [-125.3787, 47.15354, -6664.6494140625]]], [[[-125.3787, 47.15354, -6664.6494140625], [-125.38609, 47.14648, -7038.02783203125], [-125.39091, 47.15491, -7016.45458984375], [-125.3787, 47.15354, -6664.6494140625]]], [[[-125.37699, 47.14615, -6770.41064453125], [-125.38053, 47.13825, -7059.7685546875], [-125.38609, 47.14648, -7038.02783203125], [-125.37699, 47.14615, -6770.41064453125]]], [[[-125.3633, 47.17218, -5258.31884765625], [-125.35478, 47.16802, -4878.33251953125], [-125.3656, 47.16567, -5650.5478515625], [-125.3633, 47.17218, -5258.31884765625]]], [[[-125.38053, 47.13825, -7059.7685546875], [-125.37699, 47.14615, -6770.41064453125], [-125.36933, 47.14012, -6681.30615234375], [-125.38053, 47.13825, -7059.7685546875]]], [[[-125.38333, 47.17728, -6097.85791015625], [-125.38827, 47.17027, -6613.52783203125], [-125.3947, 47.17903, -6579.04736328125], [-125.38333, 47.17728, -6097.85791015625]]], [[[-125.33195, 47.1463, -4216.26806640625], [-125.33997, 47.14499, -4944.44140625], [-125.34022, 47.15288, -4470.43212890625], [-125.33195, 47.1463, -4216.26806640625]]], [[[-125.33254, 47.15371, -3702.829345703125], [-125.33195, 47.1463, -4216.26806640625], [-125.34022, 47.15288, -4470.43212890625], [-125.33254, 47.15371, -3702.829345703125]]], [[[-125.3905, 47.21053, -5211.18017578125], [-125.39737, 47.2175, -5559.99169921875], [-125.38834, 47.21899, -4924.71337890625], [-125.3905, 47.21053, -5211.18017578125]]], [[[-125.33254, 47.15371, -3702.829345703125], [-125.32472, 47.14751, -3440.376220703125], [-125.33195, 47.1463, -4216.26806640625], [-125.33254, 47.15371, -3702.829345703125]]], [[[-125.33195, 47.15966, -3343.251953125], [-125.32761, 47.16514, -2785.570068359375], [-125.32198, 47.15689, -2785.570068359375], [-125.33195, 47.15966, -3343.251953125]]], [[[-125.33787, 47.1672, -3372.02587890625], [-125.32761, 47.16514, -2785.570068359375], [-125.33195, 47.15966, -3343.251953125], [-125.33787, 47.1672, -3372.02587890625]]], [[[-125.39068, 47.18617, -6045.58984375], [-125.38333, 47.17728, -6097.85791015625], [-125.3947, 47.17903, -6579.04736328125], [-125.39068, 47.18617, -6045.58984375]]], [[[-125.33787, 47.1672, -3372.02587890625], [-125.3325, 47.17361, -2785.570068359375], [-125.32761, 47.16514, -2785.570068359375], [-125.33787, 47.1672, -3372.02587890625]]], [[[-125.34286, 47.17524, -3383.027587890625], [-125.3325, 47.17361, -2785.570068359375], [-125.33787, 47.1672, -3372.02587890625], [-125.34286, 47.17524, -3383.027587890625]]], [[[-125.36077, 47.17789, -4809.8154296875], [-125.35165, 47.17634, -4146.0087890625], [-125.35478, 47.16802, -4878.33251953125], [-125.36077, 47.17789, -4809.8154296875]]], [[[-125.34286, 47.17524, -3383.027587890625], [-125.33834, 47.1818, -2785.570068359375], [-125.3325, 47.17361, -2785.570068359375], [-125.34286, 47.17524, -3383.027587890625]]], [[[-125.39715, 47.1939, -6002.58544921875], [-125.39068, 47.18617, -6045.58984375], [-125.40255, 47.18713, -6543.74853515625], [-125.39715, 47.1939, -6002.58544921875]]], [[[-125.34286, 47.17524, -3383.027587890625], [-125.34879, 47.18295, -3386.877685546875], [-125.33834, 47.1818, -2785.570068359375], [-125.34286, 47.17524, -3383.027587890625]]], [[[-125.35165, 47.17634, -4146.0087890625], [-125.34879, 47.18295, -3386.877685546875], [-125.34286, 47.17524, -3383.027587890625], [-125.35165, 47.17634, -4146.0087890625]]], [[[-125.35751, 47.18392, -4126.3330078125], [-125.34879, 47.18295, -3386.877685546875], [-125.35165, 47.17634, -4146.0087890625], [-125.35751, 47.18392, -4126.3330078125]]], [[[-125.3633, 47.17218, -5258.31884765625], [-125.36077, 47.17789, -4809.8154296875], [-125.35478, 47.16802, -4878.33251953125], [-125.3633, 47.17218, -5258.31884765625]]], [[[-125.35751, 47.18392, -4126.3330078125], [-125.35555, 47.19008, -3404.740234375], [-125.34879, 47.18295, -3386.877685546875], [-125.35751, 47.18392, -4126.3330078125]]], [[[-125.36561, 47.19172, -4138.58740234375], [-125.35555, 47.19008, -3404.740234375], [-125.35751, 47.18392, -4126.3330078125], [-125.36561, 47.19172, -4138.58740234375]]], [[[-125.36251, 47.2138, -2785.570068359375], [-125.37435, 47.21342, -3694.002197265625], [-125.3735, 47.22146, -3424.872314453125], [-125.36251, 47.2138, -2785.570068359375]]], [[[-125.36561, 47.19172, -4138.58740234375], [-125.36345, 47.19811, -3364.355712890625], [-125.35555, 47.19008, -3404.740234375], [-125.36561, 47.19172, -4138.58740234375]]], [[[-125.37098, 47.19944, -3998.369384765625], [-125.36345, 47.19811, -3364.355712890625], [-125.36561, 47.19172, -4138.58740234375], [-125.37098, 47.19944, -3998.369384765625]]], [[[-125.36874, 47.20697, -3365.089599609375], [-125.36345, 47.19811, -3364.355712890625], [-125.37098, 47.19944, -3998.369384765625], [-125.36874, 47.20697, -3365.089599609375]]], [[[-125.36345, 47.19811, -3364.355712890625], [-125.36874, 47.20697, -3365.089599609375], [-125.35939, 47.20495, -2785.570068359375], [-125.36345, 47.19811, -3364.355712890625]]], [[[-125.36345, 47.19811, -3364.355712890625], [-125.35939, 47.20495, -2785.570068359375], [-125.35326, 47.19686, -2785.570068359375], [-125.36345, 47.19811, -3364.355712890625]]], [[[-125.36345, 47.19811, -3364.355712890625], [-125.35326, 47.19686, -2785.570068359375], [-125.35555, 47.19008, -3404.740234375], [-125.36345, 47.19811, -3364.355712890625]]], [[[-125.34504, 47.18968, -2785.570068359375], [-125.35555, 47.19008, -3404.740234375], [-125.35326, 47.19686, -2785.570068359375], [-125.34504, 47.18968, -2785.570068359375]]], [[[-125.40267, 47.20076, -6065.9287109375], [-125.40877, 47.19416, -6556.3408203125], [-125.41364, 47.20123, -6622.73193359375], [-125.40267, 47.20076, -6065.9287109375]]], [[[-125.34879, 47.18295, -3386.877685546875], [-125.35555, 47.19008, -3404.740234375], [-125.34504, 47.18968, -2785.570068359375], [-125.34879, 47.18295, -3386.877685546875]]], [[[-125.39242, 47.20206, -5509.89794921875], [-125.39991, 47.20896, -5793.02392578125], [-125.3905, 47.21053, -5211.18017578125], [-125.39242, 47.20206, -5509.89794921875]]], [[[-125.34879, 47.18295, -3386.877685546875], [-125.34504, 47.18968, -2785.570068359375], [-125.33834, 47.1818, -2785.570068359375], [-125.34879, 47.18295, -3386.877685546875]]], [[[-125.39715, 47.1939, -6002.58544921875], [-125.40255, 47.18713, -6543.74853515625], [-125.40877, 47.19416, -6556.3408203125], [-125.39715, 47.1939, -6002.58544921875]]], [[[-125.36874, 47.20697, -3365.089599609375], [-125.36251, 47.2138, -2785.570068359375], [-125.35939, 47.20495, -2785.570068359375], [-125.36874, 47.20697, -3365.089599609375]]], [[[-125.37435, 47.21342, -3694.002197265625], [-125.3805, 47.22027, -4199.56884765625], [-125.3735, 47.22146, -3424.872314453125], [-125.37435, 47.21342, -3694.002197265625]]], [[[-125.37435, 47.21342, -3694.002197265625], [-125.38226, 47.21188, -4527.74755859375], [-125.3805, 47.22027, -4199.56884765625], [-125.37435, 47.21342, -3694.002197265625]]], [[[-125.38371, 47.20324, -4894.91064453125], [-125.38226, 47.21188, -4527.74755859375], [-125.37621, 47.20548, -4161.33251953125], [-125.38371, 47.20324, -4894.91064453125]]], [[[-125.38371, 47.20324, -4894.91064453125], [-125.3905, 47.21053, -5211.18017578125], [-125.38226, 47.21188, -4527.74755859375], [-125.38371, 47.20324, -4894.91064453125]]], [[[-125.38371, 47.20324, -4894.91064453125], [-125.39242, 47.20206, -5509.89794921875], [-125.3905, 47.21053, -5211.18017578125], [-125.38371, 47.20324, -4894.91064453125]]], [[[-125.38594, 47.19392, -5426.09423828125], [-125.38371, 47.20324, -4894.91064453125], [-125.37663, 47.19682, -4634.38623046875], [-125.38594, 47.19392, -5426.09423828125]]], [[[-125.38594, 47.19392, -5426.09423828125], [-125.37663, 47.19682, -4634.38623046875], [-125.3752, 47.19065, -4979.26904296875], [-125.38594, 47.19392, -5426.09423828125]]], [[[-125.3752, 47.19065, -4979.26904296875], [-125.37924, 47.18472, -5597.3935546875], [-125.38594, 47.19392, -5426.09423828125], [-125.3752, 47.19065, -4979.26904296875]]], [[[-125.3752, 47.19065, -4979.26904296875], [-125.36756, 47.18467, -4899.1650390625], [-125.37924, 47.18472, -5597.3935546875], [-125.3752, 47.19065, -4979.26904296875]]], [[[-125.3752, 47.19065, -4979.26904296875], [-125.36561, 47.19172, -4138.58740234375], [-125.36756, 47.18467, -4899.1650390625], [-125.3752, 47.19065, -4979.26904296875]]], [[[-125.3752, 47.19065, -4979.26904296875], [-125.37663, 47.19682, -4634.38623046875], [-125.36561, 47.19172, -4138.58740234375], [-125.3752, 47.19065, -4979.26904296875]]], [[[-125.36561, 47.19172, -4138.58740234375], [-125.37663, 47.19682, -4634.38623046875], [-125.37098, 47.19944, -3998.369384765625], [-125.36561, 47.19172, -4138.58740234375]]], [[[-125.32198, 47.15689, -2785.570068359375], [-125.33254, 47.15371, -3702.829345703125], [-125.33195, 47.15966, -3343.251953125], [-125.32198, 47.15689, -2785.570068359375]]], [[[-125.37098, 47.19944, -3998.369384765625], [-125.37663, 47.19682, -4634.38623046875], [-125.37621, 47.20548, -4161.33251953125], [-125.37098, 47.19944, -3998.369384765625]]], [[[-125.36874, 47.20697, -3365.089599609375], [-125.37098, 47.19944, -3998.369384765625], [-125.37621, 47.20548, -4161.33251953125], [-125.36874, 47.20697, -3365.089599609375]]], [[[-125.37621, 47.20548, -4161.33251953125], [-125.37435, 47.21342, -3694.002197265625], [-125.36874, 47.20697, -3365.089599609375], [-125.37621, 47.20548, -4161.33251953125]]], [[[-125.37663, 47.19682, -4634.38623046875], [-125.38371, 47.20324, -4894.91064453125], [-125.37621, 47.20548, -4161.33251953125], [-125.37663, 47.19682, -4634.38623046875]]], [[[-125.3716, 47.17597, -5602.5380859375], [-125.36756, 47.18467, -4899.1650390625], [-125.36077, 47.17789, -4809.8154296875], [-125.3716, 47.17597, -5602.5380859375]]], [[[-125.37924, 47.18472, -5597.3935546875], [-125.38333, 47.17728, -6097.85791015625], [-125.39068, 47.18617, -6045.58984375], [-125.37924, 47.18472, -5597.3935546875]]], [[[-125.37924, 47.18472, -5597.3935546875], [-125.39068, 47.18617, -6045.58984375], [-125.38594, 47.19392, -5426.09423828125], [-125.37924, 47.18472, -5597.3935546875]]], [[[-125.39715, 47.1939, -6002.58544921875], [-125.38594, 47.19392, -5426.09423828125], [-125.39068, 47.18617, -6045.58984375], [-125.39715, 47.1939, -6002.58544921875]]], [[[-125.38594, 47.19392, -5426.09423828125], [-125.39715, 47.1939, -6002.58544921875], [-125.39242, 47.20206, -5509.89794921875], [-125.38594, 47.19392, -5426.09423828125]]], [[[-125.40267, 47.20076, -6065.9287109375], [-125.39242, 47.20206, -5509.89794921875], [-125.39715, 47.1939, -6002.58544921875], [-125.40267, 47.20076, -6065.9287109375]]], [[[-125.39991, 47.20896, -5793.02392578125], [-125.39737, 47.2175, -5559.99169921875], [-125.3905, 47.21053, -5211.18017578125], [-125.39991, 47.20896, -5793.02392578125]]], [[[-125.39991, 47.20896, -5793.02392578125], [-125.40994, 47.20729, -6338.34326171875], [-125.40738, 47.21581, -6096.95751953125], [-125.39991, 47.20896, -5793.02392578125]]], [[[-125.40267, 47.20076, -6065.9287109375], [-125.40994, 47.20729, -6338.34326171875], [-125.39991, 47.20896, -5793.02392578125], [-125.40267, 47.20076, -6065.9287109375]]], [[[-125.40267, 47.20076, -6065.9287109375], [-125.41364, 47.20123, -6622.73193359375], [-125.40994, 47.20729, -6338.34326171875], [-125.40267, 47.20076, -6065.9287109375]]], [[[-125.40267, 47.20076, -6065.9287109375], [-125.39715, 47.1939, -6002.58544921875], [-125.40877, 47.19416, -6556.3408203125], [-125.40267, 47.20076, -6065.9287109375]]], [[[-125.42482, 47.20362, -6994.208984375], [-125.42838, 47.21234, -7032.48388671875], [-125.41728, 47.21419, -6648.00048828125], [-125.42482, 47.20362, -6994.208984375]]], [[[-125.39068, 47.18617, -6045.58984375], [-125.3947, 47.17903, -6579.04736328125], [-125.40255, 47.18713, -6543.74853515625], [-125.39068, 47.18617, -6045.58984375]]], [[[-125.38333, 47.17728, -6097.85791015625], [-125.37677, 47.16787, -6126.7890625], [-125.38827, 47.17027, -6613.52783203125], [-125.38333, 47.17728, -6097.85791015625]]], [[[-125.3716, 47.17597, -5602.5380859375], [-125.37677, 47.16787, -6126.7890625], [-125.38333, 47.17728, -6097.85791015625], [-125.3716, 47.17597, -5602.5380859375]]], [[[-125.3633, 47.17218, -5258.31884765625], [-125.3656, 47.16567, -5650.5478515625], [-125.3716, 47.17597, -5602.5380859375], [-125.3633, 47.17218, -5258.31884765625]]], [[[-125.3633, 47.17218, -5258.31884765625], [-125.3716, 47.17597, -5602.5380859375], [-125.36077, 47.17789, -4809.8154296875], [-125.3633, 47.17218, -5258.31884765625]]], [[[-125.36077, 47.17789, -4809.8154296875], [-125.35751, 47.18392, -4126.3330078125], [-125.35165, 47.17634, -4146.0087890625], [-125.36077, 47.17789, -4809.8154296875]]], [[[-125.35478, 47.16802, -4878.33251953125], [-125.35165, 47.17634, -4146.0087890625], [-125.3464, 47.16874, -4117.69970703125], [-125.35478, 47.16802, -4878.33251953125]]], [[[-125.35165, 47.17634, -4146.0087890625], [-125.34286, 47.17524, -3383.027587890625], [-125.3464, 47.16874, -4117.69970703125], [-125.35165, 47.17634, -4146.0087890625]]], [[[-125.3464, 47.16874, -4117.69970703125], [-125.33787, 47.1672, -3372.02587890625], [-125.34072, 47.16091, -4022.9814453125], [-125.3464, 47.16874, -4117.69970703125]]], [[[-125.33195, 47.15966, -3343.251953125], [-125.34072, 47.16091, -4022.9814453125], [-125.33787, 47.1672, -3372.02587890625], [-125.33195, 47.15966, -3343.251953125]]], [[[-125.33254, 47.15371, -3702.829345703125], [-125.34072, 47.16091, -4022.9814453125], [-125.33195, 47.15966, -3343.251953125], [-125.33254, 47.15371, -3702.829345703125]]], [[[-125.33254, 47.15371, -3702.829345703125], [-125.34022, 47.15288, -4470.43212890625], [-125.34072, 47.16091, -4022.9814453125], [-125.33254, 47.15371, -3702.829345703125]]], [[[-125.35478, 47.16802, -4878.33251953125], [-125.35732, 47.1588, -5406.06201171875], [-125.3656, 47.16567, -5650.5478515625], [-125.35478, 47.16802, -4878.33251953125]]], [[[-125.3656, 47.16567, -5650.5478515625], [-125.35732, 47.1588, -5406.06201171875], [-125.36961, 47.15774, -6072.61962890625], [-125.3656, 47.16567, -5650.5478515625]]], [[[-125.3656, 47.16567, -5650.5478515625], [-125.36961, 47.15774, -6072.61962890625], [-125.37677, 47.16787, -6126.7890625], [-125.3656, 47.16567, -5650.5478515625]]], [[[-125.37677, 47.16787, -6126.7890625], [-125.36961, 47.15774, -6072.61962890625], [-125.38278, 47.16146, -6620.9248046875], [-125.37677, 47.16787, -6126.7890625]]], [[[-125.40994, 47.20729, -6338.34326171875], [-125.41728, 47.21419, -6648.00048828125], [-125.40738, 47.21581, -6096.95751953125], [-125.40994, 47.20729, -6338.34326171875]]], [[[-125.3805, 47.22027, -4199.56884765625], [-125.38226, 47.21188, -4527.74755859375], [-125.38834, 47.21899, -4924.71337890625], [-125.3805, 47.22027, -4199.56884765625]]], [[[-125.32198, 47.15689, -2785.570068359375], [-125.32472, 47.14751, -3440.376220703125], [-125.33254, 47.15371, -3702.829345703125], [-125.32198, 47.15689, -2785.570068359375]]], [[[-125.36874, 47.20697, -3365.089599609375], [-125.37435, 47.21342, -3694.002197265625], [-125.36251, 47.2138, -2785.570068359375], [-125.36874, 47.20697, -3365.089599609375]]]]}}]}