{"type": "FeatureCollection", "features": [{"type": "Feature", "properties": {"name": "AW_WASH_29", "CFM_ID": 293, "region": "Offshore_WAOR", "primary_state/province": "WA", "secondary_state/province": null, "avg_dip": 36, "dip_dir": "SW", "rake": 90, "slip_sense": "Reverse", "fault_level": 2, "NSHM23_sliprates": null, "QFFDAgeCatBin": null, "QFFDAgeBin": null, "upper_depth": -0.5, "upper_depth_constraint": "seismic imaging", "lower_depth": -11.4, "lower_depth_constraint": "soles into AW_WASH_30", "3D_model_constraints": "trace and 1 MCS line", "reference": "Ledeczi et al. (2024); Carbotte et al. (2023)", "nshm23_id": null, "lineage": null, "usgs_qffd_#": null, "comments": null, "id": "293"}, "geometry": {"type": "MultiPolygon", "coordinates": [[[[-125.92537, 46.91059, -3382.152587890625], [-125.91761, 46.91636, -2734.369140625], [-125.9277, 46.91907, -3385.89013671875], [-125.92537, 46.91059, -3382.152587890625]]], [[[-125.87521, 46.79652, -2648.6884765625], [-125.88444, 46.79146, -3385.89013671875], [-125.87392, 46.78978, -2732.840576171875], [-125.87521, 46.79652, -2648.6884765625]]], [[[-125.91439, 46.90889, -2668.134765625], [-125.91761, 46.91636, -2734.369140625], [-125.92537, 46.91059, -3382.152587890625], [-125.91439, 46.90889, -2668.134765625]]], [[[-125.91439, 46.90889, -2668.134765625], [-125.90337, 46.91273, -2192.2900390625], [-125.91761, 46.91636, -2734.369140625], [-125.91439, 46.90889, -2668.134765625]]], [[[-125.91439, 46.90889, -2668.134765625], [-125.90487, 46.90349, -2180.667724609375], [-125.90337, 46.91273, -2192.2900390625], [-125.91439, 46.90889, -2668.134765625]]], [[[-125.87392, 46.78978, -2732.840576171875], [-125.87983, 46.7833, -3385.89013671875], [-125.87014, 46.78411, -2694.739990234375], [-125.87392, 46.78978, -2732.840576171875]]], [[[-125.91439, 46.90889, -2668.134765625], [-125.91971, 46.90343, -3171.159912109375], [-125.90487, 46.90349, -2180.667724609375], [-125.91439, 46.90889, -2668.134765625]]], [[[-125.86335, 46.7769, -2694.739990234375], [-125.8592, 46.7851, -2192.2900390625], [-125.87014, 46.78411, -2694.739990234375], [-125.86335, 46.7769, -2694.739990234375]]], [[[-125.91439, 46.90889, -2668.134765625], [-125.92537, 46.91059, -3382.152587890625], [-125.91971, 46.90343, -3171.159912109375], [-125.91439, 46.90889, -2668.134765625]]], [[[-125.91474, 46.8954, -3064.913330078125], [-125.90487, 46.90349, -2180.667724609375], [-125.91971, 46.90343, -3171.159912109375], [-125.91474, 46.8954, -3064.913330078125]]], [[[-125.85669, 46.76181, -2735.99169921875], [-125.85831, 46.76874, -2694.739990234375], [-125.86382, 46.76742, -3058.044189453125], [-125.85669, 46.76181, -2735.99169921875]]], [[[-125.91474, 46.8954, -3064.913330078125], [-125.90049, 46.89596, -2173.5087890625], [-125.90487, 46.90349, -2180.667724609375], [-125.91474, 46.8954, -3064.913330078125]]], [[[-125.90944, 46.88745, -2975.25146484375], [-125.90049, 46.89596, -2173.5087890625], [-125.91474, 46.8954, -3064.913330078125], [-125.90944, 46.88745, -2975.25146484375]]], [[[-125.89425, 46.88833, -2177.6826171875], [-125.90049, 46.89596, -2173.5087890625], [-125.90944, 46.88745, -2975.25146484375], [-125.89425, 46.88833, -2177.6826171875]]], [[[-125.86382, 46.76742, -3058.044189453125], [-125.86335, 46.7769, -2694.739990234375], [-125.8711, 46.77295, -3385.89013671875], [-125.86382, 46.76742, -3058.044189453125]]], [[[-125.89425, 46.88833, -2177.6826171875], [-125.90944, 46.88745, -2975.25146484375], [-125.9046, 46.88017, -2912.404541015625], [-125.89425, 46.88833, -2177.6826171875]]], [[[-125.88949, 46.88013, -2192.2900390625], [-125.89425, 46.88833, -2177.6826171875], [-125.9046, 46.88017, -2912.404541015625], [-125.88949, 46.88013, -2192.2900390625]]], [[[-125.88949, 46.88013, -2192.2900390625], [-125.9046, 46.88017, -2912.404541015625], [-125.90159, 46.87249, -2900.480712890625], [-125.88949, 46.88013, -2192.2900390625]]], [[[-125.88605, 46.87145, -2192.2900390625], [-125.88949, 46.88013, -2192.2900390625], [-125.90159, 46.87249, -2900.480712890625], [-125.88605, 46.87145, -2192.2900390625]]], [[[-125.91944, 46.93224, -2645.46142578125], [-125.92893, 46.92728, -3349.173095703125], [-125.91817, 46.92455, -2661.933837890625], [-125.91944, 46.93224, -2645.46142578125]]], [[[-125.88605, 46.87145, -2192.2900390625], [-125.90159, 46.87249, -2900.480712890625], [-125.89895, 46.86418, -2960.751953125], [-125.88605, 46.87145, -2192.2900390625]]], [[[-125.88452, 46.86257, -2192.2900390625], [-125.88605, 46.87145, -2192.2900390625], [-125.89895, 46.86418, -2960.751953125], [-125.88452, 46.86257, -2192.2900390625]]], [[[-125.89137, 46.85603, -2666.96728515625], [-125.88452, 46.86257, -2192.2900390625], [-125.89895, 46.86418, -2960.751953125], [-125.89137, 46.85603, -2666.96728515625]]], [[[-125.88145, 46.85383, -2192.2900390625], [-125.88452, 46.86257, -2192.2900390625], [-125.89137, 46.85603, -2666.96728515625], [-125.88145, 46.85383, -2192.2900390625]]], [[[-125.89137, 46.85603, -2666.96728515625], [-125.88771, 46.84855, -2576.54638671875], [-125.88145, 46.85383, -2192.2900390625], [-125.89137, 46.85603, -2666.96728515625]]], [[[-125.91817, 46.92455, -2661.933837890625], [-125.92893, 46.92728, -3349.173095703125], [-125.9277, 46.91907, -3385.89013671875], [-125.91817, 46.92455, -2661.933837890625]]], [[[-125.89137, 46.85603, -2666.96728515625], [-125.89365, 46.8471, -2971.872802734375], [-125.88771, 46.84855, -2576.54638671875], [-125.89137, 46.85603, -2666.96728515625]]], [[[-125.89137, 46.85603, -2666.96728515625], [-125.89762, 46.85141, -3178.126953125], [-125.89365, 46.8471, -2971.872802734375], [-125.89137, 46.85603, -2666.96728515625]]], [[[-125.89137, 46.85603, -2666.96728515625], [-125.89727, 46.85694, -3049.228271484375], [-125.89762, 46.85141, -3178.126953125], [-125.89137, 46.85603, -2666.96728515625]]], [[[-125.84573, 46.76092, -2192.2900390625], [-125.84736, 46.76973, -2192.2900390625], [-125.85669, 46.76181, -2735.99169921875], [-125.84573, 46.76092, -2192.2900390625]]], [[[-125.89137, 46.85603, -2666.96728515625], [-125.89895, 46.86418, -2960.751953125], [-125.89727, 46.85694, -3049.228271484375], [-125.89137, 46.85603, -2666.96728515625]]], [[[-125.89365, 46.8471, -2971.872802734375], [-125.89762, 46.85141, -3178.126953125], [-125.89954, 46.84695, -3385.89013671875], [-125.89365, 46.8471, -2971.872802734375]]], [[[-125.84037, 46.75277, -2192.2900390625], [-125.84573, 46.76092, -2192.2900390625], [-125.84949, 46.75587, -2497.4375], [-125.84037, 46.75277, -2192.2900390625]]], [[[-125.89829, 46.84135, -3385.89013671875], [-125.89365, 46.8471, -2971.872802734375], [-125.89954, 46.84695, -3385.89013671875], [-125.89829, 46.84135, -3385.89013671875]]], [[[-125.91761, 46.91636, -2734.369140625], [-125.90337, 46.91273, -2192.2900390625], [-125.90619, 46.9213, -2192.2900390625], [-125.91761, 46.91636, -2734.369140625]]], [[[-125.88866, 46.84014, -2728.951904296875], [-125.89365, 46.8471, -2971.872802734375], [-125.89829, 46.84135, -3385.89013671875], [-125.88866, 46.84014, -2728.951904296875]]], [[[-125.89365, 46.8471, -2971.872802734375], [-125.88866, 46.84014, -2728.951904296875], [-125.88771, 46.84855, -2576.54638671875], [-125.89365, 46.8471, -2971.872802734375]]], [[[-125.88866, 46.84014, -2728.951904296875], [-125.87841, 46.84517, -2192.2900390625], [-125.88771, 46.84855, -2576.54638671875], [-125.88866, 46.84014, -2728.951904296875]]], [[[-125.88866, 46.84014, -2728.951904296875], [-125.87711, 46.83672, -2192.2900390625], [-125.87841, 46.84517, -2192.2900390625], [-125.88866, 46.84014, -2728.951904296875]]], [[[-125.88866, 46.84014, -2728.951904296875], [-125.88644, 46.83114, -2705.65625], [-125.87711, 46.83672, -2192.2900390625], [-125.88866, 46.84014, -2728.951904296875]]], [[[-125.88866, 46.84014, -2728.951904296875], [-125.8968, 46.83412, -3385.89013671875], [-125.88644, 46.83114, -2705.65625], [-125.88866, 46.84014, -2728.951904296875]]], [[[-125.84573, 46.76092, -2192.2900390625], [-125.85669, 46.76181, -2735.99169921875], [-125.84949, 46.75587, -2497.4375], [-125.84573, 46.76092, -2192.2900390625]]], [[[-125.8968, 46.83412, -3385.89013671875], [-125.88866, 46.84014, -2728.951904296875], [-125.89829, 46.84135, -3385.89013671875], [-125.8968, 46.83412, -3385.89013671875]]], [[[-125.88644, 46.83114, -2705.65625], [-125.8968, 46.83412, -3385.89013671875], [-125.89496, 46.8257, -3385.89013671875], [-125.88644, 46.83114, -2705.65625]]], [[[-125.88644, 46.83114, -2705.65625], [-125.89496, 46.8257, -3385.89013671875], [-125.88429, 46.82222, -2701.401611328125], [-125.88644, 46.83114, -2705.65625]]], [[[-125.88644, 46.83114, -2705.65625], [-125.88429, 46.82222, -2701.401611328125], [-125.87474, 46.82794, -2192.2900390625], [-125.88644, 46.83114, -2705.65625]]], [[[-125.88644, 46.83114, -2705.65625], [-125.87474, 46.82794, -2192.2900390625], [-125.87711, 46.83672, -2192.2900390625], [-125.88644, 46.83114, -2705.65625]]], [[[-125.87033, 46.81951, -2192.2900390625], [-125.87474, 46.82794, -2192.2900390625], [-125.88429, 46.82222, -2701.401611328125], [-125.87033, 46.81951, -2192.2900390625]]], [[[-125.88082, 46.81359, -2649.470458984375], [-125.87033, 46.81951, -2192.2900390625], [-125.88429, 46.82222, -2701.401611328125], [-125.88082, 46.81359, -2649.470458984375]]], [[[-125.88082, 46.81359, -2649.470458984375], [-125.86694, 46.81088, -2192.2900390625], [-125.87033, 46.81951, -2192.2900390625], [-125.88082, 46.81359, -2649.470458984375]]], [[[-125.87832, 46.80509, -2654.093017578125], [-125.86694, 46.81088, -2192.2900390625], [-125.88082, 46.81359, -2649.470458984375], [-125.87832, 46.80509, -2654.093017578125]]], [[[-125.87832, 46.80509, -2654.093017578125], [-125.86548, 46.80195, -2192.2900390625], [-125.86694, 46.81088, -2192.2900390625], [-125.87832, 46.80509, -2654.093017578125]]], [[[-125.87832, 46.80509, -2654.093017578125], [-125.87521, 46.79652, -2648.6884765625], [-125.86548, 46.80195, -2192.2900390625], [-125.87832, 46.80509, -2654.093017578125]]], [[[-125.87832, 46.80509, -2654.093017578125], [-125.88771, 46.79992, -3385.89013671875], [-125.87521, 46.79652, -2648.6884765625], [-125.87832, 46.80509, -2654.093017578125]]], [[[-125.87832, 46.80509, -2654.093017578125], [-125.8906, 46.80845, -3385.89013671875], [-125.88771, 46.79992, -3385.89013671875], [-125.87832, 46.80509, -2654.093017578125]]], [[[-125.87832, 46.80509, -2654.093017578125], [-125.88082, 46.81359, -2649.470458984375], [-125.8906, 46.80845, -3385.89013671875], [-125.87832, 46.80509, -2654.093017578125]]], [[[-125.88082, 46.81359, -2649.470458984375], [-125.8928, 46.81707, -3385.89013671875], [-125.8906, 46.80845, -3385.89013671875], [-125.88082, 46.81359, -2649.470458984375]]], [[[-125.88082, 46.81359, -2649.470458984375], [-125.88429, 46.82222, -2701.401611328125], [-125.8928, 46.81707, -3385.89013671875], [-125.88082, 46.81359, -2649.470458984375]]], [[[-125.8928, 46.81707, -3385.89013671875], [-125.88429, 46.82222, -2701.401611328125], [-125.89496, 46.8257, -3385.89013671875], [-125.8928, 46.81707, -3385.89013671875]]], [[[-125.87521, 46.79652, -2648.6884765625], [-125.88771, 46.79992, -3385.89013671875], [-125.88444, 46.79146, -3385.89013671875], [-125.87521, 46.79652, -2648.6884765625]]], [[[-125.87392, 46.78978, -2732.840576171875], [-125.86093, 46.79358, -2192.2900390625], [-125.87521, 46.79652, -2648.6884765625], [-125.87392, 46.78978, -2732.840576171875]]], [[[-125.87392, 46.78978, -2732.840576171875], [-125.87014, 46.78411, -2694.739990234375], [-125.86093, 46.79358, -2192.2900390625], [-125.87392, 46.78978, -2732.840576171875]]], [[[-125.87392, 46.78978, -2732.840576171875], [-125.88444, 46.79146, -3385.89013671875], [-125.87983, 46.7833, -3385.89013671875], [-125.87392, 46.78978, -2732.840576171875]]], [[[-125.87304, 46.77609, -3385.89013671875], [-125.87014, 46.78411, -2694.739990234375], [-125.87983, 46.7833, -3385.89013671875], [-125.87304, 46.77609, -3385.89013671875]]], [[[-125.91817, 46.92455, -2661.933837890625], [-125.91761, 46.91636, -2734.369140625], [-125.90619, 46.9213, -2192.2900390625], [-125.91817, 46.92455, -2661.933837890625]]], [[[-125.86335, 46.7769, -2694.739990234375], [-125.87014, 46.78411, -2694.739990234375], [-125.87304, 46.77609, -3385.89013671875], [-125.86335, 46.7769, -2694.739990234375]]], [[[-125.86335, 46.7769, -2694.739990234375], [-125.85241, 46.77789, -2192.2900390625], [-125.8592, 46.7851, -2192.2900390625], [-125.86335, 46.7769, -2694.739990234375]]], [[[-125.85831, 46.76874, -2694.739990234375], [-125.85241, 46.77789, -2192.2900390625], [-125.86335, 46.7769, -2694.739990234375], [-125.85831, 46.76874, -2694.739990234375]]], [[[-125.85831, 46.76874, -2694.739990234375], [-125.84736, 46.76973, -2192.2900390625], [-125.85241, 46.77789, -2192.2900390625], [-125.85831, 46.76874, -2694.739990234375]]], [[[-125.85831, 46.76874, -2694.739990234375], [-125.85669, 46.76181, -2735.99169921875], [-125.84736, 46.76973, -2192.2900390625], [-125.85831, 46.76874, -2694.739990234375]]], [[[-125.86335, 46.7769, -2694.739990234375], [-125.86382, 46.76742, -3058.044189453125], [-125.85831, 46.76874, -2694.739990234375], [-125.86335, 46.7769, -2694.739990234375]]], [[[-125.86335, 46.7769, -2694.739990234375], [-125.87304, 46.77609, -3385.89013671875], [-125.8711, 46.77295, -3385.89013671875], [-125.86335, 46.7769, -2694.739990234375]]], [[[-125.84037, 46.75277, -2192.2900390625], [-125.84949, 46.75587, -2497.4375], [-125.84183, 46.75098, -2295.56689453125], [-125.84037, 46.75277, -2192.2900390625]]], [[[-125.83624, 46.74803, -2203.3798828125], [-125.84037, 46.75277, -2192.2900390625], [-125.84183, 46.75098, -2295.56689453125], [-125.83624, 46.74803, -2203.3798828125]]], [[[-125.83624, 46.74803, -2203.3798828125], [-125.84183, 46.75098, -2295.56689453125], [-125.84329, 46.74919, -2398.843505859375], [-125.83624, 46.74803, -2203.3798828125]]], [[[-125.84183, 46.75098, -2295.56689453125], [-125.84949, 46.75587, -2497.4375], [-125.84329, 46.74919, -2398.843505859375], [-125.84183, 46.75098, -2295.56689453125]]], [[[-125.8592, 46.7851, -2192.2900390625], [-125.86093, 46.79358, -2192.2900390625], [-125.87014, 46.78411, -2694.739990234375], [-125.8592, 46.7851, -2192.2900390625]]], [[[-125.86093, 46.79358, -2192.2900390625], [-125.86548, 46.80195, -2192.2900390625], [-125.87521, 46.79652, -2648.6884765625], [-125.86093, 46.79358, -2192.2900390625]]], [[[-125.87841, 46.84517, -2192.2900390625], [-125.88145, 46.85383, -2192.2900390625], [-125.88771, 46.84855, -2576.54638671875], [-125.87841, 46.84517, -2192.2900390625]]], [[[-125.91761, 46.91636, -2734.369140625], [-125.91817, 46.92455, -2661.933837890625], [-125.9277, 46.91907, -3385.89013671875], [-125.91761, 46.91636, -2734.369140625]]], [[[-125.91944, 46.93224, -2645.46142578125], [-125.92867, 46.93578, -3178.758056640625], [-125.92893, 46.92728, -3349.173095703125], [-125.91944, 46.93224, -2645.46142578125]]], [[[-125.91944, 46.93224, -2645.46142578125], [-125.92098, 46.94022, -2608.406005859375], [-125.92867, 46.93578, -3178.758056640625], [-125.91944, 46.93224, -2645.46142578125]]], [[[-125.91944, 46.93224, -2645.46142578125], [-125.90895, 46.93895, -2192.2900390625], [-125.92098, 46.94022, -2608.406005859375], [-125.91944, 46.93224, -2645.46142578125]]], [[[-125.91944, 46.93224, -2645.46142578125], [-125.90639, 46.93029, -2192.2900390625], [-125.90895, 46.93895, -2192.2900390625], [-125.91944, 46.93224, -2645.46142578125]]], [[[-125.91817, 46.92455, -2661.933837890625], [-125.90639, 46.93029, -2192.2900390625], [-125.91944, 46.93224, -2645.46142578125], [-125.91817, 46.92455, -2661.933837890625]]], [[[-125.90619, 46.9213, -2192.2900390625], [-125.90639, 46.93029, -2192.2900390625], [-125.91817, 46.92455, -2661.933837890625], [-125.90619, 46.9213, -2192.2900390625]]], [[[-125.92098, 46.94022, -2608.406005859375], [-125.90895, 46.93895, -2192.2900390625], [-125.91347, 46.94722, -2192.2900390625], [-125.92098, 46.94022, -2608.406005859375]]], [[[-125.92098, 46.94022, -2608.406005859375], [-125.91347, 46.94722, -2192.2900390625], [-125.92314, 46.9491, -2590.9560546875], [-125.92098, 46.94022, -2608.406005859375]]], [[[-125.92098, 46.94022, -2608.406005859375], [-125.92314, 46.9491, -2590.9560546875], [-125.9304, 46.94474, -3120.1435546875], [-125.92098, 46.94022, -2608.406005859375]]], [[[-125.92098, 46.94022, -2608.406005859375], [-125.9304, 46.94474, -3120.1435546875], [-125.92867, 46.93578, -3178.758056640625], [-125.92098, 46.94022, -2608.406005859375]]], [[[-125.92314, 46.9491, -2590.9560546875], [-125.93185, 46.95455, -3008.52099609375], [-125.9304, 46.94474, -3120.1435546875], [-125.92314, 46.9491, -2590.9560546875]]], [[[-125.92314, 46.9491, -2590.9560546875], [-125.91591, 46.95599, -2192.2900390625], [-125.93185, 46.95455, -3008.52099609375], [-125.92314, 46.9491, -2590.9560546875]]], [[[-125.92314, 46.9491, -2590.9560546875], [-125.91347, 46.94722, -2192.2900390625], [-125.91591, 46.95599, -2192.2900390625], [-125.92314, 46.9491, -2590.9560546875]]]]}}]}