{"type": "FeatureCollection", "features": [{"type": "Feature", "properties": {"name": "AW_WASH_33", "CFM_ID": 298, "region": "Offshore_WAOR", "primary_state/province": "WA", "secondary_state/province": null, "avg_dip": 60, "dip_dir": "SW", "rake": 90, "slip_sense": "Reverse", "fault_level": 2, "NSHM23_sliprates": null, "QFFDAgeCatBin": null, "QFFDAgeBin": null, "upper_depth": -2.2, "upper_depth_constraint": "bathymetry", "lower_depth": -6.8, "lower_depth_constraint": "megathrust", "3D_model_constraints": "trace extended at constant dip", "reference": "Ledeczi et al. (2024); Balster-Gee et al. (2023)", "nshm23_id": null, "lineage": null, "usgs_qffd_#": null, "comments": "vergence from USGS sparker line", "id": "298"}, "geometry": {"type": "MultiPolygon", "coordinates": [[[[-125.61771, 46.61221, -4353.13623046875], [-125.62509, 46.61831, -4267.8154296875], [-125.62675, 46.61319, -5096.93701171875], [-125.61771, 46.61221, -4353.13623046875]]], [[[-125.67243, 46.6949, -4897.96240234375], [-125.68129, 46.70058, -5695.78125], [-125.67766, 46.69225, -5705.3056640625], [-125.67243, 46.6949, -4897.96240234375]]], [[[-125.66493, 46.65886, -4909.3759765625], [-125.6684, 46.66759, -4912.82080078125], [-125.67403, 46.66621, -5714.892578125], [-125.66493, 46.65886, -4909.3759765625]]], [[[-125.68741, 46.72186, -4903.80029296875], [-125.69605, 46.72471, -5657.111328125], [-125.69031, 46.71701, -5671.47119140625], [-125.68741, 46.72186, -4903.80029296875]]], [[[-125.6116, 46.60745, -4724.3173828125], [-125.60913, 46.61078, -3888.60546875], [-125.61771, 46.61221, -4353.13623046875], [-125.6116, 46.60745, -4724.3173828125]]], [[[-125.70557, 46.74024, -5267.60546875], [-125.70802, 46.74411, -5634.916015625], [-125.70835, 46.73596, -5635.697265625], [-125.70557, 46.74024, -5267.60546875]]], [[[-125.65122, 46.63461, -4965.53662109375], [-125.64913, 46.62663, -5776.037109375], [-125.64308, 46.62803, -4965.732421875], [-125.65122, 46.63461, -4965.53662109375]]], [[[-125.66826, 46.70086, -4145.9833984375], [-125.67243, 46.6949, -4897.96240234375], [-125.66599, 46.69072, -4147.5908203125], [-125.66826, 46.70086, -4145.9833984375]]], [[[-125.62058, 46.60854, -5190.19580078125], [-125.62675, 46.61319, -5096.93701171875], [-125.62707, 46.60823, -5828.3486328125], [-125.62058, 46.60854, -5190.19580078125]]], [[[-125.68599, 46.72779, -4235.8291015625], [-125.69436, 46.73069, -4944.3984375], [-125.68741, 46.72186, -4903.80029296875], [-125.68599, 46.72779, -4235.8291015625]]], [[[-125.67463, 46.70977, -4075.56103515625], [-125.67678, 46.70423, -4888.93017578125], [-125.66826, 46.70086, -4145.9833984375], [-125.67463, 46.70977, -4075.56103515625]]], [[[-125.70557, 46.74024, -5267.60546875], [-125.70437, 46.74541, -5092.087890625], [-125.70802, 46.74411, -5634.916015625], [-125.70557, 46.74024, -5267.60546875]]], [[[-125.66388, 46.67238, -4075.40380859375], [-125.66503, 46.68093, -4109.74658203125], [-125.67064, 46.67601, -4890.32373046875], [-125.66388, 46.67238, -4075.40380859375]]], [[[-125.65387, 46.64689, -4092.509521484375], [-125.64951, 46.63996, -4176.45751953125], [-125.64374, 46.64083, -3436.44580078125], [-125.65387, 46.64689, -4092.509521484375]]], [[[-125.70557, 46.74024, -5267.60546875], [-125.70181, 46.74122, -4727.51025390625], [-125.70437, 46.74541, -5092.087890625], [-125.70557, 46.74024, -5267.60546875]]], [[[-125.62542, 46.62517, -3505.9951171875], [-125.63359, 46.62631, -4222.42529296875], [-125.62509, 46.61831, -4267.8154296875], [-125.62542, 46.62517, -3505.9951171875]]], [[[-125.70234, 46.73582, -5072.798828125], [-125.70181, 46.74122, -4727.51025390625], [-125.70557, 46.74024, -5267.60546875], [-125.70234, 46.73582, -5072.798828125]]], [[[-125.65387, 46.64689, -4092.509521484375], [-125.65754, 46.64193, -4950.13427734375], [-125.64951, 46.63996, -4176.45751953125], [-125.65387, 46.64689, -4092.509521484375]]], [[[-125.65319, 46.67346, -2624.615966796875], [-125.65473, 46.68252, -2626.290771484375], [-125.65958, 46.67751, -3364.875732421875], [-125.65319, 46.67346, -2624.615966796875]]], [[[-125.62675, 46.61319, -5096.93701171875], [-125.62509, 46.61831, -4267.8154296875], [-125.63432, 46.62052, -5002.890625], [-125.62675, 46.61319, -5096.93701171875]]], [[[-125.70234, 46.73582, -5072.798828125], [-125.69826, 46.73714, -4525.716796875], [-125.70181, 46.74122, -4727.51025390625], [-125.70234, 46.73582, -5072.798828125]]], [[[-125.61328, 46.60562, -5317.95361328125], [-125.62058, 46.60854, -5190.19580078125], [-125.61923, 46.60502, -5846.9375], [-125.61328, 46.60562, -5317.95361328125]]], [[[-125.65759, 46.65515, -4125.60693359375], [-125.66493, 46.65886, -4909.3759765625], [-125.66162, 46.65002, -4920.09326171875], [-125.65759, 46.65515, -4125.60693359375]]], [[[-125.70234, 46.73582, -5072.798828125], [-125.69436, 46.73069, -4944.3984375], [-125.69826, 46.73714, -4525.716796875], [-125.70234, 46.73582, -5072.798828125]]], [[[-125.66826, 46.70086, -4145.9833984375], [-125.67678, 46.70423, -4888.93017578125], [-125.67243, 46.6949, -4897.96240234375], [-125.66826, 46.70086, -4145.9833984375]]], [[[-125.66162, 46.65002, -4920.09326171875], [-125.66362, 46.64088, -5740.44140625], [-125.65754, 46.64193, -4950.13427734375], [-125.66162, 46.65002, -4920.09326171875]]], [[[-125.69436, 46.73069, -4944.3984375], [-125.70234, 46.73582, -5072.798828125], [-125.70189, 46.73133, -5646.5927734375], [-125.69436, 46.73069, -4944.3984375]]], [[[-125.62675, 46.61319, -5096.93701171875], [-125.63405, 46.61332, -5811.83740234375], [-125.62707, 46.60823, -5828.3486328125], [-125.62675, 46.61319, -5096.93701171875]]], [[[-125.573, 46.608, -1832.720947265625], [-125.58119, 46.61255, -1744.4305419921875], [-125.57968, 46.60932, -2179.445068359375], [-125.573, 46.608, -1832.720947265625]]], [[[-125.57968, 46.60932, -2179.445068359375], [-125.58777, 46.61085, -2575.007568359375], [-125.57805, 46.6062, -2585.012451171875], [-125.57968, 46.60932, -2179.445068359375]]], [[[-125.69436, 46.73069, -4944.3984375], [-125.70189, 46.73133, -5646.5927734375], [-125.69605, 46.72471, -5657.111328125], [-125.69436, 46.73069, -4944.3984375]]], [[[-125.69436, 46.73069, -4944.3984375], [-125.69605, 46.72471, -5657.111328125], [-125.68741, 46.72186, -4903.80029296875], [-125.69436, 46.73069, -4944.3984375]]], [[[-125.63359, 46.62631, -4222.42529296875], [-125.64308, 46.62803, -4965.732421875], [-125.63432, 46.62052, -5002.890625], [-125.63359, 46.62631, -4222.42529296875]]], [[[-125.65001, 46.65019, -3399.13330078125], [-125.64214, 46.64691, -2691.43896484375], [-125.64683, 46.65582, -2691.749267578125], [-125.65001, 46.65019, -3399.13330078125]]], [[[-125.68599, 46.72779, -4235.8291015625], [-125.69237, 46.73416, -4258.791015625], [-125.69436, 46.73069, -4944.3984375], [-125.68599, 46.72779, -4235.8291015625]]], [[[-125.65383, 46.65965, -3416.652099609375], [-125.65001, 46.65019, -3399.13330078125], [-125.64683, 46.65582, -2691.749267578125], [-125.65383, 46.65965, -3416.652099609375]]], [[[-125.59523, 46.60897, -3499.526611328125], [-125.58358, 46.60423, -3408.731201171875], [-125.58777, 46.61085, -2575.007568359375], [-125.59523, 46.60897, -3499.526611328125]]], [[[-125.65759, 46.65515, -4125.60693359375], [-125.66097, 46.66394, -4134.46630859375], [-125.66493, 46.65886, -4909.3759765625], [-125.65759, 46.65515, -4125.60693359375]]], [[[-125.62542, 46.62517, -3505.9951171875], [-125.61727, 46.62491, -2660.177978515625], [-125.62542, 46.63169, -2712.41845703125], [-125.62542, 46.62517, -3505.9951171875]]], [[[-125.68599, 46.72779, -4235.8291015625], [-125.68702, 46.73362, -3754.58935546875], [-125.69237, 46.73416, -4258.791015625], [-125.68599, 46.72779, -4235.8291015625]]], [[[-125.65387, 46.64689, -4092.509521484375], [-125.66162, 46.65002, -4920.09326171875], [-125.65754, 46.64193, -4950.13427734375], [-125.65387, 46.64689, -4092.509521484375]]], [[[-125.6684, 46.66759, -4912.82080078125], [-125.67599, 46.67479, -5710.05810546875], [-125.67403, 46.66621, -5714.892578125], [-125.6684, 46.66759, -4912.82080078125]]], [[[-125.60913, 46.61078, -3888.60546875], [-125.6116, 46.60745, -4724.3173828125], [-125.60061, 46.60654, -4426.748046875], [-125.60913, 46.61078, -3888.60546875]]], [[[-125.67036, 46.68532, -4888.5341796875], [-125.67243, 46.6949, -4897.96240234375], [-125.67766, 46.69225, -5705.3056640625], [-125.67036, 46.68532, -4888.5341796875]]], [[[-125.65724, 46.66859, -3406.185791015625], [-125.65017, 46.66499, -2665.327392578125], [-125.65319, 46.67346, -2624.615966796875], [-125.65724, 46.66859, -3406.185791015625]]], [[[-125.66352, 46.70252, -3376.473388671875], [-125.66168, 46.69498, -3416.039794921875], [-125.6568, 46.69956, -2604.263916015625], [-125.66352, 46.70252, -3376.473388671875]]], [[[-125.6784, 46.72663, -3441.4267578125], [-125.68702, 46.73362, -3754.58935546875], [-125.68599, 46.72779, -4235.8291015625], [-125.6784, 46.72663, -3441.4267578125]]], [[[-125.6422, 46.63358, -4159.888671875], [-125.63359, 46.62631, -4222.42529296875], [-125.6344, 46.63267, -3461.71533203125], [-125.6422, 46.63358, -4159.888671875]]], [[[-125.6784, 46.72663, -3441.4267578125], [-125.6829, 46.73463, -3172.956298828125], [-125.68702, 46.73362, -3754.58935546875], [-125.6784, 46.72663, -3441.4267578125]]], [[[-125.66388, 46.67238, -4075.40380859375], [-125.67064, 46.67601, -4890.32373046875], [-125.6684, 46.66759, -4912.82080078125], [-125.66388, 46.67238, -4075.40380859375]]], [[[-125.6829, 46.73463, -3172.956298828125], [-125.6784, 46.72663, -3441.4267578125], [-125.67506, 46.73136, -2615.364013671875], [-125.6829, 46.73463, -3172.956298828125]]], [[[-125.64951, 46.63996, -4176.45751953125], [-125.65754, 46.64193, -4950.13427734375], [-125.65122, 46.63461, -4965.53662109375], [-125.64951, 46.63996, -4176.45751953125]]], [[[-125.63453, 46.63865, -2705.4697265625], [-125.6344, 46.63267, -3461.71533203125], [-125.62542, 46.63169, -2712.41845703125], [-125.63453, 46.63865, -2705.4697265625]]], [[[-125.58119, 46.61255, -1744.4305419921875], [-125.58777, 46.61085, -2575.007568359375], [-125.57968, 46.60932, -2179.445068359375], [-125.58119, 46.61255, -1744.4305419921875]]], [[[-125.59868, 46.6138, -2366.5791015625], [-125.58777, 46.61085, -2575.007568359375], [-125.59219, 46.61479, -1731.243896484375], [-125.59868, 46.6138, -2366.5791015625]]], [[[-125.67934, 46.73786, -2451.432861328125], [-125.6829, 46.73463, -3172.956298828125], [-125.67506, 46.73136, -2615.364013671875], [-125.67934, 46.73786, -2451.432861328125]]], [[[-125.64308, 46.62803, -4965.732421875], [-125.64913, 46.62663, -5776.037109375], [-125.64107, 46.61995, -5795.30615234375], [-125.64308, 46.62803, -4965.732421875]]], [[[-125.68672, 46.74122, -2885.654052734375], [-125.6829, 46.73463, -3172.956298828125], [-125.67934, 46.73786, -2451.432861328125], [-125.68672, 46.74122, -2885.654052734375]]], [[[-125.66046, 46.68652, -3424.495849609375], [-125.66168, 46.69498, -3416.039794921875], [-125.66599, 46.69072, -4147.5908203125], [-125.66046, 46.68652, -3424.495849609375]]], [[[-125.6829, 46.73463, -3172.956298828125], [-125.68672, 46.74122, -2885.654052734375], [-125.68994, 46.73945, -3458.0703125], [-125.6829, 46.73463, -3172.956298828125]]], [[[-125.65001, 46.65019, -3399.13330078125], [-125.64374, 46.64083, -3436.44580078125], [-125.64214, 46.64691, -2691.43896484375], [-125.65001, 46.65019, -3399.13330078125]]], [[[-125.70234, 46.73582, -5072.798828125], [-125.70835, 46.73596, -5635.697265625], [-125.70189, 46.73133, -5646.5927734375], [-125.70234, 46.73582, -5072.798828125]]], [[[-125.68702, 46.73362, -3754.58935546875], [-125.6829, 46.73463, -3172.956298828125], [-125.68994, 46.73945, -3458.0703125], [-125.68702, 46.73362, -3754.58935546875]]], [[[-125.65387, 46.64689, -4092.509521484375], [-125.65759, 46.65515, -4125.60693359375], [-125.66162, 46.65002, -4920.09326171875], [-125.65387, 46.64689, -4092.509521484375]]], [[[-125.68702, 46.73362, -3754.58935546875], [-125.68994, 46.73945, -3458.0703125], [-125.69456, 46.73882, -3908.044921875], [-125.68702, 46.73362, -3754.58935546875]]], [[[-125.68702, 46.73362, -3754.58935546875], [-125.69456, 46.73882, -3908.044921875], [-125.69237, 46.73416, -4258.791015625], [-125.68702, 46.73362, -3754.58935546875]]], [[[-125.69237, 46.73416, -4258.791015625], [-125.69456, 46.73882, -3908.044921875], [-125.69826, 46.73714, -4525.716796875], [-125.69237, 46.73416, -4258.791015625]]], [[[-125.70234, 46.73582, -5072.798828125], [-125.70557, 46.74024, -5267.60546875], [-125.70835, 46.73596, -5635.697265625], [-125.70234, 46.73582, -5072.798828125]]], [[[-125.59868, 46.6138, -2366.5791015625], [-125.60495, 46.61297, -3051.8115234375], [-125.59523, 46.60897, -3499.526611328125], [-125.59868, 46.6138, -2366.5791015625]]], [[[-125.69237, 46.73416, -4258.791015625], [-125.69826, 46.73714, -4525.716796875], [-125.69436, 46.73069, -4944.3984375], [-125.69237, 46.73416, -4258.791015625]]], [[[-125.65383, 46.65965, -3416.652099609375], [-125.64683, 46.65582, -2691.749267578125], [-125.65017, 46.66499, -2665.327392578125], [-125.65383, 46.65965, -3416.652099609375]]], [[[-125.60495, 46.61297, -3051.8115234375], [-125.61593, 46.6177, -3421.3369140625], [-125.60913, 46.61078, -3888.60546875], [-125.60495, 46.61297, -3051.8115234375]]], [[[-125.69456, 46.73882, -3908.044921875], [-125.69816, 46.74244, -4184.974609375], [-125.69826, 46.73714, -4525.716796875], [-125.69456, 46.73882, -3908.044921875]]], [[[-125.6422, 46.63358, -4159.888671875], [-125.64374, 46.64083, -3436.44580078125], [-125.64951, 46.63996, -4176.45751953125], [-125.6422, 46.63358, -4159.888671875]]], [[[-125.69456, 46.73882, -3908.044921875], [-125.69445, 46.74381, -3627.756591796875], [-125.69816, 46.74244, -4184.974609375], [-125.69456, 46.73882, -3908.044921875]]], [[[-125.68741, 46.72186, -4903.80029296875], [-125.69031, 46.71701, -5671.47119140625], [-125.68154, 46.71264, -4865.35595703125], [-125.68741, 46.72186, -4903.80029296875]]], [[[-125.65724, 46.66859, -3406.185791015625], [-125.65383, 46.65965, -3416.652099609375], [-125.65017, 46.66499, -2665.327392578125], [-125.65724, 46.66859, -3406.185791015625]]], [[[-125.68994, 46.73945, -3458.0703125], [-125.69445, 46.74381, -3627.756591796875], [-125.69456, 46.73882, -3908.044921875], [-125.68994, 46.73945, -3458.0703125]]], [[[-125.68994, 46.73945, -3458.0703125], [-125.69143, 46.74503, -3137.533203125], [-125.69445, 46.74381, -3627.756591796875], [-125.68994, 46.73945, -3458.0703125]]], [[[-125.68994, 46.73945, -3458.0703125], [-125.68672, 46.74122, -2885.654052734375], [-125.69143, 46.74503, -3137.533203125], [-125.68994, 46.73945, -3458.0703125]]], [[[-125.65759, 46.65515, -4125.60693359375], [-125.65387, 46.64689, -4092.509521484375], [-125.65001, 46.65019, -3399.13330078125], [-125.65759, 46.65515, -4125.60693359375]]], [[[-125.68672, 46.74122, -2885.654052734375], [-125.68754, 46.74639, -2582.76806640625], [-125.69143, 46.74503, -3137.533203125], [-125.68672, 46.74122, -2885.654052734375]]], [[[-125.64308, 46.62803, -4965.732421875], [-125.64107, 46.61995, -5795.30615234375], [-125.63432, 46.62052, -5002.890625], [-125.64308, 46.62803, -4965.732421875]]], [[[-125.68672, 46.74122, -2885.654052734375], [-125.6839, 46.74264, -2318.905029296875], [-125.68754, 46.74639, -2582.76806640625], [-125.68672, 46.74122, -2885.654052734375]]], [[[-125.68672, 46.74122, -2885.654052734375], [-125.67934, 46.73786, -2451.432861328125], [-125.6839, 46.74264, -2318.905029296875], [-125.68672, 46.74122, -2885.654052734375]]], [[[-125.6839, 46.74264, -2318.905029296875], [-125.67934, 46.73786, -2451.432861328125], [-125.67772, 46.74148, -1859.52685546875], [-125.6839, 46.74264, -2318.905029296875]]], [[[-125.6839, 46.74264, -2318.905029296875], [-125.67772, 46.74148, -1859.52685546875], [-125.683, 46.745, -1857.616943359375], [-125.6839, 46.74264, -2318.905029296875]]], [[[-125.66046, 46.68652, -3424.495849609375], [-125.65473, 46.68252, -2626.290771484375], [-125.65541, 46.69128, -2615.52392578125], [-125.66046, 46.68652, -3424.495849609375]]], [[[-125.65383, 46.65965, -3416.652099609375], [-125.66097, 46.66394, -4134.46630859375], [-125.65759, 46.65515, -4125.60693359375], [-125.65383, 46.65965, -3416.652099609375]]], [[[-125.683, 46.745, -1857.616943359375], [-125.68754, 46.74639, -2582.76806640625], [-125.6839, 46.74264, -2318.905029296875], [-125.683, 46.745, -1857.616943359375]]], [[[-125.683, 46.745, -1857.616943359375], [-125.68496, 46.74797, -2178.653076171875], [-125.68754, 46.74639, -2582.76806640625], [-125.683, 46.745, -1857.616943359375]]], [[[-125.683, 46.753, -1920.3890380859375], [-125.68496, 46.74797, -2178.653076171875], [-125.683, 46.745, -1857.616943359375], [-125.683, 46.753, -1920.3890380859375]]], [[[-125.66168, 46.69498, -3416.039794921875], [-125.65541, 46.69128, -2615.52392578125], [-125.6568, 46.69956, -2604.263916015625], [-125.66168, 46.69498, -3416.039794921875]]], [[[-125.68496, 46.74797, -2178.653076171875], [-125.683, 46.753, -1920.3890380859375], [-125.68682, 46.75164, -2487.573486328125], [-125.68496, 46.74797, -2178.653076171875]]], [[[-125.65319, 46.67346, -2624.615966796875], [-125.64569, 46.67006, -1820.72412109375], [-125.64876, 46.67864, -1779.799560546875], [-125.65319, 46.67346, -2624.615966796875]]], [[[-125.68496, 46.74797, -2178.653076171875], [-125.68682, 46.75164, -2487.573486328125], [-125.68754, 46.74639, -2582.76806640625], [-125.68496, 46.74797, -2178.653076171875]]], [[[-125.68754, 46.74639, -2582.76806640625], [-125.68682, 46.75164, -2487.573486328125], [-125.69029, 46.75041, -3002.90185546875], [-125.68754, 46.74639, -2582.76806640625]]], [[[-125.69143, 46.74503, -3137.533203125], [-125.68754, 46.74639, -2582.76806640625], [-125.69029, 46.75041, -3002.90185546875], [-125.69143, 46.74503, -3137.533203125]]], [[[-125.62542, 46.62517, -3505.9951171875], [-125.62542, 46.63169, -2712.41845703125], [-125.6344, 46.63267, -3461.71533203125], [-125.62542, 46.62517, -3505.9951171875]]], [[[-125.66806, 46.70947, -3384.512451171875], [-125.67463, 46.70977, -4075.56103515625], [-125.66826, 46.70086, -4145.9833984375], [-125.66806, 46.70947, -3384.512451171875]]], [[[-125.6689, 46.72339, -2689.50537109375], [-125.66154, 46.72115, -1840.212158203125], [-125.66679, 46.72907, -1860.826416015625], [-125.6689, 46.72339, -2689.50537109375]]], [[[-125.69143, 46.74503, -3137.533203125], [-125.69029, 46.75041, -3002.90185546875], [-125.69356, 46.74925, -3487.5458984375], [-125.69143, 46.74503, -3137.533203125]]], [[[-125.69143, 46.74503, -3137.533203125], [-125.69356, 46.74925, -3487.5458984375], [-125.69445, 46.74381, -3627.756591796875], [-125.69143, 46.74503, -3137.533203125]]], [[[-125.69445, 46.74381, -3627.756591796875], [-125.69356, 46.74925, -3487.5458984375], [-125.69701, 46.74802, -4000.697998046875], [-125.69445, 46.74381, -3627.756591796875]]], [[[-125.67064, 46.67601, -4890.32373046875], [-125.67571, 46.68357, -5710.74072265625], [-125.67599, 46.67479, -5710.05810546875], [-125.67064, 46.67601, -4890.32373046875]]], [[[-125.69445, 46.74381, -3627.756591796875], [-125.69701, 46.74802, -4000.697998046875], [-125.69816, 46.74244, -4184.974609375], [-125.69445, 46.74381, -3627.756591796875]]], [[[-125.69816, 46.74244, -4184.974609375], [-125.69701, 46.74802, -4000.697998046875], [-125.70071, 46.74671, -4548.74072265625], [-125.69816, 46.74244, -4184.974609375]]], [[[-125.65754, 46.64193, -4950.13427734375], [-125.65735, 46.6333, -5755.78515625], [-125.65122, 46.63461, -4965.53662109375], [-125.65754, 46.64193, -4950.13427734375]]], [[[-125.69816, 46.74244, -4184.974609375], [-125.70071, 46.74671, -4548.74072265625], [-125.70181, 46.74122, -4727.51025390625], [-125.69816, 46.74244, -4184.974609375]]], [[[-125.65724, 46.66859, -3406.185791015625], [-125.66388, 46.67238, -4075.40380859375], [-125.66097, 46.66394, -4134.46630859375], [-125.65724, 46.66859, -3406.185791015625]]], [[[-125.69826, 46.73714, -4525.716796875], [-125.69816, 46.74244, -4184.974609375], [-125.70181, 46.74122, -4727.51025390625], [-125.69826, 46.73714, -4525.716796875]]], [[[-125.66046, 46.68652, -3424.495849609375], [-125.65958, 46.67751, -3364.875732421875], [-125.65473, 46.68252, -2626.290771484375], [-125.66046, 46.68652, -3424.495849609375]]], [[[-125.70071, 46.74671, -4548.74072265625], [-125.70437, 46.74541, -5092.087890625], [-125.70181, 46.74122, -4727.51025390625], [-125.70071, 46.74671, -4548.74072265625]]], [[[-125.67934, 46.73786, -2451.432861328125], [-125.67259, 46.73609, -1857.867919921875], [-125.67772, 46.74148, -1859.52685546875], [-125.67934, 46.73786, -2451.432861328125]]], [[[-125.67934, 46.73786, -2451.432861328125], [-125.67506, 46.73136, -2615.364013671875], [-125.67259, 46.73609, -1857.867919921875], [-125.67934, 46.73786, -2451.432861328125]]], [[[-125.60363, 46.60393, -5196.0078125], [-125.6116, 46.60745, -4724.3173828125], [-125.61328, 46.60562, -5317.95361328125], [-125.60363, 46.60393, -5196.0078125]]], [[[-125.67506, 46.73136, -2615.364013671875], [-125.66679, 46.72907, -1860.826416015625], [-125.67259, 46.73609, -1857.867919921875], [-125.67506, 46.73136, -2615.364013671875]]], [[[-125.67506, 46.73136, -2615.364013671875], [-125.6689, 46.72339, -2689.50537109375], [-125.66679, 46.72907, -1860.826416015625], [-125.67506, 46.73136, -2615.364013671875]]], [[[-125.6784, 46.72663, -3441.4267578125], [-125.6689, 46.72339, -2689.50537109375], [-125.67506, 46.73136, -2615.364013671875], [-125.6784, 46.72663, -3441.4267578125]]], [[[-125.67463, 46.70977, -4075.56103515625], [-125.68154, 46.71264, -4865.35595703125], [-125.67678, 46.70423, -4888.93017578125], [-125.67463, 46.70977, -4075.56103515625]]], [[[-125.6784, 46.72663, -3441.4267578125], [-125.67229, 46.71777, -3422.848388671875], [-125.6689, 46.72339, -2689.50537109375], [-125.6784, 46.72663, -3441.4267578125]]], [[[-125.66352, 46.70252, -3376.473388671875], [-125.6568, 46.69956, -2604.263916015625], [-125.66027, 46.70745, -2601.3076171875], [-125.66352, 46.70252, -3376.473388671875]]], [[[-125.6116, 46.60745, -4724.3173828125], [-125.60363, 46.60393, -5196.0078125], [-125.60061, 46.60654, -4426.748046875], [-125.6116, 46.60745, -4724.3173828125]]], [[[-125.6784, 46.72663, -3441.4267578125], [-125.67935, 46.71949, -4138.51953125], [-125.67229, 46.71777, -3422.848388671875], [-125.6784, 46.72663, -3441.4267578125]]], [[[-125.66168, 46.69498, -3416.039794921875], [-125.66046, 46.68652, -3424.495849609375], [-125.65541, 46.69128, -2615.52392578125], [-125.66168, 46.69498, -3416.039794921875]]], [[[-125.6784, 46.72663, -3441.4267578125], [-125.68599, 46.72779, -4235.8291015625], [-125.67935, 46.71949, -4138.51953125], [-125.6784, 46.72663, -3441.4267578125]]], [[[-125.573, 46.608, -1832.720947265625], [-125.57968, 46.60932, -2179.445068359375], [-125.57805, 46.6062, -2585.012451171875], [-125.573, 46.608, -1832.720947265625]]], [[[-125.64214, 46.64691, -2691.43896484375], [-125.63387, 46.64497, -1892.090576171875], [-125.6393, 46.65295, -1881.2811279296875], [-125.64214, 46.64691, -2691.43896484375]]], [[[-125.65383, 46.65965, -3416.652099609375], [-125.65759, 46.65515, -4125.60693359375], [-125.65001, 46.65019, -3399.13330078125], [-125.65383, 46.65965, -3416.652099609375]]], [[[-125.68599, 46.72779, -4235.8291015625], [-125.68741, 46.72186, -4903.80029296875], [-125.67935, 46.71949, -4138.51953125], [-125.68599, 46.72779, -4235.8291015625]]], [[[-125.67935, 46.71949, -4138.51953125], [-125.68741, 46.72186, -4903.80029296875], [-125.68154, 46.71264, -4865.35595703125], [-125.67935, 46.71949, -4138.51953125]]], [[[-125.67935, 46.71949, -4138.51953125], [-125.68154, 46.71264, -4865.35595703125], [-125.67463, 46.70977, -4075.56103515625], [-125.67935, 46.71949, -4138.51953125]]], [[[-125.67229, 46.71777, -3422.848388671875], [-125.67935, 46.71949, -4138.51953125], [-125.67463, 46.70977, -4075.56103515625], [-125.67229, 46.71777, -3422.848388671875]]], [[[-125.62542, 46.63169, -2712.41845703125], [-125.62603, 46.63797, -1893.8896484375], [-125.63453, 46.63865, -2705.4697265625], [-125.62542, 46.63169, -2712.41845703125]]], [[[-125.67064, 46.67601, -4890.32373046875], [-125.67599, 46.67479, -5710.05810546875], [-125.6684, 46.66759, -4912.82080078125], [-125.67064, 46.67601, -4890.32373046875]]], [[[-125.67229, 46.71777, -3422.848388671875], [-125.67463, 46.70977, -4075.56103515625], [-125.66806, 46.70947, -3384.512451171875], [-125.67229, 46.71777, -3422.848388671875]]], [[[-125.67229, 46.71777, -3422.848388671875], [-125.66806, 46.70947, -3384.512451171875], [-125.66559, 46.71516, -2604.5576171875], [-125.67229, 46.71777, -3422.848388671875]]], [[[-125.66388, 46.67238, -4075.40380859375], [-125.65724, 46.66859, -3406.185791015625], [-125.65958, 46.67751, -3364.875732421875], [-125.66388, 46.67238, -4075.40380859375]]], [[[-125.67229, 46.71777, -3422.848388671875], [-125.66559, 46.71516, -2604.5576171875], [-125.6689, 46.72339, -2689.50537109375], [-125.67229, 46.71777, -3422.848388671875]]], [[[-125.66154, 46.72115, -1840.212158203125], [-125.6689, 46.72339, -2689.50537109375], [-125.66559, 46.71516, -2604.5576171875], [-125.66154, 46.72115, -1840.212158203125]]], [[[-125.65319, 46.67346, -2624.615966796875], [-125.64876, 46.67864, -1779.799560546875], [-125.65473, 46.68252, -2626.290771484375], [-125.65319, 46.67346, -2624.615966796875]]], [[[-125.65731, 46.71293, -1808.4691162109375], [-125.66154, 46.72115, -1840.212158203125], [-125.66559, 46.71516, -2604.5576171875], [-125.65731, 46.71293, -1808.4691162109375]]], [[[-125.67243, 46.6949, -4897.96240234375], [-125.67678, 46.70423, -4888.93017578125], [-125.68129, 46.70058, -5695.78125], [-125.67243, 46.6949, -4897.96240234375]]], [[[-125.66027, 46.70745, -2601.3076171875], [-125.65731, 46.71293, -1808.4691162109375], [-125.66559, 46.71516, -2604.5576171875], [-125.66027, 46.70745, -2601.3076171875]]], [[[-125.66027, 46.70745, -2601.3076171875], [-125.65227, 46.70494, -1811.681640625], [-125.65731, 46.71293, -1808.4691162109375], [-125.66027, 46.70745, -2601.3076171875]]], [[[-125.6422, 46.63358, -4159.888671875], [-125.64951, 46.63996, -4176.45751953125], [-125.65122, 46.63461, -4965.53662109375], [-125.6422, 46.63358, -4159.888671875]]], [[[-125.6568, 46.69956, -2604.263916015625], [-125.65227, 46.70494, -1811.681640625], [-125.66027, 46.70745, -2601.3076171875], [-125.6568, 46.69956, -2604.263916015625]]], [[[-125.6568, 46.69956, -2604.263916015625], [-125.65025, 46.6962, -1792.0264892578125], [-125.65227, 46.70494, -1811.681640625], [-125.6568, 46.69956, -2604.263916015625]]], [[[-125.65541, 46.69128, -2615.52392578125], [-125.65025, 46.6962, -1792.0264892578125], [-125.6568, 46.69956, -2604.263916015625], [-125.65541, 46.69128, -2615.52392578125]]], [[[-125.65541, 46.69128, -2615.52392578125], [-125.64927, 46.68741, -1797.2379150390625], [-125.65025, 46.6962, -1792.0264892578125], [-125.65541, 46.69128, -2615.52392578125]]], [[[-125.66493, 46.65886, -4909.3759765625], [-125.67403, 46.66621, -5714.892578125], [-125.67065, 46.65774, -5723.453125], [-125.66493, 46.65886, -4909.3759765625]]], [[[-125.65473, 46.68252, -2626.290771484375], [-125.64927, 46.68741, -1797.2379150390625], [-125.65541, 46.69128, -2615.52392578125], [-125.65473, 46.68252, -2626.290771484375]]], [[[-125.65473, 46.68252, -2626.290771484375], [-125.64876, 46.67864, -1779.799560546875], [-125.64927, 46.68741, -1797.2379150390625], [-125.65473, 46.68252, -2626.290771484375]]], [[[-125.66388, 46.67238, -4075.40380859375], [-125.65958, 46.67751, -3364.875732421875], [-125.66503, 46.68093, -4109.74658203125], [-125.66388, 46.67238, -4075.40380859375]]], [[[-125.66493, 46.65886, -4909.3759765625], [-125.67065, 46.65774, -5723.453125], [-125.66162, 46.65002, -4920.09326171875], [-125.66493, 46.65886, -4909.3759765625]]], [[[-125.65017, 46.66499, -2665.327392578125], [-125.64569, 46.67006, -1820.72412109375], [-125.65319, 46.67346, -2624.615966796875], [-125.65017, 46.66499, -2665.327392578125]]], [[[-125.65017, 46.66499, -2665.327392578125], [-125.64277, 46.66146, -1878.17333984375], [-125.64569, 46.67006, -1820.72412109375], [-125.65017, 46.66499, -2665.327392578125]]], [[[-125.64683, 46.65582, -2691.749267578125], [-125.64277, 46.66146, -1878.17333984375], [-125.65017, 46.66499, -2665.327392578125], [-125.64683, 46.65582, -2691.749267578125]]], [[[-125.62542, 46.62517, -3505.9951171875], [-125.61593, 46.6177, -3421.3369140625], [-125.61727, 46.62491, -2660.177978515625], [-125.62542, 46.62517, -3505.9951171875]]], [[[-125.64683, 46.65582, -2691.749267578125], [-125.6393, 46.65295, -1881.2811279296875], [-125.64277, 46.66146, -1878.17333984375], [-125.64683, 46.65582, -2691.749267578125]]], [[[-125.61771, 46.61221, -4353.13623046875], [-125.62675, 46.61319, -5096.93701171875], [-125.62058, 46.60854, -5190.19580078125], [-125.61771, 46.61221, -4353.13623046875]]], [[[-125.64214, 46.64691, -2691.43896484375], [-125.6393, 46.65295, -1881.2811279296875], [-125.64683, 46.65582, -2691.749267578125], [-125.64214, 46.64691, -2691.43896484375]]], [[[-125.63453, 46.63865, -2705.4697265625], [-125.63387, 46.64497, -1892.090576171875], [-125.64214, 46.64691, -2691.43896484375], [-125.63453, 46.63865, -2705.4697265625]]], [[[-125.60363, 46.60393, -5196.0078125], [-125.60972, 46.60302, -5869.712890625], [-125.60024, 46.59829, -5892.11962890625], [-125.60363, 46.60393, -5196.0078125]]], [[[-125.63453, 46.63865, -2705.4697265625], [-125.62603, 46.63797, -1893.8896484375], [-125.63387, 46.64497, -1892.090576171875], [-125.63453, 46.63865, -2705.4697265625]]], [[[-125.58358, 46.60423, -3408.731201171875], [-125.59523, 46.60897, -3499.526611328125], [-125.58913, 46.60225, -4236.52685546875], [-125.58358, 46.60423, -3408.731201171875]]], [[[-125.62542, 46.63169, -2712.41845703125], [-125.6172, 46.63155, -1878.96484375], [-125.62603, 46.63797, -1893.8896484375], [-125.62542, 46.63169, -2712.41845703125]]], [[[-125.60061, 46.60654, -4426.748046875], [-125.59469, 46.60027, -5064.3232421875], [-125.58913, 46.60225, -4236.52685546875], [-125.60061, 46.60654, -4426.748046875]]], [[[-125.66503, 46.68093, -4109.74658203125], [-125.66599, 46.69072, -4147.5908203125], [-125.67036, 46.68532, -4888.5341796875], [-125.66503, 46.68093, -4109.74658203125]]], [[[-125.61727, 46.62491, -2660.177978515625], [-125.6172, 46.63155, -1878.96484375], [-125.62542, 46.63169, -2712.41845703125], [-125.61727, 46.62491, -2660.177978515625]]], [[[-125.64374, 46.64083, -3436.44580078125], [-125.63453, 46.63865, -2705.4697265625], [-125.64214, 46.64691, -2691.43896484375], [-125.64374, 46.64083, -3436.44580078125]]], [[[-125.61727, 46.62491, -2660.177978515625], [-125.60919, 46.62463, -1833.34228515625], [-125.6172, 46.63155, -1878.96484375], [-125.61727, 46.62491, -2660.177978515625]]], [[[-125.60818, 46.61832, -2490.087646484375], [-125.60919, 46.62463, -1833.34228515625], [-125.61727, 46.62491, -2660.177978515625], [-125.60818, 46.61832, -2490.087646484375]]], [[[-125.60818, 46.61832, -2490.087646484375], [-125.60165, 46.61885, -1785.1591796875], [-125.60919, 46.62463, -1833.34228515625], [-125.60818, 46.61832, -2490.087646484375]]], [[[-125.59868, 46.6138, -2366.5791015625], [-125.60165, 46.61885, -1785.1591796875], [-125.60818, 46.61832, -2490.087646484375], [-125.59868, 46.6138, -2366.5791015625]]], [[[-125.59868, 46.6138, -2366.5791015625], [-125.59219, 46.61479, -1731.243896484375], [-125.60165, 46.61885, -1785.1591796875], [-125.59868, 46.6138, -2366.5791015625]]], [[[-125.59868, 46.6138, -2366.5791015625], [-125.59523, 46.60897, -3499.526611328125], [-125.58777, 46.61085, -2575.007568359375], [-125.59868, 46.6138, -2366.5791015625]]], [[[-125.66493, 46.65886, -4909.3759765625], [-125.66097, 46.66394, -4134.46630859375], [-125.6684, 46.66759, -4912.82080078125], [-125.66493, 46.65886, -4909.3759765625]]], [[[-125.62509, 46.61831, -4267.8154296875], [-125.63359, 46.62631, -4222.42529296875], [-125.63432, 46.62052, -5002.890625], [-125.62509, 46.61831, -4267.8154296875]]], [[[-125.59868, 46.6138, -2366.5791015625], [-125.60818, 46.61832, -2490.087646484375], [-125.60495, 46.61297, -3051.8115234375], [-125.59868, 46.6138, -2366.5791015625]]], [[[-125.68154, 46.71264, -4865.35595703125], [-125.69031, 46.71701, -5671.47119140625], [-125.68588, 46.70877, -5683.177734375], [-125.68154, 46.71264, -4865.35595703125]]], [[[-125.62675, 46.61319, -5096.93701171875], [-125.63432, 46.62052, -5002.890625], [-125.63405, 46.61332, -5811.83740234375], [-125.62675, 46.61319, -5096.93701171875]]], [[[-125.61593, 46.6177, -3421.3369140625], [-125.60495, 46.61297, -3051.8115234375], [-125.60818, 46.61832, -2490.087646484375], [-125.61593, 46.6177, -3421.3369140625]]], [[[-125.60913, 46.61078, -3888.60546875], [-125.59523, 46.60897, -3499.526611328125], [-125.60495, 46.61297, -3051.8115234375], [-125.60913, 46.61078, -3888.60546875]]], [[[-125.60913, 46.61078, -3888.60546875], [-125.60061, 46.60654, -4426.748046875], [-125.59523, 46.60897, -3499.526611328125], [-125.60913, 46.61078, -3888.60546875]]], [[[-125.6116, 46.60745, -4724.3173828125], [-125.61771, 46.61221, -4353.13623046875], [-125.62058, 46.60854, -5190.19580078125], [-125.6116, 46.60745, -4724.3173828125]]], [[[-125.61328, 46.60562, -5317.95361328125], [-125.6116, 46.60745, -4724.3173828125], [-125.62058, 46.60854, -5190.19580078125], [-125.61328, 46.60562, -5317.95361328125]]], [[[-125.60363, 46.60393, -5196.0078125], [-125.59469, 46.60027, -5064.3232421875], [-125.60061, 46.60654, -4426.748046875], [-125.60363, 46.60393, -5196.0078125]]], [[[-125.67036, 46.68532, -4888.5341796875], [-125.67766, 46.69225, -5705.3056640625], [-125.67571, 46.68357, -5710.74072265625], [-125.67036, 46.68532, -4888.5341796875]]], [[[-125.66168, 46.69498, -3416.039794921875], [-125.66352, 46.70252, -3376.473388671875], [-125.66826, 46.70086, -4145.9833984375], [-125.66168, 46.69498, -3416.039794921875]]], [[[-125.60363, 46.60393, -5196.0078125], [-125.60024, 46.59829, -5892.11962890625], [-125.59469, 46.60027, -5064.3232421875], [-125.60363, 46.60393, -5196.0078125]]], [[[-125.60363, 46.60393, -5196.0078125], [-125.61328, 46.60562, -5317.95361328125], [-125.60972, 46.60302, -5869.712890625], [-125.60363, 46.60393, -5196.0078125]]], [[[-125.66162, 46.65002, -4920.09326171875], [-125.67065, 46.65774, -5723.453125], [-125.6676, 46.64921, -5730.8310546875], [-125.66162, 46.65002, -4920.09326171875]]], [[[-125.61328, 46.60562, -5317.95361328125], [-125.61923, 46.60502, -5846.9375], [-125.60972, 46.60302, -5869.712890625], [-125.61328, 46.60562, -5317.95361328125]]], [[[-125.66046, 46.68652, -3424.495849609375], [-125.66503, 46.68093, -4109.74658203125], [-125.65958, 46.67751, -3364.875732421875], [-125.66046, 46.68652, -3424.495849609375]]], [[[-125.62058, 46.60854, -5190.19580078125], [-125.62707, 46.60823, -5828.3486328125], [-125.61923, 46.60502, -5846.9375], [-125.62058, 46.60854, -5190.19580078125]]], [[[-125.6422, 46.63358, -4159.888671875], [-125.65122, 46.63461, -4965.53662109375], [-125.64308, 46.62803, -4965.732421875], [-125.6422, 46.63358, -4159.888671875]]], [[[-125.61771, 46.61221, -4353.13623046875], [-125.61593, 46.6177, -3421.3369140625], [-125.62509, 46.61831, -4267.8154296875], [-125.61771, 46.61221, -4353.13623046875]]], [[[-125.61593, 46.6177, -3421.3369140625], [-125.61771, 46.61221, -4353.13623046875], [-125.60913, 46.61078, -3888.60546875], [-125.61593, 46.6177, -3421.3369140625]]], [[[-125.62542, 46.62517, -3505.9951171875], [-125.62509, 46.61831, -4267.8154296875], [-125.61593, 46.6177, -3421.3369140625], [-125.62542, 46.62517, -3505.9951171875]]], [[[-125.58358, 46.60423, -3408.731201171875], [-125.57805, 46.6062, -2585.012451171875], [-125.58777, 46.61085, -2575.007568359375], [-125.58358, 46.60423, -3408.731201171875]]], [[[-125.62542, 46.62517, -3505.9951171875], [-125.6344, 46.63267, -3461.71533203125], [-125.63359, 46.62631, -4222.42529296875], [-125.62542, 46.62517, -3505.9951171875]]], [[[-125.61593, 46.6177, -3421.3369140625], [-125.60818, 46.61832, -2490.087646484375], [-125.61727, 46.62491, -2660.177978515625], [-125.61593, 46.6177, -3421.3369140625]]], [[[-125.64374, 46.64083, -3436.44580078125], [-125.6344, 46.63267, -3461.71533203125], [-125.63453, 46.63865, -2705.4697265625], [-125.64374, 46.64083, -3436.44580078125]]], [[[-125.6422, 46.63358, -4159.888671875], [-125.6344, 46.63267, -3461.71533203125], [-125.64374, 46.64083, -3436.44580078125], [-125.6422, 46.63358, -4159.888671875]]], [[[-125.63359, 46.62631, -4222.42529296875], [-125.6422, 46.63358, -4159.888671875], [-125.64308, 46.62803, -4965.732421875], [-125.63359, 46.62631, -4222.42529296875]]], [[[-125.59523, 46.60897, -3499.526611328125], [-125.60061, 46.60654, -4426.748046875], [-125.58913, 46.60225, -4236.52685546875], [-125.59523, 46.60897, -3499.526611328125]]], [[[-125.65387, 46.64689, -4092.509521484375], [-125.64374, 46.64083, -3436.44580078125], [-125.65001, 46.65019, -3399.13330078125], [-125.65387, 46.64689, -4092.509521484375]]], [[[-125.63432, 46.62052, -5002.890625], [-125.64107, 46.61995, -5795.30615234375], [-125.63405, 46.61332, -5811.83740234375], [-125.63432, 46.62052, -5002.890625]]], [[[-125.66826, 46.70086, -4145.9833984375], [-125.66599, 46.69072, -4147.5908203125], [-125.66168, 46.69498, -3416.039794921875], [-125.66826, 46.70086, -4145.9833984375]]], [[[-125.66806, 46.70947, -3384.512451171875], [-125.66352, 46.70252, -3376.473388671875], [-125.66027, 46.70745, -2601.3076171875], [-125.66806, 46.70947, -3384.512451171875]]], [[[-125.65122, 46.63461, -4965.53662109375], [-125.65735, 46.6333, -5755.78515625], [-125.64913, 46.62663, -5776.037109375], [-125.65122, 46.63461, -4965.53662109375]]], [[[-125.65754, 46.64193, -4950.13427734375], [-125.66362, 46.64088, -5740.44140625], [-125.65735, 46.6333, -5755.78515625], [-125.65754, 46.64193, -4950.13427734375]]], [[[-125.67036, 46.68532, -4888.5341796875], [-125.67571, 46.68357, -5710.74072265625], [-125.67064, 46.67601, -4890.32373046875], [-125.67036, 46.68532, -4888.5341796875]]], [[[-125.66162, 46.65002, -4920.09326171875], [-125.6676, 46.64921, -5730.8310546875], [-125.66362, 46.64088, -5740.44140625], [-125.66162, 46.65002, -4920.09326171875]]], [[[-125.65383, 46.65965, -3416.652099609375], [-125.65724, 46.66859, -3406.185791015625], [-125.66097, 46.66394, -4134.46630859375], [-125.65383, 46.65965, -3416.652099609375]]], [[[-125.58777, 46.61085, -2575.007568359375], [-125.58119, 46.61255, -1744.4305419921875], [-125.59219, 46.61479, -1731.243896484375], [-125.58777, 46.61085, -2575.007568359375]]], [[[-125.65724, 46.66859, -3406.185791015625], [-125.65319, 46.67346, -2624.615966796875], [-125.65958, 46.67751, -3364.875732421875], [-125.65724, 46.66859, -3406.185791015625]]], [[[-125.66388, 46.67238, -4075.40380859375], [-125.6684, 46.66759, -4912.82080078125], [-125.66097, 46.66394, -4134.46630859375], [-125.66388, 46.67238, -4075.40380859375]]], [[[-125.66503, 46.68093, -4109.74658203125], [-125.66046, 46.68652, -3424.495849609375], [-125.66599, 46.69072, -4147.5908203125], [-125.66503, 46.68093, -4109.74658203125]]], [[[-125.66503, 46.68093, -4109.74658203125], [-125.67036, 46.68532, -4888.5341796875], [-125.67064, 46.67601, -4890.32373046875], [-125.66503, 46.68093, -4109.74658203125]]], [[[-125.67036, 46.68532, -4888.5341796875], [-125.66599, 46.69072, -4147.5908203125], [-125.67243, 46.6949, -4897.96240234375], [-125.67036, 46.68532, -4888.5341796875]]], [[[-125.67678, 46.70423, -4888.93017578125], [-125.68154, 46.71264, -4865.35595703125], [-125.68588, 46.70877, -5683.177734375], [-125.67678, 46.70423, -4888.93017578125]]], [[[-125.67678, 46.70423, -4888.93017578125], [-125.68588, 46.70877, -5683.177734375], [-125.68129, 46.70058, -5695.78125], [-125.67678, 46.70423, -4888.93017578125]]], [[[-125.66806, 46.70947, -3384.512451171875], [-125.66826, 46.70086, -4145.9833984375], [-125.66352, 46.70252, -3376.473388671875], [-125.66806, 46.70947, -3384.512451171875]]], [[[-125.66806, 46.70947, -3384.512451171875], [-125.66027, 46.70745, -2601.3076171875], [-125.66559, 46.71516, -2604.5576171875], [-125.66806, 46.70947, -3384.512451171875]]]]}}]}