{"type": "FeatureCollection", "features": [{"type": "Feature", "properties": {"name": "AW_WASH_37", "CFM_ID": 301, "region": "Offshore_WAOR", "primary_state/province": "WA", "secondary_state/province": null, "avg_dip": 53, "dip_dir": "SW", "rake": 90, "slip_sense": "Reverse", "fault_level": 2, "NSHM23_sliprates": null, "QFFDAgeCatBin": null, "QFFDAgeBin": null, "upper_depth": -2.4, "upper_depth_constraint": "seismic imaging", "lower_depth": -5.5, "lower_depth_constraint": "megathrust", "3D_model_constraints": "trace and 1 MCS line", "reference": "Ledeczi et al. (2024); Carbotte et al. (2023)", "nshm23_id": null, "lineage": null, "usgs_qffd_#": null, "comments": "fault depth interpretation from Ledeczi et al. (2024); Carbotte et al. (2023) used to aid in model building", "id": "301"}, "geometry": {"type": "MultiPolygon", "coordinates": [[[[-125.75764, 46.32045, -4496.6279296875], [-125.75798, 46.33164, -3768.83984375], [-125.76433, 46.33102, -4579.10107421875], [-125.75764, 46.32045, -4496.6279296875]]], [[[-125.75135, 46.32373, -3549.460205078125], [-125.75798, 46.33164, -3768.83984375], [-125.75764, 46.32045, -4496.6279296875], [-125.75135, 46.32373, -3549.460205078125]]], [[[-125.75135, 46.32373, -3549.460205078125], [-125.75012, 46.33241, -3042.812744140625], [-125.75798, 46.33164, -3768.83984375], [-125.75135, 46.32373, -3549.460205078125]]], [[[-125.75135, 46.32373, -3549.460205078125], [-125.74403, 46.32574, -2863.854248046875], [-125.75012, 46.33241, -3042.812744140625], [-125.75135, 46.32373, -3549.460205078125]]], [[[-125.74084, 46.31798, -3016.285400390625], [-125.74403, 46.32574, -2863.854248046875], [-125.75135, 46.32373, -3549.460205078125], [-125.74084, 46.31798, -3016.285400390625]]], [[[-125.74084, 46.31798, -3016.285400390625], [-125.73656, 46.32455, -2392.75], [-125.74403, 46.32574, -2863.854248046875], [-125.74084, 46.31798, -3016.285400390625]]], [[[-125.74084, 46.31798, -3016.285400390625], [-125.73052, 46.31626, -2392.75], [-125.73656, 46.32455, -2392.75], [-125.74084, 46.31798, -3016.285400390625]]], [[[-125.73642, 46.30978, -3051.0439453125], [-125.73052, 46.31626, -2392.75], [-125.74084, 46.31798, -3016.285400390625], [-125.73642, 46.30978, -3051.0439453125]]], [[[-125.73642, 46.30978, -3051.0439453125], [-125.72544, 46.30767, -2392.75], [-125.73052, 46.31626, -2392.75], [-125.73642, 46.30978, -3051.0439453125]]], [[[-125.72974, 46.30138, -3058.5009765625], [-125.72544, 46.30767, -2392.75], [-125.73642, 46.30978, -3051.0439453125], [-125.72974, 46.30138, -3058.5009765625]]], [[[-125.72974, 46.30138, -3058.5009765625], [-125.71843, 46.29974, -2392.75], [-125.72544, 46.30767, -2392.75], [-125.72974, 46.30138, -3058.5009765625]]], [[[-125.72283, 46.2932, -3062.19482421875], [-125.71843, 46.29974, -2392.75], [-125.72974, 46.30138, -3058.5009765625], [-125.72283, 46.2932, -3062.19482421875]]], [[[-125.72283, 46.2932, -3062.19482421875], [-125.71216, 46.29155, -2392.75], [-125.71843, 46.29974, -2392.75], [-125.72283, 46.2932, -3062.19482421875]]], [[[-125.71838, 46.28495, -3057.1875], [-125.71216, 46.29155, -2392.75], [-125.72283, 46.2932, -3062.19482421875], [-125.71838, 46.28495, -3057.1875]]], [[[-125.71838, 46.28495, -3057.1875], [-125.70757, 46.28282, -2392.75], [-125.71216, 46.29155, -2392.75], [-125.71838, 46.28495, -3057.1875]]], [[[-125.71359, 46.27642, -3071.437744140625], [-125.70757, 46.28282, -2392.75], [-125.71838, 46.28495, -3057.1875], [-125.71359, 46.27642, -3071.437744140625]]], [[[-125.71359, 46.27642, -3071.437744140625], [-125.7025, 46.27421, -2392.75], [-125.70757, 46.28282, -2392.75], [-125.71359, 46.27642, -3071.437744140625]]], [[[-125.70964, 46.23134, -4655.73291015625], [-125.71365, 46.23936, -4642.48046875], [-125.71841, 46.2343, -5463.611328125], [-125.70964, 46.23134, -4655.73291015625]]], [[[-125.70885, 46.26792, -3083.265380859375], [-125.7025, 46.27421, -2392.75], [-125.71359, 46.27642, -3071.437744140625], [-125.70885, 46.26792, -3083.265380859375]]], [[[-125.68983, 46.22176, -3124.08984375], [-125.67877, 46.22116, -2392.75], [-125.68408, 46.22966, -2392.75], [-125.68983, 46.22176, -3124.08984375]]], [[[-125.70885, 46.26792, -3083.265380859375], [-125.69784, 46.2655, -2392.75], [-125.7025, 46.27421, -2392.75], [-125.70885, 46.26792, -3083.265380859375]]], [[[-125.73257, 46.28226, -4692.1240234375], [-125.73667, 46.2906, -4674.169921875], [-125.74058, 46.28493, -5425.34033203125], [-125.73257, 46.28226, -4692.1240234375]]], [[[-125.7049, 46.25931, -3086.045654296875], [-125.69784, 46.2655, -2392.75], [-125.70885, 46.26792, -3083.265380859375], [-125.7049, 46.25931, -3086.045654296875]]], [[[-125.69442, 46.23194, -3038.990478515625], [-125.68844, 46.23845, -2392.75], [-125.69893, 46.24147, -3015.537841796875], [-125.69442, 46.23194, -3038.990478515625]]], [[[-125.7049, 46.25931, -3086.045654296875], [-125.69421, 46.25656, -2392.75], [-125.69784, 46.2655, -2392.75], [-125.7049, 46.25931, -3086.045654296875]]], [[[-125.7049, 46.25931, -3086.045654296875], [-125.70189, 46.25051, -3074.391357421875], [-125.69421, 46.25656, -2392.75], [-125.7049, 46.25931, -3086.045654296875]]], [[[-125.7049, 46.25931, -3086.045654296875], [-125.71165, 46.25343, -3887.051025390625], [-125.70189, 46.25051, -3074.391357421875], [-125.7049, 46.25931, -3086.045654296875]]], [[[-125.71509, 46.26232, -3889.89306640625], [-125.71165, 46.25343, -3887.051025390625], [-125.7049, 46.25931, -3086.045654296875], [-125.71509, 46.26232, -3889.89306640625]]], [[[-125.70188, 46.21619, -4825.12353515625], [-125.7093, 46.21782, -5491.0009765625], [-125.70323, 46.21004, -5511.33984375], [-125.70188, 46.21619, -4825.12353515625]]], [[[-125.71509, 46.26232, -3889.89306640625], [-125.71933, 46.25687, -4731.4072265625], [-125.71165, 46.25343, -3887.051025390625], [-125.71509, 46.26232, -3889.89306640625]]], [[[-125.71509, 46.26232, -3889.89306640625], [-125.72314, 46.26563, -4719.54736328125], [-125.71933, 46.25687, -4731.4072265625], [-125.71509, 46.26232, -3889.89306640625]]], [[[-125.71942, 46.27095, -3874.785400390625], [-125.72314, 46.26563, -4719.54736328125], [-125.71509, 46.26232, -3889.89306640625], [-125.71942, 46.27095, -3874.785400390625]]], [[[-125.7044, 46.23568, -3751.005859375], [-125.70089, 46.22666, -3832.78857421875], [-125.69442, 46.23194, -3038.990478515625], [-125.7044, 46.23568, -3751.005859375]]], [[[-125.71942, 46.27095, -3874.785400390625], [-125.72778, 46.27406, -4701.4853515625], [-125.72314, 46.26563, -4719.54736328125], [-125.71942, 46.27095, -3874.785400390625]]], [[[-125.75764, 46.32045, -4496.6279296875], [-125.76433, 46.33102, -4579.10107421875], [-125.76671, 46.32205, -5377.91259765625], [-125.75764, 46.32045, -4496.6279296875]]], [[[-125.72417, 46.27932, -3856.0380859375], [-125.72778, 46.27406, -4701.4853515625], [-125.71942, 46.27095, -3874.785400390625], [-125.72417, 46.27932, -3856.0380859375]]], [[[-125.71942, 46.27095, -3874.785400390625], [-125.71509, 46.26232, -3889.89306640625], [-125.70885, 46.26792, -3083.265380859375], [-125.71942, 46.27095, -3874.785400390625]]], [[[-125.72417, 46.27932, -3856.0380859375], [-125.73257, 46.28226, -4692.1240234375], [-125.72778, 46.27406, -4701.4853515625], [-125.72417, 46.27932, -3856.0380859375]]], [[[-125.72861, 46.28746, -3853.985595703125], [-125.73257, 46.28226, -4692.1240234375], [-125.72417, 46.27932, -3856.0380859375], [-125.72861, 46.28746, -3853.985595703125]]], [[[-125.74756, 46.31454, -3795.97119140625], [-125.73642, 46.30978, -3051.0439453125], [-125.74084, 46.31798, -3016.285400390625], [-125.74756, 46.31454, -3795.97119140625]]], [[[-125.72861, 46.28746, -3853.985595703125], [-125.73667, 46.2906, -4674.169921875], [-125.73257, 46.28226, -4692.1240234375], [-125.72861, 46.28746, -3853.985595703125]]], [[[-125.73322, 46.29562, -3779.00927734375], [-125.73667, 46.2906, -4674.169921875], [-125.72861, 46.28746, -3853.985595703125], [-125.73322, 46.29562, -3779.00927734375]]], [[[-125.73322, 46.29562, -3779.00927734375], [-125.74264, 46.29868, -4589.92626953125], [-125.73667, 46.2906, -4674.169921875], [-125.73322, 46.29562, -3779.00927734375]]], [[[-125.73322, 46.29562, -3779.00927734375], [-125.74133, 46.30448, -3812.150634765625], [-125.74264, 46.29868, -4589.92626953125], [-125.73322, 46.29562, -3779.00927734375]]], [[[-125.74133, 46.30448, -3812.150634765625], [-125.73322, 46.29562, -3779.00927734375], [-125.72974, 46.30138, -3058.5009765625], [-125.74133, 46.30448, -3812.150634765625]]], [[[-125.74133, 46.30448, -3812.150634765625], [-125.72974, 46.30138, -3058.5009765625], [-125.73642, 46.30978, -3051.0439453125], [-125.74133, 46.30448, -3812.150634765625]]], [[[-125.73322, 46.29562, -3779.00927734375], [-125.72283, 46.2932, -3062.19482421875], [-125.72974, 46.30138, -3058.5009765625], [-125.73322, 46.29562, -3779.00927734375]]], [[[-125.74756, 46.31454, -3795.97119140625], [-125.74133, 46.30448, -3812.150634765625], [-125.73642, 46.30978, -3051.0439453125], [-125.74756, 46.31454, -3795.97119140625]]], [[[-125.69893, 46.24147, -3015.537841796875], [-125.69161, 46.24744, -2392.75], [-125.70189, 46.25051, -3074.391357421875], [-125.69893, 46.24147, -3015.537841796875]]], [[[-125.74133, 46.30448, -3812.150634765625], [-125.74756, 46.31454, -3795.97119140625], [-125.75078, 46.30839, -4612.48291015625], [-125.74133, 46.30448, -3812.150634765625]]], [[[-125.69161, 46.24744, -2392.75], [-125.69421, 46.25656, -2392.75], [-125.70189, 46.25051, -3074.391357421875], [-125.69161, 46.24744, -2392.75]]], [[[-125.74133, 46.30448, -3812.150634765625], [-125.75078, 46.30839, -4612.48291015625], [-125.74264, 46.29868, -4589.92626953125], [-125.74133, 46.30448, -3812.150634765625]]], [[[-125.73667, 46.2906, -4674.169921875], [-125.74264, 46.29868, -4589.92626953125], [-125.74522, 46.29275, -5418.125], [-125.73667, 46.2906, -4674.169921875]]], [[[-125.73667, 46.2906, -4674.169921875], [-125.74522, 46.29275, -5418.125], [-125.74058, 46.28493, -5425.34033203125], [-125.73667, 46.2906, -4674.169921875]]], [[[-125.73257, 46.28226, -4692.1240234375], [-125.74058, 46.28493, -5425.34033203125], [-125.736, 46.27667, -5433.3173828125], [-125.73257, 46.28226, -4692.1240234375]]], [[[-125.72778, 46.27406, -4701.4853515625], [-125.73257, 46.28226, -4692.1240234375], [-125.736, 46.27667, -5433.3173828125], [-125.72778, 46.27406, -4701.4853515625]]], [[[-125.72778, 46.27406, -4701.4853515625], [-125.736, 46.27667, -5433.3173828125], [-125.73131, 46.26844, -5443.4384765625], [-125.72778, 46.27406, -4701.4853515625]]], [[[-125.72314, 46.26563, -4719.54736328125], [-125.72778, 46.27406, -4701.4853515625], [-125.73131, 46.26844, -5443.4384765625], [-125.72314, 46.26563, -4719.54736328125]]], [[[-125.72314, 46.26563, -4719.54736328125], [-125.73131, 46.26844, -5443.4384765625], [-125.72719, 46.26007, -5450.611328125], [-125.72314, 46.26563, -4719.54736328125]]], [[[-125.71933, 46.25687, -4731.4072265625], [-125.72314, 46.26563, -4719.54736328125], [-125.72719, 46.26007, -5450.611328125], [-125.71933, 46.25687, -4731.4072265625]]], [[[-125.71933, 46.25687, -4731.4072265625], [-125.72719, 46.26007, -5450.611328125], [-125.72405, 46.2515, -5454.72998046875], [-125.71933, 46.25687, -4731.4072265625]]], [[[-125.71642, 46.248, -4716.67626953125], [-125.71933, 46.25687, -4731.4072265625], [-125.72405, 46.2515, -5454.72998046875], [-125.71642, 46.248, -4716.67626953125]]], [[[-125.71642, 46.248, -4716.67626953125], [-125.71165, 46.25343, -3887.051025390625], [-125.71933, 46.25687, -4731.4072265625], [-125.71642, 46.248, -4716.67626953125]]], [[[-125.67877, 46.22116, -2392.75], [-125.68983, 46.22176, -3124.08984375], [-125.68153, 46.21214, -3071.470947265625], [-125.67877, 46.22116, -2392.75]]], [[[-125.71642, 46.248, -4716.67626953125], [-125.70884, 46.2445, -3840.90185546875], [-125.71165, 46.25343, -3887.051025390625], [-125.71642, 46.248, -4716.67626953125]]], [[[-125.70884, 46.2445, -3840.90185546875], [-125.71642, 46.248, -4716.67626953125], [-125.71365, 46.23936, -4642.48046875], [-125.70884, 46.2445, -3840.90185546875]]], [[[-125.7044, 46.23568, -3751.005859375], [-125.70884, 46.2445, -3840.90185546875], [-125.71365, 46.23936, -4642.48046875], [-125.7044, 46.23568, -3751.005859375]]], [[[-125.7044, 46.23568, -3751.005859375], [-125.69893, 46.24147, -3015.537841796875], [-125.70884, 46.2445, -3840.90185546875], [-125.7044, 46.23568, -3751.005859375]]], [[[-125.7044, 46.23568, -3751.005859375], [-125.69442, 46.23194, -3038.990478515625], [-125.69893, 46.24147, -3015.537841796875], [-125.7044, 46.23568, -3751.005859375]]], [[[-125.70089, 46.22666, -3832.78857421875], [-125.7044, 46.23568, -3751.005859375], [-125.70964, 46.23134, -4655.73291015625], [-125.70089, 46.22666, -3832.78857421875]]], [[[-125.70637, 46.22333, -4724.4873046875], [-125.70089, 46.22666, -3832.78857421875], [-125.70964, 46.23134, -4655.73291015625], [-125.70637, 46.22333, -4724.4873046875]]], [[[-125.71509, 46.26232, -3889.89306640625], [-125.7049, 46.25931, -3086.045654296875], [-125.70885, 46.26792, -3083.265380859375], [-125.71509, 46.26232, -3889.89306640625]]], [[[-125.69709, 46.21846, -4033.610595703125], [-125.70089, 46.22666, -3832.78857421875], [-125.70637, 46.22333, -4724.4873046875], [-125.69709, 46.21846, -4033.610595703125]]], [[[-125.70089, 46.22666, -3832.78857421875], [-125.69709, 46.21846, -4033.610595703125], [-125.68983, 46.22176, -3124.08984375], [-125.70089, 46.22666, -3832.78857421875]]], [[[-125.70089, 46.22666, -3832.78857421875], [-125.68983, 46.22176, -3124.08984375], [-125.69442, 46.23194, -3038.990478515625], [-125.70089, 46.22666, -3832.78857421875]]], [[[-125.68983, 46.22176, -3124.08984375], [-125.68408, 46.22966, -2392.75], [-125.69442, 46.23194, -3038.990478515625], [-125.68983, 46.22176, -3124.08984375]]], [[[-125.67225, 46.21304, -2392.75], [-125.67877, 46.22116, -2392.75], [-125.68153, 46.21214, -3071.470947265625], [-125.67225, 46.21304, -2392.75]]], [[[-125.68153, 46.21214, -3071.470947265625], [-125.68983, 46.22176, -3124.08984375], [-125.68968, 46.21134, -3833.2255859375], [-125.68153, 46.21214, -3071.470947265625]]], [[[-125.69709, 46.21846, -4033.610595703125], [-125.68968, 46.21134, -3833.2255859375], [-125.68983, 46.22176, -3124.08984375], [-125.69709, 46.21846, -4033.610595703125]]], [[[-125.69709, 46.21846, -4033.610595703125], [-125.69614, 46.21071, -4687.49609375], [-125.68968, 46.21134, -3833.2255859375], [-125.69709, 46.21846, -4033.610595703125]]], [[[-125.69709, 46.21846, -4033.610595703125], [-125.70188, 46.21619, -4825.12353515625], [-125.69614, 46.21071, -4687.49609375], [-125.69709, 46.21846, -4033.610595703125]]], [[[-125.70188, 46.21619, -4825.12353515625], [-125.69709, 46.21846, -4033.610595703125], [-125.70637, 46.22333, -4724.4873046875], [-125.70188, 46.21619, -4825.12353515625]]], [[[-125.70637, 46.22333, -4724.4873046875], [-125.7093, 46.21782, -5491.0009765625], [-125.70188, 46.21619, -4825.12353515625], [-125.70637, 46.22333, -4724.4873046875]]], [[[-125.70637, 46.22333, -4724.4873046875], [-125.71438, 46.2259, -5474.82958984375], [-125.7093, 46.21782, -5491.0009765625], [-125.70637, 46.22333, -4724.4873046875]]], [[[-125.70637, 46.22333, -4724.4873046875], [-125.70964, 46.23134, -4655.73291015625], [-125.71438, 46.2259, -5474.82958984375], [-125.70637, 46.22333, -4724.4873046875]]], [[[-125.70964, 46.23134, -4655.73291015625], [-125.71841, 46.2343, -5463.611328125], [-125.71438, 46.2259, -5474.82958984375], [-125.70964, 46.23134, -4655.73291015625]]], [[[-125.70964, 46.23134, -4655.73291015625], [-125.7044, 46.23568, -3751.005859375], [-125.71365, 46.23936, -4642.48046875], [-125.70964, 46.23134, -4655.73291015625]]], [[[-125.71841, 46.2343, -5463.611328125], [-125.71365, 46.23936, -4642.48046875], [-125.72174, 46.2428, -5457.19091796875], [-125.71841, 46.2343, -5463.611328125]]], [[[-125.71642, 46.248, -4716.67626953125], [-125.72174, 46.2428, -5457.19091796875], [-125.71365, 46.23936, -4642.48046875], [-125.71642, 46.248, -4716.67626953125]]], [[[-125.71642, 46.248, -4716.67626953125], [-125.72405, 46.2515, -5454.72998046875], [-125.72174, 46.2428, -5457.19091796875], [-125.71642, 46.248, -4716.67626953125]]], [[[-125.70188, 46.21619, -4825.12353515625], [-125.70323, 46.21004, -5511.33984375], [-125.69614, 46.21071, -4687.49609375], [-125.70188, 46.21619, -4825.12353515625]]], [[[-125.74403, 46.32574, -2863.854248046875], [-125.73656, 46.32455, -2392.75], [-125.74121, 46.33327, -2392.75], [-125.74403, 46.32574, -2863.854248046875]]], [[[-125.69442, 46.23194, -3038.990478515625], [-125.68408, 46.22966, -2392.75], [-125.68844, 46.23845, -2392.75], [-125.69442, 46.23194, -3038.990478515625]]], [[[-125.69893, 46.24147, -3015.537841796875], [-125.68844, 46.23845, -2392.75], [-125.69161, 46.24744, -2392.75], [-125.69893, 46.24147, -3015.537841796875]]], [[[-125.70884, 46.2445, -3840.90185546875], [-125.69893, 46.24147, -3015.537841796875], [-125.70189, 46.25051, -3074.391357421875], [-125.70884, 46.2445, -3840.90185546875]]], [[[-125.70884, 46.2445, -3840.90185546875], [-125.70189, 46.25051, -3074.391357421875], [-125.71165, 46.25343, -3887.051025390625], [-125.70884, 46.2445, -3840.90185546875]]], [[[-125.72417, 46.27932, -3856.0380859375], [-125.71942, 46.27095, -3874.785400390625], [-125.71359, 46.27642, -3071.437744140625], [-125.72417, 46.27932, -3856.0380859375]]], [[[-125.75078, 46.30839, -4612.48291015625], [-125.75764, 46.32045, -4496.6279296875], [-125.76098, 46.31414, -5388.79248046875], [-125.75078, 46.30839, -4612.48291015625]]], [[[-125.74756, 46.31454, -3795.97119140625], [-125.75764, 46.32045, -4496.6279296875], [-125.75078, 46.30839, -4612.48291015625], [-125.74756, 46.31454, -3795.97119140625]]], [[[-125.71942, 46.27095, -3874.785400390625], [-125.70885, 46.26792, -3083.265380859375], [-125.71359, 46.27642, -3071.437744140625], [-125.71942, 46.27095, -3874.785400390625]]], [[[-125.74756, 46.31454, -3795.97119140625], [-125.75135, 46.32373, -3549.460205078125], [-125.75764, 46.32045, -4496.6279296875], [-125.74756, 46.31454, -3795.97119140625]]], [[[-125.75135, 46.32373, -3549.460205078125], [-125.74756, 46.31454, -3795.97119140625], [-125.74084, 46.31798, -3016.285400390625], [-125.75135, 46.32373, -3549.460205078125]]], [[[-125.75764, 46.32045, -4496.6279296875], [-125.76671, 46.32205, -5377.91259765625], [-125.76098, 46.31414, -5388.79248046875], [-125.75764, 46.32045, -4496.6279296875]]], [[[-125.73322, 46.29562, -3779.00927734375], [-125.72861, 46.28746, -3853.985595703125], [-125.72283, 46.2932, -3062.19482421875], [-125.73322, 46.29562, -3779.00927734375]]], [[[-125.72861, 46.28746, -3853.985595703125], [-125.71838, 46.28495, -3057.1875], [-125.72283, 46.2932, -3062.19482421875], [-125.72861, 46.28746, -3853.985595703125]]], [[[-125.72861, 46.28746, -3853.985595703125], [-125.72417, 46.27932, -3856.0380859375], [-125.71838, 46.28495, -3057.1875], [-125.72861, 46.28746, -3853.985595703125]]], [[[-125.72417, 46.27932, -3856.0380859375], [-125.71359, 46.27642, -3071.437744140625], [-125.71838, 46.28495, -3057.1875], [-125.72417, 46.27932, -3856.0380859375]]], [[[-125.74403, 46.32574, -2863.854248046875], [-125.74121, 46.33327, -2392.75], [-125.75012, 46.33241, -3042.812744140625], [-125.74403, 46.32574, -2863.854248046875]]], [[[-125.76433, 46.33102, -4579.10107421875], [-125.77105, 46.33037, -5372.32470703125], [-125.76671, 46.32205, -5377.91259765625], [-125.76433, 46.33102, -4579.10107421875]]], [[[-125.75078, 46.30839, -4612.48291015625], [-125.75484, 46.30401, -5398.2646484375], [-125.74264, 46.29868, -4589.92626953125], [-125.75078, 46.30839, -4612.48291015625]]], [[[-125.74264, 46.29868, -4589.92626953125], [-125.75484, 46.30401, -5398.2646484375], [-125.74522, 46.29275, -5418.125], [-125.74264, 46.29868, -4589.92626953125]]], [[[-125.75078, 46.30839, -4612.48291015625], [-125.76098, 46.31414, -5388.79248046875], [-125.75484, 46.30401, -5398.2646484375], [-125.75078, 46.30839, -4612.48291015625]]]]}}]}