{"type": "FeatureCollection", "features": [{"type": "Feature", "properties": {"name": "AW_WASH_38", "CFM_ID": 302, "region": "Offshore_WAOR", "primary_state/province": "WA", "secondary_state/province": null, "avg_dip": 33, "dip_dir": "SW", "rake": 90, "slip_sense": "Reverse", "fault_level": 2, "NSHM23_sliprates": null, "QFFDAgeCatBin": null, "QFFDAgeBin": null, "upper_depth": -2.1, "upper_depth_constraint": "seismic imaging", "lower_depth": -5.6, "lower_depth_constraint": "megathrust", "3D_model_constraints": "trace and 1 MCS line", "reference": "Ledeczi et al. (2024); Carbotte et al. (2023)", "nshm23_id": null, "lineage": null, "usgs_qffd_#": null, "comments": "fault depth interpretation from Ledeczi et al. (2024); Carbotte et al. (2023) used to aid in model building", "id": "302"}, "geometry": {"type": "MultiPolygon", "coordinates": [[[[-125.70878, 46.35894, -2727.54296875], [-125.70639, 46.36608, -2145.8798828125], [-125.71705, 46.36639, -2717.0576171875], [-125.70878, 46.35894, -2727.54296875]]], [[[-125.65868, 46.28537, -2732.60400390625], [-125.64958, 46.28934, -2145.8798828125], [-125.6597, 46.29429, -2547.5703125], [-125.65868, 46.28537, -2732.60400390625]]], [[[-125.70016, 46.30355, -4214.03125], [-125.7034, 46.31184, -4191.2998046875], [-125.71177, 46.30506, -4673.7763671875], [-125.70016, 46.30355, -4214.03125]]], [[[-125.69127, 46.24487, -5327.490234375], [-125.70334, 46.24961, -5535.5947265625], [-125.69765, 46.24143, -5553.45703125], [-125.69127, 46.24487, -5327.490234375]]], [[[-125.77022, 46.37984, -4402.576171875], [-125.7748, 46.3724, -4918.74072265625], [-125.76195, 46.37273, -4397.04931640625], [-125.77022, 46.37984, -4402.576171875]]], [[[-125.70334, 46.24961, -5535.5947265625], [-125.68881, 46.25272, -4966.57861328125], [-125.69716, 46.25676, -5176.80908203125], [-125.70334, 46.24961, -5535.5947265625]]], [[[-125.76795, 46.4179, -2656.947021484375], [-125.76456, 46.42501, -2145.8798828125], [-125.77522, 46.42506, -2681.013916015625], [-125.76795, 46.4179, -2656.947021484375]]], [[[-125.68917, 46.30243, -3771.5185546875], [-125.69139, 46.31101, -3683.550048828125], [-125.70016, 46.30355, -4214.03125], [-125.68917, 46.30243, -3771.5185546875]]], [[[-125.77263, 46.39466, -3901.786865234375], [-125.78003, 46.40111, -3969.813232421875], [-125.7852, 46.39406, -4427.36328125], [-125.77263, 46.39466, -3901.786865234375]]], [[[-125.7079, 46.29691, -4687.27685546875], [-125.7193, 46.29874, -5108.03857421875], [-125.71487, 46.29046, -5120.81298828125], [-125.7079, 46.29691, -4687.27685546875]]], [[[-125.6649, 46.26238, -3697.05029296875], [-125.65471, 46.25748, -3379.11767578125], [-125.65959, 46.26825, -3290.75634765625], [-125.6649, 46.26238, -3697.05029296875]]], [[[-125.69528, 46.31927, -3713.04345703125], [-125.68715, 46.32583, -3184.57421875], [-125.69861, 46.32637, -3724.392578125], [-125.69528, 46.31927, -3713.04345703125]]], [[[-125.67517, 46.26257, -4127.91162109375], [-125.6823, 46.26948, -4262.66064453125], [-125.68834, 46.26218, -4690.7236328125], [-125.67517, 46.26257, -4127.91162109375]]], [[[-125.67918, 46.27783, -3949.209716796875], [-125.68829, 46.27748, -4344.76708984375], [-125.6823, 46.26948, -4262.66064453125], [-125.67918, 46.27783, -3949.209716796875]]], [[[-125.7852, 46.39406, -4427.36328125], [-125.79674, 46.39428, -4886.767578125], [-125.79014, 46.38691, -4890.9462890625], [-125.7852, 46.39406, -4427.36328125]]], [[[-125.6653, 46.27926, -3304.010986328125], [-125.65509, 46.27525, -2813.803955078125], [-125.65868, 46.28537, -2732.60400390625], [-125.6653, 46.27926, -3304.010986328125]]], [[[-125.69012, 46.28581, -4221.126953125], [-125.69585, 46.29493, -4229.21484375], [-125.70304, 46.28843, -4691.69482421875], [-125.69012, 46.28581, -4221.126953125]]], [[[-125.77687, 46.41757, -3153.1474609375], [-125.78643, 46.41542, -3692.48046875], [-125.77238, 46.41091, -3240.669189453125], [-125.77687, 46.41757, -3153.1474609375]]], [[[-125.6802, 46.30881, -3194.851318359375], [-125.66978, 46.3058, -2683.716064453125], [-125.67365, 46.31528, -2663.907470703125], [-125.6802, 46.30881, -3194.851318359375]]], [[[-125.68277, 46.29293, -3726.623779296875], [-125.66994, 46.29773, -2963.740234375], [-125.67935, 46.30053, -3354.1650390625], [-125.68277, 46.29293, -3726.623779296875]]], [[[-125.65471, 46.25748, -3379.11767578125], [-125.66597, 46.25483, -3958.105224609375], [-125.65756, 46.2482, -3863.919921875], [-125.65471, 46.25748, -3379.11767578125]]], [[[-125.66932, 46.28965, -3189.62841796875], [-125.65868, 46.28537, -2732.60400390625], [-125.6597, 46.29429, -2547.5703125], [-125.66932, 46.28965, -3189.62841796875]]], [[[-125.73186, 46.3577, -3893.826416015625], [-125.72775, 46.36578, -3314.86962890625], [-125.74008, 46.36534, -3872.35400390625], [-125.73186, 46.3577, -3893.826416015625]]], [[[-125.72446, 46.3728, -2718.091552734375], [-125.72264, 46.38006, -2145.8798828125], [-125.73321, 46.3803, -2722.094970703125], [-125.72446, 46.3728, -2718.091552734375]]], [[[-125.7902, 46.40789, -4134.97021484375], [-125.79965, 46.41324, -4316.01025390625], [-125.80253, 46.40328, -4806.9521484375], [-125.7902, 46.40789, -4134.97021484375]]], [[[-125.66994, 46.29773, -2963.740234375], [-125.65803, 46.30443, -2145.8798828125], [-125.66978, 46.3058, -2683.716064453125], [-125.66994, 46.29773, -2963.740234375]]], [[[-125.68689, 46.23668, -5327.490234375], [-125.67548, 46.23781, -4851.0400390625], [-125.67986, 46.24601, -4851.0400390625], [-125.68689, 46.23668, -5327.490234375]]], [[[-125.69139, 46.31101, -3683.550048828125], [-125.68917, 46.30243, -3771.5185546875], [-125.6802, 46.30881, -3194.851318359375], [-125.69139, 46.31101, -3683.550048828125]]], [[[-125.69139, 46.31101, -3683.550048828125], [-125.6802, 46.30881, -3194.851318359375], [-125.68388, 46.318, -3187.140625], [-125.69139, 46.31101, -3683.550048828125]]], [[[-125.75547, 46.40286, -2715.66455078125], [-125.75054, 46.40988, -2145.8798828125], [-125.76155, 46.41036, -2686.96142578125], [-125.75547, 46.40286, -2715.66455078125]]], [[[-125.75399, 46.36539, -4417.81201171875], [-125.76681, 46.36512, -4935.99853515625], [-125.75894, 46.35775, -4959.70068359375], [-125.75399, 46.36539, -4417.81201171875]]], [[[-125.6778, 46.25442, -4455.83642578125], [-125.67986, 46.24601, -4851.0400390625], [-125.66882, 46.2471, -4356.6201171875], [-125.6778, 46.25442, -4455.83642578125]]], [[[-125.67159, 46.22926, -4851.0400390625], [-125.67685, 46.21623, -5327.490234375], [-125.66545, 46.21737, -4851.0400390625], [-125.67159, 46.22926, -4851.0400390625]]], [[[-125.69528, 46.31927, -3713.04345703125], [-125.68388, 46.318, -3187.140625], [-125.68715, 46.32583, -3184.57421875], [-125.69528, 46.31927, -3713.04345703125]]], [[[-125.68483, 46.33852, -2632.9443359375], [-125.6734, 46.33841, -2145.8798828125], [-125.68097, 46.34572, -2145.8798828125], [-125.68483, 46.33852, -2632.9443359375]]], [[[-125.81757, 46.4195, -4806.873046875], [-125.81492, 46.42807, -4356.6201171875], [-125.826, 46.42696, -4851.0400390625], [-125.81757, 46.4195, -4806.873046875]]], [[[-125.70765, 46.32037, -4222.4970703125], [-125.71943, 46.32243, -4689.79638671875], [-125.71544, 46.31319, -4684.02783203125], [-125.70765, 46.32037, -4222.4970703125]]], [[[-125.76681, 46.36512, -4935.99853515625], [-125.7748, 46.3724, -4918.74072265625], [-125.77886, 46.36478, -5380.6123046875], [-125.76681, 46.36512, -4935.99853515625]]], [[[-125.68277, 46.29293, -3726.623779296875], [-125.66932, 46.28965, -3189.62841796875], [-125.66994, 46.29773, -2963.740234375], [-125.68277, 46.29293, -3726.623779296875]]], [[[-125.67517, 46.26257, -4127.91162109375], [-125.66597, 46.25483, -3958.105224609375], [-125.6649, 46.26238, -3697.05029296875], [-125.67517, 46.26257, -4127.91162109375]]], [[[-125.67918, 46.27783, -3949.209716796875], [-125.6704, 46.27155, -3699.377197265625], [-125.6653, 46.27926, -3304.010986328125], [-125.67918, 46.27783, -3949.209716796875]]], [[[-125.74082, 46.38736, -2705.786865234375], [-125.73768, 46.39445, -2145.8798828125], [-125.74842, 46.39495, -2699.952880859375], [-125.74082, 46.38736, -2705.786865234375]]], [[[-125.65471, 46.25748, -3379.11767578125], [-125.64662, 46.24929, -3345.27978515625], [-125.64398, 46.25852, -2745.672607421875], [-125.65471, 46.25748, -3379.11767578125]]], [[[-125.69585, 46.29493, -4229.21484375], [-125.70016, 46.30355, -4214.03125], [-125.7079, 46.29691, -4687.27685546875], [-125.69585, 46.29493, -4229.21484375]]], [[[-125.69861, 46.32637, -3724.392578125], [-125.68715, 46.32583, -3184.57421875], [-125.69102, 46.33241, -3197.015869140625], [-125.69861, 46.32637, -3724.392578125]]], [[[-125.78671, 46.3721, -5364.29296875], [-125.78277, 46.37965, -4905.79443359375], [-125.79447, 46.37946, -5348.07080078125], [-125.78671, 46.3721, -5364.29296875]]], [[[-125.64937, 46.26634, -2776.5732421875], [-125.64576, 46.27356, -2145.8798828125], [-125.65509, 46.27525, -2813.803955078125], [-125.64937, 46.26634, -2776.5732421875]]], [[[-125.68299, 46.22813, -5327.490234375], [-125.69357, 46.23277, -5564.2578125], [-125.68982, 46.22403, -5575.06201171875], [-125.68299, 46.22813, -5327.490234375]]], [[[-125.68299, 46.22813, -5327.490234375], [-125.67685, 46.21623, -5327.490234375], [-125.67159, 46.22926, -4851.0400390625], [-125.68299, 46.22813, -5327.490234375]]], [[[-125.73077, 46.32484, -5099.45458984375], [-125.74256, 46.32688, -5460.13720703125], [-125.73829, 46.31827, -5467.0478515625], [-125.73077, 46.32484, -5099.45458984375]]], [[[-125.64937, 46.26634, -2776.5732421875], [-125.63845, 46.26669, -2145.8798828125], [-125.64576, 46.27356, -2145.8798828125], [-125.64937, 46.26634, -2776.5732421875]]], [[[-125.68689, 46.23668, -5327.490234375], [-125.69765, 46.24143, -5553.45703125], [-125.69357, 46.23277, -5564.2578125], [-125.68689, 46.23668, -5327.490234375]]], [[[-125.76545, 46.38739, -3887.442138671875], [-125.75655, 46.38019, -3847.319580078125], [-125.75243, 46.38784, -3303.912353515625], [-125.76545, 46.38739, -3887.442138671875]]], [[[-125.75141, 46.3502, -4996.10400390625], [-125.76336, 46.35006, -5415.130859375], [-125.75582, 46.34259, -5432.0009765625], [-125.75141, 46.3502, -4996.10400390625]]], [[[-125.65959, 46.26825, -3290.75634765625], [-125.65471, 46.25748, -3379.11767578125], [-125.64937, 46.26634, -2776.5732421875], [-125.65959, 46.26825, -3290.75634765625]]], [[[-125.64398, 46.25852, -2745.672607421875], [-125.63653, 46.25033, -2740.98291015625], [-125.63356, 46.25836, -2145.8798828125], [-125.64398, 46.25852, -2745.672607421875]]], [[[-125.80659, 46.42075, -4311.888671875], [-125.81492, 46.42807, -4356.6201171875], [-125.81757, 46.4195, -4806.873046875], [-125.80659, 46.42075, -4311.888671875]]], [[[-125.78643, 46.41542, -3692.48046875], [-125.77997, 46.40778, -3714.073486328125], [-125.77238, 46.41091, -3240.669189453125], [-125.78643, 46.41542, -3692.48046875]]], [[[-125.75894, 46.35775, -4959.70068359375], [-125.77107, 46.35744, -5397.72705078125], [-125.76336, 46.35006, -5415.130859375], [-125.75894, 46.35775, -4959.70068359375]]], [[[-125.67517, 46.26257, -4127.91162109375], [-125.6704, 46.27155, -3699.377197265625], [-125.6823, 46.26948, -4262.66064453125], [-125.67517, 46.26257, -4127.91162109375]]], [[[-125.6653, 46.27926, -3304.010986328125], [-125.65959, 46.26825, -3290.75634765625], [-125.65509, 46.27525, -2813.803955078125], [-125.6653, 46.27926, -3304.010986328125]]], [[[-125.68689, 46.23668, -5327.490234375], [-125.67986, 46.24601, -4851.0400390625], [-125.69127, 46.24487, -5327.490234375], [-125.68689, 46.23668, -5327.490234375]]], [[[-125.6823, 46.26948, -4262.66064453125], [-125.69415, 46.27098, -4729.18896484375], [-125.68834, 46.26218, -4690.7236328125], [-125.6823, 46.26948, -4262.66064453125]]], [[[-125.69415, 46.27098, -4729.18896484375], [-125.6823, 46.26948, -4262.66064453125], [-125.68829, 46.27748, -4344.76708984375], [-125.69415, 46.27098, -4729.18896484375]]], [[[-125.73077, 46.32484, -5099.45458984375], [-125.72486, 46.33201, -4679.62548828125], [-125.73655, 46.33409, -5074.88818359375], [-125.73077, 46.32484, -5099.45458984375]]], [[[-125.73768, 46.39445, -2145.8798828125], [-125.74457, 46.4019, -2145.8798828125], [-125.74842, 46.39495, -2699.952880859375], [-125.73768, 46.39445, -2145.8798828125]]], [[[-125.70765, 46.32037, -4222.4970703125], [-125.71248, 46.32962, -4230.09033203125], [-125.71943, 46.32243, -4689.79638671875], [-125.70765, 46.32037, -4222.4970703125]]], [[[-125.80659, 46.42075, -4311.888671875], [-125.80363, 46.42919, -3863.919921875], [-125.81492, 46.42807, -4356.6201171875], [-125.80659, 46.42075, -4311.888671875]]], [[[-125.79674, 46.39428, -4886.767578125], [-125.80253, 46.40328, -4806.9521484375], [-125.80847, 46.39489, -5320.41845703125], [-125.79674, 46.39428, -4886.767578125]]], [[[-125.63216, 46.24213, -2740.98291015625], [-125.62622, 46.25126, -2145.8798828125], [-125.63653, 46.25033, -2740.98291015625], [-125.63216, 46.24213, -2740.98291015625]]], [[[-125.79014, 46.38691, -4890.9462890625], [-125.80184, 46.38701, -5333.0537109375], [-125.79447, 46.37946, -5348.07080078125], [-125.79014, 46.38691, -4890.9462890625]]], [[[-125.72671, 46.31571, -5105.4228515625], [-125.73077, 46.32484, -5099.45458984375], [-125.73829, 46.31827, -5467.0478515625], [-125.72671, 46.31571, -5105.4228515625]]], [[[-125.63836, 46.23255, -3345.27978515625], [-125.64929, 46.23146, -3863.919921875], [-125.64316, 46.21956, -3863.919921875], [-125.63836, 46.23255, -3345.27978515625]]], [[[-125.67918, 46.27783, -3949.209716796875], [-125.69012, 46.28581, -4221.126953125], [-125.68829, 46.27748, -4344.76708984375], [-125.67918, 46.27783, -3949.209716796875]]], [[[-125.79965, 46.41324, -4316.01025390625], [-125.7953, 46.42215, -3803.771240234375], [-125.80659, 46.42075, -4311.888671875], [-125.79965, 46.41324, -4316.01025390625]]], [[[-125.77022, 46.37984, -4402.576171875], [-125.78277, 46.37965, -4905.79443359375], [-125.7748, 46.3724, -4918.74072265625], [-125.77022, 46.37984, -4402.576171875]]], [[[-125.68019, 46.33199, -2628.890380859375], [-125.6695, 46.32996, -2145.8798828125], [-125.6734, 46.33841, -2145.8798828125], [-125.68019, 46.33199, -2628.890380859375]]], [[[-125.63356, 46.25836, -2145.8798828125], [-125.63845, 46.26669, -2145.8798828125], [-125.64398, 46.25852, -2745.672607421875], [-125.63356, 46.25836, -2145.8798828125]]], [[[-125.74008, 46.36534, -3872.35400390625], [-125.72775, 46.36578, -3314.86962890625], [-125.73563, 46.37293, -3298.0615234375], [-125.74008, 46.36534, -3872.35400390625]]], [[[-125.7748, 46.3724, -4918.74072265625], [-125.78671, 46.3721, -5364.29296875], [-125.77886, 46.36478, -5380.6123046875], [-125.7748, 46.3724, -4918.74072265625]]], [[[-125.68019, 46.33199, -2628.890380859375], [-125.6734, 46.33841, -2145.8798828125], [-125.68483, 46.33852, -2632.9443359375], [-125.68019, 46.33199, -2628.890380859375]]], [[[-125.71177, 46.30506, -4673.7763671875], [-125.71544, 46.31319, -4684.02783203125], [-125.7232, 46.30702, -5105.30126953125], [-125.71177, 46.30506, -4673.7763671875]]], [[[-125.65471, 46.25748, -3379.11767578125], [-125.65756, 46.2482, -3863.919921875], [-125.64662, 46.24929, -3345.27978515625], [-125.65471, 46.25748, -3379.11767578125]]], [[[-125.64929, 46.23146, -3863.919921875], [-125.63836, 46.23255, -3345.27978515625], [-125.64225, 46.2411, -3345.27978515625], [-125.64929, 46.23146, -3863.919921875]]], [[[-125.68277, 46.29293, -3726.623779296875], [-125.69585, 46.29493, -4229.21484375], [-125.69012, 46.28581, -4221.126953125], [-125.68277, 46.29293, -3726.623779296875]]], [[[-125.68277, 46.29293, -3726.623779296875], [-125.67935, 46.30053, -3354.1650390625], [-125.68917, 46.30243, -3771.5185546875], [-125.68277, 46.29293, -3726.623779296875]]], [[[-125.62827, 46.23358, -2740.98291015625], [-125.62185, 46.24306, -2145.8798828125], [-125.63216, 46.24213, -2740.98291015625], [-125.62827, 46.23358, -2740.98291015625]]], [[[-125.69716, 46.25676, -5176.80908203125], [-125.70141, 46.26465, -5151.91064453125], [-125.70865, 46.25793, -5521.14111328125], [-125.69716, 46.25676, -5176.80908203125]]], [[[-125.7953, 46.42215, -3803.771240234375], [-125.80363, 46.42919, -3863.919921875], [-125.80659, 46.42075, -4311.888671875], [-125.7953, 46.42215, -3803.771240234375]]], [[[-125.67159, 46.22926, -4851.0400390625], [-125.66055, 46.23036, -4356.6201171875], [-125.66445, 46.2389, -4356.6201171875], [-125.67159, 46.22926, -4851.0400390625]]], [[[-125.76195, 46.37273, -4397.04931640625], [-125.7748, 46.3724, -4918.74072265625], [-125.76681, 46.36512, -4935.99853515625], [-125.76195, 46.37273, -4397.04931640625]]], [[[-125.68097, 46.34572, -2145.8798828125], [-125.68921, 46.35263, -2145.8798828125], [-125.69206, 46.34517, -2652.60693359375], [-125.68097, 46.34572, -2145.8798828125]]], [[[-125.63653, 46.25033, -2740.98291015625], [-125.64398, 46.25852, -2745.672607421875], [-125.64662, 46.24929, -3345.27978515625], [-125.63653, 46.25033, -2740.98291015625]]], [[[-125.65868, 46.28537, -2732.60400390625], [-125.65069, 46.28101, -2145.8798828125], [-125.64958, 46.28934, -2145.8798828125], [-125.65868, 46.28537, -2732.60400390625]]], [[[-125.72486, 46.33201, -4679.62548828125], [-125.73077, 46.32484, -5099.45458984375], [-125.71943, 46.32243, -4689.79638671875], [-125.72486, 46.33201, -4679.62548828125]]], [[[-125.69716, 46.25676, -5176.80908203125], [-125.70865, 46.25793, -5521.14111328125], [-125.70334, 46.24961, -5535.5947265625], [-125.69716, 46.25676, -5176.80908203125]]], [[[-125.72671, 46.31571, -5105.4228515625], [-125.73482, 46.30947, -5470.9130859375], [-125.7232, 46.30702, -5105.30126953125], [-125.72671, 46.31571, -5105.4228515625]]], [[[-125.71705, 46.36639, -2717.0576171875], [-125.70639, 46.36608, -2145.8798828125], [-125.71386, 46.37344, -2145.8798828125], [-125.71705, 46.36639, -2717.0576171875]]], [[[-125.67548, 46.23781, -4851.0400390625], [-125.66445, 46.2389, -4356.6201171875], [-125.66882, 46.2471, -4356.6201171875], [-125.67548, 46.23781, -4851.0400390625]]], [[[-125.73321, 46.3803, -2722.094970703125], [-125.73008, 46.38727, -2145.8798828125], [-125.74082, 46.38736, -2705.786865234375], [-125.73321, 46.3803, -2722.094970703125]]], [[[-125.7953, 46.42215, -3803.771240234375], [-125.79266, 46.43029, -3345.27978515625], [-125.80363, 46.42919, -3863.919921875], [-125.7953, 46.42215, -3803.771240234375]]], [[[-125.67918, 46.27783, -3949.209716796875], [-125.6653, 46.27926, -3304.010986328125], [-125.67632, 46.28438, -3671.898681640625], [-125.67918, 46.27783, -3949.209716796875]]], [[[-125.73655, 46.33409, -5074.88818359375], [-125.74858, 46.33498, -5448.12939453125], [-125.74256, 46.32688, -5460.13720703125], [-125.73655, 46.33409, -5074.88818359375]]], [[[-125.67685, 46.32405, -2649.79541015625], [-125.6695, 46.32996, -2145.8798828125], [-125.68019, 46.33199, -2628.890380859375], [-125.67685, 46.32405, -2649.79541015625]]], [[[-125.68917, 46.30243, -3771.5185546875], [-125.70016, 46.30355, -4214.03125], [-125.69585, 46.29493, -4229.21484375], [-125.68917, 46.30243, -3771.5185546875]]], [[[-125.64937, 46.26634, -2776.5732421875], [-125.64398, 46.25852, -2745.672607421875], [-125.63845, 46.26669, -2145.8798828125], [-125.64937, 46.26634, -2776.5732421875]]], [[[-125.65509, 46.27525, -2813.803955078125], [-125.64576, 46.27356, -2145.8798828125], [-125.65069, 46.28101, -2145.8798828125], [-125.65509, 46.27525, -2813.803955078125]]], [[[-125.81028, 46.41113, -4828.25341796875], [-125.81757, 46.4195, -4806.873046875], [-125.82193, 46.41055, -5295.69873046875], [-125.81028, 46.41113, -4828.25341796875]]], [[[-125.78443, 46.42366, -3253.26123046875], [-125.79266, 46.43029, -3345.27978515625], [-125.7953, 46.42215, -3803.771240234375], [-125.78443, 46.42366, -3253.26123046875]]], [[[-125.75399, 46.36539, -4417.81201171875], [-125.75894, 46.35775, -4959.70068359375], [-125.74606, 46.35796, -4441.5576171875], [-125.75399, 46.36539, -4417.81201171875]]], [[[-125.6704, 46.27155, -3699.377197265625], [-125.67517, 46.26257, -4127.91162109375], [-125.6649, 46.26238, -3697.05029296875], [-125.6704, 46.27155, -3699.377197265625]]], [[[-125.68277, 46.29293, -3726.623779296875], [-125.67632, 46.28438, -3671.898681640625], [-125.66932, 46.28965, -3189.62841796875], [-125.68277, 46.29293, -3726.623779296875]]], [[[-125.80253, 46.40328, -4806.9521484375], [-125.81509, 46.40276, -5308.3095703125], [-125.80847, 46.39489, -5320.41845703125], [-125.80253, 46.40328, -4806.9521484375]]], [[[-125.78443, 46.42366, -3253.26123046875], [-125.78254, 46.43134, -2740.98291015625], [-125.79266, 46.43029, -3345.27978515625], [-125.78443, 46.42366, -3253.26123046875]]], [[[-125.67685, 46.32405, -2649.79541015625], [-125.68715, 46.32583, -3184.57421875], [-125.68388, 46.318, -3187.140625], [-125.67685, 46.32405, -2649.79541015625]]], [[[-125.78443, 46.42366, -3253.26123046875], [-125.77522, 46.42506, -2681.013916015625], [-125.78254, 46.43134, -2740.98291015625], [-125.78443, 46.42366, -3253.26123046875]]], [[[-125.67918, 46.27783, -3949.209716796875], [-125.6823, 46.26948, -4262.66064453125], [-125.6704, 46.27155, -3699.377197265625], [-125.67918, 46.27783, -3949.209716796875]]], [[[-125.66994, 46.29773, -2963.740234375], [-125.6597, 46.29429, -2547.5703125], [-125.65803, 46.30443, -2145.8798828125], [-125.66994, 46.29773, -2963.740234375]]], [[[-125.77687, 46.41757, -3153.1474609375], [-125.77522, 46.42506, -2681.013916015625], [-125.78443, 46.42366, -3253.26123046875], [-125.77687, 46.41757, -3153.1474609375]]], [[[-125.69859, 46.27957, -4730.55078125], [-125.71004, 46.28187, -5135.33935546875], [-125.70551, 46.27293, -5150.52392578125], [-125.69859, 46.27957, -4730.55078125]]], [[[-125.76681, 46.36512, -4935.99853515625], [-125.77886, 46.36478, -5380.6123046875], [-125.77107, 46.35744, -5397.72705078125], [-125.76681, 46.36512, -4935.99853515625]]], [[[-125.78643, 46.41542, -3692.48046875], [-125.78443, 46.42366, -3253.26123046875], [-125.7953, 46.42215, -3803.771240234375], [-125.78643, 46.41542, -3692.48046875]]], [[[-125.77687, 46.41757, -3153.1474609375], [-125.76795, 46.4179, -2656.947021484375], [-125.77522, 46.42506, -2681.013916015625], [-125.77687, 46.41757, -3153.1474609375]]], [[[-125.79014, 46.38691, -4890.9462890625], [-125.79447, 46.37946, -5348.07080078125], [-125.78277, 46.37965, -4905.79443359375], [-125.79014, 46.38691, -4890.9462890625]]], [[[-125.81028, 46.41113, -4828.25341796875], [-125.80253, 46.40328, -4806.9521484375], [-125.79965, 46.41324, -4316.01025390625], [-125.81028, 46.41113, -4828.25341796875]]], [[[-125.66055, 46.23036, -4356.6201171875], [-125.66545, 46.21737, -4851.0400390625], [-125.65441, 46.21846, -4356.6201171875], [-125.66055, 46.23036, -4356.6201171875]]], [[[-125.64662, 46.24929, -3345.27978515625], [-125.65756, 46.2482, -3863.919921875], [-125.65319, 46.24001, -3863.919921875], [-125.64662, 46.24929, -3345.27978515625]]], [[[-125.71544, 46.31319, -4684.02783203125], [-125.72671, 46.31571, -5105.4228515625], [-125.7232, 46.30702, -5105.30126953125], [-125.71544, 46.31319, -4684.02783203125]]], [[[-125.77238, 46.41091, -3240.669189453125], [-125.76795, 46.4179, -2656.947021484375], [-125.77687, 46.41757, -3153.1474609375], [-125.77238, 46.41091, -3240.669189453125]]], [[[-125.6704, 46.27155, -3699.377197265625], [-125.6649, 46.26238, -3697.05029296875], [-125.65959, 46.26825, -3290.75634765625], [-125.6704, 46.27155, -3699.377197265625]]], [[[-125.64929, 46.23146, -3863.919921875], [-125.66055, 46.23036, -4356.6201171875], [-125.65441, 46.21846, -4356.6201171875], [-125.64929, 46.23146, -3863.919921875]]], [[[-125.77238, 46.41091, -3240.669189453125], [-125.76155, 46.41036, -2686.96142578125], [-125.76795, 46.4179, -2656.947021484375], [-125.77238, 46.41091, -3240.669189453125]]], [[[-125.7079, 46.29691, -4687.27685546875], [-125.71487, 46.29046, -5120.81298828125], [-125.70304, 46.28843, -4691.69482421875], [-125.7079, 46.29691, -4687.27685546875]]], [[[-125.69139, 46.31101, -3683.550048828125], [-125.7034, 46.31184, -4191.2998046875], [-125.70016, 46.30355, -4214.03125], [-125.69139, 46.31101, -3683.550048828125]]], [[[-125.7902, 46.40789, -4134.97021484375], [-125.78643, 46.41542, -3692.48046875], [-125.79965, 46.41324, -4316.01025390625], [-125.7902, 46.40789, -4134.97021484375]]], [[[-125.77238, 46.41091, -3240.669189453125], [-125.76758, 46.40317, -3351.769775390625], [-125.76155, 46.41036, -2686.96142578125], [-125.77238, 46.41091, -3240.669189453125]]], [[[-125.65509, 46.27525, -2813.803955078125], [-125.65069, 46.28101, -2145.8798828125], [-125.65868, 46.28537, -2732.60400390625], [-125.65509, 46.27525, -2813.803955078125]]], [[[-125.77997, 46.40778, -3714.073486328125], [-125.76758, 46.40317, -3351.769775390625], [-125.77238, 46.41091, -3240.669189453125], [-125.77997, 46.40778, -3714.073486328125]]], [[[-125.71177, 46.30506, -4673.7763671875], [-125.7034, 46.31184, -4191.2998046875], [-125.71544, 46.31319, -4684.02783203125], [-125.71177, 46.30506, -4673.7763671875]]], [[[-125.77997, 46.40778, -3714.073486328125], [-125.78003, 46.40111, -3969.813232421875], [-125.76758, 46.40317, -3351.769775390625], [-125.77997, 46.40778, -3714.073486328125]]], [[[-125.63653, 46.25033, -2740.98291015625], [-125.62622, 46.25126, -2145.8798828125], [-125.63356, 46.25836, -2145.8798828125], [-125.63653, 46.25033, -2740.98291015625]]], [[[-125.64225, 46.2411, -3345.27978515625], [-125.65319, 46.24001, -3863.919921875], [-125.64929, 46.23146, -3863.919921875], [-125.64225, 46.2411, -3345.27978515625]]], [[[-125.74389, 46.3425, -5027.97021484375], [-125.74858, 46.33498, -5448.12939453125], [-125.73655, 46.33409, -5074.88818359375], [-125.74389, 46.3425, -5027.97021484375]]], [[[-125.78003, 46.40111, -3969.813232421875], [-125.77997, 46.40778, -3714.073486328125], [-125.7902, 46.40789, -4134.97021484375], [-125.78003, 46.40111, -3969.813232421875]]], [[[-125.80253, 46.40328, -4806.9521484375], [-125.81028, 46.41113, -4828.25341796875], [-125.81509, 46.40276, -5308.3095703125], [-125.80253, 46.40328, -4806.9521484375]]], [[[-125.78003, 46.40111, -3969.813232421875], [-125.7902, 46.40789, -4134.97021484375], [-125.79174, 46.40112, -4442.58935546875], [-125.78003, 46.40111, -3969.813232421875]]], [[[-125.65471, 46.25748, -3379.11767578125], [-125.6649, 46.26238, -3697.05029296875], [-125.66597, 46.25483, -3958.105224609375], [-125.65471, 46.25748, -3379.11767578125]]], [[[-125.69528, 46.31927, -3713.04345703125], [-125.7034, 46.31184, -4191.2998046875], [-125.69139, 46.31101, -3683.550048828125], [-125.69528, 46.31927, -3713.04345703125]]], [[[-125.78003, 46.40111, -3969.813232421875], [-125.79174, 46.40112, -4442.58935546875], [-125.7852, 46.39406, -4427.36328125], [-125.78003, 46.40111, -3969.813232421875]]], [[[-125.77263, 46.39466, -3901.786865234375], [-125.76758, 46.40317, -3351.769775390625], [-125.78003, 46.40111, -3969.813232421875], [-125.77263, 46.39466, -3901.786865234375]]], [[[-125.70765, 46.32037, -4222.4970703125], [-125.71544, 46.31319, -4684.02783203125], [-125.7034, 46.31184, -4191.2998046875], [-125.70765, 46.32037, -4222.4970703125]]], [[[-125.6704, 46.27155, -3699.377197265625], [-125.65959, 46.26825, -3290.75634765625], [-125.6653, 46.27926, -3304.010986328125], [-125.6704, 46.27155, -3699.377197265625]]], [[[-125.68834, 46.26218, -4690.7236328125], [-125.70141, 46.26465, -5151.91064453125], [-125.69716, 46.25676, -5176.80908203125], [-125.68834, 46.26218, -4690.7236328125]]], [[[-125.77263, 46.39466, -3901.786865234375], [-125.76015, 46.39549, -3315.575927734375], [-125.76758, 46.40317, -3351.769775390625], [-125.77263, 46.39466, -3901.786865234375]]], [[[-125.69415, 46.27098, -4729.18896484375], [-125.70141, 46.26465, -5151.91064453125], [-125.68834, 46.26218, -4690.7236328125], [-125.69415, 46.27098, -4729.18896484375]]], [[[-125.74813, 46.37271, -3851.67236328125], [-125.75655, 46.38019, -3847.319580078125], [-125.76195, 46.37273, -4397.04931640625], [-125.74813, 46.37271, -3851.67236328125]]], [[[-125.74389, 46.3425, -5027.97021484375], [-125.75582, 46.34259, -5432.0009765625], [-125.74858, 46.33498, -5448.12939453125], [-125.74389, 46.3425, -5027.97021484375]]], [[[-125.62827, 46.23358, -2740.98291015625], [-125.63222, 46.22065, -3345.27978515625], [-125.62214, 46.22168, -2740.98291015625], [-125.62827, 46.23358, -2740.98291015625]]], [[[-125.62827, 46.23358, -2740.98291015625], [-125.61796, 46.23451, -2145.8798828125], [-125.62185, 46.24306, -2145.8798828125], [-125.62827, 46.23358, -2740.98291015625]]], [[[-125.69139, 46.31101, -3683.550048828125], [-125.68388, 46.318, -3187.140625], [-125.69528, 46.31927, -3713.04345703125], [-125.69139, 46.31101, -3683.550048828125]]], [[[-125.77263, 46.39466, -3901.786865234375], [-125.76545, 46.38739, -3887.442138671875], [-125.76015, 46.39549, -3315.575927734375], [-125.77263, 46.39466, -3901.786865234375]]], [[[-125.69415, 46.27098, -4729.18896484375], [-125.69859, 46.27957, -4730.55078125], [-125.70551, 46.27293, -5150.52392578125], [-125.69415, 46.27098, -4729.18896484375]]], [[[-125.64952, 46.29766, -2145.8798828125], [-125.6597, 46.29429, -2547.5703125], [-125.64958, 46.28934, -2145.8798828125], [-125.64952, 46.29766, -2145.8798828125]]], [[[-125.77263, 46.39466, -3901.786865234375], [-125.77823, 46.387, -4412.60986328125], [-125.76545, 46.38739, -3887.442138671875], [-125.77263, 46.39466, -3901.786865234375]]], [[[-125.66055, 46.23036, -4356.6201171875], [-125.64929, 46.23146, -3863.919921875], [-125.65319, 46.24001, -3863.919921875], [-125.66055, 46.23036, -4356.6201171875]]], [[[-125.71177, 46.30506, -4673.7763671875], [-125.7193, 46.29874, -5108.03857421875], [-125.7079, 46.29691, -4687.27685546875], [-125.71177, 46.30506, -4673.7763671875]]], [[[-125.77263, 46.39466, -3901.786865234375], [-125.7852, 46.39406, -4427.36328125], [-125.77823, 46.387, -4412.60986328125], [-125.77263, 46.39466, -3901.786865234375]]], [[[-125.64225, 46.2411, -3345.27978515625], [-125.63836, 46.23255, -3345.27978515625], [-125.63216, 46.24213, -2740.98291015625], [-125.64225, 46.2411, -3345.27978515625]]], [[[-125.77522, 46.42506, -2681.013916015625], [-125.77219, 46.43229, -2145.8798828125], [-125.78254, 46.43134, -2740.98291015625], [-125.77522, 46.42506, -2681.013916015625]]], [[[-125.79014, 46.38691, -4890.9462890625], [-125.77823, 46.387, -4412.60986328125], [-125.7852, 46.39406, -4427.36328125], [-125.79014, 46.38691, -4890.9462890625]]], [[[-125.63836, 46.23255, -3345.27978515625], [-125.62827, 46.23358, -2740.98291015625], [-125.63216, 46.24213, -2740.98291015625], [-125.63836, 46.23255, -3345.27978515625]]], [[[-125.67935, 46.30053, -3354.1650390625], [-125.6802, 46.30881, -3194.851318359375], [-125.68917, 46.30243, -3771.5185546875], [-125.67935, 46.30053, -3354.1650390625]]], [[[-125.77823, 46.387, -4412.60986328125], [-125.79014, 46.38691, -4890.9462890625], [-125.78277, 46.37965, -4905.79443359375], [-125.77823, 46.387, -4412.60986328125]]], [[[-125.74008, 46.36534, -3872.35400390625], [-125.73563, 46.37293, -3298.0615234375], [-125.74813, 46.37271, -3851.67236328125], [-125.74008, 46.36534, -3872.35400390625]]], [[[-125.73924, 46.35023, -4518.4150390625], [-125.75141, 46.3502, -4996.10400390625], [-125.74389, 46.3425, -5027.97021484375], [-125.73924, 46.35023, -4518.4150390625]]], [[[-125.77022, 46.37984, -4402.576171875], [-125.77823, 46.387, -4412.60986328125], [-125.78277, 46.37965, -4905.79443359375], [-125.77022, 46.37984, -4402.576171875]]], [[[-125.77823, 46.387, -4412.60986328125], [-125.77022, 46.37984, -4402.576171875], [-125.76545, 46.38739, -3887.442138671875], [-125.77823, 46.387, -4412.60986328125]]], [[[-125.71248, 46.32962, -4230.09033203125], [-125.69861, 46.32637, -3724.392578125], [-125.70197, 46.3321, -3715.731201171875], [-125.71248, 46.32962, -4230.09033203125]]], [[[-125.68299, 46.22813, -5327.490234375], [-125.67159, 46.22926, -4851.0400390625], [-125.67548, 46.23781, -4851.0400390625], [-125.68299, 46.22813, -5327.490234375]]], [[[-125.75655, 46.38019, -3847.319580078125], [-125.76545, 46.38739, -3887.442138671875], [-125.77022, 46.37984, -4402.576171875], [-125.75655, 46.38019, -3847.319580078125]]], [[[-125.69528, 46.31927, -3713.04345703125], [-125.70765, 46.32037, -4222.4970703125], [-125.7034, 46.31184, -4191.2998046875], [-125.69528, 46.31927, -3713.04345703125]]], [[[-125.69996, 46.35169, -2693.624267578125], [-125.68921, 46.35263, -2145.8798828125], [-125.69821, 46.3591, -2145.8798828125], [-125.69996, 46.35169, -2693.624267578125]]], [[[-125.76015, 46.39549, -3315.575927734375], [-125.76545, 46.38739, -3887.442138671875], [-125.75243, 46.38784, -3303.912353515625], [-125.76015, 46.39549, -3315.575927734375]]], [[[-125.79674, 46.39428, -4886.767578125], [-125.80847, 46.39489, -5320.41845703125], [-125.80184, 46.38701, -5333.0537109375], [-125.79674, 46.39428, -4886.767578125]]], [[[-125.63836, 46.23255, -3345.27978515625], [-125.64316, 46.21956, -3863.919921875], [-125.63222, 46.22065, -3345.27978515625], [-125.63836, 46.23255, -3345.27978515625]]], [[[-125.76015, 46.39549, -3315.575927734375], [-125.75243, 46.38784, -3303.912353515625], [-125.74842, 46.39495, -2699.952880859375], [-125.76015, 46.39549, -3315.575927734375]]], [[[-125.68715, 46.32583, -3184.57421875], [-125.67685, 46.32405, -2649.79541015625], [-125.68019, 46.33199, -2628.890380859375], [-125.68715, 46.32583, -3184.57421875]]], [[[-125.72446, 46.3728, -2718.091552734375], [-125.71386, 46.37344, -2145.8798828125], [-125.72264, 46.38006, -2145.8798828125], [-125.72446, 46.3728, -2718.091552734375]]], [[[-125.62214, 46.22168, -2740.98291015625], [-125.61183, 46.22261, -2145.8798828125], [-125.61796, 46.23451, -2145.8798828125], [-125.62214, 46.22168, -2740.98291015625]]], [[[-125.63216, 46.24213, -2740.98291015625], [-125.62185, 46.24306, -2145.8798828125], [-125.62622, 46.25126, -2145.8798828125], [-125.63216, 46.24213, -2740.98291015625]]], [[[-125.66978, 46.3058, -2683.716064453125], [-125.6802, 46.30881, -3194.851318359375], [-125.67935, 46.30053, -3354.1650390625], [-125.66978, 46.3058, -2683.716064453125]]], [[[-125.75547, 46.40286, -2715.66455078125], [-125.76015, 46.39549, -3315.575927734375], [-125.74842, 46.39495, -2699.952880859375], [-125.75547, 46.40286, -2715.66455078125]]], [[[-125.74606, 46.35796, -4441.5576171875], [-125.75141, 46.3502, -4996.10400390625], [-125.73924, 46.35023, -4518.4150390625], [-125.74606, 46.35796, -4441.5576171875]]], [[[-125.76015, 46.39549, -3315.575927734375], [-125.75547, 46.40286, -2715.66455078125], [-125.76758, 46.40317, -3351.769775390625], [-125.76015, 46.39549, -3315.575927734375]]], [[[-125.75547, 46.40286, -2715.66455078125], [-125.76155, 46.41036, -2686.96142578125], [-125.76758, 46.40317, -3351.769775390625], [-125.75547, 46.40286, -2715.66455078125]]], [[[-125.75547, 46.40286, -2715.66455078125], [-125.74457, 46.4019, -2145.8798828125], [-125.75054, 46.40988, -2145.8798828125], [-125.75547, 46.40286, -2715.66455078125]]], [[[-125.68299, 46.22813, -5327.490234375], [-125.68689, 46.23668, -5327.490234375], [-125.69357, 46.23277, -5564.2578125], [-125.68299, 46.22813, -5327.490234375]]], [[[-125.68689, 46.23668, -5327.490234375], [-125.69127, 46.24487, -5327.490234375], [-125.69765, 46.24143, -5553.45703125], [-125.68689, 46.23668, -5327.490234375]]], [[[-125.74457, 46.4019, -2145.8798828125], [-125.75547, 46.40286, -2715.66455078125], [-125.74842, 46.39495, -2699.952880859375], [-125.74457, 46.4019, -2145.8798828125]]], [[[-125.69861, 46.32637, -3724.392578125], [-125.71248, 46.32962, -4230.09033203125], [-125.70765, 46.32037, -4222.4970703125], [-125.69861, 46.32637, -3724.392578125]]], [[[-125.69996, 46.35169, -2693.624267578125], [-125.69821, 46.3591, -2145.8798828125], [-125.70878, 46.35894, -2727.54296875], [-125.69996, 46.35169, -2693.624267578125]]], [[[-125.71544, 46.31319, -4684.02783203125], [-125.71943, 46.32243, -4689.79638671875], [-125.72671, 46.31571, -5105.4228515625], [-125.71544, 46.31319, -4684.02783203125]]], [[[-125.67159, 46.22926, -4851.0400390625], [-125.66445, 46.2389, -4356.6201171875], [-125.67548, 46.23781, -4851.0400390625], [-125.67159, 46.22926, -4851.0400390625]]], [[[-125.74082, 46.38736, -2705.786865234375], [-125.73008, 46.38727, -2145.8798828125], [-125.73768, 46.39445, -2145.8798828125], [-125.74082, 46.38736, -2705.786865234375]]], [[[-125.79965, 46.41324, -4316.01025390625], [-125.80659, 46.42075, -4311.888671875], [-125.81028, 46.41113, -4828.25341796875], [-125.79965, 46.41324, -4316.01025390625]]], [[[-125.69415, 46.27098, -4729.18896484375], [-125.70551, 46.27293, -5150.52392578125], [-125.70141, 46.26465, -5151.91064453125], [-125.69415, 46.27098, -4729.18896484375]]], [[[-125.68277, 46.29293, -3726.623779296875], [-125.69012, 46.28581, -4221.126953125], [-125.67632, 46.28438, -3671.898681640625], [-125.68277, 46.29293, -3726.623779296875]]], [[[-125.73321, 46.3803, -2722.094970703125], [-125.72264, 46.38006, -2145.8798828125], [-125.73008, 46.38727, -2145.8798828125], [-125.73321, 46.3803, -2722.094970703125]]], [[[-125.68299, 46.22813, -5327.490234375], [-125.67548, 46.23781, -4851.0400390625], [-125.68689, 46.23668, -5327.490234375], [-125.68299, 46.22813, -5327.490234375]]], [[[-125.7902, 46.40789, -4134.97021484375], [-125.80253, 46.40328, -4806.9521484375], [-125.79174, 46.40112, -4442.58935546875], [-125.7902, 46.40789, -4134.97021484375]]], [[[-125.69415, 46.27098, -4729.18896484375], [-125.68829, 46.27748, -4344.76708984375], [-125.69859, 46.27957, -4730.55078125], [-125.69415, 46.27098, -4729.18896484375]]], [[[-125.71705, 46.36639, -2717.0576171875], [-125.71386, 46.37344, -2145.8798828125], [-125.72446, 46.3728, -2718.091552734375], [-125.71705, 46.36639, -2717.0576171875]]], [[[-125.75894, 46.35775, -4959.70068359375], [-125.76681, 46.36512, -4935.99853515625], [-125.77107, 46.35744, -5397.72705078125], [-125.75894, 46.35775, -4959.70068359375]]], [[[-125.70878, 46.35894, -2727.54296875], [-125.69821, 46.3591, -2145.8798828125], [-125.70639, 46.36608, -2145.8798828125], [-125.70878, 46.35894, -2727.54296875]]], [[[-125.70334, 46.24961, -5535.5947265625], [-125.69127, 46.24487, -5327.490234375], [-125.68881, 46.25272, -4966.57861328125], [-125.70334, 46.24961, -5535.5947265625]]], [[[-125.66055, 46.23036, -4356.6201171875], [-125.65319, 46.24001, -3863.919921875], [-125.66445, 46.2389, -4356.6201171875], [-125.66055, 46.23036, -4356.6201171875]]], [[[-125.76195, 46.37273, -4397.04931640625], [-125.76681, 46.36512, -4935.99853515625], [-125.75399, 46.36539, -4417.81201171875], [-125.76195, 46.37273, -4397.04931640625]]], [[[-125.68921, 46.35263, -2145.8798828125], [-125.69996, 46.35169, -2693.624267578125], [-125.69206, 46.34517, -2652.60693359375], [-125.68921, 46.35263, -2145.8798828125]]], [[[-125.69102, 46.33241, -3197.015869140625], [-125.68715, 46.32583, -3184.57421875], [-125.68019, 46.33199, -2628.890380859375], [-125.69102, 46.33241, -3197.015869140625]]], [[[-125.68483, 46.33852, -2632.9443359375], [-125.68097, 46.34572, -2145.8798828125], [-125.69206, 46.34517, -2652.60693359375], [-125.68483, 46.33852, -2632.9443359375]]], [[[-125.74606, 46.35796, -4441.5576171875], [-125.75894, 46.35775, -4959.70068359375], [-125.75141, 46.3502, -4996.10400390625], [-125.74606, 46.35796, -4441.5576171875]]], [[[-125.69861, 46.32637, -3724.392578125], [-125.69102, 46.33241, -3197.015869140625], [-125.70197, 46.3321, -3715.731201171875], [-125.69861, 46.32637, -3724.392578125]]], [[[-125.7902, 46.40789, -4134.97021484375], [-125.77997, 46.40778, -3714.073486328125], [-125.78643, 46.41542, -3692.48046875], [-125.7902, 46.40789, -4134.97021484375]]], [[[-125.67685, 46.32405, -2649.79541015625], [-125.66641, 46.32122, -2145.8798828125], [-125.6695, 46.32996, -2145.8798828125], [-125.67685, 46.32405, -2649.79541015625]]], [[[-125.72671, 46.31571, -5105.4228515625], [-125.73829, 46.31827, -5467.0478515625], [-125.73482, 46.30947, -5470.9130859375], [-125.72671, 46.31571, -5105.4228515625]]], [[[-125.75655, 46.38019, -3847.319580078125], [-125.77022, 46.37984, -4402.576171875], [-125.76195, 46.37273, -4397.04931640625], [-125.75655, 46.38019, -3847.319580078125]]], [[[-125.67365, 46.31528, -2663.907470703125], [-125.66641, 46.32122, -2145.8798828125], [-125.67685, 46.32405, -2649.79541015625], [-125.67365, 46.31528, -2663.907470703125]]], [[[-125.7748, 46.3724, -4918.74072265625], [-125.78277, 46.37965, -4905.79443359375], [-125.78671, 46.3721, -5364.29296875], [-125.7748, 46.3724, -4918.74072265625]]], [[[-125.67365, 46.31528, -2663.907470703125], [-125.66342, 46.31247, -2145.8798828125], [-125.66641, 46.32122, -2145.8798828125], [-125.67365, 46.31528, -2663.907470703125]]], [[[-125.78643, 46.41542, -3692.48046875], [-125.77687, 46.41757, -3153.1474609375], [-125.78443, 46.42366, -3253.26123046875], [-125.78643, 46.41542, -3692.48046875]]], [[[-125.66342, 46.31247, -2145.8798828125], [-125.67365, 46.31528, -2663.907470703125], [-125.66978, 46.3058, -2683.716064453125], [-125.66342, 46.31247, -2145.8798828125]]], [[[-125.65803, 46.30443, -2145.8798828125], [-125.66342, 46.31247, -2145.8798828125], [-125.66978, 46.3058, -2683.716064453125], [-125.65803, 46.30443, -2145.8798828125]]], [[[-125.73077, 46.32484, -5099.45458984375], [-125.73655, 46.33409, -5074.88818359375], [-125.74256, 46.32688, -5460.13720703125], [-125.73077, 46.32484, -5099.45458984375]]], [[[-125.66994, 46.29773, -2963.740234375], [-125.66932, 46.28965, -3189.62841796875], [-125.6597, 46.29429, -2547.5703125], [-125.66994, 46.29773, -2963.740234375]]], [[[-125.67548, 46.23781, -4851.0400390625], [-125.66882, 46.2471, -4356.6201171875], [-125.67986, 46.24601, -4851.0400390625], [-125.67548, 46.23781, -4851.0400390625]]], [[[-125.68277, 46.29293, -3726.623779296875], [-125.68917, 46.30243, -3771.5185546875], [-125.69585, 46.29493, -4229.21484375], [-125.68277, 46.29293, -3726.623779296875]]], [[[-125.71943, 46.32243, -4689.79638671875], [-125.73077, 46.32484, -5099.45458984375], [-125.72671, 46.31571, -5105.4228515625], [-125.71943, 46.32243, -4689.79638671875]]], [[[-125.66978, 46.3058, -2683.716064453125], [-125.67935, 46.30053, -3354.1650390625], [-125.66994, 46.29773, -2963.740234375], [-125.66978, 46.3058, -2683.716064453125]]], [[[-125.74389, 46.3425, -5027.97021484375], [-125.75141, 46.3502, -4996.10400390625], [-125.75582, 46.34259, -5432.0009765625], [-125.74389, 46.3425, -5027.97021484375]]], [[[-125.6802, 46.30881, -3194.851318359375], [-125.67365, 46.31528, -2663.907470703125], [-125.68388, 46.318, -3187.140625], [-125.6802, 46.30881, -3194.851318359375]]], [[[-125.69585, 46.29493, -4229.21484375], [-125.7079, 46.29691, -4687.27685546875], [-125.70304, 46.28843, -4691.69482421875], [-125.69585, 46.29493, -4229.21484375]]], [[[-125.75141, 46.3502, -4996.10400390625], [-125.75894, 46.35775, -4959.70068359375], [-125.76336, 46.35006, -5415.130859375], [-125.75141, 46.3502, -4996.10400390625]]], [[[-125.69012, 46.28581, -4221.126953125], [-125.70304, 46.28843, -4691.69482421875], [-125.69859, 46.27957, -4730.55078125], [-125.69012, 46.28581, -4221.126953125]]], [[[-125.69012, 46.28581, -4221.126953125], [-125.69859, 46.27957, -4730.55078125], [-125.68829, 46.27748, -4344.76708984375], [-125.69012, 46.28581, -4221.126953125]]], [[[-125.67918, 46.27783, -3949.209716796875], [-125.67632, 46.28438, -3671.898681640625], [-125.69012, 46.28581, -4221.126953125], [-125.67918, 46.27783, -3949.209716796875]]], [[[-125.79174, 46.40112, -4442.58935546875], [-125.80253, 46.40328, -4806.9521484375], [-125.79674, 46.39428, -4886.767578125], [-125.79174, 46.40112, -4442.58935546875]]], [[[-125.79174, 46.40112, -4442.58935546875], [-125.79674, 46.39428, -4886.767578125], [-125.7852, 46.39406, -4427.36328125], [-125.79174, 46.40112, -4442.58935546875]]], [[[-125.79014, 46.38691, -4890.9462890625], [-125.79674, 46.39428, -4886.767578125], [-125.80184, 46.38701, -5333.0537109375], [-125.79014, 46.38691, -4890.9462890625]]], [[[-125.71177, 46.30506, -4673.7763671875], [-125.7232, 46.30702, -5105.30126953125], [-125.7193, 46.29874, -5108.03857421875], [-125.71177, 46.30506, -4673.7763671875]]], [[[-125.65868, 46.28537, -2732.60400390625], [-125.66932, 46.28965, -3189.62841796875], [-125.6653, 46.27926, -3304.010986328125], [-125.65868, 46.28537, -2732.60400390625]]], [[[-125.64937, 46.26634, -2776.5732421875], [-125.65471, 46.25748, -3379.11767578125], [-125.64398, 46.25852, -2745.672607421875], [-125.64937, 46.26634, -2776.5732421875]]], [[[-125.65441, 46.21846, -4356.6201171875], [-125.64316, 46.21956, -3863.919921875], [-125.64929, 46.23146, -3863.919921875], [-125.65441, 46.21846, -4356.6201171875]]], [[[-125.66055, 46.23036, -4356.6201171875], [-125.67159, 46.22926, -4851.0400390625], [-125.66545, 46.21737, -4851.0400390625], [-125.66055, 46.23036, -4356.6201171875]]], [[[-125.69859, 46.27957, -4730.55078125], [-125.70304, 46.28843, -4691.69482421875], [-125.71004, 46.28187, -5135.33935546875], [-125.69859, 46.27957, -4730.55078125]]], [[[-125.69528, 46.31927, -3713.04345703125], [-125.69861, 46.32637, -3724.392578125], [-125.70765, 46.32037, -4222.4970703125], [-125.69528, 46.31927, -3713.04345703125]]], [[[-125.70304, 46.28843, -4691.69482421875], [-125.71487, 46.29046, -5120.81298828125], [-125.71004, 46.28187, -5135.33935546875], [-125.70304, 46.28843, -4691.69482421875]]], [[[-125.78643, 46.41542, -3692.48046875], [-125.7953, 46.42215, -3803.771240234375], [-125.79965, 46.41324, -4316.01025390625], [-125.78643, 46.41542, -3692.48046875]]], [[[-125.81028, 46.41113, -4828.25341796875], [-125.82193, 46.41055, -5295.69873046875], [-125.81509, 46.40276, -5308.3095703125], [-125.81028, 46.41113, -4828.25341796875]]], [[[-125.81028, 46.41113, -4828.25341796875], [-125.80659, 46.42075, -4311.888671875], [-125.81757, 46.4195, -4806.873046875], [-125.81028, 46.41113, -4828.25341796875]]], [[[-125.81757, 46.4195, -4806.873046875], [-125.82886, 46.41831, -5282.552734375], [-125.82193, 46.41055, -5295.69873046875], [-125.81757, 46.4195, -4806.873046875]]], [[[-125.74813, 46.37271, -3851.67236328125], [-125.74409, 46.38033, -3295.592041015625], [-125.75655, 46.38019, -3847.319580078125], [-125.74813, 46.37271, -3851.67236328125]]], [[[-125.74813, 46.37271, -3851.67236328125], [-125.73563, 46.37293, -3298.0615234375], [-125.74409, 46.38033, -3295.592041015625], [-125.74813, 46.37271, -3851.67236328125]]], [[[-125.73186, 46.3577, -3893.826416015625], [-125.71953, 46.35913, -3285.620849609375], [-125.72775, 46.36578, -3314.86962890625], [-125.73186, 46.3577, -3893.826416015625]]], [[[-125.72133, 46.35203, -3714.3955078125], [-125.71953, 46.35913, -3285.620849609375], [-125.73186, 46.3577, -3893.826416015625], [-125.72133, 46.35203, -3714.3955078125]]], [[[-125.72133, 46.35203, -3714.3955078125], [-125.71064, 46.35149, -3269.8408203125], [-125.71953, 46.35913, -3285.620849609375], [-125.72133, 46.35203, -3714.3955078125]]], [[[-125.72133, 46.35203, -3714.3955078125], [-125.71444, 46.34464, -3760.627685546875], [-125.71064, 46.35149, -3269.8408203125], [-125.72133, 46.35203, -3714.3955078125]]], [[[-125.72133, 46.35203, -3714.3955078125], [-125.72754, 46.34804, -4148.21435546875], [-125.71444, 46.34464, -3760.627685546875], [-125.72133, 46.35203, -3714.3955078125]]], [[[-125.72133, 46.35203, -3714.3955078125], [-125.73186, 46.3577, -3893.826416015625], [-125.72754, 46.34804, -4148.21435546875], [-125.72133, 46.35203, -3714.3955078125]]], [[[-125.72754, 46.34804, -4148.21435546875], [-125.73186, 46.3577, -3893.826416015625], [-125.73924, 46.35023, -4518.4150390625], [-125.72754, 46.34804, -4148.21435546875]]], [[[-125.72754, 46.34804, -4148.21435546875], [-125.73924, 46.35023, -4518.4150390625], [-125.73207, 46.34142, -4608.12841796875], [-125.72754, 46.34804, -4148.21435546875]]], [[[-125.72016, 46.33905, -4227.6357421875], [-125.72754, 46.34804, -4148.21435546875], [-125.73207, 46.34142, -4608.12841796875], [-125.72016, 46.33905, -4227.6357421875]]], [[[-125.71444, 46.34464, -3760.627685546875], [-125.72754, 46.34804, -4148.21435546875], [-125.72016, 46.33905, -4227.6357421875], [-125.71444, 46.34464, -3760.627685546875]]], [[[-125.71444, 46.34464, -3760.627685546875], [-125.72016, 46.33905, -4227.6357421875], [-125.70759, 46.33765, -3775.67919921875], [-125.71444, 46.34464, -3760.627685546875]]], [[[-125.71444, 46.34464, -3760.627685546875], [-125.70759, 46.33765, -3775.67919921875], [-125.70277, 46.34463, -3246.578125], [-125.71444, 46.34464, -3760.627685546875]]], [[[-125.71444, 46.34464, -3760.627685546875], [-125.70277, 46.34463, -3246.578125], [-125.71064, 46.35149, -3269.8408203125], [-125.71444, 46.34464, -3760.627685546875]]], [[[-125.70277, 46.34463, -3246.578125], [-125.69996, 46.35169, -2693.624267578125], [-125.71064, 46.35149, -3269.8408203125], [-125.70277, 46.34463, -3246.578125]]], [[[-125.70277, 46.34463, -3246.578125], [-125.69206, 46.34517, -2652.60693359375], [-125.69996, 46.35169, -2693.624267578125], [-125.70277, 46.34463, -3246.578125]]], [[[-125.70277, 46.34463, -3246.578125], [-125.69584, 46.3385, -3207.389404296875], [-125.69206, 46.34517, -2652.60693359375], [-125.70277, 46.34463, -3246.578125]]], [[[-125.69584, 46.3385, -3207.389404296875], [-125.70277, 46.34463, -3246.578125], [-125.70759, 46.33765, -3775.67919921875], [-125.69584, 46.3385, -3207.389404296875]]], [[[-125.70197, 46.3321, -3715.731201171875], [-125.69584, 46.3385, -3207.389404296875], [-125.70759, 46.33765, -3775.67919921875], [-125.70197, 46.3321, -3715.731201171875]]], [[[-125.69584, 46.3385, -3207.389404296875], [-125.70197, 46.3321, -3715.731201171875], [-125.69102, 46.33241, -3197.015869140625], [-125.69584, 46.3385, -3207.389404296875]]], [[[-125.69584, 46.3385, -3207.389404296875], [-125.69102, 46.33241, -3197.015869140625], [-125.68483, 46.33852, -2632.9443359375], [-125.69584, 46.3385, -3207.389404296875]]], [[[-125.69584, 46.3385, -3207.389404296875], [-125.68483, 46.33852, -2632.9443359375], [-125.69206, 46.34517, -2652.60693359375], [-125.69584, 46.3385, -3207.389404296875]]], [[[-125.69102, 46.33241, -3197.015869140625], [-125.68019, 46.33199, -2628.890380859375], [-125.68483, 46.33852, -2632.9443359375], [-125.69102, 46.33241, -3197.015869140625]]], [[[-125.70197, 46.3321, -3715.731201171875], [-125.70759, 46.33765, -3775.67919921875], [-125.71248, 46.32962, -4230.09033203125], [-125.70197, 46.3321, -3715.731201171875]]], [[[-125.72016, 46.33905, -4227.6357421875], [-125.71248, 46.32962, -4230.09033203125], [-125.70759, 46.33765, -3775.67919921875], [-125.72016, 46.33905, -4227.6357421875]]], [[[-125.71248, 46.32962, -4230.09033203125], [-125.72016, 46.33905, -4227.6357421875], [-125.72486, 46.33201, -4679.62548828125], [-125.71248, 46.32962, -4230.09033203125]]], [[[-125.71248, 46.32962, -4230.09033203125], [-125.72486, 46.33201, -4679.62548828125], [-125.71943, 46.32243, -4689.79638671875], [-125.71248, 46.32962, -4230.09033203125]]], [[[-125.72016, 46.33905, -4227.6357421875], [-125.73207, 46.34142, -4608.12841796875], [-125.72486, 46.33201, -4679.62548828125], [-125.72016, 46.33905, -4227.6357421875]]], [[[-125.72486, 46.33201, -4679.62548828125], [-125.73207, 46.34142, -4608.12841796875], [-125.73655, 46.33409, -5074.88818359375], [-125.72486, 46.33201, -4679.62548828125]]], [[[-125.73207, 46.34142, -4608.12841796875], [-125.74389, 46.3425, -5027.97021484375], [-125.73655, 46.33409, -5074.88818359375], [-125.73207, 46.34142, -4608.12841796875]]], [[[-125.73207, 46.34142, -4608.12841796875], [-125.73924, 46.35023, -4518.4150390625], [-125.74389, 46.3425, -5027.97021484375], [-125.73207, 46.34142, -4608.12841796875]]], [[[-125.69996, 46.35169, -2693.624267578125], [-125.70878, 46.35894, -2727.54296875], [-125.71064, 46.35149, -3269.8408203125], [-125.69996, 46.35169, -2693.624267578125]]], [[[-125.71953, 46.35913, -3285.620849609375], [-125.71064, 46.35149, -3269.8408203125], [-125.70878, 46.35894, -2727.54296875], [-125.71953, 46.35913, -3285.620849609375]]], [[[-125.71953, 46.35913, -3285.620849609375], [-125.70878, 46.35894, -2727.54296875], [-125.71705, 46.36639, -2717.0576171875], [-125.71953, 46.35913, -3285.620849609375]]], [[[-125.72775, 46.36578, -3314.86962890625], [-125.71953, 46.35913, -3285.620849609375], [-125.71705, 46.36639, -2717.0576171875], [-125.72775, 46.36578, -3314.86962890625]]], [[[-125.72775, 46.36578, -3314.86962890625], [-125.71705, 46.36639, -2717.0576171875], [-125.72446, 46.3728, -2718.091552734375], [-125.72775, 46.36578, -3314.86962890625]]], [[[-125.73563, 46.37293, -3298.0615234375], [-125.72775, 46.36578, -3314.86962890625], [-125.72446, 46.3728, -2718.091552734375], [-125.73563, 46.37293, -3298.0615234375]]], [[[-125.73563, 46.37293, -3298.0615234375], [-125.72446, 46.3728, -2718.091552734375], [-125.73321, 46.3803, -2722.094970703125], [-125.73563, 46.37293, -3298.0615234375]]], [[[-125.74409, 46.38033, -3295.592041015625], [-125.73563, 46.37293, -3298.0615234375], [-125.73321, 46.3803, -2722.094970703125], [-125.74409, 46.38033, -3295.592041015625]]], [[[-125.74409, 46.38033, -3295.592041015625], [-125.73321, 46.3803, -2722.094970703125], [-125.74082, 46.38736, -2705.786865234375], [-125.74409, 46.38033, -3295.592041015625]]], [[[-125.75243, 46.38784, -3303.912353515625], [-125.74409, 46.38033, -3295.592041015625], [-125.74082, 46.38736, -2705.786865234375], [-125.75243, 46.38784, -3303.912353515625]]], [[[-125.74409, 46.38033, -3295.592041015625], [-125.75243, 46.38784, -3303.912353515625], [-125.75655, 46.38019, -3847.319580078125], [-125.74409, 46.38033, -3295.592041015625]]], [[[-125.75243, 46.38784, -3303.912353515625], [-125.74082, 46.38736, -2705.786865234375], [-125.74842, 46.39495, -2699.952880859375], [-125.75243, 46.38784, -3303.912353515625]]], [[[-125.73186, 46.3577, -3893.826416015625], [-125.74606, 46.35796, -4441.5576171875], [-125.73924, 46.35023, -4518.4150390625], [-125.73186, 46.3577, -3893.826416015625]]], [[[-125.73186, 46.3577, -3893.826416015625], [-125.74008, 46.36534, -3872.35400390625], [-125.74606, 46.35796, -4441.5576171875], [-125.73186, 46.3577, -3893.826416015625]]], [[[-125.74008, 46.36534, -3872.35400390625], [-125.75399, 46.36539, -4417.81201171875], [-125.74606, 46.35796, -4441.5576171875], [-125.74008, 46.36534, -3872.35400390625]]], [[[-125.74008, 46.36534, -3872.35400390625], [-125.74813, 46.37271, -3851.67236328125], [-125.75399, 46.36539, -4417.81201171875], [-125.74008, 46.36534, -3872.35400390625]]], [[[-125.74813, 46.37271, -3851.67236328125], [-125.76195, 46.37273, -4397.04931640625], [-125.75399, 46.36539, -4417.81201171875], [-125.74813, 46.37271, -3851.67236328125]]], [[[-125.7232, 46.30702, -5105.30126953125], [-125.73482, 46.30947, -5470.9130859375], [-125.7311, 46.30073, -5475.7216796875], [-125.7232, 46.30702, -5105.30126953125]]], [[[-125.7193, 46.29874, -5108.03857421875], [-125.7232, 46.30702, -5105.30126953125], [-125.7311, 46.30073, -5475.7216796875], [-125.7193, 46.29874, -5108.03857421875]]], [[[-125.7193, 46.29874, -5108.03857421875], [-125.7311, 46.30073, -5475.7216796875], [-125.72677, 46.29213, -5483.98486328125], [-125.7193, 46.29874, -5108.03857421875]]], [[[-125.71487, 46.29046, -5120.81298828125], [-125.7193, 46.29874, -5108.03857421875], [-125.72677, 46.29213, -5483.98486328125], [-125.71487, 46.29046, -5120.81298828125]]], [[[-125.71487, 46.29046, -5120.81298828125], [-125.72677, 46.29213, -5483.98486328125], [-125.72193, 46.28366, -5493.68701171875], [-125.71487, 46.29046, -5120.81298828125]]], [[[-125.71004, 46.28187, -5135.33935546875], [-125.71487, 46.29046, -5120.81298828125], [-125.72193, 46.28366, -5493.68701171875], [-125.71004, 46.28187, -5135.33935546875]]], [[[-125.71004, 46.28187, -5135.33935546875], [-125.72193, 46.28366, -5493.68701171875], [-125.71728, 46.27514, -5502.61083984375], [-125.71004, 46.28187, -5135.33935546875]]], [[[-125.71004, 46.28187, -5135.33935546875], [-125.71728, 46.27514, -5502.61083984375], [-125.70551, 46.27293, -5150.52392578125], [-125.71004, 46.28187, -5135.33935546875]]], [[[-125.70551, 46.27293, -5150.52392578125], [-125.71728, 46.27514, -5502.61083984375], [-125.71327, 46.26646, -5510.58740234375], [-125.70551, 46.27293, -5150.52392578125]]], [[[-125.70141, 46.26465, -5151.91064453125], [-125.70551, 46.27293, -5150.52392578125], [-125.71327, 46.26646, -5510.58740234375], [-125.70141, 46.26465, -5151.91064453125]]], [[[-125.70141, 46.26465, -5151.91064453125], [-125.71327, 46.26646, -5510.58740234375], [-125.70865, 46.25793, -5521.14111328125], [-125.70141, 46.26465, -5151.91064453125]]], [[[-125.67685, 46.32405, -2649.79541015625], [-125.68388, 46.318, -3187.140625], [-125.67365, 46.31528, -2663.907470703125], [-125.67685, 46.32405, -2649.79541015625]]], [[[-125.70016, 46.30355, -4214.03125], [-125.71177, 46.30506, -4673.7763671875], [-125.7079, 46.29691, -4687.27685546875], [-125.70016, 46.30355, -4214.03125]]], [[[-125.68834, 46.26218, -4690.7236328125], [-125.69716, 46.25676, -5176.80908203125], [-125.68881, 46.25272, -4966.57861328125], [-125.68834, 46.26218, -4690.7236328125]]], [[[-125.68881, 46.25272, -4966.57861328125], [-125.6778, 46.25442, -4455.83642578125], [-125.68834, 46.26218, -4690.7236328125], [-125.68881, 46.25272, -4966.57861328125]]], [[[-125.6778, 46.25442, -4455.83642578125], [-125.68881, 46.25272, -4966.57861328125], [-125.67986, 46.24601, -4851.0400390625], [-125.6778, 46.25442, -4455.83642578125]]], [[[-125.6778, 46.25442, -4455.83642578125], [-125.66882, 46.2471, -4356.6201171875], [-125.66597, 46.25483, -3958.105224609375], [-125.6778, 46.25442, -4455.83642578125]]], [[[-125.67517, 46.26257, -4127.91162109375], [-125.6778, 46.25442, -4455.83642578125], [-125.66597, 46.25483, -3958.105224609375], [-125.67517, 46.26257, -4127.91162109375]]], [[[-125.67517, 46.26257, -4127.91162109375], [-125.68834, 46.26218, -4690.7236328125], [-125.6778, 46.25442, -4455.83642578125], [-125.67517, 46.26257, -4127.91162109375]]], [[[-125.66597, 46.25483, -3958.105224609375], [-125.66882, 46.2471, -4356.6201171875], [-125.65756, 46.2482, -3863.919921875], [-125.66597, 46.25483, -3958.105224609375]]], [[[-125.66445, 46.2389, -4356.6201171875], [-125.65756, 46.2482, -3863.919921875], [-125.66882, 46.2471, -4356.6201171875], [-125.66445, 46.2389, -4356.6201171875]]], [[[-125.66445, 46.2389, -4356.6201171875], [-125.65319, 46.24001, -3863.919921875], [-125.65756, 46.2482, -3863.919921875], [-125.66445, 46.2389, -4356.6201171875]]], [[[-125.64225, 46.2411, -3345.27978515625], [-125.64662, 46.24929, -3345.27978515625], [-125.65319, 46.24001, -3863.919921875], [-125.64225, 46.2411, -3345.27978515625]]], [[[-125.64225, 46.2411, -3345.27978515625], [-125.63653, 46.25033, -2740.98291015625], [-125.64662, 46.24929, -3345.27978515625], [-125.64225, 46.2411, -3345.27978515625]]], [[[-125.64225, 46.2411, -3345.27978515625], [-125.63216, 46.24213, -2740.98291015625], [-125.63653, 46.25033, -2740.98291015625], [-125.64225, 46.2411, -3345.27978515625]]], [[[-125.68881, 46.25272, -4966.57861328125], [-125.69127, 46.24487, -5327.490234375], [-125.67986, 46.24601, -4851.0400390625], [-125.68881, 46.25272, -4966.57861328125]]], [[[-125.65959, 46.26825, -3290.75634765625], [-125.64937, 46.26634, -2776.5732421875], [-125.65509, 46.27525, -2813.803955078125], [-125.65959, 46.26825, -3290.75634765625]]], [[[-125.6597, 46.29429, -2547.5703125], [-125.64952, 46.29766, -2145.8798828125], [-125.65803, 46.30443, -2145.8798828125], [-125.6597, 46.29429, -2547.5703125]]], [[[-125.67632, 46.28438, -3671.898681640625], [-125.6653, 46.27926, -3304.010986328125], [-125.66932, 46.28965, -3189.62841796875], [-125.67632, 46.28438, -3671.898681640625]]], [[[-125.76155, 46.41036, -2686.96142578125], [-125.75054, 46.40988, -2145.8798828125], [-125.75751, 46.41745, -2145.8798828125], [-125.76155, 46.41036, -2686.96142578125]]], [[[-125.76155, 46.41036, -2686.96142578125], [-125.75751, 46.41745, -2145.8798828125], [-125.76795, 46.4179, -2656.947021484375], [-125.76155, 46.41036, -2686.96142578125]]], [[[-125.76795, 46.4179, -2656.947021484375], [-125.75751, 46.41745, -2145.8798828125], [-125.76456, 46.42501, -2145.8798828125], [-125.76795, 46.4179, -2656.947021484375]]], [[[-125.77219, 46.43229, -2145.8798828125], [-125.77522, 46.42506, -2681.013916015625], [-125.76456, 46.42501, -2145.8798828125], [-125.77219, 46.43229, -2145.8798828125]]], [[[-125.68299, 46.22813, -5327.490234375], [-125.68982, 46.22403, -5575.06201171875], [-125.67685, 46.21623, -5327.490234375], [-125.68299, 46.22813, -5327.490234375]]], [[[-125.67685, 46.21623, -5327.490234375], [-125.68982, 46.22403, -5575.06201171875], [-125.68573, 46.21537, -5587.79736328125], [-125.67685, 46.21623, -5327.490234375]]], [[[-125.63836, 46.23255, -3345.27978515625], [-125.63222, 46.22065, -3345.27978515625], [-125.62827, 46.23358, -2740.98291015625], [-125.63836, 46.23255, -3345.27978515625]]], [[[-125.62827, 46.23358, -2740.98291015625], [-125.62214, 46.22168, -2740.98291015625], [-125.61796, 46.23451, -2145.8798828125], [-125.62827, 46.23358, -2740.98291015625]]], [[[-125.826, 46.42696, -4851.0400390625], [-125.83602, 46.42595, -5268.662109375], [-125.82886, 46.41831, -5282.552734375], [-125.826, 46.42696, -4851.0400390625]]], [[[-125.81757, 46.4195, -4806.873046875], [-125.826, 46.42696, -4851.0400390625], [-125.82886, 46.41831, -5282.552734375], [-125.81757, 46.4195, -4806.873046875]]]]}}]}