{"type": "FeatureCollection", "features": [{"type": "Feature", "properties": {"name": "AW_WASH_42", "CFM_ID": 307, "region": "Offshore_WAOR", "primary_state/province": "WA", "secondary_state/province": "OR", "avg_dip": 47.0, "dip_dir": "NE", "rake": 90, "slip_sense": "Reverse", "fault_level": 2, "NSHM23_sliprates": null, "QFFDAgeCatBin": null, "QFFDAgeBin": null, "upper_depth": -2.6, "upper_depth_constraint": "seismic imaging", "lower_depth": -7.5, "lower_depth_constraint": "megathrust", "3D_model_constraints": "trace and 1 MCS line", "reference": "Ledeczi et al. (2024); Carbotte et al. (2023)", "nshm23_id": null, "lineage": null, "usgs_qffd_#": null, "comments": null, "id": "307"}, "geometry": {"type": "MultiPolygon", "coordinates": [[[[-125.23794, 46.25617, -7288.955078125], [-125.24604, 46.26014, -6656.86572265625], [-125.23911, 46.26506, -7290.35888671875], [-125.23794, 46.25617, -7288.955078125]]], [[[-125.30122, 46.3041, -2597.35009765625], [-125.29425, 46.29789, -3113.83349609375], [-125.29997, 46.29542, -2597.35009765625], [-125.30122, 46.3041, -2597.35009765625]]], [[[-125.2356, 46.22416, -6625.45849609375], [-125.23134, 46.23181, -7335.99609375], [-125.22594, 46.22376, -7372.41650390625], [-125.2356, 46.22416, -6625.45849609375]]], [[[-125.30122, 46.3041, -2597.35009765625], [-125.29201, 46.30499, -3403.835693359375], [-125.29425, 46.29789, -3113.83349609375], [-125.30122, 46.3041, -2597.35009765625]]], [[[-125.25023, 46.23604, -5978.48095703125], [-125.24047, 46.23364, -6664.72705078125], [-125.24514, 46.22792, -6078.376953125], [-125.25023, 46.23604, -5978.48095703125]]], [[[-125.28667, 46.2978, -3854.180908203125], [-125.29425, 46.29789, -3113.83349609375], [-125.29201, 46.30499, -3403.835693359375], [-125.28667, 46.2978, -3854.180908203125]]], [[[-125.24709, 46.26923, -6664.39794921875], [-125.24, 46.27397, -7304.72705078125], [-125.23911, 46.26506, -7290.35888671875], [-125.24709, 46.26923, -6664.39794921875]]], [[[-125.26675, 46.29922, -5417.1123046875], [-125.26354, 46.30771, -5745.33349609375], [-125.25741, 46.3006, -6148.7626953125], [-125.26675, 46.29922, -5417.1123046875]]], [[[-125.24709, 46.26923, -6664.39794921875], [-125.24798, 46.27812, -6678.193359375], [-125.24, 46.27397, -7304.72705078125], [-125.24709, 46.26923, -6664.39794921875]]], [[[-125.29425, 46.29789, -3113.83349609375], [-125.28667, 46.2978, -3854.180908203125], [-125.291, 46.29105, -3306.035400390625], [-125.29425, 46.29789, -3113.83349609375]]], [[[-125.24324, 46.24237, -6646.48193359375], [-125.23631, 46.24731, -7295.89599609375], [-125.23473, 46.23916, -7307.82177734375], [-125.24324, 46.24237, -6646.48193359375]]], [[[-125.24903, 46.28691, -6683.5791015625], [-125.24199, 46.29177, -7324.4970703125], [-125.24091, 46.28288, -7317.85595703125], [-125.24903, 46.28691, -6683.5791015625]]], [[[-125.29425, 46.29789, -3113.83349609375], [-125.291, 46.29105, -3306.035400390625], [-125.29997, 46.29542, -2597.35009765625], [-125.29425, 46.29789, -3113.83349609375]]], [[[-125.291, 46.29105, -3306.035400390625], [-125.29872, 46.28673, -2597.35009765625], [-125.29997, 46.29542, -2597.35009765625], [-125.291, 46.29105, -3306.035400390625]]], [[[-125.24047, 46.23364, -6664.72705078125], [-125.23473, 46.23916, -7307.82177734375], [-125.23134, 46.23181, -7335.99609375], [-125.24047, 46.23364, -6664.72705078125]]], [[[-125.28993, 46.28326, -3306.349853515625], [-125.29872, 46.28673, -2597.35009765625], [-125.291, 46.29105, -3306.035400390625], [-125.28993, 46.28326, -3306.349853515625]]], [[[-125.25863, 46.23246, -5264.39794921875], [-125.25023, 46.23604, -5978.48095703125], [-125.25388, 46.22602, -5359.2783203125], [-125.25863, 46.23246, -5264.39794921875]]], [[[-125.28993, 46.28326, -3306.349853515625], [-125.29757, 46.27804, -2597.35009765625], [-125.29872, 46.28673, -2597.35009765625], [-125.28993, 46.28326, -3306.349853515625]]], [[[-125.28954, 46.27413, -3240.488525390625], [-125.29757, 46.27804, -2597.35009765625], [-125.28993, 46.28326, -3306.349853515625], [-125.28954, 46.27413, -3240.488525390625]]], [[[-125.25865, 46.29153, -5948.169921875], [-125.26675, 46.29922, -5417.1123046875], [-125.25741, 46.3006, -6148.7626953125], [-125.25865, 46.29153, -5948.169921875]]], [[[-125.25026, 46.29505, -6673.24755859375], [-125.24941, 46.30228, -6830.84765625], [-125.24324, 46.30066, -7326.048828125], [-125.25026, 46.29505, -6673.24755859375]]], [[[-125.28954, 46.27413, -3240.488525390625], [-125.29651, 46.26934, -2597.35009765625], [-125.29757, 46.27804, -2597.35009765625], [-125.28954, 46.27413, -3240.488525390625]]], [[[-125.22829, 46.21565, -6676.97216796875], [-125.22044, 46.20792, -6771.71630859375], [-125.2288, 46.20712, -6073.4345703125], [-125.22829, 46.21565, -6676.97216796875]]], [[[-125.28954, 46.27413, -3240.488525390625], [-125.28849, 46.26543, -3240.6572265625], [-125.29651, 46.26934, -2597.35009765625], [-125.28954, 46.27413, -3240.488525390625]]], [[[-125.28211, 46.27022, -3948.502685546875], [-125.28849, 46.26543, -3240.6572265625], [-125.28954, 46.27413, -3240.488525390625], [-125.28211, 46.27022, -3948.502685546875]]], [[[-125.24442, 46.22082, -5770.80322265625], [-125.23662, 46.21462, -5971.67919921875], [-125.24557, 46.21315, -5271.57763671875], [-125.24442, 46.22082, -5770.80322265625]]], [[[-125.28211, 46.27022, -3948.502685546875], [-125.28123, 46.26151, -3931.495361328125], [-125.28849, 46.26543, -3240.6572265625], [-125.28211, 46.27022, -3948.502685546875]]], [[[-125.25935, 46.24045, -5363.12060546875], [-125.26075, 46.24911, -5371.3173828125], [-125.25166, 46.24587, -6010.2607421875], [-125.25935, 46.24045, -5363.12060546875]]], [[[-125.27762, 46.29859, -4672.224609375], [-125.28667, 46.2978, -3854.180908203125], [-125.28361, 46.30579, -4261.39599609375], [-125.27762, 46.29859, -4672.224609375]]], [[[-125.27323, 46.26588, -4683.0927734375], [-125.28123, 46.26151, -3931.495361328125], [-125.28211, 46.27022, -3948.502685546875], [-125.27323, 46.26588, -4683.0927734375]]], [[[-125.27468, 46.28309, -4737.26318359375], [-125.27115, 46.29154, -5066.09423828125], [-125.26476, 46.28585, -5424.43408203125], [-125.27468, 46.28309, -4737.26318359375]]], [[[-125.25865, 46.29153, -5948.169921875], [-125.26476, 46.28585, -5424.43408203125], [-125.27115, 46.29154, -5066.09423828125], [-125.25865, 46.29153, -5948.169921875]]], [[[-125.27323, 46.26588, -4683.0927734375], [-125.27303, 46.25786, -4614.87890625], [-125.28123, 46.26151, -3931.495361328125], [-125.27323, 46.26588, -4683.0927734375]]], [[[-125.27323, 46.26588, -4683.0927734375], [-125.26243, 46.26002, -5369.5986328125], [-125.27303, 46.25786, -4614.87890625], [-125.27323, 46.26588, -4683.0927734375]]], [[[-125.27323, 46.26588, -4683.0927734375], [-125.26368, 46.26886, -5359.703125], [-125.26243, 46.26002, -5369.5986328125], [-125.27323, 46.26588, -4683.0927734375]]], [[[-125.28204, 46.2896, -4198.6787109375], [-125.291, 46.29105, -3306.035400390625], [-125.28667, 46.2978, -3854.180908203125], [-125.28204, 46.2896, -4198.6787109375]]], [[[-125.27323, 46.26588, -4683.0927734375], [-125.27425, 46.27445, -4683.4970703125], [-125.26368, 46.26886, -5359.703125], [-125.27323, 46.26588, -4683.0927734375]]], [[[-125.22044, 46.20792, -6771.71630859375], [-125.22829, 46.21565, -6676.97216796875], [-125.21923, 46.21617, -7420.796875], [-125.22044, 46.20792, -6771.71630859375]]], [[[-125.26453, 46.27754, -5371.474609375], [-125.25611, 46.28218, -6050.52587890625], [-125.25512, 46.27338, -6044.93701171875], [-125.26453, 46.27754, -5371.474609375]]], [[[-125.27323, 46.26588, -4683.0927734375], [-125.28211, 46.27022, -3948.502685546875], [-125.27425, 46.27445, -4683.4970703125], [-125.27323, 46.26588, -4683.0927734375]]], [[[-125.27425, 46.27445, -4683.4970703125], [-125.28211, 46.27022, -3948.502685546875], [-125.28287, 46.27944, -3985.409423828125], [-125.27425, 46.27445, -4683.4970703125]]], [[[-125.27425, 46.27445, -4683.4970703125], [-125.28287, 46.27944, -3985.409423828125], [-125.27468, 46.28309, -4737.26318359375], [-125.27425, 46.27445, -4683.4970703125]]], [[[-125.26453, 46.27754, -5371.474609375], [-125.27425, 46.27445, -4683.4970703125], [-125.27468, 46.28309, -4737.26318359375], [-125.26453, 46.27754, -5371.474609375]]], [[[-125.25611, 46.28218, -6050.52587890625], [-125.24798, 46.27812, -6678.193359375], [-125.25512, 46.27338, -6044.93701171875], [-125.25611, 46.28218, -6050.52587890625]]], [[[-125.26453, 46.27754, -5371.474609375], [-125.26368, 46.26886, -5359.703125], [-125.27425, 46.27445, -4683.4970703125], [-125.26453, 46.27754, -5371.474609375]]], [[[-125.26836, 46.23441, -4671.99560546875], [-125.27373, 46.22868, -3995.518798828125], [-125.27694, 46.23664, -3964.221435546875], [-125.26836, 46.23441, -4671.99560546875]]], [[[-125.26368, 46.26886, -5359.703125], [-125.26453, 46.27754, -5371.474609375], [-125.25512, 46.27338, -6044.93701171875], [-125.26368, 46.26886, -5359.703125]]], [[[-125.25423, 46.2643, -6029.35498046875], [-125.26368, 46.26886, -5359.703125], [-125.25512, 46.27338, -6044.93701171875], [-125.25423, 46.2643, -6029.35498046875]]], [[[-125.26476, 46.28585, -5424.43408203125], [-125.25865, 46.29153, -5948.169921875], [-125.25611, 46.28218, -6050.52587890625], [-125.26476, 46.28585, -5424.43408203125]]], [[[-125.26368, 46.26886, -5359.703125], [-125.25423, 46.2643, -6029.35498046875], [-125.26243, 46.26002, -5369.5986328125], [-125.26368, 46.26886, -5359.703125]]], [[[-125.25318, 46.25502, -6015.2158203125], [-125.26243, 46.26002, -5369.5986328125], [-125.25423, 46.2643, -6029.35498046875], [-125.25318, 46.25502, -6015.2158203125]]], [[[-125.26075, 46.24911, -5371.3173828125], [-125.26243, 46.26002, -5369.5986328125], [-125.25318, 46.25502, -6015.2158203125], [-125.26075, 46.24911, -5371.3173828125]]], [[[-125.26555, 46.25415, -5120.0341796875], [-125.26243, 46.26002, -5369.5986328125], [-125.26075, 46.24911, -5371.3173828125], [-125.26555, 46.25415, -5120.0341796875]]], [[[-125.27115, 46.29154, -5066.09423828125], [-125.28204, 46.2896, -4198.6787109375], [-125.27762, 46.29859, -4672.224609375], [-125.27115, 46.29154, -5066.09423828125]]], [[[-125.26555, 46.25415, -5120.0341796875], [-125.27303, 46.25786, -4614.87890625], [-125.26243, 46.26002, -5369.5986328125], [-125.26555, 46.25415, -5120.0341796875]]], [[[-125.26555, 46.25415, -5120.0341796875], [-125.27175, 46.24934, -4614.94384765625], [-125.27303, 46.25786, -4614.87890625], [-125.26555, 46.25415, -5120.0341796875]]], [[[-125.27762, 46.29859, -4672.224609375], [-125.28204, 46.2896, -4198.6787109375], [-125.28667, 46.2978, -3854.180908203125], [-125.27762, 46.29859, -4672.224609375]]], [[[-125.26555, 46.25415, -5120.0341796875], [-125.26075, 46.24911, -5371.3173828125], [-125.27175, 46.24934, -4614.94384765625], [-125.26555, 46.25415, -5120.0341796875]]], [[[-125.27762, 46.29859, -4672.224609375], [-125.2739, 46.30672, -5029.69970703125], [-125.26675, 46.29922, -5417.1123046875], [-125.27762, 46.29859, -4672.224609375]]], [[[-125.26958, 46.24205, -4687.990234375], [-125.27175, 46.24934, -4614.94384765625], [-125.26075, 46.24911, -5371.3173828125], [-125.26958, 46.24205, -4687.990234375]]], [[[-125.26075, 46.24911, -5371.3173828125], [-125.25318, 46.25502, -6015.2158203125], [-125.25166, 46.24587, -6010.2607421875], [-125.26075, 46.24911, -5371.3173828125]]], [[[-125.26836, 46.23441, -4671.99560546875], [-125.26958, 46.24205, -4687.990234375], [-125.25935, 46.24045, -5363.12060546875], [-125.26836, 46.23441, -4671.99560546875]]], [[[-125.26958, 46.24205, -4687.990234375], [-125.27864, 46.24448, -3930.8330078125], [-125.27175, 46.24934, -4614.94384765625], [-125.26958, 46.24205, -4687.990234375]]], [[[-125.27864, 46.24448, -3930.8330078125], [-125.26958, 46.24205, -4687.990234375], [-125.27694, 46.23664, -3964.221435546875], [-125.27864, 46.24448, -3930.8330078125]]], [[[-125.27468, 46.28309, -4737.26318359375], [-125.28287, 46.27944, -3985.409423828125], [-125.28204, 46.2896, -4198.6787109375], [-125.27468, 46.28309, -4737.26318359375]]], [[[-125.27864, 46.24448, -3930.8330078125], [-125.27694, 46.23664, -3964.221435546875], [-125.28461, 46.23959, -3240.25048828125], [-125.27864, 46.24448, -3930.8330078125]]], [[[-125.27864, 46.24448, -3930.8330078125], [-125.28461, 46.23959, -3240.25048828125], [-125.28612, 46.24823, -3241.53662109375], [-125.27864, 46.24448, -3930.8330078125]]], [[[-125.2555, 46.21959, -4996.0869140625], [-125.25552, 46.21253, -4576.5068359375], [-125.26706, 46.21977, -4126.96337890625], [-125.2555, 46.21959, -4996.0869140625]]], [[[-125.28, 46.253, -3941.35986328125], [-125.27864, 46.24448, -3930.8330078125], [-125.28612, 46.24823, -3241.53662109375], [-125.28, 46.253, -3941.35986328125]]], [[[-125.27175, 46.24934, -4614.94384765625], [-125.27864, 46.24448, -3930.8330078125], [-125.28, 46.253, -3941.35986328125], [-125.27175, 46.24934, -4614.94384765625]]], [[[-125.27303, 46.25786, -4614.87890625], [-125.27175, 46.24934, -4614.94384765625], [-125.28, 46.253, -3941.35986328125], [-125.27303, 46.25786, -4614.87890625]]], [[[-125.27303, 46.25786, -4614.87890625], [-125.28, 46.253, -3941.35986328125], [-125.28123, 46.26151, -3931.495361328125], [-125.27303, 46.25786, -4614.87890625]]], [[[-125.28, 46.253, -3941.35986328125], [-125.2874, 46.25678, -3240.88671875], [-125.28123, 46.26151, -3931.495361328125], [-125.28, 46.253, -3941.35986328125]]], [[[-125.28204, 46.2896, -4198.6787109375], [-125.28993, 46.28326, -3306.349853515625], [-125.291, 46.29105, -3306.035400390625], [-125.28204, 46.2896, -4198.6787109375]]], [[[-125.28, 46.253, -3941.35986328125], [-125.28612, 46.24823, -3241.53662109375], [-125.2874, 46.25678, -3240.88671875], [-125.28, 46.253, -3941.35986328125]]], [[[-125.2874, 46.25678, -3240.88671875], [-125.28612, 46.24823, -3241.53662109375], [-125.29431, 46.25196, -2597.35009765625], [-125.2874, 46.25678, -3240.88671875]]], [[[-125.27115, 46.29154, -5066.09423828125], [-125.26675, 46.29922, -5417.1123046875], [-125.25865, 46.29153, -5948.169921875], [-125.27115, 46.29154, -5066.09423828125]]], [[[-125.2874, 46.25678, -3240.88671875], [-125.29431, 46.25196, -2597.35009765625], [-125.29547, 46.26065, -2597.35009765625], [-125.2874, 46.25678, -3240.88671875]]], [[[-125.27468, 46.28309, -4737.26318359375], [-125.28204, 46.2896, -4198.6787109375], [-125.27115, 46.29154, -5066.09423828125], [-125.27468, 46.28309, -4737.26318359375]]], [[[-125.28849, 46.26543, -3240.6572265625], [-125.2874, 46.25678, -3240.88671875], [-125.29547, 46.26065, -2597.35009765625], [-125.28849, 46.26543, -3240.6572265625]]], [[[-125.28123, 46.26151, -3931.495361328125], [-125.2874, 46.25678, -3240.88671875], [-125.28849, 46.26543, -3240.6572265625], [-125.28123, 46.26151, -3931.495361328125]]], [[[-125.21215, 46.20872, -7474.59912109375], [-125.22044, 46.20792, -6771.71630859375], [-125.21923, 46.21617, -7420.796875], [-125.21215, 46.20872, -7474.59912109375]]], [[[-125.26836, 46.23441, -4671.99560546875], [-125.25935, 46.24045, -5363.12060546875], [-125.25863, 46.23246, -5264.39794921875], [-125.26836, 46.23441, -4671.99560546875]]], [[[-125.28849, 46.26543, -3240.6572265625], [-125.29547, 46.26065, -2597.35009765625], [-125.29651, 46.26934, -2597.35009765625], [-125.28849, 46.26543, -3240.6572265625]]], [[[-125.26836, 46.23441, -4671.99560546875], [-125.27694, 46.23664, -3964.221435546875], [-125.26958, 46.24205, -4687.990234375], [-125.26836, 46.23441, -4671.99560546875]]], [[[-125.29284, 46.24329, -2597.35009765625], [-125.29431, 46.25196, -2597.35009765625], [-125.28612, 46.24823, -3241.53662109375], [-125.29284, 46.24329, -2597.35009765625]]], [[[-125.28461, 46.23959, -3240.25048828125], [-125.29284, 46.24329, -2597.35009765625], [-125.28612, 46.24823, -3241.53662109375], [-125.28461, 46.23959, -3240.25048828125]]], [[[-125.28461, 46.23959, -3240.25048828125], [-125.29131, 46.23463, -2597.35009765625], [-125.29284, 46.24329, -2597.35009765625], [-125.28461, 46.23959, -3240.25048828125]]], [[[-125.28264, 46.23176, -3254.3896484375], [-125.29131, 46.23463, -2597.35009765625], [-125.28461, 46.23959, -3240.25048828125], [-125.28264, 46.23176, -3254.3896484375]]], [[[-125.25935, 46.24045, -5363.12060546875], [-125.25166, 46.24587, -6010.2607421875], [-125.25023, 46.23604, -5978.48095703125], [-125.25935, 46.24045, -5363.12060546875]]], [[[-125.28264, 46.23176, -3254.3896484375], [-125.28803, 46.22623, -2597.35009765625], [-125.29131, 46.23463, -2597.35009765625], [-125.28264, 46.23176, -3254.3896484375]]], [[[-125.27806, 46.22382, -3310.89013671875], [-125.28803, 46.22623, -2597.35009765625], [-125.28264, 46.23176, -3254.3896484375], [-125.27806, 46.22382, -3310.89013671875]]], [[[-125.27806, 46.22382, -3310.89013671875], [-125.28307, 46.21823, -2597.35009765625], [-125.28803, 46.22623, -2597.35009765625], [-125.27806, 46.22382, -3310.89013671875]]], [[[-125.27806, 46.22382, -3310.89013671875], [-125.27346, 46.21664, -3288.938232421875], [-125.28307, 46.21823, -2597.35009765625], [-125.27806, 46.22382, -3310.89013671875]]], [[[-125.26706, 46.21977, -4126.96337890625], [-125.27346, 46.21664, -3288.938232421875], [-125.27806, 46.22382, -3310.89013671875], [-125.26706, 46.21977, -4126.96337890625]]], [[[-125.26706, 46.21977, -4126.96337890625], [-125.26309, 46.21156, -3866.5859375], [-125.27346, 46.21664, -3288.938232421875], [-125.26706, 46.21977, -4126.96337890625]]], [[[-125.26309, 46.21156, -3866.5859375], [-125.26706, 46.21977, -4126.96337890625], [-125.25552, 46.21253, -4576.5068359375], [-125.26309, 46.21156, -3866.5859375]]], [[[-125.26465, 46.22648, -4674.89501953125], [-125.25388, 46.22602, -5359.2783203125], [-125.2555, 46.21959, -4996.0869140625], [-125.26465, 46.22648, -4674.89501953125]]], [[[-125.26309, 46.21156, -3866.5859375], [-125.25552, 46.21253, -4576.5068359375], [-125.25501, 46.20461, -4073.148193359375], [-125.26309, 46.21156, -3866.5859375]]], [[[-125.26309, 46.21156, -3866.5859375], [-125.25501, 46.20461, -4073.148193359375], [-125.2623, 46.20391, -3306.02978515625], [-125.26309, 46.21156, -3866.5859375]]], [[[-125.26309, 46.21156, -3866.5859375], [-125.2623, 46.20391, -3306.02978515625], [-125.26861, 46.20958, -3191.63134765625], [-125.26309, 46.21156, -3866.5859375]]], [[[-125.26861, 46.20958, -3191.63134765625], [-125.27346, 46.21664, -3288.938232421875], [-125.26309, 46.21156, -3866.5859375], [-125.26861, 46.20958, -3191.63134765625]]], [[[-125.27346, 46.21664, -3288.938232421875], [-125.26861, 46.20958, -3191.63134765625], [-125.27695, 46.21061, -2597.35009765625], [-125.27346, 46.21664, -3288.938232421875]]], [[[-125.27346, 46.21664, -3288.938232421875], [-125.27695, 46.21061, -2597.35009765625], [-125.28307, 46.21823, -2597.35009765625], [-125.27346, 46.21664, -3288.938232421875]]], [[[-125.26861, 46.20958, -3191.63134765625], [-125.27051, 46.20312, -2597.35009765625], [-125.27695, 46.21061, -2597.35009765625], [-125.26861, 46.20958, -3191.63134765625]]], [[[-125.26861, 46.20958, -3191.63134765625], [-125.2623, 46.20391, -3306.02978515625], [-125.27051, 46.20312, -2597.35009765625], [-125.26861, 46.20958, -3191.63134765625]]], [[[-125.25863, 46.23246, -5264.39794921875], [-125.26465, 46.22648, -4674.89501953125], [-125.26836, 46.23441, -4671.99560546875], [-125.25863, 46.23246, -5264.39794921875]]], [[[-125.26675, 46.29922, -5417.1123046875], [-125.2739, 46.30672, -5029.69970703125], [-125.26354, 46.30771, -5745.33349609375], [-125.26675, 46.29922, -5417.1123046875]]], [[[-125.25552, 46.21253, -4576.5068359375], [-125.24678, 46.20539, -4779.7646484375], [-125.25501, 46.20461, -4073.148193359375], [-125.25552, 46.21253, -4576.5068359375]]], [[[-125.26958, 46.24205, -4687.990234375], [-125.26075, 46.24911, -5371.3173828125], [-125.25935, 46.24045, -5363.12060546875], [-125.26958, 46.24205, -4687.990234375]]], [[[-125.25552, 46.21253, -4576.5068359375], [-125.24557, 46.21315, -5271.57763671875], [-125.24678, 46.20539, -4779.7646484375], [-125.25552, 46.21253, -4576.5068359375]]], [[[-125.2555, 46.21959, -4996.0869140625], [-125.24557, 46.21315, -5271.57763671875], [-125.25552, 46.21253, -4576.5068359375], [-125.2555, 46.21959, -4996.0869140625]]], [[[-125.26465, 46.22648, -4674.89501953125], [-125.27373, 46.22868, -3995.518798828125], [-125.26836, 46.23441, -4671.99560546875], [-125.26465, 46.22648, -4674.89501953125]]], [[[-125.2555, 46.21959, -4996.0869140625], [-125.24442, 46.22082, -5770.80322265625], [-125.24557, 46.21315, -5271.57763671875], [-125.2555, 46.21959, -4996.0869140625]]], [[[-125.25388, 46.22602, -5359.2783203125], [-125.24442, 46.22082, -5770.80322265625], [-125.2555, 46.21959, -4996.0869140625], [-125.25388, 46.22602, -5359.2783203125]]], [[[-125.24442, 46.22082, -5770.80322265625], [-125.25388, 46.22602, -5359.2783203125], [-125.24514, 46.22792, -6078.376953125], [-125.24442, 46.22082, -5770.80322265625]]], [[[-125.24514, 46.22792, -6078.376953125], [-125.2356, 46.22416, -6625.45849609375], [-125.24442, 46.22082, -5770.80322265625], [-125.24514, 46.22792, -6078.376953125]]], [[[-125.27373, 46.22868, -3995.518798828125], [-125.26706, 46.21977, -4126.96337890625], [-125.27806, 46.22382, -3310.89013671875], [-125.27373, 46.22868, -3995.518798828125]]], [[[-125.2356, 46.22416, -6625.45849609375], [-125.24514, 46.22792, -6078.376953125], [-125.24047, 46.23364, -6664.72705078125], [-125.2356, 46.22416, -6625.45849609375]]], [[[-125.2356, 46.22416, -6625.45849609375], [-125.24047, 46.23364, -6664.72705078125], [-125.23134, 46.23181, -7335.99609375], [-125.2356, 46.22416, -6625.45849609375]]], [[[-125.22829, 46.21565, -6676.97216796875], [-125.2356, 46.22416, -6625.45849609375], [-125.22594, 46.22376, -7372.41650390625], [-125.22829, 46.21565, -6676.97216796875]]], [[[-125.22829, 46.21565, -6676.97216796875], [-125.23662, 46.21462, -5971.67919921875], [-125.2356, 46.22416, -6625.45849609375], [-125.22829, 46.21565, -6676.97216796875]]], [[[-125.22829, 46.21565, -6676.97216796875], [-125.2288, 46.20712, -6073.4345703125], [-125.23662, 46.21462, -5971.67919921875], [-125.22829, 46.21565, -6676.97216796875]]], [[[-125.22829, 46.21565, -6676.97216796875], [-125.22594, 46.22376, -7372.41650390625], [-125.21923, 46.21617, -7420.796875], [-125.22829, 46.21565, -6676.97216796875]]], [[[-125.28667, 46.2978, -3854.180908203125], [-125.29201, 46.30499, -3403.835693359375], [-125.28361, 46.30579, -4261.39599609375], [-125.28667, 46.2978, -3854.180908203125]]], [[[-125.23662, 46.21462, -5971.67919921875], [-125.2288, 46.20712, -6073.4345703125], [-125.23749, 46.20628, -5401.6376953125], [-125.23662, 46.21462, -5971.67919921875]]], [[[-125.23662, 46.21462, -5971.67919921875], [-125.23749, 46.20628, -5401.6376953125], [-125.24557, 46.21315, -5271.57763671875], [-125.23662, 46.21462, -5971.67919921875]]], [[[-125.24442, 46.22082, -5770.80322265625], [-125.2356, 46.22416, -6625.45849609375], [-125.23662, 46.21462, -5971.67919921875], [-125.24442, 46.22082, -5770.80322265625]]], [[[-125.24557, 46.21315, -5271.57763671875], [-125.23749, 46.20628, -5401.6376953125], [-125.24678, 46.20539, -4779.7646484375], [-125.24557, 46.21315, -5271.57763671875]]], [[[-125.24047, 46.23364, -6664.72705078125], [-125.24324, 46.24237, -6646.48193359375], [-125.23473, 46.23916, -7307.82177734375], [-125.24047, 46.23364, -6664.72705078125]]], [[[-125.25023, 46.23604, -5978.48095703125], [-125.24324, 46.24237, -6646.48193359375], [-125.24047, 46.23364, -6664.72705078125], [-125.25023, 46.23604, -5978.48095703125]]], [[[-125.25166, 46.24587, -6010.2607421875], [-125.24324, 46.24237, -6646.48193359375], [-125.25023, 46.23604, -5978.48095703125], [-125.25166, 46.24587, -6010.2607421875]]], [[[-125.27694, 46.23664, -3964.221435546875], [-125.28264, 46.23176, -3254.3896484375], [-125.28461, 46.23959, -3240.25048828125], [-125.27694, 46.23664, -3964.221435546875]]], [[[-125.25166, 46.24587, -6010.2607421875], [-125.24461, 46.25104, -6660.01220703125], [-125.24324, 46.24237, -6646.48193359375], [-125.25166, 46.24587, -6010.2607421875]]], [[[-125.25318, 46.25502, -6015.2158203125], [-125.24461, 46.25104, -6660.01220703125], [-125.25166, 46.24587, -6010.2607421875], [-125.25318, 46.25502, -6015.2158203125]]], [[[-125.25318, 46.25502, -6015.2158203125], [-125.24604, 46.26014, -6656.86572265625], [-125.24461, 46.25104, -6660.01220703125], [-125.25318, 46.25502, -6015.2158203125]]], [[[-125.25318, 46.25502, -6015.2158203125], [-125.25423, 46.2643, -6029.35498046875], [-125.24604, 46.26014, -6656.86572265625], [-125.25318, 46.25502, -6015.2158203125]]], [[[-125.25423, 46.2643, -6029.35498046875], [-125.24709, 46.26923, -6664.39794921875], [-125.24604, 46.26014, -6656.86572265625], [-125.25423, 46.2643, -6029.35498046875]]], [[[-125.24709, 46.26923, -6664.39794921875], [-125.25423, 46.2643, -6029.35498046875], [-125.25512, 46.27338, -6044.93701171875], [-125.24709, 46.26923, -6664.39794921875]]], [[[-125.24709, 46.26923, -6664.39794921875], [-125.25512, 46.27338, -6044.93701171875], [-125.24798, 46.27812, -6678.193359375], [-125.24709, 46.26923, -6664.39794921875]]], [[[-125.24709, 46.26923, -6664.39794921875], [-125.23911, 46.26506, -7290.35888671875], [-125.24604, 46.26014, -6656.86572265625], [-125.24709, 46.26923, -6664.39794921875]]], [[[-125.24461, 46.25104, -6660.01220703125], [-125.24604, 46.26014, -6656.86572265625], [-125.23794, 46.25617, -7288.955078125], [-125.24461, 46.25104, -6660.01220703125]]], [[[-125.24461, 46.25104, -6660.01220703125], [-125.23794, 46.25617, -7288.955078125], [-125.23631, 46.24731, -7295.89599609375], [-125.24461, 46.25104, -6660.01220703125]]], [[[-125.24324, 46.24237, -6646.48193359375], [-125.24461, 46.25104, -6660.01220703125], [-125.23631, 46.24731, -7295.89599609375], [-125.24324, 46.24237, -6646.48193359375]]], [[[-125.24798, 46.27812, -6678.193359375], [-125.24091, 46.28288, -7317.85595703125], [-125.24, 46.27397, -7304.72705078125], [-125.24798, 46.27812, -6678.193359375]]], [[[-125.24798, 46.27812, -6678.193359375], [-125.24903, 46.28691, -6683.5791015625], [-125.24091, 46.28288, -7317.85595703125], [-125.24798, 46.27812, -6678.193359375]]], [[[-125.25611, 46.28218, -6050.52587890625], [-125.24903, 46.28691, -6683.5791015625], [-125.24798, 46.27812, -6678.193359375], [-125.25611, 46.28218, -6050.52587890625]]], [[[-125.25865, 46.29153, -5948.169921875], [-125.24903, 46.28691, -6683.5791015625], [-125.25611, 46.28218, -6050.52587890625], [-125.25865, 46.29153, -5948.169921875]]], [[[-125.28287, 46.27944, -3985.409423828125], [-125.28993, 46.28326, -3306.349853515625], [-125.28204, 46.2896, -4198.6787109375], [-125.28287, 46.27944, -3985.409423828125]]], [[[-125.25865, 46.29153, -5948.169921875], [-125.25026, 46.29505, -6673.24755859375], [-125.24903, 46.28691, -6683.5791015625], [-125.25865, 46.29153, -5948.169921875]]], [[[-125.25026, 46.29505, -6673.24755859375], [-125.25865, 46.29153, -5948.169921875], [-125.25741, 46.3006, -6148.7626953125], [-125.25026, 46.29505, -6673.24755859375]]], [[[-125.25026, 46.29505, -6673.24755859375], [-125.25741, 46.3006, -6148.7626953125], [-125.24941, 46.30228, -6830.84765625], [-125.25026, 46.29505, -6673.24755859375]]], [[[-125.25026, 46.29505, -6673.24755859375], [-125.24324, 46.30066, -7326.048828125], [-125.24199, 46.29177, -7324.4970703125], [-125.25026, 46.29505, -6673.24755859375]]], [[[-125.24903, 46.28691, -6683.5791015625], [-125.25026, 46.29505, -6673.24755859375], [-125.24199, 46.29177, -7324.4970703125], [-125.24903, 46.28691, -6683.5791015625]]], [[[-125.27115, 46.29154, -5066.09423828125], [-125.27762, 46.29859, -4672.224609375], [-125.26675, 46.29922, -5417.1123046875], [-125.27115, 46.29154, -5066.09423828125]]], [[[-125.24458, 46.30954, -7320.67724609375], [-125.24324, 46.30066, -7326.048828125], [-125.24941, 46.30228, -6830.84765625], [-125.24458, 46.30954, -7320.67724609375]]], [[[-125.24458, 46.30954, -7320.67724609375], [-125.24941, 46.30228, -6830.84765625], [-125.25397, 46.30864, -6526.609375], [-125.24458, 46.30954, -7320.67724609375]]], [[[-125.24941, 46.30228, -6830.84765625], [-125.25741, 46.3006, -6148.7626953125], [-125.25397, 46.30864, -6526.609375], [-125.24941, 46.30228, -6830.84765625]]], [[[-125.25397, 46.30864, -6526.609375], [-125.25741, 46.3006, -6148.7626953125], [-125.26354, 46.30771, -5745.33349609375], [-125.25397, 46.30864, -6526.609375]]], [[[-125.27762, 46.29859, -4672.224609375], [-125.28361, 46.30579, -4261.39599609375], [-125.2739, 46.30672, -5029.69970703125], [-125.27762, 46.29859, -4672.224609375]]], [[[-125.26453, 46.27754, -5371.474609375], [-125.26476, 46.28585, -5424.43408203125], [-125.25611, 46.28218, -6050.52587890625], [-125.26453, 46.27754, -5371.474609375]]], [[[-125.28287, 46.27944, -3985.409423828125], [-125.28954, 46.27413, -3240.488525390625], [-125.28993, 46.28326, -3306.349853515625], [-125.28287, 46.27944, -3985.409423828125]]], [[[-125.27373, 46.22868, -3995.518798828125], [-125.27806, 46.22382, -3310.89013671875], [-125.28264, 46.23176, -3254.3896484375], [-125.27373, 46.22868, -3995.518798828125]]], [[[-125.28287, 46.27944, -3985.409423828125], [-125.28211, 46.27022, -3948.502685546875], [-125.28954, 46.27413, -3240.488525390625], [-125.28287, 46.27944, -3985.409423828125]]], [[[-125.26453, 46.27754, -5371.474609375], [-125.27468, 46.28309, -4737.26318359375], [-125.26476, 46.28585, -5424.43408203125], [-125.26453, 46.27754, -5371.474609375]]], [[[-125.26465, 46.22648, -4674.89501953125], [-125.26706, 46.21977, -4126.96337890625], [-125.27373, 46.22868, -3995.518798828125], [-125.26465, 46.22648, -4674.89501953125]]], [[[-125.26465, 46.22648, -4674.89501953125], [-125.2555, 46.21959, -4996.0869140625], [-125.26706, 46.21977, -4126.96337890625], [-125.26465, 46.22648, -4674.89501953125]]], [[[-125.25863, 46.23246, -5264.39794921875], [-125.25388, 46.22602, -5359.2783203125], [-125.26465, 46.22648, -4674.89501953125], [-125.25863, 46.23246, -5264.39794921875]]], [[[-125.25863, 46.23246, -5264.39794921875], [-125.25935, 46.24045, -5363.12060546875], [-125.25023, 46.23604, -5978.48095703125], [-125.25863, 46.23246, -5264.39794921875]]], [[[-125.25023, 46.23604, -5978.48095703125], [-125.24514, 46.22792, -6078.376953125], [-125.25388, 46.22602, -5359.2783203125], [-125.25023, 46.23604, -5978.48095703125]]], [[[-125.27694, 46.23664, -3964.221435546875], [-125.27373, 46.22868, -3995.518798828125], [-125.28264, 46.23176, -3254.3896484375], [-125.27694, 46.23664, -3964.221435546875]]]]}}]}