{"type": "FeatureCollection", "features": [{"type": "Feature", "properties": {"name": "AW_WASH_43", "CFM_ID": 308, "region": "Offshore_WAOR", "primary_state/province": "WA", "secondary_state/province": "OR", "avg_dip": 49, "dip_dir": "NE", "rake": 90, "slip_sense": "Reverse", "fault_level": 2, "NSHM23_sliprates": null, "QFFDAgeCatBin": null, "QFFDAgeBin": null, "upper_depth": -2.3, "upper_depth_constraint": "seismic imaging", "lower_depth": -7.2, "lower_depth_constraint": "soles into AW_WASH_44", "3D_model_constraints": "trace and 1 MCS line", "reference": "Ledeczi et al. (2024); Carbotte et al. (2023)", "nshm23_id": null, "lineage": null, "usgs_qffd_#": null, "comments": "fault depth interpretation from Ledeczi et al. (2024); Carbotte et al. (2023) used to aid in model building", "id": "308"}, "geometry": {"type": "MultiPolygon", "coordinates": [[[[-125.15931, 46.28825, -6066.93115234375], [-125.16381, 46.29749, -5808.7685546875], [-125.15637, 46.29585, -6523.6845703125], [-125.15931, 46.28825, -6066.93115234375]]], [[[-125.15931, 46.28825, -6066.93115234375], [-125.16899, 46.28999, -5302.58544921875], [-125.16381, 46.29749, -5808.7685546875], [-125.15931, 46.28825, -6066.93115234375]]], [[[-125.16486, 46.28113, -5391.17431640625], [-125.16899, 46.28999, -5302.58544921875], [-125.15931, 46.28825, -6066.93115234375], [-125.16486, 46.28113, -5391.17431640625]]], [[[-125.17457, 46.28258, -4622.6796875], [-125.16899, 46.28999, -5302.58544921875], [-125.16486, 46.28113, -5391.17431640625], [-125.17457, 46.28258, -4622.6796875]]], [[[-125.17457, 46.28258, -4622.6796875], [-125.17761, 46.2915, -4603.5927734375], [-125.16899, 46.28999, -5302.58544921875], [-125.17457, 46.28258, -4622.6796875]]], [[[-125.17761, 46.2915, -4603.5927734375], [-125.17457, 46.28258, -4622.6796875], [-125.18456, 46.28449, -3804.463623046875], [-125.17761, 46.2915, -4603.5927734375]]], [[[-125.17761, 46.2915, -4603.5927734375], [-125.18456, 46.28449, -3804.463623046875], [-125.1858, 46.29344, -3830.562744140625], [-125.17761, 46.2915, -4603.5927734375]]], [[[-125.17761, 46.2915, -4603.5927734375], [-125.1858, 46.29344, -3830.562744140625], [-125.17874, 46.30084, -4383.41748046875], [-125.17761, 46.2915, -4603.5927734375]]], [[[-125.17761, 46.2915, -4603.5927734375], [-125.17874, 46.30084, -4383.41748046875], [-125.17126, 46.29913, -5093.85205078125], [-125.17761, 46.2915, -4603.5927734375]]], [[[-125.16899, 46.28999, -5302.58544921875], [-125.17761, 46.2915, -4603.5927734375], [-125.17126, 46.29913, -5093.85205078125], [-125.16899, 46.28999, -5302.58544921875]]], [[[-125.16899, 46.28999, -5302.58544921875], [-125.17126, 46.29913, -5093.85205078125], [-125.16381, 46.29749, -5808.7685546875], [-125.16899, 46.28999, -5302.58544921875]]], [[[-125.1858, 46.29344, -3830.562744140625], [-125.18632, 46.30284, -3689.228271484375], [-125.17874, 46.30084, -4383.41748046875], [-125.1858, 46.29344, -3830.562744140625]]], [[[-125.1858, 46.29344, -3830.562744140625], [-125.19441, 46.29554, -3105.203369140625], [-125.18632, 46.30284, -3689.228271484375], [-125.1858, 46.29344, -3830.562744140625]]], [[[-125.1948, 46.28661, -3062.09912109375], [-125.19441, 46.29554, -3105.203369140625], [-125.1858, 46.29344, -3830.562744140625], [-125.1948, 46.28661, -3062.09912109375]]], [[[-125.15076, 46.27222, -6223.2822265625], [-125.14698, 46.26564, -6213.86962890625], [-125.15595, 46.26676, -5523.16064453125], [-125.15076, 46.27222, -6223.2822265625]]], [[[-125.1948, 46.28661, -3062.09912109375], [-125.20407, 46.28929, -2300.85009765625], [-125.19441, 46.29554, -3105.203369140625], [-125.1948, 46.28661, -3062.09912109375]]], [[[-125.1489, 46.25952, -5710.27685546875], [-125.14698, 46.26564, -6213.86962890625], [-125.14302, 46.2604, -6265.6689453125], [-125.1489, 46.25952, -5710.27685546875]]], [[[-125.1948, 46.28661, -3062.09912109375], [-125.20153, 46.28067, -2300.85009765625], [-125.20407, 46.28929, -2300.85009765625], [-125.1948, 46.28661, -3062.09912109375]]], [[[-125.1668, 46.26639, -4603.32861328125], [-125.16044, 46.27383, -5482.8837890625], [-125.15595, 46.26676, -5523.16064453125], [-125.1668, 46.26639, -4603.32861328125]]], [[[-125.1948, 46.28661, -3062.09912109375], [-125.1922, 46.27803, -3024.5205078125], [-125.20153, 46.28067, -2300.85009765625], [-125.1948, 46.28661, -3062.09912109375]]], [[[-125.1948, 46.28661, -3062.09912109375], [-125.18456, 46.28449, -3804.463623046875], [-125.1922, 46.27803, -3024.5205078125], [-125.1948, 46.28661, -3062.09912109375]]], [[[-125.14773, 46.28543, -7093.58056640625], [-125.15931, 46.28825, -6066.93115234375], [-125.15637, 46.29585, -6523.6845703125], [-125.14773, 46.28543, -7093.58056640625]]], [[[-125.18456, 46.28449, -3804.463623046875], [-125.1948, 46.28661, -3062.09912109375], [-125.1858, 46.29344, -3830.562744140625], [-125.18456, 46.28449, -3804.463623046875]]], [[[-125.18184, 46.27617, -3758.7265625], [-125.1922, 46.27803, -3024.5205078125], [-125.18456, 46.28449, -3804.463623046875], [-125.18184, 46.27617, -3758.7265625]]], [[[-125.18184, 46.27617, -3758.7265625], [-125.18844, 46.27002, -3023.981689453125], [-125.1922, 46.27803, -3024.5205078125], [-125.18184, 46.27617, -3758.7265625]]], [[[-125.18184, 46.27617, -3758.7265625], [-125.17802, 46.26816, -3735.215576171875], [-125.18844, 46.27002, -3023.981689453125], [-125.18184, 46.27617, -3758.7265625]]], [[[-125.18184, 46.27617, -3758.7265625], [-125.17158, 46.27406, -4564.931640625], [-125.17802, 46.26816, -3735.215576171875], [-125.18184, 46.27617, -3758.7265625]]], [[[-125.17158, 46.27406, -4564.931640625], [-125.18184, 46.27617, -3758.7265625], [-125.17457, 46.28258, -4622.6796875], [-125.17158, 46.27406, -4564.931640625]]], [[[-125.17158, 46.27406, -4564.931640625], [-125.17457, 46.28258, -4622.6796875], [-125.16486, 46.28113, -5391.17431640625], [-125.17158, 46.27406, -4564.931640625]]], [[[-125.17158, 46.27406, -4564.931640625], [-125.16486, 46.28113, -5391.17431640625], [-125.16044, 46.27383, -5482.8837890625], [-125.17158, 46.27406, -4564.931640625]]], [[[-125.1144, 46.2115, -6109.09033203125], [-125.11686, 46.22201, -6419.6865234375], [-125.11038, 46.21994, -6922.39111328125], [-125.1144, 46.2115, -6109.09033203125]]], [[[-125.1668, 46.26639, -4603.32861328125], [-125.17158, 46.27406, -4564.931640625], [-125.16044, 46.27383, -5482.8837890625], [-125.1668, 46.26639, -4603.32861328125]]], [[[-125.1668, 46.26639, -4603.32861328125], [-125.17802, 46.26816, -3735.215576171875], [-125.17158, 46.27406, -4564.931640625], [-125.1668, 46.26639, -4603.32861328125]]], [[[-125.1668, 46.26639, -4603.32861328125], [-125.17355, 46.26044, -3714.122314453125], [-125.17802, 46.26816, -3735.215576171875], [-125.1668, 46.26639, -4603.32861328125]]], [[[-125.10724, 46.21215, -6821.13427734375], [-125.1144, 46.2115, -6109.09033203125], [-125.11038, 46.21994, -6922.39111328125], [-125.10724, 46.21215, -6821.13427734375]]], [[[-125.1668, 46.26639, -4603.32861328125], [-125.16461, 46.2584, -4351.93359375], [-125.17355, 46.26044, -3714.122314453125], [-125.1668, 46.26639, -4603.32861328125]]], [[[-125.1569, 46.25865, -5011.33935546875], [-125.16461, 46.2584, -4351.93359375], [-125.1668, 46.26639, -4603.32861328125], [-125.1569, 46.25865, -5011.33935546875]]], [[[-125.1569, 46.25865, -5011.33935546875], [-125.15844, 46.25062, -4444.99755859375], [-125.16461, 46.2584, -4351.93359375], [-125.1569, 46.25865, -5011.33935546875]]], [[[-125.15844, 46.25062, -4444.99755859375], [-125.1569, 46.25865, -5011.33935546875], [-125.14839, 46.25091, -5300.03515625], [-125.15844, 46.25062, -4444.99755859375]]], [[[-125.14839, 46.25091, -5300.03515625], [-125.15227, 46.24295, -4543.8359375], [-125.15844, 46.25062, -4444.99755859375], [-125.14839, 46.25091, -5300.03515625]]], [[[-125.14839, 46.25091, -5300.03515625], [-125.14185, 46.24235, -5377.171875], [-125.15227, 46.24295, -4543.8359375], [-125.14839, 46.25091, -5300.03515625]]], [[[-125.14839, 46.25091, -5300.03515625], [-125.13785, 46.24903, -6054.607421875], [-125.14185, 46.24235, -5377.171875], [-125.14839, 46.25091, -5300.03515625]]], [[[-125.14839, 46.25091, -5300.03515625], [-125.14138, 46.25528, -6105.91650390625], [-125.13785, 46.24903, -6054.607421875], [-125.14839, 46.25091, -5300.03515625]]], [[[-125.14138, 46.25528, -6105.91650390625], [-125.14839, 46.25091, -5300.03515625], [-125.1489, 46.25952, -5710.27685546875], [-125.14138, 46.25528, -6105.91650390625]]], [[[-125.14138, 46.25528, -6105.91650390625], [-125.1489, 46.25952, -5710.27685546875], [-125.14302, 46.2604, -6265.6689453125], [-125.14138, 46.25528, -6105.91650390625]]], [[[-125.14138, 46.25528, -6105.91650390625], [-125.14302, 46.2604, -6265.6689453125], [-125.13784, 46.25889, -6658.9560546875], [-125.14138, 46.25528, -6105.91650390625]]], [[[-125.14138, 46.25528, -6105.91650390625], [-125.13784, 46.25889, -6658.9560546875], [-125.13421, 46.25408, -6706.0361328125], [-125.14138, 46.25528, -6105.91650390625]]], [[[-125.14138, 46.25528, -6105.91650390625], [-125.13421, 46.25408, -6706.0361328125], [-125.13785, 46.24903, -6054.607421875], [-125.14138, 46.25528, -6105.91650390625]]], [[[-125.13785, 46.24903, -6054.607421875], [-125.13421, 46.25408, -6706.0361328125], [-125.12945, 46.24791, -6775.2548828125], [-125.13785, 46.24903, -6054.607421875]]], [[[-125.13785, 46.24903, -6054.607421875], [-125.12945, 46.24791, -6775.2548828125], [-125.13193, 46.2411, -6125.73974609375], [-125.13785, 46.24903, -6054.607421875]]], [[[-125.14185, 46.24235, -5377.171875], [-125.13785, 46.24903, -6054.607421875], [-125.13193, 46.2411, -6125.73974609375], [-125.14185, 46.24235, -5377.171875]]], [[[-125.13367, 46.23347, -5570.14599609375], [-125.14185, 46.24235, -5377.171875], [-125.13193, 46.2411, -6125.73974609375], [-125.13367, 46.23347, -5570.14599609375]]], [[[-125.1448, 46.2345, -4707.40869140625], [-125.14185, 46.24235, -5377.171875], [-125.13367, 46.23347, -5570.14599609375], [-125.1448, 46.2345, -4707.40869140625]]], [[[-125.15227, 46.24295, -4543.8359375], [-125.14185, 46.24235, -5377.171875], [-125.1448, 46.2345, -4707.40869140625], [-125.15227, 46.24295, -4543.8359375]]], [[[-125.15227, 46.24295, -4543.8359375], [-125.1448, 46.2345, -4707.40869140625], [-125.15639, 46.2358, -3798.604736328125], [-125.15227, 46.24295, -4543.8359375]]], [[[-125.15227, 46.24295, -4543.8359375], [-125.15639, 46.2358, -3798.604736328125], [-125.16293, 46.24432, -3721.89013671875], [-125.15227, 46.24295, -4543.8359375]]], [[[-125.15844, 46.25062, -4444.99755859375], [-125.15227, 46.24295, -4543.8359375], [-125.16293, 46.24432, -3721.89013671875], [-125.15844, 46.25062, -4444.99755859375]]], [[[-125.15844, 46.25062, -4444.99755859375], [-125.16293, 46.24432, -3721.89013671875], [-125.16833, 46.25243, -3713.667724609375], [-125.15844, 46.25062, -4444.99755859375]]], [[[-125.16833, 46.25243, -3713.667724609375], [-125.16461, 46.2584, -4351.93359375], [-125.15844, 46.25062, -4444.99755859375], [-125.16833, 46.25243, -3713.667724609375]]], [[[-125.16461, 46.2584, -4351.93359375], [-125.16833, 46.25243, -3713.667724609375], [-125.17355, 46.26044, -3714.122314453125], [-125.16461, 46.2584, -4351.93359375]]], [[[-125.16833, 46.25243, -3713.667724609375], [-125.17855, 46.25411, -3026.5458984375], [-125.17355, 46.26044, -3714.122314453125], [-125.16833, 46.25243, -3713.667724609375]]], [[[-125.16833, 46.25243, -3713.667724609375], [-125.17331, 46.24607, -3026.55078125], [-125.17855, 46.25411, -3026.5458984375], [-125.16833, 46.25243, -3713.667724609375]]], [[[-125.16293, 46.24432, -3721.89013671875], [-125.17331, 46.24607, -3026.55078125], [-125.16833, 46.25243, -3713.667724609375], [-125.16293, 46.24432, -3721.89013671875]]], [[[-125.16293, 46.24432, -3721.89013671875], [-125.16793, 46.23796, -3033.631103515625], [-125.17331, 46.24607, -3026.55078125], [-125.16293, 46.24432, -3721.89013671875]]], [[[-125.15639, 46.2358, -3798.604736328125], [-125.16793, 46.23796, -3033.631103515625], [-125.16293, 46.24432, -3721.89013671875], [-125.15639, 46.2358, -3798.604736328125]]], [[[-125.15639, 46.2358, -3798.604736328125], [-125.1621, 46.22974, -3073.371826171875], [-125.16793, 46.23796, -3033.631103515625], [-125.15639, 46.2358, -3798.604736328125]]], [[[-125.15639, 46.2358, -3798.604736328125], [-125.14955, 46.2264, -3859.19970703125], [-125.1621, 46.22974, -3073.371826171875], [-125.15639, 46.2358, -3798.604736328125]]], [[[-125.1448, 46.2345, -4707.40869140625], [-125.14955, 46.2264, -3859.19970703125], [-125.15639, 46.2358, -3798.604736328125], [-125.1448, 46.2345, -4707.40869140625]]], [[[-125.1448, 46.2345, -4707.40869140625], [-125.13864, 46.22613, -4767.330078125], [-125.14955, 46.2264, -3859.19970703125], [-125.1448, 46.2345, -4707.40869140625]]], [[[-125.1448, 46.2345, -4707.40869140625], [-125.13367, 46.23347, -5570.14599609375], [-125.13864, 46.22613, -4767.330078125], [-125.1448, 46.2345, -4707.40869140625]]], [[[-125.1298, 46.22586, -5483.19580078125], [-125.13864, 46.22613, -4767.330078125], [-125.13367, 46.23347, -5570.14599609375], [-125.1298, 46.22586, -5483.19580078125]]], [[[-125.1298, 46.22586, -5483.19580078125], [-125.13053, 46.21836, -5081.62646484375], [-125.13864, 46.22613, -4767.330078125], [-125.1298, 46.22586, -5483.19580078125]]], [[[-125.1298, 46.22586, -5483.19580078125], [-125.12198, 46.219, -5812.810546875], [-125.13053, 46.21836, -5081.62646484375], [-125.1298, 46.22586, -5483.19580078125]]], [[[-125.12358, 46.22737, -6070.64599609375], [-125.12198, 46.219, -5812.810546875], [-125.1298, 46.22586, -5483.19580078125], [-125.12358, 46.22737, -6070.64599609375]]], [[[-125.12358, 46.22737, -6070.64599609375], [-125.11686, 46.22201, -6419.6865234375], [-125.12198, 46.219, -5812.810546875], [-125.12358, 46.22737, -6070.64599609375]]], [[[-125.11686, 46.22201, -6419.6865234375], [-125.12358, 46.22737, -6070.64599609375], [-125.1191, 46.22917, -6600.98095703125], [-125.11686, 46.22201, -6419.6865234375]]], [[[-125.11686, 46.22201, -6419.6865234375], [-125.1191, 46.22917, -6600.98095703125], [-125.11321, 46.22615, -6975.9853515625], [-125.11686, 46.22201, -6419.6865234375]]], [[[-125.11686, 46.22201, -6419.6865234375], [-125.11321, 46.22615, -6975.9853515625], [-125.11038, 46.21994, -6922.39111328125], [-125.11686, 46.22201, -6419.6865234375]]], [[[-125.11686, 46.22201, -6419.6865234375], [-125.1144, 46.2115, -6109.09033203125], [-125.12198, 46.219, -5812.810546875], [-125.11686, 46.22201, -6419.6865234375]]], [[[-125.12198, 46.219, -5812.810546875], [-125.1144, 46.2115, -6109.09033203125], [-125.12305, 46.21069, -5357.02880859375], [-125.12198, 46.219, -5812.810546875]]], [[[-125.13053, 46.21836, -5081.62646484375], [-125.12198, 46.219, -5812.810546875], [-125.12305, 46.21069, -5357.02880859375], [-125.13053, 46.21836, -5081.62646484375]]], [[[-125.13053, 46.21836, -5081.62646484375], [-125.12305, 46.21069, -5357.02880859375], [-125.13176, 46.20989, -4588.9541015625], [-125.13053, 46.21836, -5081.62646484375]]], [[[-125.13962, 46.21789, -4290.125], [-125.13053, 46.21836, -5081.62646484375], [-125.13176, 46.20989, -4588.9541015625], [-125.13962, 46.21789, -4290.125]]], [[[-125.13864, 46.22613, -4767.330078125], [-125.13053, 46.21836, -5081.62646484375], [-125.13962, 46.21789, -4290.125], [-125.13864, 46.22613, -4767.330078125]]], [[[-125.13864, 46.22613, -4767.330078125], [-125.13962, 46.21789, -4290.125], [-125.14955, 46.2264, -3859.19970703125], [-125.13864, 46.22613, -4767.330078125]]], [[[-125.14955, 46.2264, -3859.19970703125], [-125.13962, 46.21789, -4290.125], [-125.14772, 46.21678, -3570.65966796875], [-125.14955, 46.2264, -3859.19970703125]]], [[[-125.14955, 46.2264, -3859.19970703125], [-125.14772, 46.21678, -3570.65966796875], [-125.15762, 46.22167, -3020.47900390625], [-125.14955, 46.2264, -3859.19970703125]]], [[[-125.14955, 46.2264, -3859.19970703125], [-125.15762, 46.22167, -3020.47900390625], [-125.1621, 46.22974, -3073.371826171875], [-125.14955, 46.2264, -3859.19970703125]]], [[[-125.1621, 46.22974, -3073.371826171875], [-125.15762, 46.22167, -3020.47900390625], [-125.16722, 46.22378, -2300.85009765625], [-125.1621, 46.22974, -3073.371826171875]]], [[[-125.1621, 46.22974, -3073.371826171875], [-125.16722, 46.22378, -2300.85009765625], [-125.17246, 46.23182, -2300.85009765625], [-125.1621, 46.22974, -3073.371826171875]]], [[[-125.16793, 46.23796, -3033.631103515625], [-125.1621, 46.22974, -3073.371826171875], [-125.17246, 46.23182, -2300.85009765625], [-125.16793, 46.23796, -3033.631103515625]]], [[[-125.16793, 46.23796, -3033.631103515625], [-125.17246, 46.23182, -2300.85009765625], [-125.1777, 46.23985, -2300.85009765625], [-125.16793, 46.23796, -3033.631103515625]]], [[[-125.17331, 46.24607, -3026.55078125], [-125.16793, 46.23796, -3033.631103515625], [-125.1777, 46.23985, -2300.85009765625], [-125.17331, 46.24607, -3026.55078125]]], [[[-125.17331, 46.24607, -3026.55078125], [-125.1777, 46.23985, -2300.85009765625], [-125.18294, 46.24789, -2300.85009765625], [-125.17331, 46.24607, -3026.55078125]]], [[[-125.17855, 46.25411, -3026.5458984375], [-125.17331, 46.24607, -3026.55078125], [-125.18294, 46.24789, -2300.85009765625], [-125.17855, 46.25411, -3026.5458984375]]], [[[-125.17855, 46.25411, -3026.5458984375], [-125.18294, 46.24789, -2300.85009765625], [-125.18819, 46.25593, -2300.85009765625], [-125.17855, 46.25411, -3026.5458984375]]], [[[-125.17855, 46.25411, -3026.5458984375], [-125.18819, 46.25593, -2300.85009765625], [-125.18377, 46.26213, -3027.61865234375], [-125.17855, 46.25411, -3026.5458984375]]], [[[-125.17355, 46.26044, -3714.122314453125], [-125.17855, 46.25411, -3026.5458984375], [-125.18377, 46.26213, -3027.61865234375], [-125.17355, 46.26044, -3714.122314453125]]], [[[-125.17802, 46.26816, -3735.215576171875], [-125.17355, 46.26044, -3714.122314453125], [-125.18377, 46.26213, -3027.61865234375], [-125.17802, 46.26816, -3735.215576171875]]], [[[-125.17802, 46.26816, -3735.215576171875], [-125.18377, 46.26213, -3027.61865234375], [-125.18844, 46.27002, -3023.981689453125], [-125.17802, 46.26816, -3735.215576171875]]], [[[-125.18377, 46.26213, -3027.61865234375], [-125.19338, 46.26398, -2300.85009765625], [-125.18844, 46.27002, -3023.981689453125], [-125.18377, 46.26213, -3027.61865234375]]], [[[-125.18377, 46.26213, -3027.61865234375], [-125.18819, 46.25593, -2300.85009765625], [-125.19338, 46.26398, -2300.85009765625], [-125.18377, 46.26213, -3027.61865234375]]], [[[-125.18844, 46.27002, -3023.981689453125], [-125.19338, 46.26398, -2300.85009765625], [-125.19795, 46.2722, -2300.85009765625], [-125.18844, 46.27002, -3023.981689453125]]], [[[-125.18844, 46.27002, -3023.981689453125], [-125.19795, 46.2722, -2300.85009765625], [-125.1922, 46.27803, -3024.5205078125], [-125.18844, 46.27002, -3023.981689453125]]], [[[-125.19795, 46.2722, -2300.85009765625], [-125.20153, 46.28067, -2300.85009765625], [-125.1922, 46.27803, -3024.5205078125], [-125.19795, 46.2722, -2300.85009765625]]], [[[-125.15762, 46.22167, -3020.47900390625], [-125.16257, 46.21558, -2300.85009765625], [-125.16722, 46.22378, -2300.85009765625], [-125.15762, 46.22167, -3020.47900390625]]], [[[-125.16257, 46.21558, -2300.85009765625], [-125.15762, 46.22167, -3020.47900390625], [-125.15437, 46.21387, -2930.76025390625], [-125.16257, 46.21558, -2300.85009765625]]], [[[-125.15437, 46.21387, -2930.76025390625], [-125.15806, 46.20733, -2300.85009765625], [-125.16257, 46.21558, -2300.85009765625], [-125.15437, 46.21387, -2930.76025390625]]], [[[-125.15437, 46.21387, -2930.76025390625], [-125.14952, 46.20818, -3079.64208984375], [-125.15806, 46.20733, -2300.85009765625], [-125.15437, 46.21387, -2930.76025390625]]], [[[-125.14772, 46.21678, -3570.65966796875], [-125.14952, 46.20818, -3079.64208984375], [-125.15437, 46.21387, -2930.76025390625], [-125.14772, 46.21678, -3570.65966796875]]], [[[-125.14772, 46.21678, -3570.65966796875], [-125.14036, 46.20907, -3813.784912109375], [-125.14952, 46.20818, -3079.64208984375], [-125.14772, 46.21678, -3570.65966796875]]], [[[-125.13962, 46.21789, -4290.125], [-125.14036, 46.20907, -3813.784912109375], [-125.14772, 46.21678, -3570.65966796875], [-125.13962, 46.21789, -4290.125]]], [[[-125.13962, 46.21789, -4290.125], [-125.13176, 46.20989, -4588.9541015625], [-125.14036, 46.20907, -3813.784912109375], [-125.13962, 46.21789, -4290.125]]], [[[-125.14772, 46.21678, -3570.65966796875], [-125.15437, 46.21387, -2930.76025390625], [-125.15762, 46.22167, -3020.47900390625], [-125.14772, 46.21678, -3570.65966796875]]], [[[-125.1191, 46.22917, -6600.98095703125], [-125.11583, 46.23088, -7007.34765625], [-125.11321, 46.22615, -6975.9853515625], [-125.1191, 46.22917, -6600.98095703125]]], [[[-125.1191, 46.22917, -6600.98095703125], [-125.1195, 46.2353, -6934.81787109375], [-125.11583, 46.23088, -7007.34765625], [-125.1191, 46.22917, -6600.98095703125]]], [[[-125.1191, 46.22917, -6600.98095703125], [-125.12534, 46.23446, -6339.0556640625], [-125.1195, 46.2353, -6934.81787109375], [-125.1191, 46.22917, -6600.98095703125]]], [[[-125.12534, 46.23446, -6339.0556640625], [-125.1191, 46.22917, -6600.98095703125], [-125.12358, 46.22737, -6070.64599609375], [-125.12534, 46.23446, -6339.0556640625]]], [[[-125.12358, 46.22737, -6070.64599609375], [-125.13367, 46.23347, -5570.14599609375], [-125.12534, 46.23446, -6339.0556640625], [-125.12358, 46.22737, -6070.64599609375]]], [[[-125.12358, 46.22737, -6070.64599609375], [-125.1298, 46.22586, -5483.19580078125], [-125.13367, 46.23347, -5570.14599609375], [-125.12358, 46.22737, -6070.64599609375]]], [[[-125.13193, 46.2411, -6125.73974609375], [-125.12534, 46.23446, -6339.0556640625], [-125.13367, 46.23347, -5570.14599609375], [-125.13193, 46.2411, -6125.73974609375]]], [[[-125.12534, 46.23446, -6339.0556640625], [-125.13193, 46.2411, -6125.73974609375], [-125.12414, 46.24108, -6854.75927734375], [-125.12534, 46.23446, -6339.0556640625]]], [[[-125.12534, 46.23446, -6339.0556640625], [-125.12414, 46.24108, -6854.75927734375], [-125.1195, 46.2353, -6934.81787109375], [-125.12534, 46.23446, -6339.0556640625]]], [[[-125.12414, 46.24108, -6854.75927734375], [-125.13193, 46.2411, -6125.73974609375], [-125.12945, 46.24791, -6775.2548828125], [-125.12414, 46.24108, -6854.75927734375]]], [[[-125.14052, 46.26358, -6693.93994140625], [-125.13784, 46.25889, -6658.9560546875], [-125.14302, 46.2604, -6265.6689453125], [-125.14052, 46.26358, -6693.93994140625]]], [[[-125.14698, 46.26564, -6213.86962890625], [-125.14052, 46.26358, -6693.93994140625], [-125.14302, 46.2604, -6265.6689453125], [-125.14698, 46.26564, -6213.86962890625]]], [[[-125.14698, 46.26564, -6213.86962890625], [-125.14272, 46.26932, -6827.99462890625], [-125.14052, 46.26358, -6693.93994140625], [-125.14698, 46.26564, -6213.86962890625]]], [[[-125.15076, 46.27222, -6223.2822265625], [-125.14272, 46.26932, -6827.99462890625], [-125.14698, 46.26564, -6213.86962890625], [-125.15076, 46.27222, -6223.2822265625]]], [[[-125.15076, 46.27222, -6223.2822265625], [-125.14548, 46.27678, -6958.9609375], [-125.14272, 46.26932, -6827.99462890625], [-125.15076, 46.27222, -6223.2822265625]]], [[[-125.15076, 46.27222, -6223.2822265625], [-125.15444, 46.28059, -6262.45849609375], [-125.14548, 46.27678, -6958.9609375], [-125.15076, 46.27222, -6223.2822265625]]], [[[-125.15076, 46.27222, -6223.2822265625], [-125.16044, 46.27383, -5482.8837890625], [-125.15444, 46.28059, -6262.45849609375], [-125.15076, 46.27222, -6223.2822265625]]], [[[-125.15076, 46.27222, -6223.2822265625], [-125.15595, 46.26676, -5523.16064453125], [-125.16044, 46.27383, -5482.8837890625], [-125.15076, 46.27222, -6223.2822265625]]], [[[-125.1489, 46.25952, -5710.27685546875], [-125.15595, 46.26676, -5523.16064453125], [-125.14698, 46.26564, -6213.86962890625], [-125.1489, 46.25952, -5710.27685546875]]], [[[-125.1569, 46.25865, -5011.33935546875], [-125.15595, 46.26676, -5523.16064453125], [-125.1489, 46.25952, -5710.27685546875], [-125.1569, 46.25865, -5011.33935546875]]], [[[-125.1569, 46.25865, -5011.33935546875], [-125.1668, 46.26639, -4603.32861328125], [-125.15595, 46.26676, -5523.16064453125], [-125.1569, 46.25865, -5011.33935546875]]], [[[-125.1489, 46.25952, -5710.27685546875], [-125.14839, 46.25091, -5300.03515625], [-125.1569, 46.25865, -5011.33935546875], [-125.1489, 46.25952, -5710.27685546875]]], [[[-125.15444, 46.28059, -6262.45849609375], [-125.16044, 46.27383, -5482.8837890625], [-125.16486, 46.28113, -5391.17431640625], [-125.15444, 46.28059, -6262.45849609375]]], [[[-125.15444, 46.28059, -6262.45849609375], [-125.16486, 46.28113, -5391.17431640625], [-125.15931, 46.28825, -6066.93115234375], [-125.15444, 46.28059, -6262.45849609375]]], [[[-125.14773, 46.28543, -7093.58056640625], [-125.15444, 46.28059, -6262.45849609375], [-125.15931, 46.28825, -6066.93115234375], [-125.14773, 46.28543, -7093.58056640625]]], [[[-125.15444, 46.28059, -6262.45849609375], [-125.14773, 46.28543, -7093.58056640625], [-125.14548, 46.27678, -6958.9609375], [-125.15444, 46.28059, -6262.45849609375]]], [[[-125.17457, 46.28258, -4622.6796875], [-125.18184, 46.27617, -3758.7265625], [-125.18456, 46.28449, -3804.463623046875], [-125.17457, 46.28258, -4622.6796875]]], [[[-125.20407, 46.28929, -2300.85009765625], [-125.20278, 46.29807, -2300.85009765625], [-125.19441, 46.29554, -3105.203369140625], [-125.20407, 46.28929, -2300.85009765625]]], [[[-125.19441, 46.29554, -3105.203369140625], [-125.19391, 46.30484, -2995.0390625], [-125.18632, 46.30284, -3689.228271484375], [-125.19441, 46.29554, -3105.203369140625]]], [[[-125.19441, 46.29554, -3105.203369140625], [-125.20278, 46.29807, -2300.85009765625], [-125.19391, 46.30484, -2995.0390625], [-125.19441, 46.29554, -3105.203369140625]]], [[[-125.19391, 46.30484, -2995.0390625], [-125.20278, 46.29807, -2300.85009765625], [-125.2015, 46.30684, -2300.85009765625], [-125.19391, 46.30484, -2995.0390625]]], [[[-125.14893, 46.29421, -7238.6005859375], [-125.14773, 46.28543, -7093.58056640625], [-125.15637, 46.29585, -6523.6845703125], [-125.14893, 46.29421, -7238.6005859375]]]]}}]}