{"type": "FeatureCollection", "features": [{"type": "Feature", "properties": {"name": "AW_WASH_44", "CFM_ID": 309, "region": "Offshore_WAOR", "primary_state/province": "WA", "secondary_state/province": "OR", "avg_dip": 56.0, "dip_dir": "SW", "rake": 90, "slip_sense": "Reverse", "fault_level": 2, "NSHM23_sliprates": null, "QFFDAgeCatBin": null, "QFFDAgeBin": null, "upper_depth": -2.3, "upper_depth_constraint": "seismic imaging", "lower_depth": -8.5, "lower_depth_constraint": "megathrust", "3D_model_constraints": "trace and 1 MCS line", "reference": "Ledeczi et al. (2024); Carbotte et al. (2023)", "nshm23_id": null, "lineage": null, "usgs_qffd_#": null, "comments": null, "id": "309"}, "geometry": {"type": "MultiPolygon", "coordinates": [[[[-125.1359, 46.28196, -5362.68408203125], [-125.1331, 46.28995, -4961.29052734375], [-125.1287, 46.28246, -4540.1171875], [-125.1359, 46.28196, -5362.68408203125]]], [[[-125.06776, 46.19319, -2948.500732421875], [-125.06247, 46.19873, -2258.679931640625], [-125.0595, 46.18992, -2258.679931640625], [-125.06776, 46.19319, -2948.500732421875]]], [[[-125.14945, 46.29038, -7276.06640625], [-125.15712, 46.28673, -7749.4892578125], [-125.1568, 46.29565, -7748.85107421875], [-125.14945, 46.29038, -7276.06640625]]], [[[-125.06517, 46.16311, -4619.533203125], [-125.06718, 46.15659, -5419.16455078125], [-125.07369, 46.16553, -5400.52978515625], [-125.06517, 46.16311, -4619.533203125]]], [[[-125.05286, 46.13545, -5152.31103515625], [-125.05446, 46.12861, -5573.880859375], [-125.05829, 46.13462, -6042.115234375], [-125.05286, 46.13545, -5152.31103515625]]], [[[-125.07042, 46.18767, -3705.35302734375], [-125.06776, 46.19319, -2948.500732421875], [-125.06358, 46.184, -2953.276611328125], [-125.07042, 46.18767, -3705.35302734375]]], [[[-125.06718, 46.15659, -5419.16455078125], [-125.06705, 46.15062, -6214.73193359375], [-125.07452, 46.15999, -6245.7509765625], [-125.06718, 46.15659, -5419.16455078125]]], [[[-125.04746, 46.15856, -2964.862548828125], [-125.05516, 46.16135, -3808.46533203125], [-125.05368, 46.16692, -2956.726806640625], [-125.04746, 46.15856, -2964.862548828125]]], [[[-125.06509, 46.1353, -6927.17431640625], [-125.05926, 46.12817, -6493.17431640625], [-125.06658, 46.12752, -7285.34716796875], [-125.06509, 46.1353, -6927.17431640625]]], [[[-125.09438, 46.23698, -3765.020263671875], [-125.08708, 46.23479, -2968.051513671875], [-125.08901, 46.22978, -3785.697509765625], [-125.09438, 46.23698, -3765.020263671875]]], [[[-125.1359, 46.28196, -5362.68408203125], [-125.14116, 46.28038, -6396.2275390625], [-125.13913, 46.2893, -5823.84423828125], [-125.1359, 46.28196, -5362.68408203125]]], [[[-125.07696, 46.15425, -7076.6025390625], [-125.0843, 46.16421, -7043.2666015625], [-125.07452, 46.15999, -6245.7509765625], [-125.07696, 46.15425, -7076.6025390625]]], [[[-125.05992, 46.14838, -5295.72021484375], [-125.05886, 46.14162, -5693.65625], [-125.06705, 46.15062, -6214.73193359375], [-125.05992, 46.14838, -5295.72021484375]]], [[[-125.14833, 46.28261, -7192.1279296875], [-125.15712, 46.28673, -7749.4892578125], [-125.14945, 46.29038, -7276.06640625], [-125.14833, 46.28261, -7192.1279296875]]], [[[-125.05334, 46.1498, -4465.24951171875], [-125.04512, 46.1453, -3921.307861328125], [-125.05246, 46.14259, -4823.0244140625], [-125.05334, 46.1498, -4465.24951171875]]], [[[-125.08522, 46.17772, -6164.34716796875], [-125.08958, 46.17235, -7055.83935546875], [-125.09426, 46.17999, -7086.99951171875], [-125.08522, 46.17772, -6164.34716796875]]], [[[-125.06358, 46.184, -2953.276611328125], [-125.06776, 46.19319, -2948.500732421875], [-125.0595, 46.18992, -2258.679931640625], [-125.06358, 46.184, -2953.276611328125]]], [[[-125.04886, 46.15362, -3768.01904296875], [-125.05516, 46.16135, -3808.46533203125], [-125.04746, 46.15856, -2964.862548828125], [-125.04886, 46.15362, -3768.01904296875]]], [[[-125.05368, 46.16692, -2956.726806640625], [-125.05894, 46.17553, -2952.862548828125], [-125.05023, 46.17299, -2258.679931640625], [-125.05368, 46.16692, -2956.726806640625]]], [[[-125.06509, 46.1353, -6927.17431640625], [-125.07266, 46.14435, -7236.060546875], [-125.0644, 46.14197, -6525.1806640625], [-125.06509, 46.1353, -6927.17431640625]]], [[[-125.04746, 46.15856, -2964.862548828125], [-125.04482, 46.16475, -2258.679931640625], [-125.03851, 46.15682, -2258.679931640625], [-125.04746, 46.15856, -2964.862548828125]]], [[[-125.14833, 46.28261, -7192.1279296875], [-125.15632, 46.27781, -7753.92919921875], [-125.15712, 46.28673, -7749.4892578125], [-125.14833, 46.28261, -7192.1279296875]]], [[[-125.10047, 46.2099, -5962.73681640625], [-125.10792, 46.21317, -6836.26953125], [-125.10424, 46.21873, -6047.6689453125], [-125.10047, 46.2099, -5962.73681640625]]], [[[-125.04543, 46.1372, -4323.8779296875], [-125.05246, 46.14259, -4823.0244140625], [-125.04512, 46.1453, -3921.307861328125], [-125.04543, 46.1372, -4323.8779296875]]], [[[-125.04543, 46.1372, -4323.8779296875], [-125.04788, 46.12921, -4724.5751953125], [-125.05286, 46.13545, -5152.31103515625], [-125.04543, 46.1372, -4323.8779296875]]], [[[-125.07875, 46.18987, -4465.13623046875], [-125.08634, 46.19099, -5274.9111328125], [-125.08276, 46.19865, -4542.23486328125], [-125.07875, 46.18987, -4465.13623046875]]], [[[-125.1127, 46.24186, -5151.42724609375], [-125.11034, 46.24681, -4432.12451171875], [-125.10343, 46.23859, -4485.5869140625], [-125.1127, 46.24186, -5151.42724609375]]], [[[-125.11066, 46.22198, -6855.87744140625], [-125.11913, 46.22539, -7474.52734375], [-125.11497, 46.23166, -6819.412109375], [-125.11066, 46.22198, -6855.87744140625]]], [[[-125.1127, 46.24186, -5151.42724609375], [-125.11413, 46.23692, -5964.09619140625], [-125.12092, 46.2454, -5824.6640625], [-125.1127, 46.24186, -5151.42724609375]]], [[[-125.09426, 46.17999, -7086.99951171875], [-125.10014, 46.17405, -7737.6015625], [-125.10398, 46.18255, -7691.34912109375], [-125.09426, 46.17999, -7086.99951171875]]], [[[-125.05891, 46.15565, -4593.6171875], [-125.05992, 46.14838, -5295.72021484375], [-125.06718, 46.15659, -5419.16455078125], [-125.05891, 46.15565, -4593.6171875]]], [[[-125.07586, 46.20963, -2955.89794921875], [-125.08278, 46.21358, -3684.417236328125], [-125.07992, 46.21905, -2944.56494140625], [-125.07586, 46.20963, -2955.89794921875]]], [[[-125.14699, 46.27413, -7190.99267578125], [-125.15632, 46.27781, -7753.92919921875], [-125.14833, 46.28261, -7192.1279296875], [-125.14699, 46.27413, -7190.99267578125]]], [[[-125.08958, 46.17235, -7055.83935546875], [-125.0843, 46.16421, -7043.2666015625], [-125.09546, 46.16601, -7737.37109375], [-125.08958, 46.17235, -7055.83935546875]]], [[[-125.09058, 46.21644, -4391.828125], [-125.08574, 46.22223, -3733.155517578125], [-125.08278, 46.21358, -3684.417236328125], [-125.09058, 46.21644, -4391.828125]]], [[[-125.11066, 46.22198, -6855.87744140625], [-125.11658, 46.21627, -7514.4951171875], [-125.11913, 46.22539, -7474.52734375], [-125.11066, 46.22198, -6855.87744140625]]], [[[-125.14699, 46.27413, -7190.99267578125], [-125.15474, 46.26895, -7761.31787109375], [-125.15632, 46.27781, -7753.92919921875], [-125.14699, 46.27413, -7190.99267578125]]], [[[-125.0657, 46.17854, -3751.349365234375], [-125.05894, 46.17553, -2952.862548828125], [-125.06076, 46.16966, -3778.4560546875], [-125.0657, 46.17854, -3751.349365234375]]], [[[-125.05246, 46.14259, -4823.0244140625], [-125.05286, 46.13545, -5152.31103515625], [-125.05886, 46.14162, -5693.65625], [-125.05246, 46.14259, -4823.0244140625]]], [[[-125.07266, 46.14435, -7236.060546875], [-125.06705, 46.15062, -6214.73193359375], [-125.0644, 46.14197, -6525.1806640625], [-125.07266, 46.14435, -7236.060546875]]], [[[-125.10848, 46.25262, -3748.053955078125], [-125.10137, 46.24451, -3760.552978515625], [-125.11034, 46.24681, -4432.12451171875], [-125.10848, 46.25262, -3748.053955078125]]], [[[-125.11314, 46.2675, -2933.15283203125], [-125.10794, 46.25797, -2960.666748046875], [-125.11555, 46.26163, -3654.916259765625], [-125.11314, 46.2675, -2933.15283203125]]], [[[-125.14699, 46.27413, -7190.99267578125], [-125.14562, 46.26554, -7216.3681640625], [-125.15474, 46.26895, -7761.31787109375], [-125.14699, 46.27413, -7190.99267578125]]], [[[-125.10602, 46.23349, -5308.52099609375], [-125.10796, 46.22777, -6114.24169921875], [-125.11413, 46.23692, -5964.09619140625], [-125.10602, 46.23349, -5308.52099609375]]], [[[-125.08959, 46.18505, -6194.22314453125], [-125.08278, 46.18283, -5286.69921875], [-125.08522, 46.17772, -6164.34716796875], [-125.08959, 46.18505, -6194.22314453125]]], [[[-125.07427, 46.13487, -7669.65625], [-125.06658, 46.12752, -7285.34716796875], [-125.07632, 46.12663, -7902.7626953125], [-125.07427, 46.13487, -7669.65625]]], [[[-125.05891, 46.15565, -4593.6171875], [-125.04886, 46.15362, -3768.01904296875], [-125.05334, 46.1498, -4465.24951171875], [-125.05891, 46.15565, -4593.6171875]]], [[[-125.10602, 46.23349, -5308.52099609375], [-125.10125, 46.22594, -5290.3935546875], [-125.10796, 46.22777, -6114.24169921875], [-125.10602, 46.23349, -5308.52099609375]]], [[[-125.14037, 46.27081, -6529.67919921875], [-125.14562, 46.26554, -7216.3681640625], [-125.14699, 46.27413, -7190.99267578125], [-125.14037, 46.27081, -6529.67919921875]]], [[[-125.07432, 46.18104, -4476.23974609375], [-125.07042, 46.18767, -3705.35302734375], [-125.0657, 46.17854, -3751.349365234375], [-125.07432, 46.18104, -4476.23974609375]]], [[[-125.1287, 46.28246, -4540.1171875], [-125.12573, 46.29061, -4187.7822265625], [-125.12102, 46.28237, -3734.943603515625], [-125.1287, 46.28246, -4540.1171875]]], [[[-125.08457, 46.14945, -7822.498046875], [-125.09025, 46.15809, -7761.669921875], [-125.07696, 46.15425, -7076.6025390625], [-125.08457, 46.14945, -7822.498046875]]], [[[-125.07432, 46.18104, -4476.23974609375], [-125.07875, 46.18987, -4465.13623046875], [-125.07042, 46.18767, -3705.35302734375], [-125.07432, 46.18104, -4476.23974609375]]], [[[-125.07875, 46.18987, -4465.13623046875], [-125.07387, 46.19637, -3751.9794921875], [-125.07042, 46.18767, -3705.35302734375], [-125.07875, 46.18987, -4465.13623046875]]], [[[-125.13854, 46.26321, -6517.517578125], [-125.14562, 46.26554, -7216.3681640625], [-125.14037, 46.27081, -6529.67919921875], [-125.13854, 46.26321, -6517.517578125]]], [[[-125.08276, 46.19865, -4542.23486328125], [-125.07789, 46.2044, -3737.604248046875], [-125.07387, 46.19637, -3751.9794921875], [-125.08276, 46.19865, -4542.23486328125]]], [[[-125.03282, 46.14868, -2258.679931640625], [-125.04189, 46.15059, -2988.890380859375], [-125.03851, 46.15682, -2258.679931640625], [-125.03282, 46.14868, -2258.679931640625]]], [[[-125.09426, 46.17999, -7086.99951171875], [-125.08958, 46.17235, -7055.83935546875], [-125.10014, 46.17405, -7737.6015625], [-125.09426, 46.17999, -7086.99951171875]]], [[[-125.10794, 46.25797, -2960.666748046875], [-125.11314, 46.2675, -2933.15283203125], [-125.10546, 46.26397, -2258.679931640625], [-125.10794, 46.25797, -2960.666748046875]]], [[[-125.0941, 46.24218, -2970.42529296875], [-125.092, 46.24844, -2258.679931640625], [-125.08509, 46.24075, -2258.679931640625], [-125.0941, 46.24218, -2970.42529296875]]], [[[-125.0843, 46.16421, -7043.2666015625], [-125.07696, 46.15425, -7076.6025390625], [-125.09025, 46.15809, -7761.669921875], [-125.0843, 46.16421, -7043.2666015625]]], [[[-125.08958, 46.17235, -7055.83935546875], [-125.08087, 46.16973, -6180.75], [-125.0843, 46.16421, -7043.2666015625], [-125.08958, 46.17235, -7055.83935546875]]], [[[-125.13854, 46.26321, -6517.517578125], [-125.14272, 46.25816, -7189.24462890625], [-125.14562, 46.26554, -7216.3681640625], [-125.13854, 46.26321, -6517.517578125]]], [[[-125.08633, 46.20769, -4399.86474609375], [-125.08278, 46.21358, -3684.417236328125], [-125.07789, 46.2044, -3737.604248046875], [-125.08633, 46.20769, -4399.86474609375]]], [[[-125.10602, 46.23349, -5308.52099609375], [-125.09727, 46.23156, -4536.82275390625], [-125.10125, 46.22594, -5290.3935546875], [-125.10602, 46.23349, -5308.52099609375]]], [[[-125.08633, 46.20769, -4399.86474609375], [-125.09058, 46.21644, -4391.828125], [-125.08278, 46.21358, -3684.417236328125], [-125.08633, 46.20769, -4399.86474609375]]], [[[-125.13421, 46.25594, -6485.68212890625], [-125.14272, 46.25816, -7189.24462890625], [-125.13854, 46.26321, -6517.517578125], [-125.13421, 46.25594, -6485.68212890625]]], [[[-125.06509, 46.1353, -6927.17431640625], [-125.07427, 46.13487, -7669.65625], [-125.07266, 46.14435, -7236.060546875], [-125.06509, 46.1353, -6927.17431640625]]], [[[-125.03912, 46.1375, -3571.714599609375], [-125.04002, 46.12992, -3943.97509765625], [-125.04543, 46.1372, -4323.8779296875], [-125.03912, 46.1375, -3571.714599609375]]], [[[-125.05286, 46.13545, -5152.31103515625], [-125.05829, 46.13462, -6042.115234375], [-125.05886, 46.14162, -5693.65625], [-125.05286, 46.13545, -5152.31103515625]]], [[[-125.05926, 46.12817, -6493.17431640625], [-125.05829, 46.13462, -6042.115234375], [-125.05446, 46.12861, -5573.880859375], [-125.05926, 46.12817, -6493.17431640625]]], [[[-125.13421, 46.25594, -6485.68212890625], [-125.1367, 46.25057, -7247.244140625], [-125.14272, 46.25816, -7189.24462890625], [-125.13421, 46.25594, -6485.68212890625]]], [[[-125.06509, 46.1353, -6927.17431640625], [-125.0644, 46.14197, -6525.1806640625], [-125.05829, 46.13462, -6042.115234375], [-125.06509, 46.1353, -6927.17431640625]]], [[[-125.08633, 46.20769, -4399.86474609375], [-125.09442, 46.21089, -5103.3681640625], [-125.09058, 46.21644, -4391.828125], [-125.08633, 46.20769, -4399.86474609375]]], [[[-125.05891, 46.15565, -4593.6171875], [-125.05516, 46.16135, -3808.46533203125], [-125.04886, 46.15362, -3768.01904296875], [-125.05891, 46.15565, -4593.6171875]]], [[[-125.07427, 46.13487, -7669.65625], [-125.08172, 46.13062, -8188.19140625], [-125.08778, 46.13472, -8495.7080078125], [-125.07427, 46.13487, -7669.65625]]], [[[-125.09131, 46.14342, -8460.2314453125], [-125.0812, 46.14076, -7940.826171875], [-125.08778, 46.13472, -8495.7080078125], [-125.09131, 46.14342, -8460.2314453125]]], [[[-125.13421, 46.25594, -6485.68212890625], [-125.12812, 46.24872, -6537.2421875], [-125.1367, 46.25057, -7247.244140625], [-125.13421, 46.25594, -6485.68212890625]]], [[[-125.07427, 46.13487, -7669.65625], [-125.06509, 46.1353, -6927.17431640625], [-125.06658, 46.12752, -7285.34716796875], [-125.07427, 46.13487, -7669.65625]]], [[[-125.05446, 46.12861, -5573.880859375], [-125.05286, 46.13545, -5152.31103515625], [-125.04788, 46.12921, -4724.5751953125], [-125.05446, 46.12861, -5573.880859375]]], [[[-125.13421, 46.25594, -6485.68212890625], [-125.12694, 46.2534, -5708.119140625], [-125.12812, 46.24872, -6537.2421875], [-125.13421, 46.25594, -6485.68212890625]]], [[[-125.10047, 46.2099, -5962.73681640625], [-125.09819, 46.21814, -5209.4013671875], [-125.09442, 46.21089, -5103.3681640625], [-125.10047, 46.2099, -5962.73681640625]]], [[[-125.05246, 46.14259, -4823.0244140625], [-125.05886, 46.14162, -5693.65625], [-125.05992, 46.14838, -5295.72021484375], [-125.05246, 46.14259, -4823.0244140625]]], [[[-125.05894, 46.17553, -2952.862548828125], [-125.06358, 46.184, -2953.276611328125], [-125.05487, 46.18145, -2258.679931640625], [-125.05894, 46.17553, -2952.862548828125]]], [[[-125.10068, 46.19627, -7035.65283203125], [-125.09687, 46.20159, -6224.0283203125], [-125.09328, 46.19303, -6269.4013671875], [-125.10068, 46.19627, -7035.65283203125]]], [[[-125.0657, 46.17854, -3751.349365234375], [-125.06358, 46.184, -2953.276611328125], [-125.05894, 46.17553, -2952.862548828125], [-125.0657, 46.17854, -3751.349365234375]]], [[[-125.10796, 46.22777, -6114.24169921875], [-125.10424, 46.21873, -6047.6689453125], [-125.11066, 46.22198, -6855.87744140625], [-125.10796, 46.22777, -6114.24169921875]]], [[[-125.0915, 46.20361, -5201.62353515625], [-125.09442, 46.21089, -5103.3681640625], [-125.08633, 46.20769, -4399.86474609375], [-125.0915, 46.20361, -5201.62353515625]]], [[[-125.07875, 46.18987, -4465.13623046875], [-125.07432, 46.18104, -4476.23974609375], [-125.08278, 46.18283, -5286.69921875], [-125.07875, 46.18987, -4465.13623046875]]], [[[-125.12694, 46.2534, -5708.119140625], [-125.13421, 46.25594, -6485.68212890625], [-125.13325, 46.26034, -5697.43310546875], [-125.12694, 46.2534, -5708.119140625]]], [[[-125.09065, 46.19745, -5489.4345703125], [-125.08634, 46.19099, -5274.9111328125], [-125.09328, 46.19303, -6269.4013671875], [-125.09065, 46.19745, -5489.4345703125]]], [[[-125.10137, 46.24451, -3760.552978515625], [-125.0941, 46.24218, -2970.42529296875], [-125.09438, 46.23698, -3765.020263671875], [-125.10137, 46.24451, -3760.552978515625]]], [[[-125.09065, 46.19745, -5489.4345703125], [-125.09687, 46.20159, -6224.0283203125], [-125.0915, 46.20361, -5201.62353515625], [-125.09065, 46.19745, -5489.4345703125]]], [[[-125.12554, 46.25859, -4966.2314453125], [-125.12694, 46.2534, -5708.119140625], [-125.13325, 46.26034, -5697.43310546875], [-125.12554, 46.25859, -4966.2314453125]]], [[[-125.07369, 46.16553, -5400.52978515625], [-125.08087, 46.16973, -6180.75], [-125.07814, 46.17435, -5288.9501953125], [-125.07369, 46.16553, -5400.52978515625]]], [[[-125.03156, 46.13526, -2653.4658203125], [-125.02887, 46.14007, -2258.679931640625], [-125.02677, 46.13114, -2258.679931640625], [-125.03156, 46.13526, -2653.4658203125]]], [[[-125.07789, 46.2044, -3737.604248046875], [-125.07586, 46.20963, -2955.89794921875], [-125.07112, 46.20131, -2951.945068359375], [-125.07789, 46.2044, -3737.604248046875]]], [[[-125.12554, 46.25859, -4966.2314453125], [-125.11911, 46.2503, -5020.40576171875], [-125.12694, 46.2534, -5708.119140625], [-125.12554, 46.25859, -4966.2314453125]]], [[[-125.10068, 46.19627, -7035.65283203125], [-125.09328, 46.19303, -6269.4013671875], [-125.09774, 46.18777, -7024.43505859375], [-125.10068, 46.19627, -7035.65283203125]]], [[[-125.07266, 46.14435, -7236.060546875], [-125.07696, 46.15425, -7076.6025390625], [-125.06705, 46.15062, -6214.73193359375], [-125.07266, 46.14435, -7236.060546875]]], [[[-125.11911, 46.2503, -5020.40576171875], [-125.12554, 46.25859, -4966.2314453125], [-125.11742, 46.25578, -4356.2919921875], [-125.11911, 46.2503, -5020.40576171875]]], [[[-125.07427, 46.13487, -7669.65625], [-125.07632, 46.12663, -7902.7626953125], [-125.08172, 46.13062, -8188.19140625], [-125.07427, 46.13487, -7669.65625]]], [[[-125.06964, 46.17168, -4520.072265625], [-125.06517, 46.16311, -4619.533203125], [-125.07369, 46.16553, -5400.52978515625], [-125.06964, 46.17168, -4520.072265625]]], [[[-125.08634, 46.19099, -5274.9111328125], [-125.07875, 46.18987, -4465.13623046875], [-125.08278, 46.18283, -5286.69921875], [-125.08634, 46.19099, -5274.9111328125]]], [[[-125.10848, 46.25262, -3748.053955078125], [-125.11555, 46.26163, -3654.916259765625], [-125.10794, 46.25797, -2960.666748046875], [-125.10848, 46.25262, -3748.053955078125]]], [[[-125.09774, 46.18777, -7024.43505859375], [-125.10398, 46.18255, -7691.34912109375], [-125.10679, 46.19059, -7652.5390625], [-125.09774, 46.18777, -7024.43505859375]]], [[[-125.11742, 46.25578, -4356.2919921875], [-125.11034, 46.24681, -4432.12451171875], [-125.11911, 46.2503, -5020.40576171875], [-125.11742, 46.25578, -4356.2919921875]]], [[[-125.08959, 46.18505, -6194.22314453125], [-125.08522, 46.17772, -6164.34716796875], [-125.09426, 46.17999, -7086.99951171875], [-125.08959, 46.18505, -6194.22314453125]]], [[[-125.07432, 46.18104, -4476.23974609375], [-125.06964, 46.17168, -4520.072265625], [-125.07814, 46.17435, -5288.9501953125], [-125.07432, 46.18104, -4476.23974609375]]], [[[-125.13702, 46.27493, -5747.23681640625], [-125.14116, 46.28038, -6396.2275390625], [-125.1359, 46.28196, -5362.68408203125], [-125.13702, 46.27493, -5747.23681640625]]], [[[-125.08708, 46.23479, -2968.051513671875], [-125.0941, 46.24218, -2970.42529296875], [-125.08509, 46.24075, -2258.679931640625], [-125.08708, 46.23479, -2968.051513671875]]], [[[-125.08633, 46.20769, -4399.86474609375], [-125.07789, 46.2044, -3737.604248046875], [-125.08276, 46.19865, -4542.23486328125], [-125.08633, 46.20769, -4399.86474609375]]], [[[-125.11742, 46.25578, -4356.2919921875], [-125.10848, 46.25262, -3748.053955078125], [-125.11034, 46.24681, -4432.12451171875], [-125.11742, 46.25578, -4356.2919921875]]], [[[-125.10068, 46.19627, -7035.65283203125], [-125.11008, 46.19984, -7605.27197265625], [-125.10452, 46.20515, -6921.18798828125], [-125.10068, 46.19627, -7035.65283203125]]], [[[-125.03451, 46.13046, -3049.041259765625], [-125.03156, 46.13526, -2653.4658203125], [-125.02677, 46.13114, -2258.679931640625], [-125.03451, 46.13046, -3049.041259765625]]], [[[-125.09819, 46.21814, -5209.4013671875], [-125.09375, 46.2243, -4493.61572265625], [-125.09058, 46.21644, -4391.828125], [-125.09819, 46.21814, -5209.4013671875]]], [[[-125.11742, 46.25578, -4356.2919921875], [-125.11555, 46.26163, -3654.916259765625], [-125.10848, 46.25262, -3748.053955078125], [-125.11742, 46.25578, -4356.2919921875]]], [[[-125.09065, 46.19745, -5489.4345703125], [-125.0915, 46.20361, -5201.62353515625], [-125.08276, 46.19865, -4542.23486328125], [-125.09065, 46.19745, -5489.4345703125]]], [[[-125.06964, 46.17168, -4520.072265625], [-125.06076, 46.16966, -3778.4560546875], [-125.06517, 46.16311, -4619.533203125], [-125.06964, 46.17168, -4520.072265625]]], [[[-125.10398, 46.18255, -7691.34912109375], [-125.09774, 46.18777, -7024.43505859375], [-125.09426, 46.17999, -7086.99951171875], [-125.10398, 46.18255, -7691.34912109375]]], [[[-125.12346, 46.26556, -4336.14306640625], [-125.11555, 46.26163, -3654.916259765625], [-125.11742, 46.25578, -4356.2919921875], [-125.12346, 46.26556, -4336.14306640625]]], [[[-125.06718, 46.15659, -5419.16455078125], [-125.07452, 46.15999, -6245.7509765625], [-125.07369, 46.16553, -5400.52978515625], [-125.06718, 46.15659, -5419.16455078125]]], [[[-125.11911, 46.2503, -5020.40576171875], [-125.12092, 46.2454, -5824.6640625], [-125.12694, 46.2534, -5708.119140625], [-125.11911, 46.2503, -5020.40576171875]]], [[[-125.04543, 46.1372, -4323.8779296875], [-125.04002, 46.12992, -3943.97509765625], [-125.04788, 46.12921, -4724.5751953125], [-125.04543, 46.1372, -4323.8779296875]]], [[[-125.12346, 46.26556, -4336.14306640625], [-125.11852, 46.27164, -3665.186279296875], [-125.11555, 46.26163, -3654.916259765625], [-125.12346, 46.26556, -4336.14306640625]]], [[[-125.09065, 46.19745, -5489.4345703125], [-125.09328, 46.19303, -6269.4013671875], [-125.09687, 46.20159, -6224.0283203125], [-125.09065, 46.19745, -5489.4345703125]]], [[[-125.05891, 46.15565, -4593.6171875], [-125.06718, 46.15659, -5419.16455078125], [-125.06517, 46.16311, -4619.533203125], [-125.05891, 46.15565, -4593.6171875]]], [[[-125.0915, 46.20361, -5201.62353515625], [-125.08633, 46.20769, -4399.86474609375], [-125.08276, 46.19865, -4542.23486328125], [-125.0915, 46.20361, -5201.62353515625]]], [[[-125.11413, 46.23692, -5964.09619140625], [-125.12163, 46.24043, -6652.4892578125], [-125.12092, 46.2454, -5824.6640625], [-125.11413, 46.23692, -5964.09619140625]]], [[[-125.09065, 46.19745, -5489.4345703125], [-125.08276, 46.19865, -4542.23486328125], [-125.08634, 46.19099, -5274.9111328125], [-125.09065, 46.19745, -5489.4345703125]]], [[[-125.12346, 46.26556, -4336.14306640625], [-125.12395, 46.27506, -4220.4033203125], [-125.11852, 46.27164, -3665.186279296875], [-125.12346, 46.26556, -4336.14306640625]]], [[[-125.09058, 46.21644, -4391.828125], [-125.09375, 46.2243, -4493.61572265625], [-125.08574, 46.22223, -3733.155517578125], [-125.09058, 46.21644, -4391.828125]]], [[[-125.04886, 46.15362, -3768.01904296875], [-125.04512, 46.1453, -3921.307861328125], [-125.05334, 46.1498, -4465.24951171875], [-125.04886, 46.15362, -3768.01904296875]]], [[[-125.1127, 46.24186, -5151.42724609375], [-125.10602, 46.23349, -5308.52099609375], [-125.11413, 46.23692, -5964.09619140625], [-125.1127, 46.24186, -5151.42724609375]]], [[[-125.08457, 46.14945, -7822.498046875], [-125.09131, 46.14342, -8460.2314453125], [-125.09634, 46.15174, -8411.67578125], [-125.08457, 46.14945, -7822.498046875]]], [[[-125.12395, 46.27506, -4220.4033203125], [-125.12346, 46.26556, -4336.14306640625], [-125.13086, 46.274, -4933.3310546875], [-125.12395, 46.27506, -4220.4033203125]]], [[[-125.0843, 46.16421, -7043.2666015625], [-125.08087, 46.16973, -6180.75], [-125.07452, 46.15999, -6245.7509765625], [-125.0843, 46.16421, -7043.2666015625]]], [[[-125.03699, 46.14232, -2989.59326171875], [-125.02887, 46.14007, -2258.679931640625], [-125.03156, 46.13526, -2653.4658203125], [-125.03699, 46.14232, -2989.59326171875]]], [[[-125.10602, 46.23349, -5308.52099609375], [-125.1127, 46.24186, -5151.42724609375], [-125.10343, 46.23859, -4485.5869140625], [-125.10602, 46.23349, -5308.52099609375]]], [[[-125.08522, 46.17772, -6164.34716796875], [-125.08087, 46.16973, -6180.75], [-125.08958, 46.17235, -7055.83935546875], [-125.08522, 46.17772, -6164.34716796875]]], [[[-125.13086, 46.274, -4933.3310546875], [-125.1287, 46.28246, -4540.1171875], [-125.12395, 46.27506, -4220.4033203125], [-125.13086, 46.274, -4933.3310546875]]], [[[-125.08901, 46.22978, -3785.697509765625], [-125.08708, 46.23479, -2968.051513671875], [-125.08268, 46.22745, -2946.68310546875], [-125.08901, 46.22978, -3785.697509765625]]], [[[-125.13086, 46.274, -4933.3310546875], [-125.1359, 46.28196, -5362.68408203125], [-125.1287, 46.28246, -4540.1171875], [-125.13086, 46.274, -4933.3310546875]]], [[[-125.06076, 46.16966, -3778.4560546875], [-125.05894, 46.17553, -2952.862548828125], [-125.05368, 46.16692, -2956.726806640625], [-125.06076, 46.16966, -3778.4560546875]]], [[[-125.04543, 46.1372, -4323.8779296875], [-125.05286, 46.13545, -5152.31103515625], [-125.05246, 46.14259, -4823.0244140625], [-125.04543, 46.1372, -4323.8779296875]]], [[[-125.13086, 46.274, -4933.3310546875], [-125.13702, 46.27493, -5747.23681640625], [-125.1359, 46.28196, -5362.68408203125], [-125.13086, 46.274, -4933.3310546875]]], [[[-125.06776, 46.19319, -2948.500732421875], [-125.07112, 46.20131, -2951.945068359375], [-125.06247, 46.19873, -2258.679931640625], [-125.06776, 46.19319, -2948.500732421875]]], [[[-125.07369, 46.16553, -5400.52978515625], [-125.07452, 46.15999, -6245.7509765625], [-125.08087, 46.16973, -6180.75], [-125.07369, 46.16553, -5400.52978515625]]], [[[-125.13702, 46.27493, -5747.23681640625], [-125.13086, 46.274, -4933.3310546875], [-125.13561, 46.26775, -5711.30517578125], [-125.13702, 46.27493, -5747.23681640625]]], [[[-125.10137, 46.24451, -3760.552978515625], [-125.10101, 46.24996, -2967.088623046875], [-125.0941, 46.24218, -2970.42529296875], [-125.10137, 46.24451, -3760.552978515625]]], [[[-125.03699, 46.14232, -2989.59326171875], [-125.03282, 46.14868, -2258.679931640625], [-125.02887, 46.14007, -2258.679931640625], [-125.03699, 46.14232, -2989.59326171875]]], [[[-125.07586, 46.20963, -2955.89794921875], [-125.06711, 46.20718, -2258.679931640625], [-125.07112, 46.20131, -2951.945068359375], [-125.07586, 46.20963, -2955.89794921875]]], [[[-125.13702, 46.27493, -5747.23681640625], [-125.13561, 46.26775, -5711.30517578125], [-125.14037, 46.27081, -6529.67919921875], [-125.13702, 46.27493, -5747.23681640625]]], [[[-125.07992, 46.21905, -2944.56494140625], [-125.08268, 46.22745, -2946.68310546875], [-125.07432, 46.22449, -2258.679931640625], [-125.07992, 46.21905, -2944.56494140625]]], [[[-125.04512, 46.1453, -3921.307861328125], [-125.03699, 46.14232, -2989.59326171875], [-125.03912, 46.1375, -3571.714599609375], [-125.04512, 46.1453, -3921.307861328125]]], [[[-125.05516, 46.16135, -3808.46533203125], [-125.06517, 46.16311, -4619.533203125], [-125.06076, 46.16966, -3778.4560546875], [-125.05516, 46.16135, -3808.46533203125]]], [[[-125.13702, 46.27493, -5747.23681640625], [-125.14037, 46.27081, -6529.67919921875], [-125.14116, 46.28038, -6396.2275390625], [-125.13702, 46.27493, -5747.23681640625]]], [[[-125.04886, 46.15362, -3768.01904296875], [-125.04746, 46.15856, -2964.862548828125], [-125.04189, 46.15059, -2988.890380859375], [-125.04886, 46.15362, -3768.01904296875]]], [[[-125.1359, 46.28196, -5362.68408203125], [-125.13913, 46.2893, -5823.84423828125], [-125.1331, 46.28995, -4961.29052734375], [-125.1359, 46.28196, -5362.68408203125]]], [[[-125.03912, 46.1375, -3571.714599609375], [-125.04543, 46.1372, -4323.8779296875], [-125.04512, 46.1453, -3921.307861328125], [-125.03912, 46.1375, -3571.714599609375]]], [[[-125.07432, 46.18104, -4476.23974609375], [-125.07814, 46.17435, -5288.9501953125], [-125.08278, 46.18283, -5286.69921875], [-125.07432, 46.18104, -4476.23974609375]]], [[[-125.08268, 46.22745, -2946.68310546875], [-125.08708, 46.23479, -2968.051513671875], [-125.07802, 46.23317, -2258.679931640625], [-125.08268, 46.22745, -2946.68310546875]]], [[[-125.06964, 46.17168, -4520.072265625], [-125.07432, 46.18104, -4476.23974609375], [-125.0657, 46.17854, -3751.349365234375], [-125.06964, 46.17168, -4520.072265625]]], [[[-125.07632, 46.12663, -7902.7626953125], [-125.08613, 46.12576, -8513.9638671875], [-125.08172, 46.13062, -8188.19140625], [-125.07632, 46.12663, -7902.7626953125]]], [[[-125.1287, 46.28246, -4540.1171875], [-125.1331, 46.28995, -4961.29052734375], [-125.12573, 46.29061, -4187.7822265625], [-125.1287, 46.28246, -4540.1171875]]], [[[-125.12395, 46.27506, -4220.4033203125], [-125.1287, 46.28246, -4540.1171875], [-125.12102, 46.28237, -3734.943603515625], [-125.12395, 46.27506, -4220.4033203125]]], [[[-125.10047, 46.2099, -5962.73681640625], [-125.10424, 46.21873, -6047.6689453125], [-125.09819, 46.21814, -5209.4013671875], [-125.10047, 46.2099, -5962.73681640625]]], [[[-125.12395, 46.27506, -4220.4033203125], [-125.12102, 46.28237, -3734.943603515625], [-125.11852, 46.27164, -3665.186279296875], [-125.12395, 46.27506, -4220.4033203125]]], [[[-125.11852, 46.27164, -3665.186279296875], [-125.12102, 46.28237, -3734.943603515625], [-125.11513, 46.27687, -2949.75244140625], [-125.11852, 46.27164, -3665.186279296875]]], [[[-125.08522, 46.17772, -6164.34716796875], [-125.07814, 46.17435, -5288.9501953125], [-125.08087, 46.16973, -6180.75], [-125.08522, 46.17772, -6164.34716796875]]], [[[-125.11314, 46.2675, -2933.15283203125], [-125.11852, 46.27164, -3665.186279296875], [-125.11513, 46.27687, -2949.75244140625], [-125.11314, 46.2675, -2933.15283203125]]], [[[-125.06964, 46.17168, -4520.072265625], [-125.07369, 46.16553, -5400.52978515625], [-125.07814, 46.17435, -5288.9501953125], [-125.06964, 46.17168, -4520.072265625]]], [[[-125.11852, 46.27164, -3665.186279296875], [-125.11314, 46.2675, -2933.15283203125], [-125.11555, 46.26163, -3654.916259765625], [-125.11852, 46.27164, -3665.186279296875]]], [[[-125.06358, 46.184, -2953.276611328125], [-125.0595, 46.18992, -2258.679931640625], [-125.05487, 46.18145, -2258.679931640625], [-125.06358, 46.184, -2953.276611328125]]], [[[-125.10794, 46.25797, -2960.666748046875], [-125.10546, 46.26397, -2258.679931640625], [-125.09882, 46.25617, -2258.679931640625], [-125.10794, 46.25797, -2960.666748046875]]], [[[-125.0644, 46.14197, -6525.1806640625], [-125.06705, 46.15062, -6214.73193359375], [-125.05886, 46.14162, -5693.65625], [-125.0644, 46.14197, -6525.1806640625]]], [[[-125.04886, 46.15362, -3768.01904296875], [-125.04189, 46.15059, -2988.890380859375], [-125.04512, 46.1453, -3921.307861328125], [-125.04886, 46.15362, -3768.01904296875]]], [[[-125.10794, 46.25797, -2960.666748046875], [-125.09882, 46.25617, -2258.679931640625], [-125.10101, 46.24996, -2967.088623046875], [-125.10794, 46.25797, -2960.666748046875]]], [[[-125.0644, 46.14197, -6525.1806640625], [-125.05886, 46.14162, -5693.65625], [-125.05829, 46.13462, -6042.115234375], [-125.0644, 46.14197, -6525.1806640625]]], [[[-125.09375, 46.2243, -4493.61572265625], [-125.08901, 46.22978, -3785.697509765625], [-125.08574, 46.22223, -3733.155517578125], [-125.09375, 46.2243, -4493.61572265625]]], [[[-125.10848, 46.25262, -3748.053955078125], [-125.10794, 46.25797, -2960.666748046875], [-125.10101, 46.24996, -2967.088623046875], [-125.10848, 46.25262, -3748.053955078125]]], [[[-125.09819, 46.21814, -5209.4013671875], [-125.09058, 46.21644, -4391.828125], [-125.09442, 46.21089, -5103.3681640625], [-125.09819, 46.21814, -5209.4013671875]]], [[[-125.03912, 46.1375, -3571.714599609375], [-125.03451, 46.13046, -3049.041259765625], [-125.04002, 46.12992, -3943.97509765625], [-125.03912, 46.1375, -3571.714599609375]]], [[[-125.10848, 46.25262, -3748.053955078125], [-125.10101, 46.24996, -2967.088623046875], [-125.10137, 46.24451, -3760.552978515625], [-125.10848, 46.25262, -3748.053955078125]]], [[[-125.08959, 46.18505, -6194.22314453125], [-125.08634, 46.19099, -5274.9111328125], [-125.08278, 46.18283, -5286.69921875], [-125.08959, 46.18505, -6194.22314453125]]], [[[-125.05334, 46.1498, -4465.24951171875], [-125.05246, 46.14259, -4823.0244140625], [-125.05992, 46.14838, -5295.72021484375], [-125.05334, 46.1498, -4465.24951171875]]], [[[-125.10343, 46.23859, -4485.5869140625], [-125.11034, 46.24681, -4432.12451171875], [-125.10137, 46.24451, -3760.552978515625], [-125.10343, 46.23859, -4485.5869140625]]], [[[-125.10068, 46.19627, -7035.65283203125], [-125.09774, 46.18777, -7024.43505859375], [-125.10679, 46.19059, -7652.5390625], [-125.10068, 46.19627, -7035.65283203125]]], [[[-125.04512, 46.1453, -3921.307861328125], [-125.04189, 46.15059, -2988.890380859375], [-125.03699, 46.14232, -2989.59326171875], [-125.04512, 46.1453, -3921.307861328125]]], [[[-125.0915, 46.20361, -5201.62353515625], [-125.09687, 46.20159, -6224.0283203125], [-125.10047, 46.2099, -5962.73681640625], [-125.0915, 46.20361, -5201.62353515625]]], [[[-125.11911, 46.2503, -5020.40576171875], [-125.1127, 46.24186, -5151.42724609375], [-125.12092, 46.2454, -5824.6640625], [-125.11911, 46.2503, -5020.40576171875]]], [[[-125.07875, 46.18987, -4465.13623046875], [-125.08276, 46.19865, -4542.23486328125], [-125.07387, 46.19637, -3751.9794921875], [-125.07875, 46.18987, -4465.13623046875]]], [[[-125.1127, 46.24186, -5151.42724609375], [-125.11911, 46.2503, -5020.40576171875], [-125.11034, 46.24681, -4432.12451171875], [-125.1127, 46.24186, -5151.42724609375]]], [[[-125.0915, 46.20361, -5201.62353515625], [-125.10047, 46.2099, -5962.73681640625], [-125.09442, 46.21089, -5103.3681640625], [-125.0915, 46.20361, -5201.62353515625]]], [[[-125.05891, 46.15565, -4593.6171875], [-125.06517, 46.16311, -4619.533203125], [-125.05516, 46.16135, -3808.46533203125], [-125.05891, 46.15565, -4593.6171875]]], [[[-125.03451, 46.13046, -3049.041259765625], [-125.03912, 46.1375, -3571.714599609375], [-125.03156, 46.13526, -2653.4658203125], [-125.03451, 46.13046, -3049.041259765625]]], [[[-125.12092, 46.2454, -5824.6640625], [-125.12812, 46.24872, -6537.2421875], [-125.12694, 46.2534, -5708.119140625], [-125.12092, 46.2454, -5824.6640625]]], [[[-125.12092, 46.2454, -5824.6640625], [-125.12163, 46.24043, -6652.4892578125], [-125.12812, 46.24872, -6537.2421875], [-125.12092, 46.2454, -5824.6640625]]], [[[-125.11066, 46.22198, -6855.87744140625], [-125.10424, 46.21873, -6047.6689453125], [-125.10792, 46.21317, -6836.26953125], [-125.11066, 46.22198, -6855.87744140625]]], [[[-125.11413, 46.23692, -5964.09619140625], [-125.11497, 46.23166, -6819.412109375], [-125.12163, 46.24043, -6652.4892578125], [-125.11413, 46.23692, -5964.09619140625]]], [[[-125.06076, 46.16966, -3778.4560546875], [-125.05368, 46.16692, -2956.726806640625], [-125.05516, 46.16135, -3808.46533203125], [-125.06076, 46.16966, -3778.4560546875]]], [[[-125.11413, 46.23692, -5964.09619140625], [-125.10796, 46.22777, -6114.24169921875], [-125.11497, 46.23166, -6819.412109375], [-125.11413, 46.23692, -5964.09619140625]]], [[[-125.06964, 46.17168, -4520.072265625], [-125.0657, 46.17854, -3751.349365234375], [-125.06076, 46.16966, -3778.4560546875], [-125.06964, 46.17168, -4520.072265625]]], [[[-125.08959, 46.18505, -6194.22314453125], [-125.09426, 46.17999, -7086.99951171875], [-125.09774, 46.18777, -7024.43505859375], [-125.08959, 46.18505, -6194.22314453125]]], [[[-125.10602, 46.23349, -5308.52099609375], [-125.10343, 46.23859, -4485.5869140625], [-125.09727, 46.23156, -4536.82275390625], [-125.10602, 46.23349, -5308.52099609375]]], [[[-125.05891, 46.15565, -4593.6171875], [-125.05334, 46.1498, -4465.24951171875], [-125.05992, 46.14838, -5295.72021484375], [-125.05891, 46.15565, -4593.6171875]]], [[[-125.07387, 46.19637, -3751.9794921875], [-125.07112, 46.20131, -2951.945068359375], [-125.06776, 46.19319, -2948.500732421875], [-125.07387, 46.19637, -3751.9794921875]]], [[[-125.09438, 46.23698, -3765.020263671875], [-125.09727, 46.23156, -4536.82275390625], [-125.10343, 46.23859, -4485.5869140625], [-125.09438, 46.23698, -3765.020263671875]]], [[[-125.09727, 46.23156, -4536.82275390625], [-125.09438, 46.23698, -3765.020263671875], [-125.08901, 46.22978, -3785.697509765625], [-125.09727, 46.23156, -4536.82275390625]]], [[[-125.09375, 46.2243, -4493.61572265625], [-125.09727, 46.23156, -4536.82275390625], [-125.08901, 46.22978, -3785.697509765625], [-125.09375, 46.2243, -4493.61572265625]]], [[[-125.06705, 46.15062, -6214.73193359375], [-125.06718, 46.15659, -5419.16455078125], [-125.05992, 46.14838, -5295.72021484375], [-125.06705, 46.15062, -6214.73193359375]]], [[[-125.10125, 46.22594, -5290.3935546875], [-125.09727, 46.23156, -4536.82275390625], [-125.09375, 46.2243, -4493.61572265625], [-125.10125, 46.22594, -5290.3935546875]]], [[[-125.10125, 46.22594, -5290.3935546875], [-125.09375, 46.2243, -4493.61572265625], [-125.09819, 46.21814, -5209.4013671875], [-125.10125, 46.22594, -5290.3935546875]]], [[[-125.10125, 46.22594, -5290.3935546875], [-125.09819, 46.21814, -5209.4013671875], [-125.10424, 46.21873, -6047.6689453125], [-125.10125, 46.22594, -5290.3935546875]]], [[[-125.10125, 46.22594, -5290.3935546875], [-125.10424, 46.21873, -6047.6689453125], [-125.10796, 46.22777, -6114.24169921875], [-125.10125, 46.22594, -5290.3935546875]]], [[[-125.10796, 46.22777, -6114.24169921875], [-125.11066, 46.22198, -6855.87744140625], [-125.11497, 46.23166, -6819.412109375], [-125.10796, 46.22777, -6114.24169921875]]], [[[-125.11066, 46.22198, -6855.87744140625], [-125.10792, 46.21317, -6836.26953125], [-125.11658, 46.21627, -7514.4951171875], [-125.11066, 46.22198, -6855.87744140625]]], [[[-125.10047, 46.2099, -5962.73681640625], [-125.10452, 46.20515, -6921.18798828125], [-125.10792, 46.21317, -6836.26953125], [-125.10047, 46.2099, -5962.73681640625]]], [[[-125.10047, 46.2099, -5962.73681640625], [-125.09687, 46.20159, -6224.0283203125], [-125.10452, 46.20515, -6921.18798828125], [-125.10047, 46.2099, -5962.73681640625]]], [[[-125.03699, 46.14232, -2989.59326171875], [-125.04189, 46.15059, -2988.890380859375], [-125.03282, 46.14868, -2258.679931640625], [-125.03699, 46.14232, -2989.59326171875]]], [[[-125.08634, 46.19099, -5274.9111328125], [-125.08959, 46.18505, -6194.22314453125], [-125.09328, 46.19303, -6269.4013671875], [-125.08634, 46.19099, -5274.9111328125]]], [[[-125.09328, 46.19303, -6269.4013671875], [-125.08959, 46.18505, -6194.22314453125], [-125.09774, 46.18777, -7024.43505859375], [-125.09328, 46.19303, -6269.4013671875]]], [[[-125.07452, 46.15999, -6245.7509765625], [-125.06705, 46.15062, -6214.73193359375], [-125.07696, 46.15425, -7076.6025390625], [-125.07452, 46.15999, -6245.7509765625]]], [[[-125.09687, 46.20159, -6224.0283203125], [-125.10068, 46.19627, -7035.65283203125], [-125.10452, 46.20515, -6921.18798828125], [-125.09687, 46.20159, -6224.0283203125]]], [[[-125.10068, 46.19627, -7035.65283203125], [-125.10679, 46.19059, -7652.5390625], [-125.11008, 46.19984, -7605.27197265625], [-125.10068, 46.19627, -7035.65283203125]]], [[[-125.07266, 46.14435, -7236.060546875], [-125.07427, 46.13487, -7669.65625], [-125.0812, 46.14076, -7940.826171875], [-125.07266, 46.14435, -7236.060546875]]], [[[-125.0941, 46.24218, -2970.42529296875], [-125.10101, 46.24996, -2967.088623046875], [-125.092, 46.24844, -2258.679931640625], [-125.0941, 46.24218, -2970.42529296875]]], [[[-125.08522, 46.17772, -6164.34716796875], [-125.08278, 46.18283, -5286.69921875], [-125.07814, 46.17435, -5288.9501953125], [-125.08522, 46.17772, -6164.34716796875]]], [[[-125.03699, 46.14232, -2989.59326171875], [-125.03156, 46.13526, -2653.4658203125], [-125.03912, 46.1375, -3571.714599609375], [-125.03699, 46.14232, -2989.59326171875]]], [[[-125.07042, 46.18767, -3705.35302734375], [-125.06358, 46.184, -2953.276611328125], [-125.0657, 46.17854, -3751.349365234375], [-125.07042, 46.18767, -3705.35302734375]]], [[[-125.07387, 46.19637, -3751.9794921875], [-125.06776, 46.19319, -2948.500732421875], [-125.07042, 46.18767, -3705.35302734375], [-125.07387, 46.19637, -3751.9794921875]]], [[[-125.07387, 46.19637, -3751.9794921875], [-125.07789, 46.2044, -3737.604248046875], [-125.07112, 46.20131, -2951.945068359375], [-125.07387, 46.19637, -3751.9794921875]]], [[[-125.07789, 46.2044, -3737.604248046875], [-125.08278, 46.21358, -3684.417236328125], [-125.07586, 46.20963, -2955.89794921875], [-125.07789, 46.2044, -3737.604248046875]]], [[[-125.07586, 46.20963, -2955.89794921875], [-125.07992, 46.21905, -2944.56494140625], [-125.07187, 46.21561, -2258.679931640625], [-125.07586, 46.20963, -2955.89794921875]]], [[[-125.07586, 46.20963, -2955.89794921875], [-125.07187, 46.21561, -2258.679931640625], [-125.06711, 46.20718, -2258.679931640625], [-125.07586, 46.20963, -2955.89794921875]]], [[[-125.07112, 46.20131, -2951.945068359375], [-125.06711, 46.20718, -2258.679931640625], [-125.06247, 46.19873, -2258.679931640625], [-125.07112, 46.20131, -2951.945068359375]]], [[[-125.05894, 46.17553, -2952.862548828125], [-125.05487, 46.18145, -2258.679931640625], [-125.05023, 46.17299, -2258.679931640625], [-125.05894, 46.17553, -2952.862548828125]]], [[[-125.05368, 46.16692, -2956.726806640625], [-125.05023, 46.17299, -2258.679931640625], [-125.04482, 46.16475, -2258.679931640625], [-125.05368, 46.16692, -2956.726806640625]]], [[[-125.04746, 46.15856, -2964.862548828125], [-125.05368, 46.16692, -2956.726806640625], [-125.04482, 46.16475, -2258.679931640625], [-125.04746, 46.15856, -2964.862548828125]]], [[[-125.04746, 46.15856, -2964.862548828125], [-125.03851, 46.15682, -2258.679931640625], [-125.04189, 46.15059, -2988.890380859375], [-125.04746, 46.15856, -2964.862548828125]]], [[[-125.07992, 46.21905, -2944.56494140625], [-125.07432, 46.22449, -2258.679931640625], [-125.07187, 46.21561, -2258.679931640625], [-125.07992, 46.21905, -2944.56494140625]]], [[[-125.07992, 46.21905, -2944.56494140625], [-125.08574, 46.22223, -3733.155517578125], [-125.08268, 46.22745, -2946.68310546875], [-125.07992, 46.21905, -2944.56494140625]]], [[[-125.08574, 46.22223, -3733.155517578125], [-125.07992, 46.21905, -2944.56494140625], [-125.08278, 46.21358, -3684.417236328125], [-125.08574, 46.22223, -3733.155517578125]]], [[[-125.08901, 46.22978, -3785.697509765625], [-125.08268, 46.22745, -2946.68310546875], [-125.08574, 46.22223, -3733.155517578125], [-125.08901, 46.22978, -3785.697509765625]]], [[[-125.08708, 46.23479, -2968.051513671875], [-125.09438, 46.23698, -3765.020263671875], [-125.0941, 46.24218, -2970.42529296875], [-125.08708, 46.23479, -2968.051513671875]]], [[[-125.08708, 46.23479, -2968.051513671875], [-125.08509, 46.24075, -2258.679931640625], [-125.07802, 46.23317, -2258.679931640625], [-125.08708, 46.23479, -2968.051513671875]]], [[[-125.08268, 46.22745, -2946.68310546875], [-125.07802, 46.23317, -2258.679931640625], [-125.07432, 46.22449, -2258.679931640625], [-125.08268, 46.22745, -2946.68310546875]]], [[[-125.10343, 46.23859, -4485.5869140625], [-125.10137, 46.24451, -3760.552978515625], [-125.09438, 46.23698, -3765.020263671875], [-125.10343, 46.23859, -4485.5869140625]]], [[[-125.092, 46.24844, -2258.679931640625], [-125.10101, 46.24996, -2967.088623046875], [-125.09882, 46.25617, -2258.679931640625], [-125.092, 46.24844, -2258.679931640625]]], [[[-125.07266, 46.14435, -7236.060546875], [-125.08457, 46.14945, -7822.498046875], [-125.07696, 46.15425, -7076.6025390625], [-125.07266, 46.14435, -7236.060546875]]], [[[-125.08457, 46.14945, -7822.498046875], [-125.07266, 46.14435, -7236.060546875], [-125.0812, 46.14076, -7940.826171875], [-125.08457, 46.14945, -7822.498046875]]], [[[-125.0812, 46.14076, -7940.826171875], [-125.09131, 46.14342, -8460.2314453125], [-125.08457, 46.14945, -7822.498046875], [-125.0812, 46.14076, -7940.826171875]]], [[[-125.06509, 46.1353, -6927.17431640625], [-125.05829, 46.13462, -6042.115234375], [-125.05926, 46.12817, -6493.17431640625], [-125.06509, 46.1353, -6927.17431640625]]], [[[-125.07427, 46.13487, -7669.65625], [-125.08778, 46.13472, -8495.7080078125], [-125.0812, 46.14076, -7940.826171875], [-125.07427, 46.13487, -7669.65625]]], [[[-125.08172, 46.13062, -8188.19140625], [-125.08613, 46.12576, -8513.9638671875], [-125.08778, 46.13472, -8495.7080078125], [-125.08172, 46.13062, -8188.19140625]]], [[[-125.08457, 46.14945, -7822.498046875], [-125.09634, 46.15174, -8411.67578125], [-125.09025, 46.15809, -7761.669921875], [-125.08457, 46.14945, -7822.498046875]]], [[[-125.08958, 46.17235, -7055.83935546875], [-125.09546, 46.16601, -7737.37109375], [-125.10014, 46.17405, -7737.6015625], [-125.08958, 46.17235, -7055.83935546875]]], [[[-125.09546, 46.16601, -7737.37109375], [-125.1065, 46.16822, -8306.5380859375], [-125.10014, 46.17405, -7737.6015625], [-125.09546, 46.16601, -7737.37109375]]], [[[-125.09546, 46.16601, -7737.37109375], [-125.10194, 46.15988, -8356.041015625], [-125.1065, 46.16822, -8306.5380859375], [-125.09546, 46.16601, -7737.37109375]]], [[[-125.09546, 46.16601, -7737.37109375], [-125.09025, 46.15809, -7761.669921875], [-125.10194, 46.15988, -8356.041015625], [-125.09546, 46.16601, -7737.37109375]]], [[[-125.0843, 46.16421, -7043.2666015625], [-125.09025, 46.15809, -7761.669921875], [-125.09546, 46.16601, -7737.37109375], [-125.0843, 46.16421, -7043.2666015625]]], [[[-125.09634, 46.15174, -8411.67578125], [-125.10194, 46.15988, -8356.041015625], [-125.09025, 46.15809, -7761.669921875], [-125.09634, 46.15174, -8411.67578125]]], [[[-125.10014, 46.17405, -7737.6015625], [-125.1065, 46.16822, -8306.5380859375], [-125.11036, 46.17673, -8260.1923828125], [-125.10014, 46.17405, -7737.6015625]]], [[[-125.10398, 46.18255, -7691.34912109375], [-125.10014, 46.17405, -7737.6015625], [-125.11036, 46.17673, -8260.1923828125], [-125.10398, 46.18255, -7691.34912109375]]], [[[-125.10398, 46.18255, -7691.34912109375], [-125.11036, 46.17673, -8260.1923828125], [-125.11423, 46.18524, -8211.6630859375], [-125.10398, 46.18255, -7691.34912109375]]], [[[-125.10398, 46.18255, -7691.34912109375], [-125.11423, 46.18524, -8211.6630859375], [-125.10679, 46.19059, -7652.5390625], [-125.10398, 46.18255, -7691.34912109375]]], [[[-125.10679, 46.19059, -7652.5390625], [-125.11423, 46.18524, -8211.6630859375], [-125.11646, 46.19402, -8174.3427734375], [-125.10679, 46.19059, -7652.5390625]]], [[[-125.11008, 46.19984, -7605.27197265625], [-125.10679, 46.19059, -7652.5390625], [-125.11646, 46.19402, -8174.3427734375], [-125.11008, 46.19984, -7605.27197265625]]], [[[-125.11008, 46.19984, -7605.27197265625], [-125.11646, 46.19402, -8174.3427734375], [-125.12036, 46.20251, -8122.23779296875], [-125.11008, 46.19984, -7605.27197265625]]], [[[-125.11008, 46.19984, -7605.27197265625], [-125.12036, 46.20251, -8122.23779296875], [-125.114, 46.20829, -7551.69775390625], [-125.11008, 46.19984, -7605.27197265625]]], [[[-125.10452, 46.20515, -6921.18798828125], [-125.11008, 46.19984, -7605.27197265625], [-125.114, 46.20829, -7551.69775390625], [-125.10452, 46.20515, -6921.18798828125]]], [[[-125.10792, 46.21317, -6836.26953125], [-125.10452, 46.20515, -6921.18798828125], [-125.114, 46.20829, -7551.69775390625], [-125.10792, 46.21317, -6836.26953125]]], [[[-125.10792, 46.21317, -6836.26953125], [-125.114, 46.20829, -7551.69775390625], [-125.11658, 46.21627, -7514.4951171875], [-125.10792, 46.21317, -6836.26953125]]], [[[-125.114, 46.20829, -7551.69775390625], [-125.1243, 46.211, -8070.27685546875], [-125.11658, 46.21627, -7514.4951171875], [-125.114, 46.20829, -7551.69775390625]]], [[[-125.114, 46.20829, -7551.69775390625], [-125.12036, 46.20251, -8122.23779296875], [-125.1243, 46.211, -8070.27685546875], [-125.114, 46.20829, -7551.69775390625]]], [[[-125.13913, 46.2893, -5823.84423828125], [-125.14117, 46.29707, -6310.17138671875], [-125.13664, 46.29749, -5424.69384765625], [-125.13913, 46.2893, -5823.84423828125]]], [[[-125.11658, 46.21627, -7514.4951171875], [-125.1243, 46.211, -8070.27685546875], [-125.12607, 46.21983, -8035.10302734375], [-125.11658, 46.21627, -7514.4951171875]]], [[[-125.11913, 46.22539, -7474.52734375], [-125.11658, 46.21627, -7514.4951171875], [-125.12607, 46.21983, -8035.10302734375], [-125.11913, 46.22539, -7474.52734375]]], [[[-125.11913, 46.22539, -7474.52734375], [-125.12607, 46.21983, -8035.10302734375], [-125.12919, 46.22846, -7987.70849609375], [-125.11913, 46.22539, -7474.52734375]]], [[[-125.12448, 46.23473, -7400.1318359375], [-125.11913, 46.22539, -7474.52734375], [-125.12919, 46.22846, -7987.70849609375], [-125.12448, 46.23473, -7400.1318359375]]], [[[-125.11497, 46.23166, -6819.412109375], [-125.11913, 46.22539, -7474.52734375], [-125.12448, 46.23473, -7400.1318359375], [-125.11497, 46.23166, -6819.412109375]]], [[[-125.12448, 46.23473, -7400.1318359375], [-125.12163, 46.24043, -6652.4892578125], [-125.11497, 46.23166, -6819.412109375], [-125.12448, 46.23473, -7400.1318359375]]], [[[-125.12163, 46.24043, -6652.4892578125], [-125.12448, 46.23473, -7400.1318359375], [-125.13069, 46.24284, -7322.64404296875], [-125.12163, 46.24043, -6652.4892578125]]], [[[-125.12812, 46.24872, -6537.2421875], [-125.12163, 46.24043, -6652.4892578125], [-125.13069, 46.24284, -7322.64404296875], [-125.12812, 46.24872, -6537.2421875]]], [[[-125.12812, 46.24872, -6537.2421875], [-125.13069, 46.24284, -7322.64404296875], [-125.1367, 46.25057, -7247.244140625], [-125.12812, 46.24872, -6537.2421875]]], [[[-125.13069, 46.24284, -7322.64404296875], [-125.14127, 46.2442, -7866.625], [-125.1367, 46.25057, -7247.244140625], [-125.13069, 46.24284, -7322.64404296875]]], [[[-125.13069, 46.24284, -7322.64404296875], [-125.13511, 46.23637, -7923.14599609375], [-125.14127, 46.2442, -7866.625], [-125.13069, 46.24284, -7322.64404296875]]], [[[-125.12448, 46.23473, -7400.1318359375], [-125.13511, 46.23637, -7923.14599609375], [-125.13069, 46.24284, -7322.64404296875], [-125.12448, 46.23473, -7400.1318359375]]], [[[-125.12448, 46.23473, -7400.1318359375], [-125.12919, 46.22846, -7987.70849609375], [-125.13511, 46.23637, -7923.14599609375], [-125.12448, 46.23473, -7400.1318359375]]], [[[-125.1367, 46.25057, -7247.244140625], [-125.14127, 46.2442, -7866.625], [-125.14725, 46.25209, -7811.5537109375], [-125.1367, 46.25057, -7247.244140625]]], [[[-125.1367, 46.25057, -7247.244140625], [-125.14725, 46.25209, -7811.5537109375], [-125.14272, 46.25816, -7189.24462890625], [-125.1367, 46.25057, -7247.244140625]]], [[[-125.15246, 46.26017, -7779.11181640625], [-125.14272, 46.25816, -7189.24462890625], [-125.14725, 46.25209, -7811.5537109375], [-125.15246, 46.26017, -7779.11181640625]]], [[[-125.14562, 46.26554, -7216.3681640625], [-125.14272, 46.25816, -7189.24462890625], [-125.15246, 46.26017, -7779.11181640625], [-125.14562, 46.26554, -7216.3681640625]]], [[[-125.14562, 46.26554, -7216.3681640625], [-125.15246, 46.26017, -7779.11181640625], [-125.15474, 46.26895, -7761.31787109375], [-125.14562, 46.26554, -7216.3681640625]]], [[[-125.11314, 46.2675, -2933.15283203125], [-125.10722, 46.27291, -2258.679931640625], [-125.10546, 46.26397, -2258.679931640625], [-125.11314, 46.2675, -2933.15283203125]]], [[[-125.11314, 46.2675, -2933.15283203125], [-125.11513, 46.27687, -2949.75244140625], [-125.10722, 46.27291, -2258.679931640625], [-125.11314, 46.2675, -2933.15283203125]]], [[[-125.11513, 46.27687, -2949.75244140625], [-125.10911, 46.28188, -2258.679931640625], [-125.10722, 46.27291, -2258.679931640625], [-125.11513, 46.27687, -2949.75244140625]]], [[[-125.10911, 46.28188, -2258.679931640625], [-125.11513, 46.27687, -2949.75244140625], [-125.116, 46.28551, -2902.1416015625], [-125.10911, 46.28188, -2258.679931640625]]], [[[-125.116, 46.28551, -2902.1416015625], [-125.10997, 46.29092, -2258.679931640625], [-125.10911, 46.28188, -2258.679931640625], [-125.116, 46.28551, -2902.1416015625]]], [[[-125.10997, 46.29092, -2258.679931640625], [-125.116, 46.28551, -2902.1416015625], [-125.11342, 46.29497, -2618.585205078125], [-125.10997, 46.29092, -2258.679931640625]]], [[[-125.10959, 46.29997, -2258.679931640625], [-125.10997, 46.29092, -2258.679931640625], [-125.11342, 46.29497, -2618.585205078125], [-125.10959, 46.29997, -2258.679931640625]]], [[[-125.10959, 46.29997, -2258.679931640625], [-125.11342, 46.29497, -2618.585205078125], [-125.11713, 46.29931, -3013.409912109375], [-125.10959, 46.29997, -2258.679931640625]]], [[[-125.1193, 46.2914, -3330.88720703125], [-125.11713, 46.29931, -3013.409912109375], [-125.11342, 46.29497, -2618.585205078125], [-125.1193, 46.2914, -3330.88720703125]]], [[[-125.11713, 46.29931, -3013.409912109375], [-125.1193, 46.2914, -3330.88720703125], [-125.12224, 46.29881, -3881.512451171875], [-125.11713, 46.29931, -3013.409912109375]]], [[[-125.12573, 46.29061, -4187.7822265625], [-125.12224, 46.29881, -3881.512451171875], [-125.1193, 46.2914, -3330.88720703125], [-125.12573, 46.29061, -4187.7822265625]]], [[[-125.12573, 46.29061, -4187.7822265625], [-125.1299, 46.29811, -4626.0751953125], [-125.12224, 46.29881, -3881.512451171875], [-125.12573, 46.29061, -4187.7822265625]]], [[[-125.1331, 46.28995, -4961.29052734375], [-125.1299, 46.29811, -4626.0751953125], [-125.12573, 46.29061, -4187.7822265625], [-125.1331, 46.28995, -4961.29052734375]]], [[[-125.1331, 46.28995, -4961.29052734375], [-125.13664, 46.29749, -5424.69384765625], [-125.1299, 46.29811, -4626.0751953125], [-125.1331, 46.28995, -4961.29052734375]]], [[[-125.1331, 46.28995, -4961.29052734375], [-125.13913, 46.2893, -5823.84423828125], [-125.13664, 46.29749, -5424.69384765625], [-125.1331, 46.28995, -4961.29052734375]]], [[[-125.13913, 46.2893, -5823.84423828125], [-125.14352, 46.28885, -6632.765625], [-125.14117, 46.29707, -6310.17138671875], [-125.13913, 46.2893, -5823.84423828125]]], [[[-125.14116, 46.28038, -6396.2275390625], [-125.14352, 46.28885, -6632.765625], [-125.13913, 46.2893, -5823.84423828125], [-125.14116, 46.28038, -6396.2275390625]]], [[[-125.14116, 46.28038, -6396.2275390625], [-125.14833, 46.28261, -7192.1279296875], [-125.14352, 46.28885, -6632.765625], [-125.14116, 46.28038, -6396.2275390625]]], [[[-125.14833, 46.28261, -7192.1279296875], [-125.14116, 46.28038, -6396.2275390625], [-125.14699, 46.27413, -7190.99267578125], [-125.14833, 46.28261, -7192.1279296875]]], [[[-125.14037, 46.27081, -6529.67919921875], [-125.14699, 46.27413, -7190.99267578125], [-125.14116, 46.28038, -6396.2275390625], [-125.14037, 46.27081, -6529.67919921875]]], [[[-125.14833, 46.28261, -7192.1279296875], [-125.14945, 46.29038, -7276.06640625], [-125.14352, 46.28885, -6632.765625], [-125.14833, 46.28261, -7192.1279296875]]], [[[-125.14352, 46.28885, -6632.765625], [-125.14945, 46.29038, -7276.06640625], [-125.14772, 46.29649, -7114.06982421875], [-125.14352, 46.28885, -6632.765625]]], [[[-125.14352, 46.28885, -6632.765625], [-125.14772, 46.29649, -7114.06982421875], [-125.14117, 46.29707, -6310.17138671875], [-125.14352, 46.28885, -6632.765625]]], [[[-125.14945, 46.29038, -7276.06640625], [-125.1568, 46.29565, -7748.85107421875], [-125.14772, 46.29649, -7114.06982421875], [-125.14945, 46.29038, -7276.06640625]]], [[[-125.12102, 46.28237, -3734.943603515625], [-125.12573, 46.29061, -4187.7822265625], [-125.1193, 46.2914, -3330.88720703125], [-125.12102, 46.28237, -3734.943603515625]]], [[[-125.12102, 46.28237, -3734.943603515625], [-125.1193, 46.2914, -3330.88720703125], [-125.116, 46.28551, -2902.1416015625], [-125.12102, 46.28237, -3734.943603515625]]], [[[-125.116, 46.28551, -2902.1416015625], [-125.11513, 46.27687, -2949.75244140625], [-125.12102, 46.28237, -3734.943603515625], [-125.116, 46.28551, -2902.1416015625]]], [[[-125.1193, 46.2914, -3330.88720703125], [-125.11342, 46.29497, -2618.585205078125], [-125.116, 46.28551, -2902.1416015625], [-125.1193, 46.2914, -3330.88720703125]]], [[[-125.13561, 46.26775, -5711.30517578125], [-125.13854, 46.26321, -6517.517578125], [-125.14037, 46.27081, -6529.67919921875], [-125.13561, 46.26775, -5711.30517578125]]], [[[-125.13561, 46.26775, -5711.30517578125], [-125.13325, 46.26034, -5697.43310546875], [-125.13854, 46.26321, -6517.517578125], [-125.13561, 46.26775, -5711.30517578125]]], [[[-125.13561, 46.26775, -5711.30517578125], [-125.13017, 46.26599, -5052.43505859375], [-125.13325, 46.26034, -5697.43310546875], [-125.13561, 46.26775, -5711.30517578125]]], [[[-125.13017, 46.26599, -5052.43505859375], [-125.13561, 46.26775, -5711.30517578125], [-125.13086, 46.274, -4933.3310546875], [-125.13017, 46.26599, -5052.43505859375]]], [[[-125.13017, 46.26599, -5052.43505859375], [-125.13086, 46.274, -4933.3310546875], [-125.12346, 46.26556, -4336.14306640625], [-125.13017, 46.26599, -5052.43505859375]]], [[[-125.12554, 46.25859, -4966.2314453125], [-125.13017, 46.26599, -5052.43505859375], [-125.12346, 46.26556, -4336.14306640625], [-125.12554, 46.25859, -4966.2314453125]]], [[[-125.12554, 46.25859, -4966.2314453125], [-125.13325, 46.26034, -5697.43310546875], [-125.13017, 46.26599, -5052.43505859375], [-125.12554, 46.25859, -4966.2314453125]]], [[[-125.12554, 46.25859, -4966.2314453125], [-125.12346, 46.26556, -4336.14306640625], [-125.11742, 46.25578, -4356.2919921875], [-125.12554, 46.25859, -4966.2314453125]]], [[[-125.13421, 46.25594, -6485.68212890625], [-125.13854, 46.26321, -6517.517578125], [-125.13325, 46.26034, -5697.43310546875], [-125.13421, 46.25594, -6485.68212890625]]]]}}]}