{"type": "FeatureCollection", "features": [{"type": "Feature", "properties": {"name": "AW_WASH_49", "CFM_ID": 313, "region": "Offshore_WAOR", "primary_state/province": "WA", "secondary_state/province": null, "avg_dip": 60.0, "dip_dir": "E", "rake": 90, "slip_sense": "Reverse", "fault_level": 2, "NSHM23_sliprates": null, "QFFDAgeCatBin": null, "QFFDAgeBin": null, "upper_depth": -1.8, "upper_depth_constraint": "bathymetry", "lower_depth": -7.0, "lower_depth_constraint": "megathrust", "3D_model_constraints": "trace extended at constant dip", "reference": "Lucas et al. (2025); Balster-Gee et al. (2023)", "nshm23_id": null, "lineage": null, "usgs_qffd_#": null, "comments": "vergence from USGS sparker line", "id": "313"}, "geometry": {"type": "MultiPolygon", "coordinates": [[[[-125.29018, 46.70463, -6310.45947265625], [-125.28287, 46.70413, -7010.60693359375], [-125.29089, 46.71045, -6985.41064453125], [-125.29018, 46.70463, -6310.45947265625]]], [[[-125.30661, 46.73072, -6142.27978515625], [-125.30047, 46.73146, -6968.61669921875], [-125.30491, 46.7399, -6253.076171875], [-125.30661, 46.73072, -6142.27978515625]]], [[[-125.29949, 46.70636, -5523.10546875], [-125.29076, 46.70064, -5719.0400390625], [-125.29018, 46.70463, -6310.45947265625], [-125.29949, 46.70636, -5523.10546875]]], [[[-125.31324, 46.69446, -2502.40478515625], [-125.312, 46.688, -1841.3580322265625], [-125.30586, 46.68954, -2706.69970703125], [-125.31324, 46.69446, -2502.40478515625]]], [[[-125.29949, 46.70636, -5523.10546875], [-125.29688, 46.69974, -4939.79833984375], [-125.29076, 46.70064, -5719.0400390625], [-125.29949, 46.70636, -5523.10546875]]], [[[-125.30672, 46.70572, -4655.95458984375], [-125.29688, 46.69974, -4939.79833984375], [-125.29949, 46.70636, -5523.10546875], [-125.30672, 46.70572, -4655.95458984375]]], [[[-125.30672, 46.70572, -4655.95458984375], [-125.30351, 46.6987, -4087.09375], [-125.29688, 46.69974, -4939.79833984375], [-125.30672, 46.70572, -4655.95458984375]]], [[[-125.30672, 46.70572, -4655.95458984375], [-125.31548, 46.70507, -3621.67333984375], [-125.30351, 46.6987, -4087.09375], [-125.30672, 46.70572, -4655.95458984375]]], [[[-125.28287, 46.70413, -7010.60693359375], [-125.29018, 46.70463, -6310.45947265625], [-125.28132, 46.69571, -6168.06591796875], [-125.28287, 46.70413, -7010.60693359375]]], [[[-125.31255, 46.7134, -4548.712890625], [-125.31548, 46.70507, -3621.67333984375], [-125.30672, 46.70572, -4655.95458984375], [-125.31255, 46.7134, -4548.712890625]]], [[[-125.31255, 46.7134, -4548.712890625], [-125.32163, 46.71582, -3514.305419921875], [-125.31548, 46.70507, -3621.67333984375], [-125.31255, 46.7134, -4548.712890625]]], [[[-125.27518, 46.69725, -7033.40771484375], [-125.28287, 46.70413, -7010.60693359375], [-125.28132, 46.69571, -6168.06591796875], [-125.27518, 46.69725, -7033.40771484375]]], [[[-125.31255, 46.7134, -4548.712890625], [-125.31698, 46.7206, -4338.23828125], [-125.32163, 46.71582, -3514.305419921875], [-125.31255, 46.7134, -4548.712890625]]], [[[-125.31255, 46.7134, -4548.712890625], [-125.31023, 46.72293, -5316.5693359375], [-125.31698, 46.7206, -4338.23828125], [-125.31255, 46.7134, -4548.712890625]]], [[[-125.31023, 46.72293, -5316.5693359375], [-125.31255, 46.7134, -4548.712890625], [-125.30606, 46.71433, -5417.74658203125], [-125.31023, 46.72293, -5316.5693359375]]], [[[-125.30606, 46.71433, -5417.74658203125], [-125.30281, 46.72108, -6184.3115234375], [-125.31023, 46.72293, -5316.5693359375], [-125.30606, 46.71433, -5417.74658203125]]], [[[-125.30606, 46.71433, -5417.74658203125], [-125.2986, 46.71245, -6217.60400390625], [-125.30281, 46.72108, -6184.3115234375], [-125.30606, 46.71433, -5417.74658203125]]], [[[-125.29949, 46.70636, -5523.10546875], [-125.2986, 46.71245, -6217.60400390625], [-125.30606, 46.71433, -5417.74658203125], [-125.29949, 46.70636, -5523.10546875]]], [[[-125.29949, 46.70636, -5523.10546875], [-125.29018, 46.70463, -6310.45947265625], [-125.2986, 46.71245, -6217.60400390625], [-125.29949, 46.70636, -5523.10546875]]], [[[-125.2986, 46.71245, -6217.60400390625], [-125.29018, 46.70463, -6310.45947265625], [-125.29089, 46.71045, -6985.41064453125], [-125.2986, 46.71245, -6217.60400390625]]], [[[-125.2986, 46.71245, -6217.60400390625], [-125.29089, 46.71045, -6985.41064453125], [-125.29538, 46.7178, -6975.68359375], [-125.2986, 46.71245, -6217.60400390625]]], [[[-125.2986, 46.71245, -6217.60400390625], [-125.29538, 46.7178, -6975.68359375], [-125.30281, 46.72108, -6184.3115234375], [-125.2986, 46.71245, -6217.60400390625]]], [[[-125.30281, 46.72108, -6184.3115234375], [-125.29538, 46.7178, -6975.68359375], [-125.29833, 46.72555, -6971.388671875], [-125.30281, 46.72108, -6184.3115234375]]], [[[-125.30281, 46.72108, -6184.3115234375], [-125.29833, 46.72555, -6971.388671875], [-125.30661, 46.73072, -6142.27978515625], [-125.30281, 46.72108, -6184.3115234375]]], [[[-125.30661, 46.73072, -6142.27978515625], [-125.31023, 46.72293, -5316.5693359375], [-125.30281, 46.72108, -6184.3115234375], [-125.30661, 46.73072, -6142.27978515625]]], [[[-125.31023, 46.72293, -5316.5693359375], [-125.30661, 46.73072, -6142.27978515625], [-125.31279, 46.73067, -5342.578125], [-125.31023, 46.72293, -5316.5693359375]]], [[[-125.31023, 46.72293, -5316.5693359375], [-125.31279, 46.73067, -5342.578125], [-125.31787, 46.72889, -4605.24365234375], [-125.31023, 46.72293, -5316.5693359375]]], [[[-125.31698, 46.7206, -4338.23828125], [-125.31023, 46.72293, -5316.5693359375], [-125.31787, 46.72889, -4605.24365234375], [-125.31698, 46.7206, -4338.23828125]]], [[[-125.31698, 46.7206, -4338.23828125], [-125.31787, 46.72889, -4605.24365234375], [-125.32298, 46.72687, -3853.901123046875], [-125.31698, 46.7206, -4338.23828125]]], [[[-125.31698, 46.7206, -4338.23828125], [-125.32298, 46.72687, -3853.901123046875], [-125.32163, 46.71582, -3514.305419921875], [-125.31698, 46.7206, -4338.23828125]]], [[[-125.32801, 46.72585, -3156.805908203125], [-125.32163, 46.71582, -3514.305419921875], [-125.32298, 46.72687, -3853.901123046875], [-125.32801, 46.72585, -3156.805908203125]]], [[[-125.32801, 46.72585, -3156.805908203125], [-125.32917, 46.71809, -2650.734619140625], [-125.32163, 46.71582, -3514.305419921875], [-125.32801, 46.72585, -3156.805908203125]]], [[[-125.33332, 46.72563, -2462.55712890625], [-125.32917, 46.71809, -2650.734619140625], [-125.32801, 46.72585, -3156.805908203125], [-125.33332, 46.72563, -2462.55712890625]]], [[[-125.33332, 46.72563, -2462.55712890625], [-125.33651, 46.72252, -1908.4114990234375], [-125.32917, 46.71809, -2650.734619140625], [-125.33332, 46.72563, -2462.55712890625]]], [[[-125.33332, 46.72563, -2462.55712890625], [-125.336, 46.732, -1883.6070556640625], [-125.33651, 46.72252, -1908.4114990234375], [-125.33332, 46.72563, -2462.55712890625]]], [[[-125.33332, 46.72563, -2462.55712890625], [-125.33082, 46.73332, -2611.851806640625], [-125.336, 46.732, -1883.6070556640625], [-125.33332, 46.72563, -2462.55712890625]]], [[[-125.33332, 46.72563, -2462.55712890625], [-125.32801, 46.72585, -3156.805908203125], [-125.33082, 46.73332, -2611.851806640625], [-125.33332, 46.72563, -2462.55712890625]]], [[[-125.32801, 46.72585, -3156.805908203125], [-125.32564, 46.73463, -3340.0966796875], [-125.33082, 46.73332, -2611.851806640625], [-125.32801, 46.72585, -3156.805908203125]]], [[[-125.32298, 46.72687, -3853.901123046875], [-125.32564, 46.73463, -3340.0966796875], [-125.32801, 46.72585, -3156.805908203125], [-125.32298, 46.72687, -3853.901123046875]]], [[[-125.32298, 46.72687, -3853.901123046875], [-125.32045, 46.73595, -4068.341552734375], [-125.32564, 46.73463, -3340.0966796875], [-125.32298, 46.72687, -3853.901123046875]]], [[[-125.31787, 46.72889, -4605.24365234375], [-125.32045, 46.73595, -4068.341552734375], [-125.32298, 46.72687, -3853.901123046875], [-125.31787, 46.72889, -4605.24365234375]]], [[[-125.31787, 46.72889, -4605.24365234375], [-125.31527, 46.73727, -4796.58642578125], [-125.32045, 46.73595, -4068.341552734375], [-125.31787, 46.72889, -4605.24365234375]]], [[[-125.31787, 46.72889, -4605.24365234375], [-125.31279, 46.73067, -5342.578125], [-125.31527, 46.73727, -4796.58642578125], [-125.31787, 46.72889, -4605.24365234375]]], [[[-125.31279, 46.73067, -5342.578125], [-125.31009, 46.73858, -5524.8310546875], [-125.31527, 46.73727, -4796.58642578125], [-125.31279, 46.73067, -5342.578125]]], [[[-125.30661, 46.73072, -6142.27978515625], [-125.31009, 46.73858, -5524.8310546875], [-125.31279, 46.73067, -5342.578125], [-125.30661, 46.73072, -6142.27978515625]]], [[[-125.30661, 46.73072, -6142.27978515625], [-125.30491, 46.7399, -6253.076171875], [-125.31009, 46.73858, -5524.8310546875], [-125.30661, 46.73072, -6142.27978515625]]], [[[-125.31988, 46.70131, -2657.827392578125], [-125.32884, 46.70368, -1874.4295654296875], [-125.3208, 46.6957, -1833.50830078125], [-125.31988, 46.70131, -2657.827392578125]]], [[[-125.29833, 46.72555, -6971.388671875], [-125.30047, 46.73146, -6968.61669921875], [-125.30661, 46.73072, -6142.27978515625], [-125.29833, 46.72555, -6971.388671875]]], [[[-125.32917, 46.71809, -2650.734619140625], [-125.33651, 46.72252, -1908.4114990234375], [-125.33313, 46.71301, -1901.98046875], [-125.32917, 46.71809, -2650.734619140625]]], [[[-125.32513, 46.70926, -2708.965576171875], [-125.32917, 46.71809, -2650.734619140625], [-125.33313, 46.71301, -1901.98046875], [-125.32513, 46.70926, -2708.965576171875]]], [[[-125.32163, 46.71582, -3514.305419921875], [-125.32917, 46.71809, -2650.734619140625], [-125.32513, 46.70926, -2708.965576171875], [-125.32163, 46.71582, -3514.305419921875]]], [[[-125.32163, 46.71582, -3514.305419921875], [-125.32513, 46.70926, -2708.965576171875], [-125.31548, 46.70507, -3621.67333984375], [-125.32163, 46.71582, -3514.305419921875]]], [[[-125.31548, 46.70507, -3621.67333984375], [-125.32513, 46.70926, -2708.965576171875], [-125.31988, 46.70131, -2657.827392578125], [-125.31548, 46.70507, -3621.67333984375]]], [[[-125.31548, 46.70507, -3621.67333984375], [-125.31988, 46.70131, -2657.827392578125], [-125.3092, 46.69716, -3276.31787109375], [-125.31548, 46.70507, -3621.67333984375]]], [[[-125.3092, 46.69716, -3276.31787109375], [-125.30351, 46.6987, -4087.09375], [-125.31548, 46.70507, -3621.67333984375], [-125.3092, 46.69716, -3276.31787109375]]], [[[-125.3092, 46.69716, -3276.31787109375], [-125.29973, 46.69109, -3572.041259765625], [-125.30351, 46.6987, -4087.09375], [-125.3092, 46.69716, -3276.31787109375]]], [[[-125.3092, 46.69716, -3276.31787109375], [-125.30586, 46.68954, -2706.69970703125], [-125.29973, 46.69109, -3572.041259765625], [-125.3092, 46.69716, -3276.31787109375]]], [[[-125.3092, 46.69716, -3276.31787109375], [-125.31324, 46.69446, -2502.40478515625], [-125.30586, 46.68954, -2706.69970703125], [-125.3092, 46.69716, -3276.31787109375]]], [[[-125.31988, 46.70131, -2657.827392578125], [-125.31324, 46.69446, -2502.40478515625], [-125.3092, 46.69716, -3276.31787109375], [-125.31988, 46.70131, -2657.827392578125]]], [[[-125.31988, 46.70131, -2657.827392578125], [-125.3208, 46.6957, -1833.50830078125], [-125.31324, 46.69446, -2502.40478515625], [-125.31988, 46.70131, -2657.827392578125]]], [[[-125.31988, 46.70131, -2657.827392578125], [-125.32513, 46.70926, -2708.965576171875], [-125.32884, 46.70368, -1874.4295654296875], [-125.31988, 46.70131, -2657.827392578125]]], [[[-125.32513, 46.70926, -2708.965576171875], [-125.33313, 46.71301, -1901.98046875], [-125.32884, 46.70368, -1874.4295654296875], [-125.32513, 46.70926, -2708.965576171875]]], [[[-125.31324, 46.69446, -2502.40478515625], [-125.3208, 46.6957, -1833.50830078125], [-125.312, 46.688, -1841.3580322265625], [-125.31324, 46.69446, -2502.40478515625]]], [[[-125.29359, 46.69263, -4437.3828125], [-125.30351, 46.6987, -4087.09375], [-125.29973, 46.69109, -3572.041259765625], [-125.29359, 46.69263, -4437.3828125]]], [[[-125.29688, 46.69974, -4939.79833984375], [-125.30351, 46.6987, -4087.09375], [-125.29359, 46.69263, -4437.3828125], [-125.29688, 46.69974, -4939.79833984375]]], [[[-125.29688, 46.69974, -4939.79833984375], [-125.29359, 46.69263, -4437.3828125], [-125.28745, 46.69417, -5302.724609375], [-125.29688, 46.69974, -4939.79833984375]]], [[[-125.29076, 46.70064, -5719.0400390625], [-125.29688, 46.69974, -4939.79833984375], [-125.28745, 46.69417, -5302.724609375], [-125.29076, 46.70064, -5719.0400390625]]], [[[-125.28132, 46.69571, -6168.06591796875], [-125.29076, 46.70064, -5719.0400390625], [-125.28745, 46.69417, -5302.724609375], [-125.28132, 46.69571, -6168.06591796875]]], [[[-125.29949, 46.70636, -5523.10546875], [-125.30606, 46.71433, -5417.74658203125], [-125.30672, 46.70572, -4655.95458984375], [-125.29949, 46.70636, -5523.10546875]]], [[[-125.30672, 46.70572, -4655.95458984375], [-125.30606, 46.71433, -5417.74658203125], [-125.31255, 46.7134, -4548.712890625], [-125.30672, 46.70572, -4655.95458984375]]], [[[-125.30491, 46.7399, -6253.076171875], [-125.30047, 46.73146, -6968.61669921875], [-125.29972, 46.74121, -6981.32080078125], [-125.30491, 46.7399, -6253.076171875]]], [[[-125.28132, 46.69571, -6168.06591796875], [-125.29018, 46.70463, -6310.45947265625], [-125.29076, 46.70064, -5719.0400390625], [-125.28132, 46.69571, -6168.06591796875]]]]}}]}