{"type": "FeatureCollection", "features": [{"type": "Feature", "properties": {"name": "AW_WASH_5", "CFM_ID": 314, "region": "Offshore_WAOR", "primary_state/province": "WA", "secondary_state/province": null, "avg_dip": 47, "dip_dir": "SW", "rake": 90, "slip_sense": "Reverse", "fault_level": 2, "NSHM23_sliprates": null, "QFFDAgeCatBin": null, "QFFDAgeBin": null, "upper_depth": -3.0, "upper_depth_constraint": "seismic imaging", "lower_depth": -5.3, "lower_depth_constraint": "megathrust", "3D_model_constraints": "trace and 2 MCS lines", "reference": "Ledeczi et al. (2024); Carbotte et al. (2023)", "nshm23_id": null, "lineage": null, "usgs_qffd_#": null, "comments": null, "id": "314"}, "geometry": {"type": "MultiPolygon", "coordinates": [[[[-125.98776, 47.51909, -4910.6416015625], [-125.99628, 47.51211, -5557.66845703125], [-125.9827, 47.51005, -4925.3046875], [-125.98776, 47.51909, -4910.6416015625]]], [[[-125.98168, 47.50131, -5131.9130859375], [-125.99152, 47.50223, -5583.4970703125], [-125.9814, 47.49293, -5374.7001953125], [-125.98168, 47.50131, -5131.9130859375]]], [[[-125.99628, 47.51211, -5557.66845703125], [-126.00452, 47.5053, -6017.22509765625], [-125.99152, 47.50223, -5583.4970703125], [-125.99628, 47.51211, -5557.66845703125]]], [[[-125.98168, 47.50131, -5131.9130859375], [-125.9814, 47.49293, -5374.7001953125], [-125.97403, 47.49432, -4896.009765625], [-125.98168, 47.50131, -5131.9130859375]]], [[[-125.97635, 47.48462, -5374.7001953125], [-125.9814, 47.49293, -5374.7001953125], [-125.98471, 47.48309, -5743.9296875], [-125.97635, 47.48462, -5374.7001953125]]], [[[-126.00229, 47.5362, -4981.48193359375], [-126.01469, 47.53813, -5499.607421875], [-126.00689, 47.52947, -5496.58251953125], [-126.00229, 47.5362, -4981.48193359375]]], [[[-125.9827, 47.51005, -4925.3046875], [-125.99628, 47.51211, -5557.66845703125], [-125.99152, 47.50223, -5583.4970703125], [-125.9827, 47.51005, -4925.3046875]]], [[[-126.09073, 47.60917, -5442.09765625], [-126.08187, 47.59991, -5572.8603515625], [-126.07985, 47.60884, -4836.97021484375], [-126.09073, 47.60917, -5442.09765625]]], [[[-125.98168, 47.50131, -5131.9130859375], [-125.9827, 47.51005, -4925.3046875], [-125.99152, 47.50223, -5583.4970703125], [-125.98168, 47.50131, -5131.9130859375]]], [[[-126.03393, 47.56922, -4773.30029296875], [-126.0458, 47.56902, -5491.06103515625], [-126.03763, 47.56159, -5481.10791015625], [-126.03393, 47.56922, -4773.30029296875]]], [[[-125.99205, 47.52831, -4753.9541015625], [-125.97963, 47.52517, -4056.096923828125], [-125.9851, 47.53394, -3941.72216796875], [-125.99205, 47.52831, -4753.9541015625]]], [[[-126.00118, 47.52119, -5520.8359375], [-126.00689, 47.52947, -5496.58251953125], [-126.01468, 47.52227, -6000.1005859375], [-126.00118, 47.52119, -5520.8359375]]], [[[-125.9537, 47.46038, -5065.2353515625], [-125.96511, 47.46165, -5564.75732421875], [-125.96054, 47.45434, -5614.41552734375], [-125.9537, 47.46038, -5065.2353515625]]], [[[-126.01717, 47.55327, -4824.81005859375], [-126.03001, 47.55383, -5502.12109375], [-126.02207, 47.54617, -5485.99609375], [-126.01717, 47.55327, -4824.81005859375]]], [[[-125.99205, 47.52831, -4753.9541015625], [-125.99583, 47.53907, -4376.22265625], [-126.00229, 47.5362, -4981.48193359375], [-125.99205, 47.52831, -4753.9541015625]]], [[[-126.00054, 47.56139, -2676.107421875], [-125.99445, 47.56358, -1779.6507568359375], [-126.00754, 47.57129, -2166.165771484375], [-126.00054, 47.56139, -2676.107421875]]], [[[-126.07147, 47.60186, -4836.97021484375], [-126.07985, 47.60884, -4836.97021484375], [-126.08187, 47.59991, -5572.8603515625], [-126.07147, 47.60186, -4836.97021484375]]], [[[-125.96605, 47.44744, -6026.31396484375], [-125.95964, 47.44498, -5860.12841796875], [-125.96054, 47.45434, -5614.41552734375], [-125.96605, 47.44744, -6026.31396484375]]], [[[-126.02664, 47.58168, -2985.454345703125], [-126.0297, 47.57582, -3851.884033203125], [-126.01841, 47.57424, -2998.12353515625], [-126.02664, 47.58168, -2985.454345703125]]], [[[-126.01469, 47.53813, -5499.607421875], [-126.02744, 47.53841, -5991.17578125], [-126.02061, 47.5305, -5989.65576171875], [-126.01469, 47.53813, -5499.607421875]]], [[[-125.94085, 47.46607, -3880.62841796875], [-125.93513, 47.45689, -3998.287353515625], [-125.93259, 47.46528, -3224.679931640625], [-125.94085, 47.46607, -3880.62841796875]]], [[[-125.99205, 47.52831, -4753.9541015625], [-126.00118, 47.52119, -5520.8359375], [-125.98776, 47.51909, -4910.6416015625], [-125.99205, 47.52831, -4753.9541015625]]], [[[-125.98471, 47.48309, -5743.9296875], [-125.99533, 47.48808, -6032.193359375], [-125.9898, 47.47972, -6014.85302734375], [-125.98471, 47.48309, -5743.9296875]]], [[[-126.07147, 47.60186, -4836.97021484375], [-126.07107, 47.61047, -3978.31005859375], [-126.07985, 47.60884, -4836.97021484375], [-126.07147, 47.60186, -4836.97021484375]]], [[[-125.97251, 47.46804, -5657.08056640625], [-125.97965, 47.47478, -5743.9296875], [-125.98409, 47.47142, -6000.5830078125], [-125.97251, 47.46804, -5657.08056640625]]], [[[-126.06085, 47.59422, -4694.93408203125], [-126.07147, 47.60186, -4836.97021484375], [-126.07082, 47.59232, -5443.21044921875], [-126.06085, 47.59422, -4694.93408203125]]], [[[-125.99152, 47.50223, -5583.4970703125], [-126.00452, 47.5053, -6017.22509765625], [-126.00012, 47.49664, -6030.54345703125], [-125.99152, 47.50223, -5583.4970703125]]], [[[-125.97635, 47.48462, -5374.7001953125], [-125.97403, 47.49432, -4896.009765625], [-125.9814, 47.49293, -5374.7001953125], [-125.97635, 47.48462, -5374.7001953125]]], [[[-126.01468, 47.52227, -6000.1005859375], [-126.00689, 47.52947, -5496.58251953125], [-126.02061, 47.5305, -5989.65576171875], [-126.01468, 47.52227, -6000.1005859375]]], [[[-125.97251, 47.46804, -5657.08056640625], [-125.98409, 47.47142, -6000.5830078125], [-125.97801, 47.46324, -6001.8642578125], [-125.97251, 47.46804, -5657.08056640625]]], [[[-126.06269, 47.60349, -3978.31005859375], [-126.07107, 47.61047, -3978.31005859375], [-126.07147, 47.60186, -4836.97021484375], [-126.06269, 47.60349, -3978.31005859375]]], [[[-126.0259, 47.56104, -4842.357421875], [-126.01717, 47.55327, -4824.81005859375], [-126.01447, 47.55982, -4115.9013671875], [-126.0259, 47.56104, -4842.357421875]]], [[[-126.00327, 47.54987, -4108.3173828125], [-125.99565, 47.55276, -3191.762451171875], [-126.00552, 47.55796, -3557.64453125], [-126.00327, 47.54987, -4108.3173828125]]], [[[-126.06257, 47.6121, -3102.43994140625], [-126.07107, 47.61047, -3978.31005859375], [-126.06269, 47.60349, -3978.31005859375], [-126.06257, 47.6121, -3102.43994140625]]], [[[-126.05239, 47.59733, -3709.267333984375], [-126.05419, 47.60512, -3102.43994140625], [-126.06269, 47.60349, -3978.31005859375], [-126.05239, 47.59733, -3709.267333984375]]], [[[-125.93513, 47.45689, -3998.287353515625], [-125.92604, 47.44756, -3869.3046875], [-125.9256, 47.45269, -3546.2060546875], [-125.93513, 47.45689, -3998.287353515625]]], [[[-126.07107, 47.61047, -3978.31005859375], [-126.07725, 47.6155, -3969.705078125], [-126.07985, 47.60884, -4836.97021484375], [-126.07107, 47.61047, -3978.31005859375]]], [[[-126.06257, 47.6121, -3102.43994140625], [-126.07095, 47.61908, -3102.43994140625], [-126.07107, 47.61047, -3978.31005859375], [-126.06257, 47.6121, -3102.43994140625]]], [[[-126.00892, 47.54501, -4859.3193359375], [-126.01717, 47.55327, -4824.81005859375], [-126.02207, 47.54617, -5485.99609375], [-126.00892, 47.54501, -4859.3193359375]]], [[[-126.06257, 47.6121, -3102.43994140625], [-126.0645, 47.62028, -2129.321044921875], [-126.07095, 47.61908, -3102.43994140625], [-126.06257, 47.6121, -3102.43994140625]]], [[[-125.99152, 47.50223, -5583.4970703125], [-125.98976, 47.49141, -5743.9296875], [-125.9814, 47.49293, -5374.7001953125], [-125.99152, 47.50223, -5583.4970703125]]], [[[-126.0645, 47.62028, -2129.321044921875], [-126.06257, 47.6121, -3102.43994140625], [-126.05612, 47.6133, -2129.321044921875], [-126.0645, 47.62028, -2129.321044921875]]], [[[-126.07082, 47.59232, -5443.21044921875], [-126.08187, 47.59991, -5572.8603515625], [-126.08235, 47.59063, -5964.775390625], [-126.07082, 47.59232, -5443.21044921875]]], [[[-126.01469, 47.53813, -5499.607421875], [-126.02061, 47.5305, -5989.65576171875], [-126.00689, 47.52947, -5496.58251953125], [-126.01469, 47.53813, -5499.607421875]]], [[[-126.00054, 47.56139, -2676.107421875], [-125.98957, 47.55566, -2282.9248046875], [-125.99445, 47.56358, -1779.6507568359375], [-126.00054, 47.56139, -2676.107421875]]], [[[-126.04105, 47.60103, -2073.20361328125], [-126.04774, 47.60632, -2129.321044921875], [-126.04247, 47.59627, -2918.00439453125], [-126.04105, 47.60103, -2073.20361328125]]], [[[-125.98976, 47.49141, -5743.9296875], [-126.00012, 47.49664, -6030.54345703125], [-125.99533, 47.48808, -6032.193359375], [-125.98976, 47.49141, -5743.9296875]]], [[[-125.99628, 47.51211, -5557.66845703125], [-126.00118, 47.52119, -5520.8359375], [-126.00934, 47.51386, -6010.177734375], [-125.99628, 47.51211, -5557.66845703125]]], [[[-126.05612, 47.6133, -2129.321044921875], [-126.05538, 47.62195, -1335.8900146484375], [-126.0645, 47.62028, -2129.321044921875], [-126.05612, 47.6133, -2129.321044921875]]], [[[-126.06257, 47.6121, -3102.43994140625], [-126.06269, 47.60349, -3978.31005859375], [-126.05419, 47.60512, -3102.43994140625], [-126.06257, 47.6121, -3102.43994140625]]], [[[-126.05538, 47.62195, -1335.8900146484375], [-126.05612, 47.6133, -2129.321044921875], [-126.047, 47.61497, -1335.8900146484375], [-126.05538, 47.62195, -1335.8900146484375]]], [[[-126.00327, 47.54987, -4108.3173828125], [-126.01717, 47.55327, -4824.81005859375], [-126.00892, 47.54501, -4859.3193359375], [-126.00327, 47.54987, -4108.3173828125]]], [[[-125.9814, 47.49293, -5374.7001953125], [-125.98976, 47.49141, -5743.9296875], [-125.98471, 47.48309, -5743.9296875], [-125.9814, 47.49293, -5374.7001953125]]], [[[-126.04774, 47.60632, -2129.321044921875], [-126.047, 47.61497, -1335.8900146484375], [-126.05612, 47.6133, -2129.321044921875], [-126.04774, 47.60632, -2129.321044921875]]], [[[-126.00118, 47.52119, -5520.8359375], [-126.01468, 47.52227, -6000.1005859375], [-126.00934, 47.51386, -6010.177734375], [-126.00118, 47.52119, -5520.8359375]]], [[[-126.00754, 47.57129, -2166.165771484375], [-126.0, 47.5716, -1335.8900146484375], [-126.00745, 47.57899, -1335.8900146484375], [-126.00754, 47.57129, -2166.165771484375]]], [[[-126.04774, 47.60632, -2129.321044921875], [-126.03862, 47.60799, -1335.8900146484375], [-126.047, 47.61497, -1335.8900146484375], [-126.04774, 47.60632, -2129.321044921875]]], [[[-125.92604, 47.44756, -3869.3046875], [-125.93513, 47.45689, -3998.287353515625], [-125.93452, 47.44597, -4564.53076171875], [-125.92604, 47.44756, -3869.3046875]]], [[[-126.04105, 47.60103, -2073.20361328125], [-126.03862, 47.60799, -1335.8900146484375], [-126.04774, 47.60632, -2129.321044921875], [-126.04105, 47.60103, -2073.20361328125]]], [[[-125.95481, 47.49785, -3224.679931640625], [-125.95983, 47.50617, -3224.679931640625], [-125.96073, 47.4968, -3816.510986328125], [-125.95481, 47.49785, -3224.679931640625]]], [[[-125.93513, 47.45689, -3998.287353515625], [-125.9256, 47.45269, -3546.2060546875], [-125.9252, 47.45782, -3224.679931640625], [-125.93513, 47.45689, -3998.287353515625]]], [[[-126.00754, 47.57129, -2166.165771484375], [-126.00745, 47.57899, -1335.8900146484375], [-126.01674, 47.58009, -2106.27587890625], [-126.00754, 47.57129, -2166.165771484375]]], [[[-126.02243, 47.56795, -3996.27978515625], [-126.03393, 47.56922, -4773.30029296875], [-126.0259, 47.56104, -4842.357421875], [-126.02243, 47.56795, -3996.27978515625]]], [[[-126.04105, 47.60103, -2073.20361328125], [-126.03024, 47.60101, -1335.8900146484375], [-126.03862, 47.60799, -1335.8900146484375], [-126.04105, 47.60103, -2073.20361328125]]], [[[-125.96225, 47.48724, -4361.68994140625], [-125.95568, 47.48849, -3816.510986328125], [-125.96073, 47.4968, -3816.510986328125], [-125.96225, 47.48724, -4361.68994140625]]], [[[-125.93513, 47.45689, -3998.287353515625], [-125.9252, 47.45782, -3224.679931640625], [-125.93259, 47.46528, -3224.679931640625], [-125.93513, 47.45689, -3998.287353515625]]], [[[-126.03257, 47.59395, -2029.771484375], [-126.03024, 47.60101, -1335.8900146484375], [-126.04105, 47.60103, -2073.20361328125], [-126.03257, 47.59395, -2029.771484375]]], [[[-125.99205, 47.52831, -4753.9541015625], [-125.98776, 47.51909, -4910.6416015625], [-125.97963, 47.52517, -4056.096923828125], [-125.99205, 47.52831, -4753.9541015625]]], [[[-125.95063, 47.48017, -3816.510986328125], [-125.94471, 47.48122, -3224.679931640625], [-125.94976, 47.48953, -3224.679931640625], [-125.95063, 47.48017, -3816.510986328125]]], [[[-126.03257, 47.59395, -2029.771484375], [-126.02187, 47.59402, -1335.8900146484375], [-126.03024, 47.60101, -1335.8900146484375], [-126.03257, 47.59395, -2029.771484375]]], [[[-126.06208, 47.5846, -5441.80615234375], [-126.07082, 47.59232, -5443.21044921875], [-126.0743, 47.58327, -5974.12548828125], [-126.06208, 47.5846, -5441.80615234375]]], [[[-125.94085, 47.46607, -3880.62841796875], [-125.93259, 47.46528, -3224.679931640625], [-125.93954, 47.47294, -3224.679931640625], [-125.94085, 47.46607, -3880.62841796875]]], [[[-126.08235, 47.59063, -5964.775390625], [-126.08187, 47.59991, -5572.8603515625], [-126.0904, 47.59799, -5947.642578125], [-126.08235, 47.59063, -5964.775390625]]], [[[-126.02461, 47.58711, -2031.3336181640625], [-126.02187, 47.59402, -1335.8900146484375], [-126.03257, 47.59395, -2029.771484375], [-126.02461, 47.58711, -2031.3336181640625]]], [[[-126.0458, 47.56902, -5491.06103515625], [-126.05822, 47.56852, -5988.60400390625], [-126.05019, 47.56115, -5990.10595703125], [-126.0458, 47.56902, -5491.06103515625]]], [[[-126.01717, 47.55327, -4824.81005859375], [-126.0259, 47.56104, -4842.357421875], [-126.03001, 47.55383, -5502.12109375], [-126.01717, 47.55327, -4824.81005859375]]], [[[-126.02461, 47.58711, -2031.3336181640625], [-126.01399, 47.5868, -1335.8900146484375], [-126.02187, 47.59402, -1335.8900146484375], [-126.02461, 47.58711, -2031.3336181640625]]], [[[-126.02461, 47.58711, -2031.3336181640625], [-126.01674, 47.58009, -2106.27587890625], [-126.01399, 47.5868, -1335.8900146484375], [-126.02461, 47.58711, -2031.3336181640625]]], [[[-126.00327, 47.54987, -4108.3173828125], [-125.99116, 47.54391, -3652.08740234375], [-125.99565, 47.55276, -3191.762451171875], [-126.00327, 47.54987, -4108.3173828125]]], [[[-126.01841, 47.57424, -2998.12353515625], [-126.00754, 47.57129, -2166.165771484375], [-126.01674, 47.58009, -2106.27587890625], [-126.01841, 47.57424, -2998.12353515625]]], [[[-125.98168, 47.50131, -5131.9130859375], [-125.97403, 47.49432, -4896.009765625], [-125.97413, 47.50311, -4572.998046875], [-125.98168, 47.50131, -5131.9130859375]]], [[[-126.02461, 47.58711, -2031.3336181640625], [-126.02664, 47.58168, -2985.454345703125], [-126.01674, 47.58009, -2106.27587890625], [-126.02461, 47.58711, -2031.3336181640625]]], [[[-126.0904, 47.59799, -5947.642578125], [-126.08187, 47.59991, -5572.8603515625], [-126.09073, 47.60917, -5442.09765625], [-126.0904, 47.59799, -5947.642578125]]], [[[-125.95063, 47.48017, -3816.510986328125], [-125.94976, 47.48953, -3224.679931640625], [-125.95568, 47.48849, -3816.510986328125], [-125.95063, 47.48017, -3816.510986328125]]], [[[-125.9572, 47.47893, -4361.68994140625], [-125.95568, 47.48849, -3816.510986328125], [-125.96225, 47.48724, -4361.68994140625], [-125.9572, 47.47893, -4361.68994140625]]], [[[-126.02664, 47.58168, -2985.454345703125], [-126.02461, 47.58711, -2031.3336181640625], [-126.03354, 47.58826, -2925.289794921875], [-126.02664, 47.58168, -2985.454345703125]]], [[[-125.99628, 47.51211, -5557.66845703125], [-126.00934, 47.51386, -6010.177734375], [-126.00452, 47.5053, -6017.22509765625], [-125.99628, 47.51211, -5557.66845703125]]], [[[-126.07082, 47.59232, -5443.21044921875], [-126.07147, 47.60186, -4836.97021484375], [-126.08187, 47.59991, -5572.8603515625], [-126.07082, 47.59232, -5443.21044921875]]], [[[-126.01111, 47.56636, -3167.316162109375], [-126.02243, 47.56795, -3996.27978515625], [-126.01447, 47.55982, -4115.9013671875], [-126.01111, 47.56636, -3167.316162109375]]], [[[-126.03973, 47.58293, -4009.211181640625], [-126.02664, 47.58168, -2985.454345703125], [-126.03354, 47.58826, -2925.289794921875], [-126.03973, 47.58293, -4009.211181640625]]], [[[-126.06208, 47.5846, -5441.80615234375], [-126.06085, 47.59422, -4694.93408203125], [-126.07082, 47.59232, -5443.21044921875], [-126.06208, 47.5846, -5441.80615234375]]], [[[-126.03973, 47.58293, -4009.211181640625], [-126.0297, 47.57582, -3851.884033203125], [-126.02664, 47.58168, -2985.454345703125], [-126.03973, 47.58293, -4009.211181640625]]], [[[-126.06085, 47.59422, -4694.93408203125], [-126.06269, 47.60349, -3978.31005859375], [-126.07147, 47.60186, -4836.97021484375], [-126.06085, 47.59422, -4694.93408203125]]], [[[-126.03973, 47.58293, -4009.211181640625], [-126.04204, 47.57647, -4780.2109375], [-126.0297, 47.57582, -3851.884033203125], [-126.03973, 47.58293, -4009.211181640625]]], [[[-126.03973, 47.58293, -4009.211181640625], [-126.05112, 47.58425, -4816.64501953125], [-126.04204, 47.57647, -4780.2109375], [-126.03973, 47.58293, -4009.211181640625]]], [[[-125.95568, 47.48849, -3816.510986328125], [-125.95481, 47.49785, -3224.679931640625], [-125.96073, 47.4968, -3816.510986328125], [-125.95568, 47.48849, -3816.510986328125]]], [[[-126.03973, 47.58293, -4009.211181640625], [-126.05079, 47.59054, -4214.3662109375], [-126.05112, 47.58425, -4816.64501953125], [-126.03973, 47.58293, -4009.211181640625]]], [[[-126.03973, 47.58293, -4009.211181640625], [-126.04274, 47.58979, -3610.806396484375], [-126.05079, 47.59054, -4214.3662109375], [-126.03973, 47.58293, -4009.211181640625]]], [[[-126.04274, 47.58979, -3610.806396484375], [-126.03973, 47.58293, -4009.211181640625], [-126.03354, 47.58826, -2925.289794921875], [-126.04274, 47.58979, -3610.806396484375]]], [[[-126.04274, 47.58979, -3610.806396484375], [-126.03354, 47.58826, -2925.289794921875], [-126.04247, 47.59627, -2918.00439453125], [-126.04274, 47.58979, -3610.806396484375]]], [[[-126.04274, 47.58979, -3610.806396484375], [-126.04247, 47.59627, -2918.00439453125], [-126.05239, 47.59733, -3709.267333984375], [-126.04274, 47.58979, -3610.806396484375]]], [[[-126.04274, 47.58979, -3610.806396484375], [-126.05239, 47.59733, -3709.267333984375], [-126.05079, 47.59054, -4214.3662109375], [-126.04274, 47.58979, -3610.806396484375]]], [[[-126.06085, 47.59422, -4694.93408203125], [-126.05079, 47.59054, -4214.3662109375], [-126.05239, 47.59733, -3709.267333984375], [-126.06085, 47.59422, -4694.93408203125]]], [[[-126.05079, 47.59054, -4214.3662109375], [-126.06085, 47.59422, -4694.93408203125], [-126.05112, 47.58425, -4816.64501953125], [-126.05079, 47.59054, -4214.3662109375]]], [[[-126.05612, 47.6133, -2129.321044921875], [-126.05419, 47.60512, -3102.43994140625], [-126.04774, 47.60632, -2129.321044921875], [-126.05612, 47.6133, -2129.321044921875]]], [[[-125.99152, 47.50223, -5583.4970703125], [-126.00012, 47.49664, -6030.54345703125], [-125.98976, 47.49141, -5743.9296875], [-125.99152, 47.50223, -5583.4970703125]]], [[[-126.05112, 47.58425, -4816.64501953125], [-126.06085, 47.59422, -4694.93408203125], [-126.06208, 47.5846, -5441.80615234375], [-126.05112, 47.58425, -4816.64501953125]]], [[[-126.05419, 47.60512, -3102.43994140625], [-126.04247, 47.59627, -2918.00439453125], [-126.04774, 47.60632, -2129.321044921875], [-126.05419, 47.60512, -3102.43994140625]]], [[[-125.98776, 47.51909, -4910.6416015625], [-125.97481, 47.51663, -4114.0908203125], [-125.97963, 47.52517, -4056.096923828125], [-125.98776, 47.51909, -4910.6416015625]]], [[[-126.04247, 47.59627, -2918.00439453125], [-126.03354, 47.58826, -2925.289794921875], [-126.03257, 47.59395, -2029.771484375], [-126.04247, 47.59627, -2918.00439453125]]], [[[-126.06208, 47.5846, -5441.80615234375], [-126.0539, 47.57642, -5492.4580078125], [-126.05112, 47.58425, -4816.64501953125], [-126.06208, 47.5846, -5441.80615234375]]], [[[-126.0539, 47.57642, -5492.4580078125], [-126.06208, 47.5846, -5441.80615234375], [-126.06632, 47.57587, -5984.12646484375], [-126.0539, 47.57642, -5492.4580078125]]], [[[-125.9572, 47.47893, -4361.68994140625], [-125.95063, 47.48017, -3816.510986328125], [-125.95568, 47.48849, -3816.510986328125], [-125.9572, 47.47893, -4361.68994140625]]], [[[-126.0539, 47.57642, -5492.4580078125], [-126.06632, 47.57587, -5984.12646484375], [-126.05822, 47.56852, -5988.60400390625], [-126.0539, 47.57642, -5492.4580078125]]], [[[-125.91761, 47.45044, -3224.679931640625], [-125.9256, 47.45269, -3546.2060546875], [-125.92604, 47.44756, -3869.3046875], [-125.91761, 47.45044, -3224.679931640625]]], [[[-126.0539, 47.57642, -5492.4580078125], [-126.05822, 47.56852, -5988.60400390625], [-126.0458, 47.56902, -5491.06103515625], [-126.0539, 47.57642, -5492.4580078125]]], [[[-126.06085, 47.59422, -4694.93408203125], [-126.05239, 47.59733, -3709.267333984375], [-126.06269, 47.60349, -3978.31005859375], [-126.06085, 47.59422, -4694.93408203125]]], [[[-126.04204, 47.57647, -4780.2109375], [-126.0539, 47.57642, -5492.4580078125], [-126.0458, 47.56902, -5491.06103515625], [-126.04204, 47.57647, -4780.2109375]]], [[[-126.04204, 47.57647, -4780.2109375], [-126.05112, 47.58425, -4816.64501953125], [-126.0539, 47.57642, -5492.4580078125], [-126.04204, 47.57647, -4780.2109375]]], [[[-126.06208, 47.5846, -5441.80615234375], [-126.0743, 47.58327, -5974.12548828125], [-126.06632, 47.57587, -5984.12646484375], [-126.06208, 47.5846, -5441.80615234375]]], [[[-126.04204, 47.57647, -4780.2109375], [-126.0458, 47.56902, -5491.06103515625], [-126.03393, 47.56922, -4773.30029296875], [-126.04204, 47.57647, -4780.2109375]]], [[[-125.95568, 47.48849, -3816.510986328125], [-125.94976, 47.48953, -3224.679931640625], [-125.95481, 47.49785, -3224.679931640625], [-125.95568, 47.48849, -3816.510986328125]]], [[[-126.0297, 47.57582, -3851.884033203125], [-126.04204, 47.57647, -4780.2109375], [-126.03393, 47.56922, -4773.30029296875], [-126.0297, 47.57582, -3851.884033203125]]], [[[-125.91761, 47.45044, -3224.679931640625], [-125.9252, 47.45782, -3224.679931640625], [-125.9256, 47.45269, -3546.2060546875], [-125.91761, 47.45044, -3224.679931640625]]], [[[-126.02243, 47.56795, -3996.27978515625], [-126.0297, 47.57582, -3851.884033203125], [-126.03393, 47.56922, -4773.30029296875], [-126.02243, 47.56795, -3996.27978515625]]], [[[-126.02243, 47.56795, -3996.27978515625], [-126.01841, 47.57424, -2998.12353515625], [-126.0297, 47.57582, -3851.884033203125], [-126.02243, 47.56795, -3996.27978515625]]], [[[-126.01111, 47.56636, -3167.316162109375], [-126.01841, 47.57424, -2998.12353515625], [-126.02243, 47.56795, -3996.27978515625], [-126.01111, 47.56636, -3167.316162109375]]], [[[-126.04247, 47.59627, -2918.00439453125], [-126.03257, 47.59395, -2029.771484375], [-126.04105, 47.60103, -2073.20361328125], [-126.04247, 47.59627, -2918.00439453125]]], [[[-126.00892, 47.54501, -4859.3193359375], [-126.02207, 47.54617, -5485.99609375], [-126.01469, 47.53813, -5499.607421875], [-126.00892, 47.54501, -4859.3193359375]]], [[[-126.01111, 47.56636, -3167.316162109375], [-126.00754, 47.57129, -2166.165771484375], [-126.01841, 47.57424, -2998.12353515625], [-126.01111, 47.56636, -3167.316162109375]]], [[[-126.07082, 47.59232, -5443.21044921875], [-126.08235, 47.59063, -5964.775390625], [-126.0743, 47.58327, -5974.12548828125], [-126.07082, 47.59232, -5443.21044921875]]], [[[-126.01111, 47.56636, -3167.316162109375], [-126.00054, 47.56139, -2676.107421875], [-126.00754, 47.57129, -2166.165771484375], [-126.01111, 47.56636, -3167.316162109375]]], [[[-126.00754, 47.57129, -2166.165771484375], [-125.99445, 47.56358, -1779.6507568359375], [-126.0, 47.5716, -1335.8900146484375], [-126.00754, 47.57129, -2166.165771484375]]], [[[-126.00054, 47.56139, -2676.107421875], [-126.01111, 47.56636, -3167.316162109375], [-126.00552, 47.55796, -3557.64453125], [-126.00054, 47.56139, -2676.107421875]]], [[[-125.99565, 47.55276, -3191.762451171875], [-126.00054, 47.56139, -2676.107421875], [-126.00552, 47.55796, -3557.64453125], [-125.99565, 47.55276, -3191.762451171875]]], [[[-125.99565, 47.55276, -3191.762451171875], [-125.98957, 47.55566, -2282.9248046875], [-126.00054, 47.56139, -2676.107421875], [-125.99565, 47.55276, -3191.762451171875]]], [[[-125.99565, 47.55276, -3191.762451171875], [-125.98491, 47.54766, -2784.3779296875], [-125.98957, 47.55566, -2282.9248046875], [-125.99565, 47.55276, -3191.762451171875]]], [[[-126.00745, 47.57899, -1335.8900146484375], [-126.01399, 47.5868, -1335.8900146484375], [-126.01674, 47.58009, -2106.27587890625], [-126.00745, 47.57899, -1335.8900146484375]]], [[[-125.98491, 47.54766, -2784.3779296875], [-125.99565, 47.55276, -3191.762451171875], [-125.99116, 47.54391, -3652.08740234375], [-125.98491, 47.54766, -2784.3779296875]]], [[[-125.98019, 47.53938, -3224.679931640625], [-125.98491, 47.54766, -2784.3779296875], [-125.99116, 47.54391, -3652.08740234375], [-125.98019, 47.53938, -3224.679931640625]]], [[[-125.9851, 47.53394, -3941.72216796875], [-125.98019, 47.53938, -3224.679931640625], [-125.99116, 47.54391, -3652.08740234375], [-125.9851, 47.53394, -3941.72216796875]]], [[[-125.9851, 47.53394, -3941.72216796875], [-125.97475, 47.53118, -3224.679931640625], [-125.98019, 47.53938, -3224.679931640625], [-125.9851, 47.53394, -3941.72216796875]]], [[[-125.97963, 47.52517, -4056.096923828125], [-125.97475, 47.53118, -3224.679931640625], [-125.9851, 47.53394, -3941.72216796875], [-125.97963, 47.52517, -4056.096923828125]]], [[[-125.97963, 47.52517, -4056.096923828125], [-125.96983, 47.52283, -3224.679931640625], [-125.97475, 47.53118, -3224.679931640625], [-125.97963, 47.52517, -4056.096923828125]]], [[[-125.97481, 47.51663, -4114.0908203125], [-125.96983, 47.52283, -3224.679931640625], [-125.97963, 47.52517, -4056.096923828125], [-125.97481, 47.51663, -4114.0908203125]]], [[[-125.97481, 47.51663, -4114.0908203125], [-125.96486, 47.51449, -3224.679931640625], [-125.96983, 47.52283, -3224.679931640625], [-125.97481, 47.51663, -4114.0908203125]]], [[[-125.96879, 47.5073, -4034.78662109375], [-125.96486, 47.51449, -3224.679931640625], [-125.97481, 47.51663, -4114.0908203125], [-125.96879, 47.5073, -4034.78662109375]]], [[[-125.96879, 47.5073, -4034.78662109375], [-125.95983, 47.50617, -3224.679931640625], [-125.96486, 47.51449, -3224.679931640625], [-125.96879, 47.5073, -4034.78662109375]]], [[[-126.07985, 47.60884, -4836.97021484375], [-126.08354, 47.61191, -4836.97021484375], [-126.09073, 47.60917, -5442.09765625], [-126.07985, 47.60884, -4836.97021484375]]], [[[-125.96879, 47.5073, -4034.78662109375], [-125.96073, 47.4968, -3816.510986328125], [-125.95983, 47.50617, -3224.679931640625], [-125.96879, 47.5073, -4034.78662109375]]], [[[-125.96879, 47.5073, -4034.78662109375], [-125.9673, 47.49556, -4361.68994140625], [-125.96073, 47.4968, -3816.510986328125], [-125.96879, 47.5073, -4034.78662109375]]], [[[-125.97413, 47.50311, -4572.998046875], [-125.9673, 47.49556, -4361.68994140625], [-125.96879, 47.5073, -4034.78662109375], [-125.97413, 47.50311, -4572.998046875]]], [[[-125.9673, 47.49556, -4361.68994140625], [-125.97413, 47.50311, -4572.998046875], [-125.97403, 47.49432, -4896.009765625], [-125.9673, 47.49556, -4361.68994140625]]], [[[-125.96898, 47.48601, -4896.009765625], [-125.9673, 47.49556, -4361.68994140625], [-125.97403, 47.49432, -4896.009765625], [-125.96898, 47.48601, -4896.009765625]]], [[[-125.96898, 47.48601, -4896.009765625], [-125.96225, 47.48724, -4361.68994140625], [-125.9673, 47.49556, -4361.68994140625], [-125.96898, 47.48601, -4896.009765625]]], [[[-125.96393, 47.47769, -4896.009765625], [-125.96225, 47.48724, -4361.68994140625], [-125.96898, 47.48601, -4896.009765625], [-125.96393, 47.47769, -4896.009765625]]], [[[-125.96393, 47.47769, -4896.009765625], [-125.9572, 47.47893, -4361.68994140625], [-125.96225, 47.48724, -4361.68994140625], [-125.96393, 47.47769, -4896.009765625]]], [[[-125.95531, 47.46975, -4698.59765625], [-125.9572, 47.47893, -4361.68994140625], [-125.96393, 47.47769, -4896.009765625], [-125.95531, 47.46975, -4698.59765625]]], [[[-125.94838, 47.47179, -4098.681640625], [-125.9572, 47.47893, -4361.68994140625], [-125.95531, 47.46975, -4698.59765625], [-125.94838, 47.47179, -4098.681640625]]], [[[-125.94838, 47.47179, -4098.681640625], [-125.95063, 47.48017, -3816.510986328125], [-125.9572, 47.47893, -4361.68994140625], [-125.94838, 47.47179, -4098.681640625]]], [[[-125.94838, 47.47179, -4098.681640625], [-125.93954, 47.47294, -3224.679931640625], [-125.95063, 47.48017, -3816.510986328125], [-125.94838, 47.47179, -4098.681640625]]], [[[-125.94838, 47.47179, -4098.681640625], [-125.94085, 47.46607, -3880.62841796875], [-125.93954, 47.47294, -3224.679931640625], [-125.94838, 47.47179, -4098.681640625]]], [[[-125.94613, 47.46218, -4479.8388671875], [-125.94085, 47.46607, -3880.62841796875], [-125.94838, 47.47179, -4098.681640625], [-125.94613, 47.46218, -4479.8388671875]]], [[[-125.94613, 47.46218, -4479.8388671875], [-125.93513, 47.45689, -3998.287353515625], [-125.94085, 47.46607, -3880.62841796875], [-125.94613, 47.46218, -4479.8388671875]]], [[[-125.98471, 47.48309, -5743.9296875], [-125.98976, 47.49141, -5743.9296875], [-125.99533, 47.48808, -6032.193359375], [-125.98471, 47.48309, -5743.9296875]]], [[[-125.93513, 47.45689, -3998.287353515625], [-125.94613, 47.46218, -4479.8388671875], [-125.94351, 47.45312, -4802.27783203125], [-125.93513, 47.45689, -3998.287353515625]]], [[[-125.94351, 47.45312, -4802.27783203125], [-125.93452, 47.44597, -4564.53076171875], [-125.93513, 47.45689, -3998.287353515625], [-125.94351, 47.45312, -4802.27783203125]]], [[[-125.93452, 47.44597, -4564.53076171875], [-125.94351, 47.45312, -4802.27783203125], [-125.94358, 47.44429, -5213.21044921875], [-125.93452, 47.44597, -4564.53076171875]]], [[[-125.9527, 47.45051, -5430.03076171875], [-125.94358, 47.44429, -5213.21044921875], [-125.94351, 47.45312, -4802.27783203125], [-125.9527, 47.45051, -5430.03076171875]]], [[[-125.9527, 47.45051, -5430.03076171875], [-125.95324, 47.44251, -5692.154296875], [-125.94358, 47.44429, -5213.21044921875], [-125.9527, 47.45051, -5430.03076171875]]], [[[-125.9527, 47.45051, -5430.03076171875], [-125.95964, 47.44498, -5860.12841796875], [-125.95324, 47.44251, -5692.154296875], [-125.9527, 47.45051, -5430.03076171875]]], [[[-125.9527, 47.45051, -5430.03076171875], [-125.96054, 47.45434, -5614.41552734375], [-125.95964, 47.44498, -5860.12841796875], [-125.9527, 47.45051, -5430.03076171875]]], [[[-125.9527, 47.45051, -5430.03076171875], [-125.9537, 47.46038, -5065.2353515625], [-125.96054, 47.45434, -5614.41552734375], [-125.9527, 47.45051, -5430.03076171875]]], [[[-126.03354, 47.58826, -2925.289794921875], [-126.02461, 47.58711, -2031.3336181640625], [-126.03257, 47.59395, -2029.771484375], [-126.03354, 47.58826, -2925.289794921875]]], [[[-125.9527, 47.45051, -5430.03076171875], [-125.94351, 47.45312, -4802.27783203125], [-125.9537, 47.46038, -5065.2353515625], [-125.9527, 47.45051, -5430.03076171875]]], [[[-125.94613, 47.46218, -4479.8388671875], [-125.9537, 47.46038, -5065.2353515625], [-125.94351, 47.45312, -4802.27783203125], [-125.94613, 47.46218, -4479.8388671875]]], [[[-125.94613, 47.46218, -4479.8388671875], [-125.95531, 47.46975, -4698.59765625], [-125.9537, 47.46038, -5065.2353515625], [-125.94613, 47.46218, -4479.8388671875]]], [[[-125.94613, 47.46218, -4479.8388671875], [-125.94838, 47.47179, -4098.681640625], [-125.95531, 47.46975, -4698.59765625], [-125.94613, 47.46218, -4479.8388671875]]], [[[-125.96304, 47.46871, -5220.056640625], [-125.9537, 47.46038, -5065.2353515625], [-125.95531, 47.46975, -4698.59765625], [-125.96304, 47.46871, -5220.056640625]]], [[[-126.01447, 47.55982, -4115.9013671875], [-126.01717, 47.55327, -4824.81005859375], [-126.00327, 47.54987, -4108.3173828125], [-126.01447, 47.55982, -4115.9013671875]]], [[[-125.96304, 47.46871, -5220.056640625], [-125.96511, 47.46165, -5564.75732421875], [-125.9537, 47.46038, -5065.2353515625], [-125.96304, 47.46871, -5220.056640625]]], [[[-125.96304, 47.46871, -5220.056640625], [-125.97251, 47.46804, -5657.08056640625], [-125.96511, 47.46165, -5564.75732421875], [-125.96304, 47.46871, -5220.056640625]]], [[[-125.97251, 47.46804, -5657.08056640625], [-125.96304, 47.46871, -5220.056640625], [-125.9713, 47.4763, -5374.7001953125], [-125.97251, 47.46804, -5657.08056640625]]], [[[-125.97251, 47.46804, -5657.08056640625], [-125.9713, 47.4763, -5374.7001953125], [-125.97965, 47.47478, -5743.9296875], [-125.97251, 47.46804, -5657.08056640625]]], [[[-125.96511, 47.46165, -5564.75732421875], [-125.97251, 47.46804, -5657.08056640625], [-125.97801, 47.46324, -6001.8642578125], [-125.96511, 47.46165, -5564.75732421875]]], [[[-125.96511, 47.46165, -5564.75732421875], [-125.97801, 47.46324, -6001.8642578125], [-125.97166, 47.45516, -6005.56396484375], [-125.96511, 47.46165, -5564.75732421875]]], [[[-125.96054, 47.45434, -5614.41552734375], [-125.96511, 47.46165, -5564.75732421875], [-125.97166, 47.45516, -6005.56396484375], [-125.96054, 47.45434, -5614.41552734375]]], [[[-125.96054, 47.45434, -5614.41552734375], [-125.97166, 47.45516, -6005.56396484375], [-125.96605, 47.44744, -6026.31396484375], [-125.96054, 47.45434, -5614.41552734375]]], [[[-125.95964, 47.44498, -5860.12841796875], [-125.96605, 47.44744, -6026.31396484375], [-125.96157, 47.44103, -6044.919921875], [-125.95964, 47.44498, -5860.12841796875]]], [[[-125.95324, 47.44251, -5692.154296875], [-125.95964, 47.44498, -5860.12841796875], [-125.96157, 47.44103, -6044.919921875], [-125.95324, 47.44251, -5692.154296875]]], [[[-125.97965, 47.47478, -5743.9296875], [-125.9898, 47.47972, -6014.85302734375], [-125.98409, 47.47142, -6000.5830078125], [-125.97965, 47.47478, -5743.9296875]]], [[[-125.97965, 47.47478, -5743.9296875], [-125.98471, 47.48309, -5743.9296875], [-125.9898, 47.47972, -6014.85302734375], [-125.97965, 47.47478, -5743.9296875]]], [[[-125.97635, 47.48462, -5374.7001953125], [-125.98471, 47.48309, -5743.9296875], [-125.97965, 47.47478, -5743.9296875], [-125.97635, 47.48462, -5374.7001953125]]], [[[-125.96898, 47.48601, -4896.009765625], [-125.97403, 47.49432, -4896.009765625], [-125.97635, 47.48462, -5374.7001953125], [-125.96898, 47.48601, -4896.009765625]]], [[[-125.9713, 47.4763, -5374.7001953125], [-125.96898, 47.48601, -4896.009765625], [-125.97635, 47.48462, -5374.7001953125], [-125.9713, 47.4763, -5374.7001953125]]], [[[-125.96393, 47.47769, -4896.009765625], [-125.96898, 47.48601, -4896.009765625], [-125.9713, 47.4763, -5374.7001953125], [-125.96393, 47.47769, -4896.009765625]]], [[[-125.96304, 47.46871, -5220.056640625], [-125.96393, 47.47769, -4896.009765625], [-125.9713, 47.4763, -5374.7001953125], [-125.96304, 47.46871, -5220.056640625]]], [[[-125.95531, 47.46975, -4698.59765625], [-125.96393, 47.47769, -4896.009765625], [-125.96304, 47.46871, -5220.056640625], [-125.95531, 47.46975, -4698.59765625]]], [[[-125.9713, 47.4763, -5374.7001953125], [-125.97635, 47.48462, -5374.7001953125], [-125.97965, 47.47478, -5743.9296875], [-125.9713, 47.4763, -5374.7001953125]]], [[[-125.97413, 47.50311, -4572.998046875], [-125.9827, 47.51005, -4925.3046875], [-125.98168, 47.50131, -5131.9130859375], [-125.97413, 47.50311, -4572.998046875]]], [[[-125.97413, 47.50311, -4572.998046875], [-125.96879, 47.5073, -4034.78662109375], [-125.9827, 47.51005, -4925.3046875], [-125.97413, 47.50311, -4572.998046875]]], [[[-125.9827, 47.51005, -4925.3046875], [-125.96879, 47.5073, -4034.78662109375], [-125.97481, 47.51663, -4114.0908203125], [-125.9827, 47.51005, -4925.3046875]]], [[[-125.98776, 47.51909, -4910.6416015625], [-125.9827, 47.51005, -4925.3046875], [-125.97481, 47.51663, -4114.0908203125], [-125.98776, 47.51909, -4910.6416015625]]], [[[-125.98776, 47.51909, -4910.6416015625], [-126.00118, 47.52119, -5520.8359375], [-125.99628, 47.51211, -5557.66845703125], [-125.98776, 47.51909, -4910.6416015625]]], [[[-125.99205, 47.52831, -4753.9541015625], [-126.00689, 47.52947, -5496.58251953125], [-126.00118, 47.52119, -5520.8359375], [-125.99205, 47.52831, -4753.9541015625]]], [[[-125.95063, 47.48017, -3816.510986328125], [-125.93954, 47.47294, -3224.679931640625], [-125.94471, 47.48122, -3224.679931640625], [-125.95063, 47.48017, -3816.510986328125]]], [[[-125.99205, 47.52831, -4753.9541015625], [-126.00229, 47.5362, -4981.48193359375], [-126.00689, 47.52947, -5496.58251953125], [-125.99205, 47.52831, -4753.9541015625]]], [[[-125.99583, 47.53907, -4376.22265625], [-125.99205, 47.52831, -4753.9541015625], [-125.9851, 47.53394, -3941.72216796875], [-125.99583, 47.53907, -4376.22265625]]], [[[-125.99583, 47.53907, -4376.22265625], [-125.9851, 47.53394, -3941.72216796875], [-125.99116, 47.54391, -3652.08740234375], [-125.99583, 47.53907, -4376.22265625]]], [[[-126.00327, 47.54987, -4108.3173828125], [-125.99583, 47.53907, -4376.22265625], [-125.99116, 47.54391, -3652.08740234375], [-126.00327, 47.54987, -4108.3173828125]]], [[[-125.99583, 47.53907, -4376.22265625], [-126.00327, 47.54987, -4108.3173828125], [-126.00892, 47.54501, -4859.3193359375], [-125.99583, 47.53907, -4376.22265625]]], [[[-125.99583, 47.53907, -4376.22265625], [-126.00892, 47.54501, -4859.3193359375], [-126.00229, 47.5362, -4981.48193359375], [-125.99583, 47.53907, -4376.22265625]]], [[[-126.01469, 47.53813, -5499.607421875], [-126.00229, 47.5362, -4981.48193359375], [-126.00892, 47.54501, -4859.3193359375], [-126.01469, 47.53813, -5499.607421875]]], [[[-126.09846, 47.60535, -5921.08740234375], [-126.0904, 47.59799, -5947.642578125], [-126.09073, 47.60917, -5442.09765625], [-126.09846, 47.60535, -5921.08740234375]]], [[[-126.02207, 47.54617, -5485.99609375], [-126.02744, 47.53841, -5991.17578125], [-126.01469, 47.53813, -5499.607421875], [-126.02207, 47.54617, -5485.99609375]]], [[[-126.02207, 47.54617, -5485.99609375], [-126.0347, 47.54614, -5990.94091796875], [-126.02744, 47.53841, -5991.17578125], [-126.02207, 47.54617, -5485.99609375]]], [[[-126.03001, 47.55383, -5502.12109375], [-126.0347, 47.54614, -5990.94091796875], [-126.02207, 47.54617, -5485.99609375], [-126.03001, 47.55383, -5502.12109375]]], [[[-126.03001, 47.55383, -5502.12109375], [-126.0423, 47.55371, -5990.14404296875], [-126.0347, 47.54614, -5990.94091796875], [-126.03001, 47.55383, -5502.12109375]]], [[[-126.03001, 47.55383, -5502.12109375], [-126.03763, 47.56159, -5481.10791015625], [-126.0423, 47.55371, -5990.14404296875], [-126.03001, 47.55383, -5502.12109375]]], [[[-126.0259, 47.56104, -4842.357421875], [-126.03763, 47.56159, -5481.10791015625], [-126.03001, 47.55383, -5502.12109375], [-126.0259, 47.56104, -4842.357421875]]], [[[-126.03393, 47.56922, -4773.30029296875], [-126.03763, 47.56159, -5481.10791015625], [-126.0259, 47.56104, -4842.357421875], [-126.03393, 47.56922, -4773.30029296875]]], [[[-126.03763, 47.56159, -5481.10791015625], [-126.0458, 47.56902, -5491.06103515625], [-126.05019, 47.56115, -5990.10595703125], [-126.03763, 47.56159, -5481.10791015625]]], [[[-126.03763, 47.56159, -5481.10791015625], [-126.05019, 47.56115, -5990.10595703125], [-126.0423, 47.55371, -5990.14404296875], [-126.03763, 47.56159, -5481.10791015625]]], [[[-126.02243, 47.56795, -3996.27978515625], [-126.0259, 47.56104, -4842.357421875], [-126.01447, 47.55982, -4115.9013671875], [-126.02243, 47.56795, -3996.27978515625]]], [[[-125.96225, 47.48724, -4361.68994140625], [-125.96073, 47.4968, -3816.510986328125], [-125.9673, 47.49556, -4361.68994140625], [-125.96225, 47.48724, -4361.68994140625]]], [[[-126.01447, 47.55982, -4115.9013671875], [-126.00552, 47.55796, -3557.64453125], [-126.01111, 47.56636, -3167.316162109375], [-126.01447, 47.55982, -4115.9013671875]]], [[[-126.01447, 47.55982, -4115.9013671875], [-126.00327, 47.54987, -4108.3173828125], [-126.00552, 47.55796, -3557.64453125], [-126.01447, 47.55982, -4115.9013671875]]], [[[-126.07107, 47.61047, -3978.31005859375], [-126.07095, 47.61908, -3102.43994140625], [-126.07725, 47.6155, -3969.705078125], [-126.07107, 47.61047, -3978.31005859375]]], [[[-126.07985, 47.60884, -4836.97021484375], [-126.07725, 47.6155, -3969.705078125], [-126.08354, 47.61191, -4836.97021484375], [-126.07985, 47.60884, -4836.97021484375]]], [[[-126.02664, 47.58168, -2985.454345703125], [-126.01841, 47.57424, -2998.12353515625], [-126.01674, 47.58009, -2106.27587890625], [-126.02664, 47.58168, -2985.454345703125]]], [[[-126.04247, 47.59627, -2918.00439453125], [-126.05419, 47.60512, -3102.43994140625], [-126.05239, 47.59733, -3709.267333984375], [-126.04247, 47.59627, -2918.00439453125]]], [[[-126.05419, 47.60512, -3102.43994140625], [-126.05612, 47.6133, -2129.321044921875], [-126.06257, 47.6121, -3102.43994140625], [-126.05419, 47.60512, -3102.43994140625]]]]}}]}