{"type": "FeatureCollection", "features": [{"type": "Feature", "properties": {"name": "AW_WASH_50", "CFM_ID": 315, "region": "Offshore_WAOR", "primary_state/province": "WA", "secondary_state/province": null, "avg_dip": 60, "dip_dir": "NE", "rake": 90, "slip_sense": "Reverse", "fault_level": 2, "NSHM23_sliprates": null, "QFFDAgeCatBin": null, "QFFDAgeBin": null, "upper_depth": -1.6, "upper_depth_constraint": "bathymetry", "lower_depth": -8.1, "lower_depth_constraint": "megathrust;soles into AW_WASH_52", "3D_model_constraints": "trace extended at constant dip", "reference": "Lucas et al. (2025) ", "nshm23_id": null, "lineage": null, "usgs_qffd_#": null, "comments": null, "id": "315"}, "geometry": {"type": "MultiPolygon", "coordinates": [[[[-125.11964, 46.53348, -4871.6533203125], [-125.11042, 46.52969, -5639.00830078125], [-125.11913, 46.53907, -5542.43212890625], [-125.11964, 46.53348, -4871.6533203125]]], [[[-125.26102, 46.61415, -2627.03271484375], [-125.268, 46.618, -1923.873046875], [-125.2642, 46.60945, -1904.49755859375], [-125.26102, 46.61415, -2627.03271484375]]], [[[-125.10207, 46.52067, -5450.65673828125], [-125.0996, 46.51177, -5094.70068359375], [-125.09345, 46.51668, -6239.84619140625], [-125.10207, 46.52067, -5450.65673828125]]], [[[-125.0919, 46.52648, -7189.97412109375], [-125.08661, 46.5168, -7202.7099609375], [-125.0825, 46.52183, -8034.90869140625], [-125.0919, 46.52648, -7189.97412109375]]], [[[-125.0919, 46.52648, -7189.97412109375], [-125.09345, 46.51668, -6239.84619140625], [-125.08661, 46.5168, -7202.7099609375], [-125.0919, 46.52648, -7189.97412109375]]], [[[-125.13735, 46.53637, -3309.973388671875], [-125.14702, 46.54405, -3247.318115234375], [-125.1462, 46.5375, -2478.4609375], [-125.13735, 46.53637, -3309.973388671875]]], [[[-125.0919, 46.52648, -7189.97412109375], [-125.08711, 46.529, -7992.55810546875], [-125.09464, 46.53497, -7932.4892578125], [-125.0919, 46.52648, -7189.97412109375]]], [[[-125.20033, 46.57119, -4229.9267578125], [-125.20763, 46.57753, -4158.5322265625], [-125.20851, 46.57148, -3453.343505859375], [-125.20033, 46.57119, -4229.9267578125]]], [[[-125.22906, 46.60583, -5454.5625], [-125.21874, 46.60503, -6372.3662109375], [-125.22846, 46.61276, -6352.14501953125], [-125.22906, 46.60583, -5454.5625]]], [[[-125.10991, 46.50456, -3279.33154296875], [-125.10823, 46.49556, -3113.729248046875], [-125.10377, 46.4989, -3914.560546875], [-125.10991, 46.50456, -3279.33154296875]]], [[[-125.10145, 46.54255, -7877.0537109375], [-125.10859, 46.54909, -7823.58544921875], [-125.10874, 46.54285, -7078.3193359375], [-125.10145, 46.54255, -7877.0537109375]]], [[[-125.26102, 46.61415, -2627.03271484375], [-125.26284, 46.62082, -2796.06982421875], [-125.268, 46.618, -1923.873046875], [-125.26102, 46.61415, -2627.03271484375]]], [[[-125.07596, 46.50423, -8109.13427734375], [-125.08263, 46.50937, -7433.82177734375], [-125.08125, 46.50134, -7214.2197265625], [-125.07596, 46.50423, -8109.13427734375]]], [[[-125.15705, 46.54422, -2511.785888671875], [-125.15487, 46.53839, -1691.12744140625], [-125.1462, 46.5375, -2478.4609375], [-125.15705, 46.54422, -2511.785888671875]]], [[[-125.09847, 46.50189, -4814.9267578125], [-125.09713, 46.49267, -4529.47705078125], [-125.09184, 46.49556, -5424.39111328125], [-125.09847, 46.50189, -4814.9267578125]]], [[[-125.20851, 46.57148, -3453.343505859375], [-125.20763, 46.57753, -4158.5322265625], [-125.21523, 46.57897, -3432.6513671875], [-125.20851, 46.57148, -3453.343505859375]]], [[[-125.11727, 46.50694, -2462.686767578125], [-125.12527, 46.50924, -1639.962890625], [-125.12004, 46.50107, -1657.3992919921875], [-125.11727, 46.50694, -2462.686767578125]]], [[[-125.15705, 46.54422, -2511.785888671875], [-125.16578, 46.54319, -1700.21337890625], [-125.15487, 46.53839, -1691.12744140625], [-125.15705, 46.54422, -2511.785888671875]]], [[[-125.25557, 46.61454, -3388.134765625], [-125.26284, 46.62082, -2796.06982421875], [-125.26102, 46.61415, -2627.03271484375], [-125.25557, 46.61454, -3388.134765625]]], [[[-125.11447, 46.55425, -7780.53759765625], [-125.11943, 46.55817, -7745.42138671875], [-125.12062, 46.55569, -7274.81103515625], [-125.11447, 46.55425, -7780.53759765625]]], [[[-125.15705, 46.54422, -2511.785888671875], [-125.16018, 46.54948, -3335.609375], [-125.16992, 46.54817, -2544.951171875], [-125.15705, 46.54422, -2511.785888671875]]], [[[-125.21298, 46.58537, -4383.060546875], [-125.20271, 46.57909, -4878.123046875], [-125.20298, 46.58595, -5532.06787109375], [-125.21298, 46.58537, -4383.060546875]]], [[[-125.11964, 46.53348, -4871.6533203125], [-125.11198, 46.5247, -4900.66845703125], [-125.11042, 46.52969, -5639.00830078125], [-125.11964, 46.53348, -4871.6533203125]]], [[[-125.13857, 46.53043, -2486.96875], [-125.13735, 46.53637, -3309.973388671875], [-125.1462, 46.5375, -2478.4609375], [-125.13857, 46.53043, -2486.96875]]], [[[-125.25557, 46.61454, -3388.134765625], [-125.25769, 46.62364, -3668.266845703125], [-125.26284, 46.62082, -2796.06982421875], [-125.25557, 46.61454, -3388.134765625]]], [[[-125.12975, 46.54273, -4842.03466796875], [-125.13852, 46.55137, -5135.8642578125], [-125.138, 46.54391, -4080.976806640625], [-125.12975, 46.54273, -4842.03466796875]]], [[[-125.20851, 46.57148, -3453.343505859375], [-125.20953, 46.56576, -2626.767578125], [-125.2005, 46.56506, -3428.7763671875], [-125.20851, 46.57148, -3453.343505859375]]], [[[-125.09847, 46.50189, -4814.9267578125], [-125.10377, 46.4989, -3914.560546875], [-125.09713, 46.49267, -4529.47705078125], [-125.09847, 46.50189, -4814.9267578125]]], [[[-125.25054, 46.61698, -4218.63671875], [-125.25769, 46.62364, -3668.266845703125], [-125.25557, 46.61454, -3388.134765625], [-125.25054, 46.61698, -4218.63671875]]], [[[-125.13735, 46.53637, -3309.973388671875], [-125.13857, 46.53043, -2486.96875], [-125.12938, 46.52879, -3276.621337890625], [-125.13735, 46.53637, -3309.973388671875]]], [[[-125.138, 46.54391, -4080.976806640625], [-125.14702, 46.54405, -3247.318115234375], [-125.13735, 46.53637, -3309.973388671875], [-125.138, 46.54391, -4080.976806640625]]], [[[-125.11198, 46.5247, -4900.66845703125], [-125.10207, 46.52067, -5450.65673828125], [-125.11042, 46.52969, -5639.00830078125], [-125.11198, 46.5247, -4900.66845703125]]], [[[-125.25054, 46.61698, -4218.63671875], [-125.25253, 46.62645, -4540.4638671875], [-125.25769, 46.62364, -3668.266845703125], [-125.25054, 46.61698, -4218.63671875]]], [[[-125.12413, 46.51505, -2473.884521484375], [-125.13089, 46.52219, -2500.739990234375], [-125.13321, 46.51628, -1689.365966796875], [-125.12413, 46.51505, -2473.884521484375]]], [[[-125.13935, 46.56072, -6829.14208984375], [-125.13597, 46.56367, -7637.43310546875], [-125.14789, 46.56626, -7565.0986328125], [-125.13935, 46.56072, -6829.14208984375]]], [[[-125.24548, 46.62012, -5098.74658203125], [-125.25253, 46.62645, -4540.4638671875], [-125.25054, 46.61698, -4218.63671875], [-125.24548, 46.62012, -5098.74658203125]]], [[[-125.17338, 46.55299, -3395.077392578125], [-125.16992, 46.54817, -2544.951171875], [-125.16018, 46.54948, -3335.609375], [-125.17338, 46.55299, -3395.077392578125]]], [[[-125.13852, 46.55137, -5135.8642578125], [-125.12646, 46.54743, -5722.09228515625], [-125.13207, 46.55483, -6214.8466796875], [-125.13852, 46.55137, -5135.8642578125]]], [[[-125.18494, 46.57111, -5759.46533203125], [-125.17705, 46.57133, -6605.1005859375], [-125.18545, 46.57782, -6549.01220703125], [-125.18494, 46.57111, -5759.46533203125]]], [[[-125.10242, 46.48978, -3634.562744140625], [-125.09713, 46.49267, -4529.47705078125], [-125.10377, 46.4989, -3914.560546875], [-125.10242, 46.48978, -3634.562744140625]]], [[[-125.24548, 46.62012, -5098.74658203125], [-125.24737, 46.62927, -5412.5849609375], [-125.25253, 46.62645, -4540.4638671875], [-125.24548, 46.62012, -5098.74658203125]]], [[[-125.20953, 46.56576, -2626.767578125], [-125.21842, 46.56648, -1820.269775390625], [-125.20994, 46.55973, -1814.15234375], [-125.20953, 46.56576, -2626.767578125]]], [[[-125.14702, 46.54405, -3247.318115234375], [-125.16018, 46.54948, -3335.609375], [-125.15705, 46.54422, -2511.785888671875], [-125.14702, 46.54405, -3247.318115234375]]], [[[-125.13935, 46.56072, -6829.14208984375], [-125.14789, 46.56626, -7565.0986328125], [-125.15108, 46.56305, -6713.4228515625], [-125.13935, 46.56072, -6829.14208984375]]], [[[-125.23988, 46.62211, -5964.76904296875], [-125.24737, 46.62927, -5412.5849609375], [-125.24548, 46.62012, -5098.74658203125], [-125.23988, 46.62211, -5964.76904296875]]], [[[-125.08263, 46.50937, -7433.82177734375], [-125.07596, 46.50423, -8109.13427734375], [-125.07947, 46.51309, -8069.55322265625], [-125.08263, 46.50937, -7433.82177734375]]], [[[-125.11727, 46.50694, -2462.686767578125], [-125.12004, 46.50107, -1657.3992919921875], [-125.11339, 46.49777, -2472.734375], [-125.11727, 46.50694, -2462.686767578125]]], [[[-125.16992, 46.54817, -2544.951171875], [-125.18201, 46.5512, -2560.21435546875], [-125.17796, 46.54624, -1711.5792236328125], [-125.16992, 46.54817, -2544.951171875]]], [[[-125.13089, 46.52219, -2500.739990234375], [-125.13857, 46.53043, -2486.96875], [-125.13923, 46.5242, -1687.90869140625], [-125.13089, 46.52219, -2500.739990234375]]], [[[-125.23988, 46.62211, -5964.76904296875], [-125.24224, 46.63207, -6281.07177734375], [-125.24737, 46.62927, -5412.5849609375], [-125.23988, 46.62211, -5964.76904296875]]], [[[-125.10823, 46.49556, -3113.729248046875], [-125.10242, 46.48978, -3634.562744140625], [-125.10377, 46.4989, -3914.560546875], [-125.10823, 46.49556, -3113.729248046875]]], [[[-125.13857, 46.53043, -2486.96875], [-125.14723, 46.53123, -1667.864990234375], [-125.13923, 46.5242, -1687.90869140625], [-125.13857, 46.53043, -2486.96875]]], [[[-125.22377, 46.58014, -2632.173095703125], [-125.23263, 46.58142, -1833.6217041015625], [-125.22514, 46.57414, -1817.6575927734375], [-125.22377, 46.58014, -2632.173095703125]]], [[[-125.20271, 46.57909, -4878.123046875], [-125.21298, 46.58537, -4383.060546875], [-125.20763, 46.57753, -4158.5322265625], [-125.20271, 46.57909, -4878.123046875]]], [[[-125.21298, 46.58537, -4383.060546875], [-125.21523, 46.57897, -3432.6513671875], [-125.20763, 46.57753, -4158.5322265625], [-125.21298, 46.58537, -4383.060546875]]], [[[-125.10502, 46.50829, -4153.72265625], [-125.11439, 46.51297, -3293.136474609375], [-125.10991, 46.50456, -3279.33154296875], [-125.10502, 46.50829, -4153.72265625]]], [[[-125.14946, 46.55036, -4131.84228515625], [-125.16347, 46.55439, -4211.67138671875], [-125.16018, 46.54948, -3335.609375], [-125.14946, 46.55036, -4131.84228515625]]], [[[-125.21523, 46.57897, -3432.6513671875], [-125.22303, 46.58661, -3449.402099609375], [-125.22377, 46.58014, -2632.173095703125], [-125.21523, 46.57897, -3432.6513671875]]], [[[-125.20271, 46.57909, -4878.123046875], [-125.20033, 46.57119, -4229.9267578125], [-125.19327, 46.57172, -4995.89501953125], [-125.20271, 46.57909, -4878.123046875]]], [[[-125.16992, 46.54817, -2544.951171875], [-125.17796, 46.54624, -1711.5792236328125], [-125.16578, 46.54319, -1700.21337890625], [-125.16992, 46.54817, -2544.951171875]]], [[[-125.20136, 46.55904, -2612.83251953125], [-125.20994, 46.55973, -1814.15234375], [-125.20185, 46.55275, -1809.565673828125], [-125.20136, 46.55904, -2612.83251953125]]], [[[-125.19312, 46.55915, -3481.430419921875], [-125.20136, 46.55904, -2612.83251953125], [-125.19248, 46.55439, -2748.20068359375], [-125.19312, 46.55915, -3481.430419921875]]], [[[-125.19248, 46.55439, -2748.20068359375], [-125.20185, 46.55275, -1809.565673828125], [-125.19015, 46.54929, -1731.9776611328125], [-125.19248, 46.55439, -2748.20068359375]]], [[[-125.122, 46.52048, -3360.54296875], [-125.12413, 46.51505, -2473.884521484375], [-125.11439, 46.51297, -3293.136474609375], [-125.122, 46.52048, -3360.54296875]]], [[[-125.23988, 46.62211, -5964.76904296875], [-125.23688, 46.6141, -5588.45556640625], [-125.22846, 46.61276, -6352.14501953125], [-125.23988, 46.62211, -5964.76904296875]]], [[[-125.12938, 46.52879, -3276.621337890625], [-125.13089, 46.52219, -2500.739990234375], [-125.122, 46.52048, -3360.54296875], [-125.12938, 46.52879, -3276.621337890625]]], [[[-125.16347, 46.55439, -4211.67138671875], [-125.17338, 46.55299, -3395.077392578125], [-125.16018, 46.54948, -3335.609375], [-125.16347, 46.55439, -4211.67138671875]]], [[[-125.122, 46.52048, -3360.54296875], [-125.13089, 46.52219, -2500.739990234375], [-125.12413, 46.51505, -2473.884521484375], [-125.122, 46.52048, -3360.54296875]]], [[[-125.19264, 46.56558, -4299.11083984375], [-125.20033, 46.57119, -4229.9267578125], [-125.2005, 46.56506, -3428.7763671875], [-125.19264, 46.56558, -4299.11083984375]]], [[[-125.13852, 46.55137, -5135.8642578125], [-125.14946, 46.55036, -4131.84228515625], [-125.138, 46.54391, -4080.976806640625], [-125.13852, 46.55137, -5135.8642578125]]], [[[-125.23688, 46.6141, -5588.45556640625], [-125.23988, 46.62211, -5964.76904296875], [-125.24548, 46.62012, -5098.74658203125], [-125.23688, 46.6141, -5588.45556640625]]], [[[-125.21298, 46.58537, -4383.060546875], [-125.20298, 46.58595, -5532.06787109375], [-125.21065, 46.59215, -5385.9560546875], [-125.21298, 46.58537, -4383.060546875]]], [[[-125.11727, 46.50694, -2462.686767578125], [-125.11439, 46.51297, -3293.136474609375], [-125.12413, 46.51505, -2473.884521484375], [-125.11727, 46.50694, -2462.686767578125]]], [[[-125.20136, 46.55904, -2612.83251953125], [-125.20953, 46.56576, -2626.767578125], [-125.20994, 46.55973, -1814.15234375], [-125.20136, 46.55904, -2612.83251953125]]], [[[-125.12861, 46.53529, -4103.81884765625], [-125.13735, 46.53637, -3309.973388671875], [-125.12938, 46.52879, -3276.621337890625], [-125.12861, 46.53529, -4103.81884765625]]], [[[-125.24172, 46.61099, -4728.76318359375], [-125.23688, 46.6141, -5588.45556640625], [-125.24548, 46.62012, -5098.74658203125], [-125.24172, 46.61099, -4728.76318359375]]], [[[-125.16347, 46.55439, -4211.67138671875], [-125.14946, 46.55036, -4131.84228515625], [-125.15267, 46.55555, -5026.458984375], [-125.16347, 46.55439, -4211.67138671875]]], [[[-125.23688, 46.6141, -5588.45556640625], [-125.24172, 46.61099, -4728.76318359375], [-125.22906, 46.60583, -5454.5625], [-125.23688, 46.6141, -5588.45556640625]]], [[[-125.22906, 46.60583, -5454.5625], [-125.22846, 46.61276, -6352.14501953125], [-125.23688, 46.6141, -5588.45556640625], [-125.22906, 46.60583, -5454.5625]]], [[[-125.20136, 46.55904, -2612.83251953125], [-125.20185, 46.55275, -1809.565673828125], [-125.19248, 46.55439, -2748.20068359375], [-125.20136, 46.55904, -2612.83251953125]]], [[[-125.22906, 46.60583, -5454.5625], [-125.21877, 46.59835, -5496.45703125], [-125.21874, 46.60503, -6372.3662109375], [-125.22906, 46.60583, -5454.5625]]], [[[-125.1462, 46.5375, -2478.4609375], [-125.15487, 46.53839, -1691.12744140625], [-125.14723, 46.53123, -1667.864990234375], [-125.1462, 46.5375, -2478.4609375]]], [[[-125.23283, 46.5874, -2658.826171875], [-125.24188, 46.58769, -1850.9775390625], [-125.23263, 46.58142, -1833.6217041015625], [-125.23283, 46.5874, -2658.826171875]]], [[[-125.12975, 46.54273, -4842.03466796875], [-125.12646, 46.54743, -5722.09228515625], [-125.13852, 46.55137, -5135.8642578125], [-125.12975, 46.54273, -4842.03466796875]]], [[[-125.22718, 46.59835, -4677.591796875], [-125.21877, 46.59835, -5496.45703125], [-125.22906, 46.60583, -5454.5625], [-125.22718, 46.59835, -4677.591796875]]], [[[-125.12975, 46.54273, -4842.03466796875], [-125.11964, 46.53348, -4871.6533203125], [-125.11913, 46.53907, -5542.43212890625], [-125.12975, 46.54273, -4842.03466796875]]], [[[-125.18201, 46.5512, -2560.21435546875], [-125.19015, 46.54929, -1731.9776611328125], [-125.17796, 46.54624, -1711.5792236328125], [-125.18201, 46.5512, -2560.21435546875]]], [[[-125.22718, 46.59835, -4677.591796875], [-125.22147, 46.59225, -4388.388671875], [-125.21877, 46.59835, -5496.45703125], [-125.22718, 46.59835, -4677.591796875]]], [[[-125.16347, 46.55439, -4211.67138671875], [-125.15267, 46.55555, -5026.458984375], [-125.16793, 46.55948, -5066.2470703125], [-125.16347, 46.55439, -4211.67138671875]]], [[[-125.20851, 46.57148, -3453.343505859375], [-125.21523, 46.57897, -3432.6513671875], [-125.2166, 46.57249, -2629.380126953125], [-125.20851, 46.57148, -3453.343505859375]]], [[[-125.2005, 46.56506, -3428.7763671875], [-125.20136, 46.55904, -2612.83251953125], [-125.19312, 46.55915, -3481.430419921875], [-125.2005, 46.56506, -3428.7763671875]]], [[[-125.22718, 46.59835, -4677.591796875], [-125.23225, 46.59388, -3600.322021484375], [-125.22147, 46.59225, -4388.388671875], [-125.22718, 46.59835, -4677.591796875]]], [[[-125.21523, 46.57897, -3432.6513671875], [-125.22377, 46.58014, -2632.173095703125], [-125.2166, 46.57249, -2629.380126953125], [-125.21523, 46.57897, -3432.6513671875]]], [[[-125.22718, 46.59835, -4677.591796875], [-125.2361, 46.60306, -4394.78955078125], [-125.23225, 46.59388, -3600.322021484375], [-125.22718, 46.59835, -4677.591796875]]], [[[-125.14702, 46.54405, -3247.318115234375], [-125.15705, 46.54422, -2511.785888671875], [-125.1462, 46.5375, -2478.4609375], [-125.14702, 46.54405, -3247.318115234375]]], [[[-125.19264, 46.56558, -4299.11083984375], [-125.19327, 46.57172, -4995.89501953125], [-125.20033, 46.57119, -4229.9267578125], [-125.19264, 46.56558, -4299.11083984375]]], [[[-125.22718, 46.59835, -4677.591796875], [-125.22906, 46.60583, -5454.5625], [-125.2361, 46.60306, -4394.78955078125], [-125.22718, 46.59835, -4677.591796875]]], [[[-125.19327, 46.57172, -4995.89501953125], [-125.19467, 46.57843, -5715.93115234375], [-125.20271, 46.57909, -4878.123046875], [-125.19327, 46.57172, -4995.89501953125]]], [[[-125.11339, 46.49777, -2472.734375], [-125.10823, 46.49556, -3113.729248046875], [-125.10991, 46.50456, -3279.33154296875], [-125.11339, 46.49777, -2472.734375]]], [[[-125.12646, 46.54743, -5722.09228515625], [-125.12975, 46.54273, -4842.03466796875], [-125.11913, 46.53907, -5542.43212890625], [-125.12646, 46.54743, -5722.09228515625]]], [[[-125.24172, 46.61099, -4728.76318359375], [-125.2361, 46.60306, -4394.78955078125], [-125.22906, 46.60583, -5454.5625], [-125.24172, 46.61099, -4728.76318359375]]], [[[-125.19248, 46.55439, -2748.20068359375], [-125.19015, 46.54929, -1731.9776611328125], [-125.18201, 46.5512, -2560.21435546875], [-125.19248, 46.55439, -2748.20068359375]]], [[[-125.2361, 46.60306, -4394.78955078125], [-125.24172, 46.61099, -4728.76318359375], [-125.24767, 46.60717, -3673.296875], [-125.2361, 46.60306, -4394.78955078125]]], [[[-125.2361, 46.60306, -4394.78955078125], [-125.24767, 46.60717, -3673.296875], [-125.24105, 46.59979, -3489.02783203125], [-125.2361, 46.60306, -4394.78955078125]]], [[[-125.19467, 46.57843, -5715.93115234375], [-125.19402, 46.58536, -6500.00390625], [-125.20298, 46.58595, -5532.06787109375], [-125.19467, 46.57843, -5715.93115234375]]], [[[-125.2361, 46.60306, -4394.78955078125], [-125.24105, 46.59979, -3489.02783203125], [-125.23225, 46.59388, -3600.322021484375], [-125.2361, 46.60306, -4394.78955078125]]], [[[-125.24105, 46.59979, -3489.02783203125], [-125.24149, 46.59372, -2669.185791015625], [-125.23225, 46.59388, -3600.322021484375], [-125.24105, 46.59979, -3489.02783203125]]], [[[-125.2005, 46.56506, -3428.7763671875], [-125.20953, 46.56576, -2626.767578125], [-125.20136, 46.55904, -2612.83251953125], [-125.2005, 46.56506, -3428.7763671875]]], [[[-125.24105, 46.59979, -3489.02783203125], [-125.24946, 46.60042, -2695.9091796875], [-125.24149, 46.59372, -2669.185791015625], [-125.24105, 46.59979, -3489.02783203125]]], [[[-125.2166, 46.57249, -2629.380126953125], [-125.22514, 46.57414, -1817.6575927734375], [-125.21842, 46.56648, -1820.269775390625], [-125.2166, 46.57249, -2629.380126953125]]], [[[-125.24105, 46.59979, -3489.02783203125], [-125.24767, 46.60717, -3673.296875], [-125.24946, 46.60042, -2695.9091796875], [-125.24105, 46.59979, -3489.02783203125]]], [[[-125.23283, 46.5874, -2658.826171875], [-125.23263, 46.58142, -1833.6217041015625], [-125.22377, 46.58014, -2632.173095703125], [-125.23283, 46.5874, -2658.826171875]]], [[[-125.24767, 46.60717, -3673.296875], [-125.25583, 46.6072, -2708.485595703125], [-125.24946, 46.60042, -2695.9091796875], [-125.24767, 46.60717, -3673.296875]]], [[[-125.24767, 46.60717, -3673.296875], [-125.25557, 46.61454, -3388.134765625], [-125.25583, 46.6072, -2708.485595703125], [-125.24767, 46.60717, -3673.296875]]], [[[-125.25557, 46.61454, -3388.134765625], [-125.24767, 46.60717, -3673.296875], [-125.25054, 46.61698, -4218.63671875], [-125.25557, 46.61454, -3388.134765625]]], [[[-125.20033, 46.57119, -4229.9267578125], [-125.20851, 46.57148, -3453.343505859375], [-125.2005, 46.56506, -3428.7763671875], [-125.20033, 46.57119, -4229.9267578125]]], [[[-125.17338, 46.55299, -3395.077392578125], [-125.18201, 46.5512, -2560.21435546875], [-125.16992, 46.54817, -2544.951171875], [-125.17338, 46.55299, -3395.077392578125]]], [[[-125.21298, 46.58537, -4383.060546875], [-125.22303, 46.58661, -3449.402099609375], [-125.21523, 46.57897, -3432.6513671875], [-125.21298, 46.58537, -4383.060546875]]], [[[-125.24172, 46.61099, -4728.76318359375], [-125.25054, 46.61698, -4218.63671875], [-125.24767, 46.60717, -3673.296875], [-125.24172, 46.61099, -4728.76318359375]]], [[[-125.24172, 46.61099, -4728.76318359375], [-125.24548, 46.62012, -5098.74658203125], [-125.25054, 46.61698, -4218.63671875], [-125.24172, 46.61099, -4728.76318359375]]], [[[-125.25557, 46.61454, -3388.134765625], [-125.26102, 46.61415, -2627.03271484375], [-125.25583, 46.6072, -2708.485595703125], [-125.25557, 46.61454, -3388.134765625]]], [[[-125.12975, 46.54273, -4842.03466796875], [-125.138, 46.54391, -4080.976806640625], [-125.12861, 46.53529, -4103.81884765625], [-125.12975, 46.54273, -4842.03466796875]]], [[[-125.20851, 46.57148, -3453.343505859375], [-125.2166, 46.57249, -2629.380126953125], [-125.20953, 46.56576, -2626.767578125], [-125.20851, 46.57148, -3453.343505859375]]], [[[-125.25583, 46.6072, -2708.485595703125], [-125.26102, 46.61415, -2627.03271484375], [-125.2642, 46.60945, -1904.49755859375], [-125.25583, 46.6072, -2708.485595703125]]], [[[-125.25583, 46.6072, -2708.485595703125], [-125.2642, 46.60945, -1904.49755859375], [-125.25836, 46.60148, -1884.57177734375], [-125.25583, 46.6072, -2708.485595703125]]], [[[-125.20953, 46.56576, -2626.767578125], [-125.2166, 46.57249, -2629.380126953125], [-125.21842, 46.56648, -1820.269775390625], [-125.20953, 46.56576, -2626.767578125]]], [[[-125.12646, 46.54743, -5722.09228515625], [-125.11913, 46.53907, -5542.43212890625], [-125.11756, 46.54479, -6378.48193359375], [-125.12646, 46.54743, -5722.09228515625]]], [[[-125.24946, 46.60042, -2695.9091796875], [-125.25583, 46.6072, -2708.485595703125], [-125.25836, 46.60148, -1884.57177734375], [-125.24946, 46.60042, -2695.9091796875]]], [[[-125.18688, 46.55951, -4151.22021484375], [-125.19264, 46.56558, -4299.11083984375], [-125.19312, 46.55915, -3481.430419921875], [-125.18688, 46.55951, -4151.22021484375]]], [[[-125.24946, 46.60042, -2695.9091796875], [-125.25836, 46.60148, -1884.57177734375], [-125.25045, 46.5944, -1867.2044677734375], [-125.24946, 46.60042, -2695.9091796875]]], [[[-125.15705, 46.54422, -2511.785888671875], [-125.16992, 46.54817, -2544.951171875], [-125.16578, 46.54319, -1700.21337890625], [-125.15705, 46.54422, -2511.785888671875]]], [[[-125.20033, 46.57119, -4229.9267578125], [-125.20271, 46.57909, -4878.123046875], [-125.20763, 46.57753, -4158.5322265625], [-125.20033, 46.57119, -4229.9267578125]]], [[[-125.08789, 46.50782, -6612.52685546875], [-125.09321, 46.50537, -5735.28564453125], [-125.08654, 46.49845, -6319.3056640625], [-125.08789, 46.50782, -6612.52685546875]]], [[[-125.24149, 46.59372, -2669.185791015625], [-125.24946, 46.60042, -2695.9091796875], [-125.25045, 46.5944, -1867.2044677734375], [-125.24149, 46.59372, -2669.185791015625]]], [[[-125.21065, 46.59215, -5385.9560546875], [-125.20122, 46.59249, -6448.728515625], [-125.20929, 46.59864, -6411.9814453125], [-125.21065, 46.59215, -5385.9560546875]]], [[[-125.24149, 46.59372, -2669.185791015625], [-125.25045, 46.5944, -1867.2044677734375], [-125.24188, 46.58769, -1850.9775390625], [-125.24149, 46.59372, -2669.185791015625]]], [[[-125.23283, 46.5874, -2658.826171875], [-125.24149, 46.59372, -2669.185791015625], [-125.24188, 46.58769, -1850.9775390625], [-125.23283, 46.5874, -2658.826171875]]], [[[-125.23225, 46.59388, -3600.322021484375], [-125.24149, 46.59372, -2669.185791015625], [-125.23283, 46.5874, -2658.826171875], [-125.23225, 46.59388, -3600.322021484375]]], [[[-125.22303, 46.58661, -3449.402099609375], [-125.23225, 46.59388, -3600.322021484375], [-125.23283, 46.5874, -2658.826171875], [-125.22303, 46.58661, -3449.402099609375]]], [[[-125.22147, 46.59225, -4388.388671875], [-125.23225, 46.59388, -3600.322021484375], [-125.22303, 46.58661, -3449.402099609375], [-125.22147, 46.59225, -4388.388671875]]], [[[-125.22147, 46.59225, -4388.388671875], [-125.22303, 46.58661, -3449.402099609375], [-125.21298, 46.58537, -4383.060546875], [-125.22147, 46.59225, -4388.388671875]]], [[[-125.22147, 46.59225, -4388.388671875], [-125.21298, 46.58537, -4383.060546875], [-125.21065, 46.59215, -5385.9560546875], [-125.22147, 46.59225, -4388.388671875]]], [[[-125.19264, 46.56558, -4299.11083984375], [-125.2005, 46.56506, -3428.7763671875], [-125.19312, 46.55915, -3481.430419921875], [-125.19264, 46.56558, -4299.11083984375]]], [[[-125.22147, 46.59225, -4388.388671875], [-125.21065, 46.59215, -5385.9560546875], [-125.21877, 46.59835, -5496.45703125], [-125.22147, 46.59225, -4388.388671875]]], [[[-125.14946, 46.55036, -4131.84228515625], [-125.13852, 46.55137, -5135.8642578125], [-125.15267, 46.55555, -5026.458984375], [-125.14946, 46.55036, -4131.84228515625]]], [[[-125.138, 46.54391, -4080.976806640625], [-125.14946, 46.55036, -4131.84228515625], [-125.14702, 46.54405, -3247.318115234375], [-125.138, 46.54391, -4080.976806640625]]], [[[-125.21877, 46.59835, -5496.45703125], [-125.21065, 46.59215, -5385.9560546875], [-125.20929, 46.59864, -6411.9814453125], [-125.21877, 46.59835, -5496.45703125]]], [[[-125.21877, 46.59835, -5496.45703125], [-125.20929, 46.59864, -6411.9814453125], [-125.21874, 46.60503, -6372.3662109375], [-125.21877, 46.59835, -5496.45703125]]], [[[-125.20929, 46.59864, -6411.9814453125], [-125.21448, 46.60822, -7204.169921875], [-125.21874, 46.60503, -6372.3662109375], [-125.20929, 46.59864, -6411.9814453125]]], [[[-125.20929, 46.59864, -6411.9814453125], [-125.20501, 46.60177, -7246.86083984375], [-125.21448, 46.60822, -7204.169921875], [-125.20929, 46.59864, -6411.9814453125]]], [[[-125.20122, 46.59249, -6448.728515625], [-125.20501, 46.60177, -7246.86083984375], [-125.20929, 46.59864, -6411.9814453125], [-125.20122, 46.59249, -6448.728515625]]], [[[-125.20122, 46.59249, -6448.728515625], [-125.19605, 46.59503, -7291.69384765625], [-125.20501, 46.60177, -7246.86083984375], [-125.20122, 46.59249, -6448.728515625]]], [[[-125.19605, 46.59503, -7291.69384765625], [-125.20122, 46.59249, -6448.728515625], [-125.19402, 46.58536, -6500.00390625], [-125.19605, 46.59503, -7291.69384765625]]], [[[-125.18858, 46.58744, -7330.27294921875], [-125.19605, 46.59503, -7291.69384765625], [-125.19402, 46.58536, -6500.00390625], [-125.18858, 46.58744, -7330.27294921875]]], [[[-125.18545, 46.57782, -6549.01220703125], [-125.18858, 46.58744, -7330.27294921875], [-125.19402, 46.58536, -6500.00390625], [-125.18545, 46.57782, -6549.01220703125]]], [[[-125.18545, 46.57782, -6549.01220703125], [-125.18029, 46.5803, -7375.70166015625], [-125.18858, 46.58744, -7330.27294921875], [-125.18545, 46.57782, -6549.01220703125]]], [[[-125.17705, 46.57133, -6605.1005859375], [-125.18029, 46.5803, -7375.70166015625], [-125.18545, 46.57782, -6549.01220703125], [-125.17705, 46.57133, -6605.1005859375]]], [[[-125.17705, 46.57133, -6605.1005859375], [-125.17152, 46.57339, -7425.4658203125], [-125.18029, 46.5803, -7375.70166015625], [-125.17705, 46.57133, -6605.1005859375]]], [[[-125.17705, 46.57133, -6605.1005859375], [-125.16362, 46.56569, -6641.4609375], [-125.17152, 46.57339, -7425.4658203125], [-125.17705, 46.57133, -6605.1005859375]]], [[[-125.17705, 46.57133, -6605.1005859375], [-125.17324, 46.56497, -6018.12451171875], [-125.16362, 46.56569, -6641.4609375], [-125.17705, 46.57133, -6605.1005859375]]], [[[-125.18494, 46.57111, -5759.46533203125], [-125.17324, 46.56497, -6018.12451171875], [-125.17705, 46.57133, -6605.1005859375], [-125.18494, 46.57111, -5759.46533203125]]], [[[-125.18494, 46.57111, -5759.46533203125], [-125.18293, 46.56379, -5093.64453125], [-125.17324, 46.56497, -6018.12451171875], [-125.18494, 46.57111, -5759.46533203125]]], [[[-125.18293, 46.56379, -5093.64453125], [-125.18494, 46.57111, -5759.46533203125], [-125.19327, 46.57172, -4995.89501953125], [-125.18293, 46.56379, -5093.64453125]]], [[[-125.19264, 46.56558, -4299.11083984375], [-125.18293, 46.56379, -5093.64453125], [-125.19327, 46.57172, -4995.89501953125], [-125.19264, 46.56558, -4299.11083984375]]], [[[-125.18688, 46.55951, -4151.22021484375], [-125.18293, 46.56379, -5093.64453125], [-125.19264, 46.56558, -4299.11083984375], [-125.18688, 46.55951, -4151.22021484375]]], [[[-125.18688, 46.55951, -4151.22021484375], [-125.17634, 46.55783, -4288.462890625], [-125.18293, 46.56379, -5093.64453125], [-125.18688, 46.55951, -4151.22021484375]]], [[[-125.18688, 46.55951, -4151.22021484375], [-125.185, 46.5559, -3443.239990234375], [-125.17634, 46.55783, -4288.462890625], [-125.18688, 46.55951, -4151.22021484375]]], [[[-125.19248, 46.55439, -2748.20068359375], [-125.185, 46.5559, -3443.239990234375], [-125.18688, 46.55951, -4151.22021484375], [-125.19248, 46.55439, -2748.20068359375]]], [[[-125.185, 46.5559, -3443.239990234375], [-125.19248, 46.55439, -2748.20068359375], [-125.18201, 46.5512, -2560.21435546875], [-125.185, 46.5559, -3443.239990234375]]], [[[-125.17338, 46.55299, -3395.077392578125], [-125.185, 46.5559, -3443.239990234375], [-125.18201, 46.5512, -2560.21435546875], [-125.17338, 46.55299, -3395.077392578125]]], [[[-125.17634, 46.55783, -4288.462890625], [-125.185, 46.5559, -3443.239990234375], [-125.17338, 46.55299, -3395.077392578125], [-125.17634, 46.55783, -4288.462890625]]], [[[-125.16347, 46.55439, -4211.67138671875], [-125.17634, 46.55783, -4288.462890625], [-125.17338, 46.55299, -3395.077392578125], [-125.16347, 46.55439, -4211.67138671875]]], [[[-125.17634, 46.55783, -4288.462890625], [-125.16347, 46.55439, -4211.67138671875], [-125.16793, 46.55948, -5066.2470703125], [-125.17634, 46.55783, -4288.462890625]]], [[[-125.16793, 46.55948, -5066.2470703125], [-125.18293, 46.56379, -5093.64453125], [-125.17634, 46.55783, -4288.462890625], [-125.16793, 46.55948, -5066.2470703125]]], [[[-125.16793, 46.55948, -5066.2470703125], [-125.17324, 46.56497, -6018.12451171875], [-125.18293, 46.56379, -5093.64453125], [-125.16793, 46.55948, -5066.2470703125]]], [[[-125.16793, 46.55948, -5066.2470703125], [-125.15844, 46.56073, -5831.21533203125], [-125.17324, 46.56497, -6018.12451171875], [-125.16793, 46.55948, -5066.2470703125]]], [[[-125.15267, 46.55555, -5026.458984375], [-125.15844, 46.56073, -5831.21533203125], [-125.16793, 46.55948, -5066.2470703125], [-125.15267, 46.55555, -5026.458984375]]], [[[-125.15267, 46.55555, -5026.458984375], [-125.1448, 46.55792, -5944.85595703125], [-125.15844, 46.56073, -5831.21533203125], [-125.15267, 46.55555, -5026.458984375]]], [[[-125.13852, 46.55137, -5135.8642578125], [-125.1448, 46.55792, -5944.85595703125], [-125.15267, 46.55555, -5026.458984375], [-125.13852, 46.55137, -5135.8642578125]]], [[[-125.1448, 46.55792, -5944.85595703125], [-125.13852, 46.55137, -5135.8642578125], [-125.13207, 46.55483, -6214.8466796875], [-125.1448, 46.55792, -5944.85595703125]]], [[[-125.13207, 46.55483, -6214.8466796875], [-125.13935, 46.56072, -6829.14208984375], [-125.1448, 46.55792, -5944.85595703125], [-125.13207, 46.55483, -6214.8466796875]]], [[[-125.12941, 46.55853, -7044.61572265625], [-125.13935, 46.56072, -6829.14208984375], [-125.13207, 46.55483, -6214.8466796875], [-125.12941, 46.55853, -7044.61572265625]]], [[[-125.12941, 46.55853, -7044.61572265625], [-125.13597, 46.56367, -7637.43310546875], [-125.13935, 46.56072, -6829.14208984375], [-125.12941, 46.55853, -7044.61572265625]]], [[[-125.12941, 46.55853, -7044.61572265625], [-125.12635, 46.56102, -7698.94384765625], [-125.13597, 46.56367, -7637.43310546875], [-125.12941, 46.55853, -7044.61572265625]]], [[[-125.12941, 46.55853, -7044.61572265625], [-125.12062, 46.55569, -7274.81103515625], [-125.12635, 46.56102, -7698.94384765625], [-125.12941, 46.55853, -7044.61572265625]]], [[[-125.12941, 46.55853, -7044.61572265625], [-125.12339, 46.55221, -6587.6630859375], [-125.12062, 46.55569, -7274.81103515625], [-125.12941, 46.55853, -7044.61572265625]]], [[[-125.12339, 46.55221, -6587.6630859375], [-125.12941, 46.55853, -7044.61572265625], [-125.13207, 46.55483, -6214.8466796875], [-125.12339, 46.55221, -6587.6630859375]]], [[[-125.12339, 46.55221, -6587.6630859375], [-125.13207, 46.55483, -6214.8466796875], [-125.12646, 46.54743, -5722.09228515625], [-125.12339, 46.55221, -6587.6630859375]]], [[[-125.12339, 46.55221, -6587.6630859375], [-125.12646, 46.54743, -5722.09228515625], [-125.11756, 46.54479, -6378.48193359375], [-125.12339, 46.55221, -6587.6630859375]]], [[[-125.11568, 46.54977, -7150.23095703125], [-125.12339, 46.55221, -6587.6630859375], [-125.11756, 46.54479, -6378.48193359375], [-125.11568, 46.54977, -7150.23095703125]]], [[[-125.12339, 46.55221, -6587.6630859375], [-125.11568, 46.54977, -7150.23095703125], [-125.12062, 46.55569, -7274.81103515625], [-125.12339, 46.55221, -6587.6630859375]]], [[[-125.11568, 46.54977, -7150.23095703125], [-125.11447, 46.55425, -7780.53759765625], [-125.12062, 46.55569, -7274.81103515625], [-125.11568, 46.54977, -7150.23095703125]]], [[[-125.11568, 46.54977, -7150.23095703125], [-125.10859, 46.54909, -7823.58544921875], [-125.11447, 46.55425, -7780.53759765625], [-125.11568, 46.54977, -7150.23095703125]]], [[[-125.11568, 46.54977, -7150.23095703125], [-125.10874, 46.54285, -7078.3193359375], [-125.10859, 46.54909, -7823.58544921875], [-125.11568, 46.54977, -7150.23095703125]]], [[[-125.10874, 46.54285, -7078.3193359375], [-125.11568, 46.54977, -7150.23095703125], [-125.11756, 46.54479, -6378.48193359375], [-125.10874, 46.54285, -7078.3193359375]]], [[[-125.11756, 46.54479, -6378.48193359375], [-125.10983, 46.53628, -6303.78955078125], [-125.10874, 46.54285, -7078.3193359375], [-125.11756, 46.54479, -6378.48193359375]]], [[[-125.11913, 46.53907, -5542.43212890625], [-125.10983, 46.53628, -6303.78955078125], [-125.11756, 46.54479, -6378.48193359375], [-125.11913, 46.53907, -5542.43212890625]]], [[[-125.11042, 46.52969, -5639.00830078125], [-125.10983, 46.53628, -6303.78955078125], [-125.11913, 46.53907, -5542.43212890625], [-125.11042, 46.52969, -5639.00830078125]]], [[[-125.11042, 46.52969, -5639.00830078125], [-125.10069, 46.52728, -6367.3671875], [-125.10983, 46.53628, -6303.78955078125], [-125.11042, 46.52969, -5639.00830078125]]], [[[-125.10207, 46.52067, -5450.65673828125], [-125.10069, 46.52728, -6367.3671875], [-125.11042, 46.52969, -5639.00830078125], [-125.10207, 46.52067, -5450.65673828125]]], [[[-125.10207, 46.52067, -5450.65673828125], [-125.09345, 46.51668, -6239.84619140625], [-125.10069, 46.52728, -6367.3671875], [-125.10207, 46.52067, -5450.65673828125]]], [[[-125.10207, 46.52067, -5450.65673828125], [-125.10986, 46.51773, -4256.1123046875], [-125.0996, 46.51177, -5094.70068359375], [-125.10207, 46.52067, -5450.65673828125]]], [[[-125.11198, 46.5247, -4900.66845703125], [-125.10986, 46.51773, -4256.1123046875], [-125.10207, 46.52067, -5450.65673828125], [-125.11198, 46.5247, -4900.66845703125]]], [[[-125.11198, 46.5247, -4900.66845703125], [-125.1207, 46.52662, -4126.05517578125], [-125.10986, 46.51773, -4256.1123046875], [-125.11198, 46.5247, -4900.66845703125]]], [[[-125.11964, 46.53348, -4871.6533203125], [-125.1207, 46.52662, -4126.05517578125], [-125.11198, 46.5247, -4900.66845703125], [-125.11964, 46.53348, -4871.6533203125]]], [[[-125.1207, 46.52662, -4126.05517578125], [-125.11964, 46.53348, -4871.6533203125], [-125.12861, 46.53529, -4103.81884765625], [-125.1207, 46.52662, -4126.05517578125]]], [[[-125.1207, 46.52662, -4126.05517578125], [-125.12861, 46.53529, -4103.81884765625], [-125.12938, 46.52879, -3276.621337890625], [-125.1207, 46.52662, -4126.05517578125]]], [[[-125.19327, 46.57172, -4995.89501953125], [-125.18494, 46.57111, -5759.46533203125], [-125.19467, 46.57843, -5715.93115234375], [-125.19327, 46.57172, -4995.89501953125]]], [[[-125.1207, 46.52662, -4126.05517578125], [-125.12938, 46.52879, -3276.621337890625], [-125.122, 46.52048, -3360.54296875], [-125.1207, 46.52662, -4126.05517578125]]], [[[-125.1207, 46.52662, -4126.05517578125], [-125.122, 46.52048, -3360.54296875], [-125.10986, 46.51773, -4256.1123046875], [-125.1207, 46.52662, -4126.05517578125]]], [[[-125.10986, 46.51773, -4256.1123046875], [-125.122, 46.52048, -3360.54296875], [-125.11439, 46.51297, -3293.136474609375], [-125.10986, 46.51773, -4256.1123046875]]], [[[-125.10986, 46.51773, -4256.1123046875], [-125.11439, 46.51297, -3293.136474609375], [-125.10502, 46.50829, -4153.72265625], [-125.10986, 46.51773, -4256.1123046875]]], [[[-125.10502, 46.50829, -4153.72265625], [-125.0996, 46.51177, -5094.70068359375], [-125.10986, 46.51773, -4256.1123046875], [-125.10502, 46.50829, -4153.72265625]]], [[[-125.09847, 46.50189, -4814.9267578125], [-125.0996, 46.51177, -5094.70068359375], [-125.10502, 46.50829, -4153.72265625], [-125.09847, 46.50189, -4814.9267578125]]], [[[-125.0996, 46.51177, -5094.70068359375], [-125.09847, 46.50189, -4814.9267578125], [-125.09321, 46.50537, -5735.28564453125], [-125.0996, 46.51177, -5094.70068359375]]], [[[-125.0996, 46.51177, -5094.70068359375], [-125.09321, 46.50537, -5735.28564453125], [-125.09345, 46.51668, -6239.84619140625], [-125.0996, 46.51177, -5094.70068359375]]], [[[-125.08789, 46.50782, -6612.52685546875], [-125.09345, 46.51668, -6239.84619140625], [-125.09321, 46.50537, -5735.28564453125], [-125.08789, 46.50782, -6612.52685546875]]], [[[-125.09345, 46.51668, -6239.84619140625], [-125.08789, 46.50782, -6612.52685546875], [-125.08661, 46.5168, -7202.7099609375], [-125.09345, 46.51668, -6239.84619140625]]], [[[-125.0919, 46.52648, -7189.97412109375], [-125.10069, 46.52728, -6367.3671875], [-125.09345, 46.51668, -6239.84619140625], [-125.0919, 46.52648, -7189.97412109375]]], [[[-125.10069, 46.52728, -6367.3671875], [-125.0919, 46.52648, -7189.97412109375], [-125.10164, 46.53452, -7130.97314453125], [-125.10069, 46.52728, -6367.3671875]]], [[[-125.10983, 46.53628, -6303.78955078125], [-125.10069, 46.52728, -6367.3671875], [-125.10164, 46.53452, -7130.97314453125], [-125.10983, 46.53628, -6303.78955078125]]], [[[-125.10983, 46.53628, -6303.78955078125], [-125.10164, 46.53452, -7130.97314453125], [-125.10874, 46.54285, -7078.3193359375], [-125.10983, 46.53628, -6303.78955078125]]], [[[-125.10164, 46.53452, -7130.97314453125], [-125.10145, 46.54255, -7877.0537109375], [-125.10874, 46.54285, -7078.3193359375], [-125.10164, 46.53452, -7130.97314453125]]], [[[-125.10164, 46.53452, -7130.97314453125], [-125.09464, 46.53497, -7932.4892578125], [-125.10145, 46.54255, -7877.0537109375], [-125.10164, 46.53452, -7130.97314453125]]], [[[-125.0919, 46.52648, -7189.97412109375], [-125.09464, 46.53497, -7932.4892578125], [-125.10164, 46.53452, -7130.97314453125], [-125.0919, 46.52648, -7189.97412109375]]], [[[-125.0919, 46.52648, -7189.97412109375], [-125.0825, 46.52183, -8034.90869140625], [-125.08711, 46.529, -7992.55810546875], [-125.0919, 46.52648, -7189.97412109375]]], [[[-125.08661, 46.5168, -7202.7099609375], [-125.07947, 46.51309, -8069.55322265625], [-125.0825, 46.52183, -8034.90869140625], [-125.08661, 46.5168, -7202.7099609375]]], [[[-125.08661, 46.5168, -7202.7099609375], [-125.08263, 46.50937, -7433.82177734375], [-125.07947, 46.51309, -8069.55322265625], [-125.08661, 46.5168, -7202.7099609375]]], [[[-125.08661, 46.5168, -7202.7099609375], [-125.08789, 46.50782, -6612.52685546875], [-125.08263, 46.50937, -7433.82177734375], [-125.08661, 46.5168, -7202.7099609375]]], [[[-125.08789, 46.50782, -6612.52685546875], [-125.08125, 46.50134, -7214.2197265625], [-125.08263, 46.50937, -7433.82177734375], [-125.08789, 46.50782, -6612.52685546875]]], [[[-125.08789, 46.50782, -6612.52685546875], [-125.08654, 46.49845, -6319.3056640625], [-125.08125, 46.50134, -7214.2197265625], [-125.08789, 46.50782, -6612.52685546875]]], [[[-125.08654, 46.49845, -6319.3056640625], [-125.09321, 46.50537, -5735.28564453125], [-125.09184, 46.49556, -5424.39111328125], [-125.08654, 46.49845, -6319.3056640625]]], [[[-125.09847, 46.50189, -4814.9267578125], [-125.09184, 46.49556, -5424.39111328125], [-125.09321, 46.50537, -5735.28564453125], [-125.09847, 46.50189, -4814.9267578125]]], [[[-125.10502, 46.50829, -4153.72265625], [-125.10377, 46.4989, -3914.560546875], [-125.09847, 46.50189, -4814.9267578125], [-125.10502, 46.50829, -4153.72265625]]], [[[-125.10502, 46.50829, -4153.72265625], [-125.10991, 46.50456, -3279.33154296875], [-125.10377, 46.4989, -3914.560546875], [-125.10502, 46.50829, -4153.72265625]]], [[[-125.11439, 46.51297, -3293.136474609375], [-125.11727, 46.50694, -2462.686767578125], [-125.10991, 46.50456, -3279.33154296875], [-125.11439, 46.51297, -3293.136474609375]]], [[[-125.11727, 46.50694, -2462.686767578125], [-125.12413, 46.51505, -2473.884521484375], [-125.12527, 46.50924, -1639.962890625], [-125.11727, 46.50694, -2462.686767578125]]], [[[-125.11964, 46.53348, -4871.6533203125], [-125.12975, 46.54273, -4842.03466796875], [-125.12861, 46.53529, -4103.81884765625], [-125.11964, 46.53348, -4871.6533203125]]], [[[-125.11339, 46.49777, -2472.734375], [-125.10991, 46.50456, -3279.33154296875], [-125.11727, 46.50694, -2462.686767578125], [-125.11339, 46.49777, -2472.734375]]], [[[-125.14946, 46.55036, -4131.84228515625], [-125.16018, 46.54948, -3335.609375], [-125.14702, 46.54405, -3247.318115234375], [-125.14946, 46.55036, -4131.84228515625]]], [[[-125.11339, 46.49777, -2472.734375], [-125.12004, 46.50107, -1657.3992919921875], [-125.11712, 46.49236, -1691.6661376953125], [-125.11339, 46.49777, -2472.734375]]], [[[-125.10823, 46.49556, -3113.729248046875], [-125.10771, 46.48689, -2739.6484375], [-125.10242, 46.48978, -3634.562744140625], [-125.10823, 46.49556, -3113.729248046875]]], [[[-125.12413, 46.51505, -2473.884521484375], [-125.13321, 46.51628, -1689.365966796875], [-125.12527, 46.50924, -1639.962890625], [-125.12413, 46.51505, -2473.884521484375]]], [[[-125.12938, 46.52879, -3276.621337890625], [-125.13857, 46.53043, -2486.96875], [-125.13089, 46.52219, -2500.739990234375], [-125.12938, 46.52879, -3276.621337890625]]], [[[-125.13857, 46.53043, -2486.96875], [-125.1462, 46.5375, -2478.4609375], [-125.14723, 46.53123, -1667.864990234375], [-125.13857, 46.53043, -2486.96875]]], [[[-125.13089, 46.52219, -2500.739990234375], [-125.13923, 46.5242, -1687.90869140625], [-125.13321, 46.51628, -1689.365966796875], [-125.13089, 46.52219, -2500.739990234375]]], [[[-125.12861, 46.53529, -4103.81884765625], [-125.138, 46.54391, -4080.976806640625], [-125.13735, 46.53637, -3309.973388671875], [-125.12861, 46.53529, -4103.81884765625]]], [[[-125.19467, 46.57843, -5715.93115234375], [-125.18494, 46.57111, -5759.46533203125], [-125.18545, 46.57782, -6549.01220703125], [-125.19467, 46.57843, -5715.93115234375]]], [[[-125.19402, 46.58536, -6500.00390625], [-125.19467, 46.57843, -5715.93115234375], [-125.18545, 46.57782, -6549.01220703125], [-125.19402, 46.58536, -6500.00390625]]], [[[-125.20271, 46.57909, -4878.123046875], [-125.19467, 46.57843, -5715.93115234375], [-125.20298, 46.58595, -5532.06787109375], [-125.20271, 46.57909, -4878.123046875]]], [[[-125.22377, 46.58014, -2632.173095703125], [-125.22514, 46.57414, -1817.6575927734375], [-125.2166, 46.57249, -2629.380126953125], [-125.22377, 46.58014, -2632.173095703125]]], [[[-125.22303, 46.58661, -3449.402099609375], [-125.23283, 46.5874, -2658.826171875], [-125.22377, 46.58014, -2632.173095703125], [-125.22303, 46.58661, -3449.402099609375]]], [[[-125.20122, 46.59249, -6448.728515625], [-125.21065, 46.59215, -5385.9560546875], [-125.20298, 46.58595, -5532.06787109375], [-125.20122, 46.59249, -6448.728515625]]], [[[-125.19402, 46.58536, -6500.00390625], [-125.20122, 46.59249, -6448.728515625], [-125.20298, 46.58595, -5532.06787109375], [-125.19402, 46.58536, -6500.00390625]]], [[[-125.19248, 46.55439, -2748.20068359375], [-125.18688, 46.55951, -4151.22021484375], [-125.19312, 46.55915, -3481.430419921875], [-125.19248, 46.55439, -2748.20068359375]]], [[[-125.12062, 46.55569, -7274.81103515625], [-125.11943, 46.55817, -7745.42138671875], [-125.12635, 46.56102, -7698.94384765625], [-125.12062, 46.55569, -7274.81103515625]]], [[[-125.1448, 46.55792, -5944.85595703125], [-125.13935, 46.56072, -6829.14208984375], [-125.15108, 46.56305, -6713.4228515625], [-125.1448, 46.55792, -5944.85595703125]]], [[[-125.15844, 46.56073, -5831.21533203125], [-125.1448, 46.55792, -5944.85595703125], [-125.15108, 46.56305, -6713.4228515625], [-125.15844, 46.56073, -5831.21533203125]]], [[[-125.15844, 46.56073, -5831.21533203125], [-125.15108, 46.56305, -6713.4228515625], [-125.16362, 46.56569, -6641.4609375], [-125.15844, 46.56073, -5831.21533203125]]], [[[-125.17324, 46.56497, -6018.12451171875], [-125.15844, 46.56073, -5831.21533203125], [-125.16362, 46.56569, -6641.4609375], [-125.17324, 46.56497, -6018.12451171875]]], [[[-125.15108, 46.56305, -6713.4228515625], [-125.16063, 46.56887, -7489.0810546875], [-125.16362, 46.56569, -6641.4609375], [-125.15108, 46.56305, -6713.4228515625]]], [[[-125.15108, 46.56305, -6713.4228515625], [-125.14789, 46.56626, -7565.0986328125], [-125.16063, 46.56887, -7489.0810546875], [-125.15108, 46.56305, -6713.4228515625]]], [[[-125.16063, 46.56887, -7489.0810546875], [-125.17152, 46.57339, -7425.4658203125], [-125.16362, 46.56569, -6641.4609375], [-125.16063, 46.56887, -7489.0810546875]]], [[[-125.21874, 46.60503, -6372.3662109375], [-125.21448, 46.60822, -7204.169921875], [-125.22312, 46.61494, -7166.2705078125], [-125.21874, 46.60503, -6372.3662109375]]], [[[-125.21874, 46.60503, -6372.3662109375], [-125.22312, 46.61494, -7166.2705078125], [-125.22846, 46.61276, -6352.14501953125], [-125.21874, 46.60503, -6372.3662109375]]], [[[-125.22846, 46.61276, -6352.14501953125], [-125.22312, 46.61494, -7166.2705078125], [-125.22954, 46.62153, -7139.17431640625], [-125.22846, 46.61276, -6352.14501953125]]], [[[-125.24224, 46.63207, -6281.07177734375], [-125.23411, 46.62795, -7121.91552734375], [-125.23731, 46.63477, -7114.43212890625], [-125.24224, 46.63207, -6281.07177734375]]], [[[-125.22846, 46.61276, -6352.14501953125], [-125.22954, 46.62153, -7139.17431640625], [-125.23988, 46.62211, -5964.76904296875], [-125.22846, 46.61276, -6352.14501953125]]], [[[-125.23988, 46.62211, -5964.76904296875], [-125.22954, 46.62153, -7139.17431640625], [-125.23411, 46.62795, -7121.91552734375], [-125.23988, 46.62211, -5964.76904296875]]], [[[-125.23988, 46.62211, -5964.76904296875], [-125.23411, 46.62795, -7121.91552734375], [-125.24224, 46.63207, -6281.07177734375], [-125.23988, 46.62211, -5964.76904296875]]], [[[-125.10771, 46.48689, -2739.6484375], [-125.10823, 46.49556, -3113.729248046875], [-125.11339, 46.49777, -2472.734375], [-125.10771, 46.48689, -2739.6484375]]], [[[-125.11712, 46.49236, -1691.6661376953125], [-125.10771, 46.48689, -2739.6484375], [-125.11339, 46.49777, -2472.734375], [-125.11712, 46.49236, -1691.6661376953125]]], [[[-125.113, 46.484, -1844.7340087890625], [-125.10771, 46.48689, -2739.6484375], [-125.11712, 46.49236, -1691.6661376953125], [-125.113, 46.484, -1844.7340087890625]]]]}}]}