{"type": "FeatureCollection", "features": [{"type": "Feature", "properties": {"name": "AW_WASH_53", "CFM_ID": 318, "region": "Offshore_WAOR", "primary_state/province": "WA", "secondary_state/province": null, "avg_dip": 39, "dip_dir": "E", "rake": 90, "slip_sense": "Reverse", "fault_level": 2, "NSHM23_sliprates": null, "QFFDAgeCatBin": null, "QFFDAgeBin": null, "upper_depth": -1.7, "upper_depth_constraint": "seismic imaging", "lower_depth": -4.7, "lower_depth_constraint": "megathrust", "3D_model_constraints": "trace and 1 MCS line", "reference": "Lucas et al. (2025); Carbotte et al. (2023)", "nshm23_id": null, "lineage": null, "usgs_qffd_#": null, "comments": null, "id": "318"}, "geometry": {"type": "MultiPolygon", "coordinates": [[[[-124.85256, 46.32602, -5049.68017578125], [-124.85414, 46.33516, -5161.0283203125], [-124.86286, 46.33244, -4383.73193359375], [-124.85256, 46.32602, -5049.68017578125]]], [[[-124.75249, 46.33077, -10402.5888671875], [-124.74409, 46.3219, -10486.2548828125], [-124.73981, 46.33015, -10974.69140625], [-124.75249, 46.33077, -10402.5888671875]]], [[[-124.83534, 46.30397, -5117.0556640625], [-124.84514, 46.30345, -4318.8232421875], [-124.83506, 46.29619, -4506.7744140625], [-124.83534, 46.30397, -5117.0556640625]]], [[[-124.78855, 46.32517, -8593.5634765625], [-124.79662, 46.33287, -8374.2041015625], [-124.79995, 46.32417, -8037.4912109375], [-124.78855, 46.32517, -8593.5634765625]]], [[[-124.85861, 46.31054, -3850.927734375], [-124.8531, 46.30225, -3558.77294921875], [-124.84514, 46.30345, -4318.8232421875], [-124.85861, 46.31054, -3850.927734375]]], [[[-124.8774, 46.35713, -2838.93310546875], [-124.88441, 46.35302, -2048.340087890625], [-124.87881, 46.34802, -2841.759765625], [-124.8774, 46.35713, -2838.93310546875]]], [[[-124.85256, 46.32602, -5049.68017578125], [-124.84272, 46.32889, -5860.35400390625], [-124.85414, 46.33516, -5161.0283203125], [-124.85256, 46.32602, -5049.68017578125]]], [[[-124.85538, 46.35148, -5049.3837890625], [-124.8542, 46.36016, -5031.69677734375], [-124.86302, 46.35614, -4334.97607421875], [-124.85538, 46.35148, -5049.3837890625]]], [[[-124.86028, 46.39289, -4359.29443359375], [-124.85805, 46.40156, -4768.4912109375], [-124.86671, 46.40078, -4027.982666015625], [-124.86028, 46.39289, -4359.29443359375]]], [[[-124.83035, 46.32938, -6588.36376953125], [-124.82713, 46.33854, -6928.875], [-124.8374, 46.33694, -6311.41796875], [-124.83035, 46.32938, -6588.36376953125]]], [[[-124.86893, 46.37037, -3624.101806640625], [-124.86805, 46.38024, -3536.94677734375], [-124.87482, 46.37537, -2838.685302734375], [-124.86893, 46.37037, -3624.101806640625]]], [[[-124.77322, 46.38338, -9438.4306640625], [-124.76192, 46.38604, -9978.03515625], [-124.77035, 46.39288, -9538.4130859375], [-124.77322, 46.38338, -9438.4306640625]]], [[[-124.85148, 46.39369, -5096.58935546875], [-124.84228, 46.39449, -5788.95849609375], [-124.84898, 46.40238, -5492.2685546875], [-124.85148, 46.39369, -5096.58935546875]]], [[[-124.77322, 46.38338, -9438.4306640625], [-124.76381, 46.37745, -9943.25], [-124.76192, 46.38604, -9978.03515625], [-124.77322, 46.38338, -9438.4306640625]]], [[[-124.79542, 46.36339, -8485.2822265625], [-124.78488, 46.36904, -8965.724609375], [-124.79211, 46.37359, -8575.630859375], [-124.79542, 46.36339, -8485.2822265625]]], [[[-124.80247, 46.37257, -8070.509765625], [-124.79776, 46.38153, -8241.7099609375], [-124.80878, 46.38051, -7697.73779296875], [-124.80247, 46.37257, -8070.509765625]]], [[[-124.79776, 46.38153, -8241.7099609375], [-124.80414, 46.38942, -7887.9296875], [-124.80878, 46.38051, -7697.73779296875], [-124.79776, 46.38153, -8241.7099609375]]], [[[-124.85049, 46.37704, -5137.49462890625], [-124.85457, 46.38475, -4741.24755859375], [-124.86044, 46.37523, -4320.00732421875], [-124.85049, 46.37704, -5137.49462890625]]], [[[-124.86302, 46.35614, -4334.97607421875], [-124.87158, 46.35211, -3625.413330078125], [-124.86421, 46.34756, -4351.29638671875], [-124.86302, 46.35614, -4334.97607421875]]], [[[-124.72659, 46.31231, -10885.6064453125], [-124.72919, 46.3057, -10460.91015625], [-124.71869, 46.30665, -10973.197265625], [-124.72659, 46.31231, -10885.6064453125]]], [[[-124.87609, 46.36626, -2838.83056640625], [-124.88308, 46.36213, -2048.340087890625], [-124.8774, 46.35713, -2838.93310546875], [-124.87609, 46.36626, -2838.83056640625]]], [[[-124.83035, 46.32938, -6588.36376953125], [-124.82225, 46.32182, -6856.35546875], [-124.81932, 46.33075, -7234.6845703125], [-124.83035, 46.32938, -6588.36376953125]]], [[[-124.8027, 46.31543, -7631.90478515625], [-124.80463, 46.307, -7122.4990234375], [-124.79362, 46.30805, -7701.9287109375], [-124.8027, 46.31543, -7631.90478515625]]], [[[-124.83018, 46.37859, -6517.87548828125], [-124.82565, 46.38747, -6738.45458984375], [-124.83594, 46.38655, -6116.5859375], [-124.83018, 46.37859, -6517.87548828125]]], [[[-124.82221, 46.34741, -7235.16259765625], [-124.82735, 46.35422, -6894.8681640625], [-124.83584, 46.34714, -6440.1455078125], [-124.82221, 46.34741, -7235.16259765625]]], [[[-124.82892, 46.40415, -6768.5302734375], [-124.83224, 46.39539, -6416.39501953125], [-124.82178, 46.3963, -7028.900390625], [-124.82892, 46.40415, -6768.5302734375]]], [[[-124.80379, 46.3412, -8140.900390625], [-124.80795, 46.33195, -7822.10693359375], [-124.79662, 46.33287, -8374.2041015625], [-124.80379, 46.3412, -8140.900390625]]], [[[-124.84417, 46.31922, -5440.8017578125], [-124.84605, 46.31106, -4862.9716796875], [-124.83518, 46.31197, -5704.34228515625], [-124.84417, 46.31922, -5440.8017578125]]], [[[-124.80878, 46.38051, -7697.73779296875], [-124.80414, 46.38942, -7887.9296875], [-124.81504, 46.3884, -7331.638671875], [-124.80878, 46.38051, -7697.73779296875]]], [[[-124.78488, 46.36904, -8965.724609375], [-124.77633, 46.36333, -9429.453125], [-124.77504, 46.37411, -9413.9365234375], [-124.78488, 46.36904, -8965.724609375]]], [[[-124.72659, 46.31231, -10885.6064453125], [-124.73633, 46.3136, -10511.49609375], [-124.72919, 46.3057, -10460.91015625], [-124.72659, 46.31231, -10885.6064453125]]], [[[-124.8136, 46.37158, -7516.19091796875], [-124.80247, 46.37257, -8070.509765625], [-124.80878, 46.38051, -7697.73779296875], [-124.8136, 46.37158, -7516.19091796875]]], [[[-124.87022, 46.36124, -3623.64697265625], [-124.87609, 46.36626, -2838.83056640625], [-124.8774, 46.35713, -2838.93310546875], [-124.87022, 46.36124, -3623.64697265625]]], [[[-124.8197, 46.37952, -7122.46826171875], [-124.80878, 46.38051, -7697.73779296875], [-124.81504, 46.3884, -7331.638671875], [-124.8197, 46.37952, -7122.46826171875]]], [[[-124.77035, 46.39288, -9538.4130859375], [-124.76364, 46.40116, -9919.736328125], [-124.77729, 46.4004, -9255.4560546875], [-124.77035, 46.39288, -9538.4130859375]]], [[[-124.82565, 46.38747, -6738.45458984375], [-124.82178, 46.3963, -7028.900390625], [-124.83224, 46.39539, -6416.39501953125], [-124.82565, 46.38747, -6738.45458984375]]], [[[-124.8462, 46.33978, -5821.34912109375], [-124.84272, 46.32889, -5860.35400390625], [-124.8374, 46.33694, -6311.41796875], [-124.8462, 46.33978, -5821.34912109375]]], [[[-124.72659, 46.31231, -10885.6064453125], [-124.72542, 46.31774, -11189.861328125], [-124.73633, 46.3136, -10511.49609375], [-124.72659, 46.31231, -10885.6064453125]]], [[[-124.85256, 46.32602, -5049.68017578125], [-124.86286, 46.33244, -4383.73193359375], [-124.86125, 46.32526, -4317.92578125], [-124.85256, 46.32602, -5049.68017578125]]], [[[-124.86044, 46.37523, -4320.00732421875], [-124.85457, 46.38475, -4741.24755859375], [-124.86254, 46.38437, -4072.18994140625], [-124.86044, 46.37523, -4320.00732421875]]], [[[-124.72659, 46.31231, -10885.6064453125], [-124.7177, 46.31301, -11314.0791015625], [-124.72542, 46.31774, -11189.861328125], [-124.72659, 46.31231, -10885.6064453125]]], [[[-124.86872, 46.39148, -3583.218017578125], [-124.87508, 46.40037, -3199.106201171875], [-124.87661, 46.39398, -2775.64501953125], [-124.86872, 46.39148, -3583.218017578125]]], [[[-124.86254, 46.38437, -4072.18994140625], [-124.86028, 46.39289, -4359.29443359375], [-124.86872, 46.39148, -3583.218017578125], [-124.86254, 46.38437, -4072.18994140625]]], [[[-124.81932, 46.33075, -7234.6845703125], [-124.81115, 46.3231, -7475.55126953125], [-124.80795, 46.33195, -7822.10693359375], [-124.81932, 46.33075, -7234.6845703125]]], [[[-124.8136, 46.37158, -7516.19091796875], [-124.80878, 46.38051, -7697.73779296875], [-124.8197, 46.37952, -7122.46826171875], [-124.8136, 46.37158, -7516.19091796875]]], [[[-124.72542, 46.31774, -11189.861328125], [-124.73248, 46.32309, -11080.8642578125], [-124.73633, 46.3136, -10511.49609375], [-124.72542, 46.31774, -11189.861328125]]], [[[-124.8462, 46.33978, -5821.34912109375], [-124.85576, 46.34369, -5086.02587890625], [-124.85414, 46.33516, -5161.0283203125], [-124.8462, 46.33978, -5821.34912109375]]], [[[-124.73248, 46.32309, -11080.8642578125], [-124.74409, 46.3219, -10486.2548828125], [-124.73633, 46.3136, -10511.49609375], [-124.73248, 46.32309, -11080.8642578125]]], [[[-124.83584, 46.34714, -6440.1455078125], [-124.84616, 46.35537, -5724.1494140625], [-124.84659, 46.34769, -5768.7529296875], [-124.83584, 46.34714, -6440.1455078125]]], [[[-124.87259, 46.3435, -3634.489990234375], [-124.87881, 46.34802, -2841.759765625], [-124.87951, 46.33933, -2842.782470703125], [-124.87259, 46.3435, -3634.489990234375]]], [[[-124.77035, 46.39288, -9538.4130859375], [-124.76019, 46.39371, -10036.1416015625], [-124.76364, 46.40116, -9919.736328125], [-124.77035, 46.39288, -9538.4130859375]]], [[[-124.74409, 46.3219, -10486.2548828125], [-124.73248, 46.32309, -11080.8642578125], [-124.73981, 46.33015, -10974.69140625], [-124.74409, 46.3219, -10486.2548828125]]], [[[-124.8197, 46.37952, -7122.46826171875], [-124.81504, 46.3884, -7331.638671875], [-124.82565, 46.38747, -6738.45458984375], [-124.8197, 46.37952, -7122.46826171875]]], [[[-124.79776, 46.38153, -8241.7099609375], [-124.79291, 46.3903, -8437.5068359375], [-124.80414, 46.38942, -7887.9296875], [-124.79776, 46.38153, -8241.7099609375]]], [[[-124.85256, 46.32602, -5049.68017578125], [-124.85548, 46.31784, -4499.2041015625], [-124.84417, 46.31922, -5440.8017578125], [-124.85256, 46.32602, -5049.68017578125]]], [[[-124.80795, 46.33195, -7822.10693359375], [-124.80379, 46.3412, -8140.900390625], [-124.81541, 46.34008, -7565.1943359375], [-124.80795, 46.33195, -7822.10693359375]]], [[[-124.78509, 46.38119, -8870.0234375], [-124.77322, 46.38338, -9438.4306640625], [-124.78178, 46.39126, -8980.0419921875], [-124.78509, 46.38119, -8870.0234375]]], [[[-124.86872, 46.39148, -3583.218017578125], [-124.87661, 46.39398, -2775.64501953125], [-124.87446, 46.38522, -2829.865966796875], [-124.86872, 46.39148, -3583.218017578125]]], [[[-124.81504, 46.3884, -7331.638671875], [-124.80414, 46.38942, -7887.9296875], [-124.81109, 46.39727, -7599.55322265625], [-124.81504, 46.3884, -7331.638671875]]], [[[-124.74409, 46.3219, -10486.2548828125], [-124.75249, 46.33077, -10402.5888671875], [-124.75602, 46.32078, -9929.5634765625], [-124.74409, 46.3219, -10486.2548828125]]], [[[-124.87158, 46.35211, -3625.413330078125], [-124.8774, 46.35713, -2838.93310546875], [-124.87881, 46.34802, -2841.759765625], [-124.87158, 46.35211, -3625.413330078125]]], [[[-124.84036, 46.37811, -5884.71826171875], [-124.83478, 46.36963, -6313.5712890625], [-124.83018, 46.37859, -6517.87548828125], [-124.84036, 46.37811, -5884.71826171875]]], [[[-124.84272, 46.32889, -5860.35400390625], [-124.84417, 46.31922, -5440.8017578125], [-124.83338, 46.32059, -6189.49169921875], [-124.84272, 46.32889, -5860.35400390625]]], [[[-124.75602, 46.32078, -9929.5634765625], [-124.74848, 46.31256, -9920.48828125], [-124.74409, 46.3219, -10486.2548828125], [-124.75602, 46.32078, -9929.5634765625]]], [[[-124.8462, 46.33978, -5821.34912109375], [-124.8374, 46.33694, -6311.41796875], [-124.83584, 46.34714, -6440.1455078125], [-124.8462, 46.33978, -5821.34912109375]]], [[[-124.84562, 46.38567, -5457.5126953125], [-124.85148, 46.39369, -5096.58935546875], [-124.85457, 46.38475, -4741.24755859375], [-124.84562, 46.38567, -5457.5126953125]]], [[[-124.75602, 46.32078, -9929.5634765625], [-124.76003, 46.31129, -9347.2822265625], [-124.74848, 46.31256, -9920.48828125], [-124.75602, 46.32078, -9929.5634765625]]], [[[-124.78901, 46.39933, -8684.8095703125], [-124.79291, 46.3903, -8437.5068359375], [-124.78178, 46.39126, -8980.0419921875], [-124.78901, 46.39933, -8684.8095703125]]], [[[-124.85457, 46.38475, -4741.24755859375], [-124.86028, 46.39289, -4359.29443359375], [-124.86254, 46.38437, -4072.18994140625], [-124.85457, 46.38475, -4741.24755859375]]], [[[-124.87259, 46.3435, -3634.489990234375], [-124.86421, 46.34756, -4351.29638671875], [-124.87158, 46.35211, -3625.413330078125], [-124.87259, 46.3435, -3634.489990234375]]], [[[-124.85538, 46.35148, -5049.3837890625], [-124.84616, 46.35537, -5724.1494140625], [-124.8542, 46.36016, -5031.69677734375], [-124.85538, 46.35148, -5049.3837890625]]], [[[-124.81932, 46.33075, -7234.6845703125], [-124.82225, 46.32182, -6856.35546875], [-124.81115, 46.3231, -7475.55126953125], [-124.81932, 46.33075, -7234.6845703125]]], [[[-124.85548, 46.31784, -4499.2041015625], [-124.86657, 46.31945, -3673.727294921875], [-124.85861, 46.31054, -3850.927734375], [-124.85548, 46.31784, -4499.2041015625]]], [[[-124.86657, 46.31945, -3673.727294921875], [-124.87039, 46.32794, -3629.635498046875], [-124.87531, 46.32267, -2840.738037109375], [-124.86657, 46.31945, -3673.727294921875]]], [[[-124.7687, 46.31863, -9301.95703125], [-124.76003, 46.31129, -9347.2822265625], [-124.75602, 46.32078, -9929.5634765625], [-124.7687, 46.31863, -9301.95703125]]], [[[-124.8462, 46.33978, -5821.34912109375], [-124.85414, 46.33516, -5161.0283203125], [-124.84272, 46.32889, -5860.35400390625], [-124.8462, 46.33978, -5821.34912109375]]], [[[-124.77729, 46.4004, -9255.4560546875], [-124.76364, 46.40116, -9919.736328125], [-124.77395, 46.40888, -9536.2900390625], [-124.77729, 46.4004, -9255.4560546875]]], [[[-124.77035, 46.39288, -9538.4130859375], [-124.76192, 46.38604, -9978.03515625], [-124.76019, 46.39371, -10036.1416015625], [-124.77035, 46.39288, -9538.4130859375]]], [[[-124.83035, 46.32938, -6588.36376953125], [-124.83338, 46.32059, -6189.49169921875], [-124.82225, 46.32182, -6856.35546875], [-124.83035, 46.32938, -6588.36376953125]]], [[[-124.8462, 46.33978, -5821.34912109375], [-124.83584, 46.34714, -6440.1455078125], [-124.84659, 46.34769, -5768.7529296875], [-124.8462, 46.33978, -5821.34912109375]]], [[[-124.7687, 46.31863, -9301.95703125], [-124.77135, 46.31002, -8785.3349609375], [-124.76003, 46.31129, -9347.2822265625], [-124.7687, 46.31863, -9301.95703125]]], [[[-124.85049, 46.37704, -5137.49462890625], [-124.84562, 46.38567, -5457.5126953125], [-124.85457, 46.38475, -4741.24755859375], [-124.85049, 46.37704, -5137.49462890625]]], [[[-124.86028, 46.39289, -4359.29443359375], [-124.86671, 46.40078, -4027.982666015625], [-124.86872, 46.39148, -3583.218017578125], [-124.86028, 46.39289, -4359.29443359375]]], [[[-124.78023, 46.31749, -8734.8701171875], [-124.77135, 46.31002, -8785.3349609375], [-124.7687, 46.31863, -9301.95703125], [-124.78023, 46.31749, -8734.8701171875]]], [[[-124.87825, 46.33114, -2836.639892578125], [-124.88327, 46.3258, -2048.340087890625], [-124.87531, 46.32267, -2840.738037109375], [-124.87825, 46.33114, -2836.639892578125]]], [[[-124.82178, 46.3963, -7028.900390625], [-124.81109, 46.39727, -7599.55322265625], [-124.81838, 46.40509, -7356.37109375], [-124.82178, 46.3963, -7028.900390625]]], [[[-124.82892, 46.40415, -6768.5302734375], [-124.83647, 46.41186, -6547.3173828125], [-124.83915, 46.40322, -6152.5390625], [-124.82892, 46.40415, -6768.5302734375]]], [[[-124.86254, 46.38437, -4072.18994140625], [-124.86872, 46.39148, -3583.218017578125], [-124.86805, 46.38024, -3536.94677734375], [-124.86254, 46.38437, -4072.18994140625]]], [[[-124.86028, 46.39289, -4359.29443359375], [-124.85148, 46.39369, -5096.58935546875], [-124.85805, 46.40156, -4768.4912109375], [-124.86028, 46.39289, -4359.29443359375]]], [[[-124.85148, 46.39369, -5096.58935546875], [-124.84562, 46.38567, -5457.5126953125], [-124.84228, 46.39449, -5788.95849609375], [-124.85148, 46.39369, -5096.58935546875]]], [[[-124.78023, 46.31749, -8734.8701171875], [-124.78248, 46.30907, -8246.3994140625], [-124.77135, 46.31002, -8785.3349609375], [-124.78023, 46.31749, -8734.8701171875]]], [[[-124.87482, 46.37537, -2838.685302734375], [-124.88181, 46.37123, -2048.340087890625], [-124.87609, 46.36626, -2838.83056640625], [-124.87482, 46.37537, -2838.685302734375]]], [[[-124.87039, 46.32794, -3629.635498046875], [-124.87825, 46.33114, -2836.639892578125], [-124.87531, 46.32267, -2840.738037109375], [-124.87039, 46.32794, -3629.635498046875]]], [[[-124.81838, 46.40509, -7356.37109375], [-124.8152, 46.41378, -7722.02294921875], [-124.82606, 46.41279, -7158.58447265625], [-124.81838, 46.40509, -7356.37109375]]], [[[-124.81365, 46.31437, -7046.6123046875], [-124.81506, 46.30605, -6507.36865234375], [-124.80463, 46.307, -7122.4990234375], [-124.81365, 46.31437, -7046.6123046875]]], [[[-124.81541, 46.34008, -7565.1943359375], [-124.81932, 46.33075, -7234.6845703125], [-124.80795, 46.33195, -7822.10693359375], [-124.81541, 46.34008, -7565.1943359375]]], [[[-124.78023, 46.31749, -8734.8701171875], [-124.79145, 46.31653, -8189.6591796875], [-124.78248, 46.30907, -8246.3994140625], [-124.78023, 46.31749, -8734.8701171875]]], [[[-124.85538, 46.35148, -5049.3837890625], [-124.86302, 46.35614, -4334.97607421875], [-124.86421, 46.34756, -4351.29638671875], [-124.85538, 46.35148, -5049.3837890625]]], [[[-124.79995, 46.32417, -8037.4912109375], [-124.8027, 46.31543, -7631.90478515625], [-124.79145, 46.31653, -8189.6591796875], [-124.79995, 46.32417, -8037.4912109375]]], [[[-124.78855, 46.32517, -8593.5634765625], [-124.79145, 46.31653, -8189.6591796875], [-124.78023, 46.31749, -8734.8701171875], [-124.78855, 46.32517, -8593.5634765625]]], [[[-124.82178, 46.3963, -7028.900390625], [-124.81838, 46.40509, -7356.37109375], [-124.82892, 46.40415, -6768.5302734375], [-124.82178, 46.3963, -7028.900390625]]], [[[-124.82892, 46.40415, -6768.5302734375], [-124.82606, 46.41279, -7158.58447265625], [-124.83647, 46.41186, -6547.3173828125], [-124.82892, 46.40415, -6768.5302734375]]], [[[-124.78855, 46.32517, -8593.5634765625], [-124.79995, 46.32417, -8037.4912109375], [-124.79145, 46.31653, -8189.6591796875], [-124.78855, 46.32517, -8593.5634765625]]], [[[-124.87951, 46.33933, -2842.782470703125], [-124.88577, 46.34392, -2048.340087890625], [-124.88583, 46.33477, -2048.340087890625], [-124.87951, 46.33933, -2842.782470703125]]], [[[-124.83687, 46.35875, -6285.984375], [-124.84616, 46.35537, -5724.1494140625], [-124.83584, 46.34714, -6440.1455078125], [-124.83687, 46.35875, -6285.984375]]], [[[-124.85333, 46.36925, -4999.7548828125], [-124.85049, 46.37704, -5137.49462890625], [-124.86044, 46.37523, -4320.00732421875], [-124.85333, 46.36925, -4999.7548828125]]], [[[-124.79662, 46.33287, -8374.2041015625], [-124.78855, 46.32517, -8593.5634765625], [-124.78485, 46.33443, -8955.7099609375], [-124.79662, 46.33287, -8374.2041015625]]], [[[-124.80414, 46.38942, -7887.9296875], [-124.80006, 46.3983, -8146.41357421875], [-124.81109, 46.39727, -7599.55322265625], [-124.80414, 46.38942, -7887.9296875]]], [[[-124.79316, 46.34158, -8660.7021484375], [-124.79662, 46.33287, -8374.2041015625], [-124.78485, 46.33443, -8955.7099609375], [-124.79316, 46.34158, -8660.7021484375]]], [[[-124.86044, 46.37523, -4320.00732421875], [-124.86805, 46.38024, -3536.94677734375], [-124.86893, 46.37037, -3624.101806640625], [-124.86044, 46.37523, -4320.00732421875]]], [[[-124.78488, 46.36904, -8965.724609375], [-124.77504, 46.37411, -9413.9365234375], [-124.78509, 46.38119, -8870.0234375], [-124.78488, 46.36904, -8965.724609375]]], [[[-124.79316, 46.34158, -8660.7021484375], [-124.80379, 46.3412, -8140.900390625], [-124.79662, 46.33287, -8374.2041015625], [-124.79316, 46.34158, -8660.7021484375]]], [[[-124.84659, 46.34769, -5768.7529296875], [-124.85538, 46.35148, -5049.3837890625], [-124.85576, 46.34369, -5086.02587890625], [-124.84659, 46.34769, -5768.7529296875]]], [[[-124.79316, 46.34158, -8660.7021484375], [-124.79505, 46.35085, -8589.0048828125], [-124.80379, 46.3412, -8140.900390625], [-124.79316, 46.34158, -8660.7021484375]]], [[[-124.77322, 46.38338, -9438.4306640625], [-124.78509, 46.38119, -8870.0234375], [-124.77504, 46.37411, -9413.9365234375], [-124.77322, 46.38338, -9438.4306640625]]], [[[-124.79505, 46.35085, -8589.0048828125], [-124.79316, 46.34158, -8660.7021484375], [-124.78408, 46.3455, -9115.6796875], [-124.79505, 46.35085, -8589.0048828125]]], [[[-124.83594, 46.38655, -6116.5859375], [-124.84228, 46.39449, -5788.95849609375], [-124.84562, 46.38567, -5457.5126953125], [-124.83594, 46.38655, -6116.5859375]]], [[[-124.86893, 46.37037, -3624.101806640625], [-124.87482, 46.37537, -2838.685302734375], [-124.87609, 46.36626, -2838.83056640625], [-124.86893, 46.37037, -3624.101806640625]]], [[[-124.79505, 46.35085, -8589.0048828125], [-124.78408, 46.3455, -9115.6796875], [-124.78601, 46.35763, -8994.3837890625], [-124.79505, 46.35085, -8589.0048828125]]], [[[-124.86872, 46.39148, -3583.218017578125], [-124.87446, 46.38522, -2829.865966796875], [-124.86805, 46.38024, -3536.94677734375], [-124.86872, 46.39148, -3583.218017578125]]], [[[-124.79542, 46.36339, -8485.2822265625], [-124.79505, 46.35085, -8589.0048828125], [-124.78601, 46.35763, -8994.3837890625], [-124.79542, 46.36339, -8485.2822265625]]], [[[-124.8542, 46.36016, -5031.69677734375], [-124.86169, 46.36527, -4334.27880859375], [-124.86302, 46.35614, -4334.97607421875], [-124.8542, 46.36016, -5031.69677734375]]], [[[-124.80346, 46.35653, -8141.67041015625], [-124.79505, 46.35085, -8589.0048828125], [-124.79542, 46.36339, -8485.2822265625], [-124.80346, 46.35653, -8141.67041015625]]], [[[-124.80346, 46.35653, -8141.67041015625], [-124.80838, 46.34909, -7937.78759765625], [-124.79505, 46.35085, -8589.0048828125], [-124.80346, 46.35653, -8141.67041015625]]], [[[-124.87259, 46.3435, -3634.489990234375], [-124.87158, 46.35211, -3625.413330078125], [-124.87881, 46.34802, -2841.759765625], [-124.87259, 46.3435, -3634.489990234375]]], [[[-124.82221, 46.34741, -7235.16259765625], [-124.81541, 46.34008, -7565.1943359375], [-124.80838, 46.34909, -7937.78759765625], [-124.82221, 46.34741, -7235.16259765625]]], [[[-124.80346, 46.35653, -8141.67041015625], [-124.81555, 46.35574, -7536.35791015625], [-124.80838, 46.34909, -7937.78759765625], [-124.80346, 46.35653, -8141.67041015625]]], [[[-124.81555, 46.35574, -7536.35791015625], [-124.80346, 46.35653, -8141.67041015625], [-124.8075, 46.36386, -7881.18505859375], [-124.81555, 46.35574, -7536.35791015625]]], [[[-124.86286, 46.33244, -4383.73193359375], [-124.85414, 46.33516, -5161.0283203125], [-124.86433, 46.33976, -4379.26953125], [-124.86286, 46.33244, -4383.73193359375]]], [[[-124.81555, 46.35574, -7536.35791015625], [-124.8075, 46.36386, -7881.18505859375], [-124.81879, 46.36293, -7302.46533203125], [-124.81555, 46.35574, -7536.35791015625]]], [[[-124.82735, 46.35422, -6894.8681640625], [-124.81555, 46.35574, -7536.35791015625], [-124.81879, 46.36293, -7302.46533203125], [-124.82735, 46.35422, -6894.8681640625]]], [[[-124.81555, 46.35574, -7536.35791015625], [-124.82735, 46.35422, -6894.8681640625], [-124.82221, 46.34741, -7235.16259765625], [-124.81555, 46.35574, -7536.35791015625]]], [[[-124.85256, 46.32602, -5049.68017578125], [-124.86125, 46.32526, -4317.92578125], [-124.85548, 46.31784, -4499.2041015625], [-124.85256, 46.32602, -5049.68017578125]]], [[[-124.82221, 46.34741, -7235.16259765625], [-124.80838, 46.34909, -7937.78759765625], [-124.81555, 46.35574, -7536.35791015625], [-124.82221, 46.34741, -7235.16259765625]]], [[[-124.80247, 46.37257, -8070.509765625], [-124.79211, 46.37359, -8575.630859375], [-124.79776, 46.38153, -8241.7099609375], [-124.80247, 46.37257, -8070.509765625]]], [[[-124.84514, 46.30345, -4318.8232421875], [-124.8531, 46.30225, -3558.77294921875], [-124.84392, 46.29534, -3754.578857421875], [-124.84514, 46.30345, -4318.8232421875]]], [[[-124.87158, 46.35211, -3625.413330078125], [-124.87022, 46.36124, -3623.64697265625], [-124.8774, 46.35713, -2838.93310546875], [-124.87158, 46.35211, -3625.413330078125]]], [[[-124.81541, 46.34008, -7565.1943359375], [-124.82713, 46.33854, -6928.875], [-124.81932, 46.33075, -7234.6845703125], [-124.81541, 46.34008, -7565.1943359375]]], [[[-124.82221, 46.34741, -7235.16259765625], [-124.82713, 46.33854, -6928.875], [-124.81541, 46.34008, -7565.1943359375], [-124.82221, 46.34741, -7235.16259765625]]], [[[-124.82221, 46.34741, -7235.16259765625], [-124.83584, 46.34714, -6440.1455078125], [-124.82713, 46.33854, -6928.875], [-124.82221, 46.34741, -7235.16259765625]]], [[[-124.80006, 46.3983, -8146.41357421875], [-124.79636, 46.40712, -8452.8154296875], [-124.80746, 46.40608, -7908.9189453125], [-124.80006, 46.3983, -8146.41357421875]]], [[[-124.86872, 46.39148, -3583.218017578125], [-124.86671, 46.40078, -4027.982666015625], [-124.87508, 46.40037, -3199.106201171875], [-124.86872, 46.39148, -3583.218017578125]]], [[[-124.78901, 46.39933, -8684.8095703125], [-124.78535, 46.40815, -8990.2470703125], [-124.79636, 46.40712, -8452.8154296875], [-124.78901, 46.39933, -8684.8095703125]]], [[[-124.79211, 46.37359, -8575.630859375], [-124.78509, 46.38119, -8870.0234375], [-124.79776, 46.38153, -8241.7099609375], [-124.79211, 46.37359, -8575.630859375]]], [[[-124.87531, 46.32267, -2840.738037109375], [-124.87949, 46.31703, -2048.340087890625], [-124.87047, 46.31433, -2901.30859375], [-124.87531, 46.32267, -2840.738037109375]]], [[[-124.87951, 46.33933, -2842.782470703125], [-124.87881, 46.34802, -2841.759765625], [-124.88577, 46.34392, -2048.340087890625], [-124.87951, 46.33933, -2842.782470703125]]], [[[-124.83915, 46.40322, -6152.5390625], [-124.83647, 46.41186, -6547.3173828125], [-124.84686, 46.41098, -5932.146484375], [-124.83915, 46.40322, -6152.5390625]]], [[[-124.8027, 46.31543, -7631.90478515625], [-124.79362, 46.30805, -7701.9287109375], [-124.79145, 46.31653, -8189.6591796875], [-124.8027, 46.31543, -7631.90478515625]]], [[[-124.78901, 46.39933, -8684.8095703125], [-124.79636, 46.40712, -8452.8154296875], [-124.80006, 46.3983, -8146.41357421875], [-124.78901, 46.39933, -8684.8095703125]]], [[[-124.84394, 46.3711, -5714.92529296875], [-124.85333, 46.36925, -4999.7548828125], [-124.84524, 46.3641, -5693.466796875], [-124.84394, 46.3711, -5714.92529296875]]], [[[-124.77729, 46.4004, -9255.4560546875], [-124.77395, 46.40888, -9536.2900390625], [-124.78535, 46.40815, -8990.2470703125], [-124.77729, 46.4004, -9255.4560546875]]], [[[-124.87951, 46.33933, -2842.782470703125], [-124.87825, 46.33114, -2836.639892578125], [-124.87235, 46.33567, -3649.02197265625], [-124.87951, 46.33933, -2842.782470703125]]], [[[-124.87609, 46.36626, -2838.83056640625], [-124.88181, 46.37123, -2048.340087890625], [-124.88308, 46.36213, -2048.340087890625], [-124.87609, 46.36626, -2838.83056640625]]], [[[-124.83035, 46.32938, -6588.36376953125], [-124.84272, 46.32889, -5860.35400390625], [-124.83338, 46.32059, -6189.49169921875], [-124.83035, 46.32938, -6588.36376953125]]], [[[-124.82735, 46.35422, -6894.8681640625], [-124.83687, 46.35875, -6285.984375], [-124.83584, 46.34714, -6440.1455078125], [-124.82735, 46.35422, -6894.8681640625]]], [[[-124.88441, 46.35302, -2048.340087890625], [-124.88577, 46.34392, -2048.340087890625], [-124.87881, 46.34802, -2841.759765625], [-124.88441, 46.35302, -2048.340087890625]]], [[[-124.8075, 46.36386, -7881.18505859375], [-124.80247, 46.37257, -8070.509765625], [-124.8136, 46.37158, -7516.19091796875], [-124.8075, 46.36386, -7881.18505859375]]], [[[-124.81365, 46.31437, -7046.6123046875], [-124.80463, 46.307, -7122.4990234375], [-124.8027, 46.31543, -7631.90478515625], [-124.81365, 46.31437, -7046.6123046875]]], [[[-124.83687, 46.35875, -6285.984375], [-124.82735, 46.35422, -6894.8681640625], [-124.82861, 46.36251, -6748.89111328125], [-124.83687, 46.35875, -6285.984375]]], [[[-124.84394, 46.3711, -5714.92529296875], [-124.85049, 46.37704, -5137.49462890625], [-124.85333, 46.36925, -4999.7548828125], [-124.84394, 46.3711, -5714.92529296875]]], [[[-124.83687, 46.35875, -6285.984375], [-124.82861, 46.36251, -6748.89111328125], [-124.83478, 46.36963, -6313.5712890625], [-124.83687, 46.35875, -6285.984375]]], [[[-124.84036, 46.37811, -5884.71826171875], [-124.84562, 46.38567, -5457.5126953125], [-124.85049, 46.37704, -5137.49462890625], [-124.84036, 46.37811, -5884.71826171875]]], [[[-124.86805, 46.38024, -3536.94677734375], [-124.87446, 46.38522, -2829.865966796875], [-124.87482, 46.37537, -2838.685302734375], [-124.86805, 46.38024, -3536.94677734375]]], [[[-124.82436, 46.31316, -6401.77734375], [-124.82576, 46.30492, -5842.76318359375], [-124.81506, 46.30605, -6507.36865234375], [-124.82436, 46.31316, -6401.77734375]]], [[[-124.87039, 46.32794, -3629.635498046875], [-124.86286, 46.33244, -4383.73193359375], [-124.87235, 46.33567, -3649.02197265625], [-124.87039, 46.32794, -3629.635498046875]]], [[[-124.84524, 46.3641, -5693.466796875], [-124.83687, 46.35875, -6285.984375], [-124.83478, 46.36963, -6313.5712890625], [-124.84524, 46.3641, -5693.466796875]]], [[[-124.8774, 46.35713, -2838.93310546875], [-124.88308, 46.36213, -2048.340087890625], [-124.88441, 46.35302, -2048.340087890625], [-124.8774, 46.35713, -2838.93310546875]]], [[[-124.86169, 46.36527, -4334.27880859375], [-124.86044, 46.37523, -4320.00732421875], [-124.86893, 46.37037, -3624.101806640625], [-124.86169, 46.36527, -4334.27880859375]]], [[[-124.86169, 46.36527, -4334.27880859375], [-124.86893, 46.37037, -3624.101806640625], [-124.87022, 46.36124, -3623.64697265625], [-124.86169, 46.36527, -4334.27880859375]]], [[[-124.84417, 46.31922, -5440.8017578125], [-124.85548, 46.31784, -4499.2041015625], [-124.84605, 46.31106, -4862.9716796875], [-124.84417, 46.31922, -5440.8017578125]]], [[[-124.86433, 46.33976, -4379.26953125], [-124.87235, 46.33567, -3649.02197265625], [-124.86286, 46.33244, -4383.73193359375], [-124.86433, 46.33976, -4379.26953125]]], [[[-124.84524, 46.3641, -5693.466796875], [-124.84616, 46.35537, -5724.1494140625], [-124.83687, 46.35875, -6285.984375], [-124.84524, 46.3641, -5693.466796875]]], [[[-124.84605, 46.31106, -4862.9716796875], [-124.85861, 46.31054, -3850.927734375], [-124.84514, 46.30345, -4318.8232421875], [-124.84605, 46.31106, -4862.9716796875]]], [[[-124.87825, 46.33114, -2836.639892578125], [-124.88583, 46.33477, -2048.340087890625], [-124.88327, 46.3258, -2048.340087890625], [-124.87825, 46.33114, -2836.639892578125]]], [[[-124.85576, 46.34369, -5086.02587890625], [-124.86433, 46.33976, -4379.26953125], [-124.85414, 46.33516, -5161.0283203125], [-124.85576, 46.34369, -5086.02587890625]]], [[[-124.87482, 46.37537, -2838.685302734375], [-124.88054, 46.38034, -2048.340087890625], [-124.88181, 46.37123, -2048.340087890625], [-124.87482, 46.37537, -2838.685302734375]]], [[[-124.84524, 46.3641, -5693.466796875], [-124.8542, 46.36016, -5031.69677734375], [-124.84616, 46.35537, -5724.1494140625], [-124.84524, 46.3641, -5693.466796875]]], [[[-124.86286, 46.33244, -4383.73193359375], [-124.87039, 46.32794, -3629.635498046875], [-124.86125, 46.32526, -4317.92578125], [-124.86286, 46.33244, -4383.73193359375]]], [[[-124.87951, 46.33933, -2842.782470703125], [-124.88583, 46.33477, -2048.340087890625], [-124.87825, 46.33114, -2836.639892578125], [-124.87951, 46.33933, -2842.782470703125]]], [[[-124.84524, 46.3641, -5693.466796875], [-124.85333, 46.36925, -4999.7548828125], [-124.8542, 46.36016, -5031.69677734375], [-124.84524, 46.3641, -5693.466796875]]], [[[-124.85576, 46.34369, -5086.02587890625], [-124.86421, 46.34756, -4351.29638671875], [-124.86433, 46.33976, -4379.26953125], [-124.85576, 46.34369, -5086.02587890625]]], [[[-124.77729, 46.4004, -9255.4560546875], [-124.78535, 46.40815, -8990.2470703125], [-124.78901, 46.39933, -8684.8095703125], [-124.77729, 46.4004, -9255.4560546875]]], [[[-124.85548, 46.31784, -4499.2041015625], [-124.85861, 46.31054, -3850.927734375], [-124.84605, 46.31106, -4862.9716796875], [-124.85548, 46.31784, -4499.2041015625]]], [[[-124.87158, 46.35211, -3625.413330078125], [-124.86302, 46.35614, -4334.97607421875], [-124.87022, 46.36124, -3623.64697265625], [-124.87158, 46.35211, -3625.413330078125]]], [[[-124.87259, 46.3435, -3634.489990234375], [-124.87951, 46.33933, -2842.782470703125], [-124.87235, 46.33567, -3649.02197265625], [-124.87259, 46.3435, -3634.489990234375]]], [[[-124.86433, 46.33976, -4379.26953125], [-124.86421, 46.34756, -4351.29638671875], [-124.87259, 46.3435, -3634.489990234375], [-124.86433, 46.33976, -4379.26953125]]], [[[-124.81838, 46.40509, -7356.37109375], [-124.82606, 46.41279, -7158.58447265625], [-124.82892, 46.40415, -6768.5302734375], [-124.81838, 46.40509, -7356.37109375]]], [[[-124.81838, 46.40509, -7356.37109375], [-124.80746, 46.40608, -7908.9189453125], [-124.8152, 46.41378, -7722.02294921875], [-124.81838, 46.40509, -7356.37109375]]], [[[-124.83534, 46.30397, -5117.0556640625], [-124.83506, 46.29619, -4506.7744140625], [-124.82611, 46.29691, -5253.6591796875], [-124.83534, 46.30397, -5117.0556640625]]], [[[-124.85148, 46.39369, -5096.58935546875], [-124.84898, 46.40238, -5492.2685546875], [-124.85805, 46.40156, -4768.4912109375], [-124.85148, 46.39369, -5096.58935546875]]], [[[-124.83518, 46.31197, -5704.34228515625], [-124.84605, 46.31106, -4862.9716796875], [-124.83534, 46.30397, -5117.0556640625], [-124.83518, 46.31197, -5704.34228515625]]], [[[-124.8374, 46.33694, -6311.41796875], [-124.84272, 46.32889, -5860.35400390625], [-124.83035, 46.32938, -6588.36376953125], [-124.8374, 46.33694, -6311.41796875]]], [[[-124.85049, 46.37704, -5137.49462890625], [-124.84394, 46.3711, -5714.92529296875], [-124.84036, 46.37811, -5884.71826171875], [-124.85049, 46.37704, -5137.49462890625]]], [[[-124.80414, 46.38942, -7887.9296875], [-124.79291, 46.3903, -8437.5068359375], [-124.80006, 46.3983, -8146.41357421875], [-124.80414, 46.38942, -7887.9296875]]], [[[-124.85861, 46.31054, -3850.927734375], [-124.8645, 46.30709, -2892.474609375], [-124.8531, 46.30225, -3558.77294921875], [-124.85861, 46.31054, -3850.927734375]]], [[[-124.86169, 46.36527, -4334.27880859375], [-124.87022, 46.36124, -3623.64697265625], [-124.86302, 46.35614, -4334.97607421875], [-124.86169, 46.36527, -4334.27880859375]]], [[[-124.81115, 46.3231, -7475.55126953125], [-124.82225, 46.32182, -6856.35546875], [-124.81365, 46.31437, -7046.6123046875], [-124.81115, 46.3231, -7475.55126953125]]], [[[-124.83915, 46.40322, -6152.5390625], [-124.84686, 46.41098, -5932.146484375], [-124.84898, 46.40238, -5492.2685546875], [-124.83915, 46.40322, -6152.5390625]]], [[[-124.84036, 46.37811, -5884.71826171875], [-124.83594, 46.38655, -6116.5859375], [-124.84562, 46.38567, -5457.5126953125], [-124.84036, 46.37811, -5884.71826171875]]], [[[-124.84228, 46.39449, -5788.95849609375], [-124.83915, 46.40322, -6152.5390625], [-124.84898, 46.40238, -5492.2685546875], [-124.84228, 46.39449, -5788.95849609375]]], [[[-124.79995, 46.32417, -8037.4912109375], [-124.81115, 46.3231, -7475.55126953125], [-124.8027, 46.31543, -7631.90478515625], [-124.79995, 46.32417, -8037.4912109375]]], [[[-124.84036, 46.37811, -5884.71826171875], [-124.83018, 46.37859, -6517.87548828125], [-124.83594, 46.38655, -6116.5859375], [-124.84036, 46.37811, -5884.71826171875]]], [[[-124.86044, 46.37523, -4320.00732421875], [-124.86254, 46.38437, -4072.18994140625], [-124.86805, 46.38024, -3536.94677734375], [-124.86044, 46.37523, -4320.00732421875]]], [[[-124.84616, 46.35537, -5724.1494140625], [-124.85538, 46.35148, -5049.3837890625], [-124.84659, 46.34769, -5768.7529296875], [-124.84616, 46.35537, -5724.1494140625]]], [[[-124.86657, 46.31945, -3673.727294921875], [-124.87531, 46.32267, -2840.738037109375], [-124.87047, 46.31433, -2901.30859375], [-124.86657, 46.31945, -3673.727294921875]]], [[[-124.84394, 46.3711, -5714.92529296875], [-124.83478, 46.36963, -6313.5712890625], [-124.84036, 46.37811, -5884.71826171875], [-124.84394, 46.3711, -5714.92529296875]]], [[[-124.82713, 46.33854, -6928.875], [-124.83035, 46.32938, -6588.36376953125], [-124.81932, 46.33075, -7234.6845703125], [-124.82713, 46.33854, -6928.875]]], [[[-124.85333, 46.36925, -4999.7548828125], [-124.86044, 46.37523, -4320.00732421875], [-124.86169, 46.36527, -4334.27880859375], [-124.85333, 46.36925, -4999.7548828125]]], [[[-124.83338, 46.32059, -6189.49169921875], [-124.83518, 46.31197, -5704.34228515625], [-124.82436, 46.31316, -6401.77734375], [-124.83338, 46.32059, -6189.49169921875]]], [[[-124.8462, 46.33978, -5821.34912109375], [-124.84659, 46.34769, -5768.7529296875], [-124.85576, 46.34369, -5086.02587890625], [-124.8462, 46.33978, -5821.34912109375]]], [[[-124.84524, 46.3641, -5693.466796875], [-124.83478, 46.36963, -6313.5712890625], [-124.84394, 46.3711, -5714.92529296875], [-124.84524, 46.3641, -5693.466796875]]], [[[-124.82441, 46.37075, -6929.626953125], [-124.83018, 46.37859, -6517.87548828125], [-124.83478, 46.36963, -6313.5712890625], [-124.82441, 46.37075, -6929.626953125]]], [[[-124.86028, 46.39289, -4359.29443359375], [-124.85457, 46.38475, -4741.24755859375], [-124.85148, 46.39369, -5096.58935546875], [-124.86028, 46.39289, -4359.29443359375]]], [[[-124.85538, 46.35148, -5049.3837890625], [-124.86421, 46.34756, -4351.29638671875], [-124.85576, 46.34369, -5086.02587890625], [-124.85538, 46.35148, -5049.3837890625]]], [[[-124.86657, 46.31945, -3673.727294921875], [-124.86125, 46.32526, -4317.92578125], [-124.87039, 46.32794, -3629.635498046875], [-124.86657, 46.31945, -3673.727294921875]]], [[[-124.82441, 46.37075, -6929.626953125], [-124.8197, 46.37952, -7122.46826171875], [-124.83018, 46.37859, -6517.87548828125], [-124.82441, 46.37075, -6929.626953125]]], [[[-124.86433, 46.33976, -4379.26953125], [-124.87259, 46.3435, -3634.489990234375], [-124.87235, 46.33567, -3649.02197265625], [-124.86433, 46.33976, -4379.26953125]]], [[[-124.82565, 46.38747, -6738.45458984375], [-124.83224, 46.39539, -6416.39501953125], [-124.83594, 46.38655, -6116.5859375], [-124.82565, 46.38747, -6738.45458984375]]], [[[-124.8136, 46.37158, -7516.19091796875], [-124.8197, 46.37952, -7122.46826171875], [-124.82441, 46.37075, -6929.626953125], [-124.8136, 46.37158, -7516.19091796875]]], [[[-124.83518, 46.31197, -5704.34228515625], [-124.83534, 46.30397, -5117.0556640625], [-124.82576, 46.30492, -5842.76318359375], [-124.83518, 46.31197, -5704.34228515625]]], [[[-124.87482, 46.37537, -2838.685302734375], [-124.87446, 46.38522, -2829.865966796875], [-124.88054, 46.38034, -2048.340087890625], [-124.87482, 46.37537, -2838.685302734375]]], [[[-124.82225, 46.32182, -6856.35546875], [-124.83338, 46.32059, -6189.49169921875], [-124.82436, 46.31316, -6401.77734375], [-124.82225, 46.32182, -6856.35546875]]], [[[-124.80247, 46.37257, -8070.509765625], [-124.8075, 46.36386, -7881.18505859375], [-124.79542, 46.36339, -8485.2822265625], [-124.80247, 46.37257, -8070.509765625]]], [[[-124.79211, 46.37359, -8575.630859375], [-124.80247, 46.37257, -8070.509765625], [-124.79542, 46.36339, -8485.2822265625], [-124.79211, 46.37359, -8575.630859375]]], [[[-124.85861, 46.31054, -3850.927734375], [-124.87047, 46.31433, -2901.30859375], [-124.8645, 46.30709, -2892.474609375], [-124.85861, 46.31054, -3850.927734375]]], [[[-124.83018, 46.37859, -6517.87548828125], [-124.8197, 46.37952, -7122.46826171875], [-124.82565, 46.38747, -6738.45458984375], [-124.83018, 46.37859, -6517.87548828125]]], [[[-124.87531, 46.32267, -2840.738037109375], [-124.88327, 46.3258, -2048.340087890625], [-124.87949, 46.31703, -2048.340087890625], [-124.87531, 46.32267, -2840.738037109375]]], [[[-124.82225, 46.32182, -6856.35546875], [-124.82436, 46.31316, -6401.77734375], [-124.81365, 46.31437, -7046.6123046875], [-124.82225, 46.32182, -6856.35546875]]], [[[-124.78488, 46.36904, -8965.724609375], [-124.78601, 46.35763, -8994.3837890625], [-124.77633, 46.36333, -9429.453125], [-124.78488, 46.36904, -8965.724609375]]], [[[-124.84514, 46.30345, -4318.8232421875], [-124.84392, 46.29534, -3754.578857421875], [-124.83506, 46.29619, -4506.7744140625], [-124.84514, 46.30345, -4318.8232421875]]], [[[-124.79776, 46.38153, -8241.7099609375], [-124.78509, 46.38119, -8870.0234375], [-124.79291, 46.3903, -8437.5068359375], [-124.79776, 46.38153, -8241.7099609375]]], [[[-124.79211, 46.37359, -8575.630859375], [-124.78488, 46.36904, -8965.724609375], [-124.78509, 46.38119, -8870.0234375], [-124.79211, 46.37359, -8575.630859375]]], [[[-124.78488, 46.36904, -8965.724609375], [-124.79542, 46.36339, -8485.2822265625], [-124.78601, 46.35763, -8994.3837890625], [-124.78488, 46.36904, -8965.724609375]]], [[[-124.82436, 46.31316, -6401.77734375], [-124.81506, 46.30605, -6507.36865234375], [-124.81365, 46.31437, -7046.6123046875], [-124.82436, 46.31316, -6401.77734375]]], [[[-124.81504, 46.3884, -7331.638671875], [-124.82178, 46.3963, -7028.900390625], [-124.82565, 46.38747, -6738.45458984375], [-124.81504, 46.3884, -7331.638671875]]], [[[-124.86125, 46.32526, -4317.92578125], [-124.86657, 46.31945, -3673.727294921875], [-124.85548, 46.31784, -4499.2041015625], [-124.86125, 46.32526, -4317.92578125]]], [[[-124.80006, 46.3983, -8146.41357421875], [-124.80746, 46.40608, -7908.9189453125], [-124.81109, 46.39727, -7599.55322265625], [-124.80006, 46.3983, -8146.41357421875]]], [[[-124.78509, 46.38119, -8870.0234375], [-124.78178, 46.39126, -8980.0419921875], [-124.79291, 46.3903, -8437.5068359375], [-124.78509, 46.38119, -8870.0234375]]], [[[-124.79291, 46.3903, -8437.5068359375], [-124.78901, 46.39933, -8684.8095703125], [-124.80006, 46.3983, -8146.41357421875], [-124.79291, 46.3903, -8437.5068359375]]], [[[-124.87039, 46.32794, -3629.635498046875], [-124.87235, 46.33567, -3649.02197265625], [-124.87825, 46.33114, -2836.639892578125], [-124.87039, 46.32794, -3629.635498046875]]], [[[-124.81504, 46.3884, -7331.638671875], [-124.81109, 46.39727, -7599.55322265625], [-124.82178, 46.3963, -7028.900390625], [-124.81504, 46.3884, -7331.638671875]]], [[[-124.83224, 46.39539, -6416.39501953125], [-124.82892, 46.40415, -6768.5302734375], [-124.83915, 46.40322, -6152.5390625], [-124.83224, 46.39539, -6416.39501953125]]], [[[-124.84228, 46.39449, -5788.95849609375], [-124.83224, 46.39539, -6416.39501953125], [-124.83915, 46.40322, -6152.5390625], [-124.84228, 46.39449, -5788.95849609375]]], [[[-124.83594, 46.38655, -6116.5859375], [-124.83224, 46.39539, -6416.39501953125], [-124.84228, 46.39449, -5788.95849609375], [-124.83594, 46.38655, -6116.5859375]]], [[[-124.83534, 46.30397, -5117.0556640625], [-124.82611, 46.29691, -5253.6591796875], [-124.82576, 46.30492, -5842.76318359375], [-124.83534, 46.30397, -5117.0556640625]]], [[[-124.86657, 46.31945, -3673.727294921875], [-124.87047, 46.31433, -2901.30859375], [-124.85861, 46.31054, -3850.927734375], [-124.86657, 46.31945, -3673.727294921875]]], [[[-124.8542, 46.36016, -5031.69677734375], [-124.85333, 46.36925, -4999.7548828125], [-124.86169, 46.36527, -4334.27880859375], [-124.8542, 46.36016, -5031.69677734375]]], [[[-124.87022, 46.36124, -3623.64697265625], [-124.86893, 46.37037, -3624.101806640625], [-124.87609, 46.36626, -2838.83056640625], [-124.87022, 46.36124, -3623.64697265625]]], [[[-124.84272, 46.32889, -5860.35400390625], [-124.85256, 46.32602, -5049.68017578125], [-124.84417, 46.31922, -5440.8017578125], [-124.84272, 46.32889, -5860.35400390625]]], [[[-124.80795, 46.33195, -7822.10693359375], [-124.79995, 46.32417, -8037.4912109375], [-124.79662, 46.33287, -8374.2041015625], [-124.80795, 46.33195, -7822.10693359375]]], [[[-124.81115, 46.3231, -7475.55126953125], [-124.81365, 46.31437, -7046.6123046875], [-124.8027, 46.31543, -7631.90478515625], [-124.81115, 46.3231, -7475.55126953125]]], [[[-124.80795, 46.33195, -7822.10693359375], [-124.81115, 46.3231, -7475.55126953125], [-124.79995, 46.32417, -8037.4912109375], [-124.80795, 46.33195, -7822.10693359375]]], [[[-124.81109, 46.39727, -7599.55322265625], [-124.80746, 46.40608, -7908.9189453125], [-124.81838, 46.40509, -7356.37109375], [-124.81109, 46.39727, -7599.55322265625]]], [[[-124.82436, 46.31316, -6401.77734375], [-124.83518, 46.31197, -5704.34228515625], [-124.82576, 46.30492, -5842.76318359375], [-124.82436, 46.31316, -6401.77734375]]], [[[-124.84417, 46.31922, -5440.8017578125], [-124.83518, 46.31197, -5704.34228515625], [-124.83338, 46.32059, -6189.49169921875], [-124.84417, 46.31922, -5440.8017578125]]], [[[-124.84605, 46.31106, -4862.9716796875], [-124.84514, 46.30345, -4318.8232421875], [-124.83534, 46.30397, -5117.0556640625], [-124.84605, 46.31106, -4862.9716796875]]], [[[-124.77504, 46.37411, -9413.9365234375], [-124.76381, 46.37745, -9943.25], [-124.77322, 46.38338, -9438.4306640625], [-124.77504, 46.37411, -9413.9365234375]]], [[[-124.77504, 46.37411, -9413.9365234375], [-124.76586, 46.36812, -9908.755859375], [-124.76381, 46.37745, -9943.25], [-124.77504, 46.37411, -9413.9365234375]]], [[[-124.77633, 46.36333, -9429.453125], [-124.76586, 46.36812, -9908.755859375], [-124.77504, 46.37411, -9413.9365234375], [-124.77633, 46.36333, -9429.453125]]], [[[-124.77633, 46.36333, -9429.453125], [-124.76737, 46.35766, -9915.7861328125], [-124.76586, 46.36812, -9908.755859375], [-124.77633, 46.36333, -9429.453125]]], [[[-124.7765, 46.35167, -9492.7861328125], [-124.76737, 46.35766, -9915.7861328125], [-124.77633, 46.36333, -9429.453125], [-124.7765, 46.35167, -9492.7861328125]]], [[[-124.7765, 46.35167, -9492.7861328125], [-124.76723, 46.34614, -9944.875], [-124.76737, 46.35766, -9915.7861328125], [-124.7765, 46.35167, -9492.7861328125]]], [[[-124.7765, 46.35167, -9492.7861328125], [-124.77438, 46.33869, -9514.458984375], [-124.76723, 46.34614, -9944.875], [-124.7765, 46.35167, -9492.7861328125]]], [[[-124.78408, 46.3455, -9115.6796875], [-124.77438, 46.33869, -9514.458984375], [-124.7765, 46.35167, -9492.7861328125], [-124.78408, 46.3455, -9115.6796875]]], [[[-124.77438, 46.33869, -9514.458984375], [-124.78408, 46.3455, -9115.6796875], [-124.78485, 46.33443, -8955.7099609375], [-124.77438, 46.33869, -9514.458984375]]], [[[-124.78485, 46.33443, -8955.7099609375], [-124.77708, 46.32691, -9169.212890625], [-124.77438, 46.33869, -9514.458984375], [-124.78485, 46.33443, -8955.7099609375]]], [[[-124.78485, 46.33443, -8955.7099609375], [-124.78855, 46.32517, -8593.5634765625], [-124.77708, 46.32691, -9169.212890625], [-124.78485, 46.33443, -8955.7099609375]]], [[[-124.77708, 46.32691, -9169.212890625], [-124.78855, 46.32517, -8593.5634765625], [-124.78023, 46.31749, -8734.8701171875], [-124.77708, 46.32691, -9169.212890625]]], [[[-124.77708, 46.32691, -9169.212890625], [-124.78023, 46.31749, -8734.8701171875], [-124.7687, 46.31863, -9301.95703125], [-124.77708, 46.32691, -9169.212890625]]], [[[-124.7658, 46.32785, -9717.759765625], [-124.77708, 46.32691, -9169.212890625], [-124.7687, 46.31863, -9301.95703125], [-124.7658, 46.32785, -9717.759765625]]], [[[-124.77438, 46.33869, -9514.458984375], [-124.77708, 46.32691, -9169.212890625], [-124.7658, 46.32785, -9717.759765625], [-124.77438, 46.33869, -9514.458984375]]], [[[-124.77438, 46.33869, -9514.458984375], [-124.7658, 46.32785, -9717.759765625], [-124.76347, 46.33564, -9981.3740234375], [-124.77438, 46.33869, -9514.458984375]]], [[[-124.77438, 46.33869, -9514.458984375], [-124.76347, 46.33564, -9981.3740234375], [-124.76723, 46.34614, -9944.875], [-124.77438, 46.33869, -9514.458984375]]], [[[-124.75662, 46.34153, -10399.53515625], [-124.76723, 46.34614, -9944.875], [-124.76347, 46.33564, -9981.3740234375], [-124.75662, 46.34153, -10399.53515625]]], [[[-124.76723, 46.34614, -9944.875], [-124.75662, 46.34153, -10399.53515625], [-124.75822, 46.35222, -10385.9150390625], [-124.76723, 46.34614, -9944.875]]], [[[-124.75822, 46.35222, -10385.9150390625], [-124.76737, 46.35766, -9915.7861328125], [-124.76723, 46.34614, -9944.875], [-124.75822, 46.35222, -10385.9150390625]]], [[[-124.76737, 46.35766, -9915.7861328125], [-124.75822, 46.35222, -10385.9150390625], [-124.75691, 46.3624, -10395.4345703125], [-124.76737, 46.35766, -9915.7861328125]]], [[[-124.75691, 46.3624, -10395.4345703125], [-124.76586, 46.36812, -9908.755859375], [-124.76737, 46.35766, -9915.7861328125], [-124.75691, 46.3624, -10395.4345703125]]], [[[-124.76586, 46.36812, -9908.755859375], [-124.75691, 46.3624, -10395.4345703125], [-124.75479, 46.37169, -10429.375], [-124.76586, 46.36812, -9908.755859375]]], [[[-124.75479, 46.37169, -10429.375], [-124.76381, 46.37745, -9943.25], [-124.76586, 46.36812, -9908.755859375], [-124.75479, 46.37169, -10429.375]]], [[[-124.76381, 46.37745, -9943.25], [-124.75479, 46.37169, -10429.375], [-124.7527, 46.38059, -10469.0322265625], [-124.76381, 46.37745, -9943.25]]], [[[-124.76192, 46.38604, -9978.03515625], [-124.76381, 46.37745, -9943.25], [-124.7527, 46.38059, -10469.0322265625], [-124.76192, 46.38604, -9978.03515625]]], [[[-124.76192, 46.38604, -9978.03515625], [-124.7527, 46.38059, -10469.0322265625], [-124.75086, 46.38921, -10505.109375], [-124.76192, 46.38604, -9978.03515625]]], [[[-124.76192, 46.38604, -9978.03515625], [-124.75086, 46.38921, -10505.109375], [-124.76019, 46.39371, -10036.1416015625], [-124.76192, 46.38604, -9978.03515625]]], [[[-124.76019, 46.39371, -10036.1416015625], [-124.75086, 46.38921, -10505.109375], [-124.75071, 46.39717, -10509.5498046875], [-124.76019, 46.39371, -10036.1416015625]]], [[[-124.76019, 46.39371, -10036.1416015625], [-124.75071, 46.39717, -10509.5498046875], [-124.76364, 46.40116, -9919.736328125], [-124.76019, 46.39371, -10036.1416015625]]], [[[-124.76364, 46.40116, -9919.736328125], [-124.75071, 46.39717, -10509.5498046875], [-124.75248, 46.4049, -10496.8388671875], [-124.76364, 46.40116, -9919.736328125]]], [[[-124.76364, 46.40116, -9919.736328125], [-124.75248, 46.4049, -10496.8388671875], [-124.76334, 46.41001, -10061.80078125], [-124.76364, 46.40116, -9919.736328125]]], [[[-124.76364, 46.40116, -9919.736328125], [-124.76334, 46.41001, -10061.80078125], [-124.77395, 46.40888, -9536.2900390625], [-124.76364, 46.40116, -9919.736328125]]], [[[-124.77395, 46.40888, -9536.2900390625], [-124.76334, 46.41001, -10061.80078125], [-124.77095, 46.41779, -9875.4326171875], [-124.77395, 46.40888, -9536.2900390625]]], [[[-124.77395, 46.40888, -9536.2900390625], [-124.77095, 46.41779, -9875.4326171875], [-124.78203, 46.41686, -9337.9951171875], [-124.77395, 46.40888, -9536.2900390625]]], [[[-124.78535, 46.40815, -8990.2470703125], [-124.77395, 46.40888, -9536.2900390625], [-124.78203, 46.41686, -9337.9951171875], [-124.78535, 46.40815, -8990.2470703125]]], [[[-124.78535, 46.40815, -8990.2470703125], [-124.78203, 46.41686, -9337.9951171875], [-124.79309, 46.41585, -8799.5595703125], [-124.78535, 46.40815, -8990.2470703125]]], [[[-124.79636, 46.40712, -8452.8154296875], [-124.78535, 46.40815, -8990.2470703125], [-124.79309, 46.41585, -8799.5595703125], [-124.79636, 46.40712, -8452.8154296875]]], [[[-124.79636, 46.40712, -8452.8154296875], [-124.79309, 46.41585, -8799.5595703125], [-124.80414, 46.41479, -8260.53515625], [-124.79636, 46.40712, -8452.8154296875]]], [[[-124.80746, 46.40608, -7908.9189453125], [-124.79636, 46.40712, -8452.8154296875], [-124.80414, 46.41479, -8260.53515625], [-124.80746, 46.40608, -7908.9189453125]]], [[[-124.80746, 46.40608, -7908.9189453125], [-124.80414, 46.41479, -8260.53515625], [-124.8152, 46.41378, -7722.02294921875], [-124.80746, 46.40608, -7908.9189453125]]], [[[-124.76334, 46.41001, -10061.80078125], [-124.75988, 46.4188, -10413.8642578125], [-124.77095, 46.41779, -9875.4326171875], [-124.76334, 46.41001, -10061.80078125]]], [[[-124.76334, 46.41001, -10061.80078125], [-124.75448, 46.41278, -10531.298828125], [-124.75988, 46.4188, -10413.8642578125], [-124.76334, 46.41001, -10061.80078125]]], [[[-124.76334, 46.41001, -10061.80078125], [-124.75248, 46.4049, -10496.8388671875], [-124.75448, 46.41278, -10531.298828125], [-124.76334, 46.41001, -10061.80078125]]], [[[-124.75248, 46.4049, -10496.8388671875], [-124.74424, 46.41115, -10989.9130859375], [-124.75448, 46.41278, -10531.298828125], [-124.75248, 46.4049, -10496.8388671875]]], [[[-124.75248, 46.4049, -10496.8388671875], [-124.74103, 46.40222, -11015.4833984375], [-124.74424, 46.41115, -10989.9130859375], [-124.75248, 46.4049, -10496.8388671875]]], [[[-124.75071, 46.39717, -10509.5498046875], [-124.74103, 46.40222, -11015.4833984375], [-124.75248, 46.4049, -10496.8388671875], [-124.75071, 46.39717, -10509.5498046875]]], [[[-124.75071, 46.39717, -10509.5498046875], [-124.74007, 46.39304, -11015.7939453125], [-124.74103, 46.40222, -11015.4833984375], [-124.75071, 46.39717, -10509.5498046875]]], [[[-124.75086, 46.38921, -10505.109375], [-124.74007, 46.39304, -11015.7939453125], [-124.75071, 46.39717, -10509.5498046875], [-124.75086, 46.38921, -10505.109375]]], [[[-124.75086, 46.38921, -10505.109375], [-124.74185, 46.38392, -10981.451171875], [-124.74007, 46.39304, -11015.7939453125], [-124.75086, 46.38921, -10505.109375]]], [[[-124.7527, 46.38059, -10469.0322265625], [-124.74185, 46.38392, -10981.451171875], [-124.75086, 46.38921, -10505.109375], [-124.7527, 46.38059, -10469.0322265625]]], [[[-124.7527, 46.38059, -10469.0322265625], [-124.74376, 46.37479, -10951.048828125], [-124.74185, 46.38392, -10981.451171875], [-124.7527, 46.38059, -10469.0322265625]]], [[[-124.75479, 46.37169, -10429.375], [-124.74376, 46.37479, -10951.048828125], [-124.7527, 46.38059, -10469.0322265625], [-124.75479, 46.37169, -10429.375]]], [[[-124.75479, 46.37169, -10429.375], [-124.74592, 46.36569, -10912.021484375], [-124.74376, 46.37479, -10951.048828125], [-124.75479, 46.37169, -10429.375]]], [[[-124.75691, 46.3624, -10395.4345703125], [-124.74592, 46.36569, -10912.021484375], [-124.75479, 46.37169, -10429.375], [-124.75691, 46.3624, -10395.4345703125]]], [[[-124.75691, 46.3624, -10395.4345703125], [-124.74795, 46.35659, -10877.20703125], [-124.74592, 46.36569, -10912.021484375], [-124.75691, 46.3624, -10395.4345703125]]], [[[-124.75822, 46.35222, -10385.9150390625], [-124.74795, 46.35659, -10877.20703125], [-124.75691, 46.3624, -10395.4345703125], [-124.75822, 46.35222, -10385.9150390625]]], [[[-124.75822, 46.35222, -10385.9150390625], [-124.74791, 46.34739, -10870.486328125], [-124.74795, 46.35659, -10877.20703125], [-124.75822, 46.35222, -10385.9150390625]]], [[[-124.75662, 46.34153, -10399.53515625], [-124.74791, 46.34739, -10870.486328125], [-124.75822, 46.35222, -10385.9150390625], [-124.75662, 46.34153, -10399.53515625]]], [[[-124.75662, 46.34153, -10399.53515625], [-124.74511, 46.33841, -10898.953125], [-124.74791, 46.34739, -10870.486328125], [-124.75662, 46.34153, -10399.53515625]]], [[[-124.75249, 46.33077, -10402.5888671875], [-124.74511, 46.33841, -10898.953125], [-124.75662, 46.34153, -10399.53515625], [-124.75249, 46.33077, -10402.5888671875]]], [[[-124.75249, 46.33077, -10402.5888671875], [-124.73981, 46.33015, -10974.69140625], [-124.74511, 46.33841, -10898.953125], [-124.75249, 46.33077, -10402.5888671875]]], [[[-124.76347, 46.33564, -9981.3740234375], [-124.75249, 46.33077, -10402.5888671875], [-124.75662, 46.34153, -10399.53515625], [-124.76347, 46.33564, -9981.3740234375]]], [[[-124.7658, 46.32785, -9717.759765625], [-124.75249, 46.33077, -10402.5888671875], [-124.76347, 46.33564, -9981.3740234375], [-124.7658, 46.32785, -9717.759765625]]], [[[-124.75249, 46.33077, -10402.5888671875], [-124.7658, 46.32785, -9717.759765625], [-124.75602, 46.32078, -9929.5634765625], [-124.75249, 46.33077, -10402.5888671875]]], [[[-124.7658, 46.32785, -9717.759765625], [-124.7687, 46.31863, -9301.95703125], [-124.75602, 46.32078, -9929.5634765625], [-124.7658, 46.32785, -9717.759765625]]], [[[-124.74882, 46.4198, -10952.2958984375], [-124.75448, 46.41278, -10531.298828125], [-124.74424, 46.41115, -10989.9130859375], [-124.74882, 46.4198, -10952.2958984375]]], [[[-124.75448, 46.41278, -10531.298828125], [-124.74882, 46.4198, -10952.2958984375], [-124.75988, 46.4188, -10413.8642578125], [-124.75448, 46.41278, -10531.298828125]]], [[[-124.79316, 46.34158, -8660.7021484375], [-124.78485, 46.33443, -8955.7099609375], [-124.78408, 46.3455, -9115.6796875], [-124.79316, 46.34158, -8660.7021484375]]], [[[-124.78601, 46.35763, -8994.3837890625], [-124.78408, 46.3455, -9115.6796875], [-124.7765, 46.35167, -9492.7861328125], [-124.78601, 46.35763, -8994.3837890625]]], [[[-124.78601, 46.35763, -8994.3837890625], [-124.7765, 46.35167, -9492.7861328125], [-124.77633, 46.36333, -9429.453125], [-124.78601, 46.35763, -8994.3837890625]]], [[[-124.77035, 46.39288, -9538.4130859375], [-124.78178, 46.39126, -8980.0419921875], [-124.77322, 46.38338, -9438.4306640625], [-124.77035, 46.39288, -9538.4130859375]]], [[[-124.77729, 46.4004, -9255.4560546875], [-124.78178, 46.39126, -8980.0419921875], [-124.77035, 46.39288, -9538.4130859375], [-124.77729, 46.4004, -9255.4560546875]]], [[[-124.78178, 46.39126, -8980.0419921875], [-124.77729, 46.4004, -9255.4560546875], [-124.78901, 46.39933, -8684.8095703125], [-124.78178, 46.39126, -8980.0419921875]]], [[[-124.84898, 46.40238, -5492.2685546875], [-124.84686, 46.41098, -5932.146484375], [-124.8563, 46.41004, -5233.3115234375], [-124.84898, 46.40238, -5492.2685546875]]], [[[-124.84898, 46.40238, -5492.2685546875], [-124.8563, 46.41004, -5233.3115234375], [-124.85805, 46.40156, -4768.4912109375], [-124.84898, 46.40238, -5492.2685546875]]], [[[-124.85805, 46.40156, -4768.4912109375], [-124.8563, 46.41004, -5233.3115234375], [-124.86519, 46.40933, -4490.59130859375], [-124.85805, 46.40156, -4768.4912109375]]], [[[-124.86671, 46.40078, -4027.982666015625], [-124.85805, 46.40156, -4768.4912109375], [-124.86519, 46.40933, -4490.59130859375], [-124.86671, 46.40078, -4027.982666015625]]], [[[-124.86671, 46.40078, -4027.982666015625], [-124.86519, 46.40933, -4490.59130859375], [-124.874, 46.40848, -3743.719482421875], [-124.86671, 46.40078, -4027.982666015625]]], [[[-124.87508, 46.40037, -3199.106201171875], [-124.86671, 46.40078, -4027.982666015625], [-124.874, 46.40848, -3743.719482421875], [-124.87508, 46.40037, -3199.106201171875]]], [[[-124.87508, 46.40037, -3199.106201171875], [-124.874, 46.40848, -3743.719482421875], [-124.88126, 46.40775, -2902.53759765625], [-124.87508, 46.40037, -3199.106201171875]]], [[[-124.87508, 46.40037, -3199.106201171875], [-124.88126, 46.40775, -2902.53759765625], [-124.8828, 46.40297, -2454.262939453125], [-124.87508, 46.40037, -3199.106201171875]]], [[[-124.87508, 46.40037, -3199.106201171875], [-124.8828, 46.40297, -2454.262939453125], [-124.88411, 46.39843, -2048.340087890625], [-124.87508, 46.40037, -3199.106201171875]]], [[[-124.87661, 46.39398, -2775.64501953125], [-124.87508, 46.40037, -3199.106201171875], [-124.88411, 46.39843, -2048.340087890625], [-124.87661, 46.39398, -2775.64501953125]]], [[[-124.87661, 46.39398, -2775.64501953125], [-124.88411, 46.39843, -2048.340087890625], [-124.88147, 46.38947, -2048.340087890625], [-124.87661, 46.39398, -2775.64501953125]]], [[[-124.87446, 46.38522, -2829.865966796875], [-124.87661, 46.39398, -2775.64501953125], [-124.88147, 46.38947, -2048.340087890625], [-124.87446, 46.38522, -2829.865966796875]]], [[[-124.87446, 46.38522, -2829.865966796875], [-124.88147, 46.38947, -2048.340087890625], [-124.88054, 46.38034, -2048.340087890625], [-124.87446, 46.38522, -2829.865966796875]]], [[[-124.88828, 46.40711, -2048.340087890625], [-124.88411, 46.39843, -2048.340087890625], [-124.8828, 46.40297, -2454.262939453125], [-124.88828, 46.40711, -2048.340087890625]]], [[[-124.88828, 46.40711, -2048.340087890625], [-124.8828, 46.40297, -2454.262939453125], [-124.88126, 46.40775, -2902.53759765625], [-124.88828, 46.40711, -2048.340087890625]]], [[[-124.87047, 46.31433, -2901.30859375], [-124.87949, 46.31703, -2048.340087890625], [-124.87382, 46.30877, -2048.340087890625], [-124.87047, 46.31433, -2901.30859375]]], [[[-124.87047, 46.31433, -2901.30859375], [-124.87382, 46.30877, -2048.340087890625], [-124.8645, 46.30709, -2892.474609375], [-124.87047, 46.31433, -2901.30859375]]], [[[-124.8645, 46.30709, -2892.474609375], [-124.87382, 46.30877, -2048.340087890625], [-124.86608, 46.30135, -2048.340087890625], [-124.8645, 46.30709, -2892.474609375]]], [[[-124.8645, 46.30709, -2892.474609375], [-124.86608, 46.30135, -2048.340087890625], [-124.85836, 46.30023, -2776.146240234375], [-124.8645, 46.30709, -2892.474609375]]], [[[-124.8531, 46.30225, -3558.77294921875], [-124.8645, 46.30709, -2892.474609375], [-124.85836, 46.30023, -2776.146240234375], [-124.8531, 46.30225, -3558.77294921875]]], [[[-124.8531, 46.30225, -3558.77294921875], [-124.85836, 46.30023, -2776.146240234375], [-124.85124, 46.2946, -2908.62548828125], [-124.8531, 46.30225, -3558.77294921875]]], [[[-124.8531, 46.30225, -3558.77294921875], [-124.85124, 46.2946, -2908.62548828125], [-124.84392, 46.29534, -3754.578857421875], [-124.8531, 46.30225, -3558.77294921875]]], [[[-124.85836, 46.30023, -2776.146240234375], [-124.85829, 46.29396, -2048.340087890625], [-124.85124, 46.2946, -2908.62548828125], [-124.85836, 46.30023, -2776.146240234375]]], [[[-124.85836, 46.30023, -2776.146240234375], [-124.86608, 46.30135, -2048.340087890625], [-124.85829, 46.29396, -2048.340087890625], [-124.85836, 46.30023, -2776.146240234375]]], [[[-124.82576, 46.30492, -5842.76318359375], [-124.82611, 46.29691, -5253.6591796875], [-124.81658, 46.29785, -5954.51123046875], [-124.82576, 46.30492, -5842.76318359375]]], [[[-124.81506, 46.30605, -6507.36865234375], [-124.82576, 46.30492, -5842.76318359375], [-124.81658, 46.29785, -5954.51123046875], [-124.81506, 46.30605, -6507.36865234375]]], [[[-124.81506, 46.30605, -6507.36865234375], [-124.81658, 46.29785, -5954.51123046875], [-124.80614, 46.29874, -6574.03662109375], [-124.81506, 46.30605, -6507.36865234375]]], [[[-124.80463, 46.307, -7122.4990234375], [-124.81506, 46.30605, -6507.36865234375], [-124.80614, 46.29874, -6574.03662109375], [-124.80463, 46.307, -7122.4990234375]]], [[[-124.80463, 46.307, -7122.4990234375], [-124.80614, 46.29874, -6574.03662109375], [-124.79565, 46.29968, -7187.2939453125], [-124.80463, 46.307, -7122.4990234375]]], [[[-124.79362, 46.30805, -7701.9287109375], [-124.80463, 46.307, -7122.4990234375], [-124.79565, 46.29968, -7187.2939453125], [-124.79362, 46.30805, -7701.9287109375]]], [[[-124.79362, 46.30805, -7701.9287109375], [-124.79565, 46.29968, -7187.2939453125], [-124.78473, 46.30066, -7753.30029296875], [-124.79362, 46.30805, -7701.9287109375]]], [[[-124.78248, 46.30907, -8246.3994140625], [-124.79362, 46.30805, -7701.9287109375], [-124.78473, 46.30066, -7753.30029296875], [-124.78248, 46.30907, -8246.3994140625]]], [[[-124.79145, 46.31653, -8189.6591796875], [-124.79362, 46.30805, -7701.9287109375], [-124.78248, 46.30907, -8246.3994140625], [-124.79145, 46.31653, -8189.6591796875]]], [[[-124.78248, 46.30907, -8246.3994140625], [-124.78473, 46.30066, -7753.30029296875], [-124.77361, 46.30169, -8295.73828125], [-124.78248, 46.30907, -8246.3994140625]]], [[[-124.77135, 46.31002, -8785.3349609375], [-124.78248, 46.30907, -8246.3994140625], [-124.77361, 46.30169, -8295.73828125], [-124.77135, 46.31002, -8785.3349609375]]], [[[-124.77135, 46.31002, -8785.3349609375], [-124.77361, 46.30169, -8295.73828125], [-124.7625, 46.30275, -8838.6298828125], [-124.77135, 46.31002, -8785.3349609375]]], [[[-124.77135, 46.31002, -8785.3349609375], [-124.7625, 46.30275, -8838.6298828125], [-124.76003, 46.31129, -9347.2822265625], [-124.77135, 46.31002, -8785.3349609375]]], [[[-124.76003, 46.31129, -9347.2822265625], [-124.7625, 46.30275, -8838.6298828125], [-124.75138, 46.30375, -9380.7978515625], [-124.76003, 46.31129, -9347.2822265625]]], [[[-124.76003, 46.31129, -9347.2822265625], [-124.75138, 46.30375, -9380.7978515625], [-124.74848, 46.31256, -9920.48828125], [-124.76003, 46.31129, -9347.2822265625]]], [[[-124.74024, 46.3047, -9922.26953125], [-124.74848, 46.31256, -9920.48828125], [-124.75138, 46.30375, -9380.7978515625], [-124.74024, 46.3047, -9922.26953125]]], [[[-124.73633, 46.3136, -10511.49609375], [-124.74848, 46.31256, -9920.48828125], [-124.74024, 46.3047, -9922.26953125], [-124.73633, 46.3136, -10511.49609375]]], [[[-124.73633, 46.3136, -10511.49609375], [-124.74409, 46.3219, -10486.2548828125], [-124.74848, 46.31256, -9920.48828125], [-124.73633, 46.3136, -10511.49609375]]], [[[-124.73633, 46.3136, -10511.49609375], [-124.74024, 46.3047, -9922.26953125], [-124.72919, 46.3057, -10460.91015625], [-124.73633, 46.3136, -10511.49609375]]], [[[-124.80838, 46.34909, -7937.78759765625], [-124.81541, 46.34008, -7565.1943359375], [-124.80379, 46.3412, -8140.900390625], [-124.80838, 46.34909, -7937.78759765625]]], [[[-124.80838, 46.34909, -7937.78759765625], [-124.80379, 46.3412, -8140.900390625], [-124.79505, 46.35085, -8589.0048828125], [-124.80838, 46.34909, -7937.78759765625]]], [[[-124.83584, 46.34714, -6440.1455078125], [-124.8374, 46.33694, -6311.41796875], [-124.82713, 46.33854, -6928.875], [-124.83584, 46.34714, -6440.1455078125]]], [[[-124.80346, 46.35653, -8141.67041015625], [-124.79542, 46.36339, -8485.2822265625], [-124.8075, 46.36386, -7881.18505859375], [-124.80346, 46.35653, -8141.67041015625]]], [[[-124.81879, 46.36293, -7302.46533203125], [-124.8075, 46.36386, -7881.18505859375], [-124.8136, 46.37158, -7516.19091796875], [-124.81879, 46.36293, -7302.46533203125]]], [[[-124.81879, 46.36293, -7302.46533203125], [-124.8136, 46.37158, -7516.19091796875], [-124.82441, 46.37075, -6929.626953125], [-124.81879, 46.36293, -7302.46533203125]]], [[[-124.82861, 46.36251, -6748.89111328125], [-124.81879, 46.36293, -7302.46533203125], [-124.82441, 46.37075, -6929.626953125], [-124.82861, 46.36251, -6748.89111328125]]], [[[-124.82735, 46.35422, -6894.8681640625], [-124.81879, 46.36293, -7302.46533203125], [-124.82861, 46.36251, -6748.89111328125], [-124.82735, 46.35422, -6894.8681640625]]], [[[-124.82861, 46.36251, -6748.89111328125], [-124.82441, 46.37075, -6929.626953125], [-124.83478, 46.36963, -6313.5712890625], [-124.82861, 46.36251, -6748.89111328125]]], [[[-124.7177, 46.31301, -11314.0791015625], [-124.72659, 46.31231, -10885.6064453125], [-124.71869, 46.30665, -10973.197265625], [-124.7177, 46.31301, -11314.0791015625]]], [[[-124.70854, 46.30757, -11468.1865234375], [-124.7177, 46.31301, -11314.0791015625], [-124.71869, 46.30665, -10973.197265625], [-124.70854, 46.30757, -11468.1865234375]]]]}}]}