{"type": "FeatureCollection", "features": [{"type": "Feature", "properties": {"name": "AW_WASH_55", "CFM_ID": 320, "region": "Offshore_WAOR", "primary_state/province": "WA", "secondary_state/province": null, "avg_dip": 46, "dip_dir": "SW", "rake": 90, "slip_sense": "Reverse", "fault_level": 2, "NSHM23_sliprates": null, "QFFDAgeCatBin": null, "QFFDAgeBin": null, "upper_depth": -1.7, "upper_depth_constraint": "seismic imaging", "lower_depth": -5.4, "lower_depth_constraint": "megathrust", "3D_model_constraints": "trace and 1 MCS line", "reference": "Ledeczi et al. (2024); Carbotte et al. (2023)", "nshm23_id": null, "lineage": null, "usgs_qffd_#": null, "comments": null, "id": "320"}, "geometry": {"type": "MultiPolygon", "coordinates": [[[[-125.72297, 46.75818, -4976.22314453125], [-125.72807, 46.76511, -5004.6328125], [-125.73282, 46.75973, -5605.13330078125], [-125.72297, 46.75818, -4976.22314453125]]], [[[-125.59191, 46.56817, -4540.58935546875], [-125.60082, 46.56322, -5236.06640625], [-125.59149, 46.55972, -4524.66259765625], [-125.59191, 46.56817, -4540.58935546875]]], [[[-125.58294, 46.58172, -3888.80712890625], [-125.58277, 46.58892, -3812.79052734375], [-125.59322, 46.58742, -4539.88427734375], [-125.58294, 46.58172, -3888.80712890625]]], [[[-125.68962, 46.74845, -3212.933837890625], [-125.68716, 46.75453, -2501.110107421875], [-125.6959, 46.75663, -3206.573486328125], [-125.68962, 46.74845, -3212.933837890625]]], [[[-125.7168, 46.75063, -4971.25537109375], [-125.72297, 46.75818, -4976.22314453125], [-125.72669, 46.75189, -5606.9638671875], [-125.7168, 46.75063, -4971.25537109375]]], [[[-125.65479, 46.66416, -5113.60302734375], [-125.6648, 46.6655, -5738.490234375], [-125.65845, 46.65775, -5754.5068359375], [-125.65479, 46.66416, -5113.60302734375]]], [[[-125.60927, 46.61398, -4523.69970703125], [-125.61516, 46.62203, -4515.31689453125], [-125.62017, 46.61612, -5208.27099609375], [-125.60927, 46.61398, -4523.69970703125]]], [[[-125.71572, 46.79492, -2501.110107421875], [-125.71752, 46.78644, -3267.5322265625], [-125.70916, 46.78713, -2501.110107421875], [-125.71572, 46.79492, -2501.110107421875]]], [[[-125.57103, 46.55085, -3248.804443359375], [-125.58173, 46.54947, -4008.693359375], [-125.5766, 46.54336, -3845.161865234375], [-125.57103, 46.55085, -3248.804443359375]]], [[[-125.56652, 46.56512, -2501.110107421875], [-125.56527, 46.57405, -2501.110107421875], [-125.57306, 46.56994, -3177.80419921875], [-125.56652, 46.56512, -2501.110107421875]]], [[[-125.57103, 46.55085, -3248.804443359375], [-125.5766, 46.54336, -3845.161865234375], [-125.56628, 46.54167, -3204.610107421875], [-125.57103, 46.55085, -3248.804443359375]]], [[[-125.65763, 46.71983, -3163.61181640625], [-125.64738, 46.71907, -2501.110107421875], [-125.65579, 46.72594, -2501.110107421875], [-125.65763, 46.71983, -3163.61181640625]]], [[[-125.58718, 46.59576, -3865.105712890625], [-125.57607, 46.59452, -3180.84130859375], [-125.58076, 46.60195, -3170.77294921875], [-125.58718, 46.59576, -3865.105712890625]]], [[[-125.64479, 46.66271, -4493.23779296875], [-125.65479, 46.66416, -5113.60302734375], [-125.64845, 46.65611, -5141.3681640625], [-125.64479, 46.66271, -4493.23779296875]]], [[[-125.72122, 46.7777, -3922.68017578125], [-125.72724, 46.78567, -3922.68017578125], [-125.73056, 46.7769, -4615.9404296875], [-125.72122, 46.7777, -3922.68017578125]]], [[[-125.69156, 46.74198, -3802.940185546875], [-125.68184, 46.74049, -3224.426025390625], [-125.68962, 46.74845, -3212.933837890625], [-125.69156, 46.74198, -3802.940185546875]]], [[[-125.60886, 46.5998, -5233.29833984375], [-125.61891, 46.60174, -5847.3017578125], [-125.61368, 46.59361, -5859.09765625], [-125.60886, 46.5998, -5233.29833984375]]], [[[-125.71151, 46.77847, -3267.5322265625], [-125.70315, 46.77916, -2501.110107421875], [-125.70916, 46.78713, -2501.110107421875], [-125.71151, 46.77847, -3267.5322265625]]], [[[-125.59191, 46.56817, -4540.58935546875], [-125.59227, 46.57719, -4572.861328125], [-125.60087, 46.57197, -5250.42822265625], [-125.59191, 46.56817, -4540.58935546875]]], [[[-125.57334, 46.5861, -3182.922607421875], [-125.56467, 46.5828, -2501.110107421875], [-125.56771, 46.5914, -2501.110107421875], [-125.57334, 46.5861, -3182.922607421875]]], [[[-125.66461, 46.72642, -3237.26416015625], [-125.66472, 46.73251, -2501.110107421875], [-125.67335, 46.73349, -3242.964599609375], [-125.66461, 46.72642, -3237.26416015625]]], [[[-125.62104, 46.62999, -4514.4873046875], [-125.61516, 46.62203, -4515.31689453125], [-125.60903, 46.62671, -3848.40966796875], [-125.62104, 46.62999, -4514.4873046875]]], [[[-125.71336, 46.7693, -3765.112548828125], [-125.7066, 46.75891, -3797.525146484375], [-125.70213, 46.76498, -3211.909912109375], [-125.71336, 46.7693, -3765.112548828125]]], [[[-125.54618, 46.50253, -3155.541748046875], [-125.54663, 46.49311, -3267.5322265625], [-125.53893, 46.49788, -2501.110107421875], [-125.54618, 46.50253, -3155.541748046875]]], [[[-125.62017, 46.61612, -5208.27099609375], [-125.63015, 46.61777, -5821.91064453125], [-125.62444, 46.60979, -5834.890625], [-125.62017, 46.61612, -5208.27099609375]]], [[[-125.69311, 46.7357, -4359.9814453125], [-125.703, 46.73656, -4967.22021484375], [-125.69471, 46.72966, -4988.4052734375], [-125.69311, 46.7357, -4359.9814453125]]], [[[-125.57211, 46.53488, -3833.612060546875], [-125.57871, 46.52835, -4551.328125], [-125.56703, 46.52632, -3818.90869140625], [-125.57211, 46.53488, -3833.612060546875]]], [[[-125.59115, 46.55205, -4600.63916015625], [-125.6003, 46.55489, -5245.5361328125], [-125.5977, 46.547, -5267.7998046875], [-125.59115, 46.55205, -4600.63916015625]]], [[[-125.55582, 46.52486, -3131.19091796875], [-125.54549, 46.52351, -2501.110107421875], [-125.55155, 46.53137, -2501.110107421875], [-125.55582, 46.52486, -3131.19091796875]]], [[[-125.56721, 46.51332, -4348.0830078125], [-125.56844, 46.50695, -4623.5625], [-125.55678, 46.5088, -3754.25830078125], [-125.56721, 46.51332, -4348.0830078125]]], [[[-125.56721, 46.51332, -4348.0830078125], [-125.55678, 46.5088, -3754.25830078125], [-125.56107, 46.51821, -3746.248291015625], [-125.56721, 46.51332, -4348.0830078125]]], [[[-125.55052, 46.517, -3107.1064453125], [-125.53901, 46.51571, -2501.110107421875], [-125.54549, 46.52351, -2501.110107421875], [-125.55052, 46.517, -3107.1064453125]]], [[[-125.58211, 46.56484, -3812.492431640625], [-125.57284, 46.56032, -3184.2685546875], [-125.57306, 46.56994, -3177.80419921875], [-125.58211, 46.56484, -3812.492431640625]]], [[[-125.57704, 46.5048, -5355.498046875], [-125.58615, 46.50774, -5926.08642578125], [-125.58366, 46.49901, -5933.9892578125], [-125.57704, 46.5048, -5355.498046875]]], [[[-125.64799, 46.69653, -3174.802734375], [-125.65761, 46.69951, -3801.858154296875], [-125.65575, 46.69155, -3793.8271484375], [-125.64799, 46.69653, -3174.802734375]]], [[[-125.68631, 46.72182, -5045.15185546875], [-125.69471, 46.72966, -4988.4052734375], [-125.69643, 46.72311, -5656.67236328125], [-125.68631, 46.72182, -5045.15185546875]]], [[[-125.64605, 46.68835, -3210.548095703125], [-125.65575, 46.69155, -3793.8271484375], [-125.65211, 46.68335, -3780.650634765625], [-125.64605, 46.68835, -3210.548095703125]]], [[[-125.57871, 46.52835, -4551.328125], [-125.58327, 46.5366, -4555.408203125], [-125.58935, 46.53052, -5263.91943359375], [-125.57871, 46.52835, -4551.328125]]], [[[-125.64139, 46.67903, -3268.7138671875], [-125.63434, 46.6765, -2501.110107421875], [-125.63988, 46.68419, -2501.110107421875], [-125.64139, 46.67903, -3268.7138671875]]], [[[-125.62017, 46.61612, -5208.27099609375], [-125.62592, 46.62409, -5193.416015625], [-125.63015, 46.61777, -5821.91064453125], [-125.62017, 46.61612, -5208.27099609375]]], [[[-125.60927, 46.61398, -4523.69970703125], [-125.59735, 46.61069, -3858.111572265625], [-125.60308, 46.61884, -3841.42724609375], [-125.60927, 46.61398, -4523.69970703125]]], [[[-125.71752, 46.78644, -3267.5322265625], [-125.71572, 46.79492, -2501.110107421875], [-125.72408, 46.79423, -3267.5322265625], [-125.71752, 46.78644, -3267.5322265625]]], [[[-125.61788, 46.66281, -2501.110107421875], [-125.62682, 46.66403, -3208.227294921875], [-125.62136, 46.65691, -3235.77392578125], [-125.61788, 46.66281, -2501.110107421875]]], [[[-125.56703, 46.52632, -3818.90869140625], [-125.57871, 46.52835, -4551.328125], [-125.57359, 46.52008, -4541.75439453125], [-125.56703, 46.52632, -3818.90869140625]]], [[[-125.74481, 46.78581, -5184.3955078125], [-125.74313, 46.79266, -4615.9404296875], [-125.75584, 46.79158, -5599.41650390625], [-125.74481, 46.78581, -5184.3955078125]]], [[[-125.703, 46.73656, -4967.22021484375], [-125.71276, 46.73691, -5627.4150390625], [-125.70457, 46.73002, -5640.19091796875], [-125.703, 46.73656, -4967.22021484375]]], [[[-125.58935, 46.53052, -5263.91943359375], [-125.59945, 46.53279, -5891.12158203125], [-125.59492, 46.52446, -5902.5185546875], [-125.58935, 46.53052, -5263.91943359375]]], [[[-125.58718, 46.59576, -3865.105712890625], [-125.58277, 46.58892, -3812.79052734375], [-125.57607, 46.59452, -3180.84130859375], [-125.58718, 46.59576, -3865.105712890625]]], [[[-125.64479, 46.66271, -4493.23779296875], [-125.65153, 46.6705, -4488.2158203125], [-125.65479, 46.66416, -5113.60302734375], [-125.64479, 46.66271, -4493.23779296875]]], [[[-125.68454, 46.72802, -4422.529296875], [-125.69471, 46.72966, -4988.4052734375], [-125.68631, 46.72182, -5045.15185546875], [-125.68454, 46.72802, -4422.529296875]]], [[[-125.64845, 46.65611, -5141.3681640625], [-125.65479, 46.66416, -5113.60302734375], [-125.65845, 46.65775, -5754.5068359375], [-125.64845, 46.65611, -5141.3681640625]]], [[[-125.60346, 46.63259, -3190.203369140625], [-125.60093, 46.63876, -2501.110107421875], [-125.60965, 46.64007, -3223.336181640625], [-125.60346, 46.63259, -3190.203369140625]]], [[[-125.62073, 46.64232, -3850.155029296875], [-125.60965, 46.64007, -3223.336181640625], [-125.61615, 46.64847, -3253.260009765625], [-125.62073, 46.64232, -3850.155029296875]]], [[[-125.56703, 46.52632, -3818.90869140625], [-125.56107, 46.51821, -3746.248291015625], [-125.55582, 46.52486, -3131.19091796875], [-125.56703, 46.52632, -3818.90869140625]]], [[[-125.60363, 46.60576, -4542.5947265625], [-125.60927, 46.61398, -4523.69970703125], [-125.61447, 46.60803, -5223.1865234375], [-125.60363, 46.60576, -4542.5947265625]]], [[[-125.54693, 46.51052, -3086.403564453125], [-125.54618, 46.50253, -3155.541748046875], [-125.53878, 46.50688, -2501.110107421875], [-125.54693, 46.51052, -3086.403564453125]]], [[[-125.56189, 46.49996, -4285.3994140625], [-125.56559, 46.49156, -4615.9404296875], [-125.5563, 46.49235, -3922.68017578125], [-125.56189, 46.49996, -4285.3994140625]]], [[[-125.59828, 46.6252, -3220.440185546875], [-125.59415, 46.6311, -2501.110107421875], [-125.60346, 46.63259, -3190.203369140625], [-125.59828, 46.6252, -3220.440185546875]]], [[[-125.59115, 46.55205, -4600.63916015625], [-125.58122, 46.55595, -3811.091796875], [-125.59149, 46.55972, -4524.66259765625], [-125.59115, 46.55205, -4600.63916015625]]], [[[-125.54618, 46.50253, -3155.541748046875], [-125.55678, 46.5088, -3754.25830078125], [-125.55317, 46.50022, -3666.004638671875], [-125.54618, 46.50253, -3155.541748046875]]], [[[-125.64283, 46.64792, -5152.81298828125], [-125.65271, 46.64978, -5768.9267578125], [-125.64734, 46.64169, -5781.95068359375], [-125.64283, 46.64792, -5152.81298828125]]], [[[-125.58277, 46.58892, -3812.79052734375], [-125.57334, 46.5861, -3182.922607421875], [-125.57607, 46.59452, -3180.84130859375], [-125.58277, 46.58892, -3812.79052734375]]], [[[-125.62017, 46.61612, -5208.27099609375], [-125.62444, 46.60979, -5834.890625], [-125.61447, 46.60803, -5223.1865234375], [-125.62017, 46.61612, -5208.27099609375]]], [[[-125.60927, 46.61398, -4523.69970703125], [-125.60308, 46.61884, -3841.42724609375], [-125.61516, 46.62203, -4515.31689453125], [-125.60927, 46.61398, -4523.69970703125]]], [[[-125.56107, 46.51821, -3746.248291015625], [-125.55052, 46.517, -3107.1064453125], [-125.55582, 46.52486, -3131.19091796875], [-125.56107, 46.51821, -3746.248291015625]]], [[[-125.57288, 46.5783, -3186.02880859375], [-125.56527, 46.57405, -2501.110107421875], [-125.56467, 46.5828, -2501.110107421875], [-125.57288, 46.5783, -3186.02880859375]]], [[[-125.62073, 46.64232, -3850.155029296875], [-125.62678, 46.63791, -4497.55859375], [-125.61469, 46.63426, -3849.152587890625], [-125.62073, 46.64232, -3850.155029296875]]], [[[-125.54693, 46.51052, -3086.403564453125], [-125.53878, 46.50688, -2501.110107421875], [-125.53901, 46.51571, -2501.110107421875], [-125.54693, 46.51052, -3086.403564453125]]], [[[-125.65761, 46.69951, -3801.858154296875], [-125.64799, 46.69653, -3174.802734375], [-125.65048, 46.70527, -3194.428466796875], [-125.65761, 46.69951, -3801.858154296875]]], [[[-125.64845, 46.67683, -3889.50439453125], [-125.65771, 46.67805, -4454.29345703125], [-125.65153, 46.6705, -4488.2158203125], [-125.64845, 46.67683, -3889.50439453125]]], [[[-125.57211, 46.53488, -3833.612060546875], [-125.58327, 46.5366, -4555.408203125], [-125.57871, 46.52835, -4551.328125], [-125.57211, 46.53488, -3833.612060546875]]], [[[-125.64286, 46.67096, -3865.494384765625], [-125.65153, 46.6705, -4488.2158203125], [-125.64479, 46.66271, -4493.23779296875], [-125.64286, 46.67096, -3865.494384765625]]], [[[-125.58173, 46.54947, -4008.693359375], [-125.58789, 46.5443, -4615.94091796875], [-125.5766, 46.54336, -3845.161865234375], [-125.58173, 46.54947, -4008.693359375]]], [[[-125.61469, 46.63426, -3849.152587890625], [-125.62678, 46.63791, -4497.55859375], [-125.62104, 46.62999, -4514.4873046875], [-125.61469, 46.63426, -3849.152587890625]]], [[[-125.64845, 46.67683, -3889.50439453125], [-125.65211, 46.68335, -3780.650634765625], [-125.65771, 46.67805, -4454.29345703125], [-125.64845, 46.67683, -3889.50439453125]]], [[[-125.69923, 46.75016, -3782.212890625], [-125.68962, 46.74845, -3212.933837890625], [-125.6959, 46.75663, -3206.573486328125], [-125.69923, 46.75016, -3782.212890625]]], [[[-125.60333, 46.59098, -5257.6904296875], [-125.61368, 46.59361, -5859.09765625], [-125.6098, 46.58521, -5867.78271484375], [-125.60333, 46.59098, -5257.6904296875]]], [[[-125.60363, 46.60576, -4542.5947265625], [-125.61447, 46.60803, -5223.1865234375], [-125.60886, 46.5998, -5233.29833984375], [-125.60363, 46.60576, -4542.5947265625]]], [[[-125.55155, 46.53137, -2501.110107421875], [-125.55765, 46.53932, -2501.110107421875], [-125.56122, 46.53297, -3165.720703125], [-125.55155, 46.53137, -2501.110107421875]]], [[[-125.62592, 46.62409, -5193.416015625], [-125.63588, 46.62574, -5808.943359375], [-125.63015, 46.61777, -5821.91064453125], [-125.62592, 46.62409, -5193.416015625]]], [[[-125.59828, 46.6252, -3220.440185546875], [-125.59054, 46.62272, -2501.110107421875], [-125.59415, 46.6311, -2501.110107421875], [-125.59828, 46.6252, -3220.440185546875]]], [[[-125.60308, 46.61884, -3841.42724609375], [-125.59735, 46.61069, -3858.111572265625], [-125.59189, 46.61666, -3211.659423828125], [-125.60308, 46.61884, -3841.42724609375]]], [[[-125.54618, 46.50253, -3155.541748046875], [-125.55317, 46.50022, -3666.004638671875], [-125.54663, 46.49311, -3267.5322265625], [-125.54618, 46.50253, -3155.541748046875]]], [[[-125.62104, 46.62999, -4514.4873046875], [-125.63168, 46.63208, -5180.134765625], [-125.62592, 46.62409, -5193.416015625], [-125.62104, 46.62999, -4514.4873046875]]], [[[-125.58606, 46.60933, -3177.508544921875], [-125.58076, 46.60195, -3170.77294921875], [-125.57628, 46.6082, -2501.110107421875], [-125.58606, 46.60933, -3177.508544921875]]], [[[-125.62073, 46.64232, -3850.155029296875], [-125.63251, 46.64597, -4490.078125], [-125.62678, 46.63791, -4497.55859375], [-125.62073, 46.64232, -3850.155029296875]]], [[[-125.60965, 46.64007, -3223.336181640625], [-125.60093, 46.63876, -2501.110107421875], [-125.60823, 46.64617, -2501.110107421875], [-125.60965, 46.64007, -3223.336181640625]]], [[[-125.59189, 46.61666, -3211.659423828125], [-125.59054, 46.62272, -2501.110107421875], [-125.59828, 46.6252, -3220.440185546875], [-125.59189, 46.61666, -3211.659423828125]]], [[[-125.59322, 46.58742, -4539.88427734375], [-125.59227, 46.57719, -4572.861328125], [-125.58294, 46.58172, -3888.80712890625], [-125.59322, 46.58742, -4539.88427734375]]], [[[-125.59149, 46.55972, -4524.66259765625], [-125.60082, 46.56322, -5236.06640625], [-125.6003, 46.55489, -5245.5361328125], [-125.59149, 46.55972, -4524.66259765625]]], [[[-125.57157, 46.49874, -5042.705078125], [-125.57457, 46.49082, -5332.08984375], [-125.56559, 46.49156, -4615.9404296875], [-125.57157, 46.49874, -5042.705078125]]], [[[-125.7066, 46.75891, -3797.525146484375], [-125.71363, 46.75679, -4391.54296875], [-125.70742, 46.75006, -4342.53466796875], [-125.7066, 46.75891, -3797.525146484375]]], [[[-125.5919, 46.60318, -3846.76513671875], [-125.58718, 46.59576, -3865.105712890625], [-125.58076, 46.60195, -3170.77294921875], [-125.5919, 46.60318, -3846.76513671875]]], [[[-125.71752, 46.78644, -3267.5322265625], [-125.72122, 46.7777, -3922.68017578125], [-125.71151, 46.77847, -3267.5322265625], [-125.71752, 46.78644, -3267.5322265625]]], [[[-125.57288, 46.5783, -3186.02880859375], [-125.56467, 46.5828, -2501.110107421875], [-125.57334, 46.5861, -3182.922607421875], [-125.57288, 46.5783, -3186.02880859375]]], [[[-125.60903, 46.62671, -3848.40966796875], [-125.61469, 46.63426, -3849.152587890625], [-125.62104, 46.62999, -4514.4873046875], [-125.60903, 46.62671, -3848.40966796875]]], [[[-125.61615, 46.64847, -3253.260009765625], [-125.60823, 46.64617, -2501.110107421875], [-125.61406, 46.65422, -2501.110107421875], [-125.61615, 46.64847, -3253.260009765625]]], [[[-125.70213, 46.76498, -3211.909912109375], [-125.6959, 46.75663, -3206.573486328125], [-125.69278, 46.76264, -2501.110107421875], [-125.70213, 46.76498, -3211.909912109375]]], [[[-125.66732, 46.70093, -4451.890625], [-125.67642, 46.70382, -5089.240234375], [-125.67405, 46.69473, -5094.33447265625], [-125.66732, 46.70093, -4451.890625]]], [[[-125.66486, 46.69274, -4439.501953125], [-125.67405, 46.69473, -5094.33447265625], [-125.67163, 46.6867, -5080.85205078125], [-125.66486, 46.69274, -4439.501953125]]], [[[-125.68716, 46.75453, -2501.110107421875], [-125.69278, 46.76264, -2501.110107421875], [-125.6959, 46.75663, -3206.573486328125], [-125.68716, 46.75453, -2501.110107421875]]], [[[-125.60095, 46.58141, -5247.6103515625], [-125.60333, 46.59098, -5257.6904296875], [-125.6098, 46.58521, -5867.78271484375], [-125.60095, 46.58141, -5247.6103515625]]], [[[-125.60363, 46.60576, -4542.5947265625], [-125.5919, 46.60318, -3846.76513671875], [-125.59735, 46.61069, -3858.111572265625], [-125.60363, 46.60576, -4542.5947265625]]], [[[-125.60886, 46.5998, -5233.29833984375], [-125.61447, 46.60803, -5223.1865234375], [-125.61891, 46.60174, -5847.3017578125], [-125.60886, 46.5998, -5233.29833984375]]], [[[-125.67638, 46.71951, -4457.69091796875], [-125.68631, 46.72182, -5045.15185546875], [-125.68034, 46.71297, -5069.25244140625], [-125.67638, 46.71951, -4457.69091796875]]], [[[-125.57211, 46.53488, -3833.612060546875], [-125.56703, 46.52632, -3818.90869140625], [-125.56122, 46.53297, -3165.720703125], [-125.57211, 46.53488, -3833.612060546875]]], [[[-125.58606, 46.60933, -3177.508544921875], [-125.58264, 46.61568, -2501.110107421875], [-125.59189, 46.61666, -3211.659423828125], [-125.58606, 46.60933, -3177.508544921875]]], [[[-125.57457, 46.49082, -5332.08984375], [-125.58366, 46.49901, -5933.9892578125], [-125.58286, 46.49012, -5937.98681640625], [-125.57457, 46.49082, -5332.08984375]]], [[[-125.59227, 46.57719, -4572.861328125], [-125.60095, 46.58141, -5247.6103515625], [-125.60087, 46.57197, -5250.42822265625], [-125.59227, 46.57719, -4572.861328125]]], [[[-125.62682, 46.66403, -3208.227294921875], [-125.61788, 46.66281, -2501.110107421875], [-125.62489, 46.67028, -2501.110107421875], [-125.62682, 46.66403, -3208.227294921875]]], [[[-125.6003, 46.55489, -5245.5361328125], [-125.60904, 46.55854, -5867.85791015625], [-125.60735, 46.54973, -5871.6318359375], [-125.6003, 46.55489, -5245.5361328125]]], [[[-125.66763, 46.71953, -3845.827880859375], [-125.66308, 46.71395, -3785.265625], [-125.65763, 46.71983, -3163.61181640625], [-125.66763, 46.71953, -3845.827880859375]]], [[[-125.6374, 46.64001, -5165.4765625], [-125.63251, 46.64597, -4490.078125], [-125.64283, 46.64792, -5152.81298828125], [-125.6374, 46.64001, -5165.4765625]]], [[[-125.60927, 46.61398, -4523.69970703125], [-125.60363, 46.60576, -4542.5947265625], [-125.59735, 46.61069, -3858.111572265625], [-125.60927, 46.61398, -4523.69970703125]]], [[[-125.57334, 46.5861, -3182.922607421875], [-125.56771, 46.5914, -2501.110107421875], [-125.57607, 46.59452, -3180.84130859375], [-125.57334, 46.5861, -3182.922607421875]]], [[[-125.61891, 46.60174, -5847.3017578125], [-125.61447, 46.60803, -5223.1865234375], [-125.62444, 46.60979, -5834.890625], [-125.61891, 46.60174, -5847.3017578125]]], [[[-125.56107, 46.51821, -3746.248291015625], [-125.57359, 46.52008, -4541.75439453125], [-125.56721, 46.51332, -4348.0830078125], [-125.56107, 46.51821, -3746.248291015625]]], [[[-125.62678, 46.63791, -4497.55859375], [-125.63168, 46.63208, -5180.134765625], [-125.62104, 46.62999, -4514.4873046875], [-125.62678, 46.63791, -4497.55859375]]], [[[-125.62104, 46.62999, -4514.4873046875], [-125.62592, 46.62409, -5193.416015625], [-125.61516, 46.62203, -4515.31689453125], [-125.62104, 46.62999, -4514.4873046875]]], [[[-125.59815, 46.59718, -4568.28564453125], [-125.60886, 46.5998, -5233.29833984375], [-125.60333, 46.59098, -5257.6904296875], [-125.59815, 46.59718, -4568.28564453125]]], [[[-125.70213, 46.76498, -3211.909912109375], [-125.69278, 46.76264, -2501.110107421875], [-125.69796, 46.7709, -2501.110107421875], [-125.70213, 46.76498, -3211.909912109375]]], [[[-125.58327, 46.5366, -4555.408203125], [-125.59382, 46.53873, -5272.20068359375], [-125.58935, 46.53052, -5263.91943359375], [-125.58327, 46.5366, -4555.408203125]]], [[[-125.72724, 46.78567, -3922.68017578125], [-125.7338, 46.79345, -3922.68017578125], [-125.73658, 46.78487, -4615.9404296875], [-125.72724, 46.78567, -3922.68017578125]]], [[[-125.63168, 46.63208, -5180.134765625], [-125.62678, 46.63791, -4497.55859375], [-125.6374, 46.64001, -5165.4765625], [-125.63168, 46.63208, -5180.134765625]]], [[[-125.59735, 46.61069, -3858.111572265625], [-125.58606, 46.60933, -3177.508544921875], [-125.59189, 46.61666, -3211.659423828125], [-125.59735, 46.61069, -3858.111572265625]]], [[[-125.57103, 46.55085, -3248.804443359375], [-125.56628, 46.54167, -3204.610107421875], [-125.56251, 46.54764, -2501.110107421875], [-125.57103, 46.55085, -3248.804443359375]]], [[[-125.68034, 46.71297, -5069.25244140625], [-125.68631, 46.72182, -5045.15185546875], [-125.69014, 46.71537, -5671.95068359375], [-125.68034, 46.71297, -5069.25244140625]]], [[[-125.58211, 46.56484, -3812.492431640625], [-125.58122, 46.55595, -3811.091796875], [-125.57284, 46.56032, -3184.2685546875], [-125.58211, 46.56484, -3812.492431640625]]], [[[-125.66308, 46.71395, -3785.265625], [-125.66037, 46.70729, -3820.458984375], [-125.65331, 46.71325, -3167.315673828125], [-125.66308, 46.71395, -3785.265625]]], [[[-125.69471, 46.72966, -4988.4052734375], [-125.703, 46.73656, -4967.22021484375], [-125.70457, 46.73002, -5640.19091796875], [-125.69471, 46.72966, -4988.4052734375]]], [[[-125.59735, 46.61069, -3858.111572265625], [-125.5919, 46.60318, -3846.76513671875], [-125.58606, 46.60933, -3177.508544921875], [-125.59735, 46.61069, -3858.111572265625]]], [[[-125.57871, 46.52835, -4551.328125], [-125.58935, 46.53052, -5263.91943359375], [-125.58451, 46.52215, -5269.14990234375], [-125.57871, 46.52835, -4551.328125]]], [[[-125.59115, 46.55205, -4600.63916015625], [-125.58173, 46.54947, -4008.693359375], [-125.58122, 46.55595, -3811.091796875], [-125.59115, 46.55205, -4600.63916015625]]], [[[-125.62592, 46.62409, -5193.416015625], [-125.63168, 46.63208, -5180.134765625], [-125.63588, 46.62574, -5808.943359375], [-125.62592, 46.62409, -5193.416015625]]], [[[-125.703, 46.73656, -4967.22021484375], [-125.71034, 46.74342, -4966.9619140625], [-125.71276, 46.73691, -5627.4150390625], [-125.703, 46.73656, -4967.22021484375]]], [[[-125.62136, 46.65691, -3235.77392578125], [-125.61406, 46.65422, -2501.110107421875], [-125.61788, 46.66281, -2501.110107421875], [-125.62136, 46.65691, -3235.77392578125]]], [[[-125.62646, 46.65084, -3846.67529296875], [-125.63251, 46.64597, -4490.078125], [-125.62073, 46.64232, -3850.155029296875], [-125.62646, 46.65084, -3846.67529296875]]], [[[-125.58238, 46.57368, -3842.464111328125], [-125.58294, 46.58172, -3888.80712890625], [-125.59227, 46.57719, -4572.861328125], [-125.58238, 46.57368, -3842.464111328125]]], [[[-125.67475, 46.72668, -3887.31396484375], [-125.66461, 46.72642, -3237.26416015625], [-125.67335, 46.73349, -3242.964599609375], [-125.67475, 46.72668, -3887.31396484375]]], [[[-125.66203, 46.68516, -4419.84326171875], [-125.65211, 46.68335, -3780.650634765625], [-125.65575, 46.69155, -3793.8271484375], [-125.66203, 46.68516, -4419.84326171875]]], [[[-125.65331, 46.71325, -3167.315673828125], [-125.64738, 46.71907, -2501.110107421875], [-125.65763, 46.71983, -3163.61181640625], [-125.65331, 46.71325, -3167.315673828125]]], [[[-125.55678, 46.5088, -3754.25830078125], [-125.56189, 46.49996, -4285.3994140625], [-125.55317, 46.50022, -3666.004638671875], [-125.55678, 46.5088, -3754.25830078125]]], [[[-125.61469, 46.63426, -3849.152587890625], [-125.60346, 46.63259, -3190.203369140625], [-125.60965, 46.64007, -3223.336181640625], [-125.61469, 46.63426, -3849.152587890625]]], [[[-125.58718, 46.59576, -3865.105712890625], [-125.5919, 46.60318, -3846.76513671875], [-125.59815, 46.59718, -4568.28564453125], [-125.58718, 46.59576, -3865.105712890625]]], [[[-125.67642, 46.70382, -5089.240234375], [-125.68302, 46.69831, -5691.40576171875], [-125.67405, 46.69473, -5094.33447265625], [-125.67642, 46.70382, -5089.240234375]]], [[[-125.56703, 46.52632, -3818.90869140625], [-125.55582, 46.52486, -3131.19091796875], [-125.56122, 46.53297, -3165.720703125], [-125.56703, 46.52632, -3818.90869140625]]], [[[-125.66755, 46.67946, -5077.28564453125], [-125.67744, 46.68101, -5706.2900390625], [-125.67132, 46.67318, -5721.9833984375], [-125.66755, 46.67946, -5077.28564453125]]], [[[-125.55052, 46.517, -3107.1064453125], [-125.54549, 46.52351, -2501.110107421875], [-125.55582, 46.52486, -3131.19091796875], [-125.55052, 46.517, -3107.1064453125]]], [[[-125.59189, 46.61666, -3211.659423828125], [-125.58264, 46.61568, -2501.110107421875], [-125.59054, 46.62272, -2501.110107421875], [-125.59189, 46.61666, -3211.659423828125]]], [[[-125.59227, 46.57719, -4572.861328125], [-125.59322, 46.58742, -4539.88427734375], [-125.60095, 46.58141, -5247.6103515625], [-125.59227, 46.57719, -4572.861328125]]], [[[-125.57866, 46.51339, -5217.443359375], [-125.59018, 46.51619, -5915.0693359375], [-125.58615, 46.50774, -5926.08642578125], [-125.57866, 46.51339, -5217.443359375]]], [[[-125.57157, 46.49874, -5042.705078125], [-125.56844, 46.50695, -4623.5625], [-125.57704, 46.5048, -5355.498046875], [-125.57157, 46.49874, -5042.705078125]]], [[[-125.58789, 46.5443, -4615.94091796875], [-125.58327, 46.5366, -4555.408203125], [-125.5766, 46.54336, -3845.161865234375], [-125.58789, 46.5443, -4615.94091796875]]], [[[-125.56189, 46.49996, -4285.3994140625], [-125.57157, 46.49874, -5042.705078125], [-125.56559, 46.49156, -4615.9404296875], [-125.56189, 46.49996, -4285.3994140625]]], [[[-125.72807, 46.76511, -5004.6328125], [-125.73154, 46.77129, -4963.62158203125], [-125.73815, 46.76784, -5603.9619140625], [-125.72807, 46.76511, -5004.6328125]]], [[[-125.63168, 46.63208, -5180.134765625], [-125.64166, 46.6337, -5795.36376953125], [-125.63588, 46.62574, -5808.943359375], [-125.63168, 46.63208, -5180.134765625]]], [[[-125.68184, 46.74049, -3224.426025390625], [-125.67293, 46.7395, -2501.110107421875], [-125.68083, 46.74667, -2501.110107421875], [-125.68184, 46.74049, -3224.426025390625]]], [[[-125.57866, 46.51339, -5217.443359375], [-125.58451, 46.52215, -5269.14990234375], [-125.59018, 46.51619, -5915.0693359375], [-125.57866, 46.51339, -5217.443359375]]], [[[-125.57103, 46.55085, -3248.804443359375], [-125.56521, 46.55637, -2501.110107421875], [-125.57284, 46.56032, -3184.2685546875], [-125.57103, 46.55085, -3248.804443359375]]], [[[-125.56721, 46.51332, -4348.0830078125], [-125.57866, 46.51339, -5217.443359375], [-125.56844, 46.50695, -4623.5625], [-125.56721, 46.51332, -4348.0830078125]]], [[[-125.60363, 46.60576, -4542.5947265625], [-125.60886, 46.5998, -5233.29833984375], [-125.59815, 46.59718, -4568.28564453125], [-125.60363, 46.60576, -4542.5947265625]]], [[[-125.5919, 46.60318, -3846.76513671875], [-125.58076, 46.60195, -3170.77294921875], [-125.58606, 46.60933, -3177.508544921875], [-125.5919, 46.60318, -3846.76513671875]]], [[[-125.72724, 46.78567, -3922.68017578125], [-125.72408, 46.79423, -3267.5322265625], [-125.7338, 46.79345, -3922.68017578125], [-125.72724, 46.78567, -3922.68017578125]]], [[[-125.60095, 46.58141, -5247.6103515625], [-125.60911, 46.57633, -5868.591796875], [-125.60087, 46.57197, -5250.42822265625], [-125.60095, 46.58141, -5247.6103515625]]], [[[-125.56107, 46.51821, -3746.248291015625], [-125.55678, 46.5088, -3754.25830078125], [-125.55052, 46.517, -3107.1064453125], [-125.56107, 46.51821, -3746.248291015625]]], [[[-125.57704, 46.5048, -5355.498046875], [-125.57866, 46.51339, -5217.443359375], [-125.58615, 46.50774, -5926.08642578125], [-125.57704, 46.5048, -5355.498046875]]], [[[-125.57704, 46.5048, -5355.498046875], [-125.56844, 46.50695, -4623.5625], [-125.57866, 46.51339, -5217.443359375], [-125.57704, 46.5048, -5355.498046875]]], [[[-125.71034, 46.74342, -4966.9619140625], [-125.7168, 46.75063, -4971.25537109375], [-125.72018, 46.7442, -5615.95849609375], [-125.71034, 46.74342, -4966.9619140625]]], [[[-125.65331, 46.71325, -3167.315673828125], [-125.64503, 46.71053, -2501.110107421875], [-125.64738, 46.71907, -2501.110107421875], [-125.65331, 46.71325, -3167.315673828125]]], [[[-125.69156, 46.74198, -3802.940185546875], [-125.70077, 46.74294, -4332.462890625], [-125.69311, 46.7357, -4359.9814453125], [-125.69156, 46.74198, -3802.940185546875]]], [[[-125.59382, 46.53873, -5272.20068359375], [-125.59945, 46.53279, -5891.12158203125], [-125.58935, 46.53052, -5263.91943359375], [-125.59382, 46.53873, -5272.20068359375]]], [[[-125.58327, 46.5366, -4555.408203125], [-125.58789, 46.5443, -4615.94091796875], [-125.59382, 46.53873, -5272.20068359375], [-125.58327, 46.5366, -4555.408203125]]], [[[-125.58122, 46.55595, -3811.091796875], [-125.57103, 46.55085, -3248.804443359375], [-125.57284, 46.56032, -3184.2685546875], [-125.58122, 46.55595, -3811.091796875]]], [[[-125.57284, 46.56032, -3184.2685546875], [-125.56521, 46.55637, -2501.110107421875], [-125.56652, 46.56512, -2501.110107421875], [-125.57284, 46.56032, -3184.2685546875]]], [[[-125.58238, 46.57368, -3842.464111328125], [-125.59227, 46.57719, -4572.861328125], [-125.59191, 46.56817, -4540.58935546875], [-125.58238, 46.57368, -3842.464111328125]]], [[[-125.66763, 46.71953, -3845.827880859375], [-125.67058, 46.71041, -4446.931640625], [-125.66308, 46.71395, -3785.265625], [-125.66763, 46.71953, -3845.827880859375]]], [[[-125.64605, 46.68835, -3210.548095703125], [-125.6397, 46.69308, -2501.110107421875], [-125.64799, 46.69653, -3174.802734375], [-125.64605, 46.68835, -3210.548095703125]]], [[[-125.60087, 46.57197, -5250.42822265625], [-125.60911, 46.57633, -5868.591796875], [-125.60924, 46.56743, -5867.59130859375], [-125.60087, 46.57197, -5250.42822265625]]], [[[-125.62646, 46.65084, -3846.67529296875], [-125.62073, 46.64232, -3850.155029296875], [-125.61615, 46.64847, -3253.260009765625], [-125.62646, 46.65084, -3846.67529296875]]], [[[-125.57607, 46.59452, -3180.84130859375], [-125.56771, 46.5914, -2501.110107421875], [-125.57098, 46.60005, -2501.110107421875], [-125.57607, 46.59452, -3180.84130859375]]], [[[-125.57607, 46.59452, -3180.84130859375], [-125.57098, 46.60005, -2501.110107421875], [-125.58076, 46.60195, -3170.77294921875], [-125.57607, 46.59452, -3180.84130859375]]], [[[-125.65761, 46.69951, -3801.858154296875], [-125.66486, 46.69274, -4439.501953125], [-125.65575, 46.69155, -3793.8271484375], [-125.65761, 46.69951, -3801.858154296875]]], [[[-125.58238, 46.57368, -3842.464111328125], [-125.57288, 46.5783, -3186.02880859375], [-125.58294, 46.58172, -3888.80712890625], [-125.58238, 46.57368, -3842.464111328125]]], [[[-125.58606, 46.60933, -3177.508544921875], [-125.57628, 46.6082, -2501.110107421875], [-125.58264, 46.61568, -2501.110107421875], [-125.58606, 46.60933, -3177.508544921875]]], [[[-125.6613, 46.67194, -5093.19384765625], [-125.66755, 46.67946, -5077.28564453125], [-125.67132, 46.67318, -5721.9833984375], [-125.6613, 46.67194, -5093.19384765625]]], [[[-125.58211, 46.56484, -3812.492431640625], [-125.59191, 46.56817, -4540.58935546875], [-125.59149, 46.55972, -4524.66259765625], [-125.58211, 46.56484, -3812.492431640625]]], [[[-125.72807, 46.76511, -5004.6328125], [-125.73815, 46.76784, -5603.9619140625], [-125.73282, 46.75973, -5605.13330078125], [-125.72807, 46.76511, -5004.6328125]]], [[[-125.67163, 46.6867, -5080.85205078125], [-125.67405, 46.69473, -5094.33447265625], [-125.68101, 46.68952, -5696.78515625], [-125.67163, 46.6867, -5080.85205078125]]], [[[-125.57157, 46.49874, -5042.705078125], [-125.58366, 46.49901, -5933.9892578125], [-125.57457, 46.49082, -5332.08984375], [-125.57157, 46.49874, -5042.705078125]]], [[[-125.6374, 46.64001, -5165.4765625], [-125.64734, 46.64169, -5781.95068359375], [-125.64166, 46.6337, -5795.36376953125], [-125.6374, 46.64001, -5165.4765625]]], [[[-125.57288, 46.5783, -3186.02880859375], [-125.57306, 46.56994, -3177.80419921875], [-125.56527, 46.57405, -2501.110107421875], [-125.57288, 46.5783, -3186.02880859375]]], [[[-125.58451, 46.52215, -5269.14990234375], [-125.58935, 46.53052, -5263.91943359375], [-125.59492, 46.52446, -5902.5185546875], [-125.58451, 46.52215, -5269.14990234375]]], [[[-125.60082, 46.56322, -5236.06640625], [-125.60904, 46.55854, -5867.85791015625], [-125.6003, 46.55489, -5245.5361328125], [-125.60082, 46.56322, -5236.06640625]]], [[[-125.58173, 46.54947, -4008.693359375], [-125.59115, 46.55205, -4600.63916015625], [-125.58789, 46.5443, -4615.94091796875], [-125.58173, 46.54947, -4008.693359375]]], [[[-125.55678, 46.5088, -3754.25830078125], [-125.54693, 46.51052, -3086.403564453125], [-125.55052, 46.517, -3107.1064453125], [-125.55678, 46.5088, -3754.25830078125]]], [[[-125.68962, 46.74845, -3212.933837890625], [-125.68083, 46.74667, -2501.110107421875], [-125.68716, 46.75453, -2501.110107421875], [-125.68962, 46.74845, -3212.933837890625]]], [[[-125.57103, 46.55085, -3248.804443359375], [-125.56251, 46.54764, -2501.110107421875], [-125.56521, 46.55637, -2501.110107421875], [-125.57103, 46.55085, -3248.804443359375]]], [[[-125.71786, 46.76374, -4334.61328125], [-125.7066, 46.75891, -3797.525146484375], [-125.71336, 46.7693, -3765.112548828125], [-125.71786, 46.76374, -4334.61328125]]], [[[-125.57211, 46.53488, -3833.612060546875], [-125.5766, 46.54336, -3845.161865234375], [-125.58327, 46.5366, -4555.408203125], [-125.57211, 46.53488, -3833.612060546875]]], [[[-125.54693, 46.51052, -3086.403564453125], [-125.53901, 46.51571, -2501.110107421875], [-125.55052, 46.517, -3107.1064453125], [-125.54693, 46.51052, -3086.403564453125]]], [[[-125.56844, 46.50695, -4623.5625], [-125.57157, 46.49874, -5042.705078125], [-125.56189, 46.49996, -4285.3994140625], [-125.56844, 46.50695, -4623.5625]]], [[[-125.58294, 46.58172, -3888.80712890625], [-125.57288, 46.5783, -3186.02880859375], [-125.57334, 46.5861, -3182.922607421875], [-125.58294, 46.58172, -3888.80712890625]]], [[[-125.60308, 46.61884, -3841.42724609375], [-125.59189, 46.61666, -3211.659423828125], [-125.59828, 46.6252, -3220.440185546875], [-125.60308, 46.61884, -3841.42724609375]]], [[[-125.60082, 46.56322, -5236.06640625], [-125.59191, 46.56817, -4540.58935546875], [-125.60087, 46.57197, -5250.42822265625], [-125.60082, 46.56322, -5236.06640625]]], [[[-125.57871, 46.52835, -4551.328125], [-125.58451, 46.52215, -5269.14990234375], [-125.57359, 46.52008, -4541.75439453125], [-125.57871, 46.52835, -4551.328125]]], [[[-125.67475, 46.72668, -3887.31396484375], [-125.68331, 46.73415, -3850.9755859375], [-125.68454, 46.72802, -4422.529296875], [-125.67475, 46.72668, -3887.31396484375]]], [[[-125.5977, 46.547, -5267.7998046875], [-125.60735, 46.54973, -5871.6318359375], [-125.6036, 46.54122, -5880.79345703125], [-125.5977, 46.547, -5267.7998046875]]], [[[-125.63807, 46.6546, -4479.39208984375], [-125.63251, 46.64597, -4490.078125], [-125.62646, 46.65084, -3846.67529296875], [-125.63807, 46.6546, -4479.39208984375]]], [[[-125.56628, 46.54167, -3204.610107421875], [-125.55765, 46.53932, -2501.110107421875], [-125.56251, 46.54764, -2501.110107421875], [-125.56628, 46.54167, -3204.610107421875]]], [[[-125.61615, 46.64847, -3253.260009765625], [-125.61406, 46.65422, -2501.110107421875], [-125.62136, 46.65691, -3235.77392578125], [-125.61615, 46.64847, -3253.260009765625]]], [[[-125.54663, 46.49311, -3267.5322265625], [-125.55317, 46.50022, -3666.004638671875], [-125.5563, 46.49235, -3922.68017578125], [-125.54663, 46.49311, -3267.5322265625]]], [[[-125.59115, 46.55205, -4600.63916015625], [-125.59149, 46.55972, -4524.66259765625], [-125.6003, 46.55489, -5245.5361328125], [-125.59115, 46.55205, -4600.63916015625]]], [[[-125.58718, 46.59576, -3865.105712890625], [-125.59815, 46.59718, -4568.28564453125], [-125.59322, 46.58742, -4539.88427734375], [-125.58718, 46.59576, -3865.105712890625]]], [[[-125.59322, 46.58742, -4539.88427734375], [-125.60333, 46.59098, -5257.6904296875], [-125.60095, 46.58141, -5247.6103515625], [-125.59322, 46.58742, -4539.88427734375]]], [[[-125.60095, 46.58141, -5247.6103515625], [-125.6098, 46.58521, -5867.78271484375], [-125.60911, 46.57633, -5868.591796875], [-125.60095, 46.58141, -5247.6103515625]]], [[[-125.70213, 46.76498, -3211.909912109375], [-125.69796, 46.7709, -2501.110107421875], [-125.70629, 46.77253, -3146.9931640625], [-125.70213, 46.76498, -3211.909912109375]]], [[[-125.57103, 46.55085, -3248.804443359375], [-125.58122, 46.55595, -3811.091796875], [-125.58173, 46.54947, -4008.693359375], [-125.57103, 46.55085, -3248.804443359375]]], [[[-125.58211, 46.56484, -3812.492431640625], [-125.59149, 46.55972, -4524.66259765625], [-125.58122, 46.55595, -3811.091796875], [-125.58211, 46.56484, -3812.492431640625]]], [[[-125.72724, 46.78567, -3922.68017578125], [-125.71752, 46.78644, -3267.5322265625], [-125.72408, 46.79423, -3267.5322265625], [-125.72724, 46.78567, -3922.68017578125]]], [[[-125.69471, 46.72966, -4988.4052734375], [-125.70457, 46.73002, -5640.19091796875], [-125.69643, 46.72311, -5656.67236328125], [-125.69471, 46.72966, -4988.4052734375]]], [[[-125.58211, 46.56484, -3812.492431640625], [-125.57306, 46.56994, -3177.80419921875], [-125.58238, 46.57368, -3842.464111328125], [-125.58211, 46.56484, -3812.492431640625]]], [[[-125.64139, 46.67903, -3268.7138671875], [-125.65211, 46.68335, -3780.650634765625], [-125.64845, 46.67683, -3889.50439453125], [-125.64139, 46.67903, -3268.7138671875]]], [[[-125.7066, 46.75891, -3797.525146484375], [-125.6959, 46.75663, -3206.573486328125], [-125.70213, 46.76498, -3211.909912109375], [-125.7066, 46.75891, -3797.525146484375]]], [[[-125.65211, 46.68335, -3780.650634765625], [-125.64139, 46.67903, -3268.7138671875], [-125.64605, 46.68835, -3210.548095703125], [-125.65211, 46.68335, -3780.650634765625]]], [[[-125.58718, 46.59576, -3865.105712890625], [-125.59322, 46.58742, -4539.88427734375], [-125.58277, 46.58892, -3812.79052734375], [-125.58718, 46.59576, -3865.105712890625]]], [[[-125.70629, 46.77253, -3146.9931640625], [-125.70315, 46.77916, -2501.110107421875], [-125.71151, 46.77847, -3267.5322265625], [-125.70629, 46.77253, -3146.9931640625]]], [[[-125.60363, 46.60576, -4542.5947265625], [-125.59815, 46.59718, -4568.28564453125], [-125.5919, 46.60318, -3846.76513671875], [-125.60363, 46.60576, -4542.5947265625]]], [[[-125.57211, 46.53488, -3833.612060546875], [-125.56122, 46.53297, -3165.720703125], [-125.56628, 46.54167, -3204.610107421875], [-125.57211, 46.53488, -3833.612060546875]]], [[[-125.70742, 46.75006, -4342.53466796875], [-125.71034, 46.74342, -4966.9619140625], [-125.70077, 46.74294, -4332.462890625], [-125.70742, 46.75006, -4342.53466796875]]], [[[-125.58451, 46.52215, -5269.14990234375], [-125.59492, 46.52446, -5902.5185546875], [-125.59018, 46.51619, -5915.0693359375], [-125.58451, 46.52215, -5269.14990234375]]], [[[-125.56703, 46.52632, -3818.90869140625], [-125.57359, 46.52008, -4541.75439453125], [-125.56107, 46.51821, -3746.248291015625], [-125.56703, 46.52632, -3818.90869140625]]], [[[-125.55582, 46.52486, -3131.19091796875], [-125.55155, 46.53137, -2501.110107421875], [-125.56122, 46.53297, -3165.720703125], [-125.55582, 46.52486, -3131.19091796875]]], [[[-125.6613, 46.67194, -5093.19384765625], [-125.6648, 46.6655, -5738.490234375], [-125.65479, 46.66416, -5113.60302734375], [-125.6613, 46.67194, -5093.19384765625]]], [[[-125.68631, 46.72182, -5045.15185546875], [-125.69643, 46.72311, -5656.67236328125], [-125.69014, 46.71537, -5671.95068359375], [-125.68631, 46.72182, -5045.15185546875]]], [[[-125.57211, 46.53488, -3833.612060546875], [-125.56628, 46.54167, -3204.610107421875], [-125.5766, 46.54336, -3845.161865234375], [-125.57211, 46.53488, -3833.612060546875]]], [[[-125.68184, 46.74049, -3224.426025390625], [-125.68083, 46.74667, -2501.110107421875], [-125.68962, 46.74845, -3212.933837890625], [-125.68184, 46.74049, -3224.426025390625]]], [[[-125.64845, 46.67683, -3889.50439453125], [-125.65153, 46.6705, -4488.2158203125], [-125.64286, 46.67096, -3865.494384765625], [-125.64845, 46.67683, -3889.50439453125]]], [[[-125.67163, 46.6867, -5080.85205078125], [-125.68101, 46.68952, -5696.78515625], [-125.67744, 46.68101, -5706.2900390625], [-125.67163, 46.6867, -5080.85205078125]]], [[[-125.62592, 46.62409, -5193.416015625], [-125.62017, 46.61612, -5208.27099609375], [-125.61516, 46.62203, -4515.31689453125], [-125.62592, 46.62409, -5193.416015625]]], [[[-125.58238, 46.57368, -3842.464111328125], [-125.59191, 46.56817, -4540.58935546875], [-125.58211, 46.56484, -3812.492431640625], [-125.58238, 46.57368, -3842.464111328125]]], [[[-125.60965, 46.64007, -3223.336181640625], [-125.60823, 46.64617, -2501.110107421875], [-125.61615, 46.64847, -3253.260009765625], [-125.60965, 46.64007, -3223.336181640625]]], [[[-125.59382, 46.53873, -5272.20068359375], [-125.6036, 46.54122, -5880.79345703125], [-125.59945, 46.53279, -5891.12158203125], [-125.59382, 46.53873, -5272.20068359375]]], [[[-125.63807, 46.6546, -4479.39208984375], [-125.64283, 46.64792, -5152.81298828125], [-125.63251, 46.64597, -4490.078125], [-125.63807, 46.6546, -4479.39208984375]]], [[[-125.54618, 46.50253, -3155.541748046875], [-125.54693, 46.51052, -3086.403564453125], [-125.55678, 46.5088, -3754.25830078125], [-125.54618, 46.50253, -3155.541748046875]]], [[[-125.64845, 46.65611, -5141.3681640625], [-125.65845, 46.65775, -5754.5068359375], [-125.65271, 46.64978, -5768.9267578125], [-125.64845, 46.65611, -5141.3681640625]]], [[[-125.73056, 46.7769, -4615.9404296875], [-125.74344, 46.77596, -5603.73046875], [-125.73154, 46.77129, -4963.62158203125], [-125.73056, 46.7769, -4615.9404296875]]], [[[-125.58238, 46.57368, -3842.464111328125], [-125.57306, 46.56994, -3177.80419921875], [-125.57288, 46.5783, -3186.02880859375], [-125.58238, 46.57368, -3842.464111328125]]], [[[-125.67058, 46.71041, -4446.931640625], [-125.67638, 46.71951, -4457.69091796875], [-125.68034, 46.71297, -5069.25244140625], [-125.67058, 46.71041, -4446.931640625]]], [[[-125.71151, 46.77847, -3267.5322265625], [-125.71336, 46.7693, -3765.112548828125], [-125.70629, 46.77253, -3146.9931640625], [-125.71151, 46.77847, -3267.5322265625]]], [[[-125.60346, 46.63259, -3190.203369140625], [-125.59415, 46.6311, -2501.110107421875], [-125.60093, 46.63876, -2501.110107421875], [-125.60346, 46.63259, -3190.203369140625]]], [[[-125.71786, 46.76374, -4334.61328125], [-125.72807, 46.76511, -5004.6328125], [-125.72297, 46.75818, -4976.22314453125], [-125.71786, 46.76374, -4334.61328125]]], [[[-125.66732, 46.70093, -4451.890625], [-125.66037, 46.70729, -3820.458984375], [-125.67058, 46.71041, -4446.931640625], [-125.66732, 46.70093, -4451.890625]]], [[[-125.70213, 46.76498, -3211.909912109375], [-125.70629, 46.77253, -3146.9931640625], [-125.71336, 46.7693, -3765.112548828125], [-125.70213, 46.76498, -3211.909912109375]]], [[[-125.54618, 46.50253, -3155.541748046875], [-125.53893, 46.49788, -2501.110107421875], [-125.53878, 46.50688, -2501.110107421875], [-125.54618, 46.50253, -3155.541748046875]]], [[[-125.58277, 46.58892, -3812.79052734375], [-125.58294, 46.58172, -3888.80712890625], [-125.57334, 46.5861, -3182.922607421875], [-125.58277, 46.58892, -3812.79052734375]]], [[[-125.73658, 46.78487, -4615.9404296875], [-125.74344, 46.77596, -5603.73046875], [-125.73056, 46.7769, -4615.9404296875], [-125.73658, 46.78487, -4615.9404296875]]], [[[-125.56189, 46.49996, -4285.3994140625], [-125.5563, 46.49235, -3922.68017578125], [-125.55317, 46.50022, -3666.004638671875], [-125.56189, 46.49996, -4285.3994140625]]], [[[-125.57157, 46.49874, -5042.705078125], [-125.57704, 46.5048, -5355.498046875], [-125.58366, 46.49901, -5933.9892578125], [-125.57157, 46.49874, -5042.705078125]]], [[[-125.5977, 46.547, -5267.7998046875], [-125.6003, 46.55489, -5245.5361328125], [-125.60735, 46.54973, -5871.6318359375], [-125.5977, 46.547, -5267.7998046875]]], [[[-125.63168, 46.63208, -5180.134765625], [-125.6374, 46.64001, -5165.4765625], [-125.64166, 46.6337, -5795.36376953125], [-125.63168, 46.63208, -5180.134765625]]], [[[-125.56721, 46.51332, -4348.0830078125], [-125.57359, 46.52008, -4541.75439453125], [-125.57866, 46.51339, -5217.443359375], [-125.56721, 46.51332, -4348.0830078125]]], [[[-125.55678, 46.5088, -3754.25830078125], [-125.56844, 46.50695, -4623.5625], [-125.56189, 46.49996, -4285.3994140625], [-125.55678, 46.5088, -3754.25830078125]]], [[[-125.57866, 46.51339, -5217.443359375], [-125.57359, 46.52008, -4541.75439453125], [-125.58451, 46.52215, -5269.14990234375], [-125.57866, 46.51339, -5217.443359375]]], [[[-125.59815, 46.59718, -4568.28564453125], [-125.60333, 46.59098, -5257.6904296875], [-125.59322, 46.58742, -4539.88427734375], [-125.59815, 46.59718, -4568.28564453125]]], [[[-125.7066, 46.75891, -3797.525146484375], [-125.69923, 46.75016, -3782.212890625], [-125.6959, 46.75663, -3206.573486328125], [-125.7066, 46.75891, -3797.525146484375]]], [[[-125.59382, 46.53873, -5272.20068359375], [-125.5977, 46.547, -5267.7998046875], [-125.6036, 46.54122, -5880.79345703125], [-125.59382, 46.53873, -5272.20068359375]]], [[[-125.60333, 46.59098, -5257.6904296875], [-125.60886, 46.5998, -5233.29833984375], [-125.61368, 46.59361, -5859.09765625], [-125.60333, 46.59098, -5257.6904296875]]], [[[-125.58789, 46.5443, -4615.94091796875], [-125.5977, 46.547, -5267.7998046875], [-125.59382, 46.53873, -5272.20068359375], [-125.58789, 46.5443, -4615.94091796875]]], [[[-125.55765, 46.53932, -2501.110107421875], [-125.56628, 46.54167, -3204.610107421875], [-125.56122, 46.53297, -3165.720703125], [-125.55765, 46.53932, -2501.110107421875]]], [[[-125.59115, 46.55205, -4600.63916015625], [-125.5977, 46.547, -5267.7998046875], [-125.58789, 46.5443, -4615.94091796875], [-125.59115, 46.55205, -4600.63916015625]]], [[[-125.66763, 46.71953, -3845.827880859375], [-125.65763, 46.71983, -3163.61181640625], [-125.66461, 46.72642, -3237.26416015625], [-125.66763, 46.71953, -3845.827880859375]]], [[[-125.70077, 46.74294, -4332.462890625], [-125.703, 46.73656, -4967.22021484375], [-125.69311, 46.7357, -4359.9814453125], [-125.70077, 46.74294, -4332.462890625]]], [[[-125.60903, 46.62671, -3848.40966796875], [-125.60308, 46.61884, -3841.42724609375], [-125.59828, 46.6252, -3220.440185546875], [-125.60903, 46.62671, -3848.40966796875]]], [[[-125.60082, 46.56322, -5236.06640625], [-125.60924, 46.56743, -5867.59130859375], [-125.60904, 46.55854, -5867.85791015625], [-125.60082, 46.56322, -5236.06640625]]], [[[-125.60082, 46.56322, -5236.06640625], [-125.60087, 46.57197, -5250.42822265625], [-125.60924, 46.56743, -5867.59130859375], [-125.60082, 46.56322, -5236.06640625]]], [[[-125.60927, 46.61398, -4523.69970703125], [-125.62017, 46.61612, -5208.27099609375], [-125.61447, 46.60803, -5223.1865234375], [-125.60927, 46.61398, -4523.69970703125]]], [[[-125.6374, 46.64001, -5165.4765625], [-125.64283, 46.64792, -5152.81298828125], [-125.64734, 46.64169, -5781.95068359375], [-125.6374, 46.64001, -5165.4765625]]], [[[-125.63251, 46.64597, -4490.078125], [-125.6374, 46.64001, -5165.4765625], [-125.62678, 46.63791, -4497.55859375], [-125.63251, 46.64597, -4490.078125]]], [[[-125.64283, 46.64792, -5152.81298828125], [-125.63807, 46.6546, -4479.39208984375], [-125.64845, 46.65611, -5141.3681640625], [-125.64283, 46.64792, -5152.81298828125]]], [[[-125.64283, 46.64792, -5152.81298828125], [-125.64845, 46.65611, -5141.3681640625], [-125.65271, 46.64978, -5768.9267578125], [-125.64283, 46.64792, -5152.81298828125]]], [[[-125.65575, 46.69155, -3793.8271484375], [-125.64605, 46.68835, -3210.548095703125], [-125.64799, 46.69653, -3174.802734375], [-125.65575, 46.69155, -3793.8271484375]]], [[[-125.66037, 46.70729, -3820.458984375], [-125.65761, 46.69951, -3801.858154296875], [-125.65048, 46.70527, -3194.428466796875], [-125.66037, 46.70729, -3820.458984375]]], [[[-125.66732, 46.70093, -4451.890625], [-125.65761, 46.69951, -3801.858154296875], [-125.66037, 46.70729, -3820.458984375], [-125.66732, 46.70093, -4451.890625]]], [[[-125.73658, 46.78487, -4615.9404296875], [-125.74313, 46.79266, -4615.9404296875], [-125.74481, 46.78581, -5184.3955078125], [-125.73658, 46.78487, -4615.9404296875]]], [[[-125.66486, 46.69274, -4439.501953125], [-125.65761, 46.69951, -3801.858154296875], [-125.66732, 46.70093, -4451.890625], [-125.66486, 46.69274, -4439.501953125]]], [[[-125.66486, 46.69274, -4439.501953125], [-125.66203, 46.68516, -4419.84326171875], [-125.65575, 46.69155, -3793.8271484375], [-125.66486, 46.69274, -4439.501953125]]], [[[-125.66486, 46.69274, -4439.501953125], [-125.67163, 46.6867, -5080.85205078125], [-125.66203, 46.68516, -4419.84326171875], [-125.66486, 46.69274, -4439.501953125]]], [[[-125.66486, 46.69274, -4439.501953125], [-125.66732, 46.70093, -4451.890625], [-125.67405, 46.69473, -5094.33447265625], [-125.66486, 46.69274, -4439.501953125]]], [[[-125.66732, 46.70093, -4451.890625], [-125.67058, 46.71041, -4446.931640625], [-125.67642, 46.70382, -5089.240234375], [-125.66732, 46.70093, -4451.890625]]], [[[-125.66308, 46.71395, -3785.265625], [-125.67058, 46.71041, -4446.931640625], [-125.66037, 46.70729, -3820.458984375], [-125.66308, 46.71395, -3785.265625]]], [[[-125.66763, 46.71953, -3845.827880859375], [-125.67638, 46.71951, -4457.69091796875], [-125.67058, 46.71041, -4446.931640625], [-125.66763, 46.71953, -3845.827880859375]]], [[[-125.67475, 46.72668, -3887.31396484375], [-125.67638, 46.71951, -4457.69091796875], [-125.66763, 46.71953, -3845.827880859375], [-125.67475, 46.72668, -3887.31396484375]]], [[[-125.67475, 46.72668, -3887.31396484375], [-125.68454, 46.72802, -4422.529296875], [-125.67638, 46.71951, -4457.69091796875], [-125.67475, 46.72668, -3887.31396484375]]], [[[-125.68331, 46.73415, -3850.9755859375], [-125.67475, 46.72668, -3887.31396484375], [-125.67335, 46.73349, -3242.964599609375], [-125.68331, 46.73415, -3850.9755859375]]], [[[-125.68331, 46.73415, -3850.9755859375], [-125.67335, 46.73349, -3242.964599609375], [-125.68184, 46.74049, -3224.426025390625], [-125.68331, 46.73415, -3850.9755859375]]], [[[-125.69156, 46.74198, -3802.940185546875], [-125.68331, 46.73415, -3850.9755859375], [-125.68184, 46.74049, -3224.426025390625], [-125.69156, 46.74198, -3802.940185546875]]], [[[-125.68331, 46.73415, -3850.9755859375], [-125.69156, 46.74198, -3802.940185546875], [-125.69311, 46.7357, -4359.9814453125], [-125.68331, 46.73415, -3850.9755859375]]], [[[-125.68331, 46.73415, -3850.9755859375], [-125.69311, 46.7357, -4359.9814453125], [-125.68454, 46.72802, -4422.529296875], [-125.68331, 46.73415, -3850.9755859375]]], [[[-125.69311, 46.7357, -4359.9814453125], [-125.69471, 46.72966, -4988.4052734375], [-125.68454, 46.72802, -4422.529296875], [-125.69311, 46.7357, -4359.9814453125]]], [[[-125.70077, 46.74294, -4332.462890625], [-125.71034, 46.74342, -4966.9619140625], [-125.703, 46.73656, -4967.22021484375], [-125.70077, 46.74294, -4332.462890625]]], [[[-125.70742, 46.75006, -4342.53466796875], [-125.7168, 46.75063, -4971.25537109375], [-125.71034, 46.74342, -4966.9619140625], [-125.70742, 46.75006, -4342.53466796875]]], [[[-125.71363, 46.75679, -4391.54296875], [-125.7168, 46.75063, -4971.25537109375], [-125.70742, 46.75006, -4342.53466796875], [-125.71363, 46.75679, -4391.54296875]]], [[[-125.71363, 46.75679, -4391.54296875], [-125.72297, 46.75818, -4976.22314453125], [-125.7168, 46.75063, -4971.25537109375], [-125.71363, 46.75679, -4391.54296875]]], [[[-125.71363, 46.75679, -4391.54296875], [-125.71786, 46.76374, -4334.61328125], [-125.72297, 46.75818, -4976.22314453125], [-125.71363, 46.75679, -4391.54296875]]], [[[-125.7066, 46.75891, -3797.525146484375], [-125.71786, 46.76374, -4334.61328125], [-125.71363, 46.75679, -4391.54296875], [-125.7066, 46.75891, -3797.525146484375]]], [[[-125.71786, 46.76374, -4334.61328125], [-125.71336, 46.7693, -3765.112548828125], [-125.72296, 46.77046, -4374.89306640625], [-125.71786, 46.76374, -4334.61328125]]], [[[-125.72296, 46.77046, -4374.89306640625], [-125.72807, 46.76511, -5004.6328125], [-125.71786, 46.76374, -4334.61328125], [-125.72296, 46.77046, -4374.89306640625]]], [[[-125.66037, 46.70729, -3820.458984375], [-125.65048, 46.70527, -3194.428466796875], [-125.65331, 46.71325, -3167.315673828125], [-125.66037, 46.70729, -3820.458984375]]], [[[-125.72296, 46.77046, -4374.89306640625], [-125.73154, 46.77129, -4963.62158203125], [-125.72807, 46.76511, -5004.6328125], [-125.72296, 46.77046, -4374.89306640625]]], [[[-125.73154, 46.77129, -4963.62158203125], [-125.72296, 46.77046, -4374.89306640625], [-125.73056, 46.7769, -4615.9404296875], [-125.73154, 46.77129, -4963.62158203125]]], [[[-125.72297, 46.75818, -4976.22314453125], [-125.73282, 46.75973, -5605.13330078125], [-125.72669, 46.75189, -5606.9638671875], [-125.72297, 46.75818, -4976.22314453125]]], [[[-125.7168, 46.75063, -4971.25537109375], [-125.72669, 46.75189, -5606.9638671875], [-125.72018, 46.7442, -5615.95849609375], [-125.7168, 46.75063, -4971.25537109375]]], [[[-125.71034, 46.74342, -4966.9619140625], [-125.72018, 46.7442, -5615.95849609375], [-125.71276, 46.73691, -5627.4150390625], [-125.71034, 46.74342, -4966.9619140625]]], [[[-125.68454, 46.72802, -4422.529296875], [-125.68631, 46.72182, -5045.15185546875], [-125.67638, 46.71951, -4457.69091796875], [-125.68454, 46.72802, -4422.529296875]]], [[[-125.67058, 46.71041, -4446.931640625], [-125.68034, 46.71297, -5069.25244140625], [-125.67642, 46.70382, -5089.240234375], [-125.67058, 46.71041, -4446.931640625]]], [[[-125.68034, 46.71297, -5069.25244140625], [-125.68581, 46.70699, -5683.6767578125], [-125.67642, 46.70382, -5089.240234375], [-125.68034, 46.71297, -5069.25244140625]]], [[[-125.68034, 46.71297, -5069.25244140625], [-125.69014, 46.71537, -5671.95068359375], [-125.68581, 46.70699, -5683.6767578125], [-125.68034, 46.71297, -5069.25244140625]]], [[[-125.67642, 46.70382, -5089.240234375], [-125.68581, 46.70699, -5683.6767578125], [-125.68302, 46.69831, -5691.40576171875], [-125.67642, 46.70382, -5089.240234375]]], [[[-125.67405, 46.69473, -5094.33447265625], [-125.68302, 46.69831, -5691.40576171875], [-125.68101, 46.68952, -5696.78515625], [-125.67405, 46.69473, -5094.33447265625]]], [[[-125.66755, 46.67946, -5077.28564453125], [-125.67163, 46.6867, -5080.85205078125], [-125.67744, 46.68101, -5706.2900390625], [-125.66755, 46.67946, -5077.28564453125]]], [[[-125.66203, 46.68516, -4419.84326171875], [-125.67163, 46.6867, -5080.85205078125], [-125.66755, 46.67946, -5077.28564453125], [-125.66203, 46.68516, -4419.84326171875]]], [[[-125.66203, 46.68516, -4419.84326171875], [-125.66755, 46.67946, -5077.28564453125], [-125.65771, 46.67805, -4454.29345703125], [-125.66203, 46.68516, -4419.84326171875]]], [[[-125.71151, 46.77847, -3267.5322265625], [-125.72122, 46.7777, -3922.68017578125], [-125.71336, 46.7693, -3765.112548828125], [-125.71151, 46.77847, -3267.5322265625]]], [[[-125.66203, 46.68516, -4419.84326171875], [-125.65771, 46.67805, -4454.29345703125], [-125.65211, 46.68335, -3780.650634765625], [-125.66203, 46.68516, -4419.84326171875]]], [[[-125.65771, 46.67805, -4454.29345703125], [-125.66755, 46.67946, -5077.28564453125], [-125.6613, 46.67194, -5093.19384765625], [-125.65771, 46.67805, -4454.29345703125]]], [[[-125.65153, 46.6705, -4488.2158203125], [-125.65771, 46.67805, -4454.29345703125], [-125.6613, 46.67194, -5093.19384765625], [-125.65153, 46.6705, -4488.2158203125]]], [[[-125.65153, 46.6705, -4488.2158203125], [-125.6613, 46.67194, -5093.19384765625], [-125.65479, 46.66416, -5113.60302734375], [-125.65153, 46.6705, -4488.2158203125]]], [[[-125.73056, 46.7769, -4615.9404296875], [-125.72296, 46.77046, -4374.89306640625], [-125.72122, 46.7777, -3922.68017578125], [-125.73056, 46.7769, -4615.9404296875]]], [[[-125.6613, 46.67194, -5093.19384765625], [-125.67132, 46.67318, -5721.9833984375], [-125.6648, 46.6655, -5738.490234375], [-125.6613, 46.67194, -5093.19384765625]]], [[[-125.73056, 46.7769, -4615.9404296875], [-125.72724, 46.78567, -3922.68017578125], [-125.73658, 46.78487, -4615.9404296875], [-125.73056, 46.7769, -4615.9404296875]]], [[[-125.72122, 46.7777, -3922.68017578125], [-125.71752, 46.78644, -3267.5322265625], [-125.72724, 46.78567, -3922.68017578125], [-125.72122, 46.7777, -3922.68017578125]]], [[[-125.71151, 46.77847, -3267.5322265625], [-125.70916, 46.78713, -2501.110107421875], [-125.71752, 46.78644, -3267.5322265625], [-125.71151, 46.77847, -3267.5322265625]]], [[[-125.70629, 46.77253, -3146.9931640625], [-125.69796, 46.7709, -2501.110107421875], [-125.70315, 46.77916, -2501.110107421875], [-125.70629, 46.77253, -3146.9931640625]]], [[[-125.7066, 46.75891, -3797.525146484375], [-125.70742, 46.75006, -4342.53466796875], [-125.69923, 46.75016, -3782.212890625], [-125.7066, 46.75891, -3797.525146484375]]], [[[-125.70742, 46.75006, -4342.53466796875], [-125.70077, 46.74294, -4332.462890625], [-125.69923, 46.75016, -3782.212890625], [-125.70742, 46.75006, -4342.53466796875]]], [[[-125.69156, 46.74198, -3802.940185546875], [-125.69923, 46.75016, -3782.212890625], [-125.70077, 46.74294, -4332.462890625], [-125.69156, 46.74198, -3802.940185546875]]], [[[-125.69923, 46.75016, -3782.212890625], [-125.69156, 46.74198, -3802.940185546875], [-125.68962, 46.74845, -3212.933837890625], [-125.69923, 46.75016, -3782.212890625]]], [[[-125.67335, 46.73349, -3242.964599609375], [-125.67293, 46.7395, -2501.110107421875], [-125.68184, 46.74049, -3224.426025390625], [-125.67335, 46.73349, -3242.964599609375]]], [[[-125.67335, 46.73349, -3242.964599609375], [-125.66472, 46.73251, -2501.110107421875], [-125.67293, 46.7395, -2501.110107421875], [-125.67335, 46.73349, -3242.964599609375]]], [[[-125.66461, 46.72642, -3237.26416015625], [-125.65579, 46.72594, -2501.110107421875], [-125.66472, 46.73251, -2501.110107421875], [-125.66461, 46.72642, -3237.26416015625]]], [[[-125.65763, 46.71983, -3163.61181640625], [-125.65579, 46.72594, -2501.110107421875], [-125.66461, 46.72642, -3237.26416015625], [-125.65763, 46.71983, -3163.61181640625]]], [[[-125.65048, 46.70527, -3194.428466796875], [-125.64503, 46.71053, -2501.110107421875], [-125.65331, 46.71325, -3167.315673828125], [-125.65048, 46.70527, -3194.428466796875]]], [[[-125.65048, 46.70527, -3194.428466796875], [-125.6425, 46.70182, -2501.110107421875], [-125.64503, 46.71053, -2501.110107421875], [-125.65048, 46.70527, -3194.428466796875]]], [[[-125.64799, 46.69653, -3174.802734375], [-125.6425, 46.70182, -2501.110107421875], [-125.65048, 46.70527, -3194.428466796875], [-125.64799, 46.69653, -3174.802734375]]], [[[-125.64799, 46.69653, -3174.802734375], [-125.6397, 46.69308, -2501.110107421875], [-125.6425, 46.70182, -2501.110107421875], [-125.64799, 46.69653, -3174.802734375]]], [[[-125.63128, 46.65804, -3822.2041015625], [-125.62136, 46.65691, -3235.77392578125], [-125.62682, 46.66403, -3208.227294921875], [-125.63128, 46.65804, -3822.2041015625]]], [[[-125.64605, 46.68835, -3210.548095703125], [-125.63988, 46.68419, -2501.110107421875], [-125.6397, 46.69308, -2501.110107421875], [-125.64605, 46.68835, -3210.548095703125]]], [[[-125.64605, 46.68835, -3210.548095703125], [-125.64139, 46.67903, -3268.7138671875], [-125.63988, 46.68419, -2501.110107421875], [-125.64605, 46.68835, -3210.548095703125]]], [[[-125.63434, 46.6765, -2501.110107421875], [-125.64139, 46.67903, -3268.7138671875], [-125.63364, 46.67083, -3247.562744140625], [-125.63434, 46.6765, -2501.110107421875]]], [[[-125.63364, 46.67083, -3247.562744140625], [-125.62489, 46.67028, -2501.110107421875], [-125.63434, 46.6765, -2501.110107421875], [-125.63364, 46.67083, -3247.562744140625]]], [[[-125.63364, 46.67083, -3247.562744140625], [-125.62682, 46.66403, -3208.227294921875], [-125.62489, 46.67028, -2501.110107421875], [-125.63364, 46.67083, -3247.562744140625]]], [[[-125.63683, 46.66418, -3861.466552734375], [-125.62682, 46.66403, -3208.227294921875], [-125.63364, 46.67083, -3247.562744140625], [-125.63683, 46.66418, -3861.466552734375]]], [[[-125.63128, 46.65804, -3822.2041015625], [-125.62682, 46.66403, -3208.227294921875], [-125.63683, 46.66418, -3861.466552734375], [-125.63128, 46.65804, -3822.2041015625]]], [[[-125.63128, 46.65804, -3822.2041015625], [-125.62646, 46.65084, -3846.67529296875], [-125.62136, 46.65691, -3235.77392578125], [-125.63128, 46.65804, -3822.2041015625]]], [[[-125.62646, 46.65084, -3846.67529296875], [-125.63128, 46.65804, -3822.2041015625], [-125.63807, 46.6546, -4479.39208984375], [-125.62646, 46.65084, -3846.67529296875]]], [[[-125.63683, 46.66418, -3861.466552734375], [-125.63807, 46.6546, -4479.39208984375], [-125.63128, 46.65804, -3822.2041015625], [-125.63683, 46.66418, -3861.466552734375]]], [[[-125.63683, 46.66418, -3861.466552734375], [-125.64479, 46.66271, -4493.23779296875], [-125.63807, 46.6546, -4479.39208984375], [-125.63683, 46.66418, -3861.466552734375]]], [[[-125.64286, 46.67096, -3865.494384765625], [-125.64479, 46.66271, -4493.23779296875], [-125.63683, 46.66418, -3861.466552734375], [-125.64286, 46.67096, -3865.494384765625]]], [[[-125.63683, 46.66418, -3861.466552734375], [-125.63364, 46.67083, -3247.562744140625], [-125.64286, 46.67096, -3865.494384765625], [-125.63683, 46.66418, -3861.466552734375]]], [[[-125.64286, 46.67096, -3865.494384765625], [-125.63364, 46.67083, -3247.562744140625], [-125.64139, 46.67903, -3268.7138671875], [-125.64286, 46.67096, -3865.494384765625]]], [[[-125.64139, 46.67903, -3268.7138671875], [-125.64845, 46.67683, -3889.50439453125], [-125.64286, 46.67096, -3865.494384765625], [-125.64139, 46.67903, -3268.7138671875]]], [[[-125.64479, 46.66271, -4493.23779296875], [-125.64845, 46.65611, -5141.3681640625], [-125.63807, 46.6546, -4479.39208984375], [-125.64479, 46.66271, -4493.23779296875]]], [[[-125.62646, 46.65084, -3846.67529296875], [-125.61615, 46.64847, -3253.260009765625], [-125.62136, 46.65691, -3235.77392578125], [-125.62646, 46.65084, -3846.67529296875]]], [[[-125.62073, 46.64232, -3850.155029296875], [-125.61469, 46.63426, -3849.152587890625], [-125.60965, 46.64007, -3223.336181640625], [-125.62073, 46.64232, -3850.155029296875]]], [[[-125.61469, 46.63426, -3849.152587890625], [-125.60903, 46.62671, -3848.40966796875], [-125.60346, 46.63259, -3190.203369140625], [-125.61469, 46.63426, -3849.152587890625]]], [[[-125.60903, 46.62671, -3848.40966796875], [-125.59828, 46.6252, -3220.440185546875], [-125.60346, 46.63259, -3190.203369140625], [-125.60903, 46.62671, -3848.40966796875]]], [[[-125.60308, 46.61884, -3841.42724609375], [-125.60903, 46.62671, -3848.40966796875], [-125.61516, 46.62203, -4515.31689453125], [-125.60308, 46.61884, -3841.42724609375]]], [[[-125.66308, 46.71395, -3785.265625], [-125.65331, 46.71325, -3167.315673828125], [-125.65763, 46.71983, -3163.61181640625], [-125.66308, 46.71395, -3785.265625]]], [[[-125.67475, 46.72668, -3887.31396484375], [-125.66763, 46.71953, -3845.827880859375], [-125.66461, 46.72642, -3237.26416015625], [-125.67475, 46.72668, -3887.31396484375]]], [[[-125.71336, 46.7693, -3765.112548828125], [-125.72122, 46.7777, -3922.68017578125], [-125.72296, 46.77046, -4374.89306640625], [-125.71336, 46.7693, -3765.112548828125]]], [[[-125.73658, 46.78487, -4615.9404296875], [-125.7338, 46.79345, -3922.68017578125], [-125.74313, 46.79266, -4615.9404296875], [-125.73658, 46.78487, -4615.9404296875]]], [[[-125.57284, 46.56032, -3184.2685546875], [-125.56652, 46.56512, -2501.110107421875], [-125.57306, 46.56994, -3177.80419921875], [-125.57284, 46.56032, -3184.2685546875]]], [[[-125.58076, 46.60195, -3170.77294921875], [-125.57098, 46.60005, -2501.110107421875], [-125.57628, 46.6082, -2501.110107421875], [-125.58076, 46.60195, -3170.77294921875]]], [[[-125.74344, 46.77596, -5603.73046875], [-125.73815, 46.76784, -5603.9619140625], [-125.73154, 46.77129, -4963.62158203125], [-125.74344, 46.77596, -5603.73046875]]], [[[-125.73658, 46.78487, -4615.9404296875], [-125.74481, 46.78581, -5184.3955078125], [-125.74344, 46.77596, -5603.73046875], [-125.73658, 46.78487, -4615.9404296875]]], [[[-125.74481, 46.78581, -5184.3955078125], [-125.75584, 46.79158, -5599.41650390625], [-125.74344, 46.77596, -5603.73046875], [-125.74481, 46.78581, -5184.3955078125]]], [[[-125.53893, 46.49788, -2501.110107421875], [-125.54663, 46.49311, -3267.5322265625], [-125.53831, 46.49379, -2501.110107421875], [-125.53893, 46.49788, -2501.110107421875]]]]}}]}