{"type": "FeatureCollection", "features": [{"type": "Feature", "properties": {"name": "AW_WASH_56", "CFM_ID": 321, "region": "Offshore_WAOR", "primary_state/province": "WA", "secondary_state/province": null, "avg_dip": 90, "dip_dir": "vertical", "rake": 0, "slip_sense": "Sinistral", "fault_level": 1, "NSHM23_sliprates": null, "QFFDAgeCatBin": null, "QFFDAgeBin": null, "upper_depth": -1.9, "upper_depth_constraint": "bathymetry", "lower_depth": -5.8, "lower_depth_constraint": "megathrust", "3D_model_constraints": "trace extended at constant dip", "reference": "Ledeczi et al. (2024); Balster-Gee et al. (2023)", "nshm23_id": null, "lineage": null, "usgs_qffd_#": null, "comments": "vergence from USGS sparker line", "id": "321"}, "geometry": {"type": "MultiPolygon", "coordinates": [[[[-126.20626, 47.6274, -4965.65576171875], [-126.21289, 47.62791, -5840.5908203125], [-126.19955, 47.627, -5837.6044921875], [-126.20626, 47.6274, -4965.65576171875]]], [[[-126.22609, 47.628, -4032.30517578125], [-126.23295, 47.628, -4958.388671875], [-126.21952, 47.628, -4964.00634765625], [-126.22609, 47.628, -4032.30517578125]]], [[[-126.01829, 47.623, -5244.06689453125], [-126.02555, 47.623, -6092.05322265625], [-126.01215, 47.623, -6140.9453125], [-126.01829, 47.623, -5244.06689453125]]], [[[-126.25267, 47.628, -4043.248779296875], [-126.25956, 47.62843, -4927.46337890625], [-126.2462, 47.628, -4946.76318359375], [-126.25267, 47.628, -4043.248779296875]]], [[[-126.22609, 47.628, -4032.30517578125], [-126.21952, 47.628, -4964.00634765625], [-126.21275, 47.6279, -4020.892578125], [-126.22609, 47.628, -4032.30517578125]]], [[[-126.02707, 47.623, -3254.03125], [-126.04033, 47.623, -3230.54248046875], [-126.03707, 47.623, -4214.39453125], [-126.02707, 47.623, -3254.03125]]], [[[-126.30884, 47.62914, -4015.223388671875], [-126.29414, 47.629, -4055.401611328125], [-126.29929, 47.629, -3199.6220703125], [-126.30884, 47.62914, -4015.223388671875]]], [[[-125.99466, 47.62248, -3276.163818359375], [-125.99594, 47.62257, -4355.86474609375], [-125.98368, 47.622, -3846.502685546875], [-125.99466, 47.62248, -3276.163818359375]]], [[[-126.21952, 47.628, -4964.00634765625], [-126.23295, 47.628, -4958.388671875], [-126.2263, 47.628, -5834.30615234375], [-126.21952, 47.628, -4964.00634765625]]], [[[-126.31036, 47.62926, -4995.05615234375], [-126.32, 47.63, -5662.98046875], [-126.30668, 47.629, -5698.068359375], [-126.31036, 47.62926, -4995.05615234375]]], [[[-126.27948, 47.629, -4020.052978515625], [-126.28619, 47.629, -4875.2529296875], [-126.27286, 47.629, -4904.48876953125], [-126.27948, 47.629, -4020.052978515625]]], [[[-126.13223, 47.62586, -4212.6201171875], [-126.13906, 47.626, -4962.392578125], [-126.12553, 47.62535, -4996.30859375], [-126.13223, 47.62586, -4212.6201171875]]], [[[-126.2462, 47.628, -4946.76318359375], [-126.25312, 47.628, -5810.74853515625], [-126.23971, 47.628, -5829.36865234375], [-126.2462, 47.628, -4946.76318359375]]], [[[-126.27948, 47.629, -4020.052978515625], [-126.29414, 47.629, -4055.401611328125], [-126.28619, 47.629, -4875.2529296875], [-126.27948, 47.629, -4020.052978515625]]], [[[-126.03166, 47.623, -5180.61767578125], [-126.03707, 47.623, -4214.39453125], [-126.04515, 47.62324, -5139.01611328125], [-126.03166, 47.623, -5180.61767578125]]], [[[-126.31036, 47.62926, -4995.05615234375], [-126.32, 47.63, -4564.4755859375], [-126.32, 47.63, -5662.98046875], [-126.31036, 47.62926, -4995.05615234375]]], [[[-126.30884, 47.62914, -4015.223388671875], [-126.32, 47.63, -4564.4755859375], [-126.31036, 47.62926, -4995.05615234375], [-126.30884, 47.62914, -4015.223388671875]]], [[[-126.0989, 47.625, -5043.28564453125], [-126.10584, 47.625, -5906.478515625], [-126.09244, 47.62482, -5926.662109375], [-126.0989, 47.625, -5043.28564453125]]], [[[-126.17255, 47.62689, -3952.287841796875], [-126.15896, 47.626, -3927.204833984375], [-126.16545, 47.62634, -2885.873779296875], [-126.17255, 47.62689, -3952.287841796875]]], [[[-126.30884, 47.62914, -4015.223388671875], [-126.32, 47.63, -3465.970947265625], [-126.32, 47.63, -4564.4755859375], [-126.30884, 47.62914, -4015.223388671875]]], [[[-126.10344, 47.625, -3309.4619140625], [-126.09269, 47.62484, -4162.05126953125], [-126.09008, 47.62465, -3268.4326171875], [-126.10344, 47.625, -3309.4619140625]]], [[[-126.01435, 47.623, -3281.757568359375], [-126.02707, 47.623, -3254.03125], [-126.02377, 47.623, -4257.3203125], [-126.01435, 47.623, -3281.757568359375]]], [[[-126.00412, 47.623, -3556.1162109375], [-126.0109, 47.623, -4369.1171875], [-125.99594, 47.62257, -4355.86474609375], [-126.00412, 47.623, -3556.1162109375]]], [[[-126.30884, 47.62914, -4015.223388671875], [-126.31028, 47.62925, -3035.50390625], [-126.32, 47.63, -3465.970947265625], [-126.30884, 47.62914, -4015.223388671875]]], [[[-126.17255, 47.62689, -3952.287841796875], [-126.17954, 47.627, -4928.10791015625], [-126.16598, 47.62638, -4914.12744140625], [-126.17255, 47.62689, -3952.287841796875]]], [[[-126.14491, 47.626, -3901.25634765625], [-126.15249, 47.626, -4907.51806640625], [-126.13906, 47.626, -4962.392578125], [-126.14491, 47.626, -3901.25634765625]]], [[[-126.31028, 47.62925, -3035.50390625], [-126.32, 47.63, -2367.466064453125], [-126.32, 47.63, -3465.970947265625], [-126.31028, 47.62925, -3035.50390625]]], [[[-126.06499, 47.624, -4103.19140625], [-126.07205, 47.624, -5077.63330078125], [-126.05857, 47.624, -5097.96533203125], [-126.06499, 47.624, -4103.19140625]]], [[[-126.02377, 47.623, -4257.3203125], [-126.01829, 47.623, -5244.06689453125], [-126.0109, 47.623, -4369.1171875], [-126.02377, 47.623, -4257.3203125]]], [[[-126.10604, 47.625, -4167.03369140625], [-126.0989, 47.625, -5043.28564453125], [-126.09269, 47.62484, -4162.05126953125], [-126.10604, 47.625, -4167.03369140625]]], [[[-126.23938, 47.628, -4037.9296875], [-126.2462, 47.628, -4946.76318359375], [-126.23295, 47.628, -4958.388671875], [-126.23938, 47.628, -4037.9296875]]], [[[-126.29929, 47.629, -3199.6220703125], [-126.31028, 47.62925, -3035.50390625], [-126.30884, 47.62914, -4015.223388671875], [-126.29929, 47.629, -3199.6220703125]]], [[[-126.0109, 47.623, -4369.1171875], [-126.01829, 47.623, -5244.06689453125], [-126.00492, 47.623, -5265.263671875], [-126.0109, 47.623, -4369.1171875]]], [[[-126.23295, 47.628, -4958.388671875], [-126.2462, 47.628, -4946.76318359375], [-126.23971, 47.628, -5829.36865234375], [-126.23295, 47.628, -4958.388671875]]], [[[-126.05857, 47.624, -5097.96533203125], [-126.06568, 47.624, -5973.9169921875], [-126.05229, 47.62379, -6009.0751953125], [-126.05857, 47.624, -5097.96533203125]]], [[[-126.29929, 47.629, -3199.6220703125], [-126.30667, 47.629, -2330.96826171875], [-126.31028, 47.62925, -3035.50390625], [-126.29929, 47.629, -3199.6220703125]]], [[[-126.03904, 47.623, -1401.2930908203125], [-126.05239, 47.6238, -1384.482421875], [-126.04592, 47.6233, -2266.900146484375], [-126.03904, 47.623, -1401.2930908203125]]], [[[-126.27286, 47.629, -4904.48876953125], [-126.27986, 47.629, -5764.53369140625], [-126.26646, 47.62896, -5790.7529296875], [-126.27286, 47.629, -4904.48876953125]]], [[[-126.02707, 47.623, -3254.03125], [-126.01911, 47.623, -2307.45654296875], [-126.03254, 47.623, -2291.5537109375], [-126.02707, 47.623, -3254.03125]]], [[[-125.972, 47.622, -1484.3199462890625], [-125.98542, 47.622, -1467.5733642578125], [-125.97871, 47.622, -1948.3831787109375], [-125.972, 47.622, -1484.3199462890625]]], [[[-126.29929, 47.629, -3199.6220703125], [-126.29325, 47.629, -2294.388427734375], [-126.30667, 47.629, -2330.96826171875], [-126.29929, 47.629, -3199.6220703125]]], [[[-126.06499, 47.624, -4103.19140625], [-126.05857, 47.624, -5097.96533203125], [-126.05071, 47.62367, -4183.43798828125], [-126.06499, 47.624, -4103.19140625]]], [[[-126.28631, 47.629, -3169.924560546875], [-126.29325, 47.629, -2294.388427734375], [-126.29929, 47.629, -3199.6220703125], [-126.28631, 47.629, -3169.924560546875]]], [[[-126.00412, 47.623, -3556.1162109375], [-125.99594, 47.62257, -4355.86474609375], [-125.99466, 47.62248, -3276.163818359375], [-126.00412, 47.623, -3556.1162109375]]], [[[-126.07712, 47.624, -3227.288330078125], [-126.06499, 47.624, -4103.19140625], [-126.06527, 47.624, -3140.16796875], [-126.07712, 47.624, -3227.288330078125]]], [[[-126.28631, 47.629, -3169.924560546875], [-126.27983, 47.629, -2260.250244140625], [-126.29325, 47.629, -2294.388427734375], [-126.28631, 47.629, -3169.924560546875]]], [[[-126.2727, 47.629, -3115.447265625], [-126.27983, 47.629, -2260.250244140625], [-126.28631, 47.629, -3169.924560546875], [-126.2727, 47.629, -3115.447265625]]], [[[-126.29951, 47.629, -4848.84619140625], [-126.31036, 47.62926, -4995.05615234375], [-126.30668, 47.629, -5698.068359375], [-126.29951, 47.629, -4848.84619140625]]], [[[-126.21952, 47.628, -4964.00634765625], [-126.2263, 47.628, -5834.30615234375], [-126.21289, 47.62791, -5840.5908203125], [-126.21952, 47.628, -4964.00634765625]]], [[[-126.2727, 47.629, -3115.447265625], [-126.26642, 47.62896, -2223.53369140625], [-126.27983, 47.629, -2260.250244140625], [-126.2727, 47.629, -3115.447265625]]], [[[-126.31028, 47.62925, -3035.50390625], [-126.30667, 47.629, -2330.96826171875], [-126.32, 47.63, -2367.466064453125], [-126.31028, 47.62925, -3035.50390625]]], [[[-126.14491, 47.626, -3901.25634765625], [-126.13907, 47.626, -2705.70654296875], [-126.15209, 47.626, -2846.6787109375], [-126.14491, 47.626, -3901.25634765625]]], [[[-126.25933, 47.62841, -3089.412109375], [-126.26642, 47.62896, -2223.53369140625], [-126.2727, 47.629, -3115.447265625], [-126.25933, 47.62841, -3089.412109375]]], [[[-126.06527, 47.624, -3140.16796875], [-126.05922, 47.624, -2252.724853515625], [-126.07184, 47.624, -2273.90380859375], [-126.06527, 47.624, -3140.16796875]]], [[[-126.25933, 47.62841, -3089.412109375], [-126.25309, 47.628, -2187.026611328125], [-126.26642, 47.62896, -2223.53369140625], [-126.25933, 47.62841, -3089.412109375]]], [[[-126.09008, 47.62465, -3268.4326171875], [-126.09269, 47.62484, -4162.05126953125], [-126.07914, 47.624, -4163.912109375], [-126.09008, 47.62465, -3268.4326171875]]], [[[-126.24596, 47.628, -3078.346435546875], [-126.25309, 47.628, -2187.026611328125], [-126.25933, 47.62841, -3089.412109375], [-126.24596, 47.628, -3078.346435546875]]], [[[-126.24596, 47.628, -3078.346435546875], [-126.23967, 47.628, -2150.559326171875], [-126.25309, 47.628, -2187.026611328125], [-126.24596, 47.628, -3078.346435546875]]], [[[-126.23259, 47.628, -3054.274169921875], [-126.23967, 47.628, -2150.559326171875], [-126.24596, 47.628, -3078.346435546875], [-126.23259, 47.628, -3054.274169921875]]], [[[-126.13223, 47.62586, -4212.6201171875], [-126.12553, 47.62535, -4996.30859375], [-126.11929, 47.625, -4171.3017578125], [-126.13223, 47.62586, -4212.6201171875]]], [[[-126.22609, 47.628, -4032.30517578125], [-126.21275, 47.6279, -4020.892578125], [-126.21918, 47.628, -3037.031005859375], [-126.22609, 47.628, -4032.30517578125]]], [[[-126.23259, 47.628, -3054.274169921875], [-126.22625, 47.628, -2116.30712890625], [-126.23967, 47.628, -2150.559326171875], [-126.23259, 47.628, -3054.274169921875]]], [[[-126.17954, 47.627, -4928.10791015625], [-126.18614, 47.627, -5826.94677734375], [-126.17273, 47.6269, -5812.38232421875], [-126.17954, 47.627, -4928.10791015625]]], [[[-126.18609, 47.627, -3976.38623046875], [-126.17255, 47.62689, -3952.287841796875], [-126.17885, 47.627, -2935.928955078125], [-126.18609, 47.627, -3976.38623046875]]], [[[-126.21918, 47.628, -3037.031005859375], [-126.22625, 47.628, -2116.30712890625], [-126.23259, 47.628, -3054.274169921875], [-126.21918, 47.628, -3037.031005859375]]], [[[-126.10344, 47.625, -3309.4619140625], [-126.09841, 47.625, -2403.400146484375], [-126.11179, 47.625, -2473.641357421875], [-126.10344, 47.625, -3309.4619140625]]], [[[-126.1995, 47.627, -4006.84375], [-126.20626, 47.6274, -4965.65576171875], [-126.19295, 47.627, -4949.6103515625], [-126.1995, 47.627, -4006.84375]]], [[[-126.14491, 47.626, -3901.25634765625], [-126.13098, 47.62577, -3439.462158203125], [-126.13907, 47.626, -2705.70654296875], [-126.14491, 47.626, -3901.25634765625]]], [[[-126.21918, 47.628, -3037.031005859375], [-126.21284, 47.62791, -2079.60107421875], [-126.22625, 47.628, -2116.30712890625], [-126.21918, 47.628, -3037.031005859375]]], [[[-126.23938, 47.628, -4037.9296875], [-126.23259, 47.628, -3054.274169921875], [-126.24596, 47.628, -3078.346435546875], [-126.23938, 47.628, -4037.9296875]]], [[[-126.2058, 47.62737, -3010.184814453125], [-126.21284, 47.62791, -2079.60107421875], [-126.21918, 47.628, -3037.031005859375], [-126.2058, 47.62737, -3010.184814453125]]], [[[-126.13098, 47.62577, -3439.462158203125], [-126.11706, 47.625, -3357.481201171875], [-126.12516, 47.62532, -2544.26806640625], [-126.13098, 47.62577, -3439.462158203125]]], [[[-126.23938, 47.628, -4037.9296875], [-126.22609, 47.628, -4032.30517578125], [-126.23259, 47.628, -3054.274169921875], [-126.23938, 47.628, -4037.9296875]]], [[[-126.09269, 47.62484, -4162.05126953125], [-126.0989, 47.625, -5043.28564453125], [-126.08555, 47.62433, -5063.05224609375], [-126.09269, 47.62484, -4162.05126953125]]], [[[-126.26593, 47.62892, -4047.423095703125], [-126.25933, 47.62841, -3089.412109375], [-126.2727, 47.629, -3115.447265625], [-126.26593, 47.62892, -4047.423095703125]]], [[[-126.2058, 47.62737, -3010.184814453125], [-126.1995, 47.627, -2041.03759765625], [-126.21284, 47.62791, -2079.60107421875], [-126.2058, 47.62737, -3010.184814453125]]], [[[-126.15896, 47.626, -3927.204833984375], [-126.15209, 47.626, -2846.6787109375], [-126.16545, 47.62634, -2885.873779296875], [-126.15896, 47.626, -3927.204833984375]]], [[[-126.08555, 47.62433, -5063.05224609375], [-126.09244, 47.62482, -5926.662109375], [-126.07909, 47.624, -5946.0390625], [-126.08555, 47.62433, -5063.05224609375]]], [[[-126.15896, 47.626, -3927.204833984375], [-126.14491, 47.626, -3901.25634765625], [-126.15209, 47.626, -2846.6787109375], [-126.15896, 47.626, -3927.204833984375]]], [[[-126.17255, 47.62689, -3952.287841796875], [-126.16545, 47.62634, -2885.873779296875], [-126.17885, 47.627, -2935.928955078125], [-126.17255, 47.62689, -3952.287841796875]]], [[[-125.98344, 47.622, -4880.02880859375], [-125.97871, 47.622, -5725.58740234375], [-125.972, 47.622, -5263.8125], [-125.98344, 47.622, -4880.02880859375]]], [[[-126.19234, 47.627, -2981.233642578125], [-126.1995, 47.627, -2041.03759765625], [-126.2058, 47.62737, -3010.184814453125], [-126.19234, 47.627, -2981.233642578125]]], [[[-126.27948, 47.629, -4020.052978515625], [-126.2727, 47.629, -3115.447265625], [-126.28631, 47.629, -3169.924560546875], [-126.27948, 47.629, -4020.052978515625]]], [[[-126.19234, 47.627, -2981.233642578125], [-126.1861, 47.627, -1984.9158935546875], [-126.1995, 47.627, -2041.03759765625], [-126.19234, 47.627, -2981.233642578125]]], [[[-126.21275, 47.6279, -4020.892578125], [-126.1995, 47.627, -4006.84375], [-126.2058, 47.62737, -3010.184814453125], [-126.21275, 47.6279, -4020.892578125]]], [[[-126.10344, 47.625, -3309.4619140625], [-126.09008, 47.62465, -3268.4326171875], [-126.09841, 47.625, -2403.400146484375], [-126.10344, 47.625, -3309.4619140625]]], [[[-126.17885, 47.627, -2935.928955078125], [-126.1861, 47.627, -1984.9158935546875], [-126.19234, 47.627, -2981.233642578125], [-126.17885, 47.627, -2935.928955078125]]], [[[-126.17885, 47.627, -2935.928955078125], [-126.17272, 47.6269, -1914.1595458984375], [-126.1861, 47.627, -1984.9158935546875], [-126.17885, 47.627, -2935.928955078125]]], [[[-126.15896, 47.626, -3927.204833984375], [-126.16598, 47.62638, -4914.12744140625], [-126.15249, 47.626, -4907.51806640625], [-126.15896, 47.626, -3927.204833984375]]], [[[-126.16545, 47.62634, -2885.873779296875], [-126.17272, 47.6269, -1914.1595458984375], [-126.17885, 47.627, -2935.928955078125], [-126.16545, 47.62634, -2885.873779296875]]], [[[-126.22609, 47.628, -4032.30517578125], [-126.21918, 47.628, -3037.031005859375], [-126.23259, 47.628, -3054.274169921875], [-126.22609, 47.628, -4032.30517578125]]], [[[-126.11929, 47.625, -4171.3017578125], [-126.12553, 47.62535, -4996.30859375], [-126.11231, 47.625, -5023.12548828125], [-126.11929, 47.625, -4171.3017578125]]], [[[-126.16545, 47.62634, -2885.873779296875], [-126.1594, 47.626, -1843.7568359375], [-126.17272, 47.6269, -1914.1595458984375], [-126.16545, 47.62634, -2885.873779296875]]], [[[-126.18609, 47.627, -3976.38623046875], [-126.19295, 47.627, -4949.6103515625], [-126.17954, 47.627, -4928.10791015625], [-126.18609, 47.627, -3976.38623046875]]], [[[-126.15209, 47.626, -2846.6787109375], [-126.1594, 47.626, -1843.7568359375], [-126.16545, 47.62634, -2885.873779296875], [-126.15209, 47.626, -2846.6787109375]]], [[[-126.09008, 47.62465, -3268.4326171875], [-126.08511, 47.62429, -2335.651611328125], [-126.09841, 47.625, -2403.400146484375], [-126.09008, 47.62465, -3268.4326171875]]], [[[-126.26593, 47.62892, -4047.423095703125], [-126.25267, 47.628, -4043.248779296875], [-126.25933, 47.62841, -3089.412109375], [-126.26593, 47.62892, -4047.423095703125]]], [[[-126.15209, 47.626, -2846.6787109375], [-126.14601, 47.626, -1773.7064208984375], [-126.1594, 47.626, -1843.7568359375], [-126.15209, 47.626, -2846.6787109375]]], [[[-126.1995, 47.627, -4006.84375], [-126.19234, 47.627, -2981.233642578125], [-126.2058, 47.62737, -3010.184814453125], [-126.1995, 47.627, -4006.84375]]], [[[-126.21275, 47.6279, -4020.892578125], [-126.21952, 47.628, -4964.00634765625], [-126.20626, 47.6274, -4965.65576171875], [-126.21275, 47.6279, -4020.892578125]]], [[[-126.13907, 47.626, -2705.70654296875], [-126.14601, 47.626, -1773.7064208984375], [-126.15209, 47.626, -2846.6787109375], [-126.13907, 47.626, -2705.70654296875]]], [[[-126.18609, 47.627, -3976.38623046875], [-126.17885, 47.627, -2935.928955078125], [-126.19234, 47.627, -2981.233642578125], [-126.18609, 47.627, -3976.38623046875]]], [[[-126.13907, 47.626, -2705.70654296875], [-126.13262, 47.62589, -1707.466064453125], [-126.14601, 47.626, -1773.7064208984375], [-126.13907, 47.626, -2705.70654296875]]], [[[-126.07712, 47.624, -3227.288330078125], [-126.07914, 47.624, -4163.912109375], [-126.06499, 47.624, -4103.19140625], [-126.07712, 47.624, -3227.288330078125]]], [[[-126.12516, 47.62532, -2544.26806640625], [-126.13262, 47.62589, -1707.466064453125], [-126.13907, 47.626, -2705.70654296875], [-126.12516, 47.62532, -2544.26806640625]]], [[[-126.06499, 47.624, -4103.19140625], [-126.05071, 47.62367, -4183.43798828125], [-126.05333, 47.62387, -3203.464111328125], [-126.06499, 47.624, -4103.19140625]]], [[[-126.11706, 47.625, -3357.481201171875], [-126.11929, 47.625, -4171.3017578125], [-126.10604, 47.625, -4167.03369140625], [-126.11706, 47.625, -3357.481201171875]]], [[[-126.12516, 47.62532, -2544.26806640625], [-126.1193, 47.625, -1637.060791015625], [-126.13262, 47.62589, -1707.466064453125], [-126.12516, 47.62532, -2544.26806640625]]], [[[-126.11706, 47.625, -3357.481201171875], [-126.11179, 47.625, -2473.641357421875], [-126.12516, 47.62532, -2544.26806640625], [-126.11706, 47.625, -3357.481201171875]]], [[[-126.11179, 47.625, -2473.641357421875], [-126.1193, 47.625, -1637.060791015625], [-126.12516, 47.62532, -2544.26806640625], [-126.11179, 47.625, -2473.641357421875]]], [[[-126.11929, 47.625, -4171.3017578125], [-126.11231, 47.625, -5023.12548828125], [-126.10604, 47.625, -4167.03369140625], [-126.11929, 47.625, -4171.3017578125]]], [[[-126.11179, 47.625, -2473.641357421875], [-126.10591, 47.625, -1566.2606201171875], [-126.1193, 47.625, -1637.060791015625], [-126.11179, 47.625, -2473.641357421875]]], [[[-126.09841, 47.625, -2403.400146484375], [-126.10591, 47.625, -1566.2606201171875], [-126.11179, 47.625, -2473.641357421875], [-126.09841, 47.625, -2403.400146484375]]], [[[-126.09841, 47.625, -2403.400146484375], [-126.09253, 47.62482, -1496.4613037109375], [-126.10591, 47.625, -1566.2606201171875], [-126.09841, 47.625, -2403.400146484375]]], [[[-126.10604, 47.625, -4167.03369140625], [-126.11231, 47.625, -5023.12548828125], [-126.0989, 47.625, -5043.28564453125], [-126.10604, 47.625, -4167.03369140625]]], [[[-126.08511, 47.62429, -2335.651611328125], [-126.09253, 47.62482, -1496.4613037109375], [-126.09841, 47.625, -2403.400146484375], [-126.08511, 47.62429, -2335.651611328125]]], [[[-126.13098, 47.62577, -3439.462158203125], [-126.11929, 47.625, -4171.3017578125], [-126.11706, 47.625, -3357.481201171875], [-126.13098, 47.62577, -3439.462158203125]]], [[[-126.08511, 47.62429, -2335.651611328125], [-126.0792, 47.624, -1430.3333740234375], [-126.09253, 47.62482, -1496.4613037109375], [-126.08511, 47.62429, -2335.651611328125]]], [[[-126.07184, 47.624, -2273.90380859375], [-126.0792, 47.624, -1430.3333740234375], [-126.08511, 47.62429, -2335.651611328125], [-126.07184, 47.624, -2273.90380859375]]], [[[-126.07184, 47.624, -2273.90380859375], [-126.0658, 47.624, -1372.82275390625], [-126.0792, 47.624, -1430.3333740234375], [-126.07184, 47.624, -2273.90380859375]]], [[[-126.05922, 47.624, -2252.724853515625], [-126.0658, 47.624, -1372.82275390625], [-126.07184, 47.624, -2273.90380859375], [-126.05922, 47.624, -2252.724853515625]]], [[[-126.05922, 47.624, -2252.724853515625], [-126.05239, 47.6238, -1384.482421875], [-126.0658, 47.624, -1372.82275390625], [-126.05922, 47.624, -2252.724853515625]]], [[[-126.05922, 47.624, -2252.724853515625], [-126.04592, 47.6233, -2266.900146484375], [-126.05239, 47.6238, -1384.482421875], [-126.05922, 47.624, -2252.724853515625]]], [[[-126.05333, 47.62387, -3203.464111328125], [-126.04592, 47.6233, -2266.900146484375], [-126.05922, 47.624, -2252.724853515625], [-126.05333, 47.62387, -3203.464111328125]]], [[[-126.05333, 47.62387, -3203.464111328125], [-126.04033, 47.623, -3230.54248046875], [-126.04592, 47.6233, -2266.900146484375], [-126.05333, 47.62387, -3203.464111328125]]], [[[-126.10344, 47.625, -3309.4619140625], [-126.10604, 47.625, -4167.03369140625], [-126.09269, 47.62484, -4162.05126953125], [-126.10344, 47.625, -3309.4619140625]]], [[[-126.04033, 47.623, -3230.54248046875], [-126.05333, 47.62387, -3203.464111328125], [-126.05071, 47.62367, -4183.43798828125], [-126.04033, 47.623, -3230.54248046875]]], [[[-126.05071, 47.62367, -4183.43798828125], [-126.03707, 47.623, -4214.39453125], [-126.04033, 47.623, -3230.54248046875], [-126.05071, 47.62367, -4183.43798828125]]], [[[-126.09008, 47.62465, -3268.4326171875], [-126.07914, 47.624, -4163.912109375], [-126.07712, 47.624, -3227.288330078125], [-126.09008, 47.62465, -3268.4326171875]]], [[[-126.16598, 47.62638, -4914.12744140625], [-126.17954, 47.627, -4928.10791015625], [-126.17273, 47.6269, -5812.38232421875], [-126.16598, 47.62638, -4914.12744140625]]], [[[-126.17255, 47.62689, -3952.287841796875], [-126.16598, 47.62638, -4914.12744140625], [-126.15896, 47.626, -3927.204833984375], [-126.17255, 47.62689, -3952.287841796875]]], [[[-126.03166, 47.623, -5180.61767578125], [-126.03895, 47.623, -6045.08056640625], [-126.02555, 47.623, -6092.05322265625], [-126.03166, 47.623, -5180.61767578125]]], [[[-126.05071, 47.62367, -4183.43798828125], [-126.04515, 47.62324, -5139.01611328125], [-126.03707, 47.623, -4214.39453125], [-126.05071, 47.62367, -4183.43798828125]]], [[[-126.29951, 47.629, -4848.84619140625], [-126.30668, 47.629, -5698.068359375], [-126.29327, 47.629, -5731.98095703125], [-126.29951, 47.629, -4848.84619140625]]], [[[-126.04515, 47.62324, -5139.01611328125], [-126.05071, 47.62367, -4183.43798828125], [-126.05857, 47.624, -5097.96533203125], [-126.04515, 47.62324, -5139.01611328125]]], [[[-126.29414, 47.629, -4055.401611328125], [-126.29951, 47.629, -4848.84619140625], [-126.28619, 47.629, -4875.2529296875], [-126.29414, 47.629, -4055.401611328125]]], [[[-126.04515, 47.62324, -5139.01611328125], [-126.05857, 47.624, -5097.96533203125], [-126.05229, 47.62379, -6009.0751953125], [-126.04515, 47.62324, -5139.01611328125]]], [[[-126.04515, 47.62324, -5139.01611328125], [-126.05229, 47.62379, -6009.0751953125], [-126.03895, 47.623, -6045.08056640625], [-126.04515, 47.62324, -5139.01611328125]]], [[[-126.26593, 47.62892, -4047.423095703125], [-126.27286, 47.629, -4904.48876953125], [-126.25956, 47.62843, -4927.46337890625], [-126.26593, 47.62892, -4047.423095703125]]], [[[-126.03166, 47.623, -5180.61767578125], [-126.04515, 47.62324, -5139.01611328125], [-126.03895, 47.623, -6045.08056640625], [-126.03166, 47.623, -5180.61767578125]]], [[[-126.12553, 47.62535, -4996.30859375], [-126.13906, 47.626, -4962.392578125], [-126.13258, 47.62589, -5852.17822265625], [-126.12553, 47.62535, -4996.30859375]]], [[[-126.03707, 47.623, -4214.39453125], [-126.03166, 47.623, -5180.61767578125], [-126.02377, 47.623, -4257.3203125], [-126.03707, 47.623, -4214.39453125]]], [[[-126.08555, 47.62433, -5063.05224609375], [-126.0989, 47.625, -5043.28564453125], [-126.09244, 47.62482, -5926.662109375], [-126.08555, 47.62433, -5063.05224609375]]], [[[-126.03707, 47.623, -4214.39453125], [-126.02377, 47.623, -4257.3203125], [-126.02707, 47.623, -3254.03125], [-126.03707, 47.623, -4214.39453125]]], [[[-126.11231, 47.625, -5023.12548828125], [-126.11925, 47.625, -5886.34228515625], [-126.10584, 47.625, -5906.478515625], [-126.11231, 47.625, -5023.12548828125]]], [[[-126.0989, 47.625, -5043.28564453125], [-126.11231, 47.625, -5023.12548828125], [-126.10584, 47.625, -5906.478515625], [-126.0989, 47.625, -5043.28564453125]]], [[[-126.00535, 47.623, -2423.963623046875], [-126.00412, 47.623, -3556.1162109375], [-125.99466, 47.62248, -3276.163818359375], [-126.00535, 47.623, -2423.963623046875]]], [[[-126.04033, 47.623, -3230.54248046875], [-126.02707, 47.623, -3254.03125], [-126.03254, 47.623, -2291.5537109375], [-126.04033, 47.623, -3230.54248046875]]], [[[-126.25956, 47.62843, -4927.46337890625], [-126.27286, 47.629, -4904.48876953125], [-126.26646, 47.62896, -5790.7529296875], [-126.25956, 47.62843, -4927.46337890625]]], [[[-126.04033, 47.623, -3230.54248046875], [-126.03254, 47.623, -2291.5537109375], [-126.04592, 47.6233, -2266.900146484375], [-126.04033, 47.623, -3230.54248046875]]], [[[-126.29414, 47.629, -4055.401611328125], [-126.27948, 47.629, -4020.052978515625], [-126.28631, 47.629, -3169.924560546875], [-126.29414, 47.629, -4055.401611328125]]], [[[-126.03254, 47.623, -2291.5537109375], [-126.03904, 47.623, -1401.2930908203125], [-126.04592, 47.6233, -2266.900146484375], [-126.03254, 47.623, -2291.5537109375]]], [[[-126.03254, 47.623, -2291.5537109375], [-126.02561, 47.623, -1417.4512939453125], [-126.03904, 47.623, -1401.2930908203125], [-126.03254, 47.623, -2291.5537109375]]], [[[-125.972, 47.622, -1484.3199462890625], [-125.97871, 47.622, -1948.3831787109375], [-125.972, 47.622, -2429.193115234375], [-125.972, 47.622, -1484.3199462890625]]], [[[-126.01911, 47.623, -2307.45654296875], [-126.02561, 47.623, -1417.4512939453125], [-126.03254, 47.623, -2291.5537109375], [-126.01911, 47.623, -2307.45654296875]]], [[[-126.16598, 47.62638, -4914.12744140625], [-126.17273, 47.6269, -5812.38232421875], [-126.1594, 47.626, -5819.26416015625], [-126.16598, 47.62638, -4914.12744140625]]], [[[-126.01911, 47.623, -2307.45654296875], [-126.01219, 47.623, -1434.6181640625], [-126.02561, 47.623, -1417.4512939453125], [-126.01911, 47.623, -2307.45654296875]]], [[[-126.11706, 47.625, -3357.481201171875], [-126.10604, 47.625, -4167.03369140625], [-126.10344, 47.625, -3309.4619140625], [-126.11706, 47.625, -3357.481201171875]]], [[[-126.00535, 47.623, -2423.963623046875], [-126.01219, 47.623, -1434.6181640625], [-126.01911, 47.623, -2307.45654296875], [-126.00535, 47.623, -2423.963623046875]]], [[[-126.23938, 47.628, -4037.9296875], [-126.23295, 47.628, -4958.388671875], [-126.22609, 47.628, -4032.30517578125], [-126.23938, 47.628, -4037.9296875]]], [[[-126.00535, 47.623, -2423.963623046875], [-125.99879, 47.62277, -1451.46826171875], [-126.01219, 47.623, -1434.6181640625], [-126.00535, 47.623, -2423.963623046875]]], [[[-125.99274, 47.62234, -2306.092041015625], [-125.99879, 47.62277, -1451.46826171875], [-126.00535, 47.623, -2423.963623046875], [-125.99274, 47.62234, -2306.092041015625]]], [[[-126.05857, 47.624, -5097.96533203125], [-126.07205, 47.624, -5077.63330078125], [-126.06568, 47.624, -5973.9169921875], [-126.05857, 47.624, -5097.96533203125]]], [[[-125.99274, 47.62234, -2306.092041015625], [-125.98542, 47.622, -1467.5733642578125], [-125.99879, 47.62277, -1451.46826171875], [-125.99274, 47.62234, -2306.092041015625]]], [[[-126.15249, 47.626, -4907.51806640625], [-126.1594, 47.626, -5819.26416015625], [-126.14598, 47.626, -5825.10546875], [-126.15249, 47.626, -4907.51806640625]]], [[[-125.98336, 47.622, -2788.80322265625], [-125.98542, 47.622, -1467.5733642578125], [-125.99274, 47.62234, -2306.092041015625], [-125.98336, 47.622, -2788.80322265625]]], [[[-126.13906, 47.626, -4962.392578125], [-126.14598, 47.626, -5825.10546875], [-126.13258, 47.62589, -5852.17822265625], [-126.13906, 47.626, -4962.392578125]]], [[[-125.98336, 47.622, -2788.80322265625], [-125.97871, 47.622, -1948.3831787109375], [-125.98542, 47.622, -1467.5733642578125], [-125.98336, 47.622, -2788.80322265625]]], [[[-126.14491, 47.626, -3901.25634765625], [-126.13906, 47.626, -4962.392578125], [-126.13223, 47.62586, -4212.6201171875], [-126.14491, 47.626, -3901.25634765625]]], [[[-125.98336, 47.622, -2788.80322265625], [-125.972, 47.622, -2429.193115234375], [-125.97871, 47.622, -1948.3831787109375], [-125.98336, 47.622, -2788.80322265625]]], [[[-126.17954, 47.627, -4928.10791015625], [-126.19295, 47.627, -4949.6103515625], [-126.18614, 47.627, -5826.94677734375], [-126.17954, 47.627, -4928.10791015625]]], [[[-125.98336, 47.622, -2788.80322265625], [-125.972, 47.622, -3374.066162109375], [-125.972, 47.622, -2429.193115234375], [-125.98336, 47.622, -2788.80322265625]]], [[[-125.98368, 47.622, -3846.502685546875], [-125.972, 47.622, -3374.066162109375], [-125.98336, 47.622, -2788.80322265625], [-125.98368, 47.622, -3846.502685546875]]], [[[-126.28619, 47.629, -4875.2529296875], [-126.29327, 47.629, -5731.98095703125], [-126.27986, 47.629, -5764.53369140625], [-126.28619, 47.629, -4875.2529296875]]], [[[-125.98368, 47.622, -3846.502685546875], [-125.972, 47.622, -4318.939453125], [-125.972, 47.622, -3374.066162109375], [-125.98368, 47.622, -3846.502685546875]]], [[[-126.02377, 47.623, -4257.3203125], [-126.0109, 47.623, -4369.1171875], [-126.01435, 47.623, -3281.757568359375], [-126.02377, 47.623, -4257.3203125]]], [[[-125.98368, 47.622, -3846.502685546875], [-125.98344, 47.622, -4880.02880859375], [-125.972, 47.622, -4318.939453125], [-125.98368, 47.622, -3846.502685546875]]], [[[-125.99594, 47.62257, -4355.86474609375], [-125.98344, 47.622, -4880.02880859375], [-125.98368, 47.622, -3846.502685546875], [-125.99594, 47.62257, -4355.86474609375]]], [[[-126.28619, 47.629, -4875.2529296875], [-126.29951, 47.629, -4848.84619140625], [-126.29327, 47.629, -5731.98095703125], [-126.28619, 47.629, -4875.2529296875]]], [[[-125.98344, 47.622, -4880.02880859375], [-125.99594, 47.62257, -4355.86474609375], [-125.99247, 47.62232, -5340.673828125], [-125.98344, 47.622, -4880.02880859375]]], [[[-126.13098, 47.62577, -3439.462158203125], [-126.13223, 47.62586, -4212.6201171875], [-126.11929, 47.625, -4171.3017578125], [-126.13098, 47.62577, -3439.462158203125]]], [[[-125.98344, 47.622, -4880.02880859375], [-125.99247, 47.62232, -5340.673828125], [-125.98541, 47.622, -6187.3623046875], [-125.98344, 47.622, -4880.02880859375]]], [[[-126.29414, 47.629, -4055.401611328125], [-126.30884, 47.62914, -4015.223388671875], [-126.29951, 47.629, -4848.84619140625], [-126.29414, 47.629, -4055.401611328125]]], [[[-125.98344, 47.622, -4880.02880859375], [-125.98541, 47.622, -6187.3623046875], [-125.97871, 47.622, -5725.58740234375], [-125.98344, 47.622, -4880.02880859375]]], [[[-126.19295, 47.627, -4949.6103515625], [-126.20626, 47.6274, -4965.65576171875], [-126.19955, 47.627, -5837.6044921875], [-126.19295, 47.627, -4949.6103515625]]], [[[-125.98344, 47.622, -4880.02880859375], [-125.972, 47.622, -5263.8125], [-125.972, 47.622, -4318.939453125], [-125.98344, 47.622, -4880.02880859375]]], [[[-125.972, 47.622, -5263.8125], [-125.97871, 47.622, -5725.58740234375], [-125.972, 47.622, -6208.685546875], [-125.972, 47.622, -5263.8125]]], [[[-126.18609, 47.627, -3976.38623046875], [-126.17954, 47.627, -4928.10791015625], [-126.17255, 47.62689, -3952.287841796875], [-126.18609, 47.627, -3976.38623046875]]], [[[-125.97871, 47.622, -5725.58740234375], [-125.98541, 47.622, -6187.3623046875], [-125.972, 47.622, -6208.685546875], [-125.97871, 47.622, -5725.58740234375]]], [[[-126.27948, 47.629, -4020.052978515625], [-126.27286, 47.629, -4904.48876953125], [-126.26593, 47.62892, -4047.423095703125], [-126.27948, 47.629, -4020.052978515625]]], [[[-125.99247, 47.62232, -5340.673828125], [-125.99876, 47.62277, -6170.07958984375], [-125.98541, 47.622, -6187.3623046875], [-125.99247, 47.62232, -5340.673828125]]], [[[-125.99247, 47.62232, -5340.673828125], [-126.00492, 47.623, -5265.263671875], [-125.99876, 47.62277, -6170.07958984375], [-125.99247, 47.62232, -5340.673828125]]], [[[-125.99594, 47.62257, -4355.86474609375], [-126.00492, 47.623, -5265.263671875], [-125.99247, 47.62232, -5340.673828125], [-125.99594, 47.62257, -4355.86474609375]]], [[[-126.0109, 47.623, -4369.1171875], [-126.00492, 47.623, -5265.263671875], [-125.99594, 47.62257, -4355.86474609375], [-126.0109, 47.623, -4369.1171875]]], [[[-126.1995, 47.627, -4006.84375], [-126.18609, 47.627, -3976.38623046875], [-126.19234, 47.627, -2981.233642578125], [-126.1995, 47.627, -4006.84375]]], [[[-126.01829, 47.623, -5244.06689453125], [-126.02377, 47.623, -4257.3203125], [-126.03166, 47.623, -5180.61767578125], [-126.01829, 47.623, -5244.06689453125]]], [[[-126.19295, 47.627, -4949.6103515625], [-126.19955, 47.627, -5837.6044921875], [-126.18614, 47.627, -5826.94677734375], [-126.19295, 47.627, -4949.6103515625]]], [[[-126.25956, 47.62843, -4927.46337890625], [-126.26646, 47.62896, -5790.7529296875], [-126.25312, 47.628, -5810.74853515625], [-126.25956, 47.62843, -4927.46337890625]]], [[[-126.01829, 47.623, -5244.06689453125], [-126.03166, 47.623, -5180.61767578125], [-126.02555, 47.623, -6092.05322265625], [-126.01829, 47.623, -5244.06689453125]]], [[[-126.00492, 47.623, -5265.263671875], [-126.01829, 47.623, -5244.06689453125], [-126.01215, 47.623, -6140.9453125], [-126.00492, 47.623, -5265.263671875]]], [[[-126.00492, 47.623, -5265.263671875], [-126.01215, 47.623, -6140.9453125], [-125.99876, 47.62277, -6170.07958984375], [-126.00492, 47.623, -5265.263671875]]], [[[-126.05333, 47.62387, -3203.464111328125], [-126.06527, 47.624, -3140.16796875], [-126.06499, 47.624, -4103.19140625], [-126.05333, 47.62387, -3203.464111328125]]], [[[-126.25267, 47.628, -4043.248779296875], [-126.2462, 47.628, -4946.76318359375], [-126.23938, 47.628, -4037.9296875], [-126.25267, 47.628, -4043.248779296875]]], [[[-126.02707, 47.623, -3254.03125], [-126.01435, 47.623, -3281.757568359375], [-126.01911, 47.623, -2307.45654296875], [-126.02707, 47.623, -3254.03125]]], [[[-126.11706, 47.625, -3357.481201171875], [-126.10344, 47.625, -3309.4619140625], [-126.11179, 47.625, -2473.641357421875], [-126.11706, 47.625, -3357.481201171875]]], [[[-126.01435, 47.623, -3281.757568359375], [-126.00535, 47.623, -2423.963623046875], [-126.01911, 47.623, -2307.45654296875], [-126.01435, 47.623, -3281.757568359375]]], [[[-126.11231, 47.625, -5023.12548828125], [-126.12553, 47.62535, -4996.30859375], [-126.11925, 47.625, -5886.34228515625], [-126.11231, 47.625, -5023.12548828125]]], [[[-126.00535, 47.623, -2423.963623046875], [-126.01435, 47.623, -3281.757568359375], [-126.00412, 47.623, -3556.1162109375], [-126.00535, 47.623, -2423.963623046875]]], [[[-125.99466, 47.62248, -3276.163818359375], [-125.99274, 47.62234, -2306.092041015625], [-126.00535, 47.623, -2423.963623046875], [-125.99466, 47.62248, -3276.163818359375]]], [[[-125.99466, 47.62248, -3276.163818359375], [-125.98336, 47.622, -2788.80322265625], [-125.99274, 47.62234, -2306.092041015625], [-125.99466, 47.62248, -3276.163818359375]]], [[[-126.15249, 47.626, -4907.51806640625], [-126.16598, 47.62638, -4914.12744140625], [-126.1594, 47.626, -5819.26416015625], [-126.15249, 47.626, -4907.51806640625]]], [[[-125.99466, 47.62248, -3276.163818359375], [-125.98368, 47.622, -3846.502685546875], [-125.98336, 47.622, -2788.80322265625], [-125.99466, 47.62248, -3276.163818359375]]], [[[-126.30884, 47.62914, -4015.223388671875], [-126.31036, 47.62926, -4995.05615234375], [-126.29951, 47.629, -4848.84619140625], [-126.30884, 47.62914, -4015.223388671875]]], [[[-126.00412, 47.623, -3556.1162109375], [-126.01435, 47.623, -3281.757568359375], [-126.0109, 47.623, -4369.1171875], [-126.00412, 47.623, -3556.1162109375]]], [[[-126.07914, 47.624, -4163.912109375], [-126.07205, 47.624, -5077.63330078125], [-126.06499, 47.624, -4103.19140625], [-126.07914, 47.624, -4163.912109375]]], [[[-126.07914, 47.624, -4163.912109375], [-126.08555, 47.62433, -5063.05224609375], [-126.07205, 47.624, -5077.63330078125], [-126.07914, 47.624, -4163.912109375]]], [[[-126.09269, 47.62484, -4162.05126953125], [-126.08555, 47.62433, -5063.05224609375], [-126.07914, 47.624, -4163.912109375], [-126.09269, 47.62484, -4162.05126953125]]], [[[-126.15896, 47.626, -3927.204833984375], [-126.15249, 47.626, -4907.51806640625], [-126.14491, 47.626, -3901.25634765625], [-126.15896, 47.626, -3927.204833984375]]], [[[-126.1995, 47.627, -4006.84375], [-126.19295, 47.627, -4949.6103515625], [-126.18609, 47.627, -3976.38623046875], [-126.1995, 47.627, -4006.84375]]], [[[-126.21275, 47.6279, -4020.892578125], [-126.20626, 47.6274, -4965.65576171875], [-126.1995, 47.627, -4006.84375], [-126.21275, 47.6279, -4020.892578125]]], [[[-126.26593, 47.62892, -4047.423095703125], [-126.25956, 47.62843, -4927.46337890625], [-126.25267, 47.628, -4043.248779296875], [-126.26593, 47.62892, -4047.423095703125]]], [[[-126.29414, 47.629, -4055.401611328125], [-126.28631, 47.629, -3169.924560546875], [-126.29929, 47.629, -3199.6220703125], [-126.29414, 47.629, -4055.401611328125]]], [[[-126.27286, 47.629, -4904.48876953125], [-126.28619, 47.629, -4875.2529296875], [-126.27986, 47.629, -5764.53369140625], [-126.27286, 47.629, -4904.48876953125]]], [[[-126.2462, 47.628, -4946.76318359375], [-126.25956, 47.62843, -4927.46337890625], [-126.25312, 47.628, -5810.74853515625], [-126.2462, 47.628, -4946.76318359375]]], [[[-126.23295, 47.628, -4958.388671875], [-126.23971, 47.628, -5829.36865234375], [-126.2263, 47.628, -5834.30615234375], [-126.23295, 47.628, -4958.388671875]]], [[[-126.20626, 47.6274, -4965.65576171875], [-126.21952, 47.628, -4964.00634765625], [-126.21289, 47.62791, -5840.5908203125], [-126.20626, 47.6274, -4965.65576171875]]], [[[-126.13906, 47.626, -4962.392578125], [-126.15249, 47.626, -4907.51806640625], [-126.14598, 47.626, -5825.10546875], [-126.13906, 47.626, -4962.392578125]]], [[[-126.12553, 47.62535, -4996.30859375], [-126.13258, 47.62589, -5852.17822265625], [-126.11925, 47.625, -5886.34228515625], [-126.12553, 47.62535, -4996.30859375]]], [[[-126.07205, 47.624, -5077.63330078125], [-126.08555, 47.62433, -5063.05224609375], [-126.07909, 47.624, -5946.0390625], [-126.07205, 47.624, -5077.63330078125]]], [[[-126.25267, 47.628, -4043.248779296875], [-126.24596, 47.628, -3078.346435546875], [-126.25933, 47.62841, -3089.412109375], [-126.25267, 47.628, -4043.248779296875]]], [[[-126.07205, 47.624, -5077.63330078125], [-126.07909, 47.624, -5946.0390625], [-126.06568, 47.624, -5973.9169921875], [-126.07205, 47.624, -5077.63330078125]]], [[[-126.27948, 47.629, -4020.052978515625], [-126.26593, 47.62892, -4047.423095703125], [-126.2727, 47.629, -3115.447265625], [-126.27948, 47.629, -4020.052978515625]]], [[[-126.25267, 47.628, -4043.248779296875], [-126.23938, 47.628, -4037.9296875], [-126.24596, 47.628, -3078.346435546875], [-126.25267, 47.628, -4043.248779296875]]], [[[-126.21275, 47.6279, -4020.892578125], [-126.2058, 47.62737, -3010.184814453125], [-126.21918, 47.628, -3037.031005859375], [-126.21275, 47.6279, -4020.892578125]]], [[[-126.13098, 47.62577, -3439.462158203125], [-126.14491, 47.626, -3901.25634765625], [-126.13223, 47.62586, -4212.6201171875], [-126.13098, 47.62577, -3439.462158203125]]], [[[-126.13098, 47.62577, -3439.462158203125], [-126.12516, 47.62532, -2544.26806640625], [-126.13907, 47.626, -2705.70654296875], [-126.13098, 47.62577, -3439.462158203125]]], [[[-126.09008, 47.62465, -3268.4326171875], [-126.07712, 47.624, -3227.288330078125], [-126.08511, 47.62429, -2335.651611328125], [-126.09008, 47.62465, -3268.4326171875]]], [[[-126.07712, 47.624, -3227.288330078125], [-126.06527, 47.624, -3140.16796875], [-126.07184, 47.624, -2273.90380859375], [-126.07712, 47.624, -3227.288330078125]]], [[[-126.07712, 47.624, -3227.288330078125], [-126.07184, 47.624, -2273.90380859375], [-126.08511, 47.62429, -2335.651611328125], [-126.07712, 47.624, -3227.288330078125]]], [[[-126.06527, 47.624, -3140.16796875], [-126.05333, 47.62387, -3203.464111328125], [-126.05922, 47.624, -2252.724853515625], [-126.06527, 47.624, -3140.16796875]]]]}}]}