{"type": "FeatureCollection", "features": [{"type": "Feature", "properties": {"name": "AW_WASH_57", "CFM_ID": 322, "region": "Offshore_WAOR", "primary_state/province": "WA", "secondary_state/province": null, "avg_dip": 90.0, "dip_dir": "vertical", "rake": 0, "slip_sense": "Sinistral", "fault_level": 1, "NSHM23_sliprates": null, "QFFDAgeCatBin": null, "QFFDAgeBin": null, "upper_depth": -1.9, "upper_depth_constraint": "bathymetry", "lower_depth": -6.3, "lower_depth_constraint": "megathrust", "3D_model_constraints": "trace extended at constant dip", "reference": "Ledeczi et al. (2024); Balster-Gee et al. (2023)", "nshm23_id": null, "lineage": null, "usgs_qffd_#": null, "comments": "vergence from USGS sparker line", "id": "322"}, "geometry": {"type": "MultiPolygon", "coordinates": [[[[-126.24709, 47.38501, -5364.85302734375], [-126.25355, 47.3855, -4870.828125], [-126.26, 47.386, -5330.1015625], [-126.24709, 47.38501, -5364.85302734375]]], [[[-126.23441, 47.38306, -3785.894775390625], [-126.22103, 47.382, -3800.474365234375], [-126.2278, 47.38252, -3155.185302734375], [-126.23441, 47.38306, -3785.894775390625]]], [[[-126.12512, 47.37135, -3048.33544921875], [-126.11928, 47.37038, -2172.609375], [-126.13195, 47.37223, -2213.098876953125], [-126.12512, 47.37135, -3048.33544921875]]], [[[-126.24848, 47.38511, -3983.458740234375], [-126.25355, 47.3855, -4870.828125], [-126.24709, 47.38501, -5364.85302734375], [-126.24848, 47.38511, -3983.458740234375]]], [[[-126.11844, 47.37024, -3813.0615234375], [-126.12527, 47.37138, -4666.5634765625], [-126.11247, 47.36895, -4699.79052734375], [-126.11844, 47.37024, -3813.0615234375]]], [[[-125.953, 47.355, -6270.3779296875], [-125.953, 47.355, -5167.6474609375], [-125.96296, 47.35546, -5560.13525390625], [-125.953, 47.355, -6270.3779296875]]], [[[-126.24848, 47.38511, -3983.458740234375], [-126.26, 47.386, -4376.80322265625], [-126.25355, 47.3855, -4870.828125], [-126.24848, 47.38511, -3983.458740234375]]], [[[-126.18309, 47.37808, -2316.41943359375], [-126.19597, 47.37915, -2342.176513671875], [-126.1891, 47.37855, -3114.235107421875], [-126.18309, 47.37808, -2316.41943359375]]], [[[-126.09269, 47.367, -3908.8779296875], [-126.07963, 47.367, -3943.920654296875], [-126.08735, 47.367, -2991.912841796875], [-126.09269, 47.367, -3908.8779296875]]], [[[-125.99761, 47.35889, -2798.4208984375], [-126.00429, 47.35981, -1946.9097900390625], [-126.01021, 47.36072, -2830.089599609375], [-125.99761, 47.35889, -2798.4208984375]]], [[[-126.24848, 47.38511, -3983.458740234375], [-126.26, 47.386, -3423.505126953125], [-126.26, 47.386, -4376.80322265625], [-126.24848, 47.38511, -3983.458740234375]]], [[[-126.07963, 47.367, -3943.920654296875], [-126.07376, 47.36675, -4872.66943359375], [-126.06673, 47.36621, -3988.374267578125], [-126.07963, 47.367, -3943.920654296875]]], [[[-126.26, 47.386, -3423.505126953125], [-126.24848, 47.38511, -3983.458740234375], [-126.25355, 47.3855, -2933.9580078125], [-126.26, 47.386, -3423.505126953125]]], [[[-126.09269, 47.367, -3908.8779296875], [-126.08674, 47.367, -4803.341796875], [-126.07963, 47.367, -3943.920654296875], [-126.09269, 47.367, -3908.8779296875]]], [[[-125.953, 47.355, -1859.4560546875], [-125.96583, 47.3559, -1878.4361572265625], [-125.96298, 47.35546, -2568.438232421875], [-125.953, 47.355, -1859.4560546875]]], [[[-126.26, 47.386, -2470.20703125], [-126.26, 47.386, -3423.505126953125], [-126.25355, 47.3855, -2933.9580078125], [-126.26, 47.386, -2470.20703125]]], [[[-125.97301, 47.357, -2859.662841796875], [-125.9786, 47.35743, -1897.6055908203125], [-125.9843, 47.35787, -2862.69384765625], [-125.97301, 47.357, -2859.662841796875]]], [[[-126.26, 47.386, -2470.20703125], [-126.25355, 47.3855, -2933.9580078125], [-126.2471, 47.38501, -2444.41064453125], [-126.26, 47.386, -2470.20703125]]], [[[-126.028, 47.36346, -4097.66015625], [-126.03508, 47.36455, -5060.341796875], [-126.02257, 47.36263, -5149.5556640625], [-126.028, 47.36346, -4097.66015625]]], [[[-126.24215, 47.38425, -3222.07666015625], [-126.2471, 47.38501, -2444.41064453125], [-126.25355, 47.3855, -2933.9580078125], [-126.24215, 47.38425, -3222.07666015625]]], [[[-125.96298, 47.35546, -2568.438232421875], [-125.96583, 47.3559, -1878.4361572265625], [-125.97301, 47.357, -2859.662841796875], [-125.96298, 47.35546, -2568.438232421875]]], [[[-126.24215, 47.38425, -3222.07666015625], [-126.25355, 47.3855, -2933.9580078125], [-126.24848, 47.38511, -3983.458740234375], [-126.24215, 47.38425, -3222.07666015625]]], [[[-126.22103, 47.382, -3800.474365234375], [-126.23441, 47.38306, -3785.894775390625], [-126.2277, 47.38252, -4545.04296875], [-126.22103, 47.382, -3800.474365234375]]], [[[-126.15729, 47.3751, -3844.482177734375], [-126.14472, 47.37339, -3830.774169921875], [-126.1509, 47.37427, -3078.596435546875], [-126.15729, 47.3751, -3844.482177734375]]], [[[-126.24215, 47.38425, -3222.07666015625], [-126.23443, 47.38307, -2419.088623046875], [-126.2471, 47.38501, -2444.41064453125], [-126.24215, 47.38425, -3222.07666015625]]], [[[-126.23443, 47.38307, -2419.088623046875], [-126.24215, 47.38425, -3222.07666015625], [-126.2278, 47.38252, -3155.185302734375], [-126.23443, 47.38307, -2419.088623046875]]], [[[-125.96409, 47.35563, -3534.294189453125], [-125.96298, 47.35546, -2568.438232421875], [-125.97301, 47.357, -2859.662841796875], [-125.96409, 47.35563, -3534.294189453125]]], [[[-125.97676, 47.35729, -4050.87890625], [-125.96409, 47.35563, -3534.294189453125], [-125.97301, 47.357, -2859.662841796875], [-125.97676, 47.35729, -4050.87890625]]], [[[-126.04092, 47.36522, -4065.7568359375], [-126.03536, 47.36459, -3035.50048828125], [-126.04821, 47.36579, -3033.234619140625], [-126.04092, 47.36522, -4065.7568359375]]], [[[-126.22154, 47.38204, -2393.31103515625], [-126.23443, 47.38307, -2419.088623046875], [-126.2278, 47.38252, -3155.185302734375], [-126.22154, 47.38204, -2393.31103515625]]], [[[-126.08735, 47.367, -2991.912841796875], [-126.08114, 47.367, -2100.432861328125], [-126.09413, 47.367, -2112.7529296875], [-126.08735, 47.367, -2991.912841796875]]], [[[-126.17035, 47.37621, -5517.75146484375], [-126.17662, 47.37717, -4666.7705078125], [-126.18304, 47.37808, -5495.2666015625], [-126.17035, 47.37621, -5517.75146484375]]], [[[-126.21471, 47.38152, -3136.19140625], [-126.22154, 47.38204, -2393.31103515625], [-126.2278, 47.38252, -3155.185302734375], [-126.21471, 47.38152, -3136.19140625]]], [[[-125.9897, 47.35829, -4459.6787109375], [-125.98409, 47.35785, -5240.041015625], [-125.97676, 47.35729, -4050.87890625], [-125.9897, 47.35829, -4459.6787109375]]], [[[-126.21471, 47.38152, -3136.19140625], [-126.20864, 47.38105, -2367.51708984375], [-126.22154, 47.38204, -2393.31103515625], [-126.21471, 47.38152, -3136.19140625]]], [[[-125.96296, 47.35546, -5560.13525390625], [-125.97287, 47.35698, -5248.41259765625], [-125.96584, 47.3559, -6236.1708984375], [-125.96296, 47.35546, -5560.13525390625]]], [[[-126.2019, 47.38006, -3129.626220703125], [-126.20864, 47.38105, -2367.51708984375], [-126.21471, 47.38152, -3136.19140625], [-126.2019, 47.38006, -3129.626220703125]]], [[[-126.11264, 47.36899, -3017.85791015625], [-126.10039, 47.367, -2988.478271484375], [-126.10694, 47.36768, -2132.503662109375], [-126.11264, 47.36899, -3017.85791015625]]], [[[-126.01651, 47.36169, -3625.640380859375], [-126.01021, 47.36072, -2830.089599609375], [-126.02322, 47.36273, -2930.04736328125], [-126.01651, 47.36169, -3625.640380859375]]], [[[-126.2019, 47.38006, -3129.626220703125], [-126.19597, 47.37915, -2342.176513671875], [-126.20864, 47.38105, -2367.51708984375], [-126.2019, 47.38006, -3129.626220703125]]], [[[-126.00998, 47.36069, -5207.58984375], [-126.02257, 47.36263, -5149.5556640625], [-126.01694, 47.36176, -6044.396484375], [-126.00998, 47.36069, -5207.58984375]]], [[[-126.2019, 47.38006, -3129.626220703125], [-126.1891, 47.37855, -3114.235107421875], [-126.19597, 47.37915, -2342.176513671875], [-126.2019, 47.38006, -3129.626220703125]]], [[[-126.08735, 47.367, -2991.912841796875], [-126.09413, 47.367, -2112.7529296875], [-126.10039, 47.367, -2988.478271484375], [-126.08735, 47.367, -2991.912841796875]]], [[[-126.2019, 47.38006, -3129.626220703125], [-126.19533, 47.37905, -3826.9677734375], [-126.1891, 47.37855, -3114.235107421875], [-126.2019, 47.38006, -3129.626220703125]]], [[[-126.20805, 47.381, -3814.727294921875], [-126.19533, 47.37905, -3826.9677734375], [-126.2019, 47.38006, -3129.626220703125], [-126.20805, 47.381, -3814.727294921875]]], [[[-126.05382, 47.366, -4029.345458984375], [-126.04821, 47.36579, -3033.234619140625], [-126.0613, 47.366, -3018.829345703125], [-126.05382, 47.366, -4029.345458984375]]], [[[-126.13161, 47.3722, -3825.78125], [-126.11844, 47.37024, -3813.0615234375], [-126.12512, 47.37135, -3048.33544921875], [-126.13161, 47.3722, -3825.78125]]], [[[-125.97287, 47.35698, -5248.41259765625], [-125.9786, 47.35743, -6193.9140625], [-125.96584, 47.3559, -6236.1708984375], [-125.97287, 47.35698, -5248.41259765625]]], [[[-126.19533, 47.37905, -3826.9677734375], [-126.20805, 47.381, -3814.727294921875], [-126.20196, 47.38007, -4590.18212890625], [-126.19533, 47.37905, -3826.9677734375]]], [[[-126.04092, 47.36522, -4065.7568359375], [-126.028, 47.36346, -4097.66015625], [-126.03536, 47.36459, -3035.50048828125], [-126.04092, 47.36522, -4065.7568359375]]], [[[-126.19533, 47.37905, -3826.9677734375], [-126.20196, 47.38007, -4590.18212890625], [-126.18919, 47.37855, -4616.4228515625], [-126.19533, 47.37905, -3826.9677734375]]], [[[-126.0613, 47.366, -3018.829345703125], [-126.0743, 47.36679, -3002.635986328125], [-126.06673, 47.36621, -3988.374267578125], [-126.0613, 47.366, -3018.829345703125]]], [[[-125.99735, 47.35887, -5260.8984375], [-126.00229, 47.35951, -4412.29296875], [-126.00998, 47.36069, -5207.58984375], [-125.99735, 47.35887, -5260.8984375]]], [[[-126.18244, 47.37803, -3836.867431640625], [-126.19533, 47.37905, -3826.9677734375], [-126.18919, 47.37855, -4616.4228515625], [-126.18244, 47.37803, -3836.867431640625]]], [[[-126.19533, 47.37905, -3826.9677734375], [-126.18244, 47.37803, -3836.867431640625], [-126.1891, 47.37855, -3114.235107421875], [-126.19533, 47.37905, -3826.9677734375]]], [[[-126.06673, 47.36621, -3988.374267578125], [-126.06087, 47.366, -4943.27490234375], [-126.05382, 47.366, -4029.345458984375], [-126.06673, 47.36621, -3988.374267578125]]], [[[-126.13839, 47.37272, -4660.5947265625], [-126.14472, 47.37339, -5530.2490234375], [-126.13185, 47.37222, -5522.94384765625], [-126.13839, 47.37272, -4660.5947265625]]], [[[-126.04092, 47.36522, -4065.7568359375], [-126.03508, 47.36455, -5060.341796875], [-126.028, 47.36346, -4097.66015625], [-126.04092, 47.36522, -4065.7568359375]]], [[[-126.04821, 47.36579, -3033.234619140625], [-126.05526, 47.366, -2075.14208984375], [-126.0613, 47.366, -3018.829345703125], [-126.04821, 47.36579, -3033.234619140625]]], [[[-126.18244, 47.37803, -3836.867431640625], [-126.17616, 47.3771, -3130.614990234375], [-126.1891, 47.37855, -3114.235107421875], [-126.18244, 47.37803, -3836.867431640625]]], [[[-126.00998, 47.36069, -5207.58984375], [-126.01694, 47.36176, -6044.396484375], [-126.00429, 47.35981, -6100.04833984375], [-126.00998, 47.36069, -5207.58984375]]], [[[-126.18244, 47.37803, -3836.867431640625], [-126.16991, 47.37614, -3953.53466796875], [-126.17616, 47.3771, -3130.614990234375], [-126.18244, 47.37803, -3836.867431640625]]], [[[-126.07376, 47.36675, -4872.66943359375], [-126.08105, 47.367, -5701.15380859375], [-126.06814, 47.36632, -5771.751953125], [-126.07376, 47.36675, -4872.66943359375]]], [[[-126.24027, 47.38396, -4563.154296875], [-126.24709, 47.38501, -5364.85302734375], [-126.23442, 47.38307, -5399.02197265625], [-126.24027, 47.38396, -4563.154296875]]], [[[-126.02257, 47.36263, -5149.5556640625], [-126.03508, 47.36455, -5060.341796875], [-126.02959, 47.36371, -5983.421875], [-126.02257, 47.36263, -5149.5556640625]]], [[[-126.03536, 47.36459, -3035.50048828125], [-126.0296, 47.36371, -2017.7900390625], [-126.04233, 47.36533, -2051.19287109375], [-126.03536, 47.36459, -3035.50048828125]]], [[[-126.03508, 47.36455, -5060.341796875], [-126.0423, 47.36533, -5911.5341796875], [-126.02959, 47.36371, -5983.421875], [-126.03508, 47.36455, -5060.341796875]]], [[[-126.16991, 47.37614, -3953.53466796875], [-126.18244, 47.37803, -3836.867431640625], [-126.17662, 47.37717, -4666.7705078125], [-126.16991, 47.37614, -3953.53466796875]]], [[[-126.028, 47.36346, -4097.66015625], [-126.02322, 47.36273, -2930.04736328125], [-126.03536, 47.36459, -3035.50048828125], [-126.028, 47.36346, -4097.66015625]]], [[[-126.0613, 47.366, -3018.829345703125], [-126.05526, 47.366, -2075.14208984375], [-126.06821, 47.36632, -2087.947998046875], [-126.0613, 47.366, -3018.829345703125]]], [[[-125.96298, 47.35546, -2568.438232421875], [-125.96409, 47.35563, -3534.294189453125], [-125.953, 47.355, -2962.1865234375], [-125.96298, 47.35546, -2568.438232421875]]], [[[-126.16991, 47.37614, -3953.53466796875], [-126.17662, 47.37717, -4666.7705078125], [-126.16357, 47.37558, -4688.1064453125], [-126.16991, 47.37614, -3953.53466796875]]], [[[-125.99092, 47.35838, -3651.927978515625], [-125.97676, 47.35729, -4050.87890625], [-125.9843, 47.35787, -2862.69384765625], [-125.99092, 47.35838, -3651.927978515625]]], [[[-126.15729, 47.3751, -3844.482177734375], [-126.16991, 47.37614, -3953.53466796875], [-126.16357, 47.37558, -4688.1064453125], [-126.15729, 47.3751, -3844.482177734375]]], [[[-126.11844, 47.37024, -3813.0615234375], [-126.10582, 47.36742, -3857.588134765625], [-126.11264, 47.36899, -3017.85791015625], [-126.11844, 47.37024, -3813.0615234375]]], [[[-126.02257, 47.36263, -5149.5556640625], [-126.02959, 47.36371, -5983.421875], [-126.01694, 47.36176, -6044.396484375], [-126.02257, 47.36263, -5149.5556640625]]], [[[-126.16991, 47.37614, -3953.53466796875], [-126.15729, 47.3751, -3844.482177734375], [-126.16384, 47.3756, -3119.241455078125], [-126.16991, 47.37614, -3953.53466796875]]], [[[-126.06087, 47.366, -4943.27490234375], [-126.06814, 47.36632, -5771.751953125], [-126.05521, 47.366, -5842.36279296875], [-126.06087, 47.366, -4943.27490234375]]], [[[-126.16991, 47.37614, -3953.53466796875], [-126.16384, 47.3756, -3119.241455078125], [-126.17616, 47.3771, -3130.614990234375], [-126.16991, 47.37614, -3953.53466796875]]], [[[-126.01651, 47.36169, -3625.640380859375], [-126.028, 47.36346, -4097.66015625], [-126.01509, 47.36148, -4374.923828125], [-126.01651, 47.36169, -3625.640380859375]]], [[[-126.14472, 47.37339, -3830.774169921875], [-126.13808, 47.3727, -3060.315673828125], [-126.1509, 47.37427, -3078.596435546875], [-126.14472, 47.37339, -3830.774169921875]]], [[[-126.16384, 47.3756, -3119.241455078125], [-126.1704, 47.37622, -2291.06298828125], [-126.17616, 47.3771, -3130.614990234375], [-126.16384, 47.3756, -3119.241455078125]]], [[[-126.04092, 47.36522, -4065.7568359375], [-126.04794, 47.36576, -5013.07568359375], [-126.03508, 47.36455, -5060.341796875], [-126.04092, 47.36522, -4065.7568359375]]], [[[-126.16384, 47.3756, -3119.241455078125], [-126.15753, 47.37512, -2265.324462890625], [-126.1704, 47.37622, -2291.06298828125], [-126.16384, 47.3756, -3119.241455078125]]], [[[-125.99735, 47.35887, -5260.8984375], [-126.00998, 47.36069, -5207.58984375], [-126.00429, 47.35981, -6100.04833984375], [-125.99735, 47.35887, -5260.8984375]]], [[[-126.17616, 47.3771, -3130.614990234375], [-126.18309, 47.37808, -2316.41943359375], [-126.1891, 47.37855, -3114.235107421875], [-126.17616, 47.3771, -3130.614990234375]]], [[[-126.18919, 47.37855, -4616.4228515625], [-126.20196, 47.38007, -4590.18212890625], [-126.19593, 47.37914, -5469.01025390625], [-126.18919, 47.37855, -4616.4228515625]]], [[[-125.97287, 47.35698, -5248.41259765625], [-125.98409, 47.35785, -5240.041015625], [-125.9786, 47.35743, -6193.9140625], [-125.97287, 47.35698, -5248.41259765625]]], [[[-126.1509, 47.37427, -3078.596435546875], [-126.15753, 47.37512, -2265.324462890625], [-126.16384, 47.3756, -3119.241455078125], [-126.1509, 47.37427, -3078.596435546875]]], [[[-125.96413, 47.35564, -4588.66748046875], [-125.97287, 47.35698, -5248.41259765625], [-125.96296, 47.35546, -5560.13525390625], [-125.96413, 47.35564, -4588.66748046875]]], [[[-126.13161, 47.3722, -3825.78125], [-126.12512, 47.37135, -3048.33544921875], [-126.13808, 47.3727, -3060.315673828125], [-126.13161, 47.3722, -3825.78125]]], [[[-126.00397, 47.35976, -3641.83935546875], [-125.99761, 47.35889, -2798.4208984375], [-126.01021, 47.36072, -2830.089599609375], [-126.00397, 47.35976, -3641.83935546875]]], [[[-126.1509, 47.37427, -3078.596435546875], [-126.1448, 47.3734, -2241.4755859375], [-126.15753, 47.37512, -2265.324462890625], [-126.1509, 47.37427, -3078.596435546875]]], [[[-125.99735, 47.35887, -5260.8984375], [-126.00429, 47.35981, -6100.04833984375], [-125.9915, 47.35842, -6151.42529296875], [-125.99735, 47.35887, -5260.8984375]]], [[[-126.11844, 47.37024, -3813.0615234375], [-126.13161, 47.3722, -3825.78125], [-126.12527, 47.37138, -4666.5634765625], [-126.11844, 47.37024, -3813.0615234375]]], [[[-126.09413, 47.367, -2112.7529296875], [-126.10694, 47.36768, -2132.503662109375], [-126.10039, 47.367, -2988.478271484375], [-126.09413, 47.367, -2112.7529296875]]], [[[-126.13808, 47.3727, -3060.315673828125], [-126.1448, 47.3734, -2241.4755859375], [-126.1509, 47.37427, -3078.596435546875], [-126.13808, 47.3727, -3060.315673828125]]], [[[-126.22103, 47.382, -3800.474365234375], [-126.20805, 47.381, -3814.727294921875], [-126.21471, 47.38152, -3136.19140625], [-126.22103, 47.382, -3800.474365234375]]], [[[-126.13195, 47.37223, -2213.098876953125], [-126.1448, 47.3734, -2241.4755859375], [-126.13808, 47.3727, -3060.315673828125], [-126.13195, 47.37223, -2213.098876953125]]], [[[-126.12512, 47.37135, -3048.33544921875], [-126.13195, 47.37223, -2213.098876953125], [-126.13808, 47.3727, -3060.315673828125], [-126.12512, 47.37135, -3048.33544921875]]], [[[-126.15113, 47.3743, -4666.46630859375], [-126.14472, 47.37339, -5530.2490234375], [-126.13839, 47.37272, -4660.5947265625], [-126.15113, 47.3743, -4666.46630859375]]], [[[-126.14472, 47.37339, -3830.774169921875], [-126.15729, 47.3751, -3844.482177734375], [-126.15113, 47.3743, -4666.46630859375], [-126.14472, 47.37339, -3830.774169921875]]], [[[-126.00229, 47.35951, -4412.29296875], [-125.99735, 47.35887, -5260.8984375], [-125.9897, 47.35829, -4459.6787109375], [-126.00229, 47.35951, -4412.29296875]]], [[[-126.11264, 47.36899, -3017.85791015625], [-126.11928, 47.37038, -2172.609375], [-126.12512, 47.37135, -3048.33544921875], [-126.11264, 47.36899, -3017.85791015625]]], [[[-126.05382, 47.366, -4029.345458984375], [-126.04794, 47.36576, -5013.07568359375], [-126.04092, 47.36522, -4065.7568359375], [-126.05382, 47.366, -4029.345458984375]]], [[[-126.11264, 47.36899, -3017.85791015625], [-126.10694, 47.36768, -2132.503662109375], [-126.11928, 47.37038, -2172.609375], [-126.11264, 47.36899, -3017.85791015625]]], [[[-126.20196, 47.38007, -4590.18212890625], [-126.21482, 47.38153, -4576.06494140625], [-126.20861, 47.38105, -5442.787109375], [-126.20196, 47.38007, -4590.18212890625]]], [[[-126.01021, 47.36072, -2830.089599609375], [-126.00429, 47.35981, -1946.9097900390625], [-126.01694, 47.36176, -1982.349365234375], [-126.01021, 47.36072, -2830.089599609375]]], [[[-126.11264, 47.36899, -3017.85791015625], [-126.10582, 47.36742, -3857.588134765625], [-126.10039, 47.367, -2988.478271484375], [-126.11264, 47.36899, -3017.85791015625]]], [[[-126.12527, 47.37138, -4666.5634765625], [-126.13185, 47.37222, -5522.94384765625], [-126.11917, 47.37036, -5541.91064453125], [-126.12527, 47.37138, -4666.5634765625]]], [[[-126.00397, 47.35976, -3641.83935546875], [-126.01509, 47.36148, -4374.923828125], [-126.00229, 47.35951, -4412.29296875], [-126.00397, 47.35976, -3641.83935546875]]], [[[-126.10582, 47.36742, -3857.588134765625], [-126.11844, 47.37024, -3813.0615234375], [-126.11247, 47.36895, -4699.79052734375], [-126.10582, 47.36742, -3857.588134765625]]], [[[-126.20805, 47.381, -3814.727294921875], [-126.2019, 47.38006, -3129.626220703125], [-126.21471, 47.38152, -3136.19140625], [-126.20805, 47.381, -3814.727294921875]]], [[[-126.14472, 47.37339, -3830.774169921875], [-126.15113, 47.3743, -4666.46630859375], [-126.13839, 47.37272, -4660.5947265625], [-126.14472, 47.37339, -3830.774169921875]]], [[[-126.11247, 47.36895, -4699.79052734375], [-126.09997, 47.367, -4745.552734375], [-126.10582, 47.36742, -3857.588134765625], [-126.11247, 47.36895, -4699.79052734375]]], [[[-126.20805, 47.381, -3814.727294921875], [-126.22103, 47.382, -3800.474365234375], [-126.21482, 47.38153, -4576.06494140625], [-126.20805, 47.381, -3814.727294921875]]], [[[-126.00397, 47.35976, -3641.83935546875], [-125.99092, 47.35838, -3651.927978515625], [-125.99761, 47.35889, -2798.4208984375], [-126.00397, 47.35976, -3641.83935546875]]], [[[-126.22103, 47.382, -3800.474365234375], [-126.21471, 47.38152, -3136.19140625], [-126.2278, 47.38252, -3155.185302734375], [-126.22103, 47.382, -3800.474365234375]]], [[[-126.09997, 47.367, -4745.552734375], [-126.11247, 47.36895, -4699.79052734375], [-126.10683, 47.36765, -5587.826171875], [-126.09997, 47.367, -4745.552734375]]], [[[-126.05382, 47.366, -4029.345458984375], [-126.04092, 47.36522, -4065.7568359375], [-126.04821, 47.36579, -3033.234619140625], [-126.05382, 47.366, -4029.345458984375]]], [[[-126.2277, 47.38252, -4545.04296875], [-126.24027, 47.38396, -4563.154296875], [-126.23442, 47.38307, -5399.02197265625], [-126.2277, 47.38252, -4545.04296875]]], [[[-126.09997, 47.367, -4745.552734375], [-126.10683, 47.36765, -5587.826171875], [-126.09401, 47.367, -5633.4580078125], [-126.09997, 47.367, -4745.552734375]]], [[[-126.14472, 47.37339, -3830.774169921875], [-126.13161, 47.3722, -3825.78125], [-126.13808, 47.3727, -3060.315673828125], [-126.14472, 47.37339, -3830.774169921875]]], [[[-126.18919, 47.37855, -4616.4228515625], [-126.18304, 47.37808, -5495.2666015625], [-126.17662, 47.37717, -4666.7705078125], [-126.18919, 47.37855, -4616.4228515625]]], [[[-126.18919, 47.37855, -4616.4228515625], [-126.19593, 47.37914, -5469.01025390625], [-126.18304, 47.37808, -5495.2666015625], [-126.18919, 47.37855, -4616.4228515625]]], [[[-126.06673, 47.36621, -3988.374267578125], [-126.07376, 47.36675, -4872.66943359375], [-126.06087, 47.366, -4943.27490234375], [-126.06673, 47.36621, -3988.374267578125]]], [[[-126.08674, 47.367, -4803.341796875], [-126.09997, 47.367, -4745.552734375], [-126.09401, 47.367, -5633.4580078125], [-126.08674, 47.367, -4803.341796875]]], [[[-126.03508, 47.36455, -5060.341796875], [-126.04794, 47.36576, -5013.07568359375], [-126.0423, 47.36533, -5911.5341796875], [-126.03508, 47.36455, -5060.341796875]]], [[[-126.11247, 47.36895, -4699.79052734375], [-126.12527, 47.37138, -4666.5634765625], [-126.11917, 47.37036, -5541.91064453125], [-126.11247, 47.36895, -4699.79052734375]]], [[[-126.18244, 47.37803, -3836.867431640625], [-126.18919, 47.37855, -4616.4228515625], [-126.17662, 47.37717, -4666.7705078125], [-126.18244, 47.37803, -3836.867431640625]]], [[[-126.04794, 47.36576, -5013.07568359375], [-126.05521, 47.366, -5842.36279296875], [-126.0423, 47.36533, -5911.5341796875], [-126.04794, 47.36576, -5013.07568359375]]], [[[-125.953, 47.355, -6270.3779296875], [-125.96296, 47.35546, -5560.13525390625], [-125.96584, 47.3559, -6236.1708984375], [-125.953, 47.355, -6270.3779296875]]], [[[-126.09269, 47.367, -3908.8779296875], [-126.09997, 47.367, -4745.552734375], [-126.08674, 47.367, -4803.341796875], [-126.09269, 47.367, -3908.8779296875]]], [[[-126.25355, 47.3855, -4870.828125], [-126.26, 47.386, -4376.80322265625], [-126.26, 47.386, -5330.1015625], [-126.25355, 47.3855, -4870.828125]]], [[[-126.09269, 47.367, -3908.8779296875], [-126.10582, 47.36742, -3857.588134765625], [-126.09997, 47.367, -4745.552734375], [-126.09269, 47.367, -3908.8779296875]]], [[[-126.11247, 47.36895, -4699.79052734375], [-126.11917, 47.37036, -5541.91064453125], [-126.10683, 47.36765, -5587.826171875], [-126.11247, 47.36895, -4699.79052734375]]], [[[-126.10582, 47.36742, -3857.588134765625], [-126.09269, 47.367, -3908.8779296875], [-126.10039, 47.367, -2988.478271484375], [-126.10582, 47.36742, -3857.588134765625]]], [[[-126.2277, 47.38252, -4545.04296875], [-126.23442, 47.38307, -5399.02197265625], [-126.22152, 47.38204, -5422.615234375], [-126.2277, 47.38252, -4545.04296875]]], [[[-126.028, 47.36346, -4097.66015625], [-126.01651, 47.36169, -3625.640380859375], [-126.02322, 47.36273, -2930.04736328125], [-126.028, 47.36346, -4097.66015625]]], [[[-126.09269, 47.367, -3908.8779296875], [-126.08735, 47.367, -2991.912841796875], [-126.10039, 47.367, -2988.478271484375], [-126.09269, 47.367, -3908.8779296875]]], [[[-126.15729, 47.3751, -3844.482177734375], [-126.16357, 47.37558, -4688.1064453125], [-126.15113, 47.3743, -4666.46630859375], [-126.15729, 47.3751, -3844.482177734375]]], [[[-126.02322, 47.36273, -2930.04736328125], [-126.01694, 47.36176, -1982.349365234375], [-126.0296, 47.36371, -2017.7900390625], [-126.02322, 47.36273, -2930.04736328125]]], [[[-126.12527, 47.37138, -4666.5634765625], [-126.13839, 47.37272, -4660.5947265625], [-126.13185, 47.37222, -5522.94384765625], [-126.12527, 47.37138, -4666.5634765625]]], [[[-126.24848, 47.38511, -3983.458740234375], [-126.24709, 47.38501, -5364.85302734375], [-126.24027, 47.38396, -4563.154296875], [-126.24848, 47.38511, -3983.458740234375]]], [[[-126.07963, 47.367, -3943.920654296875], [-126.08674, 47.367, -4803.341796875], [-126.07376, 47.36675, -4872.66943359375], [-126.07963, 47.367, -3943.920654296875]]], [[[-126.15729, 47.3751, -3844.482177734375], [-126.1509, 47.37427, -3078.596435546875], [-126.16384, 47.3756, -3119.241455078125], [-126.15729, 47.3751, -3844.482177734375]]], [[[-126.07963, 47.367, -3943.920654296875], [-126.06673, 47.36621, -3988.374267578125], [-126.0743, 47.36679, -3002.635986328125], [-126.07963, 47.367, -3943.920654296875]]], [[[-125.96413, 47.35564, -4588.66748046875], [-125.953, 47.355, -5167.6474609375], [-125.953, 47.355, -4064.9169921875], [-125.96413, 47.35564, -4588.66748046875]]], [[[-126.0743, 47.36679, -3002.635986328125], [-126.08735, 47.367, -2991.912841796875], [-126.07963, 47.367, -3943.920654296875], [-126.0743, 47.36679, -3002.635986328125]]], [[[-126.0743, 47.36679, -3002.635986328125], [-126.08114, 47.367, -2100.432861328125], [-126.08735, 47.367, -2991.912841796875], [-126.0743, 47.36679, -3002.635986328125]]], [[[-126.0743, 47.36679, -3002.635986328125], [-126.06821, 47.36632, -2087.947998046875], [-126.08114, 47.367, -2100.432861328125], [-126.0743, 47.36679, -3002.635986328125]]], [[[-126.17616, 47.3771, -3130.614990234375], [-126.1704, 47.37622, -2291.06298828125], [-126.18309, 47.37808, -2316.41943359375], [-126.17616, 47.3771, -3130.614990234375]]], [[[-126.0613, 47.366, -3018.829345703125], [-126.06821, 47.36632, -2087.947998046875], [-126.0743, 47.36679, -3002.635986328125], [-126.0613, 47.366, -3018.829345703125]]], [[[-126.23441, 47.38306, -3785.894775390625], [-126.24848, 47.38511, -3983.458740234375], [-126.24027, 47.38396, -4563.154296875], [-126.23441, 47.38306, -3785.894775390625]]], [[[-126.23441, 47.38306, -3785.894775390625], [-126.24215, 47.38425, -3222.07666015625], [-126.24848, 47.38511, -3983.458740234375], [-126.23441, 47.38306, -3785.894775390625]]], [[[-126.21482, 47.38153, -4576.06494140625], [-126.2277, 47.38252, -4545.04296875], [-126.22152, 47.38204, -5422.615234375], [-126.21482, 47.38153, -4576.06494140625]]], [[[-125.96413, 47.35564, -4588.66748046875], [-125.97676, 47.35729, -4050.87890625], [-125.97287, 47.35698, -5248.41259765625], [-125.96413, 47.35564, -4588.66748046875]]], [[[-126.04821, 47.36579, -3033.234619140625], [-126.04233, 47.36533, -2051.19287109375], [-126.05526, 47.366, -2075.14208984375], [-126.04821, 47.36579, -3033.234619140625]]], [[[-126.16357, 47.37558, -4688.1064453125], [-126.17662, 47.37717, -4666.7705078125], [-126.17035, 47.37621, -5517.75146484375], [-126.16357, 47.37558, -4688.1064453125]]], [[[-126.03536, 47.36459, -3035.50048828125], [-126.04233, 47.36533, -2051.19287109375], [-126.04821, 47.36579, -3033.234619140625], [-126.03536, 47.36459, -3035.50048828125]]], [[[-126.02322, 47.36273, -2930.04736328125], [-126.0296, 47.36371, -2017.7900390625], [-126.03536, 47.36459, -3035.50048828125], [-126.02322, 47.36273, -2930.04736328125]]], [[[-126.00998, 47.36069, -5207.58984375], [-126.01509, 47.36148, -4374.923828125], [-126.02257, 47.36263, -5149.5556640625], [-126.00998, 47.36069, -5207.58984375]]], [[[-126.01021, 47.36072, -2830.089599609375], [-126.01694, 47.36176, -1982.349365234375], [-126.02322, 47.36273, -2930.04736328125], [-126.01021, 47.36072, -2830.089599609375]]], [[[-126.15113, 47.3743, -4666.46630859375], [-126.16357, 47.37558, -4688.1064453125], [-126.15746, 47.37511, -5534.71630859375], [-126.15113, 47.3743, -4666.46630859375]]], [[[-125.99761, 47.35889, -2798.4208984375], [-125.99149, 47.35842, -1918.6024169921875], [-126.00429, 47.35981, -1946.9097900390625], [-125.99761, 47.35889, -2798.4208984375]]], [[[-125.9843, 47.35787, -2862.69384765625], [-125.99149, 47.35842, -1918.6024169921875], [-125.99761, 47.35889, -2798.4208984375], [-125.9843, 47.35787, -2862.69384765625]]], [[[-125.9843, 47.35787, -2862.69384765625], [-125.9786, 47.35743, -1897.6055908203125], [-125.99149, 47.35842, -1918.6024169921875], [-125.9843, 47.35787, -2862.69384765625]]], [[[-125.97301, 47.357, -2859.662841796875], [-125.96583, 47.3559, -1878.4361572265625], [-125.9786, 47.35743, -1897.6055908203125], [-125.97301, 47.357, -2859.662841796875]]], [[[-125.953, 47.355, -1859.4560546875], [-125.96298, 47.35546, -2568.438232421875], [-125.953, 47.355, -2962.1865234375], [-125.953, 47.355, -1859.4560546875]]], [[[-125.98409, 47.35785, -5240.041015625], [-125.9915, 47.35842, -6151.42529296875], [-125.9786, 47.35743, -6193.9140625], [-125.98409, 47.35785, -5240.041015625]]], [[[-125.96413, 47.35564, -4588.66748046875], [-125.96409, 47.35563, -3534.294189453125], [-125.97676, 47.35729, -4050.87890625], [-125.96413, 47.35564, -4588.66748046875]]], [[[-125.96413, 47.35564, -4588.66748046875], [-125.953, 47.355, -4064.9169921875], [-125.96409, 47.35563, -3534.294189453125], [-125.96413, 47.35564, -4588.66748046875]]], [[[-125.99092, 47.35838, -3651.927978515625], [-125.9897, 47.35829, -4459.6787109375], [-125.97676, 47.35729, -4050.87890625], [-125.99092, 47.35838, -3651.927978515625]]], [[[-125.96296, 47.35546, -5560.13525390625], [-125.953, 47.355, -5167.6474609375], [-125.96413, 47.35564, -4588.66748046875], [-125.96296, 47.35546, -5560.13525390625]]], [[[-125.97676, 47.35729, -4050.87890625], [-125.98409, 47.35785, -5240.041015625], [-125.97287, 47.35698, -5248.41259765625], [-125.97676, 47.35729, -4050.87890625]]], [[[-126.028, 47.36346, -4097.66015625], [-126.02257, 47.36263, -5149.5556640625], [-126.01509, 47.36148, -4374.923828125], [-126.028, 47.36346, -4097.66015625]]], [[[-125.9897, 47.35829, -4459.6787109375], [-125.99735, 47.35887, -5260.8984375], [-125.98409, 47.35785, -5240.041015625], [-125.9897, 47.35829, -4459.6787109375]]], [[[-125.98409, 47.35785, -5240.041015625], [-125.99735, 47.35887, -5260.8984375], [-125.9915, 47.35842, -6151.42529296875], [-125.98409, 47.35785, -5240.041015625]]], [[[-126.20805, 47.381, -3814.727294921875], [-126.21482, 47.38153, -4576.06494140625], [-126.20196, 47.38007, -4590.18212890625], [-126.20805, 47.381, -3814.727294921875]]], [[[-126.01509, 47.36148, -4374.923828125], [-126.00998, 47.36069, -5207.58984375], [-126.00229, 47.35951, -4412.29296875], [-126.01509, 47.36148, -4374.923828125]]], [[[-126.01651, 47.36169, -3625.640380859375], [-126.01509, 47.36148, -4374.923828125], [-126.00397, 47.35976, -3641.83935546875], [-126.01651, 47.36169, -3625.640380859375]]], [[[-126.20196, 47.38007, -4590.18212890625], [-126.20861, 47.38105, -5442.787109375], [-126.19593, 47.37914, -5469.01025390625], [-126.20196, 47.38007, -4590.18212890625]]], [[[-126.05382, 47.366, -4029.345458984375], [-126.06087, 47.366, -4943.27490234375], [-126.04794, 47.36576, -5013.07568359375], [-126.05382, 47.366, -4029.345458984375]]], [[[-126.06087, 47.366, -4943.27490234375], [-126.07376, 47.36675, -4872.66943359375], [-126.06814, 47.36632, -5771.751953125], [-126.06087, 47.366, -4943.27490234375]]], [[[-126.04794, 47.36576, -5013.07568359375], [-126.06087, 47.366, -4943.27490234375], [-126.05521, 47.366, -5842.36279296875], [-126.04794, 47.36576, -5013.07568359375]]], [[[-126.07376, 47.36675, -4872.66943359375], [-126.08674, 47.367, -4803.341796875], [-126.08105, 47.367, -5701.15380859375], [-126.07376, 47.36675, -4872.66943359375]]], [[[-126.08674, 47.367, -4803.341796875], [-126.09401, 47.367, -5633.4580078125], [-126.08105, 47.367, -5701.15380859375], [-126.08674, 47.367, -4803.341796875]]], [[[-126.06673, 47.36621, -3988.374267578125], [-126.05382, 47.366, -4029.345458984375], [-126.0613, 47.366, -3018.829345703125], [-126.06673, 47.36621, -3988.374267578125]]], [[[-126.01651, 47.36169, -3625.640380859375], [-126.00397, 47.35976, -3641.83935546875], [-126.01021, 47.36072, -2830.089599609375], [-126.01651, 47.36169, -3625.640380859375]]], [[[-126.00397, 47.35976, -3641.83935546875], [-126.00229, 47.35951, -4412.29296875], [-125.99092, 47.35838, -3651.927978515625], [-126.00397, 47.35976, -3641.83935546875]]], [[[-125.99092, 47.35838, -3651.927978515625], [-126.00229, 47.35951, -4412.29296875], [-125.9897, 47.35829, -4459.6787109375], [-125.99092, 47.35838, -3651.927978515625]]], [[[-125.99092, 47.35838, -3651.927978515625], [-125.9843, 47.35787, -2862.69384765625], [-125.99761, 47.35889, -2798.4208984375], [-125.99092, 47.35838, -3651.927978515625]]], [[[-125.97676, 47.35729, -4050.87890625], [-125.97301, 47.357, -2859.662841796875], [-125.9843, 47.35787, -2862.69384765625], [-125.97676, 47.35729, -4050.87890625]]], [[[-125.96409, 47.35563, -3534.294189453125], [-125.953, 47.355, -4064.9169921875], [-125.953, 47.355, -2962.1865234375], [-125.96409, 47.35563, -3534.294189453125]]], [[[-126.24215, 47.38425, -3222.07666015625], [-126.23441, 47.38306, -3785.894775390625], [-126.2278, 47.38252, -3155.185302734375], [-126.24215, 47.38425, -3222.07666015625]]], [[[-126.13161, 47.3722, -3825.78125], [-126.14472, 47.37339, -3830.774169921875], [-126.13839, 47.37272, -4660.5947265625], [-126.13161, 47.3722, -3825.78125]]], [[[-126.12527, 47.37138, -4666.5634765625], [-126.13161, 47.3722, -3825.78125], [-126.13839, 47.37272, -4660.5947265625], [-126.12527, 47.37138, -4666.5634765625]]], [[[-126.15113, 47.3743, -4666.46630859375], [-126.15746, 47.37511, -5534.71630859375], [-126.14472, 47.37339, -5530.2490234375], [-126.15113, 47.3743, -4666.46630859375]]], [[[-126.16357, 47.37558, -4688.1064453125], [-126.17035, 47.37621, -5517.75146484375], [-126.15746, 47.37511, -5534.71630859375], [-126.16357, 47.37558, -4688.1064453125]]], [[[-126.22103, 47.382, -3800.474365234375], [-126.2277, 47.38252, -4545.04296875], [-126.21482, 47.38153, -4576.06494140625], [-126.22103, 47.382, -3800.474365234375]]], [[[-126.24027, 47.38396, -4563.154296875], [-126.2277, 47.38252, -4545.04296875], [-126.23441, 47.38306, -3785.894775390625], [-126.24027, 47.38396, -4563.154296875]]], [[[-126.21482, 47.38153, -4576.06494140625], [-126.22152, 47.38204, -5422.615234375], [-126.20861, 47.38105, -5442.787109375], [-126.21482, 47.38153, -4576.06494140625]]], [[[-126.11844, 47.37024, -3813.0615234375], [-126.11264, 47.36899, -3017.85791015625], [-126.12512, 47.37135, -3048.33544921875], [-126.11844, 47.37024, -3813.0615234375]]]]}}]}