{"type": "FeatureCollection", "features": [{"type": "Feature", "properties": {"name": "AW_WASH_59", "CFM_ID": 324, "region": "Offshore_WAOR", "primary_state/province": "WA", "secondary_state/province": null, "avg_dip": 90.0, "dip_dir": "vertical", "rake": 0, "slip_sense": "Sinistral", "fault_level": 1, "NSHM23_sliprates": null, "QFFDAgeCatBin": null, "QFFDAgeBin": null, "upper_depth": -1.7, "upper_depth_constraint": "bathymetry", "lower_depth": -7.6, "lower_depth_constraint": "megathrust", "3D_model_constraints": "trace extended at constant dip", "reference": "Ledeczi et al. (2024); Balster-Gee et al. (2023)", "nshm23_id": null, "lineage": null, "usgs_qffd_#": null, "comments": "vergence from USGS sparker line", "id": "324"}, "geometry": {"type": "MultiPolygon", "coordinates": [[[[-125.44663, 46.43536, -3341.643310546875], [-125.44034, 46.43486, -2287.646484375], [-125.45338, 46.43588, -2295.98828125], [-125.44663, 46.43536, -3341.643310546875]]], [[[-125.31078, 46.42583, -3997.6669921875], [-125.29788, 46.42484, -4014.646240234375], [-125.30352, 46.42527, -3039.493408203125], [-125.31078, 46.42583, -3997.6669921875]]], [[[-125.21221, 46.41517, -2790.079345703125], [-125.2066, 46.41443, -1877.509521484375], [-125.21954, 46.41573, -1944.9913330078125], [-125.21221, 46.41517, -2790.079345703125]]], [[[-125.34973, 46.42783, -3987.7236328125], [-125.36012, 46.428, -4877.2099609375], [-125.34696, 46.42761, -4907.9326171875], [-125.34973, 46.42783, -3987.7236328125]]], [[[-125.30352, 46.42527, -3039.493408203125], [-125.31002, 46.42577, -2147.944580078125], [-125.31638, 46.42626, -3038.373291015625], [-125.30352, 46.42527, -3039.493408203125]]], [[[-125.65273, 46.45029, -5045.6328125], [-125.662, 46.451, -4596.3994140625], [-125.662, 46.451, -5743.90478515625], [-125.65273, 46.45029, -5045.6328125]]], [[[-125.19183, 46.41253, -6156.142578125], [-125.20382, 46.41397, -5605.77294921875], [-125.20029, 46.41338, -6610.169921875], [-125.19183, 46.41253, -6156.142578125]]], [[[-125.27689, 46.42244, -6149.82958984375], [-125.284, 46.42354, -6990.1279296875], [-125.27115, 46.42176, -7054.541015625], [-125.27689, 46.42244, -6149.82958984375]]], [[[-125.26984, 46.42165, -5383.32177734375], [-125.26393, 46.42116, -6214.23046875], [-125.25664, 46.42059, -5417.64892578125], [-125.26984, 46.42165, -5383.32177734375]]], [[[-125.27765, 46.42256, -3031.235595703125], [-125.28399, 46.42354, -2149.63525390625], [-125.29053, 46.42427, -3050.12255859375], [-125.27765, 46.42256, -3031.235595703125]]], [[[-125.27647, 46.42238, -4657.83935546875], [-125.27097, 46.42175, -3878.830078125], [-125.28481, 46.42366, -4035.587890625], [-125.27647, 46.42238, -4657.83935546875]]], [[[-125.65081, 46.45014, -4031.402587890625], [-125.662, 46.451, -4596.3994140625], [-125.65273, 46.45029, -5045.6328125], [-125.65081, 46.45014, -4031.402587890625]]], [[[-125.31575, 46.42621, -5942.6220703125], [-125.3289, 46.427, -5900.57763671875], [-125.32303, 46.42677, -6808.7001953125], [-125.31575, 46.42621, -5942.6220703125]]], [[[-125.2176, 46.41559, -5548.21728515625], [-125.22522, 46.41634, -6419.98291015625], [-125.21215, 46.41517, -6486.61962890625], [-125.2176, 46.41559, -5548.21728515625]]], [[[-125.38175, 46.42929, -3118.8896484375], [-125.37538, 46.4288, -2238.59375], [-125.38842, 46.4298, -2252.291015625], [-125.38175, 46.42929, -3118.8896484375]]], [[[-125.65081, 46.45014, -4031.402587890625], [-125.662, 46.451, -3448.894287109375], [-125.662, 46.451, -4596.3994140625], [-125.65081, 46.45014, -4031.402587890625]]], [[[-125.38175, 46.42929, -3118.8896484375], [-125.38842, 46.4298, -2252.291015625], [-125.39483, 46.4303, -3130.50927734375], [-125.38175, 46.42929, -3118.8896484375]]], [[[-125.36824, 46.42825, -5746.99658203125], [-125.37327, 46.42864, -4847.15283203125], [-125.38129, 46.42925, -5696.17041015625], [-125.36824, 46.42825, -5746.99658203125]]], [[[-125.39483, 46.4303, -3130.50927734375], [-125.40146, 46.4308, -2261.751953125], [-125.40789, 46.4313, -3139.498046875], [-125.39483, 46.4303, -3130.50927734375]]], [[[-125.29482, 46.4246, -5046.78857421875], [-125.28308, 46.4234, -5242.865234375], [-125.28481, 46.42366, -4035.587890625], [-125.29482, 46.4246, -5046.78857421875]]], [[[-125.65081, 46.45014, -4031.402587890625], [-125.65273, 46.45029, -3006.960205078125], [-125.662, 46.451, -3448.894287109375], [-125.65081, 46.45014, -4031.402587890625]]], [[[-125.20364, 46.41394, -3660.093017578125], [-125.20029, 46.41338, -2668.913330078125], [-125.21221, 46.41517, -2790.079345703125], [-125.20364, 46.41394, -3660.093017578125]]], [[[-125.36284, 46.428, -3987.92919921875], [-125.36012, 46.428, -4877.2099609375], [-125.34973, 46.42783, -3987.7236328125], [-125.36284, 46.428, -3987.92919921875]]], [[[-125.29053, 46.42427, -3050.12255859375], [-125.29698, 46.42477, -2147.5234375], [-125.30352, 46.42527, -3039.493408203125], [-125.29053, 46.42427, -3050.12255859375]]], [[[-125.65081, 46.45014, -4031.402587890625], [-125.64205, 46.44947, -3186.844482421875], [-125.65273, 46.45029, -3006.960205078125], [-125.65081, 46.45014, -4031.402587890625]]], [[[-125.40789, 46.4313, -3139.498046875], [-125.4145, 46.43181, -2270.250244140625], [-125.42086, 46.43259, -3147.935791015625], [-125.40789, 46.4313, -3139.498046875]]], [[[-125.21215, 46.41517, -6486.61962890625], [-125.21955, 46.41573, -7327.68115234375], [-125.20661, 46.41443, -7401.41259765625], [-125.21215, 46.41517, -6486.61962890625]]], [[[-125.40789, 46.4313, -3139.498046875], [-125.40146, 46.4308, -2261.751953125], [-125.4145, 46.43181, -2270.250244140625], [-125.40789, 46.4313, -3139.498046875]]], [[[-125.25664, 46.42059, -5417.64892578125], [-125.25086, 46.42014, -6281.0302734375], [-125.24365, 46.41918, -5451.27001953125], [-125.25664, 46.42059, -5417.64892578125]]], [[[-125.30352, 46.42527, -3039.493408203125], [-125.29698, 46.42477, -2147.5234375], [-125.31002, 46.42577, -2147.944580078125], [-125.30352, 46.42527, -3039.493408203125]]], [[[-125.23086, 46.41721, -5520.96337890625], [-125.22522, 46.41634, -6419.98291015625], [-125.2176, 46.41559, -5548.21728515625], [-125.23086, 46.41721, -5520.96337890625]]], [[[-125.31638, 46.42626, -3038.373291015625], [-125.32306, 46.42677, -2164.903564453125], [-125.32936, 46.427, -3049.096435546875], [-125.31638, 46.42626, -3038.373291015625]]], [[[-125.23803, 46.41831, -6349.8232421875], [-125.24519, 46.41941, -7187.646484375], [-125.2324, 46.41745, -7256.50146484375], [-125.23803, 46.41831, -6349.8232421875]]], [[[-125.41502, 46.43185, -3969.357421875], [-125.42579, 46.43335, -4719.18603515625], [-125.41262, 46.43166, -4756.23583984375], [-125.41502, 46.43185, -3969.357421875]]], [[[-125.63708, 46.44908, -4079.812744140625], [-125.64205, 46.44947, -3186.844482421875], [-125.65081, 46.45014, -4031.402587890625], [-125.63708, 46.44908, -4079.812744140625]]], [[[-125.35513, 46.428, -5798.9482421875], [-125.36012, 46.428, -4877.2099609375], [-125.36824, 46.42825, -5746.99658203125], [-125.35513, 46.428, -5798.9482421875]]], [[[-125.45965, 46.436, -3325.391357421875], [-125.45338, 46.43588, -2295.98828125], [-125.4665, 46.436, -2304.12890625], [-125.45965, 46.436, -3325.391357421875]]], [[[-125.2635, 46.42112, -4659.5234375], [-125.26984, 46.42165, -5383.32177734375], [-125.25664, 46.42059, -5417.64892578125], [-125.2635, 46.42112, -4659.5234375]]], [[[-125.4275, 46.43362, -3954.478271484375], [-125.43916, 46.43476, -4436.5126953125], [-125.42579, 46.43335, -4719.18603515625], [-125.4275, 46.43362, -3954.478271484375]]], [[[-125.37327, 46.42864, -4847.15283203125], [-125.36824, 46.42825, -5746.99658203125], [-125.36012, 46.428, -4877.2099609375], [-125.37327, 46.42864, -4847.15283203125]]], [[[-125.4275, 46.43362, -3954.478271484375], [-125.42579, 46.43335, -4719.18603515625], [-125.41502, 46.43185, -3969.357421875], [-125.4275, 46.43362, -3954.478271484375]]], [[[-125.20029, 46.41338, -6610.169921875], [-125.21215, 46.41517, -6486.61962890625], [-125.20661, 46.41443, -7401.41259765625], [-125.20029, 46.41338, -6610.169921875]]], [[[-125.34247, 46.42727, -3070.32861328125], [-125.34922, 46.42779, -2207.330078125], [-125.35558, 46.428, -3088.85986328125], [-125.34247, 46.42727, -3070.32861328125]]], [[[-125.27647, 46.42238, -4657.83935546875], [-125.2635, 46.42112, -4659.5234375], [-125.27097, 46.42175, -3878.830078125], [-125.27647, 46.42238, -4657.83935546875]]], [[[-125.31638, 46.42626, -3038.373291015625], [-125.31002, 46.42577, -2147.944580078125], [-125.32306, 46.42677, -2164.903564453125], [-125.31638, 46.42626, -3038.373291015625]]], [[[-125.62945, 46.4485, -3176.596923828125], [-125.64205, 46.44947, -3186.844482421875], [-125.63708, 46.44908, -4079.812744140625], [-125.62945, 46.4485, -3176.596923828125]]], [[[-125.39483, 46.4303, -3130.50927734375], [-125.38842, 46.4298, -2252.291015625], [-125.40146, 46.4308, -2261.751953125], [-125.39483, 46.4303, -3130.50927734375]]], [[[-125.3289, 46.427, -5900.57763671875], [-125.33384, 46.427, -4937.75048828125], [-125.34204, 46.42723, -5852.9111328125], [-125.3289, 46.427, -5900.57763671875]]], [[[-125.27765, 46.42256, -3031.235595703125], [-125.27113, 46.42176, -2151.763916015625], [-125.28399, 46.42354, -2149.63525390625], [-125.27765, 46.42256, -3031.235595703125]]], [[[-125.27097, 46.42175, -3878.830078125], [-125.25727, 46.42064, -3852.684814453125], [-125.26445, 46.4212, -3016.987060546875], [-125.27097, 46.42175, -3878.830078125]]], [[[-125.3289, 46.427, -5900.57763671875], [-125.34204, 46.42723, -5852.9111328125], [-125.33613, 46.427, -6753.50048828125], [-125.3289, 46.427, -5900.57763671875]]], [[[-125.45942, 46.436, -5394.46533203125], [-125.46644, 46.436, -6280.07763671875], [-125.45333, 46.43587, -6319.8623046875], [-125.45942, 46.436, -5394.46533203125]]], [[[-125.2115, 46.41512, -4579.4384765625], [-125.20364, 46.41394, -3660.093017578125], [-125.21784, 46.4156, -3681.073974609375], [-125.2115, 46.41512, -4579.4384765625]]], [[[-125.62945, 46.4485, -3176.596923828125], [-125.63591, 46.44899, -2289.68603515625], [-125.64205, 46.44947, -3186.844482421875], [-125.62945, 46.4485, -3176.596923828125]]], [[[-125.43916, 46.43476, -4436.5126953125], [-125.43412, 46.43434, -3231.39013671875], [-125.44663, 46.43536, -3341.643310546875], [-125.43916, 46.43476, -4436.5126953125]]], [[[-125.34973, 46.42783, -3987.7236328125], [-125.34696, 46.42761, -4907.9326171875], [-125.33668, 46.427, -3990.37890625], [-125.34973, 46.42783, -3987.7236328125]]], [[[-125.29788, 46.42484, -4014.646240234375], [-125.31078, 46.42583, -3997.6669921875], [-125.30769, 46.42559, -5006.20849609375], [-125.29788, 46.42484, -4014.646240234375]]], [[[-125.28308, 46.4234, -5242.865234375], [-125.27689, 46.42244, -6149.82958984375], [-125.26984, 46.42165, -5383.32177734375], [-125.28308, 46.4234, -5242.865234375]]], [[[-125.62945, 46.4485, -3176.596923828125], [-125.62286, 46.44799, -2283.849365234375], [-125.63591, 46.44899, -2289.68603515625], [-125.62945, 46.4485, -3176.596923828125]]], [[[-125.26393, 46.42116, -6214.23046875], [-125.27689, 46.42244, -6149.82958984375], [-125.27115, 46.42176, -7054.541015625], [-125.26393, 46.42116, -6214.23046875]]], [[[-125.31078, 46.42583, -3997.6669921875], [-125.30352, 46.42527, -3039.493408203125], [-125.31638, 46.42626, -3038.373291015625], [-125.31078, 46.42583, -3997.6669921875]]], [[[-125.45256, 46.43581, -4416.67431640625], [-125.45965, 46.436, -3325.391357421875], [-125.46573, 46.436, -4389.3720703125], [-125.45256, 46.43581, -4416.67431640625]]], [[[-125.31575, 46.42621, -5942.6220703125], [-125.32303, 46.42677, -6808.7001953125], [-125.31, 46.42577, -6868.0537109375], [-125.31575, 46.42621, -5942.6220703125]]], [[[-125.43916, 46.43476, -4436.5126953125], [-125.43335, 46.43428, -5503.87451171875], [-125.42579, 46.43335, -4719.18603515625], [-125.43916, 46.43476, -4436.5126953125]]], [[[-125.40741, 46.43126, -5600.248046875], [-125.41445, 46.4318, -6450.39990234375], [-125.40141, 46.4308, -6496.8203125], [-125.40741, 46.43126, -5600.248046875]]], [[[-125.26445, 46.4212, -3016.987060546875], [-125.25811, 46.4207, -2136.022705078125], [-125.27113, 46.42176, -2151.763916015625], [-125.26445, 46.4212, -3016.987060546875]]], [[[-125.181, 46.411, -6585.3330078125], [-125.18728, 46.41218, -7029.80224609375], [-125.181, 46.411, -7553.34130859375], [-125.181, 46.411, -6585.3330078125]]], [[[-125.40201, 46.43085, -3974.86328125], [-125.41262, 46.43166, -4756.23583984375], [-125.3995, 46.43065, -4785.46630859375], [-125.40201, 46.43085, -3974.86328125]]], [[[-125.33384, 46.427, -4937.75048828125], [-125.3289, 46.427, -5900.57763671875], [-125.32072, 46.42659, -4970.99169921875], [-125.33384, 46.427, -4937.75048828125]]], [[[-125.62945, 46.4485, -3176.596923828125], [-125.61628, 46.44744, -3162.728515625], [-125.62286, 46.44799, -2283.849365234375], [-125.62945, 46.4485, -3176.596923828125]]], [[[-125.32365, 46.42682, -3991.558349609375], [-125.33668, 46.427, -3990.37890625], [-125.33384, 46.427, -4937.75048828125], [-125.32365, 46.42682, -3991.558349609375]]], [[[-125.61628, 46.44744, -3162.728515625], [-125.62945, 46.4485, -3176.596923828125], [-125.62288, 46.44799, -4045.4404296875], [-125.61628, 46.44744, -3162.728515625]]], [[[-125.20029, 46.41338, -6610.169921875], [-125.20661, 46.41443, -7401.41259765625], [-125.19378, 46.41268, -7474.27099609375], [-125.20029, 46.41338, -6610.169921875]]], [[[-125.35558, 46.428, -3088.85986328125], [-125.36232, 46.428, -2223.563720703125], [-125.36869, 46.42828, -3104.509765625], [-125.35558, 46.428, -3088.85986328125]]], [[[-125.25086, 46.42014, -6281.0302734375], [-125.25814, 46.4207, -7118.931640625], [-125.24519, 46.41941, -7187.646484375], [-125.25086, 46.42014, -6281.0302734375]]], [[[-125.19183, 46.41253, -6156.142578125], [-125.20029, 46.41338, -6610.169921875], [-125.19378, 46.41268, -7474.27099609375], [-125.19183, 46.41253, -6156.142578125]]], [[[-125.38896, 46.42984, -3977.692138671875], [-125.38639, 46.42965, -4815.32666015625], [-125.37591, 46.42884, -3984.678955078125], [-125.38896, 46.42984, -3977.692138671875]]], [[[-125.23803, 46.41831, -6349.8232421875], [-125.24365, 46.41918, -5451.27001953125], [-125.25086, 46.42014, -6281.0302734375], [-125.23803, 46.41831, -6349.8232421875]]], [[[-125.4204, 46.43252, -5554.47216796875], [-125.43335, 46.43428, -5503.87451171875], [-125.4273, 46.43358, -6405.37646484375], [-125.4204, 46.43252, -5554.47216796875]]], [[[-125.38639, 46.42965, -4815.32666015625], [-125.38129, 46.42925, -5696.17041015625], [-125.37327, 46.42864, -4847.15283203125], [-125.38639, 46.42965, -4815.32666015625]]], [[[-125.33668, 46.427, -3990.37890625], [-125.34696, 46.42761, -4907.9326171875], [-125.33384, 46.427, -4937.75048828125], [-125.33668, 46.427, -3990.37890625]]], [[[-125.60921, 46.44686, -4116.7890625], [-125.61628, 46.44744, -3162.728515625], [-125.62288, 46.44799, -4045.4404296875], [-125.60921, 46.44686, -4116.7890625]]], [[[-125.34696, 46.42761, -4907.9326171875], [-125.34204, 46.42723, -5852.9111328125], [-125.33384, 46.427, -4937.75048828125], [-125.34696, 46.42761, -4907.9326171875]]], [[[-125.37591, 46.42884, -3984.678955078125], [-125.37327, 46.42864, -4847.15283203125], [-125.36284, 46.428, -3987.92919921875], [-125.37591, 46.42884, -3984.678955078125]]], [[[-125.2635, 46.42112, -4659.5234375], [-125.25002, 46.42008, -4664.81591796875], [-125.25727, 46.42064, -3852.684814453125], [-125.2635, 46.42112, -4659.5234375]]], [[[-125.27689, 46.42244, -6149.82958984375], [-125.28308, 46.4234, -5242.865234375], [-125.28976, 46.42421, -6086.44580078125], [-125.27689, 46.42244, -6149.82958984375]]], [[[-125.20364, 46.41394, -3660.093017578125], [-125.19197, 46.41254, -4165.31298828125], [-125.19176, 46.41252, -3127.701904296875], [-125.20364, 46.41394, -3660.093017578125]]], [[[-125.33384, 46.427, -4937.75048828125], [-125.32072, 46.42659, -4970.99169921875], [-125.32365, 46.42682, -3991.558349609375], [-125.33384, 46.427, -4937.75048828125]]], [[[-125.20382, 46.41397, -5605.77294921875], [-125.19183, 46.41253, -6156.142578125], [-125.19195, 46.41253, -5140.70166015625], [-125.20382, 46.41397, -5605.77294921875]]], [[[-125.60921, 46.44686, -4116.7890625], [-125.60335, 46.44641, -3181.991943359375], [-125.61628, 46.44744, -3162.728515625], [-125.60921, 46.44686, -4116.7890625]]], [[[-125.35513, 46.428, -5798.9482421875], [-125.36228, 46.428, -6645.83056640625], [-125.34918, 46.42778, -6698.27587890625], [-125.35513, 46.428, -5798.9482421875]]], [[[-125.2635, 46.42112, -4659.5234375], [-125.27647, 46.42238, -4657.83935546875], [-125.26984, 46.42165, -5383.32177734375], [-125.2635, 46.42112, -4659.5234375]]], [[[-125.33668, 46.427, -3990.37890625], [-125.32936, 46.427, -3049.096435546875], [-125.34247, 46.42727, -3070.32861328125], [-125.33668, 46.427, -3990.37890625]]], [[[-125.25002, 46.42008, -4664.81591796875], [-125.2635, 46.42112, -4659.5234375], [-125.25664, 46.42059, -5417.64892578125], [-125.25002, 46.42008, -4664.81591796875]]], [[[-125.60921, 46.44686, -4116.7890625], [-125.59612, 46.44586, -4141.54833984375], [-125.60335, 46.44641, -3181.991943359375], [-125.60921, 46.44686, -4116.7890625]]], [[[-125.28976, 46.42421, -6086.44580078125], [-125.29482, 46.4246, -5046.78857421875], [-125.30271, 46.42521, -5998.05322265625], [-125.28976, 46.42421, -6086.44580078125]]], [[[-125.4204, 46.43252, -5554.47216796875], [-125.4273, 46.43358, -6405.37646484375], [-125.41445, 46.4318, -6450.39990234375], [-125.4204, 46.43252, -5554.47216796875]]], [[[-125.19195, 46.41253, -5140.70166015625], [-125.19183, 46.41253, -6156.142578125], [-125.181, 46.411, -5617.3251953125], [-125.19195, 46.41253, -5140.70166015625]]], [[[-125.32072, 46.42659, -4970.99169921875], [-125.31575, 46.42621, -5942.6220703125], [-125.30769, 46.42559, -5006.20849609375], [-125.32072, 46.42659, -4970.99169921875]]], [[[-125.42579, 46.43335, -4719.18603515625], [-125.4204, 46.43252, -5554.47216796875], [-125.41262, 46.43166, -4756.23583984375], [-125.42579, 46.43335, -4719.18603515625]]], [[[-125.19195, 46.41253, -5140.70166015625], [-125.181, 46.411, -5617.3251953125], [-125.181, 46.411, -4649.3173828125], [-125.19195, 46.41253, -5140.70166015625]]], [[[-125.2115, 46.41512, -4579.4384765625], [-125.20382, 46.41397, -5605.77294921875], [-125.20178, 46.41363, -4656.27978515625], [-125.2115, 46.41512, -4579.4384765625]]], [[[-125.60921, 46.44686, -4116.7890625], [-125.6029, 46.44638, -5024.53369140625], [-125.59612, 46.44586, -4141.54833984375], [-125.60921, 46.44686, -4116.7890625]]], [[[-125.36869, 46.42828, -3104.509765625], [-125.37538, 46.4288, -2238.59375], [-125.38175, 46.42929, -3118.8896484375], [-125.36869, 46.42828, -3104.509765625]]], [[[-125.40741, 46.43126, -5600.248046875], [-125.41262, 46.43166, -4756.23583984375], [-125.4204, 46.43252, -5554.47216796875], [-125.40741, 46.43126, -5600.248046875]]], [[[-125.2115, 46.41512, -4579.4384765625], [-125.2176, 46.41559, -5548.21728515625], [-125.20382, 46.41397, -5605.77294921875], [-125.2115, 46.41512, -4579.4384765625]]], [[[-125.30769, 46.42559, -5006.20849609375], [-125.29482, 46.4246, -5046.78857421875], [-125.29788, 46.42484, -4014.646240234375], [-125.30769, 46.42559, -5006.20849609375]]], [[[-125.29482, 46.4246, -5046.78857421875], [-125.28976, 46.42421, -6086.44580078125], [-125.28308, 46.4234, -5242.865234375], [-125.29482, 46.4246, -5046.78857421875]]], [[[-125.4204, 46.43252, -5554.47216796875], [-125.42579, 46.43335, -4719.18603515625], [-125.43335, 46.43428, -5503.87451171875], [-125.4204, 46.43252, -5554.47216796875]]], [[[-125.21215, 46.41517, -6486.61962890625], [-125.22522, 46.41634, -6419.98291015625], [-125.21955, 46.41573, -7327.68115234375], [-125.21215, 46.41517, -6486.61962890625]]], [[[-125.60921, 46.44686, -4116.7890625], [-125.61595, 46.44741, -4990.25], [-125.6029, 46.44638, -5024.53369140625], [-125.60921, 46.44686, -4116.7890625]]], [[[-125.21221, 46.41517, -2790.079345703125], [-125.21954, 46.41573, -1944.9913330078125], [-125.22527, 46.41635, -2849.454345703125], [-125.21221, 46.41517, -2790.079345703125]]], [[[-125.32936, 46.427, -3049.096435546875], [-125.33616, 46.427, -2186.638671875], [-125.34247, 46.42727, -3070.32861328125], [-125.32936, 46.427, -3049.096435546875]]], [[[-125.62288, 46.44799, -4045.4404296875], [-125.61595, 46.44741, -4990.25], [-125.60921, 46.44686, -4116.7890625], [-125.62288, 46.44799, -4045.4404296875]]], [[[-125.18728, 46.41218, -7029.80224609375], [-125.19378, 46.41268, -7474.27099609375], [-125.181, 46.411, -7553.34130859375], [-125.18728, 46.41218, -7029.80224609375]]], [[[-125.23805, 46.41832, -2914.880615234375], [-125.23238, 46.41744, -2010.55615234375], [-125.24516, 46.41941, -2075.80859375], [-125.23805, 46.41832, -2914.880615234375]]], [[[-125.25727, 46.42064, -3852.684814453125], [-125.27097, 46.42175, -3878.830078125], [-125.2635, 46.42112, -4659.5234375], [-125.25727, 46.42064, -3852.684814453125]]], [[[-125.20178, 46.41363, -4656.27978515625], [-125.19195, 46.41253, -5140.70166015625], [-125.19197, 46.41254, -4165.31298828125], [-125.20178, 46.41363, -4656.27978515625]]], [[[-125.22527, 46.41635, -2849.454345703125], [-125.23238, 46.41744, -2010.55615234375], [-125.23805, 46.41832, -2914.880615234375], [-125.22527, 46.41635, -2849.454345703125]]], [[[-125.62288, 46.44799, -4045.4404296875], [-125.62903, 46.44846, -4949.18603515625], [-125.61595, 46.44741, -4990.25], [-125.62288, 46.44799, -4045.4404296875]]], [[[-125.39436, 46.43026, -5647.23046875], [-125.40141, 46.4308, -6496.8203125], [-125.38837, 46.4298, -6544.27978515625], [-125.39436, 46.43026, -5647.23046875]]], [[[-125.27647, 46.42238, -4657.83935546875], [-125.28308, 46.4234, -5242.865234375], [-125.26984, 46.42165, -5383.32177734375], [-125.27647, 46.42238, -4657.83935546875]]], [[[-125.25086, 46.42014, -6281.0302734375], [-125.26393, 46.42116, -6214.23046875], [-125.25814, 46.4207, -7118.931640625], [-125.25086, 46.42014, -6281.0302734375]]], [[[-125.33668, 46.427, -3990.37890625], [-125.32365, 46.42682, -3991.558349609375], [-125.32936, 46.427, -3049.096435546875], [-125.33668, 46.427, -3990.37890625]]], [[[-125.30271, 46.42521, -5998.05322265625], [-125.31575, 46.42621, -5942.6220703125], [-125.31, 46.42577, -6868.0537109375], [-125.30271, 46.42521, -5998.05322265625]]], [[[-125.62288, 46.44799, -4045.4404296875], [-125.63708, 46.44908, -4079.812744140625], [-125.62903, 46.44846, -4949.18603515625], [-125.62288, 46.44799, -4045.4404296875]]], [[[-125.27647, 46.42238, -4657.83935546875], [-125.28481, 46.42366, -4035.587890625], [-125.28308, 46.4234, -5242.865234375], [-125.27647, 46.42238, -4657.83935546875]]], [[[-125.28976, 46.42421, -6086.44580078125], [-125.29697, 46.42477, -6928.021484375], [-125.284, 46.42354, -6990.1279296875], [-125.28976, 46.42421, -6086.44580078125]]], [[[-125.39436, 46.43026, -5647.23046875], [-125.3995, 46.43065, -4785.46630859375], [-125.40741, 46.43126, -5600.248046875], [-125.39436, 46.43026, -5647.23046875]]], [[[-125.63708, 46.44908, -4079.812744140625], [-125.62288, 46.44799, -4045.4404296875], [-125.62945, 46.4485, -3176.596923828125], [-125.63708, 46.44908, -4079.812744140625]]], [[[-125.38129, 46.42925, -5696.17041015625], [-125.38639, 46.42965, -4815.32666015625], [-125.39436, 46.43026, -5647.23046875], [-125.38129, 46.42925, -5696.17041015625]]], [[[-125.24365, 46.41918, -5451.27001953125], [-125.23803, 46.41831, -6349.8232421875], [-125.23086, 46.41721, -5520.96337890625], [-125.24365, 46.41918, -5451.27001953125]]], [[[-125.26393, 46.42116, -6214.23046875], [-125.27115, 46.42176, -7054.541015625], [-125.25814, 46.4207, -7118.931640625], [-125.26393, 46.42116, -6214.23046875]]], [[[-125.40741, 46.43126, -5600.248046875], [-125.4204, 46.43252, -5554.47216796875], [-125.41445, 46.4318, -6450.39990234375], [-125.40741, 46.43126, -5600.248046875]]], [[[-125.63708, 46.44908, -4079.812744140625], [-125.64205, 46.44947, -4921.75439453125], [-125.62903, 46.44846, -4949.18603515625], [-125.63708, 46.44908, -4079.812744140625]]], [[[-125.3995, 46.43065, -4785.46630859375], [-125.39436, 46.43026, -5647.23046875], [-125.38639, 46.42965, -4815.32666015625], [-125.3995, 46.43065, -4785.46630859375]]], [[[-125.22522, 46.41634, -6419.98291015625], [-125.2324, 46.41745, -7256.50146484375], [-125.21955, 46.41573, -7327.68115234375], [-125.22522, 46.41634, -6419.98291015625]]], [[[-125.63708, 46.44908, -4079.812744140625], [-125.65081, 46.45014, -4031.402587890625], [-125.64205, 46.44947, -4921.75439453125], [-125.63708, 46.44908, -4079.812744140625]]], [[[-125.30271, 46.42521, -5998.05322265625], [-125.31, 46.42577, -6868.0537109375], [-125.29697, 46.42477, -6928.021484375], [-125.30271, 46.42521, -5998.05322265625]]], [[[-125.2115, 46.41512, -4579.4384765625], [-125.22374, 46.41611, -4580.896484375], [-125.2176, 46.41559, -5548.21728515625], [-125.2115, 46.41512, -4579.4384765625]]], [[[-125.65081, 46.45014, -4031.402587890625], [-125.65273, 46.45029, -5045.6328125], [-125.64205, 46.44947, -4921.75439453125], [-125.65081, 46.45014, -4031.402587890625]]], [[[-125.64205, 46.44947, -4921.75439453125], [-125.65273, 46.45029, -5045.6328125], [-125.64895, 46.45, -5778.81396484375], [-125.64205, 46.44947, -4921.75439453125]]], [[[-125.32072, 46.42659, -4970.99169921875], [-125.30769, 46.42559, -5006.20849609375], [-125.31078, 46.42583, -3997.6669921875], [-125.32072, 46.42659, -4970.99169921875]]], [[[-125.38129, 46.42925, -5696.17041015625], [-125.38837, 46.4298, -6544.27978515625], [-125.37533, 46.42879, -6594.47119140625], [-125.38129, 46.42925, -5696.17041015625]]], [[[-125.36824, 46.42825, -5746.99658203125], [-125.37533, 46.42879, -6594.47119140625], [-125.36228, 46.428, -6645.83056640625], [-125.36824, 46.42825, -5746.99658203125]]], [[[-125.64205, 46.44947, -4921.75439453125], [-125.64895, 46.45, -5778.81396484375], [-125.6359, 46.44899, -5812.30517578125], [-125.64205, 46.44947, -4921.75439453125]]], [[[-125.49186, 46.43784, -4345.2900390625], [-125.49868, 46.438, -5309.47119140625], [-125.48558, 46.43735, -5336.22119140625], [-125.49186, 46.43784, -4345.2900390625]]], [[[-125.45942, 46.436, -5394.46533203125], [-125.47253, 46.43635, -5364.478515625], [-125.46644, 46.436, -6280.07763671875], [-125.45942, 46.436, -5394.46533203125]]], [[[-125.62903, 46.44846, -4949.18603515625], [-125.64205, 46.44947, -4921.75439453125], [-125.6359, 46.44899, -5812.30517578125], [-125.62903, 46.44846, -4949.18603515625]]], [[[-125.41262, 46.43166, -4756.23583984375], [-125.40741, 46.43126, -5600.248046875], [-125.3995, 46.43065, -4785.46630859375], [-125.41262, 46.43166, -4756.23583984375]]], [[[-125.31575, 46.42621, -5942.6220703125], [-125.32072, 46.42659, -4970.99169921875], [-125.3289, 46.427, -5900.57763671875], [-125.31575, 46.42621, -5942.6220703125]]], [[[-125.31078, 46.42583, -3997.6669921875], [-125.32365, 46.42682, -3991.558349609375], [-125.32072, 46.42659, -4970.99169921875], [-125.31078, 46.42583, -3997.6669921875]]], [[[-125.45942, 46.436, -5394.46533203125], [-125.46573, 46.436, -4389.3720703125], [-125.47253, 46.43635, -5364.478515625], [-125.45942, 46.436, -5394.46533203125]]], [[[-125.23805, 46.41832, -2914.880615234375], [-125.24516, 46.41941, -2075.80859375], [-125.25093, 46.42015, -2977.881103515625], [-125.23805, 46.41832, -2914.880615234375]]], [[[-125.62903, 46.44846, -4949.18603515625], [-125.6359, 46.44899, -5812.30517578125], [-125.62285, 46.44799, -5846.95263671875], [-125.62903, 46.44846, -4949.18603515625]]], [[[-125.39436, 46.43026, -5647.23046875], [-125.40741, 46.43126, -5600.248046875], [-125.40141, 46.4308, -6496.8203125], [-125.39436, 46.43026, -5647.23046875]]], [[[-125.45256, 46.43581, -4416.67431640625], [-125.45942, 46.436, -5394.46533203125], [-125.44631, 46.43533, -5430.94921875], [-125.45256, 46.43581, -4416.67431640625]]], [[[-125.45256, 46.43581, -4416.67431640625], [-125.44663, 46.43536, -3341.643310546875], [-125.45965, 46.436, -3325.391357421875], [-125.45256, 46.43581, -4416.67431640625]]], [[[-125.61595, 46.44741, -4990.25], [-125.62903, 46.44846, -4949.18603515625], [-125.62285, 46.44799, -5846.95263671875], [-125.61595, 46.44741, -4990.25]]], [[[-125.20364, 46.41394, -3660.093017578125], [-125.19176, 46.41252, -3127.701904296875], [-125.20029, 46.41338, -2668.913330078125], [-125.20364, 46.41394, -3660.093017578125]]], [[[-125.40201, 46.43085, -3974.86328125], [-125.3995, 46.43065, -4785.46630859375], [-125.38896, 46.42984, -3977.692138671875], [-125.40201, 46.43085, -3974.86328125]]], [[[-125.25002, 46.42008, -4664.81591796875], [-125.25664, 46.42059, -5417.64892578125], [-125.24365, 46.41918, -5451.27001953125], [-125.25002, 46.42008, -4664.81591796875]]], [[[-125.43335, 46.43428, -5503.87451171875], [-125.43916, 46.43476, -4436.5126953125], [-125.44631, 46.43533, -5430.94921875], [-125.43335, 46.43428, -5503.87451171875]]], [[[-125.22527, 46.41635, -2849.454345703125], [-125.21954, 46.41573, -1944.9913330078125], [-125.23238, 46.41744, -2010.55615234375], [-125.22527, 46.41635, -2849.454345703125]]], [[[-125.61595, 46.44741, -4990.25], [-125.62285, 46.44799, -5846.95263671875], [-125.60981, 46.44691, -5881.1181640625], [-125.61595, 46.44741, -4990.25]]], [[[-125.6029, 46.44638, -5024.53369140625], [-125.61595, 46.44741, -4990.25], [-125.60981, 46.44691, -5881.1181640625], [-125.6029, 46.44638, -5024.53369140625]]], [[[-125.49186, 46.43784, -4345.2900390625], [-125.48558, 46.43735, -5336.22119140625], [-125.47881, 46.43683, -4368.42919921875], [-125.49186, 46.43784, -4345.2900390625]]], [[[-125.35513, 46.428, -5798.9482421875], [-125.36824, 46.42825, -5746.99658203125], [-125.36228, 46.428, -6645.83056640625], [-125.35513, 46.428, -5798.9482421875]]], [[[-125.6029, 46.44638, -5024.53369140625], [-125.60981, 46.44691, -5881.1181640625], [-125.59677, 46.44591, -5915.50732421875], [-125.6029, 46.44638, -5024.53369140625]]], [[[-125.45256, 46.43581, -4416.67431640625], [-125.46573, 46.436, -4389.3720703125], [-125.45942, 46.436, -5394.46533203125], [-125.45256, 46.43581, -4416.67431640625]]], [[[-125.58985, 46.44537, -5059.17333984375], [-125.6029, 46.44638, -5024.53369140625], [-125.59677, 46.44591, -5915.50732421875], [-125.58985, 46.44537, -5059.17333984375]]], [[[-125.59612, 46.44586, -4141.54833984375], [-125.6029, 46.44638, -5024.53369140625], [-125.58985, 46.44537, -5059.17333984375], [-125.59612, 46.44586, -4141.54833984375]]], [[[-125.47881, 46.43683, -4368.42919921875], [-125.48558, 46.43735, -5336.22119140625], [-125.47253, 46.43635, -5364.478515625], [-125.47881, 46.43683, -4368.42919921875]]], [[[-125.59612, 46.44586, -4141.54833984375], [-125.58985, 46.44537, -5059.17333984375], [-125.58309, 46.44471, -4172.35302734375], [-125.59612, 46.44586, -4141.54833984375]]], [[[-125.59612, 46.44586, -4141.54833984375], [-125.58309, 46.44471, -4172.35302734375], [-125.59028, 46.44541, -3206.14892578125], [-125.59612, 46.44586, -4141.54833984375]]], [[[-125.50496, 46.438, -4325.67822265625], [-125.51177, 46.43837, -5272.29541015625], [-125.49868, 46.438, -5309.47119140625], [-125.50496, 46.438, -4325.67822265625]]], [[[-125.59028, 46.44541, -3206.14892578125], [-125.60335, 46.44641, -3181.991943359375], [-125.59612, 46.44586, -4141.54833984375], [-125.59028, 46.44541, -3206.14892578125]]], [[[-125.36284, 46.428, -3987.92919921875], [-125.37327, 46.42864, -4847.15283203125], [-125.36012, 46.428, -4877.2099609375], [-125.36284, 46.428, -3987.92919921875]]], [[[-125.36012, 46.428, -4877.2099609375], [-125.35513, 46.428, -5798.9482421875], [-125.34696, 46.42761, -4907.9326171875], [-125.36012, 46.428, -4877.2099609375]]], [[[-125.59028, 46.44541, -3206.14892578125], [-125.59679, 46.44591, -2294.50146484375], [-125.60335, 46.44641, -3181.991943359375], [-125.59028, 46.44541, -3206.14892578125]]], [[[-125.59028, 46.44541, -3206.14892578125], [-125.58376, 46.44481, -2307.8818359375], [-125.59679, 46.44591, -2294.50146484375], [-125.59028, 46.44541, -3206.14892578125]]], [[[-125.57737, 46.44383, -3225.355712890625], [-125.58376, 46.44481, -2307.8818359375], [-125.59028, 46.44541, -3206.14892578125], [-125.57737, 46.44383, -3225.355712890625]]], [[[-125.51804, 46.43885, -4303.21533203125], [-125.51177, 46.43837, -5272.29541015625], [-125.50496, 46.438, -4325.67822265625], [-125.51804, 46.43885, -4303.21533203125]]], [[[-125.57737, 46.44383, -3225.355712890625], [-125.57093, 46.44292, -2321.06591796875], [-125.58376, 46.44481, -2307.8818359375], [-125.57737, 46.44383, -3225.355712890625]]], [[[-125.56442, 46.44242, -3243.863525390625], [-125.57093, 46.44292, -2321.06591796875], [-125.57737, 46.44383, -3225.355712890625], [-125.56442, 46.44242, -3243.863525390625]]], [[[-125.36824, 46.42825, -5746.99658203125], [-125.38129, 46.42925, -5696.17041015625], [-125.37533, 46.42879, -6594.47119140625], [-125.36824, 46.42825, -5746.99658203125]]], [[[-125.32365, 46.42682, -3991.558349609375], [-125.31078, 46.42583, -3997.6669921875], [-125.31638, 46.42626, -3038.373291015625], [-125.32365, 46.42682, -3991.558349609375]]], [[[-125.56442, 46.44242, -3243.863525390625], [-125.55789, 46.44191, -2334.4697265625], [-125.57093, 46.44292, -2321.06591796875], [-125.56442, 46.44242, -3243.863525390625]]], [[[-125.5513, 46.44141, -3268.94580078125], [-125.55789, 46.44191, -2334.4697265625], [-125.56442, 46.44242, -3243.863525390625], [-125.5513, 46.44141, -3268.94580078125]]], [[[-125.5513, 46.44141, -3268.94580078125], [-125.54485, 46.44091, -2346.568359375], [-125.55789, 46.44191, -2334.4697265625], [-125.5513, 46.44141, -3268.94580078125]]], [[[-125.34204, 46.42723, -5852.9111328125], [-125.34918, 46.42778, -6698.27587890625], [-125.33613, 46.427, -6753.50048828125], [-125.34204, 46.42723, -5852.9111328125]]], [[[-125.53817, 46.4404, -3282.47021484375], [-125.54485, 46.44091, -2346.568359375], [-125.5513, 46.44141, -3268.94580078125], [-125.53817, 46.4404, -3282.47021484375]]], [[[-125.34204, 46.42723, -5852.9111328125], [-125.34696, 46.42761, -4907.9326171875], [-125.35513, 46.428, -5798.9482421875], [-125.34204, 46.42723, -5852.9111328125]]], [[[-125.53817, 46.4404, -3282.47021484375], [-125.5318, 46.43991, -2344.58642578125], [-125.54485, 46.44091, -2346.568359375], [-125.53817, 46.4404, -3282.47021484375]]], [[[-125.52506, 46.43939, -3288.881103515625], [-125.5318, 46.43991, -2344.58642578125], [-125.53817, 46.4404, -3282.47021484375], [-125.52506, 46.43939, -3288.881103515625]]], [[[-125.43916, 46.43476, -4436.5126953125], [-125.44663, 46.43536, -3341.643310546875], [-125.45256, 46.43581, -4416.67431640625], [-125.43916, 46.43476, -4436.5126953125]]], [[[-125.50496, 46.438, -4325.67822265625], [-125.49868, 46.438, -5309.47119140625], [-125.49186, 46.43784, -4345.2900390625], [-125.50496, 46.438, -4325.67822265625]]], [[[-125.52506, 46.43939, -3288.881103515625], [-125.51876, 46.4389, -2336.50634765625], [-125.5318, 46.43991, -2344.58642578125], [-125.52506, 46.43939, -3288.881103515625]]], [[[-125.51199, 46.43838, -3300.848876953125], [-125.51876, 46.4389, -2336.50634765625], [-125.52506, 46.43939, -3288.881103515625], [-125.51199, 46.43838, -3300.848876953125]]], [[[-125.51199, 46.43838, -3300.848876953125], [-125.50571, 46.438, -2328.42041015625], [-125.51876, 46.4389, -2336.50634765625], [-125.51199, 46.43838, -3300.848876953125]]], [[[-125.49888, 46.438, -3306.47509765625], [-125.50571, 46.438, -2328.42041015625], [-125.51199, 46.43838, -3300.848876953125], [-125.49888, 46.438, -3306.47509765625]]], [[[-125.43335, 46.43428, -5503.87451171875], [-125.44028, 46.43486, -6362.43115234375], [-125.4273, 46.43358, -6405.37646484375], [-125.43335, 46.43428, -5503.87451171875]]], [[[-125.49888, 46.438, -3306.47509765625], [-125.49259, 46.43789, -2320.295166015625], [-125.50571, 46.438, -2328.42041015625], [-125.49888, 46.438, -3306.47509765625]]], [[[-125.4858, 46.43737, -3313.3828125], [-125.49259, 46.43789, -2320.295166015625], [-125.49888, 46.438, -3306.47509765625], [-125.4858, 46.43737, -3313.3828125]]], [[[-125.4858, 46.43737, -3313.3828125], [-125.47955, 46.43689, -2312.21533203125], [-125.49259, 46.43789, -2320.295166015625], [-125.4858, 46.43737, -3313.3828125]]], [[[-125.47276, 46.43637, -3318.79150390625], [-125.47955, 46.43689, -2312.21533203125], [-125.4858, 46.43737, -3313.3828125], [-125.47276, 46.43637, -3318.79150390625]]], [[[-125.47881, 46.43683, -4368.42919921875], [-125.47253, 46.43635, -5364.478515625], [-125.46573, 46.436, -4389.3720703125], [-125.47881, 46.43683, -4368.42919921875]]], [[[-125.47276, 46.43637, -3318.79150390625], [-125.4665, 46.436, -2304.12890625], [-125.47955, 46.43689, -2312.21533203125], [-125.47276, 46.43637, -3318.79150390625]]], [[[-125.43335, 46.43428, -5503.87451171875], [-125.44631, 46.43533, -5430.94921875], [-125.44028, 46.43486, -6362.43115234375], [-125.43335, 46.43428, -5503.87451171875]]], [[[-125.45965, 46.436, -3325.391357421875], [-125.4665, 46.436, -2304.12890625], [-125.47276, 46.43637, -3318.79150390625], [-125.45965, 46.436, -3325.391357421875]]], [[[-125.44663, 46.43536, -3341.643310546875], [-125.45338, 46.43588, -2295.98828125], [-125.45965, 46.436, -3325.391357421875], [-125.44663, 46.43536, -3341.643310546875]]], [[[-125.38896, 46.42984, -3977.692138671875], [-125.3995, 46.43065, -4785.46630859375], [-125.38639, 46.42965, -4815.32666015625], [-125.38896, 46.42984, -3977.692138671875]]], [[[-125.44663, 46.43536, -3341.643310546875], [-125.43412, 46.43434, -3231.39013671875], [-125.44034, 46.43486, -2287.646484375], [-125.44663, 46.43536, -3341.643310546875]]], [[[-125.43916, 46.43476, -4436.5126953125], [-125.4275, 46.43362, -3954.478271484375], [-125.43412, 46.43434, -3231.39013671875], [-125.43916, 46.43476, -4436.5126953125]]], [[[-125.4275, 46.43362, -3954.478271484375], [-125.41502, 46.43185, -3969.357421875], [-125.42086, 46.43259, -3147.935791015625], [-125.4275, 46.43362, -3954.478271484375]]], [[[-125.19183, 46.41253, -6156.142578125], [-125.181, 46.411, -6585.3330078125], [-125.181, 46.411, -5617.3251953125], [-125.19183, 46.41253, -6156.142578125]]], [[[-125.4275, 46.43362, -3954.478271484375], [-125.42086, 46.43259, -3147.935791015625], [-125.43412, 46.43434, -3231.39013671875], [-125.4275, 46.43362, -3954.478271484375]]], [[[-125.42086, 46.43259, -3147.935791015625], [-125.42736, 46.43359, -2278.62548828125], [-125.43412, 46.43434, -3231.39013671875], [-125.42086, 46.43259, -3147.935791015625]]], [[[-125.42086, 46.43259, -3147.935791015625], [-125.4145, 46.43181, -2270.250244140625], [-125.42736, 46.43359, -2278.62548828125], [-125.42086, 46.43259, -3147.935791015625]]], [[[-125.36869, 46.42828, -3104.509765625], [-125.36232, 46.428, -2223.563720703125], [-125.37538, 46.4288, -2238.59375], [-125.36869, 46.42828, -3104.509765625]]], [[[-125.35558, 46.428, -3088.85986328125], [-125.34922, 46.42779, -2207.330078125], [-125.36232, 46.428, -2223.563720703125], [-125.35558, 46.428, -3088.85986328125]]], [[[-125.34247, 46.42727, -3070.32861328125], [-125.33616, 46.427, -2186.638671875], [-125.34922, 46.42779, -2207.330078125], [-125.34247, 46.42727, -3070.32861328125]]], [[[-125.32936, 46.427, -3049.096435546875], [-125.32306, 46.42677, -2164.903564453125], [-125.33616, 46.427, -2186.638671875], [-125.32936, 46.427, -3049.096435546875]]], [[[-125.29053, 46.42427, -3050.12255859375], [-125.28399, 46.42354, -2149.63525390625], [-125.29698, 46.42477, -2147.5234375], [-125.29053, 46.42427, -3050.12255859375]]], [[[-125.26445, 46.4212, -3016.987060546875], [-125.27113, 46.42176, -2151.763916015625], [-125.27765, 46.42256, -3031.235595703125], [-125.26445, 46.4212, -3016.987060546875]]], [[[-125.41502, 46.43185, -3969.357421875], [-125.41262, 46.43166, -4756.23583984375], [-125.40201, 46.43085, -3974.86328125], [-125.41502, 46.43185, -3969.357421875]]], [[[-125.25093, 46.42015, -2977.881103515625], [-125.25811, 46.4207, -2136.022705078125], [-125.26445, 46.4212, -3016.987060546875], [-125.25093, 46.42015, -2977.881103515625]]], [[[-125.27689, 46.42244, -6149.82958984375], [-125.28976, 46.42421, -6086.44580078125], [-125.284, 46.42354, -6990.1279296875], [-125.27689, 46.42244, -6149.82958984375]]], [[[-125.25093, 46.42015, -2977.881103515625], [-125.24516, 46.41941, -2075.80859375], [-125.25811, 46.4207, -2136.022705078125], [-125.25093, 46.42015, -2977.881103515625]]], [[[-125.25086, 46.42014, -6281.0302734375], [-125.25664, 46.42059, -5417.64892578125], [-125.26393, 46.42116, -6214.23046875], [-125.25086, 46.42014, -6281.0302734375]]], [[[-125.21221, 46.41517, -2790.079345703125], [-125.20029, 46.41338, -2668.913330078125], [-125.2066, 46.41443, -1877.509521484375], [-125.21221, 46.41517, -2790.079345703125]]], [[[-125.26393, 46.42116, -6214.23046875], [-125.26984, 46.42165, -5383.32177734375], [-125.27689, 46.42244, -6149.82958984375], [-125.26393, 46.42116, -6214.23046875]]], [[[-125.27097, 46.42175, -3878.830078125], [-125.26445, 46.4212, -3016.987060546875], [-125.27765, 46.42256, -3031.235595703125], [-125.27097, 46.42175, -3878.830078125]]], [[[-125.23086, 46.41721, -5520.96337890625], [-125.23803, 46.41831, -6349.8232421875], [-125.22522, 46.41634, -6419.98291015625], [-125.23086, 46.41721, -5520.96337890625]]], [[[-125.28481, 46.42366, -4035.587890625], [-125.27097, 46.42175, -3878.830078125], [-125.27765, 46.42256, -3031.235595703125], [-125.28481, 46.42366, -4035.587890625]]], [[[-125.20364, 46.41394, -3660.093017578125], [-125.20178, 46.41363, -4656.27978515625], [-125.19197, 46.41254, -4165.31298828125], [-125.20364, 46.41394, -3660.093017578125]]], [[[-125.20364, 46.41394, -3660.093017578125], [-125.2115, 46.41512, -4579.4384765625], [-125.20178, 46.41363, -4656.27978515625], [-125.20364, 46.41394, -3660.093017578125]]], [[[-125.38129, 46.42925, -5696.17041015625], [-125.39436, 46.43026, -5647.23046875], [-125.38837, 46.4298, -6544.27978515625], [-125.38129, 46.42925, -5696.17041015625]]], [[[-125.22374, 46.41611, -4580.896484375], [-125.2115, 46.41512, -4579.4384765625], [-125.21784, 46.4156, -3681.073974609375], [-125.22374, 46.41611, -4580.896484375]]], [[[-125.28976, 46.42421, -6086.44580078125], [-125.30271, 46.42521, -5998.05322265625], [-125.29697, 46.42477, -6928.021484375], [-125.28976, 46.42421, -6086.44580078125]]], [[[-125.19195, 46.41253, -5140.70166015625], [-125.20178, 46.41363, -4656.27978515625], [-125.20382, 46.41397, -5605.77294921875], [-125.19195, 46.41253, -5140.70166015625]]], [[[-125.30769, 46.42559, -5006.20849609375], [-125.30271, 46.42521, -5998.05322265625], [-125.29482, 46.4246, -5046.78857421875], [-125.30769, 46.42559, -5006.20849609375]]], [[[-125.19195, 46.41253, -5140.70166015625], [-125.181, 46.411, -4649.3173828125], [-125.19197, 46.41254, -4165.31298828125], [-125.19195, 46.41253, -5140.70166015625]]], [[[-125.19183, 46.41253, -6156.142578125], [-125.19378, 46.41268, -7474.27099609375], [-125.18728, 46.41218, -7029.80224609375], [-125.19183, 46.41253, -6156.142578125]]], [[[-125.19183, 46.41253, -6156.142578125], [-125.18728, 46.41218, -7029.80224609375], [-125.181, 46.411, -6585.3330078125], [-125.19183, 46.41253, -6156.142578125]]], [[[-125.20382, 46.41397, -5605.77294921875], [-125.21215, 46.41517, -6486.61962890625], [-125.20029, 46.41338, -6610.169921875], [-125.20382, 46.41397, -5605.77294921875]]], [[[-125.43916, 46.43476, -4436.5126953125], [-125.45256, 46.43581, -4416.67431640625], [-125.44631, 46.43533, -5430.94921875], [-125.43916, 46.43476, -4436.5126953125]]], [[[-125.22522, 46.41634, -6419.98291015625], [-125.23803, 46.41831, -6349.8232421875], [-125.2324, 46.41745, -7256.50146484375], [-125.22522, 46.41634, -6419.98291015625]]], [[[-125.37591, 46.42884, -3984.678955078125], [-125.38639, 46.42965, -4815.32666015625], [-125.37327, 46.42864, -4847.15283203125], [-125.37591, 46.42884, -3984.678955078125]]], [[[-125.2176, 46.41559, -5548.21728515625], [-125.21215, 46.41517, -6486.61962890625], [-125.20382, 46.41397, -5605.77294921875], [-125.2176, 46.41559, -5548.21728515625]]], [[[-125.34204, 46.42723, -5852.9111328125], [-125.35513, 46.428, -5798.9482421875], [-125.34918, 46.42778, -6698.27587890625], [-125.34204, 46.42723, -5852.9111328125]]], [[[-125.30271, 46.42521, -5998.05322265625], [-125.30769, 46.42559, -5006.20849609375], [-125.31575, 46.42621, -5942.6220703125], [-125.30271, 46.42521, -5998.05322265625]]], [[[-125.23803, 46.41831, -6349.8232421875], [-125.25086, 46.42014, -6281.0302734375], [-125.24519, 46.41941, -7187.646484375], [-125.23803, 46.41831, -6349.8232421875]]], [[[-125.3289, 46.427, -5900.57763671875], [-125.33613, 46.427, -6753.50048828125], [-125.32303, 46.42677, -6808.7001953125], [-125.3289, 46.427, -5900.57763671875]]], [[[-125.34973, 46.42783, -3987.7236328125], [-125.33668, 46.427, -3990.37890625], [-125.34247, 46.42727, -3070.32861328125], [-125.34973, 46.42783, -3987.7236328125]]], [[[-125.45942, 46.436, -5394.46533203125], [-125.45333, 46.43587, -6319.8623046875], [-125.44631, 46.43533, -5430.94921875], [-125.45942, 46.436, -5394.46533203125]]], [[[-125.51804, 46.43885, -4303.21533203125], [-125.52483, 46.43937, -5235.54931640625], [-125.51177, 46.43837, -5272.29541015625], [-125.51804, 46.43885, -4303.21533203125]]], [[[-125.53107, 46.43985, -4281.97412109375], [-125.52483, 46.43937, -5235.54931640625], [-125.51804, 46.43885, -4303.21533203125], [-125.53107, 46.43985, -4281.97412109375]]], [[[-125.53107, 46.43985, -4281.97412109375], [-125.53788, 46.44038, -5199.5361328125], [-125.52483, 46.43937, -5235.54931640625], [-125.53107, 46.43985, -4281.97412109375]]], [[[-125.54415, 46.44086, -4258.04833984375], [-125.53788, 46.44038, -5199.5361328125], [-125.53107, 46.43985, -4281.97412109375], [-125.54415, 46.44086, -4258.04833984375]]], [[[-125.54415, 46.44086, -4258.04833984375], [-125.55094, 46.44138, -5163.8623046875], [-125.53788, 46.44038, -5199.5361328125], [-125.54415, 46.44086, -4258.04833984375]]], [[[-125.55722, 46.44186, -4225.921875], [-125.55094, 46.44138, -5163.8623046875], [-125.54415, 46.44086, -4258.04833984375], [-125.55722, 46.44186, -4225.921875]]], [[[-125.55722, 46.44186, -4225.921875], [-125.56399, 46.44238, -5128.5810546875], [-125.55094, 46.44138, -5163.8623046875], [-125.55722, 46.44186, -4225.921875]]], [[[-125.57027, 46.44287, -4199.53076171875], [-125.56399, 46.44238, -5128.5810546875], [-125.55722, 46.44186, -4225.921875], [-125.57027, 46.44287, -4199.53076171875]]], [[[-125.57027, 46.44287, -4199.53076171875], [-125.57695, 46.44376, -5093.7724609375], [-125.56399, 46.44238, -5128.5810546875], [-125.57027, 46.44287, -4199.53076171875]]], [[[-125.58309, 46.44471, -4172.35302734375], [-125.57695, 46.44376, -5093.7724609375], [-125.57027, 46.44287, -4199.53076171875], [-125.58309, 46.44471, -4172.35302734375]]], [[[-125.58309, 46.44471, -4172.35302734375], [-125.58985, 46.44537, -5059.17333984375], [-125.57695, 46.44376, -5093.7724609375], [-125.58309, 46.44471, -4172.35302734375]]], [[[-125.57695, 46.44376, -5093.7724609375], [-125.58985, 46.44537, -5059.17333984375], [-125.58374, 46.44481, -5950.369140625], [-125.57695, 46.44376, -5093.7724609375]]], [[[-125.57695, 46.44376, -5093.7724609375], [-125.58374, 46.44481, -5950.369140625], [-125.5709, 46.44292, -5984.73486328125], [-125.57695, 46.44376, -5093.7724609375]]], [[[-125.56399, 46.44238, -5128.5810546875], [-125.57695, 46.44376, -5093.7724609375], [-125.5709, 46.44292, -5984.73486328125], [-125.56399, 46.44238, -5128.5810546875]]], [[[-125.56399, 46.44238, -5128.5810546875], [-125.5709, 46.44292, -5984.73486328125], [-125.55786, 46.44191, -6019.9365234375], [-125.56399, 46.44238, -5128.5810546875]]], [[[-125.55094, 46.44138, -5163.8623046875], [-125.56399, 46.44238, -5128.5810546875], [-125.55786, 46.44191, -6019.9365234375], [-125.55094, 46.44138, -5163.8623046875]]], [[[-125.55094, 46.44138, -5163.8623046875], [-125.55786, 46.44191, -6019.9365234375], [-125.54481, 46.44091, -6055.28857421875], [-125.55094, 46.44138, -5163.8623046875]]], [[[-125.53788, 46.44038, -5199.5361328125], [-125.55094, 46.44138, -5163.8623046875], [-125.54481, 46.44091, -6055.28857421875], [-125.53788, 46.44038, -5199.5361328125]]], [[[-125.53788, 46.44038, -5199.5361328125], [-125.54481, 46.44091, -6055.28857421875], [-125.53176, 46.4399, -6091.2470703125], [-125.53788, 46.44038, -5199.5361328125]]], [[[-125.52483, 46.43937, -5235.54931640625], [-125.53788, 46.44038, -5199.5361328125], [-125.53176, 46.4399, -6091.2470703125], [-125.52483, 46.43937, -5235.54931640625]]], [[[-125.52483, 46.43937, -5235.54931640625], [-125.53176, 46.4399, -6091.2470703125], [-125.51871, 46.4389, -6127.30908203125], [-125.52483, 46.43937, -5235.54931640625]]], [[[-125.51177, 46.43837, -5272.29541015625], [-125.52483, 46.43937, -5235.54931640625], [-125.51871, 46.4389, -6127.30908203125], [-125.51177, 46.43837, -5272.29541015625]]], [[[-125.51177, 46.43837, -5272.29541015625], [-125.51871, 46.4389, -6127.30908203125], [-125.50566, 46.438, -6164.658203125], [-125.51177, 46.43837, -5272.29541015625]]], [[[-125.49868, 46.438, -5309.47119140625], [-125.51177, 46.43837, -5272.29541015625], [-125.50566, 46.438, -6164.658203125], [-125.49868, 46.438, -5309.47119140625]]], [[[-125.49868, 46.438, -5309.47119140625], [-125.50566, 46.438, -6164.658203125], [-125.49254, 46.43789, -6201.68115234375], [-125.49868, 46.438, -5309.47119140625]]], [[[-125.48558, 46.43735, -5336.22119140625], [-125.49868, 46.438, -5309.47119140625], [-125.49254, 46.43789, -6201.68115234375], [-125.48558, 46.43735, -5336.22119140625]]], [[[-125.48558, 46.43735, -5336.22119140625], [-125.49254, 46.43789, -6201.68115234375], [-125.4795, 46.43688, -6240.521484375], [-125.48558, 46.43735, -5336.22119140625]]], [[[-125.47253, 46.43635, -5364.478515625], [-125.48558, 46.43735, -5336.22119140625], [-125.4795, 46.43688, -6240.521484375], [-125.47253, 46.43635, -5364.478515625]]], [[[-125.47253, 46.43635, -5364.478515625], [-125.4795, 46.43688, -6240.521484375], [-125.46644, 46.436, -6280.07763671875], [-125.47253, 46.43635, -5364.478515625]]], [[[-125.58985, 46.44537, -5059.17333984375], [-125.59677, 46.44591, -5915.50732421875], [-125.58374, 46.44481, -5950.369140625], [-125.58985, 46.44537, -5059.17333984375]]], [[[-125.58309, 46.44471, -4172.35302734375], [-125.57027, 46.44287, -4199.53076171875], [-125.57737, 46.44383, -3225.355712890625], [-125.58309, 46.44471, -4172.35302734375]]], [[[-125.57737, 46.44383, -3225.355712890625], [-125.59028, 46.44541, -3206.14892578125], [-125.58309, 46.44471, -4172.35302734375], [-125.57737, 46.44383, -3225.355712890625]]], [[[-125.56442, 46.44242, -3243.863525390625], [-125.57737, 46.44383, -3225.355712890625], [-125.57027, 46.44287, -4199.53076171875], [-125.56442, 46.44242, -3243.863525390625]]], [[[-125.57027, 46.44287, -4199.53076171875], [-125.55722, 46.44186, -4225.921875], [-125.56442, 46.44242, -3243.863525390625], [-125.57027, 46.44287, -4199.53076171875]]], [[[-125.5513, 46.44141, -3268.94580078125], [-125.56442, 46.44242, -3243.863525390625], [-125.55722, 46.44186, -4225.921875], [-125.5513, 46.44141, -3268.94580078125]]], [[[-125.55722, 46.44186, -4225.921875], [-125.54415, 46.44086, -4258.04833984375], [-125.5513, 46.44141, -3268.94580078125], [-125.55722, 46.44186, -4225.921875]]], [[[-125.53817, 46.4404, -3282.47021484375], [-125.5513, 46.44141, -3268.94580078125], [-125.54415, 46.44086, -4258.04833984375], [-125.53817, 46.4404, -3282.47021484375]]], [[[-125.54415, 46.44086, -4258.04833984375], [-125.53107, 46.43985, -4281.97412109375], [-125.53817, 46.4404, -3282.47021484375], [-125.54415, 46.44086, -4258.04833984375]]], [[[-125.53107, 46.43985, -4281.97412109375], [-125.52506, 46.43939, -3288.881103515625], [-125.53817, 46.4404, -3282.47021484375], [-125.53107, 46.43985, -4281.97412109375]]], [[[-125.53107, 46.43985, -4281.97412109375], [-125.51804, 46.43885, -4303.21533203125], [-125.52506, 46.43939, -3288.881103515625], [-125.53107, 46.43985, -4281.97412109375]]], [[[-125.51804, 46.43885, -4303.21533203125], [-125.51199, 46.43838, -3300.848876953125], [-125.52506, 46.43939, -3288.881103515625], [-125.51804, 46.43885, -4303.21533203125]]], [[[-125.51804, 46.43885, -4303.21533203125], [-125.50496, 46.438, -4325.67822265625], [-125.51199, 46.43838, -3300.848876953125], [-125.51804, 46.43885, -4303.21533203125]]], [[[-125.50496, 46.438, -4325.67822265625], [-125.49888, 46.438, -3306.47509765625], [-125.51199, 46.43838, -3300.848876953125], [-125.50496, 46.438, -4325.67822265625]]], [[[-125.50496, 46.438, -4325.67822265625], [-125.49186, 46.43784, -4345.2900390625], [-125.49888, 46.438, -3306.47509765625], [-125.50496, 46.438, -4325.67822265625]]], [[[-125.49186, 46.43784, -4345.2900390625], [-125.4858, 46.43737, -3313.3828125], [-125.49888, 46.438, -3306.47509765625], [-125.49186, 46.43784, -4345.2900390625]]], [[[-125.49186, 46.43784, -4345.2900390625], [-125.47881, 46.43683, -4368.42919921875], [-125.4858, 46.43737, -3313.3828125], [-125.49186, 46.43784, -4345.2900390625]]], [[[-125.47881, 46.43683, -4368.42919921875], [-125.47276, 46.43637, -3318.79150390625], [-125.4858, 46.43737, -3313.3828125], [-125.47881, 46.43683, -4368.42919921875]]], [[[-125.47881, 46.43683, -4368.42919921875], [-125.46573, 46.436, -4389.3720703125], [-125.47276, 46.43637, -3318.79150390625], [-125.47881, 46.43683, -4368.42919921875]]], [[[-125.45965, 46.436, -3325.391357421875], [-125.47276, 46.43637, -3318.79150390625], [-125.46573, 46.436, -4389.3720703125], [-125.45965, 46.436, -3325.391357421875]]], [[[-125.44631, 46.43533, -5430.94921875], [-125.45333, 46.43587, -6319.8623046875], [-125.44028, 46.43486, -6362.43115234375], [-125.44631, 46.43533, -5430.94921875]]], [[[-125.41502, 46.43185, -3969.357421875], [-125.40201, 46.43085, -3974.86328125], [-125.40789, 46.4313, -3139.498046875], [-125.41502, 46.43185, -3969.357421875]]], [[[-125.41502, 46.43185, -3969.357421875], [-125.40789, 46.4313, -3139.498046875], [-125.42086, 46.43259, -3147.935791015625], [-125.41502, 46.43185, -3969.357421875]]], [[[-125.40201, 46.43085, -3974.86328125], [-125.39483, 46.4303, -3130.50927734375], [-125.40789, 46.4313, -3139.498046875], [-125.40201, 46.43085, -3974.86328125]]], [[[-125.40201, 46.43085, -3974.86328125], [-125.38896, 46.42984, -3977.692138671875], [-125.39483, 46.4303, -3130.50927734375], [-125.40201, 46.43085, -3974.86328125]]], [[[-125.38896, 46.42984, -3977.692138671875], [-125.38175, 46.42929, -3118.8896484375], [-125.39483, 46.4303, -3130.50927734375], [-125.38896, 46.42984, -3977.692138671875]]], [[[-125.38896, 46.42984, -3977.692138671875], [-125.37591, 46.42884, -3984.678955078125], [-125.38175, 46.42929, -3118.8896484375], [-125.38896, 46.42984, -3977.692138671875]]], [[[-125.37591, 46.42884, -3984.678955078125], [-125.36869, 46.42828, -3104.509765625], [-125.38175, 46.42929, -3118.8896484375], [-125.37591, 46.42884, -3984.678955078125]]], [[[-125.37591, 46.42884, -3984.678955078125], [-125.36284, 46.428, -3987.92919921875], [-125.36869, 46.42828, -3104.509765625], [-125.37591, 46.42884, -3984.678955078125]]], [[[-125.36284, 46.428, -3987.92919921875], [-125.35558, 46.428, -3088.85986328125], [-125.36869, 46.42828, -3104.509765625], [-125.36284, 46.428, -3987.92919921875]]], [[[-125.36284, 46.428, -3987.92919921875], [-125.34973, 46.42783, -3987.7236328125], [-125.35558, 46.428, -3088.85986328125], [-125.36284, 46.428, -3987.92919921875]]], [[[-125.34973, 46.42783, -3987.7236328125], [-125.34247, 46.42727, -3070.32861328125], [-125.35558, 46.428, -3088.85986328125], [-125.34973, 46.42783, -3987.7236328125]]], [[[-125.32365, 46.42682, -3991.558349609375], [-125.31638, 46.42626, -3038.373291015625], [-125.32936, 46.427, -3049.096435546875], [-125.32365, 46.42682, -3991.558349609375]]], [[[-125.29788, 46.42484, -4014.646240234375], [-125.29053, 46.42427, -3050.12255859375], [-125.30352, 46.42527, -3039.493408203125], [-125.29788, 46.42484, -4014.646240234375]]], [[[-125.29788, 46.42484, -4014.646240234375], [-125.28481, 46.42366, -4035.587890625], [-125.29053, 46.42427, -3050.12255859375], [-125.29788, 46.42484, -4014.646240234375]]], [[[-125.28481, 46.42366, -4035.587890625], [-125.29788, 46.42484, -4014.646240234375], [-125.29482, 46.4246, -5046.78857421875], [-125.28481, 46.42366, -4035.587890625]]], [[[-125.28481, 46.42366, -4035.587890625], [-125.27765, 46.42256, -3031.235595703125], [-125.29053, 46.42427, -3050.12255859375], [-125.28481, 46.42366, -4035.587890625]]], [[[-125.25727, 46.42064, -3852.684814453125], [-125.25093, 46.42015, -2977.881103515625], [-125.26445, 46.4212, -3016.987060546875], [-125.25727, 46.42064, -3852.684814453125]]], [[[-125.25727, 46.42064, -3852.684814453125], [-125.24379, 46.4192, -3810.72998046875], [-125.25093, 46.42015, -2977.881103515625], [-125.25727, 46.42064, -3852.684814453125]]], [[[-125.24379, 46.4192, -3810.72998046875], [-125.25727, 46.42064, -3852.684814453125], [-125.25002, 46.42008, -4664.81591796875], [-125.24379, 46.4192, -3810.72998046875]]], [[[-125.25002, 46.42008, -4664.81591796875], [-125.23675, 46.41812, -4647.08203125], [-125.24379, 46.4192, -3810.72998046875], [-125.25002, 46.42008, -4664.81591796875]]], [[[-125.23675, 46.41812, -4647.08203125], [-125.25002, 46.42008, -4664.81591796875], [-125.24365, 46.41918, -5451.27001953125], [-125.23675, 46.41812, -4647.08203125]]], [[[-125.24365, 46.41918, -5451.27001953125], [-125.23086, 46.41721, -5520.96337890625], [-125.23675, 46.41812, -4647.08203125], [-125.24365, 46.41918, -5451.27001953125]]], [[[-125.22374, 46.41611, -4580.896484375], [-125.23675, 46.41812, -4647.08203125], [-125.23086, 46.41721, -5520.96337890625], [-125.22374, 46.41611, -4580.896484375]]], [[[-125.22374, 46.41611, -4580.896484375], [-125.23094, 46.41722, -3754.091064453125], [-125.23675, 46.41812, -4647.08203125], [-125.22374, 46.41611, -4580.896484375]]], [[[-125.22374, 46.41611, -4580.896484375], [-125.21784, 46.4156, -3681.073974609375], [-125.23094, 46.41722, -3754.091064453125], [-125.22374, 46.41611, -4580.896484375]]], [[[-125.23094, 46.41722, -3754.091064453125], [-125.21784, 46.4156, -3681.073974609375], [-125.22527, 46.41635, -2849.454345703125], [-125.23094, 46.41722, -3754.091064453125]]], [[[-125.23094, 46.41722, -3754.091064453125], [-125.22527, 46.41635, -2849.454345703125], [-125.23805, 46.41832, -2914.880615234375], [-125.23094, 46.41722, -3754.091064453125]]], [[[-125.24379, 46.4192, -3810.72998046875], [-125.23094, 46.41722, -3754.091064453125], [-125.23805, 46.41832, -2914.880615234375], [-125.24379, 46.4192, -3810.72998046875]]], [[[-125.23094, 46.41722, -3754.091064453125], [-125.24379, 46.4192, -3810.72998046875], [-125.23675, 46.41812, -4647.08203125], [-125.23094, 46.41722, -3754.091064453125]]], [[[-125.24379, 46.4192, -3810.72998046875], [-125.23805, 46.41832, -2914.880615234375], [-125.25093, 46.42015, -2977.881103515625], [-125.24379, 46.4192, -3810.72998046875]]], [[[-125.21784, 46.4156, -3681.073974609375], [-125.21221, 46.41517, -2790.079345703125], [-125.22527, 46.41635, -2849.454345703125], [-125.21784, 46.4156, -3681.073974609375]]], [[[-125.21784, 46.4156, -3681.073974609375], [-125.20364, 46.41394, -3660.093017578125], [-125.21221, 46.41517, -2790.079345703125], [-125.21784, 46.4156, -3681.073974609375]]], [[[-125.22374, 46.41611, -4580.896484375], [-125.23086, 46.41721, -5520.96337890625], [-125.2176, 46.41559, -5548.21728515625], [-125.22374, 46.41611, -4580.896484375]]], [[[-125.19197, 46.41254, -4165.31298828125], [-125.181, 46.411, -4649.3173828125], [-125.181, 46.411, -3681.30908203125], [-125.19197, 46.41254, -4165.31298828125]]], [[[-125.19197, 46.41254, -4165.31298828125], [-125.181, 46.411, -3681.30908203125], [-125.19176, 46.41252, -3127.701904296875], [-125.19197, 46.41254, -4165.31298828125]]], [[[-125.19176, 46.41252, -3127.701904296875], [-125.181, 46.411, -3681.30908203125], [-125.181, 46.411, -2713.301025390625], [-125.19176, 46.41252, -3127.701904296875]]], [[[-125.19176, 46.41252, -3127.701904296875], [-125.181, 46.411, -2713.301025390625], [-125.18728, 46.41218, -2260.857421875], [-125.19176, 46.41252, -3127.701904296875]]], [[[-125.19176, 46.41252, -3127.701904296875], [-125.18728, 46.41218, -2260.857421875], [-125.19379, 46.41268, -1808.4140625], [-125.19176, 46.41252, -3127.701904296875]]], [[[-125.19176, 46.41252, -3127.701904296875], [-125.19379, 46.41268, -1808.4140625], [-125.20029, 46.41338, -2668.913330078125], [-125.19176, 46.41252, -3127.701904296875]]], [[[-125.20029, 46.41338, -2668.913330078125], [-125.19379, 46.41268, -1808.4140625], [-125.2066, 46.41443, -1877.509521484375], [-125.20029, 46.41338, -2668.913330078125]]], [[[-125.181, 46.411, -1745.29296875], [-125.19379, 46.41268, -1808.4140625], [-125.18728, 46.41218, -2260.857421875], [-125.181, 46.411, -1745.29296875]]], [[[-125.181, 46.411, -1745.29296875], [-125.18728, 46.41218, -2260.857421875], [-125.181, 46.411, -2713.301025390625], [-125.181, 46.411, -1745.29296875]]], [[[-125.42736, 46.43359, -2278.62548828125], [-125.44034, 46.43486, -2287.646484375], [-125.43412, 46.43434, -3231.39013671875], [-125.42736, 46.43359, -2278.62548828125]]], [[[-125.59679, 46.44591, -2294.50146484375], [-125.60983, 46.44691, -2281.09716796875], [-125.60335, 46.44641, -3181.991943359375], [-125.59679, 46.44591, -2294.50146484375]]], [[[-125.60983, 46.44691, -2281.09716796875], [-125.61628, 46.44744, -3162.728515625], [-125.60335, 46.44641, -3181.991943359375], [-125.60983, 46.44691, -2281.09716796875]]], [[[-125.61628, 46.44744, -3162.728515625], [-125.60983, 46.44691, -2281.09716796875], [-125.62286, 46.44799, -2283.849365234375], [-125.61628, 46.44744, -3162.728515625]]], [[[-125.65273, 46.45029, -5045.6328125], [-125.662, 46.451, -5743.90478515625], [-125.64895, 46.45, -5778.81396484375], [-125.65273, 46.45029, -5045.6328125]]], [[[-125.64205, 46.44947, -3186.844482421875], [-125.63591, 46.44899, -2289.68603515625], [-125.64895, 46.45, -2295.53759765625], [-125.64205, 46.44947, -3186.844482421875]]], [[[-125.64205, 46.44947, -3186.844482421875], [-125.64895, 46.45, -2295.53759765625], [-125.65273, 46.45029, -3006.960205078125], [-125.64205, 46.44947, -3186.844482421875]]], [[[-125.662, 46.451, -2301.388916015625], [-125.65273, 46.45029, -3006.960205078125], [-125.64895, 46.45, -2295.53759765625], [-125.662, 46.451, -2301.388916015625]]], [[[-125.65273, 46.45029, -3006.960205078125], [-125.662, 46.451, -2301.388916015625], [-125.662, 46.451, -3448.894287109375], [-125.65273, 46.45029, -3006.960205078125]]]]}}]}