{"type": "FeatureCollection", "features": [{"type": "Feature", "properties": {"name": "AW_WASH_6", "CFM_ID": 325, "region": "Offshore_WAOR", "primary_state/province": "WA", "secondary_state/province": null, "avg_dip": 53, "dip_dir": "SW", "rake": 90, "slip_sense": "Reverse", "fault_level": 2, "NSHM23_sliprates": null, "QFFDAgeCatBin": null, "QFFDAgeBin": null, "upper_depth": -1.6, "upper_depth_constraint": "seismic imaging", "lower_depth": -3.9, "lower_depth_constraint": "soles into AW_WASH_4", "3D_model_constraints": "trace and 2 MCS lines", "reference": "Ledeczi et al. (2024); Carbotte et al. (2023)", "nshm23_id": null, "lineage": null, "usgs_qffd_#": null, "comments": "fault depth interpretation from Ledeczi et al. (2024); Carbotte et al. (2023) used to aid in model building", "id": "325"}, "geometry": {"type": "MultiPolygon", "coordinates": [[[[-126.04519, 47.60448, -3879.369873046875], [-126.04504, 47.60927, -3435.8974609375], [-126.05228, 47.6121, -3879.369873046875], [-126.04519, 47.60448, -3879.369873046875]]], [[[-126.03726, 47.60352, -3228.942138671875], [-126.04504, 47.60927, -3435.8974609375], [-126.04519, 47.60448, -3879.369873046875], [-126.03726, 47.60352, -3228.942138671875]]], [[[-126.03726, 47.60352, -3228.942138671875], [-126.04462, 47.61417, -3008.938232421875], [-126.04504, 47.60927, -3435.8974609375], [-126.03726, 47.60352, -3228.942138671875]]], [[[-126.03726, 47.60352, -3228.942138671875], [-126.03466, 47.60846, -2646.878662109375], [-126.04462, 47.61417, -3008.938232421875], [-126.03726, 47.60352, -3228.942138671875]]], [[[-126.03726, 47.60352, -3228.942138671875], [-126.02803, 47.60025, -2742.36328125], [-126.03466, 47.60846, -2646.878662109375], [-126.03726, 47.60352, -3228.942138671875]]], [[[-126.02803, 47.60025, -2742.36328125], [-126.03726, 47.60352, -3228.942138671875], [-126.02952, 47.59447, -3241.076416015625], [-126.02803, 47.60025, -2742.36328125]]], [[[-126.02055, 47.59291, -2627.943115234375], [-126.02803, 47.60025, -2742.36328125], [-126.02952, 47.59447, -3241.076416015625], [-126.02055, 47.59291, -2627.943115234375]]], [[[-126.02803, 47.60025, -2742.36328125], [-126.02055, 47.59291, -2627.943115234375], [-126.01636, 47.59757, -2105.707763671875], [-126.02803, 47.60025, -2742.36328125]]], [[[-126.02803, 47.60025, -2742.36328125], [-126.01636, 47.59757, -2105.707763671875], [-126.02285, 47.60432, -2128.2548828125], [-126.02803, 47.60025, -2742.36328125]]], [[[-126.02803, 47.60025, -2742.36328125], [-126.02285, 47.60432, -2128.2548828125], [-126.03466, 47.60846, -2646.878662109375], [-126.02803, 47.60025, -2742.36328125]]], [[[-126.02285, 47.60432, -2128.2548828125], [-126.02734, 47.61145, -2025.48876953125], [-126.03466, 47.60846, -2646.878662109375], [-126.02285, 47.60432, -2128.2548828125]]], [[[-126.02285, 47.60432, -2128.2548828125], [-126.01864, 47.61152, -1607.469970703125], [-126.02734, 47.61145, -2025.48876953125], [-126.02285, 47.60432, -2128.2548828125]]], [[[-126.02285, 47.60432, -2128.2548828125], [-126.01126, 47.60384, -1607.469970703125], [-126.01864, 47.61152, -1607.469970703125], [-126.02285, 47.60432, -2128.2548828125]]], [[[-126.01636, 47.59757, -2105.707763671875], [-126.01126, 47.60384, -1607.469970703125], [-126.02285, 47.60432, -2128.2548828125], [-126.01636, 47.59757, -2105.707763671875]]], [[[-126.01636, 47.59757, -2105.707763671875], [-126.0047, 47.59597, -1607.469970703125], [-126.01126, 47.60384, -1607.469970703125], [-126.01636, 47.59757, -2105.707763671875]]], [[[-126.01154, 47.58991, -2143.1982421875], [-126.0047, 47.59597, -1607.469970703125], [-126.01636, 47.59757, -2105.707763671875], [-126.01154, 47.58991, -2143.1982421875]]], [[[-126.01154, 47.58991, -2143.1982421875], [-126.00066, 47.58792, -1607.469970703125], [-126.0047, 47.59597, -1607.469970703125], [-126.01154, 47.58991, -2143.1982421875]]], [[[-126.01154, 47.58991, -2143.1982421875], [-126.01016, 47.58388, -2313.390869140625], [-126.00066, 47.58792, -1607.469970703125], [-126.01154, 47.58991, -2143.1982421875]]], [[[-126.01154, 47.58991, -2143.1982421875], [-126.02201, 47.58649, -3082.781005859375], [-126.01016, 47.58388, -2313.390869140625], [-126.01154, 47.58991, -2143.1982421875]]], [[[-126.01154, 47.58991, -2143.1982421875], [-126.02055, 47.59291, -2627.943115234375], [-126.02201, 47.58649, -3082.781005859375], [-126.01154, 47.58991, -2143.1982421875]]], [[[-126.02055, 47.59291, -2627.943115234375], [-126.01154, 47.58991, -2143.1982421875], [-126.01636, 47.59757, -2105.707763671875], [-126.02055, 47.59291, -2627.943115234375]]], [[[-126.02201, 47.58649, -3082.781005859375], [-126.02055, 47.59291, -2627.943115234375], [-126.02952, 47.59447, -3241.076416015625], [-126.02201, 47.58649, -3082.781005859375]]], [[[-126.02201, 47.58649, -3082.781005859375], [-126.02952, 47.59447, -3241.076416015625], [-126.03211, 47.5888, -3903.351806640625], [-126.02201, 47.58649, -3082.781005859375]]], [[[-126.02201, 47.58649, -3082.781005859375], [-126.03211, 47.5888, -3903.351806640625], [-126.0265, 47.58063, -3917.271484375], [-126.02201, 47.58649, -3082.781005859375]]], [[[-126.01773, 47.57876, -3186.18603515625], [-126.02201, 47.58649, -3082.781005859375], [-126.0265, 47.58063, -3917.271484375], [-126.01773, 47.57876, -3186.18603515625]]], [[[-126.02201, 47.58649, -3082.781005859375], [-126.01773, 47.57876, -3186.18603515625], [-126.01016, 47.58388, -2313.390869140625], [-126.02201, 47.58649, -3082.781005859375]]], [[[-126.00904, 47.57777, -2561.882080078125], [-126.01016, 47.58388, -2313.390869140625], [-126.01773, 47.57876, -3186.18603515625], [-126.00904, 47.57777, -2561.882080078125]]], [[[-126.00904, 47.57777, -2561.882080078125], [-126.00159, 47.57938, -1607.469970703125], [-126.01016, 47.58388, -2313.390869140625], [-126.00904, 47.57777, -2561.882080078125]]], [[[-126.00904, 47.57777, -2561.882080078125], [-126.00162, 47.57229, -2323.334716796875], [-126.00159, 47.57938, -1607.469970703125], [-126.00904, 47.57777, -2561.882080078125]]], [[[-126.00904, 47.57777, -2561.882080078125], [-126.01168, 47.57122, -3153.09375], [-126.00162, 47.57229, -2323.334716796875], [-126.00904, 47.57777, -2561.882080078125]]], [[[-126.00904, 47.57777, -2561.882080078125], [-126.01773, 47.57876, -3186.18603515625], [-126.01168, 47.57122, -3153.09375], [-126.00904, 47.57777, -2561.882080078125]]], [[[-126.01773, 47.57876, -3186.18603515625], [-126.02056, 47.57257, -3910.062744140625], [-126.01168, 47.57122, -3153.09375], [-126.01773, 47.57876, -3186.18603515625]]], [[[-126.01773, 47.57876, -3186.18603515625], [-126.0265, 47.58063, -3917.271484375], [-126.02056, 47.57257, -3910.062744140625], [-126.01773, 47.57876, -3186.18603515625]]], [[[-126.01373, 47.56485, -3870.063232421875], [-126.01168, 47.57122, -3153.09375], [-126.02056, 47.57257, -3910.062744140625], [-126.01373, 47.56485, -3870.063232421875]]], [[[-126.0046, 47.56476, -3028.110595703125], [-126.01168, 47.57122, -3153.09375], [-126.01373, 47.56485, -3870.063232421875], [-126.0046, 47.56476, -3028.110595703125]]], [[[-126.0046, 47.56476, -3028.110595703125], [-126.00162, 47.57229, -2323.334716796875], [-126.01168, 47.57122, -3153.09375], [-126.0046, 47.56476, -3028.110595703125]]], [[[-126.0046, 47.56476, -3028.110595703125], [-125.994, 47.5661, -2187.20703125], [-126.00162, 47.57229, -2323.334716796875], [-126.0046, 47.56476, -3028.110595703125]]], [[[-125.99644, 47.55868, -2921.492919921875], [-125.994, 47.5661, -2187.20703125], [-126.0046, 47.56476, -3028.110595703125], [-125.99644, 47.55868, -2921.492919921875]]], [[[-125.99644, 47.55868, -2921.492919921875], [-125.98626, 47.56031, -2137.691162109375], [-125.994, 47.5661, -2187.20703125], [-125.99644, 47.55868, -2921.492919921875]]], [[[-125.98676, 47.55254, -2823.508056640625], [-125.98626, 47.56031, -2137.691162109375], [-125.99644, 47.55868, -2921.492919921875], [-125.98676, 47.55254, -2823.508056640625]]], [[[-125.98676, 47.55254, -2823.508056640625], [-125.97896, 47.55401, -2162.144775390625], [-125.98626, 47.56031, -2137.691162109375], [-125.98676, 47.55254, -2823.508056640625]]], [[[-125.98676, 47.55254, -2823.508056640625], [-125.97434, 47.54652, -2449.131103515625], [-125.97896, 47.55401, -2162.144775390625], [-125.98676, 47.55254, -2823.508056640625]]], [[[-125.97434, 47.54652, -2449.131103515625], [-125.98676, 47.55254, -2823.508056640625], [-125.98605, 47.54583, -3475.357666015625], [-125.97434, 47.54652, -2449.131103515625]]], [[[-125.97434, 47.54652, -2449.131103515625], [-125.98605, 47.54583, -3475.357666015625], [-125.97672, 47.53961, -3295.39013671875], [-125.97434, 47.54652, -2449.131103515625]]], [[[-125.96612, 47.53924, -2439.127685546875], [-125.97434, 47.54652, -2449.131103515625], [-125.97672, 47.53961, -3295.39013671875], [-125.96612, 47.53924, -2439.127685546875]]], [[[-125.97434, 47.54652, -2449.131103515625], [-125.96612, 47.53924, -2439.127685546875], [-125.9621, 47.54517, -1723.3900146484375], [-125.97434, 47.54652, -2449.131103515625]]], [[[-125.97434, 47.54652, -2449.131103515625], [-125.9621, 47.54517, -1723.3900146484375], [-125.96792, 47.55306, -1703.8670654296875], [-125.97434, 47.54652, -2449.131103515625]]], [[[-125.97434, 47.54652, -2449.131103515625], [-125.96792, 47.55306, -1703.8670654296875], [-125.97896, 47.55401, -2162.144775390625], [-125.97434, 47.54652, -2449.131103515625]]], [[[-125.97896, 47.55401, -2162.144775390625], [-125.96792, 47.55306, -1703.8670654296875], [-125.97417, 47.56078, -1659.2183837890625], [-125.97896, 47.55401, -2162.144775390625]]], [[[-125.97896, 47.55401, -2162.144775390625], [-125.97417, 47.56078, -1659.2183837890625], [-125.98626, 47.56031, -2137.691162109375], [-125.97896, 47.55401, -2162.144775390625]]], [[[-125.98626, 47.56031, -2137.691162109375], [-125.97417, 47.56078, -1659.2183837890625], [-125.98176, 47.56794, -1617.6531982421875], [-125.98626, 47.56031, -2137.691162109375]]], [[[-125.98626, 47.56031, -2137.691162109375], [-125.98176, 47.56794, -1617.6531982421875], [-125.994, 47.5661, -2187.20703125], [-125.98626, 47.56031, -2137.691162109375]]], [[[-125.994, 47.5661, -2187.20703125], [-125.98176, 47.56794, -1617.6531982421875], [-125.9914, 47.57388, -1607.469970703125], [-125.994, 47.5661, -2187.20703125]]], [[[-125.994, 47.5661, -2187.20703125], [-125.9914, 47.57388, -1607.469970703125], [-126.00162, 47.57229, -2323.334716796875], [-125.994, 47.5661, -2187.20703125]]], [[[-125.9914, 47.57388, -1607.469970703125], [-126.00159, 47.57938, -1607.469970703125], [-126.00162, 47.57229, -2323.334716796875], [-125.9914, 47.57388, -1607.469970703125]]], [[[-125.96612, 47.53924, -2439.127685546875], [-125.95614, 47.53732, -1723.3900146484375], [-125.9621, 47.54517, -1723.3900146484375], [-125.96612, 47.53924, -2439.127685546875]]], [[[-125.95809, 47.53211, -2428.917236328125], [-125.95614, 47.53732, -1723.3900146484375], [-125.96612, 47.53924, -2439.127685546875], [-125.95809, 47.53211, -2428.917236328125]]], [[[-125.95809, 47.53211, -2428.917236328125], [-125.94972, 47.52965, -1723.3900146484375], [-125.95614, 47.53732, -1723.3900146484375], [-125.95809, 47.53211, -2428.917236328125]]], [[[-125.95033, 47.52486, -2414.21240234375], [-125.94972, 47.52965, -1723.3900146484375], [-125.95809, 47.53211, -2428.917236328125], [-125.95033, 47.52486, -2414.21240234375]]], [[[-125.95033, 47.52486, -2414.21240234375], [-125.94321, 47.52201, -1723.3900146484375], [-125.94972, 47.52965, -1723.3900146484375], [-125.95033, 47.52486, -2414.21240234375]]], [[[-125.94233, 47.51758, -2378.451171875], [-125.94321, 47.52201, -1723.3900146484375], [-125.95033, 47.52486, -2414.21240234375], [-125.94233, 47.51758, -2378.451171875]]], [[[-125.94233, 47.51758, -2378.451171875], [-125.9363, 47.51462, -1723.3900146484375], [-125.94321, 47.52201, -1723.3900146484375], [-125.94233, 47.51758, -2378.451171875]]], [[[-125.9363, 47.51462, -1723.3900146484375], [-125.94233, 47.51758, -2378.451171875], [-125.94208, 47.51284, -2812.99560546875], [-125.9363, 47.51462, -1723.3900146484375]]], [[[-125.9363, 47.51462, -1723.3900146484375], [-125.94208, 47.51284, -2812.99560546875], [-125.93458, 47.50586, -2803.013916015625], [-125.9363, 47.51462, -1723.3900146484375]]], [[[-125.92818, 47.50775, -1723.3900146484375], [-125.9363, 47.51462, -1723.3900146484375], [-125.93458, 47.50586, -2803.013916015625], [-125.92818, 47.50775, -1723.3900146484375]]], [[[-125.92818, 47.50775, -1723.3900146484375], [-125.93458, 47.50586, -2803.013916015625], [-125.92702, 47.4985, -2804.852294921875], [-125.92818, 47.50775, -1723.3900146484375]]], [[[-125.91996, 47.50091, -1723.3900146484375], [-125.92818, 47.50775, -1723.3900146484375], [-125.92702, 47.4985, -2804.852294921875], [-125.91996, 47.50091, -1723.3900146484375]]], [[[-125.91996, 47.50091, -1723.3900146484375], [-125.92702, 47.4985, -2804.852294921875], [-125.91859, 47.49166, -2665.407958984375], [-125.91996, 47.50091, -1723.3900146484375]]], [[[-125.9128, 47.49355, -1723.3900146484375], [-125.91996, 47.50091, -1723.3900146484375], [-125.91859, 47.49166, -2665.407958984375], [-125.9128, 47.49355, -1723.3900146484375]]], [[[-125.9128, 47.49355, -1723.3900146484375], [-125.91859, 47.49166, -2665.407958984375], [-125.91096, 47.48436, -2544.941650390625], [-125.9128, 47.49355, -1723.3900146484375]]], [[[-125.90646, 47.48585, -1723.3900146484375], [-125.9128, 47.49355, -1723.3900146484375], [-125.91096, 47.48436, -2544.941650390625], [-125.90646, 47.48585, -1723.3900146484375]]], [[[-125.90646, 47.48585, -1723.3900146484375], [-125.91096, 47.48436, -2544.941650390625], [-125.90316, 47.47713, -2444.007568359375], [-125.90646, 47.48585, -1723.3900146484375]]], [[[-125.89972, 47.47831, -1723.3900146484375], [-125.90646, 47.48585, -1723.3900146484375], [-125.90316, 47.47713, -2444.007568359375], [-125.89972, 47.47831, -1723.3900146484375]]], [[[-125.89972, 47.47831, -1723.3900146484375], [-125.90316, 47.47713, -2444.007568359375], [-125.89529, 47.46997, -2308.829345703125], [-125.89972, 47.47831, -1723.3900146484375]]], [[[-125.89241, 47.47102, -1723.3900146484375], [-125.89972, 47.47831, -1723.3900146484375], [-125.89529, 47.46997, -2308.829345703125], [-125.89241, 47.47102, -1723.3900146484375]]], [[[-125.89241, 47.47102, -1723.3900146484375], [-125.89529, 47.46997, -2308.829345703125], [-125.88779, 47.46264, -2172.566162109375], [-125.89241, 47.47102, -1723.3900146484375]]], [[[-125.8855, 47.46356, -1723.3900146484375], [-125.89241, 47.47102, -1723.3900146484375], [-125.88779, 47.46264, -2172.566162109375], [-125.8855, 47.46356, -1723.3900146484375]]], [[[-125.8855, 47.46356, -1723.3900146484375], [-125.88779, 47.46264, -2172.566162109375], [-125.88128, 47.4549, -2027.596923828125], [-125.8855, 47.46356, -1723.3900146484375]]], [[[-125.88001, 47.45557, -1723.3900146484375], [-125.8855, 47.46356, -1723.3900146484375], [-125.88128, 47.4549, -2027.596923828125], [-125.88001, 47.45557, -1723.3900146484375]]], [[[-125.88001, 47.45557, -1723.3900146484375], [-125.88128, 47.4549, -2027.596923828125], [-125.87525, 47.44736, -1723.3900146484375], [-125.88001, 47.45557, -1723.3900146484375]]], [[[-125.94233, 47.51758, -2378.451171875], [-125.95022, 47.51978, -2877.40185546875], [-125.94208, 47.51284, -2812.99560546875], [-125.94233, 47.51758, -2378.451171875]]], [[[-125.94233, 47.51758, -2378.451171875], [-125.95033, 47.52486, -2414.21240234375], [-125.95022, 47.51978, -2877.40185546875], [-125.94233, 47.51758, -2378.451171875]]], [[[-125.95033, 47.52486, -2414.21240234375], [-125.95873, 47.52664, -2987.614501953125], [-125.95022, 47.51978, -2877.40185546875], [-125.95033, 47.52486, -2414.21240234375]]], [[[-125.95033, 47.52486, -2414.21240234375], [-125.95809, 47.53211, -2428.917236328125], [-125.95873, 47.52664, -2987.614501953125], [-125.95033, 47.52486, -2414.21240234375]]], [[[-125.95809, 47.53211, -2428.917236328125], [-125.96753, 47.53328, -3126.237060546875], [-125.95873, 47.52664, -2987.614501953125], [-125.95809, 47.53211, -2428.917236328125]]], [[[-125.95809, 47.53211, -2428.917236328125], [-125.96612, 47.53924, -2439.127685546875], [-125.96753, 47.53328, -3126.237060546875], [-125.95809, 47.53211, -2428.917236328125]]], [[[-125.96612, 47.53924, -2439.127685546875], [-125.97672, 47.53961, -3295.39013671875], [-125.96753, 47.53328, -3126.237060546875], [-125.96612, 47.53924, -2439.127685546875]]], [[[-125.98676, 47.55254, -2823.508056640625], [-125.99564, 47.55189, -3643.043212890625], [-125.98605, 47.54583, -3475.357666015625], [-125.98676, 47.55254, -2823.508056640625]]], [[[-125.98676, 47.55254, -2823.508056640625], [-125.99644, 47.55868, -2921.492919921875], [-125.99564, 47.55189, -3643.043212890625], [-125.98676, 47.55254, -2823.508056640625]]], [[[-125.99644, 47.55868, -2921.492919921875], [-126.00534, 47.55791, -3782.677490234375], [-125.99564, 47.55189, -3643.043212890625], [-125.99644, 47.55868, -2921.492919921875]]], [[[-125.99644, 47.55868, -2921.492919921875], [-126.0046, 47.56476, -3028.110595703125], [-126.00534, 47.55791, -3782.677490234375], [-125.99644, 47.55868, -2921.492919921875]]], [[[-126.0046, 47.56476, -3028.110595703125], [-126.01373, 47.56485, -3870.063232421875], [-126.00534, 47.55791, -3782.677490234375], [-126.0046, 47.56476, -3028.110595703125]]], [[[-126.01016, 47.58388, -2313.390869140625], [-126.00159, 47.57938, -1607.469970703125], [-126.00066, 47.58792, -1607.469970703125], [-126.01016, 47.58388, -2313.390869140625]]], [[[-126.02952, 47.59447, -3241.076416015625], [-126.03822, 47.5968, -3886.4091796875], [-126.03211, 47.5888, -3903.351806640625], [-126.02952, 47.59447, -3241.076416015625]]], [[[-126.02952, 47.59447, -3241.076416015625], [-126.03726, 47.60352, -3228.942138671875], [-126.03822, 47.5968, -3886.4091796875], [-126.02952, 47.59447, -3241.076416015625]]], [[[-126.03726, 47.60352, -3228.942138671875], [-126.04519, 47.60448, -3879.369873046875], [-126.03822, 47.5968, -3886.4091796875], [-126.03726, 47.60352, -3228.942138671875]]], [[[-126.02734, 47.61145, -2025.48876953125], [-126.01864, 47.61152, -1607.469970703125], [-126.02574, 47.61932, -1607.469970703125], [-126.02734, 47.61145, -2025.48876953125]]], [[[-126.02734, 47.61145, -2025.48876953125], [-126.02574, 47.61932, -1607.469970703125], [-126.03588, 47.61601, -2248.310546875], [-126.02734, 47.61145, -2025.48876953125]]], [[[-126.03466, 47.60846, -2646.878662109375], [-126.02734, 47.61145, -2025.48876953125], [-126.03588, 47.61601, -2248.310546875], [-126.03466, 47.60846, -2646.878662109375]]], [[[-126.03466, 47.60846, -2646.878662109375], [-126.03588, 47.61601, -2248.310546875], [-126.04462, 47.61417, -3008.938232421875], [-126.03466, 47.60846, -2646.878662109375]]], [[[-126.04504, 47.60927, -3435.8974609375], [-126.04462, 47.61417, -3008.938232421875], [-126.05228, 47.6121, -3879.369873046875], [-126.04504, 47.60927, -3435.8974609375]]]]}}]}