{"type": "FeatureCollection", "features": [{"type": "Feature", "properties": {"name": "AW_WASH_9", "CFM_ID": 329, "region": "Offshore_WAOR", "primary_state/province": "WA", "secondary_state/province": null, "avg_dip": 55, "dip_dir": "SW", "rake": 90, "slip_sense": "Reverse", "fault_level": 2, "NSHM23_sliprates": null, "QFFDAgeCatBin": null, "QFFDAgeBin": null, "upper_depth": -1.9, "upper_depth_constraint": "seismic imaging", "lower_depth": -5.9, "lower_depth_constraint": "megathrust", "3D_model_constraints": "trace and 1 MCS line", "reference": "Ledeczi et al. (2024); Carbotte et al. (2023)", "nshm23_id": null, "lineage": null, "usgs_qffd_#": null, "comments": null, "id": "329"}, "geometry": {"type": "MultiPolygon", "coordinates": [[[[-126.02873, 47.30595, -4501.9345703125], [-126.0349, 47.30089, -5335.43505859375], [-126.02647, 47.29674, -4438.58056640625], [-126.02873, 47.30595, -4501.9345703125]]], [[[-126.04312, 47.26021, -5991.52490234375], [-126.03513, 47.26475, -5285.6181640625], [-126.043, 47.2691, -6003.69580078125], [-126.04312, 47.26021, -5991.52490234375]]], [[[-126.12155, 47.38961, -4052.971435546875], [-126.12062, 47.39607, -3431.42138671875], [-126.12915, 47.39814, -4063.53271484375], [-126.12155, 47.38961, -4052.971435546875]]], [[[-126.08638, 47.35694, -3680.167236328125], [-126.09881, 47.35733, -4625.083984375], [-126.08879, 47.35191, -4827.111328125], [-126.08638, 47.35694, -3680.167236328125]]], [[[-126.10622, 47.38692, -2694.018798828125], [-126.09613, 47.38531, -1971.77001953125], [-126.10207, 47.39333, -1971.77001953125], [-126.10622, 47.38692, -2694.018798828125]]], [[[-126.14618, 47.43493, -2780.447021484375], [-126.15452, 47.44207, -3613.919921875], [-126.15322, 47.43362, -3613.919921875], [-126.14618, 47.43493, -2780.447021484375]]], [[[-126.14194, 47.41419, -3591.218994140625], [-126.1529, 47.41376, -4711.80615234375], [-126.14548, 47.40707, -4621.52587890625], [-126.14194, 47.41419, -3591.218994140625]]], [[[-126.02778, 47.27762, -4542.3134765625], [-126.03337, 47.28221, -5315.6416015625], [-126.03454, 47.27324, -5297.8193359375], [-126.02778, 47.27762, -4542.3134765625]]], [[[-126.15475, 47.45281, -2780.447021484375], [-126.14749, 47.44338, -2780.447021484375], [-126.14731, 47.45418, -1971.77001953125], [-126.15475, 47.45281, -2780.447021484375]]], [[[-126.01064, 47.2809, -2670.53857421875], [-126.02071, 47.27644, -3673.358154296875], [-126.01349, 47.27348, -2775.38525390625], [-126.01064, 47.2809, -2670.53857421875]]], [[[-126.01068, 47.2563, -2622.345703125], [-126.00223, 47.25272, -1971.77001953125], [-126.00155, 47.26169, -1971.77001953125], [-126.01068, 47.2563, -2622.345703125]]], [[[-126.03533, 47.34094, -2724.080322265625], [-126.03524, 47.34787, -1971.77001953125], [-126.04359, 47.34627, -2713.77587890625], [-126.03533, 47.34094, -2724.080322265625]]], [[[-126.13524, 47.40717, -3633.483154296875], [-126.12762, 47.40286, -3401.80859375], [-126.12573, 47.40826, -2659.119140625], [-126.13524, 47.40717, -3633.483154296875]]], [[[-126.12155, 47.38961, -4052.971435546875], [-126.11214, 47.38155, -3678.984619140625], [-126.11443, 47.38866, -3401.336181640625], [-126.12155, 47.38961, -4052.971435546875]]], [[[-126.13021, 47.39175, -4771.59716796875], [-126.13798, 47.40005, -4698.04052734375], [-126.13962, 47.39333, -5532.59912109375], [-126.13021, 47.39175, -4771.59716796875]]], [[[-126.01015, 47.28938, -2665.171875], [-126.00161, 47.28548, -1971.77001953125], [-126.00375, 47.29404, -1971.77001953125], [-126.01015, 47.28938, -2665.171875]]], [[[-126.02873, 47.30595, -4501.9345703125], [-126.03776, 47.31007, -5312.791015625], [-126.0349, 47.30089, -5335.43505859375], [-126.02873, 47.30595, -4501.9345703125]]], [[[-126.13524, 47.40717, -3633.483154296875], [-126.13798, 47.40005, -4698.04052734375], [-126.12915, 47.39814, -4063.53271484375], [-126.13524, 47.40717, -3633.483154296875]]], [[[-126.12062, 47.39607, -3431.42138671875], [-126.12155, 47.38961, -4052.971435546875], [-126.11443, 47.38866, -3401.336181640625], [-126.12062, 47.39607, -3431.42138671875]]], [[[-126.11214, 47.38155, -3678.984619140625], [-126.11648, 47.37518, -4593.5517578125], [-126.10531, 47.37346, -3567.9892578125], [-126.11214, 47.38155, -3678.984619140625]]], [[[-126.0349, 47.30089, -5335.43505859375], [-126.04405, 47.3045, -6029.26611328125], [-126.04231, 47.29568, -6030.775390625], [-126.0349, 47.30089, -5335.43505859375]]], [[[-126.02396, 47.31122, -3772.979736328125], [-126.02443, 47.31928, -3442.654541015625], [-126.03253, 47.31606, -4456.63037109375], [-126.02396, 47.31122, -3772.979736328125]]], [[[-126.00798, 47.24799, -2598.2197265625], [-126.00078, 47.24398, -1971.77001953125], [-126.00223, 47.25272, -1971.77001953125], [-126.00798, 47.24799, -2598.2197265625]]], [[[-126.14749, 47.44338, -2780.447021484375], [-126.13875, 47.43631, -1971.77001953125], [-126.14005, 47.44475, -1971.77001953125], [-126.14749, 47.44338, -2780.447021484375]]], [[[-126.03454, 47.27324, -5297.8193359375], [-126.043, 47.2691, -6003.69580078125], [-126.03513, 47.26475, -5285.6181640625], [-126.03454, 47.27324, -5297.8193359375]]], [[[-126.13524, 47.40717, -3633.483154296875], [-126.14548, 47.40707, -4621.52587890625], [-126.13798, 47.40005, -4698.04052734375], [-126.13524, 47.40717, -3633.483154296875]]], [[[-126.08761, 47.36285, -2795.794921875], [-126.087, 47.36881, -1971.77001953125], [-126.09583, 47.37055, -2770.64697265625], [-126.08761, 47.36285, -2795.794921875]]], [[[-126.12573, 47.40826, -2659.119140625], [-126.11513, 47.40834, -1971.77001953125], [-126.1215, 47.41484, -1971.77001953125], [-126.12573, 47.40826, -2659.119140625]]], [[[-126.09583, 47.37055, -2770.64697265625], [-126.087, 47.36881, -1971.77001953125], [-126.09372, 47.37654, -1971.77001953125], [-126.09583, 47.37055, -2770.64697265625]]], [[[-126.10603, 47.36672, -4157.7587890625], [-126.10828, 47.36167, -4910.3134765625], [-126.09881, 47.35733, -4625.083984375], [-126.10603, 47.36672, -4157.7587890625]]], [[[-126.01886, 47.30273, -3474.24853515625], [-126.01788, 47.29301, -3573.2294921875], [-126.01167, 47.29696, -2718.92919921875], [-126.01886, 47.30273, -3474.24853515625]]], [[[-126.02762, 47.2607, -4414.80224609375], [-126.03443, 47.25654, -5275.48095703125], [-126.02686, 47.25241, -4472.984375], [-126.02762, 47.2607, -4414.80224609375]]], [[[-126.00081, 47.27744, -1971.77001953125], [-126.01064, 47.2809, -2670.53857421875], [-126.01349, 47.27348, -2775.38525390625], [-126.00081, 47.27744, -1971.77001953125]]], [[[-126.04528, 47.34145, -3562.5927734375], [-126.05852, 47.34759, -3629.628173828125], [-126.05459, 47.34172, -4347.74951171875], [-126.04528, 47.34145, -3562.5927734375]]], [[[-126.14194, 47.41419, -3591.218994140625], [-126.14938, 47.4193, -3907.278076171875], [-126.1529, 47.41376, -4711.80615234375], [-126.14194, 47.41419, -3591.218994140625]]], [[[-126.03533, 47.34094, -2724.080322265625], [-126.02709, 47.34096, -1971.77001953125], [-126.03524, 47.34787, -1971.77001953125], [-126.03533, 47.34094, -2724.080322265625]]], [[[-126.08879, 47.35191, -4827.111328125], [-126.09801, 47.35079, -5667.3447265625], [-126.08652, 47.34657, -5733.17431640625], [-126.08879, 47.35191, -4827.111328125]]], [[[-126.05469, 47.33581, -5180.79443359375], [-126.06519, 47.33657, -5877.48681640625], [-126.05743, 47.32943, -5934.875], [-126.05469, 47.33581, -5180.79443359375]]], [[[-126.02654, 47.33473, -2603.132080078125], [-126.02709, 47.34096, -1971.77001953125], [-126.03533, 47.34094, -2724.080322265625], [-126.02654, 47.33473, -2603.132080078125]]], [[[-126.02654, 47.33473, -2603.132080078125], [-126.01794, 47.33474, -1971.77001953125], [-126.02709, 47.34096, -1971.77001953125], [-126.02654, 47.33473, -2603.132080078125]]], [[[-126.1529, 47.41376, -4711.80615234375], [-126.15583, 47.40728, -5546.29345703125], [-126.14548, 47.40707, -4621.52587890625], [-126.1529, 47.41376, -4711.80615234375]]], [[[-126.04141, 47.3187, -5318.27294921875], [-126.04697, 47.32779, -5264.0517578125], [-126.05131, 47.32158, -5978.58056640625], [-126.04141, 47.3187, -5318.27294921875]]], [[[-126.02654, 47.33473, -2603.132080078125], [-126.02053, 47.33007, -2436.789794921875], [-126.01794, 47.33474, -1971.77001953125], [-126.02654, 47.33473, -2603.132080078125]]], [[[-126.09722, 47.36383, -3568.084228515625], [-126.09881, 47.35733, -4625.083984375], [-126.08638, 47.35694, -3680.167236328125], [-126.09722, 47.36383, -3568.084228515625]]], [[[-126.03776, 47.31007, -5312.791015625], [-126.04141, 47.3187, -5318.27294921875], [-126.04758, 47.31306, -6006.9443359375], [-126.03776, 47.31007, -5312.791015625]]], [[[-126.05459, 47.34172, -4347.74951171875], [-126.05469, 47.33581, -5180.79443359375], [-126.04394, 47.33362, -4356.0029296875], [-126.05459, 47.34172, -4347.74951171875]]], [[[-126.05533, 47.35491, -1971.77001953125], [-126.06743, 47.35788, -1971.77001953125], [-126.06364, 47.35249, -2784.7041015625], [-126.05533, 47.35491, -1971.77001953125]]], [[[-126.03326, 47.29168, -5310.283203125], [-126.04231, 47.29568, -6030.775390625], [-126.04088, 47.28684, -6034.94091796875], [-126.03326, 47.29168, -5310.283203125]]], [[[-126.03454, 47.27324, -5297.8193359375], [-126.04187, 47.27797, -6023.14599609375], [-126.043, 47.2691, -6003.69580078125], [-126.03454, 47.27324, -5297.8193359375]]], [[[-126.00375, 47.29404, -1971.77001953125], [-126.01181, 47.301, -1971.77001953125], [-126.01167, 47.29696, -2718.92919921875], [-126.00375, 47.29404, -1971.77001953125]]], [[[-126.14938, 47.4193, -3907.278076171875], [-126.15426, 47.42587, -4005.874267578125], [-126.15961, 47.422, -4790.54150390625], [-126.14938, 47.4193, -3907.278076171875]]], [[[-126.14665, 47.42667, -3139.007568359375], [-126.13889, 47.42792, -1971.77001953125], [-126.14618, 47.43493, -2780.447021484375], [-126.14665, 47.42667, -3139.007568359375]]], [[[-126.01068, 47.2563, -2622.345703125], [-126.00798, 47.24799, -2598.2197265625], [-126.00223, 47.25272, -1971.77001953125], [-126.01068, 47.2563, -2622.345703125]]], [[[-126.14749, 47.44338, -2780.447021484375], [-126.14618, 47.43493, -2780.447021484375], [-126.13875, 47.43631, -1971.77001953125], [-126.14749, 47.44338, -2780.447021484375]]], [[[-126.04359, 47.34627, -2713.77587890625], [-126.04564, 47.35288, -1971.77001953125], [-126.05257, 47.34934, -2805.93798828125], [-126.04359, 47.34627, -2713.77587890625]]], [[[-126.0206, 47.24564, -4030.063232421875], [-126.01386, 47.23807, -3613.919921875], [-126.01396, 47.24701, -3243.953369140625], [-126.0206, 47.24564, -4030.063232421875]]], [[[-126.12155, 47.38961, -4052.971435546875], [-126.12915, 47.39814, -4063.53271484375], [-126.13021, 47.39175, -4771.59716796875], [-126.12155, 47.38961, -4052.971435546875]]], [[[-126.01015, 47.28938, -2665.171875], [-126.00375, 47.29404, -1971.77001953125], [-126.01167, 47.29696, -2718.92919921875], [-126.01015, 47.28938, -2665.171875]]], [[[-126.11648, 47.37518, -4593.5517578125], [-126.12226, 47.36959, -5533.62841796875], [-126.11398, 47.36774, -4866.5947265625], [-126.11648, 47.37518, -4593.5517578125]]], [[[-126.11443, 47.38866, -3401.336181640625], [-126.10622, 47.38692, -2694.018798828125], [-126.112, 47.39427, -2709.333984375], [-126.11443, 47.38866, -3401.336181640625]]], [[[-126.1215, 47.41484, -1971.77001953125], [-126.13134, 47.42056, -1971.77001953125], [-126.13287, 47.41393, -2688.219482421875], [-126.1215, 47.41484, -1971.77001953125]]], [[[-126.01349, 47.27348, -2775.38525390625], [-126.01218, 47.26435, -2697.73828125], [-126.00531, 47.27024, -1971.77001953125], [-126.01349, 47.27348, -2775.38525390625]]], [[[-126.04394, 47.33362, -4356.0029296875], [-126.04697, 47.32779, -5264.0517578125], [-126.0387, 47.32474, -4621.3125], [-126.04394, 47.33362, -4356.0029296875]]], [[[-126.14618, 47.43493, -2780.447021484375], [-126.14749, 47.44338, -2780.447021484375], [-126.15452, 47.44207, -3613.919921875], [-126.14618, 47.43493, -2780.447021484375]]], [[[-126.01857, 47.25573, -3479.970703125], [-126.01068, 47.2563, -2622.345703125], [-126.01218, 47.26435, -2697.73828125], [-126.01857, 47.25573, -3479.970703125]]], [[[-126.03443, 47.25654, -5275.48095703125], [-126.03331, 47.2486, -5317.103515625], [-126.02686, 47.25241, -4472.984375], [-126.03443, 47.25654, -5275.48095703125]]], [[[-126.03337, 47.28221, -5315.6416015625], [-126.03326, 47.29168, -5310.283203125], [-126.04088, 47.28684, -6034.94091796875], [-126.03337, 47.28221, -5315.6416015625]]], [[[-126.0206, 47.24564, -4030.063232421875], [-126.01857, 47.25573, -3479.970703125], [-126.02686, 47.25241, -4472.984375], [-126.0206, 47.24564, -4030.063232421875]]], [[[-126.07178, 47.35188, -3554.470458984375], [-126.08638, 47.35694, -3680.167236328125], [-126.07976, 47.35194, -4156.23779296875], [-126.07178, 47.35188, -3554.470458984375]]], [[[-126.112, 47.39427, -2709.333984375], [-126.10979, 47.40047, -1971.77001953125], [-126.11875, 47.40187, -2695.37841796875], [-126.112, 47.39427, -2709.333984375]]], [[[-126.02654, 47.33473, -2603.132080078125], [-126.02599, 47.32797, -3091.98681640625], [-126.02053, 47.33007, -2436.789794921875], [-126.02654, 47.33473, -2603.132080078125]]], [[[-126.01218, 47.26435, -2697.73828125], [-126.00155, 47.26169, -1971.77001953125], [-126.00531, 47.27024, -1971.77001953125], [-126.01218, 47.26435, -2697.73828125]]], [[[-126.03248, 47.32588, -3909.843017578125], [-126.03253, 47.31606, -4456.63037109375], [-126.02443, 47.31928, -3442.654541015625], [-126.03248, 47.32588, -3909.843017578125]]], [[[-126.10622, 47.38692, -2694.018798828125], [-126.11443, 47.38866, -3401.336181640625], [-126.11214, 47.38155, -3678.984619140625], [-126.10622, 47.38692, -2694.018798828125]]], [[[-126.07976, 47.35194, -4156.23779296875], [-126.08638, 47.35694, -3680.167236328125], [-126.08879, 47.35191, -4827.111328125], [-126.07976, 47.35194, -4156.23779296875]]], [[[-126.02647, 47.29674, -4438.58056640625], [-126.03326, 47.29168, -5310.283203125], [-126.02555, 47.28654, -4420.63671875], [-126.02647, 47.29674, -4438.58056640625]]], [[[-126.15322, 47.43362, -3613.919921875], [-126.16176, 47.44072, -4437.97998046875], [-126.16045, 47.43227, -4437.97998046875], [-126.15322, 47.43362, -3613.919921875]]], [[[-126.13021, 47.39175, -4771.59716796875], [-126.12915, 47.39814, -4063.53271484375], [-126.13798, 47.40005, -4698.04052734375], [-126.13021, 47.39175, -4771.59716796875]]], [[[-126.07739, 47.34756, -4938.1796875], [-126.08652, 47.34657, -5733.17431640625], [-126.07501, 47.34242, -5809.4755859375], [-126.07739, 47.34756, -4938.1796875]]], [[[-126.04394, 47.33362, -4356.0029296875], [-126.03248, 47.32588, -3909.843017578125], [-126.03431, 47.33417, -3382.563720703125], [-126.04394, 47.33362, -4356.0029296875]]], [[[-126.02599, 47.32797, -3091.98681640625], [-126.02654, 47.33473, -2603.132080078125], [-126.03431, 47.33417, -3382.563720703125], [-126.02599, 47.32797, -3091.98681640625]]], [[[-126.12336, 47.38337, -4704.44091796875], [-126.1334, 47.3855, -5530.02490234375], [-126.12772, 47.37748, -5524.1357421875], [-126.12336, 47.38337, -4704.44091796875]]], [[[-126.12062, 47.39607, -3431.42138671875], [-126.112, 47.39427, -2709.333984375], [-126.11875, 47.40187, -2695.37841796875], [-126.12062, 47.39607, -3431.42138671875]]], [[[-126.06743, 47.35788, -1971.77001953125], [-126.07614, 47.35671, -2806.11767578125], [-126.06364, 47.35249, -2784.7041015625], [-126.06743, 47.35788, -1971.77001953125]]], [[[-126.02396, 47.31122, -3772.979736328125], [-126.03253, 47.31606, -4456.63037109375], [-126.02873, 47.30595, -4501.9345703125], [-126.02396, 47.31122, -3772.979736328125]]], [[[-126.1403, 47.42109, -2814.219482421875], [-126.14665, 47.42667, -3139.007568359375], [-126.14938, 47.4193, -3907.278076171875], [-126.1403, 47.42109, -2814.219482421875]]], [[[-126.11648, 47.37518, -4593.5517578125], [-126.10603, 47.36672, -4157.7587890625], [-126.10531, 47.37346, -3567.9892578125], [-126.11648, 47.37518, -4593.5517578125]]], [[[-126.09722, 47.36383, -3568.084228515625], [-126.08761, 47.36285, -2795.794921875], [-126.09583, 47.37055, -2770.64697265625], [-126.09722, 47.36383, -3568.084228515625]]], [[[-126.02599, 47.32797, -3091.98681640625], [-126.03431, 47.33417, -3382.563720703125], [-126.03248, 47.32588, -3909.843017578125], [-126.02599, 47.32797, -3091.98681640625]]], [[[-126.02055, 47.266, -3575.656005859375], [-126.02762, 47.2607, -4414.80224609375], [-126.01857, 47.25573, -3479.970703125], [-126.02055, 47.266, -3575.656005859375]]], [[[-126.02555, 47.28654, -4420.63671875], [-126.02778, 47.27762, -4542.3134765625], [-126.02071, 47.27644, -3673.358154296875], [-126.02555, 47.28654, -4420.63671875]]], [[[-126.08761, 47.36285, -2795.794921875], [-126.09722, 47.36383, -3568.084228515625], [-126.08638, 47.35694, -3680.167236328125], [-126.08761, 47.36285, -2795.794921875]]], [[[-126.12573, 47.40826, -2659.119140625], [-126.12762, 47.40286, -3401.80859375], [-126.11875, 47.40187, -2695.37841796875], [-126.12573, 47.40826, -2659.119140625]]], [[[-126.01181, 47.301, -1971.77001953125], [-126.01339, 47.30501, -2664.990234375], [-126.01167, 47.29696, -2718.92919921875], [-126.01181, 47.301, -1971.77001953125]]], [[[-126.05852, 47.34759, -3629.628173828125], [-126.07178, 47.35188, -3554.470458984375], [-126.06739, 47.34725, -4276.68994140625], [-126.05852, 47.34759, -3629.628173828125]]], [[[-126.10178, 47.3793, -2758.255859375], [-126.09372, 47.37654, -1971.77001953125], [-126.09613, 47.38531, -1971.77001953125], [-126.10178, 47.3793, -2758.255859375]]], [[[-126.1403, 47.42109, -2814.219482421875], [-126.13287, 47.41393, -2688.219482421875], [-126.13134, 47.42056, -1971.77001953125], [-126.1403, 47.42109, -2814.219482421875]]], [[[-126.07976, 47.35194, -4156.23779296875], [-126.08879, 47.35191, -4827.111328125], [-126.07739, 47.34756, -4938.1796875], [-126.07976, 47.35194, -4156.23779296875]]], [[[-126.05459, 47.34172, -4347.74951171875], [-126.06498, 47.34267, -5066.482421875], [-126.05469, 47.33581, -5180.79443359375], [-126.05459, 47.34172, -4347.74951171875]]], [[[-126.08879, 47.35191, -4827.111328125], [-126.08652, 47.34657, -5733.17431640625], [-126.07739, 47.34756, -4938.1796875], [-126.08879, 47.35191, -4827.111328125]]], [[[-126.13524, 47.40717, -3633.483154296875], [-126.14194, 47.41419, -3591.218994140625], [-126.14548, 47.40707, -4621.52587890625], [-126.13524, 47.40717, -3633.483154296875]]], [[[-126.09583, 47.37055, -2770.64697265625], [-126.09372, 47.37654, -1971.77001953125], [-126.10178, 47.3793, -2758.255859375], [-126.09583, 47.37055, -2770.64697265625]]], [[[-126.01396, 47.24701, -3243.953369140625], [-126.00798, 47.24799, -2598.2197265625], [-126.01068, 47.2563, -2622.345703125], [-126.01396, 47.24701, -3243.953369140625]]], [[[-126.16045, 47.43227, -4437.97998046875], [-126.16176, 47.44072, -4437.97998046875], [-126.16862, 47.43945, -5277.7900390625], [-126.16045, 47.43227, -4437.97998046875]]], [[[-126.14665, 47.42667, -3139.007568359375], [-126.1403, 47.42109, -2814.219482421875], [-126.13889, 47.42792, -1971.77001953125], [-126.14665, 47.42667, -3139.007568359375]]], [[[-126.1529, 47.41376, -4711.80615234375], [-126.1629, 47.41476, -5554.5576171875], [-126.15583, 47.40728, -5546.29345703125], [-126.1529, 47.41376, -4711.80615234375]]], [[[-126.10531, 47.37346, -3567.9892578125], [-126.09583, 47.37055, -2770.64697265625], [-126.10178, 47.3793, -2758.255859375], [-126.10531, 47.37346, -3567.9892578125]]], [[[-126.02599, 47.32797, -3091.98681640625], [-126.03248, 47.32588, -3909.843017578125], [-126.02443, 47.31928, -3442.654541015625], [-126.02599, 47.32797, -3091.98681640625]]], [[[-126.02071, 47.27644, -3673.358154296875], [-126.02778, 47.27762, -4542.3134765625], [-126.02807, 47.26924, -4455.615234375], [-126.02071, 47.27644, -3673.358154296875]]], [[[-126.10828, 47.36167, -4910.3134765625], [-126.1169, 47.36248, -5567.0185546875], [-126.1085, 47.35607, -5612.76513671875], [-126.10828, 47.36167, -4910.3134765625]]], [[[-126.04528, 47.34145, -3562.5927734375], [-126.04359, 47.34627, -2713.77587890625], [-126.05257, 47.34934, -2805.93798828125], [-126.04528, 47.34145, -3562.5927734375]]], [[[-126.15426, 47.42587, -4005.874267578125], [-126.15322, 47.43362, -3613.919921875], [-126.16045, 47.43227, -4437.97998046875], [-126.15426, 47.42587, -4005.874267578125]]], [[[-126.16731, 47.43101, -5277.7900390625], [-126.16862, 47.43945, -5277.7900390625], [-126.17086, 47.43161, -5567.765625], [-126.16731, 47.43101, -5277.7900390625]]], [[[-126.09881, 47.35733, -4625.083984375], [-126.09801, 47.35079, -5667.3447265625], [-126.08879, 47.35191, -4827.111328125], [-126.09881, 47.35733, -4625.083984375]]], [[[-126.06739, 47.34725, -4276.68994140625], [-126.07739, 47.34756, -4938.1796875], [-126.06498, 47.34267, -5066.482421875], [-126.06739, 47.34725, -4276.68994140625]]], [[[-126.02686, 47.25241, -4472.984375], [-126.02795, 47.24336, -4932.84326171875], [-126.0206, 47.24564, -4030.063232421875], [-126.02686, 47.25241, -4472.984375]]], [[[-126.13524, 47.40717, -3633.483154296875], [-126.12573, 47.40826, -2659.119140625], [-126.13287, 47.41393, -2688.219482421875], [-126.13524, 47.40717, -3633.483154296875]]], [[[-126.04141, 47.3187, -5318.27294921875], [-126.0387, 47.32474, -4621.3125], [-126.04697, 47.32779, -5264.0517578125], [-126.04141, 47.3187, -5318.27294921875]]], [[[-126.02807, 47.26924, -4455.615234375], [-126.03513, 47.26475, -5285.6181640625], [-126.02762, 47.2607, -4414.80224609375], [-126.02807, 47.26924, -4455.615234375]]], [[[-126.13021, 47.39175, -4771.59716796875], [-126.13962, 47.39333, -5532.59912109375], [-126.1334, 47.3855, -5530.02490234375], [-126.13021, 47.39175, -4771.59716796875]]], [[[-126.02599, 47.32797, -3091.98681640625], [-126.02443, 47.31928, -3442.654541015625], [-126.01934, 47.32283, -2671.9267578125], [-126.02599, 47.32797, -3091.98681640625]]], [[[-126.02686, 47.25241, -4472.984375], [-126.01857, 47.25573, -3479.970703125], [-126.02762, 47.2607, -4414.80224609375], [-126.02686, 47.25241, -4472.984375]]], [[[-126.02654, 47.33473, -2603.132080078125], [-126.03533, 47.34094, -2724.080322265625], [-126.03431, 47.33417, -3382.563720703125], [-126.02654, 47.33473, -2603.132080078125]]], [[[-126.03253, 47.31606, -4456.63037109375], [-126.04141, 47.3187, -5318.27294921875], [-126.03776, 47.31007, -5312.791015625], [-126.03253, 47.31606, -4456.63037109375]]], [[[-126.08761, 47.36285, -2795.794921875], [-126.07934, 47.36162, -1971.77001953125], [-126.087, 47.36881, -1971.77001953125], [-126.08761, 47.36285, -2795.794921875]]], [[[-126.04697, 47.32779, -5264.0517578125], [-126.05743, 47.32943, -5934.875], [-126.05131, 47.32158, -5978.58056640625], [-126.04697, 47.32779, -5264.0517578125]]], [[[-126.09881, 47.35733, -4625.083984375], [-126.10828, 47.36167, -4910.3134765625], [-126.1085, 47.35607, -5612.76513671875], [-126.09881, 47.35733, -4625.083984375]]], [[[-126.01934, 47.32283, -2671.9267578125], [-126.02053, 47.33007, -2436.789794921875], [-126.02599, 47.32797, -3091.98681640625], [-126.01934, 47.32283, -2671.9267578125]]], [[[-126.01788, 47.29301, -3573.2294921875], [-126.01754, 47.28504, -3460.17578125], [-126.01015, 47.28938, -2665.171875], [-126.01788, 47.29301, -3573.2294921875]]], [[[-126.12155, 47.38961, -4052.971435546875], [-126.12336, 47.38337, -4704.44091796875], [-126.11214, 47.38155, -3678.984619140625], [-126.12155, 47.38961, -4052.971435546875]]], [[[-126.15961, 47.422, -4790.54150390625], [-126.16731, 47.43101, -5277.7900390625], [-126.16806, 47.42292, -5561.4072265625], [-126.15961, 47.422, -4790.54150390625]]], [[[-126.1403, 47.42109, -2814.219482421875], [-126.14938, 47.4193, -3907.278076171875], [-126.14194, 47.41419, -3591.218994140625], [-126.1403, 47.42109, -2814.219482421875]]], [[[-126.01934, 47.32283, -2671.9267578125], [-126.01433, 47.32661, -1971.77001953125], [-126.02053, 47.33007, -2436.789794921875], [-126.01934, 47.32283, -2671.9267578125]]], [[[-126.01788, 47.29301, -3573.2294921875], [-126.01015, 47.28938, -2665.171875], [-126.01167, 47.29696, -2718.92919921875], [-126.01788, 47.29301, -3573.2294921875]]], [[[-126.01934, 47.32283, -2671.9267578125], [-126.01737, 47.31786, -1971.77001953125], [-126.01433, 47.32661, -1971.77001953125], [-126.01934, 47.32283, -2671.9267578125]]], [[[-126.04528, 47.34145, -3562.5927734375], [-126.03533, 47.34094, -2724.080322265625], [-126.04359, 47.34627, -2713.77587890625], [-126.04528, 47.34145, -3562.5927734375]]], [[[-126.02555, 47.28654, -4420.63671875], [-126.02071, 47.27644, -3673.358154296875], [-126.01754, 47.28504, -3460.17578125], [-126.02555, 47.28654, -4420.63671875]]], [[[-126.02762, 47.2607, -4414.80224609375], [-126.03513, 47.26475, -5285.6181640625], [-126.03443, 47.25654, -5275.48095703125], [-126.02762, 47.2607, -4414.80224609375]]], [[[-126.01886, 47.30273, -3474.24853515625], [-126.01167, 47.29696, -2718.92919921875], [-126.01339, 47.30501, -2664.990234375], [-126.01886, 47.30273, -3474.24853515625]]], [[[-126.05852, 47.34759, -3629.628173828125], [-126.05257, 47.34934, -2805.93798828125], [-126.06364, 47.35249, -2784.7041015625], [-126.05852, 47.34759, -3629.628173828125]]], [[[-126.112, 47.39427, -2709.333984375], [-126.10207, 47.39333, -1971.77001953125], [-126.10979, 47.40047, -1971.77001953125], [-126.112, 47.39427, -2709.333984375]]], [[[-126.04141, 47.3187, -5318.27294921875], [-126.05131, 47.32158, -5978.58056640625], [-126.04758, 47.31306, -6006.9443359375], [-126.04141, 47.3187, -5318.27294921875]]], [[[-126.01934, 47.32283, -2671.9267578125], [-126.01683, 47.3129, -2911.77880859375], [-126.01737, 47.31786, -1971.77001953125], [-126.01934, 47.32283, -2671.9267578125]]], [[[-126.13798, 47.40005, -4698.04052734375], [-126.14548, 47.40707, -4621.52587890625], [-126.14777, 47.40027, -5538.2431640625], [-126.13798, 47.40005, -4698.04052734375]]], [[[-126.01683, 47.3129, -2911.77880859375], [-126.01934, 47.32283, -2671.9267578125], [-126.02443, 47.31928, -3442.654541015625], [-126.01683, 47.3129, -2911.77880859375]]], [[[-126.08761, 47.36285, -2795.794921875], [-126.08638, 47.35694, -3680.167236328125], [-126.07614, 47.35671, -2806.11767578125], [-126.08761, 47.36285, -2795.794921875]]], [[[-126.15426, 47.42587, -4005.874267578125], [-126.14665, 47.42667, -3139.007568359375], [-126.15322, 47.43362, -3613.919921875], [-126.15426, 47.42587, -4005.874267578125]]], [[[-126.02778, 47.27762, -4542.3134765625], [-126.02555, 47.28654, -4420.63671875], [-126.03337, 47.28221, -5315.6416015625], [-126.02778, 47.27762, -4542.3134765625]]], [[[-126.15426, 47.42587, -4005.874267578125], [-126.16045, 47.43227, -4437.97998046875], [-126.15961, 47.422, -4790.54150390625], [-126.15426, 47.42587, -4005.874267578125]]], [[[-126.01754, 47.28504, -3460.17578125], [-126.01064, 47.2809, -2670.53857421875], [-126.01015, 47.28938, -2665.171875], [-126.01754, 47.28504, -3460.17578125]]], [[[-126.02055, 47.266, -3575.656005859375], [-126.01349, 47.27348, -2775.38525390625], [-126.02071, 47.27644, -3673.358154296875], [-126.02055, 47.266, -3575.656005859375]]], [[[-126.12062, 47.39607, -3431.42138671875], [-126.11443, 47.38866, -3401.336181640625], [-126.112, 47.39427, -2709.333984375], [-126.12062, 47.39607, -3431.42138671875]]], [[[-126.01788, 47.29301, -3573.2294921875], [-126.02647, 47.29674, -4438.58056640625], [-126.02555, 47.28654, -4420.63671875], [-126.01788, 47.29301, -3573.2294921875]]], [[[-126.02396, 47.31122, -3772.979736328125], [-126.01683, 47.3129, -2911.77880859375], [-126.02443, 47.31928, -3442.654541015625], [-126.02396, 47.31122, -3772.979736328125]]], [[[-126.01886, 47.30273, -3474.24853515625], [-126.01683, 47.3129, -2911.77880859375], [-126.02396, 47.31122, -3772.979736328125], [-126.01886, 47.30273, -3474.24853515625]]], [[[-126.13798, 47.40005, -4698.04052734375], [-126.14777, 47.40027, -5538.2431640625], [-126.13962, 47.39333, -5532.59912109375], [-126.13798, 47.40005, -4698.04052734375]]], [[[-126.1403, 47.42109, -2814.219482421875], [-126.13134, 47.42056, -1971.77001953125], [-126.13889, 47.42792, -1971.77001953125], [-126.1403, 47.42109, -2814.219482421875]]], [[[-126.11648, 47.37518, -4593.5517578125], [-126.12772, 47.37748, -5524.1357421875], [-126.12226, 47.36959, -5533.62841796875], [-126.11648, 47.37518, -4593.5517578125]]], [[[-126.01064, 47.2809, -2670.53857421875], [-126.00081, 47.27744, -1971.77001953125], [-126.00161, 47.28548, -1971.77001953125], [-126.01064, 47.2809, -2670.53857421875]]], [[[-126.02791, 47.23548, -5277.7900390625], [-126.02107, 47.23673, -4437.97998046875], [-126.02795, 47.24336, -4932.84326171875], [-126.02791, 47.23548, -5277.7900390625]]], [[[-126.01788, 47.29301, -3573.2294921875], [-126.01886, 47.30273, -3474.24853515625], [-126.02647, 47.29674, -4438.58056640625], [-126.01788, 47.29301, -3573.2294921875]]], [[[-126.10828, 47.36167, -4910.3134765625], [-126.11398, 47.36774, -4866.5947265625], [-126.1169, 47.36248, -5567.0185546875], [-126.10828, 47.36167, -4910.3134765625]]], [[[-126.04697, 47.32779, -5264.0517578125], [-126.05469, 47.33581, -5180.79443359375], [-126.05743, 47.32943, -5934.875], [-126.04697, 47.32779, -5264.0517578125]]], [[[-126.01683, 47.3129, -2911.77880859375], [-126.01886, 47.30273, -3474.24853515625], [-126.01339, 47.30501, -2664.990234375], [-126.01683, 47.3129, -2911.77880859375]]], [[[-126.01683, 47.3129, -2911.77880859375], [-126.01339, 47.30501, -2664.990234375], [-126.01445, 47.30967, -1971.77001953125], [-126.01683, 47.3129, -2911.77880859375]]], [[[-126.04528, 47.34145, -3562.5927734375], [-126.03431, 47.33417, -3382.563720703125], [-126.03533, 47.34094, -2724.080322265625], [-126.04528, 47.34145, -3562.5927734375]]], [[[-126.02807, 47.26924, -4455.615234375], [-126.03454, 47.27324, -5297.8193359375], [-126.03513, 47.26475, -5285.6181640625], [-126.02807, 47.26924, -4455.615234375]]], [[[-126.09583, 47.37055, -2770.64697265625], [-126.10531, 47.37346, -3567.9892578125], [-126.09722, 47.36383, -3568.084228515625], [-126.09583, 47.37055, -2770.64697265625]]], [[[-126.06498, 47.34267, -5066.482421875], [-126.07739, 47.34756, -4938.1796875], [-126.07501, 47.34242, -5809.4755859375], [-126.06498, 47.34267, -5066.482421875]]], [[[-126.03443, 47.25654, -5275.48095703125], [-126.04174, 47.25136, -5970.46142578125], [-126.03331, 47.2486, -5317.103515625], [-126.03443, 47.25654, -5275.48095703125]]], [[[-126.01683, 47.3129, -2911.77880859375], [-126.01445, 47.30967, -1971.77001953125], [-126.01737, 47.31786, -1971.77001953125], [-126.01683, 47.3129, -2911.77880859375]]], [[[-126.13021, 47.39175, -4771.59716796875], [-126.1334, 47.3855, -5530.02490234375], [-126.12336, 47.38337, -4704.44091796875], [-126.13021, 47.39175, -4771.59716796875]]], [[[-126.03431, 47.33417, -3382.563720703125], [-126.04528, 47.34145, -3562.5927734375], [-126.04394, 47.33362, -4356.0029296875], [-126.03431, 47.33417, -3382.563720703125]]], [[[-126.11875, 47.40187, -2695.37841796875], [-126.10979, 47.40047, -1971.77001953125], [-126.11513, 47.40834, -1971.77001953125], [-126.11875, 47.40187, -2695.37841796875]]], [[[-126.04394, 47.33362, -4356.0029296875], [-126.05469, 47.33581, -5180.79443359375], [-126.04697, 47.32779, -5264.0517578125], [-126.04394, 47.33362, -4356.0029296875]]], [[[-126.01339, 47.30501, -2664.990234375], [-126.01181, 47.301, -1971.77001953125], [-126.01445, 47.30967, -1971.77001953125], [-126.01339, 47.30501, -2664.990234375]]], [[[-126.15322, 47.43362, -3613.919921875], [-126.15452, 47.44207, -3613.919921875], [-126.16176, 47.44072, -4437.97998046875], [-126.15322, 47.43362, -3613.919921875]]], [[[-126.12062, 47.39607, -3431.42138671875], [-126.12762, 47.40286, -3401.80859375], [-126.12915, 47.39814, -4063.53271484375], [-126.12062, 47.39607, -3431.42138671875]]], [[[-126.08761, 47.36285, -2795.794921875], [-126.07614, 47.35671, -2806.11767578125], [-126.07934, 47.36162, -1971.77001953125], [-126.08761, 47.36285, -2795.794921875]]], [[[-126.16045, 47.43227, -4437.97998046875], [-126.16862, 47.43945, -5277.7900390625], [-126.16731, 47.43101, -5277.7900390625], [-126.16045, 47.43227, -4437.97998046875]]], [[[-126.01064, 47.2809, -2670.53857421875], [-126.00161, 47.28548, -1971.77001953125], [-126.01015, 47.28938, -2665.171875], [-126.01064, 47.2809, -2670.53857421875]]], [[[-126.02795, 47.24336, -4932.84326171875], [-126.02686, 47.25241, -4472.984375], [-126.03331, 47.2486, -5317.103515625], [-126.02795, 47.24336, -4932.84326171875]]], [[[-126.00685, 47.23938, -2780.447021484375], [-126.01396, 47.24701, -3243.953369140625], [-126.01386, 47.23807, -3613.919921875], [-126.00685, 47.23938, -2780.447021484375]]], [[[-126.04394, 47.33362, -4356.0029296875], [-126.0387, 47.32474, -4621.3125], [-126.03248, 47.32588, -3909.843017578125], [-126.04394, 47.33362, -4356.0029296875]]], [[[-126.02055, 47.266, -3575.656005859375], [-126.01218, 47.26435, -2697.73828125], [-126.01349, 47.27348, -2775.38525390625], [-126.02055, 47.266, -3575.656005859375]]], [[[-126.11648, 47.37518, -4593.5517578125], [-126.11398, 47.36774, -4866.5947265625], [-126.10603, 47.36672, -4157.7587890625], [-126.11648, 47.37518, -4593.5517578125]]], [[[-126.12155, 47.38961, -4052.971435546875], [-126.13021, 47.39175, -4771.59716796875], [-126.12336, 47.38337, -4704.44091796875], [-126.12155, 47.38961, -4052.971435546875]]], [[[-126.03776, 47.31007, -5312.791015625], [-126.04758, 47.31306, -6006.9443359375], [-126.04405, 47.3045, -6029.26611328125], [-126.03776, 47.31007, -5312.791015625]]], [[[-126.05469, 47.33581, -5180.79443359375], [-126.06498, 47.34267, -5066.482421875], [-126.06519, 47.33657, -5877.48681640625], [-126.05469, 47.33581, -5180.79443359375]]], [[[-126.00081, 47.27744, -1971.77001953125], [-126.01349, 47.27348, -2775.38525390625], [-126.00531, 47.27024, -1971.77001953125], [-126.00081, 47.27744, -1971.77001953125]]], [[[-126.01068, 47.2563, -2622.345703125], [-126.00155, 47.26169, -1971.77001953125], [-126.01218, 47.26435, -2697.73828125], [-126.01068, 47.2563, -2622.345703125]]], [[[-126.06498, 47.34267, -5066.482421875], [-126.07501, 47.34242, -5809.4755859375], [-126.06519, 47.33657, -5877.48681640625], [-126.06498, 47.34267, -5066.482421875]]], [[[-126.03337, 47.28221, -5315.6416015625], [-126.04088, 47.28684, -6034.94091796875], [-126.04187, 47.27797, -6023.14599609375], [-126.03337, 47.28221, -5315.6416015625]]], [[[-126.01857, 47.25573, -3479.970703125], [-126.0206, 47.24564, -4030.063232421875], [-126.01396, 47.24701, -3243.953369140625], [-126.01857, 47.25573, -3479.970703125]]], [[[-126.14665, 47.42667, -3139.007568359375], [-126.14618, 47.43493, -2780.447021484375], [-126.15322, 47.43362, -3613.919921875], [-126.14665, 47.42667, -3139.007568359375]]], [[[-126.03443, 47.25654, -5275.48095703125], [-126.04312, 47.26021, -5991.52490234375], [-126.04174, 47.25136, -5970.46142578125], [-126.03443, 47.25654, -5275.48095703125]]], [[[-126.10178, 47.3793, -2758.255859375], [-126.11214, 47.38155, -3678.984619140625], [-126.10531, 47.37346, -3567.9892578125], [-126.10178, 47.3793, -2758.255859375]]], [[[-126.02055, 47.266, -3575.656005859375], [-126.01857, 47.25573, -3479.970703125], [-126.01218, 47.26435, -2697.73828125], [-126.02055, 47.266, -3575.656005859375]]], [[[-126.00798, 47.24799, -2598.2197265625], [-126.01396, 47.24701, -3243.953369140625], [-126.00685, 47.23938, -2780.447021484375], [-126.00798, 47.24799, -2598.2197265625]]], [[[-126.02071, 47.27644, -3673.358154296875], [-126.02807, 47.26924, -4455.615234375], [-126.02055, 47.266, -3575.656005859375], [-126.02071, 47.27644, -3673.358154296875]]], [[[-126.02807, 47.26924, -4455.615234375], [-126.02778, 47.27762, -4542.3134765625], [-126.03454, 47.27324, -5297.8193359375], [-126.02807, 47.26924, -4455.615234375]]], [[[-126.12336, 47.38337, -4704.44091796875], [-126.12772, 47.37748, -5524.1357421875], [-126.11648, 47.37518, -4593.5517578125], [-126.12336, 47.38337, -4704.44091796875]]], [[[-126.10603, 47.36672, -4157.7587890625], [-126.09881, 47.35733, -4625.083984375], [-126.09722, 47.36383, -3568.084228515625], [-126.10603, 47.36672, -4157.7587890625]]], [[[-126.01886, 47.30273, -3474.24853515625], [-126.02396, 47.31122, -3772.979736328125], [-126.02873, 47.30595, -4501.9345703125], [-126.01886, 47.30273, -3474.24853515625]]], [[[-126.01788, 47.29301, -3573.2294921875], [-126.02555, 47.28654, -4420.63671875], [-126.01754, 47.28504, -3460.17578125], [-126.01788, 47.29301, -3573.2294921875]]], [[[-126.0349, 47.30089, -5335.43505859375], [-126.03776, 47.31007, -5312.791015625], [-126.04405, 47.3045, -6029.26611328125], [-126.0349, 47.30089, -5335.43505859375]]], [[[-126.03326, 47.29168, -5310.283203125], [-126.02647, 47.29674, -4438.58056640625], [-126.0349, 47.30089, -5335.43505859375], [-126.03326, 47.29168, -5310.283203125]]], [[[-126.08638, 47.35694, -3680.167236328125], [-126.07178, 47.35188, -3554.470458984375], [-126.07614, 47.35671, -2806.11767578125], [-126.08638, 47.35694, -3680.167236328125]]], [[[-126.0206, 47.24564, -4030.063232421875], [-126.02795, 47.24336, -4932.84326171875], [-126.02107, 47.23673, -4437.97998046875], [-126.0206, 47.24564, -4030.063232421875]]], [[[-126.11214, 47.38155, -3678.984619140625], [-126.12336, 47.38337, -4704.44091796875], [-126.11648, 47.37518, -4593.5517578125], [-126.11214, 47.38155, -3678.984619140625]]], [[[-126.02055, 47.266, -3575.656005859375], [-126.02807, 47.26924, -4455.615234375], [-126.02762, 47.2607, -4414.80224609375], [-126.02055, 47.266, -3575.656005859375]]], [[[-126.14194, 47.41419, -3591.218994140625], [-126.13524, 47.40717, -3633.483154296875], [-126.13287, 47.41393, -2688.219482421875], [-126.14194, 47.41419, -3591.218994140625]]], [[[-126.01886, 47.30273, -3474.24853515625], [-126.02873, 47.30595, -4501.9345703125], [-126.02647, 47.29674, -4438.58056640625], [-126.01886, 47.30273, -3474.24853515625]]], [[[-126.03253, 47.31606, -4456.63037109375], [-126.03776, 47.31007, -5312.791015625], [-126.02873, 47.30595, -4501.9345703125], [-126.03253, 47.31606, -4456.63037109375]]], [[[-126.03443, 47.25654, -5275.48095703125], [-126.03513, 47.26475, -5285.6181640625], [-126.04312, 47.26021, -5991.52490234375], [-126.03443, 47.25654, -5275.48095703125]]], [[[-126.14194, 47.41419, -3591.218994140625], [-126.13287, 47.41393, -2688.219482421875], [-126.1403, 47.42109, -2814.219482421875], [-126.14194, 47.41419, -3591.218994140625]]], [[[-126.10178, 47.3793, -2758.255859375], [-126.09613, 47.38531, -1971.77001953125], [-126.10622, 47.38692, -2694.018798828125], [-126.10178, 47.3793, -2758.255859375]]], [[[-126.12573, 47.40826, -2659.119140625], [-126.1215, 47.41484, -1971.77001953125], [-126.13287, 47.41393, -2688.219482421875], [-126.12573, 47.40826, -2659.119140625]]], [[[-126.10603, 47.36672, -4157.7587890625], [-126.11398, 47.36774, -4866.5947265625], [-126.10828, 47.36167, -4910.3134765625], [-126.10603, 47.36672, -4157.7587890625]]], [[[-126.11214, 47.38155, -3678.984619140625], [-126.10178, 47.3793, -2758.255859375], [-126.10622, 47.38692, -2694.018798828125], [-126.11214, 47.38155, -3678.984619140625]]], [[[-126.03337, 47.28221, -5315.6416015625], [-126.04187, 47.27797, -6023.14599609375], [-126.03454, 47.27324, -5297.8193359375], [-126.03337, 47.28221, -5315.6416015625]]], [[[-126.09881, 47.35733, -4625.083984375], [-126.1085, 47.35607, -5612.76513671875], [-126.09801, 47.35079, -5667.3447265625], [-126.09881, 47.35733, -4625.083984375]]], [[[-126.05852, 47.34759, -3629.628173828125], [-126.04528, 47.34145, -3562.5927734375], [-126.05257, 47.34934, -2805.93798828125], [-126.05852, 47.34759, -3629.628173828125]]], [[[-126.10622, 47.38692, -2694.018798828125], [-126.10207, 47.39333, -1971.77001953125], [-126.112, 47.39427, -2709.333984375], [-126.10622, 47.38692, -2694.018798828125]]], [[[-126.06739, 47.34725, -4276.68994140625], [-126.07178, 47.35188, -3554.470458984375], [-126.07976, 47.35194, -4156.23779296875], [-126.06739, 47.34725, -4276.68994140625]]], [[[-126.1529, 47.41376, -4711.80615234375], [-126.15961, 47.422, -4790.54150390625], [-126.1629, 47.41476, -5554.5576171875], [-126.1529, 47.41376, -4711.80615234375]]], [[[-126.03248, 47.32588, -3909.843017578125], [-126.0387, 47.32474, -4621.3125], [-126.03253, 47.31606, -4456.63037109375], [-126.03248, 47.32588, -3909.843017578125]]], [[[-126.15961, 47.422, -4790.54150390625], [-126.16806, 47.42292, -5561.4072265625], [-126.1629, 47.41476, -5554.5576171875], [-126.15961, 47.422, -4790.54150390625]]], [[[-126.03337, 47.28221, -5315.6416015625], [-126.02555, 47.28654, -4420.63671875], [-126.03326, 47.29168, -5310.283203125], [-126.03337, 47.28221, -5315.6416015625]]], [[[-126.14618, 47.43493, -2780.447021484375], [-126.13889, 47.42792, -1971.77001953125], [-126.13875, 47.43631, -1971.77001953125], [-126.14618, 47.43493, -2780.447021484375]]], [[[-126.01396, 47.24701, -3243.953369140625], [-126.01068, 47.2563, -2622.345703125], [-126.01857, 47.25573, -3479.970703125], [-126.01396, 47.24701, -3243.953369140625]]], [[[-126.03331, 47.2486, -5317.103515625], [-126.04174, 47.25136, -5970.46142578125], [-126.039, 47.24267, -5957.54443359375], [-126.03331, 47.2486, -5317.103515625]]], [[[-126.05257, 47.34934, -2805.93798828125], [-126.04564, 47.35288, -1971.77001953125], [-126.05533, 47.35491, -1971.77001953125], [-126.05257, 47.34934, -2805.93798828125]]], [[[-126.0206, 47.24564, -4030.063232421875], [-126.02107, 47.23673, -4437.97998046875], [-126.01386, 47.23807, -3613.919921875], [-126.0206, 47.24564, -4030.063232421875]]], [[[-125.99944, 47.24074, -1971.77001953125], [-126.00078, 47.24398, -1971.77001953125], [-126.00685, 47.23938, -2780.447021484375], [-125.99944, 47.24074, -1971.77001953125]]], [[[-126.14938, 47.4193, -3907.278076171875], [-126.14665, 47.42667, -3139.007568359375], [-126.15426, 47.42587, -4005.874267578125], [-126.14938, 47.4193, -3907.278076171875]]], [[[-126.05257, 47.34934, -2805.93798828125], [-126.05533, 47.35491, -1971.77001953125], [-126.06364, 47.35249, -2784.7041015625], [-126.05257, 47.34934, -2805.93798828125]]], [[[-126.06739, 47.34725, -4276.68994140625], [-126.06498, 47.34267, -5066.482421875], [-126.05459, 47.34172, -4347.74951171875], [-126.06739, 47.34725, -4276.68994140625]]], [[[-126.13524, 47.40717, -3633.483154296875], [-126.12915, 47.39814, -4063.53271484375], [-126.12762, 47.40286, -3401.80859375], [-126.13524, 47.40717, -3633.483154296875]]], [[[-126.11875, 47.40187, -2695.37841796875], [-126.11513, 47.40834, -1971.77001953125], [-126.12573, 47.40826, -2659.119140625], [-126.11875, 47.40187, -2695.37841796875]]], [[[-126.03326, 47.29168, -5310.283203125], [-126.0349, 47.30089, -5335.43505859375], [-126.04231, 47.29568, -6030.775390625], [-126.03326, 47.29168, -5310.283203125]]], [[[-126.07614, 47.35671, -2806.11767578125], [-126.07178, 47.35188, -3554.470458984375], [-126.06364, 47.35249, -2784.7041015625], [-126.07614, 47.35671, -2806.11767578125]]], [[[-126.10531, 47.37346, -3567.9892578125], [-126.10603, 47.36672, -4157.7587890625], [-126.09722, 47.36383, -3568.084228515625], [-126.10531, 47.37346, -3567.9892578125]]], [[[-126.14777, 47.40027, -5538.2431640625], [-126.14548, 47.40707, -4621.52587890625], [-126.15583, 47.40728, -5546.29345703125], [-126.14777, 47.40027, -5538.2431640625]]], [[[-126.0387, 47.32474, -4621.3125], [-126.04141, 47.3187, -5318.27294921875], [-126.03253, 47.31606, -4456.63037109375], [-126.0387, 47.32474, -4621.3125]]], [[[-126.06739, 47.34725, -4276.68994140625], [-126.07976, 47.35194, -4156.23779296875], [-126.07739, 47.34756, -4938.1796875], [-126.06739, 47.34725, -4276.68994140625]]], [[[-126.03524, 47.34787, -1971.77001953125], [-126.04564, 47.35288, -1971.77001953125], [-126.04359, 47.34627, -2713.77587890625], [-126.03524, 47.34787, -1971.77001953125]]], [[[-126.07178, 47.35188, -3554.470458984375], [-126.05852, 47.34759, -3629.628173828125], [-126.06364, 47.35249, -2784.7041015625], [-126.07178, 47.35188, -3554.470458984375]]], [[[-126.12762, 47.40286, -3401.80859375], [-126.12062, 47.39607, -3431.42138671875], [-126.11875, 47.40187, -2695.37841796875], [-126.12762, 47.40286, -3401.80859375]]], [[[-126.14938, 47.4193, -3907.278076171875], [-126.15961, 47.422, -4790.54150390625], [-126.1529, 47.41376, -4711.80615234375], [-126.14938, 47.4193, -3907.278076171875]]], [[[-126.15961, 47.422, -4790.54150390625], [-126.16045, 47.43227, -4437.97998046875], [-126.16731, 47.43101, -5277.7900390625], [-126.15961, 47.422, -4790.54150390625]]], [[[-126.07614, 47.35671, -2806.11767578125], [-126.06743, 47.35788, -1971.77001953125], [-126.07934, 47.36162, -1971.77001953125], [-126.07614, 47.35671, -2806.11767578125]]], [[[-126.01064, 47.2809, -2670.53857421875], [-126.01754, 47.28504, -3460.17578125], [-126.02071, 47.27644, -3673.358154296875], [-126.01064, 47.2809, -2670.53857421875]]], [[[-126.05459, 47.34172, -4347.74951171875], [-126.04394, 47.33362, -4356.0029296875], [-126.04528, 47.34145, -3562.5927734375], [-126.05459, 47.34172, -4347.74951171875]]], [[[-126.06739, 47.34725, -4276.68994140625], [-126.05459, 47.34172, -4347.74951171875], [-126.05852, 47.34759, -3629.628173828125], [-126.06739, 47.34725, -4276.68994140625]]], [[[-126.1169, 47.36248, -5567.0185546875], [-126.11398, 47.36774, -4866.5947265625], [-126.12226, 47.36959, -5533.62841796875], [-126.1169, 47.36248, -5567.0185546875]]], [[[-126.01433, 47.32661, -1971.77001953125], [-126.01794, 47.33474, -1971.77001953125], [-126.02053, 47.33007, -2436.789794921875], [-126.01433, 47.32661, -1971.77001953125]]], [[[-126.00078, 47.24398, -1971.77001953125], [-126.00798, 47.24799, -2598.2197265625], [-126.00685, 47.23938, -2780.447021484375], [-126.00078, 47.24398, -1971.77001953125]]], [[[-126.03331, 47.2486, -5317.103515625], [-126.039, 47.24267, -5957.54443359375], [-126.02795, 47.24336, -4932.84326171875], [-126.03331, 47.2486, -5317.103515625]]], [[[-126.039, 47.24267, -5957.54443359375], [-126.03556, 47.23408, -5942.87451171875], [-126.02791, 47.23548, -5277.7900390625], [-126.039, 47.24267, -5957.54443359375]]], [[[-126.02795, 47.24336, -4932.84326171875], [-126.039, 47.24267, -5957.54443359375], [-126.02791, 47.23548, -5277.7900390625], [-126.02795, 47.24336, -4932.84326171875]]], [[[-126.14749, 47.44338, -2780.447021484375], [-126.14005, 47.44475, -1971.77001953125], [-126.14731, 47.45418, -1971.77001953125], [-126.14749, 47.44338, -2780.447021484375]]], [[[-126.15452, 47.44207, -3613.919921875], [-126.14749, 47.44338, -2780.447021484375], [-126.15475, 47.45281, -2780.447021484375], [-126.15452, 47.44207, -3613.919921875]]], [[[-126.16176, 47.44072, -4437.97998046875], [-126.15452, 47.44207, -3613.919921875], [-126.16179, 47.4515, -3613.919921875], [-126.16176, 47.44072, -4437.97998046875]]], [[[-126.16179, 47.4515, -3613.919921875], [-126.15452, 47.44207, -3613.919921875], [-126.15475, 47.45281, -2780.447021484375], [-126.16179, 47.4515, -3613.919921875]]], [[[-126.16862, 47.43945, -5277.7900390625], [-126.16176, 47.44072, -4437.97998046875], [-126.16902, 47.45015, -4437.97998046875], [-126.16862, 47.43945, -5277.7900390625]]], [[[-126.16902, 47.45015, -4437.97998046875], [-126.16176, 47.44072, -4437.97998046875], [-126.16179, 47.4515, -3613.919921875], [-126.16902, 47.45015, -4437.97998046875]]], [[[-126.17307, 47.44038, -5561.84326171875], [-126.16862, 47.43945, -5277.7900390625], [-126.17589, 47.44888, -5277.7900390625], [-126.17307, 47.44038, -5561.84326171875]]], [[[-126.17589, 47.44888, -5277.7900390625], [-126.16862, 47.43945, -5277.7900390625], [-126.16902, 47.45015, -4437.97998046875], [-126.17589, 47.44888, -5277.7900390625]]], [[[-126.16862, 47.43945, -5277.7900390625], [-126.17307, 47.44038, -5561.84326171875], [-126.17086, 47.43161, -5567.765625], [-126.16862, 47.43945, -5277.7900390625]]], [[[-126.16731, 47.43101, -5277.7900390625], [-126.17086, 47.43161, -5567.765625], [-126.16806, 47.42292, -5561.4072265625], [-126.16731, 47.43101, -5277.7900390625]]], [[[-126.17307, 47.44038, -5561.84326171875], [-126.17589, 47.44888, -5277.7900390625], [-126.17902, 47.44831, -5549.07861328125], [-126.17307, 47.44038, -5561.84326171875]]]]}}]}