{"type": "FeatureCollection", "features": [{"type": "Feature", "properties": {"name": "La Pine Graben (west)", "CFM_ID": 335, "region": "ForearcIntraarc_OR", "primary_state/province": "OR", "secondary_state/province": null, "avg_dip": 61, "dip_dir": "E", "rake": -110, "slip_sense": "Normal and Dextral", "fault_level": 1, "NSHM23_sliprates": null, "QFFDAgeCatBin": "late Quaternary", "QFFDAgeBin": "<130,001", "upper_depth": 1.3, "upper_depth_constraint": "topography", "lower_depth": -13.9, "lower_depth_constraint": "SDL", "3D_model_constraints": "trace extended at constant dip", "reference": "Alexander et al. (2022); Vadman and Bemis (2019); USGS QFFD", "nshm23_id": 2567.0, "lineage": "split and modified geometry", "usgs_qffd_#": "838", "comments": "Dillman Meadows section", "id": "335"}, "geometry": {"type": "MultiPolygon", "coordinates": [[[[-121.64999, 43.73454, 479.94403076171875], [-121.65484, 43.72868, 1293.10791015625], [-121.64765, 43.72542, 479.0994873046875], [-121.64999, 43.73454, 479.94403076171875]]], [[[-121.61156, 43.72896, -4979.21337890625], [-121.60506, 43.72902, -5919.22998046875], [-121.60883, 43.73723, -5466.6142578125], [-121.61156, 43.72896, -4979.21337890625]]], [[[-121.60883, 43.73723, -5466.6142578125], [-121.60423, 43.74532, -5867.57958984375], [-121.61045, 43.74553, -4972.7421875], [-121.60883, 43.73723, -5466.6142578125]]], [[[-121.59946, 43.70524, -6376.01953125], [-121.59313, 43.70512, -7288.31591796875], [-121.59486, 43.71385, -6870.28515625], [-121.59946, 43.70524, -6376.01953125]]], [[[-121.65112, 43.71993, 1291.835693359375], [-121.64606, 43.71502, 487.322265625], [-121.64063, 43.72048, -201.96255493164062], [-121.65112, 43.71993, 1291.835693359375]]], [[[-121.60237, 43.73723, -6390.228515625], [-121.60423, 43.74532, -5867.57958984375], [-121.60883, 43.73723, -5466.6142578125], [-121.60237, 43.73723, -6390.228515625]]], [[[-121.59289, 43.73147, -7715.994140625], [-121.58691, 43.73138, -8578.5615234375], [-121.58989, 43.73812, -8143.8134765625], [-121.59289, 43.73147, -7715.994140625]]], [[[-121.60237, 43.73723, -6390.228515625], [-121.59801, 43.74511, -6762.4169921875], [-121.60423, 43.74532, -5867.57958984375], [-121.60237, 43.73723, -6390.228515625]]], [[[-121.59613, 43.73822, -7249.67138671875], [-121.59801, 43.74511, -6762.4169921875], [-121.60237, 43.73723, -6390.228515625], [-121.59613, 43.73822, -7249.67138671875]]], [[[-121.6489, 43.69624, 488.64093017578125], [-121.65559, 43.69243, 1288.8955078125], [-121.65182, 43.68709, 470.84661865234375], [-121.6489, 43.69624, 488.64093017578125]]], [[[-121.59613, 43.73822, -7249.67138671875], [-121.59179, 43.74489, -7657.25439453125], [-121.59801, 43.74511, -6762.4169921875], [-121.59613, 43.73822, -7249.67138671875]]], [[[-121.62128, 43.73764, -3676.408935546875], [-121.6229, 43.74595, -3183.067138671875], [-121.6275, 43.73785, -2781.268310546875], [-121.62128, 43.73764, -3676.408935546875]]], [[[-121.60882, 43.71283, -4886.72412109375], [-121.60161, 43.71365, -5905.736328125], [-121.60558, 43.72106, -5358.5341796875], [-121.60882, 43.71283, -4886.72412109375]]], [[[-121.61553, 43.71277, -3926.256103515625], [-121.6184, 43.72128, -3499.533935546875], [-121.62215, 43.71333, -2967.704833984375], [-121.61553, 43.71277, -3926.256103515625]]], [[[-121.58989, 43.73812, -8143.8134765625], [-121.59179, 43.74489, -7657.25439453125], [-121.59613, 43.73822, -7249.67138671875], [-121.58989, 43.73812, -8143.8134765625]]], [[[-121.62128, 43.73764, -3676.408935546875], [-121.61668, 43.74574, -4077.904541015625], [-121.6229, 43.74595, -3183.067138671875], [-121.62128, 43.73764, -3676.408935546875]]], [[[-121.58989, 43.73812, -8143.8134765625], [-121.58557, 43.74468, -8552.091796875], [-121.59179, 43.74489, -7657.25439453125], [-121.58989, 43.73812, -8143.8134765625]]], [[[-121.58367, 43.73791, -9038.958984375], [-121.58557, 43.74468, -8552.091796875], [-121.58989, 43.73812, -8143.8134765625], [-121.58367, 43.73791, -9038.958984375]]], [[[-121.60161, 43.71365, -5905.736328125], [-121.59946, 43.70524, -6376.01953125], [-121.59486, 43.71385, -6870.28515625], [-121.60161, 43.71365, -5905.736328125]]], [[[-121.61156, 43.72896, -4979.21337890625], [-121.60558, 43.72106, -5358.5341796875], [-121.60506, 43.72902, -5919.22998046875], [-121.61156, 43.72896, -4979.21337890625]]], [[[-121.58367, 43.73791, -9038.958984375], [-121.57935, 43.74447, -9446.9287109375], [-121.58557, 43.74468, -8552.091796875], [-121.58367, 43.73791, -9038.958984375]]], [[[-121.64571, 43.73896, -146.3043670654297], [-121.64156, 43.74658, -498.5548400878906], [-121.64778, 43.74679, 396.2825622558594], [-121.64571, 43.73896, -146.3043670654297]]], [[[-121.57745, 43.73769, -9934.0908203125], [-121.57935, 43.74447, -9446.9287109375], [-121.58367, 43.73791, -9038.958984375], [-121.57745, 43.73769, -9934.0908203125]]], [[[-121.61045, 43.74553, -4972.7421875], [-121.61668, 43.74574, -4077.904541015625], [-121.61506, 43.73744, -4571.525390625], [-121.61045, 43.74553, -4972.7421875]]], [[[-121.64999, 43.73454, 479.94403076171875], [-121.65599, 43.73787, 1292.673583984375], [-121.65484, 43.72868, 1293.10791015625], [-121.64999, 43.73454, 479.94403076171875]]], [[[-121.61219, 43.72101, -4388.10546875], [-121.61156, 43.72896, -4979.21337890625], [-121.6178, 43.72926, -4083.69384765625], [-121.61219, 43.72101, -4388.10546875]]], [[[-121.57745, 43.73769, -9934.0908203125], [-121.57313, 43.74426, -10341.7666015625], [-121.57935, 43.74447, -9446.9287109375], [-121.57745, 43.73769, -9934.0908203125]]], [[[-121.6353, 43.71526, -1051.9388427734375], [-121.64063, 43.72048, -201.96255493164062], [-121.64104, 43.71011, -318.3326110839844], [-121.6353, 43.71526, -1051.9388427734375]]], [[[-121.60883, 43.73723, -5466.6142578125], [-121.61045, 43.74553, -4972.7421875], [-121.61506, 43.73744, -4571.525390625], [-121.60883, 43.73723, -5466.6142578125]]], [[[-121.64311, 43.7301, -441.54901123046875], [-121.64999, 43.73454, 479.94403076171875], [-121.64765, 43.72542, 479.0994873046875], [-121.64311, 43.7301, -441.54901123046875]]], [[[-121.57122, 43.73748, -10829.212890625], [-121.57313, 43.74426, -10341.7666015625], [-121.57745, 43.73769, -9934.0908203125], [-121.57122, 43.73748, -10829.212890625]]], [[[-121.63641, 43.73051, -1416.1490478515625], [-121.63143, 43.72171, -1623.2672119140625], [-121.63024, 43.72968, -2292.924560546875], [-121.63641, 43.73051, -1416.1490478515625]]], [[[-121.6275, 43.73785, -2781.268310546875], [-121.62912, 43.74616, -2288.229736328125], [-121.63373, 43.73806, -1886.1141357421875], [-121.6275, 43.73785, -2781.268310546875]]], [[[-121.64063, 43.72048, -201.96255493164062], [-121.6353, 43.71526, -1051.9388427734375], [-121.63143, 43.72171, -1623.2672119140625], [-121.64063, 43.72048, -201.96255493164062]]], [[[-121.57122, 43.73748, -10829.212890625], [-121.56691, 43.74404, -11236.603515625], [-121.57313, 43.74426, -10341.7666015625], [-121.57122, 43.73748, -10829.212890625]]], [[[-121.56503, 43.73705, -11727.16015625], [-121.56691, 43.74404, -11236.603515625], [-121.57122, 43.73748, -10829.212890625], [-121.56503, 43.73705, -11727.16015625]]], [[[-121.59903, 43.72203, -6387.67041015625], [-121.60506, 43.72902, -5919.22998046875], [-121.60558, 43.72106, -5358.5341796875], [-121.59903, 43.72203, -6387.67041015625]]], [[[-121.56503, 43.73705, -11727.16015625], [-121.56069, 43.74383, -12131.44140625], [-121.56691, 43.74404, -11236.603515625], [-121.56503, 43.73705, -11727.16015625]]], [[[-121.55915, 43.73735, -12557.302734375], [-121.56069, 43.74383, -12131.44140625], [-121.56503, 43.73705, -11727.16015625], [-121.55915, 43.73735, -12557.302734375]]], [[[-121.63143, 43.72171, -1623.2672119140625], [-121.63641, 43.73051, -1416.1490478515625], [-121.63679, 43.72382, -993.3906860351562], [-121.63143, 43.72171, -1623.2672119140625]]], [[[-121.55915, 43.73735, -12557.302734375], [-121.55447, 43.74361, -13026.2783203125], [-121.56069, 43.74383, -12131.44140625], [-121.55915, 43.73735, -12557.302734375]]], [[[-121.64713, 43.70574, 487.5739440917969], [-121.65333, 43.70152, 1287.85205078125], [-121.6489, 43.69624, 488.64093017578125], [-121.64713, 43.70574, 487.5739440917969]]], [[[-121.60882, 43.71283, -4886.72412109375], [-121.61219, 43.72101, -4388.10546875], [-121.61553, 43.71277, -3926.256103515625], [-121.60882, 43.71283, -4886.72412109375]]], [[[-121.61997, 43.70542, -3423.8984375], [-121.61307, 43.70466, -4428.1904296875], [-121.61553, 43.71277, -3926.256103515625], [-121.61997, 43.70542, -3423.8984375]]], [[[-121.6275, 43.73785, -2781.268310546875], [-121.6229, 43.74595, -3183.067138671875], [-121.62912, 43.74616, -2288.229736328125], [-121.6275, 43.73785, -2781.268310546875]]], [[[-121.60506, 43.72902, -5919.22998046875], [-121.5984, 43.73038, -6902.0546875], [-121.60237, 43.73723, -6390.228515625], [-121.60506, 43.72902, -5919.22998046875]]], [[[-121.58167, 43.70608, -8920.044921875], [-121.58682, 43.69637, -8371.1025390625], [-121.58033, 43.6966, -9290.1884765625], [-121.58167, 43.70608, -8920.044921875]]], [[[-121.55527, 43.73261, -13166.4208984375], [-121.54971, 43.72846, -13904.1953125], [-121.54996, 43.73581, -13917.453125], [-121.55527, 43.73261, -13166.4208984375]]], [[[-121.55527, 43.73261, -13166.4208984375], [-121.55303, 43.72496, -13335.056640625], [-121.54971, 43.72846, -13904.1953125], [-121.55527, 43.73261, -13166.4208984375]]], [[[-121.60506, 43.72902, -5919.22998046875], [-121.60237, 43.73723, -6390.228515625], [-121.60883, 43.73723, -5466.6142578125], [-121.60506, 43.72902, -5919.22998046875]]], [[[-121.56507, 43.70316, -11355.5947265625], [-121.55855, 43.70703, -12230.3515625], [-121.56372, 43.71308, -11345.0986328125], [-121.56507, 43.70316, -11355.5947265625]]], [[[-121.55746, 43.72439, -12644.8447265625], [-121.55303, 43.72496, -13335.056640625], [-121.55527, 43.73261, -13166.4208984375], [-121.55746, 43.72439, -12644.8447265625]]], [[[-121.59486, 43.71385, -6870.28515625], [-121.59313, 43.70512, -7288.31591796875], [-121.58893, 43.71413, -7715.802734375], [-121.59486, 43.71385, -6870.28515625]]], [[[-121.55746, 43.72439, -12644.8447265625], [-121.55153, 43.71867, -13095.326171875], [-121.55303, 43.72496, -13335.056640625], [-121.55746, 43.72439, -12644.8447265625]]], [[[-121.58222, 43.72317, -8931.4794921875], [-121.58691, 43.73138, -8578.5615234375], [-121.58803, 43.72329, -8089.7900390625], [-121.58222, 43.72317, -8931.4794921875]]], [[[-121.60882, 43.71283, -4886.72412109375], [-121.60558, 43.72106, -5358.5341796875], [-121.61219, 43.72101, -4388.10546875], [-121.60882, 43.71283, -4886.72412109375]]], [[[-121.55746, 43.72439, -12644.8447265625], [-121.55707, 43.71601, -12250.181640625], [-121.55153, 43.71867, -13095.326171875], [-121.55746, 43.72439, -12644.8447265625]]], [[[-121.61997, 43.70542, -3423.8984375], [-121.61806, 43.69702, -3889.935546875], [-121.61307, 43.70466, -4428.1904296875], [-121.61997, 43.70542, -3423.8984375]]], [[[-121.59486, 43.71385, -6870.28515625], [-121.58893, 43.71413, -7715.802734375], [-121.5931, 43.72255, -7293.7978515625], [-121.59486, 43.71385, -6870.28515625]]], [[[-121.55746, 43.72439, -12644.8447265625], [-121.56266, 43.72289, -11774.3193359375], [-121.55707, 43.71601, -12250.181640625], [-121.55746, 43.72439, -12644.8447265625]]], [[[-121.56185, 43.73107, -12192.5947265625], [-121.56266, 43.72289, -11774.3193359375], [-121.55746, 43.72439, -12644.8447265625], [-121.56185, 43.73107, -12192.5947265625]]], [[[-121.56185, 43.73107, -12192.5947265625], [-121.56823, 43.73038, -11260.1396484375], [-121.56266, 43.72289, -11774.3193359375], [-121.56185, 43.73107, -12192.5947265625]]], [[[-121.60161, 43.71365, -5905.736328125], [-121.59903, 43.72203, -6387.67041015625], [-121.60558, 43.72106, -5358.5341796875], [-121.60161, 43.71365, -5905.736328125]]], [[[-121.59946, 43.70524, -6376.01953125], [-121.60536, 43.69671, -5713.2470703125], [-121.59915, 43.69656, -6604.22900390625], [-121.59946, 43.70524, -6376.01953125]]], [[[-121.56185, 43.73107, -12192.5947265625], [-121.56503, 43.73705, -11727.16015625], [-121.56823, 43.73038, -11260.1396484375], [-121.56185, 43.73107, -12192.5947265625]]], [[[-121.56185, 43.73107, -12192.5947265625], [-121.55915, 43.73735, -12557.302734375], [-121.56503, 43.73705, -11727.16015625], [-121.56185, 43.73107, -12192.5947265625]]], [[[-121.55915, 43.73735, -12557.302734375], [-121.56185, 43.73107, -12192.5947265625], [-121.55527, 43.73261, -13166.4208984375], [-121.55915, 43.73735, -12557.302734375]]], [[[-121.58803, 43.72329, -8089.7900390625], [-121.59289, 43.73147, -7715.994140625], [-121.5931, 43.72255, -7293.7978515625], [-121.58803, 43.72329, -8089.7900390625]]], [[[-121.55746, 43.72439, -12644.8447265625], [-121.55527, 43.73261, -13166.4208984375], [-121.56185, 43.73107, -12192.5947265625], [-121.55746, 43.72439, -12644.8447265625]]], [[[-121.56823, 43.73038, -11260.1396484375], [-121.56503, 43.73705, -11727.16015625], [-121.57122, 43.73748, -10829.212890625], [-121.56823, 43.73038, -11260.1396484375]]], [[[-121.60161, 43.71365, -5905.736328125], [-121.59486, 43.71385, -6870.28515625], [-121.59903, 43.72203, -6387.67041015625], [-121.60161, 43.71365, -5905.736328125]]], [[[-121.57433, 43.73075, -10384.201171875], [-121.56823, 43.73038, -11260.1396484375], [-121.57122, 43.73748, -10829.212890625], [-121.57433, 43.73075, -10384.201171875]]], [[[-121.57574, 43.70617, -9771.9765625], [-121.57046, 43.71422, -10360.2734375], [-121.57744, 43.71488, -9349.9970703125], [-121.57574, 43.70617, -9771.9765625]]], [[[-121.5688, 43.7225, -10847.1435546875], [-121.56823, 43.73038, -11260.1396484375], [-121.57433, 43.73075, -10384.201171875], [-121.5688, 43.7225, -10847.1435546875]]], [[[-121.63373, 43.73806, -1886.1141357421875], [-121.62912, 43.74616, -2288.229736328125], [-121.63534, 43.74637, -1393.3922119140625], [-121.63373, 43.73806, -1886.1141357421875]]], [[[-121.57744, 43.71488, -9349.9970703125], [-121.57046, 43.71422, -10360.2734375], [-121.57559, 43.7227, -9867.9189453125], [-121.57744, 43.71488, -9349.9970703125]]], [[[-121.5688, 43.7225, -10847.1435546875], [-121.56266, 43.72289, -11774.3193359375], [-121.56823, 43.73038, -11260.1396484375], [-121.5688, 43.7225, -10847.1435546875]]], [[[-121.57046, 43.71422, -10360.2734375], [-121.56372, 43.71308, -11345.0986328125], [-121.5688, 43.7225, -10847.1435546875], [-121.57046, 43.71422, -10360.2734375]]], [[[-121.56372, 43.71308, -11345.0986328125], [-121.56266, 43.72289, -11774.3193359375], [-121.5688, 43.7225, -10847.1435546875], [-121.56372, 43.71308, -11345.0986328125]]], [[[-121.58719, 43.70536, -8138.462890625], [-121.58349, 43.71492, -8481.7255859375], [-121.58893, 43.71413, -7715.802734375], [-121.58719, 43.70536, -8138.462890625]]], [[[-121.61997, 43.70542, -3423.8984375], [-121.62425, 43.69725, -2998.888427734375], [-121.61806, 43.69702, -3889.935546875], [-121.61997, 43.70542, -3423.8984375]]], [[[-121.56266, 43.72289, -11774.3193359375], [-121.56372, 43.71308, -11345.0986328125], [-121.55707, 43.71601, -12250.181640625], [-121.56266, 43.72289, -11774.3193359375]]], [[[-121.59313, 43.70512, -7288.31591796875], [-121.59946, 43.70524, -6376.01953125], [-121.59915, 43.69656, -6604.22900390625], [-121.59313, 43.70512, -7288.31591796875]]], [[[-121.5688, 43.7225, -10847.1435546875], [-121.57433, 43.73075, -10384.201171875], [-121.57559, 43.7227, -9867.9189453125], [-121.5688, 43.7225, -10847.1435546875]]], [[[-121.55707, 43.71601, -12250.181640625], [-121.56372, 43.71308, -11345.0986328125], [-121.55855, 43.70703, -12230.3515625], [-121.55707, 43.71601, -12250.181640625]]], [[[-121.57433, 43.73075, -10384.201171875], [-121.57122, 43.73748, -10829.212890625], [-121.57745, 43.73769, -9934.0908203125], [-121.57433, 43.73075, -10384.201171875]]], [[[-121.5984, 43.73038, -6902.0546875], [-121.5931, 43.72255, -7293.7978515625], [-121.59289, 43.73147, -7715.994140625], [-121.5984, 43.73038, -6902.0546875]]], [[[-121.61307, 43.70466, -4428.1904296875], [-121.60606, 43.70517, -5427.16015625], [-121.60882, 43.71283, -4886.72412109375], [-121.61307, 43.70466, -4428.1904296875]]], [[[-121.55855, 43.70703, -12230.3515625], [-121.55209, 43.71089, -13060.509765625], [-121.55707, 43.71601, -12250.181640625], [-121.55855, 43.70703, -12230.3515625]]], [[[-121.57023, 43.7053, -10578.0009765625], [-121.5729, 43.69654, -10352.537109375], [-121.56507, 43.70316, -11355.5947265625], [-121.57023, 43.7053, -10578.0009765625]]], [[[-121.57744, 43.71488, -9349.9970703125], [-121.57559, 43.7227, -9867.9189453125], [-121.58222, 43.72317, -8931.4794921875], [-121.57744, 43.71488, -9349.9970703125]]], [[[-121.55855, 43.70703, -12230.3515625], [-121.55347, 43.70176, -13029.9189453125], [-121.55209, 43.71089, -13060.509765625], [-121.55855, 43.70703, -12230.3515625]]], [[[-121.61307, 43.70466, -4428.1904296875], [-121.61166, 43.69675, -4811.85302734375], [-121.60606, 43.70517, -5427.16015625], [-121.61307, 43.70466, -4428.1904296875]]], [[[-121.58893, 43.71413, -7715.802734375], [-121.58803, 43.72329, -8089.7900390625], [-121.5931, 43.72255, -7293.7978515625], [-121.58893, 43.71413, -7715.802734375]]], [[[-121.55855, 43.70703, -12230.3515625], [-121.5597, 43.69824, -12182.5419921875], [-121.55347, 43.70176, -13029.9189453125], [-121.55855, 43.70703, -12230.3515625]]], [[[-121.58068, 43.73117, -9473.720703125], [-121.57745, 43.73769, -9934.0908203125], [-121.58367, 43.73791, -9038.958984375], [-121.58068, 43.73117, -9473.720703125]]], [[[-121.58893, 43.71413, -7715.802734375], [-121.58349, 43.71492, -8481.7255859375], [-121.58803, 43.72329, -8089.7900390625], [-121.58893, 43.71413, -7715.802734375]]], [[[-121.56507, 43.70316, -11355.5947265625], [-121.5597, 43.69824, -12182.5419921875], [-121.55855, 43.70703, -12230.3515625], [-121.56507, 43.70316, -11355.5947265625]]], [[[-121.56507, 43.70316, -11355.5947265625], [-121.56657, 43.69455, -11320.5126953125], [-121.5597, 43.69824, -12182.5419921875], [-121.56507, 43.70316, -11355.5947265625]]], [[[-121.5729, 43.69654, -10352.537109375], [-121.56657, 43.69455, -11320.5126953125], [-121.56507, 43.70316, -11355.5947265625], [-121.5729, 43.69654, -10352.537109375]]], [[[-121.58068, 43.73117, -9473.720703125], [-121.57433, 43.73075, -10384.201171875], [-121.57745, 43.73769, -9934.0908203125], [-121.58068, 43.73117, -9473.720703125]]], [[[-121.5729, 43.69654, -10352.537109375], [-121.57373, 43.68721, -10616.640625], [-121.56657, 43.69455, -11320.5126953125], [-121.5729, 43.69654, -10352.537109375]]], [[[-121.5729, 43.69654, -10352.537109375], [-121.5798, 43.68761, -9732.224609375], [-121.57373, 43.68721, -10616.640625], [-121.5729, 43.69654, -10352.537109375]]], [[[-121.56372, 43.71308, -11345.0986328125], [-121.57023, 43.7053, -10578.0009765625], [-121.56507, 43.70316, -11355.5947265625], [-121.56372, 43.71308, -11345.0986328125]]], [[[-121.58033, 43.6966, -9290.1884765625], [-121.5798, 43.68761, -9732.224609375], [-121.5729, 43.69654, -10352.537109375], [-121.58033, 43.6966, -9290.1884765625]]], [[[-121.60161, 43.71365, -5905.736328125], [-121.60882, 43.71283, -4886.72412109375], [-121.60606, 43.70517, -5427.16015625], [-121.60161, 43.71365, -5905.736328125]]], [[[-121.57574, 43.70617, -9771.9765625], [-121.57744, 43.71488, -9349.9970703125], [-121.58167, 43.70608, -8920.044921875], [-121.57574, 43.70617, -9771.9765625]]], [[[-121.58033, 43.6966, -9290.1884765625], [-121.58617, 43.68756, -8829.6611328125], [-121.5798, 43.68761, -9732.224609375], [-121.58033, 43.6966, -9290.1884765625]]], [[[-121.58803, 43.72329, -8089.7900390625], [-121.58691, 43.73138, -8578.5615234375], [-121.59289, 43.73147, -7715.994140625], [-121.58803, 43.72329, -8089.7900390625]]], [[[-121.58682, 43.69637, -8371.1025390625], [-121.58617, 43.68756, -8829.6611328125], [-121.58033, 43.6966, -9290.1884765625], [-121.58682, 43.69637, -8371.1025390625]]], [[[-121.58222, 43.72317, -8931.4794921875], [-121.58068, 43.73117, -9473.720703125], [-121.58691, 43.73138, -8578.5615234375], [-121.58222, 43.72317, -8931.4794921875]]], [[[-121.58617, 43.68756, -8829.6611328125], [-121.58682, 43.69637, -8371.1025390625], [-121.59244, 43.68766, -7934.822265625], [-121.58617, 43.68756, -8829.6611328125]]], [[[-121.59486, 43.71385, -6870.28515625], [-121.5931, 43.72255, -7293.7978515625], [-121.59903, 43.72203, -6387.67041015625], [-121.59486, 43.71385, -6870.28515625]]], [[[-121.58617, 43.68756, -8829.6611328125], [-121.59244, 43.68766, -7934.822265625], [-121.59096, 43.67922, -8422.3056640625], [-121.58617, 43.68756, -8829.6611328125]]], [[[-121.58617, 43.68756, -8829.6611328125], [-121.59096, 43.67922, -8422.3056640625], [-121.58482, 43.67899, -9306.7255859375], [-121.58617, 43.68756, -8829.6611328125]]], [[[-121.5798, 43.68761, -9732.224609375], [-121.58617, 43.68756, -8829.6611328125], [-121.58482, 43.67899, -9306.7255859375], [-121.5798, 43.68761, -9732.224609375]]], [[[-121.60506, 43.72902, -5919.22998046875], [-121.59903, 43.72203, -6387.67041015625], [-121.5984, 43.73038, -6902.0546875], [-121.60506, 43.72902, -5919.22998046875]]], [[[-121.5798, 43.68761, -9732.224609375], [-121.58482, 43.67899, -9306.7255859375], [-121.57867, 43.67876, -10191.1455078125], [-121.5798, 43.68761, -9732.224609375]]], [[[-121.57559, 43.7227, -9867.9189453125], [-121.58068, 43.73117, -9473.720703125], [-121.58222, 43.72317, -8931.4794921875], [-121.57559, 43.7227, -9867.9189453125]]], [[[-121.61553, 43.71277, -3926.256103515625], [-121.61307, 43.70466, -4428.1904296875], [-121.60882, 43.71283, -4886.72412109375], [-121.61553, 43.71277, -3926.256103515625]]], [[[-121.5798, 43.68761, -9732.224609375], [-121.57867, 43.67876, -10191.1455078125], [-121.57373, 43.68721, -10616.640625], [-121.5798, 43.68761, -9732.224609375]]], [[[-121.65083, 43.67274, 54.54159927368164], [-121.65931, 43.67422, 1294.496337890625], [-121.65385, 43.66477, 410.2751159667969], [-121.65083, 43.67274, 54.54159927368164]]], [[[-121.58167, 43.70608, -8920.044921875], [-121.57744, 43.71488, -9349.9970703125], [-121.58349, 43.71492, -8481.7255859375], [-121.58167, 43.70608, -8920.044921875]]], [[[-121.57373, 43.68721, -10616.640625], [-121.57867, 43.67876, -10191.1455078125], [-121.57226, 43.67858, -11113.212890625], [-121.57373, 43.68721, -10616.640625]]], [[[-121.57373, 43.68721, -10616.640625], [-121.57226, 43.67858, -11113.212890625], [-121.56809, 43.68637, -11461.3857421875], [-121.57373, 43.68721, -10616.640625]]], [[[-121.58691, 43.73138, -8578.5615234375], [-121.58367, 43.73791, -9038.958984375], [-121.58989, 43.73812, -8143.8134765625], [-121.58691, 43.73138, -8578.5615234375]]], [[[-121.64063, 43.72048, -201.96255493164062], [-121.64311, 43.7301, -441.54901123046875], [-121.64765, 43.72542, 479.0994873046875], [-121.64063, 43.72048, -201.96255493164062]]], [[[-121.56809, 43.68637, -11461.3857421875], [-121.56657, 43.69455, -11320.5126953125], [-121.57373, 43.68721, -10616.640625], [-121.56809, 43.68637, -11461.3857421875]]], [[[-121.58349, 43.71492, -8481.7255859375], [-121.57744, 43.71488, -9349.9970703125], [-121.58222, 43.72317, -8931.4794921875], [-121.58349, 43.71492, -8481.7255859375]]], [[[-121.56657, 43.69455, -11320.5126953125], [-121.56809, 43.68637, -11461.3857421875], [-121.56172, 43.68965, -12192.6357421875], [-121.56657, 43.69455, -11320.5126953125]]], [[[-121.63373, 43.73806, -1886.1141357421875], [-121.63641, 43.73051, -1416.1490478515625], [-121.63024, 43.72968, -2292.924560546875], [-121.63373, 43.73806, -1886.1141357421875]]], [[[-121.56657, 43.69455, -11320.5126953125], [-121.56172, 43.68965, -12192.6357421875], [-121.5597, 43.69824, -12182.5419921875], [-121.56657, 43.69455, -11320.5126953125]]], [[[-121.56172, 43.68965, -12192.6357421875], [-121.55502, 43.69333, -13007.8017578125], [-121.5597, 43.69824, -12182.5419921875], [-121.56172, 43.68965, -12192.6357421875]]], [[[-121.56172, 43.68965, -12192.6357421875], [-121.55809, 43.68421, -12996.388671875], [-121.55502, 43.69333, -13007.8017578125], [-121.56172, 43.68965, -12192.6357421875]]], [[[-121.56372, 43.71308, -11345.0986328125], [-121.57046, 43.71422, -10360.2734375], [-121.57023, 43.7053, -10578.0009765625], [-121.56372, 43.71308, -11345.0986328125]]], [[[-121.56505, 43.67961, -12130.2451171875], [-121.55809, 43.68421, -12996.388671875], [-121.56172, 43.68965, -12192.6357421875], [-121.56505, 43.67961, -12130.2451171875]]], [[[-121.5984, 43.73038, -6902.0546875], [-121.59613, 43.73822, -7249.67138671875], [-121.60237, 43.73723, -6390.228515625], [-121.5984, 43.73038, -6902.0546875]]], [[[-121.56505, 43.67961, -12130.2451171875], [-121.55965, 43.67424, -12987.6455078125], [-121.55809, 43.68421, -12996.388671875], [-121.56505, 43.67961, -12130.2451171875]]], [[[-121.58349, 43.71492, -8481.7255859375], [-121.58222, 43.72317, -8931.4794921875], [-121.58803, 43.72329, -8089.7900390625], [-121.58349, 43.71492, -8481.7255859375]]], [[[-121.56505, 43.67961, -12130.2451171875], [-121.56435, 43.66976, -12389.14453125], [-121.55965, 43.67424, -12987.6455078125], [-121.56505, 43.67961, -12130.2451171875]]], [[[-121.56435, 43.66976, -12389.14453125], [-121.56505, 43.67961, -12130.2451171875], [-121.57012, 43.6704, -11551.0654296875], [-121.56435, 43.66976, -12389.14453125]]], [[[-121.58719, 43.70536, -8138.462890625], [-121.58893, 43.71413, -7715.802734375], [-121.59313, 43.70512, -7288.31591796875], [-121.58719, 43.70536, -8138.462890625]]], [[[-121.57012, 43.6704, -11551.0654296875], [-121.5678, 43.66154, -11969.671875], [-121.56435, 43.66976, -12389.14453125], [-121.57012, 43.6704, -11551.0654296875]]], [[[-121.57023, 43.7053, -10578.0009765625], [-121.57046, 43.71422, -10360.2734375], [-121.57574, 43.70617, -9771.9765625], [-121.57023, 43.7053, -10578.0009765625]]], [[[-121.57012, 43.6704, -11551.0654296875], [-121.57395, 43.66178, -11085.3896484375], [-121.5678, 43.66154, -11969.671875], [-121.57012, 43.6704, -11551.0654296875]]], [[[-121.57012, 43.6704, -11551.0654296875], [-121.57646, 43.67026, -10645.0302734375], [-121.57395, 43.66178, -11085.3896484375], [-121.57012, 43.6704, -11551.0654296875]]], [[[-121.57226, 43.67858, -11113.212890625], [-121.57646, 43.67026, -10645.0302734375], [-121.57012, 43.6704, -11551.0654296875], [-121.57226, 43.67858, -11113.212890625]]], [[[-121.57226, 43.67858, -11113.212890625], [-121.57867, 43.67876, -10191.1455078125], [-121.57646, 43.67026, -10645.0302734375], [-121.57226, 43.67858, -11113.212890625]]], [[[-121.5931, 43.72255, -7293.7978515625], [-121.5984, 43.73038, -6902.0546875], [-121.59903, 43.72203, -6387.67041015625], [-121.5931, 43.72255, -7293.7978515625]]], [[[-121.57867, 43.67876, -10191.1455078125], [-121.5826, 43.67049, -9760.6083984375], [-121.57646, 43.67026, -10645.0302734375], [-121.57867, 43.67876, -10191.1455078125]]], [[[-121.57867, 43.67876, -10191.1455078125], [-121.58482, 43.67899, -9306.7255859375], [-121.5826, 43.67049, -9760.6083984375], [-121.57867, 43.67876, -10191.1455078125]]], [[[-121.58875, 43.67072, -8876.1865234375], [-121.5826, 43.67049, -9760.6083984375], [-121.58482, 43.67899, -9306.7255859375], [-121.58875, 43.67072, -8876.1865234375]]], [[[-121.58875, 43.67072, -8876.1865234375], [-121.58624, 43.66224, -9316.826171875], [-121.5826, 43.67049, -9760.6083984375], [-121.58875, 43.67072, -8876.1865234375]]], [[[-121.58875, 43.67072, -8876.1865234375], [-121.59239, 43.66247, -8432.5439453125], [-121.58624, 43.66224, -9316.826171875], [-121.58875, 43.67072, -8876.1865234375]]], [[[-121.58875, 43.67072, -8876.1865234375], [-121.59489, 43.67095, -7991.7646484375], [-121.59239, 43.66247, -8432.5439453125], [-121.58875, 43.67072, -8876.1865234375]]], [[[-121.58875, 43.67072, -8876.1865234375], [-121.59096, 43.67922, -8422.3056640625], [-121.59489, 43.67095, -7991.7646484375], [-121.58875, 43.67072, -8876.1865234375]]], [[[-121.59096, 43.67922, -8422.3056640625], [-121.58875, 43.67072, -8876.1865234375], [-121.58482, 43.67899, -9306.7255859375], [-121.59096, 43.67922, -8422.3056640625]]], [[[-121.59711, 43.67946, -7537.88623046875], [-121.59489, 43.67095, -7991.7646484375], [-121.59096, 43.67922, -8422.3056640625], [-121.59711, 43.67946, -7537.88623046875]]], [[[-121.59489, 43.67095, -7991.7646484375], [-121.59711, 43.67946, -7537.88623046875], [-121.60104, 43.67119, -7107.34228515625], [-121.59489, 43.67095, -7991.7646484375]]], [[[-121.59489, 43.67095, -7991.7646484375], [-121.60104, 43.67119, -7107.34228515625], [-121.59853, 43.66271, -7548.26220703125], [-121.59489, 43.67095, -7991.7646484375]]], [[[-121.59489, 43.67095, -7991.7646484375], [-121.59853, 43.66271, -7548.26220703125], [-121.59239, 43.66247, -8432.5439453125], [-121.59489, 43.67095, -7991.7646484375]]], [[[-121.60104, 43.67119, -7107.34228515625], [-121.60468, 43.66294, -6663.97998046875], [-121.59853, 43.66271, -7548.26220703125], [-121.60104, 43.67119, -7107.34228515625]]], [[[-121.60718, 43.67142, -6222.92041015625], [-121.60468, 43.66294, -6663.97998046875], [-121.60104, 43.67119, -7107.34228515625], [-121.60718, 43.67142, -6222.92041015625]]], [[[-121.60718, 43.67142, -6222.92041015625], [-121.61082, 43.66317, -5779.6982421875], [-121.60468, 43.66294, -6663.97998046875], [-121.60718, 43.67142, -6222.92041015625]]], [[[-121.60718, 43.67142, -6222.92041015625], [-121.61332, 43.67165, -5338.49853515625], [-121.61082, 43.66317, -5779.6982421875], [-121.60718, 43.67142, -6222.92041015625]]], [[[-121.61332, 43.67165, -5338.49853515625], [-121.60718, 43.67142, -6222.92041015625], [-121.6094, 43.67992, -5769.04736328125], [-121.61332, 43.67165, -5338.49853515625]]], [[[-121.61554, 43.68015, -4884.62744140625], [-121.61332, 43.67165, -5338.49853515625], [-121.6094, 43.67992, -5769.04736328125], [-121.61554, 43.68015, -4884.62744140625]]], [[[-121.61554, 43.68015, -4884.62744140625], [-121.61947, 43.67188, -4454.07666015625], [-121.61332, 43.67165, -5338.49853515625], [-121.61554, 43.68015, -4884.62744140625]]], [[[-121.61554, 43.68015, -4884.62744140625], [-121.62169, 43.68038, -4000.2080078125], [-121.61947, 43.67188, -4454.07666015625], [-121.61554, 43.68015, -4884.62744140625]]], [[[-121.617, 43.68858, -4396.32763671875], [-121.62169, 43.68038, -4000.2080078125], [-121.61554, 43.68015, -4884.62744140625], [-121.617, 43.68858, -4396.32763671875]]], [[[-121.617, 43.68858, -4396.32763671875], [-121.62314, 43.68881, -3511.7041015625], [-121.62169, 43.68038, -4000.2080078125], [-121.617, 43.68858, -4396.32763671875]]], [[[-121.61806, 43.69702, -3889.935546875], [-121.62314, 43.68881, -3511.7041015625], [-121.617, 43.68858, -4396.32763671875], [-121.61806, 43.69702, -3889.935546875]]], [[[-121.62425, 43.69725, -2998.888427734375], [-121.62314, 43.68881, -3511.7041015625], [-121.61806, 43.69702, -3889.935546875], [-121.62425, 43.69725, -2998.888427734375]]], [[[-121.62425, 43.69725, -2998.888427734375], [-121.62931, 43.68911, -2620.14111328125], [-121.62314, 43.68881, -3511.7041015625], [-121.62425, 43.69725, -2998.888427734375]]], [[[-121.62425, 43.69725, -2998.888427734375], [-121.6312, 43.69785, -1988.35107421875], [-121.62931, 43.68911, -2620.14111328125], [-121.62425, 43.69725, -2998.888427734375]]], [[[-121.62425, 43.69725, -2998.888427734375], [-121.62698, 43.70546, -2415.067138671875], [-121.6312, 43.69785, -1988.35107421875], [-121.62425, 43.69725, -2998.888427734375]]], [[[-121.61997, 43.70542, -3423.8984375], [-121.62698, 43.70546, -2415.067138671875], [-121.62425, 43.69725, -2998.888427734375], [-121.61997, 43.70542, -3423.8984375]]], [[[-121.62698, 43.70546, -2415.067138671875], [-121.61997, 43.70542, -3423.8984375], [-121.62215, 43.71333, -2967.704833984375], [-121.62698, 43.70546, -2415.067138671875]]], [[[-121.62698, 43.70546, -2415.067138671875], [-121.62215, 43.71333, -2967.704833984375], [-121.62926, 43.71288, -1956.6614990234375], [-121.62698, 43.70546, -2415.067138671875]]], [[[-121.63516, 43.70517, -1243.1373291015625], [-121.62698, 43.70546, -2415.067138671875], [-121.62926, 43.71288, -1956.6614990234375], [-121.63516, 43.70517, -1243.1373291015625]]], [[[-121.63516, 43.70517, -1243.1373291015625], [-121.6312, 43.69785, -1988.35107421875], [-121.62698, 43.70546, -2415.067138671875], [-121.63516, 43.70517, -1243.1373291015625]]], [[[-121.6312, 43.69785, -1988.35107421875], [-121.63516, 43.70517, -1243.1373291015625], [-121.63795, 43.69527, -1105.70947265625], [-121.6312, 43.69785, -1988.35107421875]]], [[[-121.6312, 43.69785, -1988.35107421875], [-121.63795, 43.69527, -1105.70947265625], [-121.6351, 43.68912, -1797.53662109375], [-121.6312, 43.69785, -1988.35107421875]]], [[[-121.6312, 43.69785, -1988.35107421875], [-121.6351, 43.68912, -1797.53662109375], [-121.62931, 43.68911, -2620.14111328125], [-121.6312, 43.69785, -1988.35107421875]]], [[[-121.63398, 43.68084, -2231.368896484375], [-121.62931, 43.68911, -2620.14111328125], [-121.6351, 43.68912, -1797.53662109375], [-121.63398, 43.68084, -2231.368896484375]]], [[[-121.62931, 43.68911, -2620.14111328125], [-121.63398, 43.68084, -2231.368896484375], [-121.62783, 43.68061, -3115.788330078125], [-121.62931, 43.68911, -2620.14111328125]]], [[[-121.62314, 43.68881, -3511.7041015625], [-121.62931, 43.68911, -2620.14111328125], [-121.62783, 43.68061, -3115.788330078125], [-121.62314, 43.68881, -3511.7041015625]]], [[[-121.62314, 43.68881, -3511.7041015625], [-121.62783, 43.68061, -3115.788330078125], [-121.62169, 43.68038, -4000.2080078125], [-121.62314, 43.68881, -3511.7041015625]]], [[[-121.62783, 43.68061, -3115.788330078125], [-121.62561, 43.67211, -3569.65478515625], [-121.62169, 43.68038, -4000.2080078125], [-121.62783, 43.68061, -3115.788330078125]]], [[[-121.62561, 43.67211, -3569.65478515625], [-121.62783, 43.68061, -3115.788330078125], [-121.63176, 43.67234, -2685.23291015625], [-121.62561, 43.67211, -3569.65478515625]]], [[[-121.62561, 43.67211, -3569.65478515625], [-121.63176, 43.67234, -2685.23291015625], [-121.62927, 43.66386, -3126.8525390625], [-121.62561, 43.67211, -3569.65478515625]]], [[[-121.62561, 43.67211, -3569.65478515625], [-121.62927, 43.66386, -3126.8525390625], [-121.62312, 43.66363, -4011.134521484375], [-121.62561, 43.67211, -3569.65478515625]]], [[[-121.61947, 43.67188, -4454.07666015625], [-121.62561, 43.67211, -3569.65478515625], [-121.62312, 43.66363, -4011.134521484375], [-121.61947, 43.67188, -4454.07666015625]]], [[[-121.62169, 43.68038, -4000.2080078125], [-121.62561, 43.67211, -3569.65478515625], [-121.61947, 43.67188, -4454.07666015625], [-121.62169, 43.68038, -4000.2080078125]]], [[[-121.61947, 43.67188, -4454.07666015625], [-121.62312, 43.66363, -4011.134521484375], [-121.61697, 43.6634, -4895.41650390625], [-121.61947, 43.67188, -4454.07666015625]]], [[[-121.61332, 43.67165, -5338.49853515625], [-121.61947, 43.67188, -4454.07666015625], [-121.61697, 43.6634, -4895.41650390625], [-121.61332, 43.67165, -5338.49853515625]]], [[[-121.61332, 43.67165, -5338.49853515625], [-121.61697, 43.6634, -4895.41650390625], [-121.61082, 43.66317, -5779.6982421875], [-121.61332, 43.67165, -5338.49853515625]]], [[[-121.63176, 43.67234, -2685.23291015625], [-121.63541, 43.66409, -2242.570556640625], [-121.62927, 43.66386, -3126.8525390625], [-121.63176, 43.67234, -2685.23291015625]]], [[[-121.63176, 43.67234, -2685.23291015625], [-121.6379, 43.67256, -1800.810791015625], [-121.63541, 43.66409, -2242.570556640625], [-121.63176, 43.67234, -2685.23291015625]]], [[[-121.63398, 43.68084, -2231.368896484375], [-121.6379, 43.67256, -1800.810791015625], [-121.63176, 43.67234, -2685.23291015625], [-121.63398, 43.68084, -2231.368896484375]]], [[[-121.64009, 43.68029, -1364.0679931640625], [-121.6379, 43.67256, -1800.810791015625], [-121.63398, 43.68084, -2231.368896484375], [-121.64009, 43.68029, -1364.0679931640625]]], [[[-121.64009, 43.68029, -1364.0679931640625], [-121.64405, 43.6728, -915.7332763671875], [-121.6379, 43.67256, -1800.810791015625], [-121.64009, 43.68029, -1364.0679931640625]]], [[[-121.64009, 43.68029, -1364.0679931640625], [-121.64671, 43.68131, -398.73992919921875], [-121.64405, 43.6728, -915.7332763671875], [-121.64009, 43.68029, -1364.0679931640625]]], [[[-121.64092, 43.68698, -1083.743896484375], [-121.64671, 43.68131, -398.73992919921875], [-121.64009, 43.68029, -1364.0679931640625], [-121.64092, 43.68698, -1083.743896484375]]], [[[-121.64671, 43.68131, -398.73992919921875], [-121.64092, 43.68698, -1083.743896484375], [-121.64487, 43.69091, -314.98828125], [-121.64671, 43.68131, -398.73992919921875]]], [[[-121.64671, 43.68131, -398.73992919921875], [-121.64487, 43.69091, -314.98828125], [-121.65182, 43.68709, 470.84661865234375], [-121.64671, 43.68131, -398.73992919921875]]], [[[-121.64671, 43.68131, -398.73992919921875], [-121.65182, 43.68709, 470.84661865234375], [-121.65336, 43.67879, 515.6795043945312], [-121.64671, 43.68131, -398.73992919921875]]], [[[-121.64671, 43.68131, -398.73992919921875], [-121.65336, 43.67879, 515.6795043945312], [-121.65083, 43.67274, 54.54159927368164], [-121.64671, 43.68131, -398.73992919921875]]], [[[-121.65083, 43.67274, 54.54159927368164], [-121.64405, 43.6728, -915.7332763671875], [-121.64671, 43.68131, -398.73992919921875], [-121.65083, 43.67274, 54.54159927368164]]], [[[-121.64405, 43.6728, -915.7332763671875], [-121.65083, 43.67274, 54.54159927368164], [-121.64771, 43.66454, -474.0068054199219], [-121.64405, 43.6728, -915.7332763671875]]], [[[-121.64405, 43.6728, -915.7332763671875], [-121.64771, 43.66454, -474.0068054199219], [-121.64156, 43.66431, -1358.2886962890625], [-121.64405, 43.6728, -915.7332763671875]]], [[[-121.6379, 43.67256, -1800.810791015625], [-121.64405, 43.6728, -915.7332763671875], [-121.64156, 43.66431, -1358.2886962890625], [-121.6379, 43.67256, -1800.810791015625]]], [[[-121.6379, 43.67256, -1800.810791015625], [-121.64156, 43.66431, -1358.2886962890625], [-121.63541, 43.66409, -2242.570556640625], [-121.6379, 43.67256, -1800.810791015625]]], [[[-121.65083, 43.67274, 54.54159927368164], [-121.65385, 43.66477, 410.2751159667969], [-121.64771, 43.66454, -474.0068054199219], [-121.65083, 43.67274, 54.54159927368164]]], [[[-121.65083, 43.67274, 54.54159927368164], [-121.65336, 43.67879, 515.6795043945312], [-121.65931, 43.67422, 1294.496337890625], [-121.65083, 43.67274, 54.54159927368164]]], [[[-121.65336, 43.67879, 515.6795043945312], [-121.65829, 43.68343, 1292.53369140625], [-121.65931, 43.67422, 1294.496337890625], [-121.65336, 43.67879, 515.6795043945312]]], [[[-121.65182, 43.68709, 470.84661865234375], [-121.65829, 43.68343, 1292.53369140625], [-121.65336, 43.67879, 515.6795043945312], [-121.65182, 43.68709, 470.84661865234375]]], [[[-121.65182, 43.68709, 470.84661865234375], [-121.65559, 43.69243, 1288.8955078125], [-121.65829, 43.68343, 1292.53369140625], [-121.65182, 43.68709, 470.84661865234375]]], [[[-121.6489, 43.69624, 488.64093017578125], [-121.65333, 43.70152, 1287.85205078125], [-121.65559, 43.69243, 1288.8955078125], [-121.6489, 43.69624, 488.64093017578125]]], [[[-121.64713, 43.70574, 487.5739440917969], [-121.65214, 43.71072, 1288.373291015625], [-121.65333, 43.70152, 1287.85205078125], [-121.64713, 43.70574, 487.5739440917969]]], [[[-121.64713, 43.70574, 487.5739440917969], [-121.64606, 43.71502, 487.322265625], [-121.65214, 43.71072, 1288.373291015625], [-121.64713, 43.70574, 487.5739440917969]]], [[[-121.64104, 43.71011, -318.3326110839844], [-121.64606, 43.71502, 487.322265625], [-121.64713, 43.70574, 487.5739440917969], [-121.64104, 43.71011, -318.3326110839844]]], [[[-121.64104, 43.71011, -318.3326110839844], [-121.64063, 43.72048, -201.96255493164062], [-121.64606, 43.71502, 487.322265625], [-121.64104, 43.71011, -318.3326110839844]]], [[[-121.64063, 43.72048, -201.96255493164062], [-121.63143, 43.72171, -1623.2672119140625], [-121.63679, 43.72382, -993.3906860351562], [-121.64063, 43.72048, -201.96255493164062]]], [[[-121.63679, 43.72382, -993.3906860351562], [-121.64311, 43.7301, -441.54901123046875], [-121.64063, 43.72048, -201.96255493164062], [-121.63679, 43.72382, -993.3906860351562]]], [[[-121.63679, 43.72382, -993.3906860351562], [-121.63641, 43.73051, -1416.1490478515625], [-121.64311, 43.7301, -441.54901123046875], [-121.63679, 43.72382, -993.3906860351562]]], [[[-121.63641, 43.73051, -1416.1490478515625], [-121.63373, 43.73806, -1886.1141357421875], [-121.63995, 43.73827, -990.9505004882812], [-121.63641, 43.73051, -1416.1490478515625]]], [[[-121.64311, 43.7301, -441.54901123046875], [-121.63641, 43.73051, -1416.1490478515625], [-121.63995, 43.73827, -990.9505004882812], [-121.64311, 43.7301, -441.54901123046875]]], [[[-121.64311, 43.7301, -441.54901123046875], [-121.63995, 43.73827, -990.9505004882812], [-121.64571, 43.73896, -146.3043670654297], [-121.64311, 43.7301, -441.54901123046875]]], [[[-121.64311, 43.7301, -441.54901123046875], [-121.64571, 43.73896, -146.3043670654297], [-121.64999, 43.73454, 479.94403076171875], [-121.64311, 43.7301, -441.54901123046875]]], [[[-121.65112, 43.71993, 1291.835693359375], [-121.64063, 43.72048, -201.96255493164062], [-121.64765, 43.72542, 479.0994873046875], [-121.65112, 43.71993, 1291.835693359375]]], [[[-121.64606, 43.71502, 487.322265625], [-121.65112, 43.71993, 1291.835693359375], [-121.65214, 43.71072, 1288.373291015625], [-121.64606, 43.71502, 487.322265625]]], [[[-121.64765, 43.72542, 479.0994873046875], [-121.65484, 43.72868, 1293.10791015625], [-121.65112, 43.71993, 1291.835693359375], [-121.64765, 43.72542, 479.0994873046875]]], [[[-121.63995, 43.73827, -990.9505004882812], [-121.64156, 43.74658, -498.5548400878906], [-121.64571, 43.73896, -146.3043670654297], [-121.63995, 43.73827, -990.9505004882812]]], [[[-121.63995, 43.73827, -990.9505004882812], [-121.63534, 43.74637, -1393.3922119140625], [-121.64156, 43.74658, -498.5548400878906], [-121.63995, 43.73827, -990.9505004882812]]], [[[-121.63373, 43.73806, -1886.1141357421875], [-121.63534, 43.74637, -1393.3922119140625], [-121.63995, 43.73827, -990.9505004882812], [-121.63373, 43.73806, -1886.1141357421875]]], [[[-121.61668, 43.74574, -4077.904541015625], [-121.62128, 43.73764, -3676.408935546875], [-121.61506, 43.73744, -4571.525390625], [-121.61668, 43.74574, -4077.904541015625]]], [[[-121.61156, 43.72896, -4979.21337890625], [-121.60883, 43.73723, -5466.6142578125], [-121.61506, 43.73744, -4571.525390625], [-121.61156, 43.72896, -4979.21337890625]]], [[[-121.61156, 43.72896, -4979.21337890625], [-121.61219, 43.72101, -4388.10546875], [-121.60558, 43.72106, -5358.5341796875], [-121.61156, 43.72896, -4979.21337890625]]], [[[-121.6184, 43.72128, -3499.533935546875], [-121.61219, 43.72101, -4388.10546875], [-121.6178, 43.72926, -4083.69384765625], [-121.6184, 43.72128, -3499.533935546875]]], [[[-121.6184, 43.72128, -3499.533935546875], [-121.61553, 43.71277, -3926.256103515625], [-121.61219, 43.72101, -4388.10546875], [-121.6184, 43.72128, -3499.533935546875]]], [[[-121.61997, 43.70542, -3423.8984375], [-121.61553, 43.71277, -3926.256103515625], [-121.62215, 43.71333, -2967.704833984375], [-121.61997, 43.70542, -3423.8984375]]], [[[-121.59946, 43.70524, -6376.01953125], [-121.60606, 43.70517, -5427.16015625], [-121.60536, 43.69671, -5713.2470703125], [-121.59946, 43.70524, -6376.01953125]]], [[[-121.61307, 43.70466, -4428.1904296875], [-121.61806, 43.69702, -3889.935546875], [-121.61166, 43.69675, -4811.85302734375], [-121.61307, 43.70466, -4428.1904296875]]], [[[-121.59289, 43.73147, -7715.994140625], [-121.58989, 43.73812, -8143.8134765625], [-121.59613, 43.73822, -7249.67138671875], [-121.59289, 43.73147, -7715.994140625]]], [[[-121.5984, 43.73038, -6902.0546875], [-121.59289, 43.73147, -7715.994140625], [-121.59613, 43.73822, -7249.67138671875], [-121.5984, 43.73038, -6902.0546875]]], [[[-121.60606, 43.70517, -5427.16015625], [-121.59946, 43.70524, -6376.01953125], [-121.60161, 43.71365, -5905.736328125], [-121.60606, 43.70517, -5427.16015625]]], [[[-121.57046, 43.71422, -10360.2734375], [-121.5688, 43.7225, -10847.1435546875], [-121.57559, 43.7227, -9867.9189453125], [-121.57046, 43.71422, -10360.2734375]]], [[[-121.65931, 43.67422, 1294.496337890625], [-121.66, 43.665, 1294.5570068359375], [-121.65385, 43.66477, 410.2751159667969], [-121.65931, 43.67422, 1294.496337890625]]], [[[-121.58167, 43.70608, -8920.044921875], [-121.58349, 43.71492, -8481.7255859375], [-121.58719, 43.70536, -8138.462890625], [-121.58167, 43.70608, -8920.044921875]]], [[[-121.57559, 43.7227, -9867.9189453125], [-121.57433, 43.73075, -10384.201171875], [-121.58068, 43.73117, -9473.720703125], [-121.57559, 43.7227, -9867.9189453125]]], [[[-121.58691, 43.73138, -8578.5615234375], [-121.58068, 43.73117, -9473.720703125], [-121.58367, 43.73791, -9038.958984375], [-121.58691, 43.73138, -8578.5615234375]]], [[[-121.57023, 43.7053, -10578.0009765625], [-121.57574, 43.70617, -9771.9765625], [-121.5729, 43.69654, -10352.537109375], [-121.57023, 43.7053, -10578.0009765625]]], [[[-121.57574, 43.70617, -9771.9765625], [-121.58033, 43.6966, -9290.1884765625], [-121.5729, 43.69654, -10352.537109375], [-121.57574, 43.70617, -9771.9765625]]], [[[-121.57574, 43.70617, -9771.9765625], [-121.58167, 43.70608, -8920.044921875], [-121.58033, 43.6966, -9290.1884765625], [-121.57574, 43.70617, -9771.9765625]]], [[[-121.58167, 43.70608, -8920.044921875], [-121.58719, 43.70536, -8138.462890625], [-121.58682, 43.69637, -8371.1025390625], [-121.58167, 43.70608, -8920.044921875]]], [[[-121.58719, 43.70536, -8138.462890625], [-121.59298, 43.69639, -7491.00439453125], [-121.58682, 43.69637, -8371.1025390625], [-121.58719, 43.70536, -8138.462890625]]], [[[-121.58719, 43.70536, -8138.462890625], [-121.59313, 43.70512, -7288.31591796875], [-121.59298, 43.69639, -7491.00439453125], [-121.58719, 43.70536, -8138.462890625]]], [[[-121.59313, 43.70512, -7288.31591796875], [-121.59915, 43.69656, -6604.22900390625], [-121.59298, 43.69639, -7491.00439453125], [-121.59313, 43.70512, -7288.31591796875]]], [[[-121.59298, 43.69639, -7491.00439453125], [-121.59915, 43.69656, -6604.22900390625], [-121.59858, 43.68789, -7050.19873046875], [-121.59298, 43.69639, -7491.00439453125]]], [[[-121.59298, 43.69639, -7491.00439453125], [-121.59858, 43.68789, -7050.19873046875], [-121.59244, 43.68766, -7934.822265625], [-121.59298, 43.69639, -7491.00439453125]]], [[[-121.59298, 43.69639, -7491.00439453125], [-121.59244, 43.68766, -7934.822265625], [-121.58682, 43.69637, -8371.1025390625], [-121.59298, 43.69639, -7491.00439453125]]], [[[-121.59244, 43.68766, -7934.822265625], [-121.59858, 43.68789, -7050.19873046875], [-121.59711, 43.67946, -7537.88623046875], [-121.59244, 43.68766, -7934.822265625]]], [[[-121.59244, 43.68766, -7934.822265625], [-121.59711, 43.67946, -7537.88623046875], [-121.59096, 43.67922, -8422.3056640625], [-121.59244, 43.68766, -7934.822265625]]], [[[-121.59858, 43.68789, -7050.19873046875], [-121.60325, 43.67969, -6653.466796875], [-121.59711, 43.67946, -7537.88623046875], [-121.59858, 43.68789, -7050.19873046875]]], [[[-121.60472, 43.68812, -6165.5751953125], [-121.60325, 43.67969, -6653.466796875], [-121.59858, 43.68789, -7050.19873046875], [-121.60472, 43.68812, -6165.5751953125]]], [[[-121.60472, 43.68812, -6165.5751953125], [-121.6094, 43.67992, -5769.04736328125], [-121.60325, 43.67969, -6653.466796875], [-121.60472, 43.68812, -6165.5751953125]]], [[[-121.60472, 43.68812, -6165.5751953125], [-121.61086, 43.68835, -5280.951171875], [-121.6094, 43.67992, -5769.04736328125], [-121.60472, 43.68812, -6165.5751953125]]], [[[-121.61086, 43.68835, -5280.951171875], [-121.60472, 43.68812, -6165.5751953125], [-121.60536, 43.69671, -5713.2470703125], [-121.61086, 43.68835, -5280.951171875]]], [[[-121.61166, 43.69675, -4811.85302734375], [-121.61086, 43.68835, -5280.951171875], [-121.60536, 43.69671, -5713.2470703125], [-121.61166, 43.69675, -4811.85302734375]]], [[[-121.61166, 43.69675, -4811.85302734375], [-121.617, 43.68858, -4396.32763671875], [-121.61086, 43.68835, -5280.951171875], [-121.61166, 43.69675, -4811.85302734375]]], [[[-121.61806, 43.69702, -3889.935546875], [-121.617, 43.68858, -4396.32763671875], [-121.61166, 43.69675, -4811.85302734375], [-121.61806, 43.69702, -3889.935546875]]], [[[-121.61086, 43.68835, -5280.951171875], [-121.617, 43.68858, -4396.32763671875], [-121.61554, 43.68015, -4884.62744140625], [-121.61086, 43.68835, -5280.951171875]]], [[[-121.61086, 43.68835, -5280.951171875], [-121.61554, 43.68015, -4884.62744140625], [-121.6094, 43.67992, -5769.04736328125], [-121.61086, 43.68835, -5280.951171875]]], [[[-121.60606, 43.70517, -5427.16015625], [-121.61166, 43.69675, -4811.85302734375], [-121.60536, 43.69671, -5713.2470703125], [-121.60606, 43.70517, -5427.16015625]]], [[[-121.59915, 43.69656, -6604.22900390625], [-121.60536, 43.69671, -5713.2470703125], [-121.60472, 43.68812, -6165.5751953125], [-121.59915, 43.69656, -6604.22900390625]]], [[[-121.59915, 43.69656, -6604.22900390625], [-121.60472, 43.68812, -6165.5751953125], [-121.59858, 43.68789, -7050.19873046875], [-121.59915, 43.69656, -6604.22900390625]]], [[[-121.60325, 43.67969, -6653.466796875], [-121.6094, 43.67992, -5769.04736328125], [-121.60718, 43.67142, -6222.92041015625], [-121.60325, 43.67969, -6653.466796875]]], [[[-121.60325, 43.67969, -6653.466796875], [-121.60718, 43.67142, -6222.92041015625], [-121.60104, 43.67119, -7107.34228515625], [-121.60325, 43.67969, -6653.466796875]]], [[[-121.60325, 43.67969, -6653.466796875], [-121.60104, 43.67119, -7107.34228515625], [-121.59711, 43.67946, -7537.88623046875], [-121.60325, 43.67969, -6653.466796875]]], [[[-121.62215, 43.71333, -2967.704833984375], [-121.6184, 43.72128, -3499.533935546875], [-121.62485, 43.72135, -2559.203369140625], [-121.62215, 43.71333, -2967.704833984375]]], [[[-121.62215, 43.71333, -2967.704833984375], [-121.62485, 43.72135, -2559.203369140625], [-121.62926, 43.71288, -1956.6614990234375], [-121.62215, 43.71333, -2967.704833984375]]], [[[-121.62926, 43.71288, -1956.6614990234375], [-121.62485, 43.72135, -2559.203369140625], [-121.63143, 43.72171, -1623.2672119140625], [-121.62926, 43.71288, -1956.6614990234375]]], [[[-121.62926, 43.71288, -1956.6614990234375], [-121.63143, 43.72171, -1623.2672119140625], [-121.6353, 43.71526, -1051.9388427734375], [-121.62926, 43.71288, -1956.6614990234375]]], [[[-121.62926, 43.71288, -1956.6614990234375], [-121.6353, 43.71526, -1051.9388427734375], [-121.63516, 43.70517, -1243.1373291015625], [-121.62926, 43.71288, -1956.6614990234375]]], [[[-121.63516, 43.70517, -1243.1373291015625], [-121.6353, 43.71526, -1051.9388427734375], [-121.64104, 43.71011, -318.3326110839844], [-121.63516, 43.70517, -1243.1373291015625]]], [[[-121.63516, 43.70517, -1243.1373291015625], [-121.64104, 43.71011, -318.3326110839844], [-121.64233, 43.70047, -315.6081237792969], [-121.63516, 43.70517, -1243.1373291015625]]], [[[-121.63795, 43.69527, -1105.70947265625], [-121.63516, 43.70517, -1243.1373291015625], [-121.64233, 43.70047, -315.6081237792969], [-121.63795, 43.69527, -1105.70947265625]]], [[[-121.63795, 43.69527, -1105.70947265625], [-121.64233, 43.70047, -315.6081237792969], [-121.64487, 43.69091, -314.98828125], [-121.63795, 43.69527, -1105.70947265625]]], [[[-121.63795, 43.69527, -1105.70947265625], [-121.64487, 43.69091, -314.98828125], [-121.64092, 43.68698, -1083.743896484375], [-121.63795, 43.69527, -1105.70947265625]]], [[[-121.64092, 43.68698, -1083.743896484375], [-121.6351, 43.68912, -1797.53662109375], [-121.63795, 43.69527, -1105.70947265625], [-121.64092, 43.68698, -1083.743896484375]]], [[[-121.64092, 43.68698, -1083.743896484375], [-121.64009, 43.68029, -1364.0679931640625], [-121.6351, 43.68912, -1797.53662109375], [-121.64092, 43.68698, -1083.743896484375]]], [[[-121.64009, 43.68029, -1364.0679931640625], [-121.63398, 43.68084, -2231.368896484375], [-121.6351, 43.68912, -1797.53662109375], [-121.64009, 43.68029, -1364.0679931640625]]], [[[-121.64487, 43.69091, -314.98828125], [-121.64233, 43.70047, -315.6081237792969], [-121.6489, 43.69624, 488.64093017578125], [-121.64487, 43.69091, -314.98828125]]], [[[-121.64487, 43.69091, -314.98828125], [-121.6489, 43.69624, 488.64093017578125], [-121.65182, 43.68709, 470.84661865234375], [-121.64487, 43.69091, -314.98828125]]], [[[-121.64233, 43.70047, -315.6081237792969], [-121.64713, 43.70574, 487.5739440917969], [-121.6489, 43.69624, 488.64093017578125], [-121.64233, 43.70047, -315.6081237792969]]], [[[-121.64104, 43.71011, -318.3326110839844], [-121.64713, 43.70574, 487.5739440917969], [-121.64233, 43.70047, -315.6081237792969], [-121.64104, 43.71011, -318.3326110839844]]], [[[-121.62485, 43.72135, -2559.203369140625], [-121.63024, 43.72968, -2292.924560546875], [-121.63143, 43.72171, -1623.2672119140625], [-121.62485, 43.72135, -2559.203369140625]]], [[[-121.62485, 43.72135, -2559.203369140625], [-121.62402, 43.72947, -3188.05078125], [-121.63024, 43.72968, -2292.924560546875], [-121.62485, 43.72135, -2559.203369140625]]], [[[-121.62485, 43.72135, -2559.203369140625], [-121.6184, 43.72128, -3499.533935546875], [-121.62402, 43.72947, -3188.05078125], [-121.62485, 43.72135, -2559.203369140625]]], [[[-121.6184, 43.72128, -3499.533935546875], [-121.6178, 43.72926, -4083.69384765625], [-121.62402, 43.72947, -3188.05078125], [-121.6184, 43.72128, -3499.533935546875]]], [[[-121.6178, 43.72926, -4083.69384765625], [-121.62128, 43.73764, -3676.408935546875], [-121.62402, 43.72947, -3188.05078125], [-121.6178, 43.72926, -4083.69384765625]]], [[[-121.62128, 43.73764, -3676.408935546875], [-121.6178, 43.72926, -4083.69384765625], [-121.61506, 43.73744, -4571.525390625], [-121.62128, 43.73764, -3676.408935546875]]], [[[-121.61156, 43.72896, -4979.21337890625], [-121.61506, 43.73744, -4571.525390625], [-121.6178, 43.72926, -4083.69384765625], [-121.61156, 43.72896, -4979.21337890625]]], [[[-121.6275, 43.73785, -2781.268310546875], [-121.62402, 43.72947, -3188.05078125], [-121.62128, 43.73764, -3676.408935546875], [-121.6275, 43.73785, -2781.268310546875]]], [[[-121.63024, 43.72968, -2292.924560546875], [-121.62402, 43.72947, -3188.05078125], [-121.6275, 43.73785, -2781.268310546875], [-121.63024, 43.72968, -2292.924560546875]]], [[[-121.63024, 43.72968, -2292.924560546875], [-121.6275, 43.73785, -2781.268310546875], [-121.63373, 43.73806, -1886.1141357421875], [-121.63024, 43.72968, -2292.924560546875]]], [[[-121.63398, 43.68084, -2231.368896484375], [-121.63176, 43.67234, -2685.23291015625], [-121.62783, 43.68061, -3115.788330078125], [-121.63398, 43.68084, -2231.368896484375]]], [[[-121.5826, 43.67049, -9760.6083984375], [-121.58624, 43.66224, -9316.826171875], [-121.58009, 43.66201, -10201.107421875], [-121.5826, 43.67049, -9760.6083984375]]], [[[-121.5826, 43.67049, -9760.6083984375], [-121.58009, 43.66201, -10201.107421875], [-121.57646, 43.67026, -10645.0302734375], [-121.5826, 43.67049, -9760.6083984375]]], [[[-121.57395, 43.66178, -11085.3896484375], [-121.57646, 43.67026, -10645.0302734375], [-121.58009, 43.66201, -10201.107421875], [-121.57395, 43.66178, -11085.3896484375]]], [[[-121.57226, 43.67858, -11113.212890625], [-121.57012, 43.6704, -11551.0654296875], [-121.56505, 43.67961, -12130.2451171875], [-121.57226, 43.67858, -11113.212890625]]], [[[-121.56505, 43.67961, -12130.2451171875], [-121.56809, 43.68637, -11461.3857421875], [-121.57226, 43.67858, -11113.212890625], [-121.56505, 43.67961, -12130.2451171875]]], [[[-121.56809, 43.68637, -11461.3857421875], [-121.56505, 43.67961, -12130.2451171875], [-121.56172, 43.68965, -12192.6357421875], [-121.56809, 43.68637, -11461.3857421875]]], [[[-121.56165, 43.66131, -12853.953125], [-121.56435, 43.66976, -12389.14453125], [-121.5678, 43.66154, -11969.671875], [-121.56165, 43.66131, -12853.953125]]], [[[-121.55965, 43.67424, -12987.6455078125], [-121.55472, 43.66982, -13768.14453125], [-121.55355, 43.67855, -13795.8193359375], [-121.55965, 43.67424, -12987.6455078125]]], [[[-121.55965, 43.67424, -12987.6455078125], [-121.55355, 43.67855, -13795.8193359375], [-121.55809, 43.68421, -12996.388671875], [-121.55965, 43.67424, -12987.6455078125]]], [[[-121.55123, 43.68712, -13816.359375], [-121.55809, 43.68421, -12996.388671875], [-121.55355, 43.67855, -13795.8193359375], [-121.55123, 43.68712, -13816.359375]]], [[[-121.55502, 43.69333, -13007.8017578125], [-121.55809, 43.68421, -12996.388671875], [-121.55123, 43.68712, -13816.359375], [-121.55502, 43.69333, -13007.8017578125]]], [[[-121.55502, 43.69333, -13007.8017578125], [-121.55123, 43.68712, -13816.359375], [-121.5487, 43.69568, -13835.6240234375], [-121.55502, 43.69333, -13007.8017578125]]], [[[-121.55347, 43.70176, -13029.9189453125], [-121.55502, 43.69333, -13007.8017578125], [-121.5487, 43.69568, -13835.6240234375], [-121.55347, 43.70176, -13029.9189453125]]], [[[-121.5597, 43.69824, -12182.5419921875], [-121.55502, 43.69333, -13007.8017578125], [-121.55347, 43.70176, -13029.9189453125], [-121.5597, 43.69824, -12182.5419921875]]], [[[-121.55347, 43.70176, -13029.9189453125], [-121.5487, 43.69568, -13835.6240234375], [-121.54756, 43.70439, -13853.2177734375], [-121.55347, 43.70176, -13029.9189453125]]], [[[-121.55209, 43.71089, -13060.509765625], [-121.55347, 43.70176, -13029.9189453125], [-121.54756, 43.70439, -13853.2177734375], [-121.55209, 43.71089, -13060.509765625]]], [[[-121.55209, 43.71089, -13060.509765625], [-121.54756, 43.70439, -13853.2177734375], [-121.54621, 43.71278, -13859.046875], [-121.55209, 43.71089, -13060.509765625]]], [[[-121.54621, 43.71278, -13859.046875], [-121.55153, 43.71867, -13095.326171875], [-121.55209, 43.71089, -13060.509765625], [-121.54621, 43.71278, -13859.046875]]], [[[-121.55153, 43.71867, -13095.326171875], [-121.54621, 43.71278, -13859.046875], [-121.5472, 43.7207, -13877.421875], [-121.55153, 43.71867, -13095.326171875]]], [[[-121.55303, 43.72496, -13335.056640625], [-121.55153, 43.71867, -13095.326171875], [-121.5472, 43.7207, -13877.421875], [-121.55303, 43.72496, -13335.056640625]]], [[[-121.55303, 43.72496, -13335.056640625], [-121.5472, 43.7207, -13877.421875], [-121.54971, 43.72846, -13904.1953125], [-121.55303, 43.72496, -13335.056640625]]], [[[-121.55153, 43.71867, -13095.326171875], [-121.55707, 43.71601, -12250.181640625], [-121.55209, 43.71089, -13060.509765625], [-121.55153, 43.71867, -13095.326171875]]], [[[-121.64778, 43.74679, 396.2825622558594], [-121.64999, 43.73454, 479.94403076171875], [-121.64571, 43.73896, -146.3043670654297], [-121.64778, 43.74679, 396.2825622558594]]], [[[-121.65599, 43.73787, 1292.673583984375], [-121.64999, 43.73454, 479.94403076171875], [-121.64778, 43.74679, 396.2825622558594], [-121.65599, 43.73787, 1292.673583984375]]], [[[-121.654, 43.747, 1291.1199951171875], [-121.65599, 43.73787, 1292.673583984375], [-121.64778, 43.74679, 396.2825622558594], [-121.654, 43.747, 1291.1199951171875]]], [[[-121.55447, 43.74361, -13026.2783203125], [-121.54996, 43.73581, -13917.453125], [-121.54826, 43.7434, -13919.955078125], [-121.55447, 43.74361, -13026.2783203125]]], [[[-121.55527, 43.73261, -13166.4208984375], [-121.54996, 43.73581, -13917.453125], [-121.55447, 43.74361, -13026.2783203125], [-121.55527, 43.73261, -13166.4208984375]]], [[[-121.55915, 43.73735, -12557.302734375], [-121.55527, 43.73261, -13166.4208984375], [-121.55447, 43.74361, -13026.2783203125], [-121.55915, 43.73735, -12557.302734375]]], [[[-121.56165, 43.66131, -12853.953125], [-121.55551, 43.66108, -13738.2353515625], [-121.55472, 43.66982, -13768.14453125], [-121.56165, 43.66131, -12853.953125]]], [[[-121.55965, 43.67424, -12987.6455078125], [-121.56165, 43.66131, -12853.953125], [-121.55472, 43.66982, -13768.14453125], [-121.55965, 43.67424, -12987.6455078125]]], [[[-121.56435, 43.66976, -12389.14453125], [-121.56165, 43.66131, -12853.953125], [-121.55965, 43.67424, -12987.6455078125], [-121.56435, 43.66976, -12389.14453125]]]]}}]}