{"type": "FeatureCollection", "features": [{"type": "Feature", "properties": {"name": "Seattle (Rich Passage)", "CFM_ID": 340, "region": "ForearcIntraarc_WA", "primary_state/province": "WA", "secondary_state/province": null, "avg_dip": 45, "dip_dir": "N", "rake": 90, "slip_sense": "Reverse", "fault_level": 2, "NSHM23_sliprates": null, "QFFDAgeCatBin": null, "QFFDAgeBin": null, "upper_depth": -2.6, "upper_depth_constraint": "topography", "lower_depth": -8.1, "lower_depth_constraint": "publication", "3D_model_constraints": "trace extended at constant dip", "reference": "Moore et al. (2022)", "nshm23_id": null, "lineage": null, "usgs_qffd_#": null, "comments": null, "id": "340"}, "geometry": {"type": "MultiPolygon", "coordinates": [[[[-122.5061, 47.57674, -1206.44384765625], [-122.51214, 47.5806, -1568.13330078125], [-122.51257, 47.5738, -811.72216796875], [-122.5061, 47.57674, -1206.44384765625]]], [[[-122.49964, 47.57968, -1601.1661376953125], [-122.51214, 47.5806, -1568.13330078125], [-122.5061, 47.57674, -1206.44384765625], [-122.49964, 47.57968, -1601.1661376953125]]], [[[-122.49967, 47.57233, -787.3368530273438], [-122.49964, 47.57968, -1601.1661376953125], [-122.5061, 47.57674, -1206.44384765625], [-122.49967, 47.57233, -787.3368530273438]]], [[[-122.48713, 47.57907, -1538.6571044921875], [-122.49964, 47.57968, -1601.1661376953125], [-122.49967, 47.57233, -787.3368530273438], [-122.48713, 47.57907, -1538.6571044921875]]], [[[-122.48713, 47.57907, -1538.6571044921875], [-122.49967, 47.57233, -787.3368530273438], [-122.48757, 47.57253, -812.3390502929688], [-122.48713, 47.57907, -1538.6571044921875]]], [[[-122.488, 47.566, -86.02100372314453], [-122.48757, 47.57253, -812.3390502929688], [-122.49967, 47.57233, -787.3368530273438], [-122.488, 47.566, -86.02100372314453]]], [[[-122.488, 47.566, -86.02100372314453], [-122.49967, 47.57233, -787.3368530273438], [-122.50054, 47.56604, -83.31985473632812], [-122.488, 47.566, -86.02100372314453]]], [[[-122.513, 47.567, -55.31100082397461], [-122.50054, 47.56604, -83.31985473632812], [-122.49967, 47.57233, -787.3368530273438], [-122.513, 47.567, -55.31100082397461]]], [[[-122.513, 47.567, -55.31100082397461], [-122.49967, 47.57233, -787.3368530273438], [-122.51257, 47.5738, -811.72216796875], [-122.513, 47.567, -55.31100082397461]]], [[[-122.49967, 47.57233, -787.3368530273438], [-122.5061, 47.57674, -1206.44384765625], [-122.51257, 47.5738, -811.72216796875], [-122.49967, 47.57233, -787.3368530273438]]]]}}]}