{"type": "FeatureCollection", "features": [{"type": "Feature", "properties": {"name": "Seattle (Toe Jam Hill)", "CFM_ID": 341, "region": "ForearcIntraarc_WA", "primary_state/province": "WA", "secondary_state/province": null, "avg_dip": 45.0, "dip_dir": "N", "rake": 90, "slip_sense": "Reverse", "fault_level": 2, "NSHM23_sliprates": null, "QFFDAgeCatBin": "latest Quaternary", "QFFDAgeBin": "<15,000", "upper_depth": null, "upper_depth_constraint": "topography", "lower_depth": null, "lower_depth_constraint": "publication", "3D_model_constraints": "trace extended at constant dip", "reference": "Moore et al. (2022); Angster et al. (2026)", "nshm23_id": null, "lineage": null, "usgs_qffd_#": "570", "comments": null, "id": "341"}, "geometry": {"type": "MultiPolygon", "coordinates": [[[[-122.533, 47.592, -31.437999725341797], [-122.52602, 47.59257, -121.75531768798828], [-122.53292, 47.59386, -238.5939178466797], [-122.533, 47.592, -31.437999725341797]]], [[[-122.51952, 47.591, 29.336977005004883], [-122.52602, 47.59257, -121.75531768798828], [-122.533, 47.592, -31.437999725341797], [-122.51952, 47.591, 29.336977005004883]]], [[[-122.51952, 47.591, 29.336977005004883], [-122.51904, 47.59315, -210.3996124267578], [-122.52602, 47.59257, -121.75531768798828], [-122.51952, 47.591, 29.336977005004883]]], [[[-122.51248, 47.59298, -193.35220336914062], [-122.51904, 47.59315, -210.3996124267578], [-122.51952, 47.591, 29.336977005004883], [-122.51248, 47.59298, -193.35220336914062]]], [[[-122.50924, 47.59198, -84.04396057128906], [-122.51248, 47.59298, -193.35220336914062], [-122.51952, 47.591, 29.336977005004883], [-122.50924, 47.59198, -84.04396057128906]]], [[[-122.50924, 47.59198, -84.04396057128906], [-122.50592, 47.59282, -175.46986389160156], [-122.51248, 47.59298, -193.35220336914062], [-122.50924, 47.59198, -84.04396057128906]]], [[[-122.506, 47.591, 26.381000518798828], [-122.50592, 47.59282, -175.46986389160156], [-122.50924, 47.59198, -84.04396057128906], [-122.506, 47.591, 26.381000518798828]]], [[[-122.506, 47.591, 26.381000518798828], [-122.50924, 47.59198, -84.04396057128906], [-122.51952, 47.591, 29.336977005004883], [-122.506, 47.591, 26.381000518798828]]], [[[-122.52602, 47.59257, -121.75531768798828], [-122.51904, 47.59315, -210.3996124267578], [-122.53292, 47.59386, -238.5939178466797], [-122.52602, 47.59257, -121.75531768798828]]]]}}]}