{"type": "FeatureCollection", "features": [{"type": "Feature", "properties": {"name": "AW_NCAL_10", "CFM_ID": 349, "region": "Offshore_CA_MendocinoTripleJunction", "primary_state/province": "CA", "secondary_state/province": null, "avg_dip": 59, "dip_dir": "W", "rake": 90, "slip_sense": "Reverse", "fault_level": 2, "NSHM23_sliprates": null, "QFFDAgeCatBin": null, "QFFDAgeBin": null, "upper_depth": -2.4, "upper_depth_constraint": "bathymetry", "lower_depth": -6.8, "lower_depth_constraint": "Slab2", "3D_model_constraints": "trace extended at constant dip", "reference": "Goldfinger et al. (2023)", "nshm23_id": null, "lineage": null, "usgs_qffd_#": null, "comments": null, "id": "349"}, "geometry": {"type": "MultiPolygon", "coordinates": [[[[-124.93361, 41.03101, -4671.07177734375], [-124.93169, 41.03793, -3788.390625], [-124.93988, 41.03866, -4659.4736328125], [-124.93361, 41.03101, -4671.07177734375]]], [[[-125.01503, 41.14534, -4999.943359375], [-125.01047, 41.13711, -5119.7685546875], [-125.00795, 41.14247, -4361.1455078125], [-125.01503, 41.14534, -4999.943359375]]], [[[-124.98519, 41.07631, -6979.41943359375], [-124.98239, 41.0818, -6221.537109375], [-124.98926, 41.08344, -6950.03759765625], [-124.98519, 41.07631, -6979.41943359375]]], [[[-124.99111, 41.09386, -6420.4873046875], [-124.99244, 41.08919, -6927.08740234375], [-124.98725, 41.08887, -6304.3466796875], [-124.99111, 41.09386, -6420.4873046875]]], [[[-124.98909, 41.13203, -2978.265625], [-124.98094, 41.12995, -2200.97021484375], [-124.98663, 41.13784, -2181.250244140625], [-124.98909, 41.13203, -2978.265625]]], [[[-125.02458, 41.18944, -3055.22216796875], [-125.0209, 41.19499, -2249.5478515625], [-125.0275, 41.19808, -3085.245849609375], [-125.02458, 41.18944, -3055.22216796875]]], [[[-125.01503, 41.14534, -4999.943359375], [-125.02294, 41.14776, -5804.12646484375], [-125.01803, 41.13937, -5848.97705078125], [-125.01503, 41.14534, -4999.943359375]]], [[[-125.03762, 41.21837, -3892.781494140625], [-125.03535, 41.22619, -3329.52587890625], [-125.04195, 41.226, -4261.5244140625], [-125.03762, 41.21837, -3892.781494140625]]], [[[-125.00366, 41.12845, -5050.5771484375], [-125.00702, 41.123, -5938.31591796875], [-124.9971, 41.12081, -5022.04248046875], [-125.00366, 41.12845, -5050.5771484375]]], [[[-125.01618, 41.17237, -3106.361083984375], [-125.01299, 41.17804, -2298.80126953125], [-125.02068, 41.18092, -3076.8330078125], [-125.01618, 41.17237, -3106.361083984375]]], [[[-124.96072, 41.04828, -6338.236328125], [-124.95801, 41.05398, -5514.2001953125], [-124.9662, 41.05629, -6287.21630859375], [-124.96072, 41.04828, -6338.236328125]]], [[[-124.95626, 41.06097, -4681.61962890625], [-124.94968, 41.06135, -3861.52001953125], [-124.95524, 41.06914, -3854.7177734375], [-124.95626, 41.06097, -4681.61962890625]]], [[[-125.0283, 41.18352, -3881.408935546875], [-125.02068, 41.18092, -3076.8330078125], [-125.02458, 41.18944, -3055.22216796875], [-125.0283, 41.18352, -3881.408935546875]]], [[[-124.95088, 41.05398, -4661.103515625], [-124.94968, 41.06135, -3861.52001953125], [-124.95626, 41.06097, -4681.61962890625], [-124.95088, 41.05398, -4661.103515625]]], [[[-125.03193, 41.16394, -5689.74365234375], [-125.03862, 41.16707, -6502.73046875], [-125.03576, 41.15897, -6528.4580078125], [-125.03193, 41.16394, -5689.74365234375]]], [[[-124.95088, 41.05398, -4661.103515625], [-124.94331, 41.05311, -3815.556884765625], [-124.94968, 41.06135, -3861.52001953125], [-124.95088, 41.05398, -4661.103515625]]], [[[-125.0277, 41.15605, -5756.81103515625], [-125.03193, 41.16394, -5689.74365234375], [-125.03576, 41.15897, -6528.4580078125], [-125.0277, 41.15605, -5756.81103515625]]], [[[-124.99028, 41.10546, -5620.33837890625], [-124.99726, 41.10811, -6281.1787109375], [-124.99336, 41.10022, -6333.31591796875], [-124.99028, 41.10546, -5620.33837890625]]], [[[-125.02068, 41.18092, -3076.8330078125], [-125.01299, 41.17804, -2298.80126953125], [-125.01719, 41.18645, -2262.484130859375], [-125.02068, 41.18092, -3076.8330078125]]], [[[-125.01893, 41.15311, -4898.65234375], [-125.02294, 41.14776, -5804.12646484375], [-125.01503, 41.14534, -4999.943359375], [-125.01893, 41.15311, -4898.65234375]]], [[[-125.03762, 41.21837, -3892.781494140625], [-125.0319, 41.21564, -3172.2724609375], [-125.03535, 41.22619, -3329.52587890625], [-125.03762, 41.21837, -3892.781494140625]]], [[[-124.94745, 41.06744, -3063.888916015625], [-124.93957, 41.06576, -2258.54931640625], [-124.94536, 41.07361, -2276.35498046875], [-124.94745, 41.06744, -3063.888916015625]]], [[[-125.03193, 41.16394, -5689.74365234375], [-125.03578, 41.1718, -5616.419921875], [-125.03862, 41.16707, -6502.73046875], [-125.03193, 41.16394, -5689.74365234375]]], [[[-125.00366, 41.12845, -5050.5771484375], [-125.01265, 41.13118, -5893.48876953125], [-125.00702, 41.123, -5938.31591796875], [-125.00366, 41.12845, -5050.5771484375]]], [[[-125.02775, 41.16906, -4794.68896484375], [-125.03193, 41.16394, -5689.74365234375], [-125.02354, 41.1611, -4855.13818359375], [-125.02775, 41.16906, -4794.68896484375]]], [[[-124.98647, 41.09617, -5672.751953125], [-124.98346, 41.10096, -4993.9208984375], [-124.99028, 41.10546, -5620.33837890625], [-124.98647, 41.09617, -5672.751953125]]], [[[-124.97468, 41.07967, -5420.99658203125], [-124.96908, 41.0706, -5442.28564453125], [-124.967, 41.07748, -4655.16943359375], [-124.97468, 41.07967, -5420.99658203125]]], [[[-124.99336, 41.10022, -6333.31591796875], [-125.00002, 41.10499, -6868.1630859375], [-124.99708, 41.099, -6894.1923828125], [-124.99336, 41.10022, -6333.31591796875]]], [[[-125.01803, 41.13937, -5848.97705078125], [-125.02294, 41.14776, -5804.12646484375], [-125.02655, 41.14295, -6611.14208984375], [-125.01803, 41.13937, -5848.97705078125]]], [[[-124.9971, 41.12081, -5022.04248046875], [-124.98685, 41.11975, -4005.724853515625], [-124.99343, 41.12712, -3926.0224609375], [-124.9971, 41.12081, -5022.04248046875]]], [[[-124.93361, 41.03101, -4671.07177734375], [-124.92529, 41.02965, -3825.04638671875], [-124.93169, 41.03793, -3788.390625], [-124.93361, 41.03101, -4671.07177734375]]], [[[-125.01439, 41.15788, -3973.562744140625], [-125.00593, 41.15543, -3101.4921875], [-125.01119, 41.16381, -3118.900390625], [-125.01439, 41.15788, -3973.562744140625]]], [[[-125.01803, 41.13937, -5848.97705078125], [-125.02173, 41.13502, -6654.5234375], [-125.01265, 41.13118, -5893.48876953125], [-125.01803, 41.13937, -5848.97705078125]]], [[[-125.02775, 41.16906, -4794.68896484375], [-125.03578, 41.1718, -5616.419921875], [-125.03193, 41.16394, -5689.74365234375], [-125.02775, 41.16906, -4794.68896484375]]], [[[-124.97631, 41.10179, -4005.296630859375], [-124.98446, 41.10778, -4719.03515625], [-124.98346, 41.10096, -4993.9208984375], [-124.97631, 41.10179, -4005.296630859375]]], [[[-124.967, 41.07748, -4655.16943359375], [-124.96908, 41.0706, -5442.28564453125], [-124.96162, 41.06885, -4649.8623046875], [-124.967, 41.07748, -4655.16943359375]]], [[[-125.00795, 41.14247, -4361.1455078125], [-125.00911, 41.14943, -3944.310791015625], [-125.01503, 41.14534, -4999.943359375], [-125.00795, 41.14247, -4361.1455078125]]], [[[-124.99336, 41.10022, -6333.31591796875], [-124.99726, 41.10811, -6281.1787109375], [-125.00002, 41.10499, -6868.1630859375], [-124.99336, 41.10022, -6333.31591796875]]], [[[-125.03174, 41.17696, -4746.9638671875], [-125.03578, 41.1718, -5616.419921875], [-125.02775, 41.16906, -4794.68896484375], [-125.03174, 41.17696, -4746.9638671875]]], [[[-125.01938, 41.16641, -3938.540771484375], [-125.01119, 41.16381, -3118.900390625], [-125.01618, 41.17237, -3106.361083984375], [-125.01938, 41.16641, -3938.540771484375]]], [[[-124.98092, 41.08843, -5543.6689453125], [-124.98239, 41.0818, -6221.537109375], [-124.97468, 41.07967, -5420.99658203125], [-124.98092, 41.08843, -5543.6689453125]]], [[[-125.0365, 41.2096, -3999.310546875], [-125.03762, 41.21837, -3892.781494140625], [-125.04283, 41.21675, -4673.85205078125], [-125.0365, 41.2096, -3999.310546875]]], [[[-124.94171, 41.05972, -3057.332275390625], [-124.9337, 41.05794, -2264.714599609375], [-124.93957, 41.06576, -2258.54931640625], [-124.94171, 41.05972, -3057.332275390625]]], [[[-125.00911, 41.14943, -3944.310791015625], [-125.01439, 41.15788, -3973.562744140625], [-125.01893, 41.15311, -4898.65234375], [-125.00911, 41.14943, -3944.310791015625]]], [[[-124.9717, 41.06459, -6251.9765625], [-124.97716, 41.07348, -6212.744140625], [-124.97976, 41.06744, -7018.34912109375], [-124.9717, 41.06459, -6251.9765625]]], [[[-125.02407, 41.17505, -3909.15380859375], [-125.01618, 41.17237, -3106.361083984375], [-125.02068, 41.18092, -3076.8330078125], [-125.02407, 41.17505, -3909.15380859375]]], [[[-125.01265, 41.13118, -5893.48876953125], [-125.02173, 41.13502, -6654.5234375], [-125.01648, 41.12723, -6701.63720703125], [-125.01265, 41.13118, -5893.48876953125]]], [[[-124.90276, 41.0022, -4575.12890625], [-124.89525, 41.00147, -3710.450927734375], [-124.90046, 41.00859, -3800.718505859375], [-124.90276, 41.0022, -4575.12890625]]], [[[-124.908, 41.00983, -4544.05322265625], [-124.90046, 41.00859, -3800.718505859375], [-124.90853, 41.01557, -3840.50634765625], [-124.908, 41.00983, -4544.05322265625]]], [[[-124.99315, 41.11194, -5469.8779296875], [-125.00136, 41.11544, -6053.1328125], [-124.99726, 41.10811, -6281.1787109375], [-124.99315, 41.11194, -5469.8779296875]]], [[[-125.03174, 41.17696, -4746.9638671875], [-125.03945, 41.17969, -5563.47607421875], [-125.03578, 41.1718, -5616.419921875], [-125.03174, 41.17696, -4746.9638671875]]], [[[-124.96368, 41.06213, -5478.677734375], [-124.9662, 41.05629, -6287.21630859375], [-124.95801, 41.05398, -5514.2001953125], [-124.96368, 41.06213, -5478.677734375]]], [[[-125.02354, 41.1611, -4855.13818359375], [-125.0277, 41.15605, -5756.81103515625], [-125.01893, 41.15311, -4898.65234375], [-125.02354, 41.1611, -4855.13818359375]]], [[[-124.94331, 41.05311, -3815.556884765625], [-124.93555, 41.05153, -3001.34521484375], [-124.94171, 41.05972, -3057.332275390625], [-124.94331, 41.05311, -3815.556884765625]]], [[[-125.00033, 41.14721, -3044.296142578125], [-125.00593, 41.15543, -3101.4921875], [-125.00911, 41.14943, -3944.310791015625], [-125.00033, 41.14721, -3044.296142578125]]], [[[-124.9269, 41.023, -4775.26611328125], [-124.91767, 41.0224, -3853.509033203125], [-124.92529, 41.02965, -3825.04638671875], [-124.9269, 41.023, -4775.26611328125]]], [[[-124.91767, 41.0224, -3853.509033203125], [-124.90881, 41.02166, -3041.16552734375], [-124.91699, 41.02887, -2992.539306640625], [-124.91767, 41.0224, -3853.509033203125]]], [[[-125.01803, 41.13937, -5848.97705078125], [-125.01265, 41.13118, -5893.48876953125], [-125.01047, 41.13711, -5119.7685546875], [-125.01803, 41.13937, -5848.97705078125]]], [[[-124.98346, 41.10096, -4993.9208984375], [-124.98446, 41.10778, -4719.03515625], [-124.99028, 41.10546, -5620.33837890625], [-124.98346, 41.10096, -4993.9208984375]]], [[[-125.03529, 41.185, -4702.31591796875], [-125.03945, 41.17969, -5563.47607421875], [-125.03174, 41.17696, -4746.9638671875], [-125.03529, 41.185, -4702.31591796875]]], [[[-125.00593, 41.15543, -3101.4921875], [-125.00033, 41.14721, -3044.296142578125], [-124.99827, 41.15349, -2288.096435546875], [-125.00593, 41.15543, -3101.4921875]]], [[[-125.01938, 41.16641, -3938.540771484375], [-125.02354, 41.1611, -4855.13818359375], [-125.01439, 41.15788, -3973.562744140625], [-125.01938, 41.16641, -3938.540771484375]]], [[[-125.01938, 41.16641, -3938.540771484375], [-125.02775, 41.16906, -4794.68896484375], [-125.02354, 41.1611, -4855.13818359375], [-125.01938, 41.16641, -3938.540771484375]]], [[[-124.96323, 41.09188, -3075.06982421875], [-124.95553, 41.08985, -2265.85400390625], [-124.96061, 41.09798, -2293.651123046875], [-124.96323, 41.09188, -3075.06982421875]]], [[[-124.98395, 41.12487, -3110.655517578125], [-124.97531, 41.12236, -2440.483642578125], [-124.98094, 41.12995, -2200.97021484375], [-124.98395, 41.12487, -3110.655517578125]]], [[[-125.00136, 41.11544, -6053.1328125], [-125.00702, 41.123, -5938.31591796875], [-125.01123, 41.11946, -6751.14794921875], [-125.00136, 41.11544, -6053.1328125]]], [[[-124.9114, 41.00686, -5277.5791015625], [-124.90599, 40.99746, -5386.6337890625], [-124.90276, 41.0022, -4575.12890625], [-124.9114, 41.00686, -5277.5791015625]]], [[[-125.02407, 41.17505, -3909.15380859375], [-125.02775, 41.16906, -4794.68896484375], [-125.01938, 41.16641, -3938.540771484375], [-125.02407, 41.17505, -3909.15380859375]]], [[[-125.02407, 41.17505, -3909.15380859375], [-125.03174, 41.17696, -4746.9638671875], [-125.02775, 41.16906, -4794.68896484375], [-125.02407, 41.17505, -3909.15380859375]]], [[[-124.9971, 41.12081, -5022.04248046875], [-125.00136, 41.11544, -6053.1328125], [-124.99315, 41.11194, -5469.8779296875], [-124.9971, 41.12081, -5022.04248046875]]], [[[-125.02068, 41.18092, -3076.8330078125], [-125.01719, 41.18645, -2262.484130859375], [-125.02458, 41.18944, -3055.22216796875], [-125.02068, 41.18092, -3076.8330078125]]], [[[-125.01503, 41.14534, -4999.943359375], [-125.01803, 41.13937, -5848.97705078125], [-125.01047, 41.13711, -5119.7685546875], [-125.01503, 41.14534, -4999.943359375]]], [[[-124.94331, 41.05311, -3815.556884765625], [-124.94573, 41.04647, -4673.99365234375], [-124.93806, 41.04553, -3821.30078125], [-124.94331, 41.05311, -3815.556884765625]]], [[[-125.00187, 41.14097, -3741.69970703125], [-125.00308, 41.13434, -4466.45458984375], [-124.99674, 41.13391, -3742.16796875], [-125.00187, 41.14097, -3741.69970703125]]], [[[-124.88047, 40.92961, -7975.55029296875], [-124.87026, 40.92343, -7134.7021484375], [-124.87714, 40.93435, -7188.96142578125], [-124.88047, 40.92961, -7975.55029296875]]], [[[-124.94331, 41.05311, -3815.556884765625], [-124.93806, 41.04553, -3821.30078125], [-124.93555, 41.05153, -3001.34521484375], [-124.94331, 41.05311, -3815.556884765625]]], [[[-125.03779, 41.19331, -4699.1162109375], [-125.0339, 41.20093, -3908.77490234375], [-125.03987, 41.20157, -4721.79931640625], [-125.03779, 41.19331, -4699.1162109375]]], [[[-124.98395, 41.12487, -3110.655517578125], [-124.97821, 41.11671, -3260.270751953125], [-124.97531, 41.12236, -2440.483642578125], [-124.98395, 41.12487, -3110.655517578125]]], [[[-125.0283, 41.18352, -3881.408935546875], [-125.03529, 41.185, -4702.31591796875], [-125.03174, 41.17696, -4746.9638671875], [-125.0283, 41.18352, -3881.408935546875]]], [[[-124.99674, 41.13391, -3742.16796875], [-124.98909, 41.13203, -2978.265625], [-124.9945, 41.13944, -2989.377685546875], [-124.99674, 41.13391, -3742.16796875]]], [[[-124.9786, 41.09462, -4785.16064453125], [-124.97093, 41.0938, -3891.677978515625], [-124.97631, 41.10179, -4005.296630859375], [-124.9786, 41.09462, -4785.16064453125]]], [[[-124.9971, 41.12081, -5022.04248046875], [-124.98853, 41.11464, -4695.87548828125], [-124.98685, 41.11975, -4005.724853515625], [-124.9971, 41.12081, -5022.04248046875]]], [[[-124.95088, 41.05398, -4661.103515625], [-124.95274, 41.04637, -5533.20068359375], [-124.94573, 41.04647, -4673.99365234375], [-124.95088, 41.05398, -4661.103515625]]], [[[-124.94573, 41.04647, -4673.99365234375], [-124.94735, 41.03871, -5546.09912109375], [-124.93988, 41.03866, -4659.4736328125], [-124.94573, 41.04647, -4673.99365234375]]], [[[-125.03529, 41.185, -4702.31591796875], [-125.04231, 41.18779, -5537.125], [-125.03945, 41.17969, -5563.47607421875], [-125.03529, 41.185, -4702.31591796875]]], [[[-125.01439, 41.15788, -3973.562744140625], [-125.02354, 41.1611, -4855.13818359375], [-125.01893, 41.15311, -4898.65234375], [-125.01439, 41.15788, -3973.562744140625]]], [[[-125.01803, 41.13937, -5848.97705078125], [-125.02655, 41.14295, -6611.14208984375], [-125.02173, 41.13502, -6654.5234375], [-125.01803, 41.13937, -5848.97705078125]]], [[[-125.00795, 41.14247, -4361.1455078125], [-125.00308, 41.13434, -4466.45458984375], [-125.00187, 41.14097, -3741.69970703125], [-125.00795, 41.14247, -4361.1455078125]]], [[[-125.0339, 41.20093, -3908.77490234375], [-125.0275, 41.19808, -3085.245849609375], [-125.02974, 41.20719, -3122.703125], [-125.0339, 41.20093, -3908.77490234375]]], [[[-125.00366, 41.12845, -5050.5771484375], [-125.01047, 41.13711, -5119.7685546875], [-125.01265, 41.13118, -5893.48876953125], [-125.00366, 41.12845, -5050.5771484375]]], [[[-124.99726, 41.10811, -6281.1787109375], [-125.00136, 41.11544, -6053.1328125], [-125.00488, 41.1122, -6815.63232421875], [-124.99726, 41.10811, -6281.1787109375]]], [[[-124.93988, 41.03866, -4659.4736328125], [-124.93806, 41.04553, -3821.30078125], [-124.94573, 41.04647, -4673.99365234375], [-124.93988, 41.03866, -4659.4736328125]]], [[[-125.0283, 41.18352, -3881.408935546875], [-125.03174, 41.17696, -4746.9638671875], [-125.02407, 41.17505, -3909.15380859375], [-125.0283, 41.18352, -3881.408935546875]]], [[[-125.02407, 41.17505, -3909.15380859375], [-125.01938, 41.16641, -3938.540771484375], [-125.01618, 41.17237, -3106.361083984375], [-125.02407, 41.17505, -3909.15380859375]]], [[[-124.95312, 41.0757, -3077.329833984375], [-124.95046, 41.08173, -2286.596923828125], [-124.95836, 41.08405, -3071.02197265625], [-124.95312, 41.0757, -3077.329833984375]]], [[[-125.01893, 41.15311, -4898.65234375], [-125.0277, 41.15605, -5756.81103515625], [-125.02294, 41.14776, -5804.12646484375], [-125.01893, 41.15311, -4898.65234375]]], [[[-125.0283, 41.18352, -3881.408935546875], [-125.02407, 41.17505, -3909.15380859375], [-125.02068, 41.18092, -3076.8330078125], [-125.0283, 41.18352, -3881.408935546875]]], [[[-124.98853, 41.11464, -4695.87548828125], [-124.98446, 41.10778, -4719.03515625], [-124.98013, 41.1108, -3968.241455078125], [-124.98853, 41.11464, -4695.87548828125]]], [[[-124.9269, 41.023, -4775.26611328125], [-124.92529, 41.02965, -3825.04638671875], [-124.93361, 41.03101, -4671.07177734375], [-124.9269, 41.023, -4775.26611328125]]], [[[-124.9683, 41.09991, -3106.994140625], [-124.96562, 41.10612, -2331.949462890625], [-124.97274, 41.10756, -3198.99560546875], [-124.9683, 41.09991, -3106.994140625]]], [[[-124.97294, 41.08655, -4684.88818359375], [-124.96584, 41.0855, -3877.57421875], [-124.97093, 41.0938, -3891.677978515625], [-124.97294, 41.08655, -4684.88818359375]]], [[[-124.99527, 41.09418, -6906.6748046875], [-124.99111, 41.09386, -6420.4873046875], [-124.99336, 41.10022, -6333.31591796875], [-124.99527, 41.09418, -6906.6748046875]]], [[[-125.03987, 41.20157, -4721.79931640625], [-125.04636, 41.20428, -5549.017578125], [-125.04441, 41.19602, -5539.8349609375], [-125.03987, 41.20157, -4721.79931640625]]], [[[-124.94573, 41.04647, -4673.99365234375], [-124.95274, 41.04637, -5533.20068359375], [-124.94735, 41.03871, -5546.09912109375], [-124.94573, 41.04647, -4673.99365234375]]], [[[-125.03779, 41.19331, -4699.1162109375], [-125.04231, 41.18779, -5537.125], [-125.03529, 41.185, -4702.31591796875], [-125.03779, 41.19331, -4699.1162109375]]], [[[-124.96908, 41.0706, -5442.28564453125], [-124.97716, 41.07348, -6212.744140625], [-124.9717, 41.06459, -6251.9765625], [-124.96908, 41.0706, -5442.28564453125]]], [[[-124.96584, 41.0855, -3877.57421875], [-124.95836, 41.08405, -3071.02197265625], [-124.96323, 41.09188, -3075.06982421875], [-124.96584, 41.0855, -3877.57421875]]], [[[-125.02354, 41.1611, -4855.13818359375], [-125.03193, 41.16394, -5689.74365234375], [-125.0277, 41.15605, -5756.81103515625], [-125.02354, 41.1611, -4855.13818359375]]], [[[-125.01503, 41.14534, -4999.943359375], [-125.00911, 41.14943, -3944.310791015625], [-125.01893, 41.15311, -4898.65234375], [-125.01503, 41.14534, -4999.943359375]]], [[[-124.99674, 41.13391, -3742.16796875], [-124.99343, 41.12712, -3926.0224609375], [-124.98909, 41.13203, -2978.265625], [-124.99674, 41.13391, -3742.16796875]]], [[[-124.95088, 41.05398, -4661.103515625], [-124.95801, 41.05398, -5514.2001953125], [-124.95274, 41.04637, -5533.20068359375], [-124.95088, 41.05398, -4661.103515625]]], [[[-125.00308, 41.13434, -4466.45458984375], [-125.00366, 41.12845, -5050.5771484375], [-124.99343, 41.12712, -3926.0224609375], [-125.00308, 41.13434, -4466.45458984375]]], [[[-124.95554, 41.04011, -6371.044921875], [-124.95274, 41.04637, -5533.20068359375], [-124.96072, 41.04828, -6338.236328125], [-124.95554, 41.04011, -6371.044921875]]], [[[-124.97294, 41.08655, -4684.88818359375], [-124.9786, 41.09462, -4785.16064453125], [-124.98092, 41.08843, -5543.6689453125], [-124.97294, 41.08655, -4684.88818359375]]], [[[-124.98446, 41.10778, -4719.03515625], [-124.99315, 41.11194, -5469.8779296875], [-124.99028, 41.10546, -5620.33837890625], [-124.98446, 41.10778, -4719.03515625]]], [[[-125.03779, 41.19331, -4699.1162109375], [-125.04441, 41.19602, -5539.8349609375], [-125.04231, 41.18779, -5537.125], [-125.03779, 41.19331, -4699.1162109375]]], [[[-124.95524, 41.06914, -3854.7177734375], [-124.94968, 41.06135, -3861.52001953125], [-124.94745, 41.06744, -3063.888916015625], [-124.95524, 41.06914, -3854.7177734375]]], [[[-124.97976, 41.06744, -7018.34912109375], [-124.97716, 41.07348, -6212.744140625], [-124.98519, 41.07631, -6979.41943359375], [-124.97976, 41.06744, -7018.34912109375]]], [[[-125.0283, 41.18352, -3881.408935546875], [-125.03184, 41.19206, -3866.944580078125], [-125.03529, 41.185, -4702.31591796875], [-125.0283, 41.18352, -3881.408935546875]]], [[[-124.94745, 41.06744, -3063.888916015625], [-124.94536, 41.07361, -2276.35498046875], [-124.95312, 41.0757, -3077.329833984375], [-124.94745, 41.06744, -3063.888916015625]]], [[[-124.99343, 41.12712, -3926.0224609375], [-124.98395, 41.12487, -3110.655517578125], [-124.98909, 41.13203, -2978.265625], [-124.99343, 41.12712, -3926.0224609375]]], [[[-124.98909, 41.13203, -2978.265625], [-124.98663, 41.13784, -2181.250244140625], [-124.9945, 41.13944, -2989.377685546875], [-124.98909, 41.13203, -2978.265625]]], [[[-125.03987, 41.20157, -4721.79931640625], [-125.04441, 41.19602, -5539.8349609375], [-125.03779, 41.19331, -4699.1162109375], [-125.03987, 41.20157, -4721.79931640625]]], [[[-124.95088, 41.05398, -4661.103515625], [-124.94573, 41.04647, -4673.99365234375], [-124.94331, 41.05311, -3815.556884765625], [-124.95088, 41.05398, -4661.103515625]]], [[[-124.98647, 41.09617, -5672.751953125], [-124.9786, 41.09462, -4785.16064453125], [-124.98346, 41.10096, -4993.9208984375], [-124.98647, 41.09617, -5672.751953125]]], [[[-125.03184, 41.19206, -3866.944580078125], [-125.0283, 41.18352, -3881.408935546875], [-125.02458, 41.18944, -3055.22216796875], [-125.03184, 41.19206, -3866.944580078125]]], [[[-124.96323, 41.09188, -3075.06982421875], [-124.96061, 41.09798, -2293.651123046875], [-124.9683, 41.09991, -3106.994140625], [-124.96323, 41.09188, -3075.06982421875]]], [[[-124.99726, 41.10811, -6281.1787109375], [-125.00488, 41.1122, -6815.63232421875], [-125.00002, 41.10499, -6868.1630859375], [-124.99726, 41.10811, -6281.1787109375]]], [[[-124.95312, 41.0757, -3077.329833984375], [-124.94536, 41.07361, -2276.35498046875], [-124.95046, 41.08173, -2286.596923828125], [-124.95312, 41.0757, -3077.329833984375]]], [[[-124.90853, 41.01557, -3840.50634765625], [-124.90881, 41.02166, -3041.16552734375], [-124.91767, 41.0224, -3853.509033203125], [-124.90853, 41.01557, -3840.50634765625]]], [[[-125.01439, 41.15788, -3973.562744140625], [-125.00911, 41.14943, -3944.310791015625], [-125.00593, 41.15543, -3101.4921875], [-125.01439, 41.15788, -3973.562744140625]]], [[[-125.00187, 41.14097, -3741.69970703125], [-125.00033, 41.14721, -3044.296142578125], [-125.00911, 41.14943, -3944.310791015625], [-125.00187, 41.14097, -3741.69970703125]]], [[[-124.96072, 41.04828, -6338.236328125], [-124.9662, 41.05629, -6287.21630859375], [-124.96888, 41.05064, -7107.837890625], [-124.96072, 41.04828, -6338.236328125]]], [[[-125.01123, 41.11946, -6751.14794921875], [-125.00702, 41.123, -5938.31591796875], [-125.01648, 41.12723, -6701.63720703125], [-125.01123, 41.11946, -6751.14794921875]]], [[[-124.98725, 41.08887, -6304.3466796875], [-124.98647, 41.09617, -5672.751953125], [-124.99111, 41.09386, -6420.4873046875], [-124.98725, 41.08887, -6304.3466796875]]], [[[-124.90853, 41.01557, -3840.50634765625], [-124.89992, 41.01481, -3045.769287109375], [-124.90881, 41.02166, -3041.16552734375], [-124.90853, 41.01557, -3840.50634765625]]], [[[-125.00593, 41.15543, -3101.4921875], [-125.00338, 41.1616, -2324.1494140625], [-125.01119, 41.16381, -3118.900390625], [-125.00593, 41.15543, -3101.4921875]]], [[[-125.03987, 41.20157, -4721.79931640625], [-125.0425, 41.20948, -4848.5439453125], [-125.04636, 41.20428, -5549.017578125], [-125.03987, 41.20157, -4721.79931640625]]], [[[-125.03945, 41.17969, -5563.47607421875], [-125.04231, 41.18779, -5537.125], [-125.04434, 41.18327, -6451.27587890625], [-125.03945, 41.17969, -5563.47607421875]]], [[[-125.0277, 41.15605, -5756.81103515625], [-125.03576, 41.15897, -6528.4580078125], [-125.03109, 41.15098, -6570.34521484375], [-125.0277, 41.15605, -5756.81103515625]]], [[[-125.02294, 41.14776, -5804.12646484375], [-125.03109, 41.15098, -6570.34521484375], [-125.02655, 41.14295, -6611.14208984375], [-125.02294, 41.14776, -5804.12646484375]]], [[[-125.00366, 41.12845, -5050.5771484375], [-124.9971, 41.12081, -5022.04248046875], [-124.99343, 41.12712, -3926.0224609375], [-125.00366, 41.12845, -5050.5771484375]]], [[[-124.9114, 41.00686, -5277.5791015625], [-124.908, 41.00983, -4544.05322265625], [-124.9177, 41.01572, -4763.1181640625], [-124.9114, 41.00686, -5277.5791015625]]], [[[-124.98647, 41.09617, -5672.751953125], [-124.98092, 41.08843, -5543.6689453125], [-124.9786, 41.09462, -4785.16064453125], [-124.98647, 41.09617, -5672.751953125]]], [[[-125.0472, 41.19137, -6425.54833984375], [-125.04441, 41.19602, -5539.8349609375], [-125.05006, 41.19947, -6399.8212890625], [-125.0472, 41.19137, -6425.54833984375]]], [[[-125.03529, 41.185, -4702.31591796875], [-125.03184, 41.19206, -3866.944580078125], [-125.03779, 41.19331, -4699.1162109375], [-125.03529, 41.185, -4702.31591796875]]], [[[-124.98685, 41.11975, -4005.724853515625], [-124.98853, 41.11464, -4695.87548828125], [-124.98013, 41.1108, -3968.241455078125], [-124.98685, 41.11975, -4005.724853515625]]], [[[-124.967, 41.07748, -4655.16943359375], [-124.96051, 41.07738, -3868.69775390625], [-124.96584, 41.0855, -3877.57421875], [-124.967, 41.07748, -4655.16943359375]]], [[[-124.9971, 41.12081, -5022.04248046875], [-125.00702, 41.123, -5938.31591796875], [-125.00136, 41.11544, -6053.1328125], [-124.9971, 41.12081, -5022.04248046875]]], [[[-125.0425, 41.20948, -4848.5439453125], [-125.03987, 41.20157, -4721.79931640625], [-125.0365, 41.2096, -3999.310546875], [-125.0425, 41.20948, -4848.5439453125]]], [[[-124.95801, 41.05398, -5514.2001953125], [-124.96072, 41.04828, -6338.236328125], [-124.95274, 41.04637, -5533.20068359375], [-124.95801, 41.05398, -5514.2001953125]]], [[[-124.9683, 41.09991, -3106.994140625], [-124.97631, 41.10179, -4005.296630859375], [-124.97093, 41.0938, -3891.677978515625], [-124.9683, 41.09991, -3106.994140625]]], [[[-124.98092, 41.08843, -5543.6689453125], [-124.97468, 41.07967, -5420.99658203125], [-124.97294, 41.08655, -4684.88818359375], [-124.98092, 41.08843, -5543.6689453125]]], [[[-124.90599, 40.99746, -5386.6337890625], [-124.89669, 40.9951, -4537.0888671875], [-124.90276, 41.0022, -4575.12890625], [-124.90599, 40.99746, -5386.6337890625]]], [[[-124.95274, 41.04637, -5533.20068359375], [-124.95554, 41.04011, -6371.044921875], [-124.94735, 41.03871, -5546.09912109375], [-124.95274, 41.04637, -5533.20068359375]]], [[[-124.98725, 41.08887, -6304.3466796875], [-124.98239, 41.0818, -6221.537109375], [-124.98092, 41.08843, -5543.6689453125], [-124.98725, 41.08887, -6304.3466796875]]], [[[-125.04881, 41.21416, -5593.03125], [-125.05185, 41.22357, -5728.1103515625], [-125.05524, 41.21862, -6357.14404296875], [-125.04881, 41.21416, -5593.03125]]], [[[-125.0425, 41.20948, -4848.5439453125], [-125.0365, 41.2096, -3999.310546875], [-125.04283, 41.21675, -4673.85205078125], [-125.0425, 41.20948, -4848.5439453125]]], [[[-124.96908, 41.0706, -5442.28564453125], [-124.96368, 41.06213, -5478.677734375], [-124.96162, 41.06885, -4649.8623046875], [-124.96908, 41.0706, -5442.28564453125]]], [[[-125.00136, 41.11544, -6053.1328125], [-125.01123, 41.11946, -6751.14794921875], [-125.00488, 41.1122, -6815.63232421875], [-125.00136, 41.11544, -6053.1328125]]], [[[-124.9177, 41.01572, -4763.1181640625], [-124.90853, 41.01557, -3840.50634765625], [-124.91767, 41.0224, -3853.509033203125], [-124.9177, 41.01572, -4763.1181640625]]], [[[-125.00187, 41.14097, -3741.69970703125], [-124.99674, 41.13391, -3742.16796875], [-124.9945, 41.13944, -2989.377685546875], [-125.00187, 41.14097, -3741.69970703125]]], [[[-124.967, 41.07748, -4655.16943359375], [-124.96584, 41.0855, -3877.57421875], [-124.97294, 41.08655, -4684.88818359375], [-124.967, 41.07748, -4655.16943359375]]], [[[-124.9114, 41.00686, -5277.5791015625], [-124.90276, 41.0022, -4575.12890625], [-124.908, 41.00983, -4544.05322265625], [-124.9114, 41.00686, -5277.5791015625]]], [[[-125.0425, 41.20948, -4848.5439453125], [-125.04283, 41.21675, -4673.85205078125], [-125.04881, 41.21416, -5593.03125], [-125.0425, 41.20948, -4848.5439453125]]], [[[-124.98239, 41.0818, -6221.537109375], [-124.98519, 41.07631, -6979.41943359375], [-124.97716, 41.07348, -6212.744140625], [-124.98239, 41.0818, -6221.537109375]]], [[[-124.90599, 40.99746, -5386.6337890625], [-124.89833, 40.98866, -5349.86083984375], [-124.89669, 40.9951, -4537.0888671875], [-124.90599, 40.99746, -5386.6337890625]]], [[[-124.97093, 41.0938, -3891.677978515625], [-124.96323, 41.09188, -3075.06982421875], [-124.9683, 41.09991, -3106.994140625], [-124.97093, 41.0938, -3891.677978515625]]], [[[-124.95088, 41.05398, -4661.103515625], [-124.95626, 41.06097, -4681.61962890625], [-124.95801, 41.05398, -5514.2001953125], [-124.95088, 41.05398, -4661.103515625]]], [[[-125.04283, 41.21675, -4673.85205078125], [-125.04195, 41.226, -4261.5244140625], [-125.04712, 41.22398, -5047.57958984375], [-125.04283, 41.21675, -4673.85205078125]]], [[[-124.97274, 41.10756, -3198.99560546875], [-124.96562, 41.10612, -2331.949462890625], [-124.97021, 41.11427, -2488.70361328125], [-124.97274, 41.10756, -3198.99560546875]]], [[[-125.0425, 41.20948, -4848.5439453125], [-125.04881, 41.21416, -5593.03125], [-125.04636, 41.20428, -5549.017578125], [-125.0425, 41.20948, -4848.5439453125]]], [[[-124.97631, 41.10179, -4005.296630859375], [-124.9683, 41.09991, -3106.994140625], [-124.97274, 41.10756, -3198.99560546875], [-124.97631, 41.10179, -4005.296630859375]]], [[[-125.04636, 41.20428, -5549.017578125], [-125.04881, 41.21416, -5593.03125], [-125.05293, 41.20757, -6374.09375], [-125.04636, 41.20428, -5549.017578125]]], [[[-125.01119, 41.16381, -3118.900390625], [-125.00338, 41.1616, -2324.1494140625], [-125.00841, 41.16975, -2323.559814453125], [-125.01119, 41.16381, -3118.900390625]]], [[[-124.90853, 41.01557, -3840.50634765625], [-124.90046, 41.00859, -3800.718505859375], [-124.89992, 41.01481, -3045.769287109375], [-124.90853, 41.01557, -3840.50634765625]]], [[[-124.90276, 41.0022, -4575.12890625], [-124.89669, 40.9951, -4537.0888671875], [-124.89525, 41.00147, -3710.450927734375], [-124.90276, 41.0022, -4575.12890625]]], [[[-125.04636, 41.20428, -5549.017578125], [-125.05293, 41.20757, -6374.09375], [-125.05006, 41.19947, -6399.8212890625], [-125.04636, 41.20428, -5549.017578125]]], [[[-124.96584, 41.0855, -3877.57421875], [-124.96051, 41.07738, -3868.69775390625], [-124.95836, 41.08405, -3071.02197265625], [-124.96584, 41.0855, -3877.57421875]]], [[[-124.95524, 41.06914, -3854.7177734375], [-124.94745, 41.06744, -3063.888916015625], [-124.95312, 41.0757, -3077.329833984375], [-124.95524, 41.06914, -3854.7177734375]]], [[[-124.98647, 41.09617, -5672.751953125], [-124.98725, 41.08887, -6304.3466796875], [-124.98092, 41.08843, -5543.6689453125], [-124.98647, 41.09617, -5672.751953125]]], [[[-125.04636, 41.20428, -5549.017578125], [-125.05006, 41.19947, -6399.8212890625], [-125.04441, 41.19602, -5539.8349609375], [-125.04636, 41.20428, -5549.017578125]]], [[[-125.01265, 41.13118, -5893.48876953125], [-125.01648, 41.12723, -6701.63720703125], [-125.00702, 41.123, -5938.31591796875], [-125.01265, 41.13118, -5893.48876953125]]], [[[-125.03762, 41.21837, -3892.781494140625], [-125.0365, 41.2096, -3999.310546875], [-125.0319, 41.21564, -3172.2724609375], [-125.03762, 41.21837, -3892.781494140625]]], [[[-124.96162, 41.06885, -4649.8623046875], [-124.96051, 41.07738, -3868.69775390625], [-124.967, 41.07748, -4655.16943359375], [-124.96162, 41.06885, -4649.8623046875]]], [[[-124.90599, 40.99746, -5386.6337890625], [-124.9114, 41.00686, -5277.5791015625], [-124.91391, 41.00095, -6077.0751953125], [-124.90599, 40.99746, -5386.6337890625]]], [[[-124.908, 41.00983, -4544.05322265625], [-124.90276, 41.0022, -4575.12890625], [-124.90046, 41.00859, -3800.718505859375], [-124.908, 41.00983, -4544.05322265625]]], [[[-124.99111, 41.09386, -6420.4873046875], [-124.98647, 41.09617, -5672.751953125], [-124.99336, 41.10022, -6333.31591796875], [-124.99111, 41.09386, -6420.4873046875]]], [[[-124.96051, 41.07738, -3868.69775390625], [-124.95524, 41.06914, -3854.7177734375], [-124.95312, 41.0757, -3077.329833984375], [-124.96051, 41.07738, -3868.69775390625]]], [[[-125.04231, 41.18779, -5537.125], [-125.04441, 41.19602, -5539.8349609375], [-125.0472, 41.19137, -6425.54833984375], [-125.04231, 41.18779, -5537.125]]], [[[-125.02294, 41.14776, -5804.12646484375], [-125.0277, 41.15605, -5756.81103515625], [-125.03109, 41.15098, -6570.34521484375], [-125.02294, 41.14776, -5804.12646484375]]], [[[-125.03184, 41.19206, -3866.944580078125], [-125.0339, 41.20093, -3908.77490234375], [-125.03779, 41.19331, -4699.1162109375], [-125.03184, 41.19206, -3866.944580078125]]], [[[-125.04231, 41.18779, -5537.125], [-125.0472, 41.19137, -6425.54833984375], [-125.04434, 41.18327, -6451.27587890625], [-125.04231, 41.18779, -5537.125]]], [[[-124.98446, 41.10778, -4719.03515625], [-124.98853, 41.11464, -4695.87548828125], [-124.99315, 41.11194, -5469.8779296875], [-124.98446, 41.10778, -4719.03515625]]], [[[-124.9662, 41.05629, -6287.21630859375], [-124.9717, 41.06459, -6251.9765625], [-124.97433, 41.05858, -7057.27880859375], [-124.9662, 41.05629, -6287.21630859375]]], [[[-124.89833, 40.98866, -5349.86083984375], [-124.90599, 40.99746, -5386.6337890625], [-124.90783, 40.99162, -6178.693359375], [-124.89833, 40.98866, -5349.86083984375]]], [[[-125.01938, 41.16641, -3938.540771484375], [-125.01439, 41.15788, -3973.562744140625], [-125.01119, 41.16381, -3118.900390625], [-125.01938, 41.16641, -3938.540771484375]]], [[[-124.98685, 41.11975, -4005.724853515625], [-124.98395, 41.12487, -3110.655517578125], [-124.99343, 41.12712, -3926.0224609375], [-124.98685, 41.11975, -4005.724853515625]]], [[[-124.9717, 41.06459, -6251.9765625], [-124.97976, 41.06744, -7018.34912109375], [-124.97433, 41.05858, -7057.27880859375], [-124.9717, 41.06459, -6251.9765625]]], [[[-124.9662, 41.05629, -6287.21630859375], [-124.97433, 41.05858, -7057.27880859375], [-124.96888, 41.05064, -7107.837890625], [-124.9662, 41.05629, -6287.21630859375]]], [[[-125.03945, 41.17969, -5563.47607421875], [-125.04434, 41.18327, -6451.27587890625], [-125.04148, 41.17517, -6477.00341796875], [-125.03945, 41.17969, -5563.47607421875]]], [[[-124.98013, 41.1108, -3968.241455078125], [-124.97274, 41.10756, -3198.99560546875], [-124.97821, 41.11671, -3260.270751953125], [-124.98013, 41.1108, -3968.241455078125]]], [[[-124.97274, 41.10756, -3198.99560546875], [-124.97021, 41.11427, -2488.70361328125], [-124.97821, 41.11671, -3260.270751953125], [-124.97274, 41.10756, -3198.99560546875]]], [[[-125.03578, 41.1718, -5616.419921875], [-125.03945, 41.17969, -5563.47607421875], [-125.04148, 41.17517, -6477.00341796875], [-125.03578, 41.1718, -5616.419921875]]], [[[-125.00795, 41.14247, -4361.1455078125], [-125.00187, 41.14097, -3741.69970703125], [-125.00911, 41.14943, -3944.310791015625], [-125.00795, 41.14247, -4361.1455078125]]], [[[-125.0339, 41.20093, -3908.77490234375], [-125.02974, 41.20719, -3122.703125], [-125.0365, 41.2096, -3999.310546875], [-125.0339, 41.20093, -3908.77490234375]]], [[[-125.03578, 41.1718, -5616.419921875], [-125.04148, 41.17517, -6477.00341796875], [-125.03862, 41.16707, -6502.73046875], [-125.03578, 41.1718, -5616.419921875]]], [[[-125.04881, 41.21416, -5593.03125], [-125.05524, 41.21862, -6357.14404296875], [-125.05293, 41.20757, -6374.09375], [-125.04881, 41.21416, -5593.03125]]], [[[-125.04881, 41.21416, -5593.03125], [-125.04712, 41.22398, -5047.57958984375], [-125.05185, 41.22357, -5728.1103515625], [-125.04881, 41.21416, -5593.03125]]], [[[-125.04283, 41.21675, -4673.85205078125], [-125.04712, 41.22398, -5047.57958984375], [-125.04881, 41.21416, -5593.03125], [-125.04283, 41.21675, -4673.85205078125]]], [[[-125.03762, 41.21837, -3892.781494140625], [-125.04195, 41.226, -4261.5244140625], [-125.04283, 41.21675, -4673.85205078125], [-125.03762, 41.21837, -3892.781494140625]]], [[[-125.0365, 41.2096, -3999.310546875], [-125.02974, 41.20719, -3122.703125], [-125.0319, 41.21564, -3172.2724609375], [-125.0365, 41.2096, -3999.310546875]]], [[[-125.0339, 41.20093, -3908.77490234375], [-125.03184, 41.19206, -3866.944580078125], [-125.0275, 41.19808, -3085.245849609375], [-125.0339, 41.20093, -3908.77490234375]]], [[[-125.01119, 41.16381, -3118.900390625], [-125.00841, 41.16975, -2323.559814453125], [-125.01618, 41.17237, -3106.361083984375], [-125.01119, 41.16381, -3118.900390625]]], [[[-124.9786, 41.09462, -4785.16064453125], [-124.97631, 41.10179, -4005.296630859375], [-124.98346, 41.10096, -4993.9208984375], [-124.9786, 41.09462, -4785.16064453125]]], [[[-124.96368, 41.06213, -5478.677734375], [-124.9717, 41.06459, -6251.9765625], [-124.9662, 41.05629, -6287.21630859375], [-124.96368, 41.06213, -5478.677734375]]], [[[-125.03184, 41.19206, -3866.944580078125], [-125.02458, 41.18944, -3055.22216796875], [-125.0275, 41.19808, -3085.245849609375], [-125.03184, 41.19206, -3866.944580078125]]], [[[-125.02458, 41.18944, -3055.22216796875], [-125.01719, 41.18645, -2262.484130859375], [-125.0209, 41.19499, -2249.5478515625], [-125.02458, 41.18944, -3055.22216796875]]], [[[-124.93988, 41.03866, -4659.4736328125], [-124.93169, 41.03793, -3788.390625], [-124.93806, 41.04553, -3821.30078125], [-124.93988, 41.03866, -4659.4736328125]]], [[[-124.9683, 41.09991, -3106.994140625], [-124.96061, 41.09798, -2293.651123046875], [-124.96562, 41.10612, -2331.949462890625], [-124.9683, 41.09991, -3106.994140625]]], [[[-124.96162, 41.06885, -4649.8623046875], [-124.95524, 41.06914, -3854.7177734375], [-124.96051, 41.07738, -3868.69775390625], [-124.96162, 41.06885, -4649.8623046875]]], [[[-125.01618, 41.17237, -3106.361083984375], [-125.00841, 41.16975, -2323.559814453125], [-125.01299, 41.17804, -2298.80126953125], [-125.01618, 41.17237, -3106.361083984375]]], [[[-124.95836, 41.08405, -3071.02197265625], [-124.95046, 41.08173, -2286.596923828125], [-124.95553, 41.08985, -2265.85400390625], [-124.95836, 41.08405, -3071.02197265625]]], [[[-125.00593, 41.15543, -3101.4921875], [-124.99827, 41.15349, -2288.096435546875], [-125.00338, 41.1616, -2324.1494140625], [-125.00593, 41.15543, -3101.4921875]]], [[[-124.96051, 41.07738, -3868.69775390625], [-124.95312, 41.0757, -3077.329833984375], [-124.95836, 41.08405, -3071.02197265625], [-124.96051, 41.07738, -3868.69775390625]]], [[[-125.00187, 41.14097, -3741.69970703125], [-124.9945, 41.13944, -2989.377685546875], [-125.00033, 41.14721, -3044.296142578125], [-125.00187, 41.14097, -3741.69970703125]]], [[[-125.00308, 41.13434, -4466.45458984375], [-125.00795, 41.14247, -4361.1455078125], [-125.01047, 41.13711, -5119.7685546875], [-125.00308, 41.13434, -4466.45458984375]]], [[[-125.00366, 41.12845, -5050.5771484375], [-125.00308, 41.13434, -4466.45458984375], [-125.01047, 41.13711, -5119.7685546875], [-125.00366, 41.12845, -5050.5771484375]]], [[[-124.94968, 41.06135, -3861.52001953125], [-124.94171, 41.05972, -3057.332275390625], [-124.94745, 41.06744, -3063.888916015625], [-124.94968, 41.06135, -3861.52001953125]]], [[[-124.9177, 41.01572, -4763.1181640625], [-124.91767, 41.0224, -3853.509033203125], [-124.9269, 41.023, -4775.26611328125], [-124.9177, 41.01572, -4763.1181640625]]], [[[-124.98685, 41.11975, -4005.724853515625], [-124.97821, 41.11671, -3260.270751953125], [-124.98395, 41.12487, -3110.655517578125], [-124.98685, 41.11975, -4005.724853515625]]], [[[-124.9177, 41.01572, -4763.1181640625], [-124.908, 41.00983, -4544.05322265625], [-124.90853, 41.01557, -3840.50634765625], [-124.9177, 41.01572, -4763.1181640625]]], [[[-125.00308, 41.13434, -4466.45458984375], [-124.99343, 41.12712, -3926.0224609375], [-124.99674, 41.13391, -3742.16796875], [-125.00308, 41.13434, -4466.45458984375]]], [[[-124.90783, 40.99162, -6178.693359375], [-124.90599, 40.99746, -5386.6337890625], [-124.91391, 41.00095, -6077.0751953125], [-124.90783, 40.99162, -6178.693359375]]], [[[-124.98395, 41.12487, -3110.655517578125], [-124.98094, 41.12995, -2200.97021484375], [-124.98909, 41.13203, -2978.265625], [-124.98395, 41.12487, -3110.655517578125]]], [[[-124.96908, 41.0706, -5442.28564453125], [-124.9717, 41.06459, -6251.9765625], [-124.96368, 41.06213, -5478.677734375], [-124.96908, 41.0706, -5442.28564453125]]], [[[-124.98685, 41.11975, -4005.724853515625], [-124.98013, 41.1108, -3968.241455078125], [-124.97821, 41.11671, -3260.270751953125], [-124.98685, 41.11975, -4005.724853515625]]], [[[-124.98853, 41.11464, -4695.87548828125], [-124.9971, 41.12081, -5022.04248046875], [-124.99315, 41.11194, -5469.8779296875], [-124.98853, 41.11464, -4695.87548828125]]], [[[-124.97631, 41.10179, -4005.296630859375], [-124.98013, 41.1108, -3968.241455078125], [-124.98446, 41.10778, -4719.03515625], [-124.97631, 41.10179, -4005.296630859375]]], [[[-124.98013, 41.1108, -3968.241455078125], [-124.97631, 41.10179, -4005.296630859375], [-124.97274, 41.10756, -3198.99560546875], [-124.98013, 41.1108, -3968.241455078125]]], [[[-125.03003, 41.23014, -2459.396240234375], [-125.0371, 41.23714, -3256.856201171875], [-125.03535, 41.22619, -3329.52587890625], [-125.03003, 41.23014, -2459.396240234375]]], [[[-124.95836, 41.08405, -3071.02197265625], [-124.95553, 41.08985, -2265.85400390625], [-124.96323, 41.09188, -3075.06982421875], [-124.95836, 41.08405, -3071.02197265625]]], [[[-124.94171, 41.05972, -3057.332275390625], [-124.93957, 41.06576, -2258.54931640625], [-124.94745, 41.06744, -3063.888916015625], [-124.94171, 41.05972, -3057.332275390625]]], [[[-124.94171, 41.05972, -3057.332275390625], [-124.93555, 41.05153, -3001.34521484375], [-124.9337, 41.05794, -2264.714599609375], [-124.94171, 41.05972, -3057.332275390625]]], [[[-124.84077, 40.94423, -1847.0260009765625], [-124.84171, 40.93391, -2731.067138671875], [-124.836, 40.936, -1850.3330078125], [-124.84077, 40.94423, -1847.0260009765625]]], [[[-124.99315, 41.11194, -5469.8779296875], [-124.99726, 41.10811, -6281.1787109375], [-124.99028, 41.10546, -5620.33837890625], [-124.99315, 41.11194, -5469.8779296875]]], [[[-124.94331, 41.05311, -3815.556884765625], [-124.94171, 41.05972, -3057.332275390625], [-124.94968, 41.06135, -3861.52001953125], [-124.94331, 41.05311, -3815.556884765625]]], [[[-124.95626, 41.06097, -4681.61962890625], [-124.95524, 41.06914, -3854.7177734375], [-124.96162, 41.06885, -4649.8623046875], [-124.95626, 41.06097, -4681.61962890625]]], [[[-124.95626, 41.06097, -4681.61962890625], [-124.96162, 41.06885, -4649.8623046875], [-124.96368, 41.06213, -5478.677734375], [-124.95626, 41.06097, -4681.61962890625]]], [[[-124.95626, 41.06097, -4681.61962890625], [-124.96368, 41.06213, -5478.677734375], [-124.95801, 41.05398, -5514.2001953125], [-124.95626, 41.06097, -4681.61962890625]]], [[[-124.97468, 41.07967, -5420.99658203125], [-124.97716, 41.07348, -6212.744140625], [-124.96908, 41.0706, -5442.28564453125], [-124.97468, 41.07967, -5420.99658203125]]], [[[-124.97468, 41.07967, -5420.99658203125], [-124.98239, 41.0818, -6221.537109375], [-124.97716, 41.07348, -6212.744140625], [-124.97468, 41.07967, -5420.99658203125]]], [[[-124.98725, 41.08887, -6304.3466796875], [-124.98926, 41.08344, -6950.03759765625], [-124.98239, 41.0818, -6221.537109375], [-124.98725, 41.08887, -6304.3466796875]]], [[[-124.98725, 41.08887, -6304.3466796875], [-124.99244, 41.08919, -6927.08740234375], [-124.98926, 41.08344, -6950.03759765625], [-124.98725, 41.08887, -6304.3466796875]]], [[[-124.99527, 41.09418, -6906.6748046875], [-124.99336, 41.10022, -6333.31591796875], [-124.99708, 41.099, -6894.1923828125], [-124.99527, 41.09418, -6906.6748046875]]], [[[-124.9786, 41.09462, -4785.16064453125], [-124.97294, 41.08655, -4684.88818359375], [-124.97093, 41.0938, -3891.677978515625], [-124.9786, 41.09462, -4785.16064453125]]], [[[-124.97294, 41.08655, -4684.88818359375], [-124.97468, 41.07967, -5420.99658203125], [-124.967, 41.07748, -4655.16943359375], [-124.97294, 41.08655, -4684.88818359375]]], [[[-124.97093, 41.0938, -3891.677978515625], [-124.96584, 41.0855, -3877.57421875], [-124.96323, 41.09188, -3075.06982421875], [-124.97093, 41.0938, -3891.677978515625]]], [[[-124.98647, 41.09617, -5672.751953125], [-124.99028, 41.10546, -5620.33837890625], [-124.99336, 41.10022, -6333.31591796875], [-124.98647, 41.09617, -5672.751953125]]], [[[-124.92529, 41.02965, -3825.04638671875], [-124.91767, 41.0224, -3853.509033203125], [-124.91699, 41.02887, -2992.539306640625], [-124.92529, 41.02965, -3825.04638671875]]], [[[-124.92529, 41.02965, -3825.04638671875], [-124.91699, 41.02887, -2992.539306640625], [-124.92351, 41.03601, -2999.336181640625], [-124.92529, 41.02965, -3825.04638671875]]], [[[-124.93169, 41.03793, -3788.390625], [-124.92529, 41.02965, -3825.04638671875], [-124.92351, 41.03601, -2999.336181640625], [-124.93169, 41.03793, -3788.390625]]], [[[-124.93169, 41.03793, -3788.390625], [-124.92351, 41.03601, -2999.336181640625], [-124.93013, 41.04424, -2984.491943359375], [-124.93169, 41.03793, -3788.390625]]], [[[-124.93806, 41.04553, -3821.30078125], [-124.93169, 41.03793, -3788.390625], [-124.93013, 41.04424, -2984.491943359375], [-124.93806, 41.04553, -3821.30078125]]], [[[-124.93806, 41.04553, -3821.30078125], [-124.93013, 41.04424, -2984.491943359375], [-124.93555, 41.05153, -3001.34521484375], [-124.93806, 41.04553, -3821.30078125]]], [[[-124.93013, 41.04424, -2984.491943359375], [-124.92788, 41.05017, -2157.669921875], [-124.93555, 41.05153, -3001.34521484375], [-124.93013, 41.04424, -2984.491943359375]]], [[[-124.93013, 41.04424, -2984.491943359375], [-124.92204, 41.04238, -2233.65283203125], [-124.92788, 41.05017, -2157.669921875], [-124.93013, 41.04424, -2984.491943359375]]], [[[-124.92351, 41.03601, -2999.336181640625], [-124.92204, 41.04238, -2233.65283203125], [-124.93013, 41.04424, -2984.491943359375], [-124.92351, 41.03601, -2999.336181640625]]], [[[-124.92351, 41.03601, -2999.336181640625], [-124.91569, 41.03481, -2176.01904296875], [-124.92204, 41.04238, -2233.65283203125], [-124.92351, 41.03601, -2999.336181640625]]], [[[-124.91699, 41.02887, -2992.539306640625], [-124.91569, 41.03481, -2176.01904296875], [-124.92351, 41.03601, -2999.336181640625], [-124.91699, 41.02887, -2992.539306640625]]], [[[-124.91699, 41.02887, -2992.539306640625], [-124.90861, 41.02761, -2218.876220703125], [-124.91569, 41.03481, -2176.01904296875], [-124.91699, 41.02887, -2992.539306640625]]], [[[-124.90881, 41.02166, -3041.16552734375], [-124.90861, 41.02761, -2218.876220703125], [-124.91699, 41.02887, -2992.539306640625], [-124.90881, 41.02166, -3041.16552734375]]], [[[-124.90881, 41.02166, -3041.16552734375], [-124.90043, 41.02111, -2258.73193359375], [-124.90861, 41.02761, -2218.876220703125], [-124.90881, 41.02166, -3041.16552734375]]], [[[-124.90881, 41.02166, -3041.16552734375], [-124.89992, 41.01481, -3045.769287109375], [-124.90043, 41.02111, -2258.73193359375], [-124.90881, 41.02166, -3041.16552734375]]], [[[-124.89992, 41.01481, -3045.769287109375], [-124.89202, 41.01477, -2227.48876953125], [-124.90043, 41.02111, -2258.73193359375], [-124.89992, 41.01481, -3045.769287109375]]], [[[-124.89992, 41.01481, -3045.769287109375], [-124.89311, 41.00786, -2934.857177734375], [-124.89202, 41.01477, -2227.48876953125], [-124.89992, 41.01481, -3045.769287109375]]], [[[-124.90046, 41.00859, -3800.718505859375], [-124.89311, 41.00786, -2934.857177734375], [-124.89992, 41.01481, -3045.769287109375], [-124.90046, 41.00859, -3800.718505859375]]], [[[-124.89525, 41.00147, -3710.450927734375], [-124.89311, 41.00786, -2934.857177734375], [-124.90046, 41.00859, -3800.718505859375], [-124.89525, 41.00147, -3710.450927734375]]], [[[-124.89525, 41.00147, -3710.450927734375], [-124.88734, 41.00077, -2868.7431640625], [-124.89311, 41.00786, -2934.857177734375], [-124.89525, 41.00147, -3710.450927734375]]], [[[-124.88864, 40.99451, -3660.427490234375], [-124.88734, 41.00077, -2868.7431640625], [-124.89525, 41.00147, -3710.450927734375], [-124.88864, 40.99451, -3660.427490234375]]], [[[-124.88864, 40.99451, -3660.427490234375], [-124.88055, 40.99301, -2834.026611328125], [-124.88734, 41.00077, -2868.7431640625], [-124.88864, 40.99451, -3660.427490234375]]], [[[-124.88864, 40.99451, -3660.427490234375], [-124.88241, 40.98678, -3627.478271484375], [-124.88055, 40.99301, -2834.026611328125], [-124.88864, 40.99451, -3660.427490234375]]], [[[-124.8902, 40.98789, -4462.3544921875], [-124.88241, 40.98678, -3627.478271484375], [-124.88864, 40.99451, -3660.427490234375], [-124.8902, 40.98789, -4462.3544921875]]], [[[-124.88447, 40.98038, -4435.8359375], [-124.88241, 40.98678, -3627.478271484375], [-124.8902, 40.98789, -4462.3544921875], [-124.88447, 40.98038, -4435.8359375]]], [[[-124.88447, 40.98038, -4435.8359375], [-124.87689, 40.97968, -3569.5234375], [-124.88241, 40.98678, -3627.478271484375], [-124.88447, 40.98038, -4435.8359375]]], [[[-124.88447, 40.98038, -4435.8359375], [-124.87857, 40.9739, -4361.775390625], [-124.87689, 40.97968, -3569.5234375], [-124.88447, 40.98038, -4435.8359375]]], [[[-124.88447, 40.98038, -4435.8359375], [-124.88419, 40.97151, -5241.1123046875], [-124.87857, 40.9739, -4361.775390625], [-124.88447, 40.98038, -4435.8359375]]], [[[-124.89093, 40.98005, -5254.0244140625], [-124.88419, 40.97151, -5241.1123046875], [-124.88447, 40.98038, -4435.8359375], [-124.89093, 40.98005, -5254.0244140625]]], [[[-124.89093, 40.98005, -5254.0244140625], [-124.89321, 40.97396, -6083.982421875], [-124.88419, 40.97151, -5241.1123046875], [-124.89093, 40.98005, -5254.0244140625]]], [[[-124.89093, 40.98005, -5254.0244140625], [-124.89949, 40.98235, -6083.1650390625], [-124.89321, 40.97396, -6083.982421875], [-124.89093, 40.98005, -5254.0244140625]]], [[[-124.89093, 40.98005, -5254.0244140625], [-124.89833, 40.98866, -5349.86083984375], [-124.89949, 40.98235, -6083.1650390625], [-124.89093, 40.98005, -5254.0244140625]]], [[[-124.89833, 40.98866, -5349.86083984375], [-124.89093, 40.98005, -5254.0244140625], [-124.8902, 40.98789, -4462.3544921875], [-124.89833, 40.98866, -5349.86083984375]]], [[[-124.89669, 40.9951, -4537.0888671875], [-124.89833, 40.98866, -5349.86083984375], [-124.8902, 40.98789, -4462.3544921875], [-124.89669, 40.9951, -4537.0888671875]]], [[[-124.8902, 40.98789, -4462.3544921875], [-124.88864, 40.99451, -3660.427490234375], [-124.89669, 40.9951, -4537.0888671875], [-124.8902, 40.98789, -4462.3544921875]]], [[[-124.88864, 40.99451, -3660.427490234375], [-124.89525, 41.00147, -3710.450927734375], [-124.89669, 40.9951, -4537.0888671875], [-124.88864, 40.99451, -3660.427490234375]]], [[[-124.89093, 40.98005, -5254.0244140625], [-124.88447, 40.98038, -4435.8359375], [-124.8902, 40.98789, -4462.3544921875], [-124.89093, 40.98005, -5254.0244140625]]], [[[-124.89833, 40.98866, -5349.86083984375], [-124.90783, 40.99162, -6178.693359375], [-124.89949, 40.98235, -6083.1650390625], [-124.89833, 40.98866, -5349.86083984375]]], [[[-124.90783, 40.99162, -6178.693359375], [-124.90797, 40.985, -6859.1015625], [-124.89949, 40.98235, -6083.1650390625], [-124.90783, 40.99162, -6178.693359375]]], [[[-124.90783, 40.99162, -6178.693359375], [-124.91637, 40.99456, -6897.1455078125], [-124.90797, 40.985, -6859.1015625], [-124.90783, 40.99162, -6178.693359375]]], [[[-124.90783, 40.99162, -6178.693359375], [-124.91391, 41.00095, -6077.0751953125], [-124.91637, 40.99456, -6897.1455078125], [-124.90783, 40.99162, -6178.693359375]]], [[[-124.91637, 40.99456, -6897.1455078125], [-124.91391, 41.00095, -6077.0751953125], [-124.92182, 41.00405, -6751.28271484375], [-124.91637, 40.99456, -6897.1455078125]]], [[[-124.91637, 40.99456, -6897.1455078125], [-124.92182, 41.00405, -6751.28271484375], [-124.92421, 40.99893, -7523.9619140625], [-124.91637, 40.99456, -6897.1455078125]]], [[[-124.91637, 40.99456, -6897.1455078125], [-124.92421, 40.99893, -7523.9619140625], [-124.92051, 40.99243, -7552.23828125], [-124.91637, 40.99456, -6897.1455078125]]], [[[-124.91526, 40.986, -7599.69873046875], [-124.91637, 40.99456, -6897.1455078125], [-124.92051, 40.99243, -7552.23828125], [-124.91526, 40.986, -7599.69873046875]]], [[[-124.90797, 40.985, -6859.1015625], [-124.91637, 40.99456, -6897.1455078125], [-124.91526, 40.986, -7599.69873046875], [-124.90797, 40.985, -6859.1015625]]], [[[-124.90797, 40.985, -6859.1015625], [-124.91526, 40.986, -7599.69873046875], [-124.90956, 40.97842, -7653.3701171875], [-124.90797, 40.985, -6859.1015625]]], [[[-124.90797, 40.985, -6859.1015625], [-124.90956, 40.97842, -7653.3701171875], [-124.90143, 40.97606, -6881.5419921875], [-124.90797, 40.985, -6859.1015625]]], [[[-124.90143, 40.97606, -6881.5419921875], [-124.89949, 40.98235, -6083.1650390625], [-124.90797, 40.985, -6859.1015625], [-124.90143, 40.97606, -6881.5419921875]]], [[[-124.89321, 40.97396, -6083.982421875], [-124.89949, 40.98235, -6083.1650390625], [-124.90143, 40.97606, -6881.5419921875], [-124.89321, 40.97396, -6083.982421875]]], [[[-124.89321, 40.97396, -6083.982421875], [-124.90143, 40.97606, -6881.5419921875], [-124.896, 40.96846, -6932.671875], [-124.89321, 40.97396, -6083.982421875]]], [[[-124.88744, 40.9658, -6155.10791015625], [-124.89321, 40.97396, -6083.982421875], [-124.896, 40.96846, -6932.671875], [-124.88744, 40.9658, -6155.10791015625]]], [[[-124.89321, 40.97396, -6083.982421875], [-124.88744, 40.9658, -6155.10791015625], [-124.88419, 40.97151, -5241.1123046875], [-124.89321, 40.97396, -6083.982421875]]], [[[-124.87835, 40.96241, -5333.27978515625], [-124.88419, 40.97151, -5241.1123046875], [-124.88744, 40.9658, -6155.10791015625], [-124.87835, 40.96241, -5333.27978515625]]], [[[-124.87393, 40.96673, -4434.09033203125], [-124.88419, 40.97151, -5241.1123046875], [-124.87835, 40.96241, -5333.27978515625], [-124.87393, 40.96673, -4434.09033203125]]], [[[-124.87393, 40.96673, -4434.09033203125], [-124.87857, 40.9739, -4361.775390625], [-124.88419, 40.97151, -5241.1123046875], [-124.87393, 40.96673, -4434.09033203125]]], [[[-124.87857, 40.9739, -4361.775390625], [-124.87393, 40.96673, -4434.09033203125], [-124.87072, 40.97256, -3586.409912109375], [-124.87857, 40.9739, -4361.775390625]]], [[[-124.87857, 40.9739, -4361.775390625], [-124.87072, 40.97256, -3586.409912109375], [-124.87689, 40.97968, -3569.5234375], [-124.87857, 40.9739, -4361.775390625]]], [[[-124.87072, 40.97256, -3586.409912109375], [-124.86881, 40.97848, -2751.473388671875], [-124.87689, 40.97968, -3569.5234375], [-124.87072, 40.97256, -3586.409912109375]]], [[[-124.87072, 40.97256, -3586.409912109375], [-124.86293, 40.97086, -2753.941650390625], [-124.86881, 40.97848, -2751.473388671875], [-124.87072, 40.97256, -3586.409912109375]]], [[[-124.87072, 40.97256, -3586.409912109375], [-124.86593, 40.965, -3576.108642578125], [-124.86293, 40.97086, -2753.941650390625], [-124.87072, 40.97256, -3586.409912109375]]], [[[-124.87393, 40.96673, -4434.09033203125], [-124.86593, 40.965, -3576.108642578125], [-124.87072, 40.97256, -3586.409912109375], [-124.87393, 40.96673, -4434.09033203125]]], [[[-124.8691, 40.95899, -4414.80419921875], [-124.86593, 40.965, -3576.108642578125], [-124.87393, 40.96673, -4434.09033203125], [-124.8691, 40.95899, -4414.80419921875]]], [[[-124.8691, 40.95899, -4414.80419921875], [-124.86066, 40.95639, -3526.106201171875], [-124.86593, 40.965, -3576.108642578125], [-124.8691, 40.95899, -4414.80419921875]]], [[[-124.8691, 40.95899, -4414.80419921875], [-124.86439, 40.95161, -4334.9814453125], [-124.86066, 40.95639, -3526.106201171875], [-124.8691, 40.95899, -4414.80419921875]]], [[[-124.86439, 40.95161, -4334.9814453125], [-124.8691, 40.95899, -4414.80419921875], [-124.87226, 40.95248, -5287.7216796875], [-124.86439, 40.95161, -4334.9814453125]]], [[[-124.86439, 40.95161, -4334.9814453125], [-124.87226, 40.95248, -5287.7216796875], [-124.86279, 40.94469, -4592.5927734375], [-124.86439, 40.95161, -4334.9814453125]]], [[[-124.85648, 40.94716, -3602.506591796875], [-124.86439, 40.95161, -4334.9814453125], [-124.86279, 40.94469, -4592.5927734375], [-124.85648, 40.94716, -3602.506591796875]]], [[[-124.86439, 40.95161, -4334.9814453125], [-124.85648, 40.94716, -3602.506591796875], [-124.86066, 40.95639, -3526.106201171875], [-124.86439, 40.95161, -4334.9814453125]]], [[[-124.86066, 40.95639, -3526.106201171875], [-124.85648, 40.94716, -3602.506591796875], [-124.85319, 40.95398, -2725.93359375], [-124.86066, 40.95639, -3526.106201171875]]], [[[-124.86066, 40.95639, -3526.106201171875], [-124.85319, 40.95398, -2725.93359375], [-124.85821, 40.96299, -2742.973876953125], [-124.86066, 40.95639, -3526.106201171875]]], [[[-124.86593, 40.965, -3576.108642578125], [-124.86066, 40.95639, -3526.106201171875], [-124.85821, 40.96299, -2742.973876953125], [-124.86593, 40.965, -3576.108642578125]]], [[[-124.86593, 40.965, -3576.108642578125], [-124.85821, 40.96299, -2742.973876953125], [-124.86293, 40.97086, -2753.941650390625], [-124.86593, 40.965, -3576.108642578125]]], [[[-124.85821, 40.96299, -2742.973876953125], [-124.85547, 40.96874, -1978.00830078125], [-124.86293, 40.97086, -2753.941650390625], [-124.85821, 40.96299, -2742.973876953125]]], [[[-124.85821, 40.96299, -2742.973876953125], [-124.85082, 40.96047, -1981.0137939453125], [-124.85547, 40.96874, -1978.00830078125], [-124.85821, 40.96299, -2742.973876953125]]], [[[-124.85319, 40.95398, -2725.93359375], [-124.85082, 40.96047, -1981.0137939453125], [-124.85821, 40.96299, -2742.973876953125], [-124.85319, 40.95398, -2725.93359375]]], [[[-124.85319, 40.95398, -2725.93359375], [-124.84585, 40.95236, -1877.3785400390625], [-124.85082, 40.96047, -1981.0137939453125], [-124.85319, 40.95398, -2725.93359375]]], [[[-124.84787, 40.94546, -2646.26171875], [-124.84585, 40.95236, -1877.3785400390625], [-124.85319, 40.95398, -2725.93359375], [-124.84787, 40.94546, -2646.26171875]]], [[[-124.84787, 40.94546, -2646.26171875], [-124.84077, 40.94423, -1847.0260009765625], [-124.84585, 40.95236, -1877.3785400390625], [-124.84787, 40.94546, -2646.26171875]]], [[[-124.85648, 40.94716, -3602.506591796875], [-124.84924, 40.93989, -3248.365478515625], [-124.84787, 40.94546, -2646.26171875], [-124.85648, 40.94716, -3602.506591796875]]], [[[-124.85648, 40.94716, -3602.506591796875], [-124.85511, 40.93841, -4102.26806640625], [-124.84924, 40.93989, -3248.365478515625], [-124.85648, 40.94716, -3602.506591796875]]], [[[-124.85648, 40.94716, -3602.506591796875], [-124.86279, 40.94469, -4592.5927734375], [-124.85511, 40.93841, -4102.26806640625], [-124.85648, 40.94716, -3602.506591796875]]], [[[-124.86047, 40.93621, -4947.65625], [-124.85511, 40.93841, -4102.26806640625], [-124.86279, 40.94469, -4592.5927734375], [-124.86047, 40.93621, -4947.65625]]], [[[-124.86047, 40.93621, -4947.65625], [-124.85313, 40.92971, -4492.5234375], [-124.85511, 40.93841, -4102.26806640625], [-124.86047, 40.93621, -4947.65625]]], [[[-124.86047, 40.93621, -4947.65625], [-124.85884, 40.92762, -5373.24560546875], [-124.85313, 40.92971, -4492.5234375], [-124.86047, 40.93621, -4947.65625]]], [[[-124.86047, 40.93621, -4947.65625], [-124.86628, 40.93418, -5835.64599609375], [-124.85884, 40.92762, -5373.24560546875], [-124.86047, 40.93621, -4947.65625]]], [[[-124.86856, 40.94296, -5459.462890625], [-124.86628, 40.93418, -5835.64599609375], [-124.86047, 40.93621, -4947.65625], [-124.86856, 40.94296, -5459.462890625]]], [[[-124.86856, 40.94296, -5459.462890625], [-124.87371, 40.94014, -6324.4033203125], [-124.86628, 40.93418, -5835.64599609375], [-124.86856, 40.94296, -5459.462890625]]], [[[-124.86856, 40.94296, -5459.462890625], [-124.87742, 40.94846, -6226.08740234375], [-124.87371, 40.94014, -6324.4033203125], [-124.86856, 40.94296, -5459.462890625]]], [[[-124.87226, 40.95248, -5287.7216796875], [-124.87742, 40.94846, -6226.08740234375], [-124.86856, 40.94296, -5459.462890625], [-124.87226, 40.95248, -5287.7216796875]]], [[[-124.87226, 40.95248, -5287.7216796875], [-124.88195, 40.95709, -6179.38134765625], [-124.87742, 40.94846, -6226.08740234375], [-124.87226, 40.95248, -5287.7216796875]]], [[[-124.87835, 40.96241, -5333.27978515625], [-124.88195, 40.95709, -6179.38134765625], [-124.87226, 40.95248, -5287.7216796875], [-124.87835, 40.96241, -5333.27978515625]]], [[[-124.87835, 40.96241, -5333.27978515625], [-124.88744, 40.9658, -6155.10791015625], [-124.88195, 40.95709, -6179.38134765625], [-124.87835, 40.96241, -5333.27978515625]]], [[[-124.88744, 40.9658, -6155.10791015625], [-124.89022, 40.96015, -6996.58203125], [-124.88195, 40.95709, -6179.38134765625], [-124.88744, 40.9658, -6155.10791015625]]], [[[-124.89022, 40.96015, -6996.58203125], [-124.88744, 40.9658, -6155.10791015625], [-124.896, 40.96846, -6932.671875], [-124.89022, 40.96015, -6996.58203125]]], [[[-124.89022, 40.96015, -6996.58203125], [-124.896, 40.96846, -6932.671875], [-124.8981, 40.9628, -7769.10693359375], [-124.89022, 40.96015, -6996.58203125]]], [[[-124.89022, 40.96015, -6996.58203125], [-124.8981, 40.9628, -7769.10693359375], [-124.8934, 40.9546, -7816.64697265625], [-124.89022, 40.96015, -6996.58203125]]], [[[-124.88565, 40.95176, -7040.4541015625], [-124.89022, 40.96015, -6996.58203125], [-124.8934, 40.9546, -7816.64697265625], [-124.88565, 40.95176, -7040.4541015625]]], [[[-124.88195, 40.95709, -6179.38134765625], [-124.89022, 40.96015, -6996.58203125], [-124.88565, 40.95176, -7040.4541015625], [-124.88195, 40.95709, -6179.38134765625]]], [[[-124.88195, 40.95709, -6179.38134765625], [-124.88565, 40.95176, -7040.4541015625], [-124.87742, 40.94846, -6226.08740234375], [-124.88195, 40.95709, -6179.38134765625]]], [[[-124.88134, 40.94323, -7090.3759765625], [-124.87742, 40.94846, -6226.08740234375], [-124.88565, 40.95176, -7040.4541015625], [-124.88134, 40.94323, -7090.3759765625]]], [[[-124.87742, 40.94846, -6226.08740234375], [-124.88134, 40.94323, -7090.3759765625], [-124.87371, 40.94014, -6324.4033203125], [-124.87742, 40.94846, -6226.08740234375]]], [[[-124.87714, 40.93435, -7188.96142578125], [-124.87371, 40.94014, -6324.4033203125], [-124.88134, 40.94323, -7090.3759765625], [-124.87714, 40.93435, -7188.96142578125]]], [[[-124.87714, 40.93435, -7188.96142578125], [-124.87109, 40.93156, -6642.5], [-124.87371, 40.94014, -6324.4033203125], [-124.87714, 40.93435, -7188.96142578125]]], [[[-124.87714, 40.93435, -7188.96142578125], [-124.8849, 40.9379, -7916.0263671875], [-124.88047, 40.92961, -7975.55029296875], [-124.87714, 40.93435, -7188.96142578125]]], [[[-124.87714, 40.93435, -7188.96142578125], [-124.88134, 40.94323, -7090.3759765625], [-124.8849, 40.9379, -7916.0263671875], [-124.87714, 40.93435, -7188.96142578125]]], [[[-124.88134, 40.94323, -7090.3759765625], [-124.88899, 40.94629, -7861.63818359375], [-124.8849, 40.9379, -7916.0263671875], [-124.88134, 40.94323, -7090.3759765625]]], [[[-124.88134, 40.94323, -7090.3759765625], [-124.88565, 40.95176, -7040.4541015625], [-124.88899, 40.94629, -7861.63818359375], [-124.88134, 40.94323, -7090.3759765625]]], [[[-124.88565, 40.95176, -7040.4541015625], [-124.8934, 40.9546, -7816.64697265625], [-124.88899, 40.94629, -7861.63818359375], [-124.88565, 40.95176, -7040.4541015625]]], [[[-124.87109, 40.93156, -6642.5], [-124.87026, 40.92343, -7134.7021484375], [-124.86455, 40.92552, -6253.9794921875], [-124.87109, 40.93156, -6642.5]]], [[[-124.87109, 40.93156, -6642.5], [-124.86455, 40.92552, -6253.9794921875], [-124.86628, 40.93418, -5835.64599609375], [-124.87109, 40.93156, -6642.5]]], [[[-124.87371, 40.94014, -6324.4033203125], [-124.87109, 40.93156, -6642.5], [-124.86628, 40.93418, -5835.64599609375], [-124.87371, 40.94014, -6324.4033203125]]], [[[-124.86455, 40.92552, -6253.9794921875], [-124.85884, 40.92762, -5373.24560546875], [-124.86628, 40.93418, -5835.64599609375], [-124.86455, 40.92552, -6253.9794921875]]], [[[-124.8981, 40.9628, -7769.10693359375], [-124.896, 40.96846, -6932.671875], [-124.90423, 40.97044, -7707.20166015625], [-124.8981, 40.9628, -7769.10693359375]]], [[[-124.90143, 40.97606, -6881.5419921875], [-124.90423, 40.97044, -7707.20166015625], [-124.896, 40.96846, -6932.671875], [-124.90143, 40.97606, -6881.5419921875]]], [[[-124.90423, 40.97044, -7707.20166015625], [-124.90143, 40.97606, -6881.5419921875], [-124.90956, 40.97842, -7653.3701171875], [-124.90423, 40.97044, -7707.20166015625]]], [[[-124.87835, 40.96241, -5333.27978515625], [-124.87226, 40.95248, -5287.7216796875], [-124.8691, 40.95899, -4414.80419921875], [-124.87835, 40.96241, -5333.27978515625]]], [[[-124.87835, 40.96241, -5333.27978515625], [-124.8691, 40.95899, -4414.80419921875], [-124.87393, 40.96673, -4434.09033203125], [-124.87835, 40.96241, -5333.27978515625]]], [[[-124.87226, 40.95248, -5287.7216796875], [-124.86856, 40.94296, -5459.462890625], [-124.86279, 40.94469, -4592.5927734375], [-124.87226, 40.95248, -5287.7216796875]]], [[[-124.86856, 40.94296, -5459.462890625], [-124.86047, 40.93621, -4947.65625], [-124.86279, 40.94469, -4592.5927734375], [-124.86856, 40.94296, -5459.462890625]]], [[[-124.85511, 40.93841, -4102.26806640625], [-124.85313, 40.92971, -4492.5234375], [-124.84742, 40.93181, -3611.789306640625], [-124.85511, 40.93841, -4102.26806640625]]], [[[-124.85511, 40.93841, -4102.26806640625], [-124.84742, 40.93181, -3611.789306640625], [-124.84924, 40.93989, -3248.365478515625], [-124.85511, 40.93841, -4102.26806640625]]], [[[-124.84924, 40.93989, -3248.365478515625], [-124.84742, 40.93181, -3611.789306640625], [-124.84171, 40.93391, -2731.067138671875], [-124.84924, 40.93989, -3248.365478515625]]], [[[-124.85648, 40.94716, -3602.506591796875], [-124.84787, 40.94546, -2646.26171875], [-124.85319, 40.95398, -2725.93359375], [-124.85648, 40.94716, -3602.506591796875]]], [[[-124.86293, 40.97086, -2753.941650390625], [-124.85547, 40.96874, -1978.00830078125], [-124.86069, 40.97681, -1991.89990234375], [-124.86293, 40.97086, -2753.941650390625]]], [[[-124.86881, 40.97848, -2751.473388671875], [-124.86293, 40.97086, -2753.941650390625], [-124.86069, 40.97681, -1991.89990234375], [-124.86881, 40.97848, -2751.473388671875]]], [[[-124.86881, 40.97848, -2751.473388671875], [-124.86069, 40.97681, -1991.89990234375], [-124.86705, 40.9844, -1960.17138671875], [-124.86881, 40.97848, -2751.473388671875]]], [[[-124.86881, 40.97848, -2751.473388671875], [-124.86705, 40.9844, -1960.17138671875], [-124.87466, 40.98583, -2766.43017578125], [-124.86881, 40.97848, -2751.473388671875]]], [[[-124.86881, 40.97848, -2751.473388671875], [-124.87466, 40.98583, -2766.43017578125], [-124.87689, 40.97968, -3569.5234375], [-124.86881, 40.97848, -2751.473388671875]]], [[[-124.88241, 40.98678, -3627.478271484375], [-124.87689, 40.97968, -3569.5234375], [-124.87466, 40.98583, -2766.43017578125], [-124.88241, 40.98678, -3627.478271484375]]], [[[-124.88241, 40.98678, -3627.478271484375], [-124.87466, 40.98583, -2766.43017578125], [-124.88055, 40.99301, -2834.026611328125], [-124.88241, 40.98678, -3627.478271484375]]], [[[-124.87466, 40.98583, -2766.43017578125], [-124.87301, 40.99216, -2009.377685546875], [-124.88055, 40.99301, -2834.026611328125], [-124.87466, 40.98583, -2766.43017578125]]], [[[-124.87466, 40.98583, -2766.43017578125], [-124.86705, 40.9844, -1960.17138671875], [-124.87301, 40.99216, -2009.377685546875], [-124.87466, 40.98583, -2766.43017578125]]], [[[-124.88055, 40.99301, -2834.026611328125], [-124.87301, 40.99216, -2009.377685546875], [-124.87954, 40.99963, -2093.87451171875], [-124.88055, 40.99301, -2834.026611328125]]], [[[-124.88055, 40.99301, -2834.026611328125], [-124.87954, 40.99963, -2093.87451171875], [-124.88734, 41.00077, -2868.7431640625], [-124.88055, 40.99301, -2834.026611328125]]], [[[-124.88591, 41.0072, -2075.681640625], [-124.88734, 41.00077, -2868.7431640625], [-124.87954, 40.99963, -2093.87451171875], [-124.88591, 41.0072, -2075.681640625]]], [[[-124.89311, 41.00786, -2934.857177734375], [-124.88734, 41.00077, -2868.7431640625], [-124.88591, 41.0072, -2075.681640625], [-124.89311, 41.00786, -2934.857177734375]]], [[[-124.89311, 41.00786, -2934.857177734375], [-124.88591, 41.0072, -2075.681640625], [-124.89202, 41.01477, -2227.48876953125], [-124.89311, 41.00786, -2934.857177734375]]], [[[-124.92182, 41.00405, -6751.28271484375], [-124.93087, 41.00576, -7469.3046875], [-124.92421, 40.99893, -7523.9619140625], [-124.92182, 41.00405, -6751.28271484375]]], [[[-124.92182, 41.00405, -6751.28271484375], [-124.9303, 41.01154, -6624.1591796875], [-124.93087, 41.00576, -7469.3046875], [-124.92182, 41.00405, -6751.28271484375]]], [[[-124.92077, 41.0101, -5835.212890625], [-124.9303, 41.01154, -6624.1591796875], [-124.92182, 41.00405, -6751.28271484375], [-124.92077, 41.0101, -5835.212890625]]], [[[-124.92839, 41.01702, -5695.599609375], [-124.9303, 41.01154, -6624.1591796875], [-124.92077, 41.0101, -5835.212890625], [-124.92839, 41.01702, -5695.599609375]]], [[[-124.92839, 41.01702, -5695.599609375], [-124.93779, 41.01804, -6542.49169921875], [-124.9303, 41.01154, -6624.1591796875], [-124.92839, 41.01702, -5695.599609375]]], [[[-124.99111, 41.09386, -6420.4873046875], [-124.99527, 41.09418, -6906.6748046875], [-124.99244, 41.08919, -6927.08740234375], [-124.99111, 41.09386, -6420.4873046875]]], [[[-124.93579, 41.024, -5640.82763671875], [-124.93779, 41.01804, -6542.49169921875], [-124.92839, 41.01702, -5695.599609375], [-124.93579, 41.024, -5640.82763671875]]], [[[-124.93579, 41.024, -5640.82763671875], [-124.94416, 41.02506, -6487.333984375], [-124.93779, 41.01804, -6542.49169921875], [-124.93579, 41.024, -5640.82763671875]]], [[[-124.93579, 41.024, -5640.82763671875], [-124.94165, 41.03123, -5585.0205078125], [-124.94416, 41.02506, -6487.333984375], [-124.93579, 41.024, -5640.82763671875]]], [[[-124.93579, 41.024, -5640.82763671875], [-124.93361, 41.03101, -4671.07177734375], [-124.94165, 41.03123, -5585.0205078125], [-124.93579, 41.024, -5640.82763671875]]], [[[-124.9269, 41.023, -4775.26611328125], [-124.93361, 41.03101, -4671.07177734375], [-124.93579, 41.024, -5640.82763671875], [-124.9269, 41.023, -4775.26611328125]]], [[[-124.9269, 41.023, -4775.26611328125], [-124.93579, 41.024, -5640.82763671875], [-124.92839, 41.01702, -5695.599609375], [-124.9269, 41.023, -4775.26611328125]]], [[[-124.92839, 41.01702, -5695.599609375], [-124.9177, 41.01572, -4763.1181640625], [-124.9269, 41.023, -4775.26611328125], [-124.92839, 41.01702, -5695.599609375]]], [[[-124.9177, 41.01572, -4763.1181640625], [-124.92839, 41.01702, -5695.599609375], [-124.92077, 41.0101, -5835.212890625], [-124.9177, 41.01572, -4763.1181640625]]], [[[-124.9114, 41.00686, -5277.5791015625], [-124.9177, 41.01572, -4763.1181640625], [-124.92077, 41.0101, -5835.212890625], [-124.9114, 41.00686, -5277.5791015625]]], [[[-124.9114, 41.00686, -5277.5791015625], [-124.92077, 41.0101, -5835.212890625], [-124.91391, 41.00095, -6077.0751953125], [-124.9114, 41.00686, -5277.5791015625]]], [[[-124.92077, 41.0101, -5835.212890625], [-124.92182, 41.00405, -6751.28271484375], [-124.91391, 41.00095, -6077.0751953125], [-124.92077, 41.0101, -5835.212890625]]], [[[-124.93988, 41.03866, -4659.4736328125], [-124.94165, 41.03123, -5585.0205078125], [-124.93361, 41.03101, -4671.07177734375], [-124.93988, 41.03866, -4659.4736328125]]], [[[-124.93988, 41.03866, -4659.4736328125], [-124.94735, 41.03871, -5546.09912109375], [-124.94165, 41.03123, -5585.0205078125], [-124.93988, 41.03866, -4659.4736328125]]], [[[-124.94735, 41.03871, -5546.09912109375], [-124.95008, 41.03265, -6438.6513671875], [-124.94165, 41.03123, -5585.0205078125], [-124.94735, 41.03871, -5546.09912109375]]], [[[-124.95008, 41.03265, -6438.6513671875], [-124.94735, 41.03871, -5546.09912109375], [-124.95554, 41.04011, -6371.044921875], [-124.95008, 41.03265, -6438.6513671875]]], [[[-124.95008, 41.03265, -6438.6513671875], [-124.95554, 41.04011, -6371.044921875], [-124.95839, 41.03461, -7204.755859375], [-124.95008, 41.03265, -6438.6513671875]]], [[[-124.95008, 41.03265, -6438.6513671875], [-124.95839, 41.03461, -7204.755859375], [-124.95236, 41.02692, -7265.84619140625], [-124.95008, 41.03265, -6438.6513671875]]], [[[-124.95008, 41.03265, -6438.6513671875], [-124.95236, 41.02692, -7265.84619140625], [-124.94416, 41.02506, -6487.333984375], [-124.95008, 41.03265, -6438.6513671875]]], [[[-124.95008, 41.03265, -6438.6513671875], [-124.94416, 41.02506, -6487.333984375], [-124.94165, 41.03123, -5585.0205078125], [-124.95008, 41.03265, -6438.6513671875]]], [[[-124.9463, 41.01927, -7328.7568359375], [-124.94416, 41.02506, -6487.333984375], [-124.95236, 41.02692, -7265.84619140625], [-124.9463, 41.01927, -7328.7568359375]]], [[[-124.94416, 41.02506, -6487.333984375], [-124.9463, 41.01927, -7328.7568359375], [-124.93779, 41.01804, -6542.49169921875], [-124.94416, 41.02506, -6487.333984375]]], [[[-124.93881, 41.01236, -7401.05859375], [-124.93779, 41.01804, -6542.49169921875], [-124.9463, 41.01927, -7328.7568359375], [-124.93881, 41.01236, -7401.05859375]]], [[[-124.9303, 41.01154, -6624.1591796875], [-124.93779, 41.01804, -6542.49169921875], [-124.93881, 41.01236, -7401.05859375], [-124.9303, 41.01154, -6624.1591796875]]], [[[-124.9303, 41.01154, -6624.1591796875], [-124.93881, 41.01236, -7401.05859375], [-124.93087, 41.00576, -7469.3046875], [-124.9303, 41.01154, -6624.1591796875]]], [[[-124.95554, 41.04011, -6371.044921875], [-124.96347, 41.04268, -7157.9091796875], [-124.95839, 41.03461, -7204.755859375], [-124.95554, 41.04011, -6371.044921875]]], [[[-124.95554, 41.04011, -6371.044921875], [-124.96072, 41.04828, -6338.236328125], [-124.96347, 41.04268, -7157.9091796875], [-124.95554, 41.04011, -6371.044921875]]], [[[-124.96072, 41.04828, -6338.236328125], [-124.96888, 41.05064, -7107.837890625], [-124.96347, 41.04268, -7157.9091796875], [-124.96072, 41.04828, -6338.236328125]]], [[[-124.93555, 41.05153, -3001.34521484375], [-124.92788, 41.05017, -2157.669921875], [-124.9337, 41.05794, -2264.714599609375], [-124.93555, 41.05153, -3001.34521484375]]], [[[-124.97531, 41.12236, -2440.483642578125], [-124.97821, 41.11671, -3260.270751953125], [-124.97021, 41.11427, -2488.70361328125], [-124.97531, 41.12236, -2440.483642578125]]], [[[-124.98663, 41.13784, -2181.250244140625], [-124.9925, 41.14566, -2206.900146484375], [-124.9945, 41.13944, -2989.377685546875], [-124.98663, 41.13784, -2181.250244140625]]], [[[-125.00033, 41.14721, -3044.296142578125], [-124.9945, 41.13944, -2989.377685546875], [-124.9925, 41.14566, -2206.900146484375], [-125.00033, 41.14721, -3044.296142578125]]], [[[-125.00033, 41.14721, -3044.296142578125], [-124.9925, 41.14566, -2206.900146484375], [-124.99827, 41.15349, -2288.096435546875], [-125.00033, 41.14721, -3044.296142578125]]], [[[-125.0209, 41.19499, -2249.5478515625], [-125.02318, 41.20379, -2317.09765625], [-125.0275, 41.19808, -3085.245849609375], [-125.0209, 41.19499, -2249.5478515625]]], [[[-125.02974, 41.20719, -3122.703125], [-125.0275, 41.19808, -3085.245849609375], [-125.02318, 41.20379, -2317.09765625], [-125.02974, 41.20719, -3122.703125]]], [[[-125.02974, 41.20719, -3122.703125], [-125.02318, 41.20379, -2317.09765625], [-125.02521, 41.21265, -2314.61376953125], [-125.02974, 41.20719, -3122.703125]]], [[[-125.02974, 41.20719, -3122.703125], [-125.02521, 41.21265, -2314.61376953125], [-125.0319, 41.21564, -3172.2724609375], [-125.02974, 41.20719, -3122.703125]]], [[[-125.0319, 41.21564, -3172.2724609375], [-125.02521, 41.21265, -2314.61376953125], [-125.02806, 41.22127, -2464.52783203125], [-125.0319, 41.21564, -3172.2724609375]]], [[[-125.0319, 41.21564, -3172.2724609375], [-125.02806, 41.22127, -2464.52783203125], [-125.03535, 41.22619, -3329.52587890625], [-125.0319, 41.21564, -3172.2724609375]]], [[[-125.03003, 41.23014, -2459.396240234375], [-125.03535, 41.22619, -3329.52587890625], [-125.02806, 41.22127, -2464.52783203125], [-125.03003, 41.23014, -2459.396240234375]]], [[[-125.03535, 41.22619, -3329.52587890625], [-125.0371, 41.23714, -3256.856201171875], [-125.04221, 41.23527, -4027.781982421875], [-125.03535, 41.22619, -3329.52587890625]]], [[[-125.04195, 41.226, -4261.5244140625], [-125.03535, 41.22619, -3329.52587890625], [-125.04221, 41.23527, -4027.781982421875], [-125.04195, 41.226, -4261.5244140625]]], [[[-125.04195, 41.226, -4261.5244140625], [-125.04221, 41.23527, -4027.781982421875], [-125.04731, 41.23341, -4798.71923828125], [-125.04195, 41.226, -4261.5244140625]]], [[[-125.04195, 41.226, -4261.5244140625], [-125.04731, 41.23341, -4798.71923828125], [-125.04712, 41.22398, -5047.57958984375], [-125.04195, 41.226, -4261.5244140625]]], [[[-125.04712, 41.22398, -5047.57958984375], [-125.04731, 41.23341, -4798.71923828125], [-125.05241, 41.23154, -5569.64453125], [-125.04712, 41.22398, -5047.57958984375]]], [[[-125.04712, 41.22398, -5047.57958984375], [-125.05241, 41.23154, -5569.64453125], [-125.05185, 41.22357, -5728.1103515625], [-125.04712, 41.22398, -5047.57958984375]]], [[[-125.05185, 41.22357, -5728.1103515625], [-125.05241, 41.23154, -5569.64453125], [-125.05752, 41.22967, -6340.58203125], [-125.05185, 41.22357, -5728.1103515625]]], [[[-125.05185, 41.22357, -5728.1103515625], [-125.05752, 41.22967, -6340.58203125], [-125.05524, 41.21862, -6357.14404296875], [-125.05185, 41.22357, -5728.1103515625]]], [[[-125.0339, 41.20093, -3908.77490234375], [-125.0365, 41.2096, -3999.310546875], [-125.03987, 41.20157, -4721.79931640625], [-125.0339, 41.20093, -3908.77490234375]]], [[[-124.84787, 40.94546, -2646.26171875], [-124.84924, 40.93989, -3248.365478515625], [-124.84171, 40.93391, -2731.067138671875], [-124.84787, 40.94546, -2646.26171875]]], [[[-124.84787, 40.94546, -2646.26171875], [-124.84171, 40.93391, -2731.067138671875], [-124.84077, 40.94423, -1847.0260009765625], [-124.84787, 40.94546, -2646.26171875]]], [[[-124.88047, 40.92961, -7975.55029296875], [-124.87596, 40.92133, -8015.43603515625], [-124.87026, 40.92343, -7134.7021484375], [-124.88047, 40.92961, -7975.55029296875]]], [[[-124.87714, 40.93435, -7188.96142578125], [-124.87026, 40.92343, -7134.7021484375], [-124.87109, 40.93156, -6642.5], [-124.87714, 40.93435, -7188.96142578125]]], [[[-125.032, 41.239, -2485.9189453125], [-125.0371, 41.23714, -3256.856201171875], [-125.03003, 41.23014, -2459.396240234375], [-125.032, 41.239, -2485.9189453125]]]]}}]}