{"type": "FeatureCollection", "features": [{"type": "Feature", "properties": {"name": "AW_NCAL_12", "CFM_ID": 351, "region": "Offshore_CA_MendocinoTripleJunction", "primary_state/province": "CA", "secondary_state/province": null, "avg_dip": 59, "dip_dir": "W", "rake": 90, "slip_sense": "Reverse", "fault_level": 2, "NSHM23_sliprates": null, "QFFDAgeCatBin": null, "QFFDAgeBin": null, "upper_depth": -1.4, "upper_depth_constraint": "bathymetry", "lower_depth": -6.4, "lower_depth_constraint": "Slab2", "3D_model_constraints": "trace extended at constant dip", "reference": "Goldfinger et al. (2023)", "nshm23_id": null, "lineage": null, "usgs_qffd_#": null, "comments": null, "id": "351"}, "geometry": {"type": "MultiPolygon", "coordinates": [[[[-125.01941, 41.27287, -6100.724609375], [-125.01822, 41.26562, -5897.041015625], [-125.01427, 41.27285, -5359.3984375], [-125.01941, 41.27287, -6100.724609375]]], [[[-125.01157, 41.25385, -5085.302734375], [-125.01218, 41.26404, -5039.10791015625], [-125.01758, 41.25741, -5870.63916015625], [-125.01157, 41.25385, -5085.302734375]]], [[[-124.99481, 41.27062, -2584.778076171875], [-124.98999, 41.27606, -1910.2802734375], [-124.99735, 41.27606, -2970.2265625], [-124.99481, 41.27062, -2584.778076171875]]], [[[-124.99477, 41.23845, -3430.565185546875], [-124.99201, 41.22949, -3342.232177734375], [-124.98812, 41.23525, -2609.59912109375], [-124.99477, 41.23845, -3430.565185546875]]], [[[-125.01421, 41.24007, -5931.14501953125], [-125.01804, 41.23495, -6699.837890625], [-125.01183, 41.23111, -5972.16064453125], [-125.01421, 41.24007, -5931.14501953125]]], [[[-125.01653, 41.24858, -5917.814453125], [-125.01758, 41.25741, -5870.63916015625], [-125.02277, 41.25247, -6659.193359375], [-125.01653, 41.24858, -5917.814453125]]], [[[-124.99481, 41.27062, -2584.778076171875], [-124.99, 41.26709, -1898.91943359375], [-124.98999, 41.27606, -1910.2802734375], [-124.99481, 41.27062, -2584.778076171875]]], [[[-124.99358, 41.20207, -5694.998046875], [-124.9925, 41.19399, -6061.001953125], [-124.9866, 41.19499, -5225.55908203125], [-124.99358, 41.20207, -5694.998046875]]], [[[-124.99998, 41.25743, -3417.74853515625], [-124.99478, 41.26217, -2629.033447265625], [-125.00005, 41.2669, -3323.536865234375], [-124.99998, 41.25743, -3417.74853515625]]], [[[-124.99478, 41.26217, -2629.033447265625], [-124.99, 41.26709, -1898.91943359375], [-124.99481, 41.27062, -2584.778076171875], [-124.99478, 41.26217, -2629.033447265625]]], [[[-125.01427, 41.27285, -5359.3984375], [-125.01703, 41.28024, -5874.58935546875], [-125.01941, 41.27287, -6100.724609375], [-125.01427, 41.27285, -5359.3984375]]], [[[-125.00702, 41.2367, -5151.05908203125], [-125.01421, 41.24007, -5931.14501953125], [-125.01183, 41.23111, -5972.16064453125], [-125.00702, 41.2367, -5151.05908203125]]], [[[-124.99478, 41.26217, -2629.033447265625], [-124.98902, 41.25816, -1880.337890625], [-124.99, 41.26709, -1898.91943359375], [-124.99478, 41.26217, -2629.033447265625]]], [[[-125.01421, 41.24007, -5931.14501953125], [-125.01653, 41.24858, -5917.814453125], [-125.02099, 41.24361, -6673.14404296875], [-125.01421, 41.24007, -5931.14501953125]]], [[[-125.00881, 41.27337, -4581.21435546875], [-125.00306, 41.27476, -3773.013671875], [-125.00582, 41.28214, -4288.12890625], [-125.00881, 41.27337, -4581.21435546875]]], [[[-124.989, 41.285, -1908.43798828125], [-124.99461, 41.28405, -2701.668212890625], [-124.98999, 41.27606, -1910.2802734375], [-124.989, 41.285, -1908.43798828125]]], [[[-124.99478, 41.26217, -2629.033447265625], [-124.99329, 41.25301, -2612.865234375], [-124.98902, 41.25816, -1880.337890625], [-124.99478, 41.26217, -2629.033447265625]]], [[[-124.99998, 41.25743, -3417.74853515625], [-124.99329, 41.25301, -2612.865234375], [-124.99478, 41.26217, -2629.033447265625], [-124.99998, 41.25743, -3417.74853515625]]], [[[-124.99068, 41.24401, -2614.54052734375], [-124.98812, 41.23525, -2609.59912109375], [-124.98393, 41.24066, -1884.47216796875], [-124.99068, 41.24401, -2614.54052734375]]], [[[-125.00547, 41.26591, -4090.508544921875], [-125.00881, 41.27337, -4581.21435546875], [-125.01218, 41.26404, -5039.10791015625], [-125.00547, 41.26591, -4090.508544921875]]], [[[-124.99998, 41.25743, -3417.74853515625], [-124.99763, 41.24762, -3362.4013671875], [-124.99329, 41.25301, -2612.865234375], [-124.99998, 41.25743, -3417.74853515625]]], [[[-125.01218, 41.26404, -5039.10791015625], [-125.01427, 41.27285, -5359.3984375], [-125.01822, 41.26562, -5897.041015625], [-125.01218, 41.26404, -5039.10791015625]]], [[[-125.01822, 41.26562, -5897.041015625], [-125.01941, 41.27287, -6100.724609375], [-125.02353, 41.27036, -6656.14794921875], [-125.01822, 41.26562, -5897.041015625]]], [[[-125.00426, 41.25068, -4179.833984375], [-124.99763, 41.24762, -3362.4013671875], [-124.99998, 41.25743, -3417.74853515625], [-125.00426, 41.25068, -4179.833984375]]], [[[-125.002, 41.24196, -4217.05908203125], [-124.99763, 41.24762, -3362.4013671875], [-125.00426, 41.25068, -4179.833984375], [-125.002, 41.24196, -4217.05908203125]]], [[[-124.98401, 41.2259, -2578.634521484375], [-124.97941, 41.21795, -2558.06005859375], [-124.97685, 41.22373, -1814.9036865234375], [-124.98401, 41.2259, -2578.634521484375]]], [[[-125.00557, 41.22807, -5198.55908203125], [-125.00894, 41.2232, -5999.4111328125], [-125.00157, 41.22003, -5285.5205078125], [-125.00557, 41.22807, -5198.55908203125]]], [[[-125.02263, 41.27929, -6667.81982421875], [-125.01941, 41.27287, -6100.724609375], [-125.01703, 41.28024, -5874.58935546875], [-125.02263, 41.27929, -6667.81982421875]]], [[[-125.002, 41.24196, -4217.05908203125], [-124.99477, 41.23845, -3430.565185546875], [-124.99763, 41.24762, -3362.4013671875], [-125.002, 41.24196, -4217.05908203125]]], [[[-125.002, 41.24196, -4217.05908203125], [-125.00426, 41.25068, -4179.833984375], [-125.00955, 41.24518, -5064.16259765625], [-125.002, 41.24196, -4217.05908203125]]], [[[-124.98189, 41.21146, -3374.6123046875], [-124.98093, 41.2039, -3924.016845703125], [-124.97459, 41.20475, -3040.197265625], [-124.98189, 41.21146, -3374.6123046875]]], [[[-124.96723, 41.20737, -1901.1898193359375], [-124.97459, 41.20475, -3040.197265625], [-124.9689, 41.198, -2719.22998046875], [-124.96723, 41.20737, -1901.1898193359375]]], [[[-125.002, 41.24196, -4217.05908203125], [-125.0, 41.23286, -4303.5146484375], [-124.99477, 41.23845, -3430.565185546875], [-125.002, 41.24196, -4217.05908203125]]], [[[-125.002, 41.24196, -4217.05908203125], [-125.00702, 41.2367, -5151.05908203125], [-125.0, 41.23286, -4303.5146484375], [-125.002, 41.24196, -4217.05908203125]]], [[[-124.98093, 41.2039, -3924.016845703125], [-124.9748, 41.197, -3554.6728515625], [-124.97459, 41.20475, -3040.197265625], [-124.98093, 41.2039, -3924.016845703125]]], [[[-125.01653, 41.24858, -5917.814453125], [-125.02277, 41.25247, -6659.193359375], [-125.02099, 41.24361, -6673.14404296875], [-125.01653, 41.24858, -5917.814453125]]], [[[-125.00702, 41.2367, -5151.05908203125], [-125.002, 41.24196, -4217.05908203125], [-125.00955, 41.24518, -5064.16259765625], [-125.00702, 41.2367, -5151.05908203125]]], [[[-125.01421, 41.24007, -5931.14501953125], [-125.00702, 41.2367, -5151.05908203125], [-125.00955, 41.24518, -5064.16259765625], [-125.01421, 41.24007, -5931.14501953125]]], [[[-125.00547, 41.26591, -4090.508544921875], [-125.00646, 41.25823, -4309.75439453125], [-124.99998, 41.25743, -3417.74853515625], [-125.00547, 41.26591, -4090.508544921875]]], [[[-124.98189, 41.21146, -3374.6123046875], [-124.97479, 41.21056, -2562.2412109375], [-124.97941, 41.21795, -2558.06005859375], [-124.98189, 41.21146, -3374.6123046875]]], [[[-125.00646, 41.25823, -4309.75439453125], [-125.00547, 41.26591, -4090.508544921875], [-125.01218, 41.26404, -5039.10791015625], [-125.00646, 41.25823, -4309.75439453125]]], [[[-125.00702, 41.2367, -5151.05908203125], [-125.01183, 41.23111, -5972.16064453125], [-125.00557, 41.22807, -5198.55908203125], [-125.00702, 41.2367, -5151.05908203125]]], [[[-125.0, 41.23286, -4303.5146484375], [-125.00702, 41.2367, -5151.05908203125], [-125.00557, 41.22807, -5198.55908203125], [-125.0, 41.23286, -4303.5146484375]]], [[[-124.99901, 41.22518, -4569.59765625], [-125.0, 41.23286, -4303.5146484375], [-125.00557, 41.22807, -5198.55908203125], [-124.99901, 41.22518, -4569.59765625]]], [[[-124.99901, 41.22518, -4569.59765625], [-124.99356, 41.22395, -3956.736328125], [-125.0, 41.23286, -4303.5146484375], [-124.99901, 41.22518, -4569.59765625]]], [[[-124.99901, 41.22518, -4569.59765625], [-124.99451, 41.21737, -4559.68603515625], [-124.99356, 41.22395, -3956.736328125], [-124.99901, 41.22518, -4569.59765625]]], [[[-124.97459, 41.20475, -3040.197265625], [-124.96723, 41.20737, -1901.1898193359375], [-124.97479, 41.21056, -2562.2412109375], [-124.97459, 41.20475, -3040.197265625]]], [[[-125.01941, 41.27287, -6100.724609375], [-125.02263, 41.27929, -6667.81982421875], [-125.02353, 41.27036, -6656.14794921875], [-125.01941, 41.27287, -6100.724609375]]], [[[-124.99451, 41.21737, -4559.68603515625], [-124.99901, 41.22518, -4569.59765625], [-125.00157, 41.22003, -5285.5205078125], [-124.99451, 41.21737, -4559.68603515625]]], [[[-124.99451, 41.21737, -4559.68603515625], [-125.00157, 41.22003, -5285.5205078125], [-124.99635, 41.21104, -5247.27783203125], [-124.99451, 41.21737, -4559.68603515625]]], [[[-125.01421, 41.24007, -5931.14501953125], [-125.02099, 41.24361, -6673.14404296875], [-125.01804, 41.23495, -6699.837890625], [-125.01421, 41.24007, -5931.14501953125]]], [[[-124.99481, 41.27062, -2584.778076171875], [-125.00005, 41.2669, -3323.536865234375], [-124.99478, 41.26217, -2629.033447265625], [-124.99481, 41.27062, -2584.778076171875]]], [[[-124.98189, 41.21146, -3374.6123046875], [-124.98823, 41.21625, -3822.95166015625], [-124.98847, 41.21017, -4321.86669921875], [-124.98189, 41.21146, -3374.6123046875]]], [[[-124.99451, 41.21737, -4559.68603515625], [-124.99635, 41.21104, -5247.27783203125], [-124.98847, 41.21017, -4321.86669921875], [-124.99451, 41.21737, -4559.68603515625]]], [[[-125.00306, 41.27476, -3773.013671875], [-125.00021, 41.2831, -3494.898681640625], [-125.00582, 41.28214, -4288.12890625], [-125.00306, 41.27476, -3773.013671875]]], [[[-124.98823, 41.21625, -3822.95166015625], [-124.99451, 41.21737, -4559.68603515625], [-124.98847, 41.21017, -4321.86669921875], [-124.98823, 41.21625, -3822.95166015625]]], [[[-124.98823, 41.21625, -3822.95166015625], [-124.99356, 41.22395, -3956.736328125], [-124.99451, 41.21737, -4559.68603515625], [-124.98823, 41.21625, -3822.95166015625]]], [[[-124.98823, 41.21625, -3822.95166015625], [-124.98636, 41.22079, -3258.179443359375], [-124.99356, 41.22395, -3956.736328125], [-124.98823, 41.21625, -3822.95166015625]]], [[[-125.01822, 41.26562, -5897.041015625], [-125.02353, 41.27036, -6656.14794921875], [-125.02359, 41.2614, -6653.1474609375], [-125.01822, 41.26562, -5897.041015625]]], [[[-124.99735, 41.27606, -2970.2265625], [-125.00306, 41.27476, -3773.013671875], [-125.00005, 41.2669, -3323.536865234375], [-124.99735, 41.27606, -2970.2265625]]], [[[-124.98189, 41.21146, -3374.6123046875], [-124.98636, 41.22079, -3258.179443359375], [-124.98823, 41.21625, -3822.95166015625], [-124.98189, 41.21146, -3374.6123046875]]], [[[-125.00014, 41.2069, -6090.662109375], [-125.00746, 41.20947, -6801.01708984375], [-125.00225, 41.20144, -6855.3642578125], [-125.00014, 41.2069, -6090.662109375]]], [[[-124.98636, 41.22079, -3258.179443359375], [-124.98189, 41.21146, -3374.6123046875], [-124.97941, 41.21795, -2558.06005859375], [-124.98636, 41.22079, -3258.179443359375]]], [[[-125.00449, 41.21482, -6035.80029296875], [-125.00894, 41.2232, -5999.4111328125], [-125.01172, 41.21782, -6759.86279296875], [-125.00449, 41.21482, -6035.80029296875]]], [[[-124.98636, 41.22079, -3258.179443359375], [-124.97941, 41.21795, -2558.06005859375], [-124.98401, 41.2259, -2578.634521484375], [-124.98636, 41.22079, -3258.179443359375]]], [[[-124.98189, 41.21146, -3374.6123046875], [-124.97459, 41.20475, -3040.197265625], [-124.97479, 41.21056, -2562.2412109375], [-124.98189, 41.21146, -3374.6123046875]]], [[[-125.00306, 41.27476, -3773.013671875], [-124.99735, 41.27606, -2970.2265625], [-125.00021, 41.2831, -3494.898681640625], [-125.00306, 41.27476, -3773.013671875]]], [[[-124.99201, 41.22949, -3342.232177734375], [-124.98636, 41.22079, -3258.179443359375], [-124.98401, 41.2259, -2578.634521484375], [-124.99201, 41.22949, -3342.232177734375]]], [[[-124.98752, 41.20337, -4819.54736328125], [-124.9866, 41.19499, -5225.55908203125], [-124.9807, 41.19599, -4390.11572265625], [-124.98752, 41.20337, -4819.54736328125]]], [[[-124.99901, 41.22518, -4569.59765625], [-125.00557, 41.22807, -5198.55908203125], [-125.00157, 41.22003, -5285.5205078125], [-124.99901, 41.22518, -4569.59765625]]], [[[-124.99356, 41.22395, -3956.736328125], [-124.98636, 41.22079, -3258.179443359375], [-124.99201, 41.22949, -3342.232177734375], [-124.99356, 41.22395, -3956.736328125]]], [[[-125.0, 41.23286, -4303.5146484375], [-124.99356, 41.22395, -3956.736328125], [-124.99201, 41.22949, -3342.232177734375], [-125.0, 41.23286, -4303.5146484375]]], [[[-125.0, 41.23286, -4303.5146484375], [-124.99201, 41.22949, -3342.232177734375], [-124.99477, 41.23845, -3430.565185546875], [-125.0, 41.23286, -4303.5146484375]]], [[[-125.00449, 41.21482, -6035.80029296875], [-125.01172, 41.21782, -6759.86279296875], [-125.00746, 41.20947, -6801.01708984375], [-125.00449, 41.21482, -6035.80029296875]]], [[[-124.99477, 41.23845, -3430.565185546875], [-124.98812, 41.23525, -2609.59912109375], [-124.99068, 41.24401, -2614.54052734375], [-124.99477, 41.23845, -3430.565185546875]]], [[[-124.99329, 41.25301, -2612.865234375], [-124.98707, 41.24931, -1870.23876953125], [-124.98902, 41.25816, -1880.337890625], [-124.99329, 41.25301, -2612.865234375]]], [[[-124.99763, 41.24762, -3362.4013671875], [-124.99477, 41.23845, -3430.565185546875], [-124.99068, 41.24401, -2614.54052734375], [-124.99763, 41.24762, -3362.4013671875]]], [[[-125.00157, 41.22003, -5285.5205078125], [-125.00449, 41.21482, -6035.80029296875], [-124.99635, 41.21104, -5247.27783203125], [-125.00157, 41.22003, -5285.5205078125]]], [[[-124.99763, 41.24762, -3362.4013671875], [-124.99068, 41.24401, -2614.54052734375], [-124.99329, 41.25301, -2612.865234375], [-124.99763, 41.24762, -3362.4013671875]]], [[[-124.99068, 41.24401, -2614.54052734375], [-124.98707, 41.24931, -1870.23876953125], [-124.99329, 41.25301, -2612.865234375], [-124.99068, 41.24401, -2614.54052734375]]], [[[-124.99068, 41.24401, -2614.54052734375], [-124.98393, 41.24066, -1884.47216796875], [-124.98707, 41.24931, -1870.23876953125], [-124.99068, 41.24401, -2614.54052734375]]], [[[-124.98812, 41.23525, -2609.59912109375], [-124.9819, 41.23183, -1860.8253173828125], [-124.98393, 41.24066, -1884.47216796875], [-124.98812, 41.23525, -2609.59912109375]]], [[[-124.9925, 41.19399, -6061.001953125], [-125.00225, 41.20144, -6855.3642578125], [-124.9984, 41.19299, -6896.44482421875], [-124.9925, 41.19399, -6061.001953125]]], [[[-124.98812, 41.23525, -2609.59912109375], [-124.98401, 41.2259, -2578.634521484375], [-124.9819, 41.23183, -1860.8253173828125], [-124.98812, 41.23525, -2609.59912109375]]], [[[-124.99201, 41.22949, -3342.232177734375], [-124.98401, 41.2259, -2578.634521484375], [-124.98812, 41.23525, -2609.59912109375], [-124.99201, 41.22949, -3342.232177734375]]], [[[-124.98401, 41.2259, -2578.634521484375], [-124.97685, 41.22373, -1814.9036865234375], [-124.9819, 41.23183, -1860.8253173828125], [-124.98401, 41.2259, -2578.634521484375]]], [[[-125.01218, 41.26404, -5039.10791015625], [-125.00881, 41.27337, -4581.21435546875], [-125.01427, 41.27285, -5359.3984375], [-125.01218, 41.26404, -5039.10791015625]]], [[[-124.97941, 41.21795, -2558.06005859375], [-124.97225, 41.21545, -1805.7476806640625], [-124.97685, 41.22373, -1814.9036865234375], [-124.97941, 41.21795, -2558.06005859375]]], [[[-124.97479, 41.21056, -2562.2412109375], [-124.97225, 41.21545, -1805.7476806640625], [-124.97941, 41.21795, -2558.06005859375], [-124.97479, 41.21056, -2562.2412109375]]], [[[-124.97479, 41.21056, -2562.2412109375], [-124.96723, 41.20737, -1901.1898193359375], [-124.97225, 41.21545, -1805.7476806640625], [-124.97479, 41.21056, -2562.2412109375]]], [[[-124.963, 41.199, -1883.7869873046875], [-124.96723, 41.20737, -1901.1898193359375], [-124.9689, 41.198, -2719.22998046875], [-124.963, 41.199, -1883.7869873046875]]], [[[-124.97459, 41.20475, -3040.197265625], [-124.9748, 41.197, -3554.6728515625], [-124.9689, 41.198, -2719.22998046875], [-124.97459, 41.20475, -3040.197265625]]], [[[-124.98189, 41.21146, -3374.6123046875], [-124.98847, 41.21017, -4321.86669921875], [-124.98093, 41.2039, -3924.016845703125], [-124.98189, 41.21146, -3374.6123046875]]], [[[-124.98093, 41.2039, -3924.016845703125], [-124.9807, 41.19599, -4390.11572265625], [-124.9748, 41.197, -3554.6728515625], [-124.98093, 41.2039, -3924.016845703125]]], [[[-124.98093, 41.2039, -3924.016845703125], [-124.98752, 41.20337, -4819.54736328125], [-124.9807, 41.19599, -4390.11572265625], [-124.98093, 41.2039, -3924.016845703125]]], [[[-124.98752, 41.20337, -4819.54736328125], [-124.98093, 41.2039, -3924.016845703125], [-124.98847, 41.21017, -4321.86669921875], [-124.98752, 41.20337, -4819.54736328125]]], [[[-124.99635, 41.21104, -5247.27783203125], [-124.98752, 41.20337, -4819.54736328125], [-124.98847, 41.21017, -4321.86669921875], [-124.99635, 41.21104, -5247.27783203125]]], [[[-124.99635, 41.21104, -5247.27783203125], [-124.99358, 41.20207, -5694.998046875], [-124.98752, 41.20337, -4819.54736328125], [-124.99635, 41.21104, -5247.27783203125]]], [[[-125.00014, 41.2069, -6090.662109375], [-124.99358, 41.20207, -5694.998046875], [-124.99635, 41.21104, -5247.27783203125], [-125.00014, 41.2069, -6090.662109375]]], [[[-125.00014, 41.2069, -6090.662109375], [-125.00225, 41.20144, -6855.3642578125], [-124.99358, 41.20207, -5694.998046875], [-125.00014, 41.2069, -6090.662109375]]], [[[-125.00449, 41.21482, -6035.80029296875], [-125.00746, 41.20947, -6801.01708984375], [-125.00014, 41.2069, -6090.662109375], [-125.00449, 41.21482, -6035.80029296875]]], [[[-125.00157, 41.22003, -5285.5205078125], [-125.00894, 41.2232, -5999.4111328125], [-125.00449, 41.21482, -6035.80029296875], [-125.00157, 41.22003, -5285.5205078125]]], [[[-125.00557, 41.22807, -5198.55908203125], [-125.01183, 41.23111, -5972.16064453125], [-125.00894, 41.2232, -5999.4111328125], [-125.00557, 41.22807, -5198.55908203125]]], [[[-125.00894, 41.2232, -5999.4111328125], [-125.01183, 41.23111, -5972.16064453125], [-125.01622, 41.2261, -6716.29541015625], [-125.00894, 41.2232, -5999.4111328125]]], [[[-125.00894, 41.2232, -5999.4111328125], [-125.01622, 41.2261, -6716.29541015625], [-125.01172, 41.21782, -6759.86279296875], [-125.00894, 41.2232, -5999.4111328125]]], [[[-125.01622, 41.2261, -6716.29541015625], [-125.01183, 41.23111, -5972.16064453125], [-125.01804, 41.23495, -6699.837890625], [-125.01622, 41.2261, -6716.29541015625]]], [[[-125.00955, 41.24518, -5064.16259765625], [-125.01653, 41.24858, -5917.814453125], [-125.01421, 41.24007, -5931.14501953125], [-125.00955, 41.24518, -5064.16259765625]]], [[[-125.01157, 41.25385, -5085.302734375], [-125.01653, 41.24858, -5917.814453125], [-125.00955, 41.24518, -5064.16259765625], [-125.01157, 41.25385, -5085.302734375]]], [[[-125.01157, 41.25385, -5085.302734375], [-125.01758, 41.25741, -5870.63916015625], [-125.01653, 41.24858, -5917.814453125], [-125.01157, 41.25385, -5085.302734375]]], [[[-125.00646, 41.25823, -4309.75439453125], [-125.01218, 41.26404, -5039.10791015625], [-125.01157, 41.25385, -5085.302734375], [-125.00646, 41.25823, -4309.75439453125]]], [[[-124.99998, 41.25743, -3417.74853515625], [-125.00005, 41.2669, -3323.536865234375], [-125.00547, 41.26591, -4090.508544921875], [-124.99998, 41.25743, -3417.74853515625]]], [[[-124.99735, 41.27606, -2970.2265625], [-125.00005, 41.2669, -3323.536865234375], [-124.99481, 41.27062, -2584.778076171875], [-124.99735, 41.27606, -2970.2265625]]], [[[-125.00547, 41.26591, -4090.508544921875], [-125.00306, 41.27476, -3773.013671875], [-125.00881, 41.27337, -4581.21435546875], [-125.00547, 41.26591, -4090.508544921875]]], [[[-125.00547, 41.26591, -4090.508544921875], [-125.00005, 41.2669, -3323.536865234375], [-125.00306, 41.27476, -3773.013671875], [-125.00547, 41.26591, -4090.508544921875]]], [[[-125.01218, 41.26404, -5039.10791015625], [-125.01822, 41.26562, -5897.041015625], [-125.01758, 41.25741, -5870.63916015625], [-125.01218, 41.26404, -5039.10791015625]]], [[[-125.01758, 41.25741, -5870.63916015625], [-125.01822, 41.26562, -5897.041015625], [-125.02359, 41.2614, -6653.1474609375], [-125.01758, 41.25741, -5870.63916015625]]], [[[-124.99635, 41.21104, -5247.27783203125], [-125.00449, 41.21482, -6035.80029296875], [-125.00014, 41.2069, -6090.662109375], [-124.99635, 41.21104, -5247.27783203125]]], [[[-125.01758, 41.25741, -5870.63916015625], [-125.02359, 41.2614, -6653.1474609375], [-125.02277, 41.25247, -6659.193359375], [-125.01758, 41.25741, -5870.63916015625]]], [[[-125.00426, 41.25068, -4179.833984375], [-125.00646, 41.25823, -4309.75439453125], [-125.01157, 41.25385, -5085.302734375], [-125.00426, 41.25068, -4179.833984375]]], [[[-125.01703, 41.28024, -5874.58935546875], [-125.01427, 41.27285, -5359.3984375], [-125.01142, 41.28119, -5081.359375], [-125.01703, 41.28024, -5874.58935546875]]], [[[-125.00881, 41.27337, -4581.21435546875], [-125.01142, 41.28119, -5081.359375], [-125.01427, 41.27285, -5359.3984375], [-125.00881, 41.27337, -4581.21435546875]]], [[[-125.00881, 41.27337, -4581.21435546875], [-125.00582, 41.28214, -4288.12890625], [-125.01142, 41.28119, -5081.359375], [-125.00881, 41.27337, -4581.21435546875]]], [[[-124.99735, 41.27606, -2970.2265625], [-124.99461, 41.28405, -2701.668212890625], [-125.00021, 41.2831, -3494.898681640625], [-124.99735, 41.27606, -2970.2265625]]], [[[-125.00426, 41.25068, -4179.833984375], [-124.99998, 41.25743, -3417.74853515625], [-125.00646, 41.25823, -4309.75439453125], [-125.00426, 41.25068, -4179.833984375]]], [[[-125.00426, 41.25068, -4179.833984375], [-125.01157, 41.25385, -5085.302734375], [-125.00955, 41.24518, -5064.16259765625], [-125.00426, 41.25068, -4179.833984375]]], [[[-124.98752, 41.20337, -4819.54736328125], [-124.99358, 41.20207, -5694.998046875], [-124.9866, 41.19499, -5225.55908203125], [-124.98752, 41.20337, -4819.54736328125]]], [[[-124.99358, 41.20207, -5694.998046875], [-125.00225, 41.20144, -6855.3642578125], [-124.9925, 41.19399, -6061.001953125], [-124.99358, 41.20207, -5694.998046875]]], [[[-124.99461, 41.28405, -2701.668212890625], [-124.99735, 41.27606, -2970.2265625], [-124.98999, 41.27606, -1910.2802734375], [-124.99461, 41.28405, -2701.668212890625]]]]}}]}