{"type": "FeatureCollection", "features": [{"type": "Feature", "properties": {"name": "AW_NCAL_13", "CFM_ID": 352, "region": "Offshore_CA_MendocinoTripleJunction", "primary_state/province": "CA", "secondary_state/province": null, "avg_dip": 59, "dip_dir": "E", "rake": 90, "slip_sense": "Reverse", "fault_level": 2, "NSHM23_sliprates": null, "QFFDAgeCatBin": null, "QFFDAgeBin": null, "upper_depth": -1.7, "upper_depth_constraint": "bathymetry", "lower_depth": -8.3, "lower_depth_constraint": "Slab2", "3D_model_constraints": "trace extended at constant dip", "reference": "Goldfinger et al. (2023)", "nshm23_id": null, "lineage": null, "usgs_qffd_#": null, "comments": null, "id": "352"}, "geometry": {"type": "MultiPolygon", "coordinates": [[[[-124.94362, 41.169, -2652.967529296875], [-124.95102, 41.17143, -1923.120361328125], [-124.94603, 41.16345, -1898.6226806640625], [-124.94362, 41.169, -2652.967529296875]]], [[[-124.92208, 41.13781, -2727.622314453125], [-124.93013, 41.14, -2038.531982421875], [-124.92376, 41.13268, -1924.2935791015625], [-124.92208, 41.13781, -2727.622314453125]]], [[[-124.95109, 41.25909, -5334.576171875], [-124.94422, 41.25496, -6128.90185546875], [-124.94626, 41.2642, -6098.30712890625], [-124.95109, 41.25909, -5334.576171875]]], [[[-124.88019, 41.13452, -7417.1474609375], [-124.87288, 41.12586, -7308.6884765625], [-124.87315, 41.13405, -8199.3525390625], [-124.88019, 41.13452, -7417.1474609375]]], [[[-124.94084, 41.1742, -3430.50732421875], [-124.94362, 41.169, -2652.967529296875], [-124.93632, 41.1667, -3388.828857421875], [-124.94084, 41.1742, -3430.50732421875]]], [[[-124.97358, 41.3126, -3012.201416015625], [-124.97156, 41.32137, -3441.96875], [-124.97728, 41.32019, -2623.137451171875], [-124.97358, 41.3126, -3012.201416015625]]], [[[-124.97281, 41.2799, -2666.19287109375], [-124.97757, 41.27509, -1926.9783935546875], [-124.97184, 41.27091, -2664.964599609375], [-124.97281, 41.2799, -2666.19287109375]]], [[[-124.9259, 41.17886, -5680.07861328125], [-124.92018, 41.16964, -5668.80224609375], [-124.91841, 41.17571, -6373.5546875], [-124.9259, 41.17886, -5680.07861328125]]], [[[-124.91643, 41.18186, -7089.97412109375], [-124.91099, 41.17328, -7113.5439453125], [-124.90921, 41.17937, -7830.0947265625], [-124.91643, 41.18186, -7089.97412109375]]], [[[-124.88082, 41.12938, -6740.203125], [-124.87861, 41.12321, -6339.5439453125], [-124.87288, 41.12586, -7308.6884765625], [-124.88082, 41.12938, -6740.203125]]], [[[-124.91647, 41.15496, -4969.51025390625], [-124.90918, 41.15286, -5734.70751953125], [-124.91466, 41.16108, -5686.646484375], [-124.91647, 41.15496, -4969.51025390625]]], [[[-124.90617, 41.13333, -4131.8583984375], [-124.91366, 41.14143, -4151.68408203125], [-124.91383, 41.13531, -3409.59765625], [-124.90617, 41.13333, -4131.8583984375]]], [[[-124.9675, 41.31346, -3880.788818359375], [-124.97156, 41.32137, -3441.96875], [-124.97358, 41.3126, -3012.201416015625], [-124.9675, 41.31346, -3880.788818359375]]], [[[-124.95209, 41.22972, -4104.4775390625], [-124.95498, 41.23852, -4111.05322265625], [-124.95862, 41.23338, -3406.987548828125], [-124.95209, 41.22972, -4104.4775390625]]], [[[-124.92733, 41.20344, -6265.509765625], [-124.92104, 41.20009, -7025.5048828125], [-124.92317, 41.20852, -7010.1630859375], [-124.92733, 41.20344, -6265.509765625]]], [[[-124.91841, 41.17571, -6373.5546875], [-124.91099, 41.17328, -7113.5439453125], [-124.91643, 41.18186, -7089.97412109375], [-124.91841, 41.17571, -6373.5546875]]], [[[-124.94403, 41.18223, -3397.800048828125], [-124.95035, 41.18537, -2631.245849609375], [-124.9477, 41.17678, -2670.031982421875], [-124.94403, 41.18223, -3397.800048828125]]], [[[-124.9675, 41.31346, -3880.788818359375], [-124.96584, 41.32256, -4260.80029296875], [-124.97156, 41.32137, -3441.96875], [-124.9675, 41.31346, -3880.788818359375]]], [[[-124.97184, 41.27091, -2664.964599609375], [-124.97659, 41.26629, -1910.586669921875], [-124.97075, 41.26201, -2635.469482421875], [-124.97184, 41.27091, -2664.964599609375]]], [[[-124.90897, 41.12188, -2513.650390625], [-124.91804, 41.12505, -1807.4248046875], [-124.91175, 41.11767, -1697.248291015625], [-124.90897, 41.12188, -2513.650390625]]], [[[-124.89622, 41.11996, -3843.467529296875], [-124.89837, 41.12718, -4395.1220703125], [-124.90555, 41.12652, -3465.416259765625], [-124.89622, 41.11996, -3843.467529296875]]], [[[-124.91187, 41.14706, -4954.24267578125], [-124.91951, 41.14994, -4195.9853515625], [-124.91366, 41.14143, -4151.68408203125], [-124.91187, 41.14706, -4954.24267578125]]], [[[-124.96156, 41.31537, -4739.50048828125], [-124.96584, 41.32256, -4260.80029296875], [-124.9675, 41.31346, -3880.788818359375], [-124.96156, 41.31537, -4739.50048828125]]], [[[-124.93074, 41.17676, -4909.46142578125], [-124.92631, 41.17022, -4929.39501953125], [-124.9259, 41.17886, -5680.07861328125], [-124.93074, 41.17676, -4909.46142578125]]], [[[-124.9506, 41.29182, -5948.923828125], [-124.94402, 41.28722, -6811.76904296875], [-124.94474, 41.29608, -6817.6884765625], [-124.9506, 41.29182, -5948.923828125]]], [[[-124.96156, 41.31537, -4739.50048828125], [-124.96012, 41.32374, -5079.63134765625], [-124.96584, 41.32256, -4260.80029296875], [-124.96156, 41.31537, -4739.50048828125]]], [[[-124.91366, 41.14143, -4151.68408203125], [-124.92155, 41.14374, -3467.17626953125], [-124.91383, 41.13531, -3409.59765625], [-124.91366, 41.14143, -4151.68408203125]]], [[[-124.93074, 41.17676, -4909.46142578125], [-124.93742, 41.1796, -4172.18603515625], [-124.93346, 41.17187, -4165.88720703125], [-124.93074, 41.17676, -4909.46142578125]]], [[[-124.88771, 41.1358, -6637.9072265625], [-124.88019, 41.13452, -7417.1474609375], [-124.88722, 41.1419, -7331.49853515625], [-124.88771, 41.1358, -6637.9072265625]]], [[[-124.92208, 41.13781, -2727.622314453125], [-124.92878, 41.14612, -2724.137451171875], [-124.93013, 41.14, -2038.531982421875], [-124.92208, 41.13781, -2727.622314453125]]], [[[-124.94084, 41.1742, -3430.50732421875], [-124.9477, 41.17678, -2670.031982421875], [-124.94362, 41.169, -2652.967529296875], [-124.94084, 41.1742, -3430.50732421875]]], [[[-124.96156, 41.31537, -4739.50048828125], [-124.95586, 41.31655, -5558.8759765625], [-124.96012, 41.32374, -5079.63134765625], [-124.96156, 41.31537, -4739.50048828125]]], [[[-124.93592, 41.14755, -1921.2952880859375], [-124.93381, 41.15344, -2649.949462890625], [-124.94104, 41.15546, -1894.500244140625], [-124.93592, 41.14755, -1921.2952880859375]]], [[[-124.91466, 41.16108, -5686.646484375], [-124.9075, 41.15932, -6455.08203125], [-124.91284, 41.16716, -6401.94091796875], [-124.91466, 41.16108, -5686.646484375]]], [[[-124.93346, 41.17187, -4165.88720703125], [-124.93632, 41.1667, -3388.828857421875], [-124.92909, 41.16473, -4148.4169921875], [-124.93346, 41.17187, -4165.88720703125]]], [[[-124.95659, 41.21117, -2584.819091796875], [-124.95915, 41.21935, -2608.8896484375], [-124.96317, 41.2145, -1843.620849609375], [-124.95659, 41.21117, -2584.819091796875]]], [[[-124.9062, 41.14003, -4866.02099609375], [-124.90617, 41.13333, -4131.8583984375], [-124.90013, 41.13474, -5016.14990234375], [-124.9062, 41.14003, -4866.02099609375]]], [[[-124.93557, 41.19254, -4833.58056640625], [-124.93159, 41.19832, -5527.9326171875], [-124.9377, 41.20119, -4779.42431640625], [-124.93557, 41.19254, -4833.58056640625]]], [[[-124.95951, 41.25515, -4080.390380859375], [-124.95877, 41.26275, -4324.32177734375], [-124.96485, 41.25854, -3401.037353515625], [-124.95951, 41.25515, -4080.390380859375]]], [[[-124.92878, 41.14612, -2724.137451171875], [-124.92663, 41.152, -3446.593505859375], [-124.93381, 41.15344, -2649.949462890625], [-124.92878, 41.14612, -2724.137451171875]]], [[[-124.95708, 41.30786, -5263.66064453125], [-124.95586, 41.31655, -5558.8759765625], [-124.96156, 41.31537, -4739.50048828125], [-124.95708, 41.30786, -5263.66064453125]]], [[[-124.94262, 41.21745, -4736.8876953125], [-124.93967, 41.20909, -4790.98583984375], [-124.93612, 41.21462, -5488.814453125], [-124.94262, 41.21745, -4736.8876953125]]], [[[-124.91939, 41.19129, -7050.8515625], [-124.92541, 41.19496, -6294.2841796875], [-124.92306, 41.18541, -6351.5], [-124.91939, 41.19129, -7050.8515625]]], [[[-124.94594, 41.19056, -3354.48583984375], [-124.95035, 41.18537, -2631.245849609375], [-124.94403, 41.18223, -3397.800048828125], [-124.94594, 41.19056, -3354.48583984375]]], [[[-124.95301, 41.26806, -5224.8681640625], [-124.96018, 41.27171, -4301.1591796875], [-124.95877, 41.26275, -4324.32177734375], [-124.95301, 41.26806, -5224.8681640625]]], [[[-124.96018, 41.27171, -4301.1591796875], [-124.96571, 41.26681, -3434.130615234375], [-124.95877, 41.26275, -4324.32177734375], [-124.96018, 41.27171, -4301.1591796875]]], [[[-124.95915, 41.21935, -2608.8896484375], [-124.96601, 41.22303, -1907.8424072265625], [-124.96317, 41.2145, -1843.620849609375], [-124.95915, 41.21935, -2608.8896484375]]], [[[-124.91841, 41.17571, -6373.5546875], [-124.91284, 41.16716, -6401.94091796875], [-124.91099, 41.17328, -7113.5439453125], [-124.91841, 41.17571, -6373.5546875]]], [[[-124.91939, 41.19129, -7050.8515625], [-124.91643, 41.18186, -7089.97412109375], [-124.91307, 41.18769, -7792.2646484375], [-124.91939, 41.19129, -7050.8515625]]], [[[-124.95708, 41.30786, -5263.66064453125], [-124.95144, 41.30881, -6065.0849609375], [-124.95586, 41.31655, -5558.8759765625], [-124.95708, 41.30786, -5263.66064453125]]], [[[-124.90566, 41.16539, -7170.8720703125], [-124.90033, 41.15755, -7223.0185546875], [-124.89849, 41.16362, -7940.095703125], [-124.90566, 41.16539, -7170.8720703125]]], [[[-124.93742, 41.1796, -4172.18603515625], [-124.93983, 41.18738, -4133.2197265625], [-124.94403, 41.18223, -3397.800048828125], [-124.93742, 41.1796, -4172.18603515625]]], [[[-124.95144, 41.30881, -6065.0849609375], [-124.95708, 41.30786, -5263.66064453125], [-124.95085, 41.30057, -6024.18505859375], [-124.95144, 41.30881, -6065.0849609375]]], [[[-124.96485, 41.25854, -3401.037353515625], [-124.96974, 41.25373, -2634.12890625], [-124.96328, 41.25046, -3383.160888671875], [-124.96485, 41.25854, -3401.037353515625]]], [[[-124.93967, 41.20909, -4790.98583984375], [-124.9437, 41.20391, -4051.70361328125], [-124.9377, 41.20119, -4779.42431640625], [-124.93967, 41.20909, -4790.98583984375]]], [[[-124.95144, 41.30881, -6065.0849609375], [-124.95085, 41.30057, -6024.18505859375], [-124.94565, 41.30482, -6812.7998046875], [-124.95144, 41.30881, -6065.0849609375]]], [[[-124.95144, 41.30881, -6065.0849609375], [-124.94565, 41.30482, -6812.7998046875], [-124.94625, 41.3131, -6856.10400390625], [-124.95144, 41.30881, -6065.0849609375]]], [[[-124.90283, 41.14397, -5732.53662109375], [-124.89475, 41.13624, -5830.1904296875], [-124.89489, 41.14316, -6573.98779296875], [-124.90283, 41.14397, -5732.53662109375]]], [[[-124.87288, 41.12586, -7308.6884765625], [-124.87124, 41.11723, -6667.04833984375], [-124.86544, 41.11843, -7502.9755859375], [-124.87288, 41.12586, -7308.6884765625]]], [[[-124.88456, 41.12233, -5517.009765625], [-124.89036, 41.12112, -4681.3203125], [-124.88283, 41.11482, -4995.193359375], [-124.88456, 41.12233, -5517.009765625]]], [[[-124.95877, 41.26275, -4324.32177734375], [-124.95435, 41.25354, -4708.65283203125], [-124.95109, 41.25909, -5334.576171875], [-124.95877, 41.26275, -4324.32177734375]]], [[[-124.89837, 41.12718, -4395.1220703125], [-124.89622, 41.11996, -3843.467529296875], [-124.89036, 41.12112, -4681.3203125], [-124.89837, 41.12718, -4395.1220703125]]], [[[-124.89475, 41.13624, -5830.1904296875], [-124.88693, 41.12951, -6030.13037109375], [-124.88771, 41.1358, -6637.9072265625], [-124.89475, 41.13624, -5830.1904296875]]], [[[-124.90283, 41.14397, -5732.53662109375], [-124.90204, 41.15108, -6512.52392578125], [-124.90918, 41.15286, -5734.70751953125], [-124.90283, 41.14397, -5732.53662109375]]], [[[-124.91518, 41.12983, -2662.989013671875], [-124.92376, 41.13268, -1924.2935791015625], [-124.91804, 41.12505, -1807.4248046875], [-124.91518, 41.12983, -2662.989013671875]]], [[[-124.93346, 41.17187, -4165.88720703125], [-124.92909, 41.16473, -4148.4169921875], [-124.92631, 41.17022, -4929.39501953125], [-124.93346, 41.17187, -4165.88720703125]]], [[[-124.92945, 41.18903, -5607.984375], [-124.92306, 41.18541, -6351.5], [-124.92541, 41.19496, -6294.2841796875], [-124.92945, 41.18903, -5607.984375]]], [[[-124.90184, 41.11865, -3019.4287109375], [-124.90021, 41.11121, -2487.41064453125], [-124.89441, 41.11241, -3323.338134765625], [-124.90184, 41.11865, -3019.4287109375]]], [[[-124.9477, 41.17678, -2670.031982421875], [-124.95429, 41.17988, -1918.012451171875], [-124.95102, 41.17143, -1923.120361328125], [-124.9477, 41.17678, -2670.031982421875]]], [[[-124.9555, 41.22454, -3374.913330078125], [-124.95915, 41.21935, -2608.8896484375], [-124.95249, 41.21604, -3347.5517578125], [-124.9555, 41.22454, -3374.913330078125]]], [[[-124.9259, 41.17886, -5680.07861328125], [-124.92945, 41.18903, -5607.984375], [-124.93304, 41.18382, -4942.96923828125], [-124.9259, 41.17886, -5680.07861328125]]], [[[-124.95144, 41.30881, -6065.0849609375], [-124.94625, 41.3131, -6856.10400390625], [-124.95009, 41.31785, -6387.16015625], [-124.95144, 41.30881, -6065.0849609375]]], [[[-124.90617, 41.13333, -4131.8583984375], [-124.89837, 41.12718, -4395.1220703125], [-124.90013, 41.13474, -5016.14990234375], [-124.90617, 41.13333, -4131.8583984375]]], [[[-124.91383, 41.13531, -3409.59765625], [-124.92208, 41.13781, -2727.622314453125], [-124.91518, 41.12983, -2662.989013671875], [-124.91383, 41.13531, -3409.59765625]]], [[[-124.95144, 41.30881, -6065.0849609375], [-124.95009, 41.31785, -6387.16015625], [-124.95586, 41.31655, -5558.8759765625], [-124.95144, 41.30881, -6065.0849609375]]], [[[-124.91647, 41.15496, -4969.51025390625], [-124.91187, 41.14706, -4954.24267578125], [-124.90918, 41.15286, -5734.70751953125], [-124.91647, 41.15496, -4969.51025390625]]], [[[-124.90566, 41.16539, -7170.8720703125], [-124.90387, 41.17149, -7885.228515625], [-124.91099, 41.17328, -7113.5439453125], [-124.90566, 41.16539, -7170.8720703125]]], [[[-124.92182, 41.16317, -4944.94189453125], [-124.92018, 41.16964, -5668.80224609375], [-124.92631, 41.17022, -4929.39501953125], [-124.92182, 41.16317, -4944.94189453125]]], [[[-124.9437, 41.20391, -4051.70361328125], [-124.95006, 41.20745, -3319.845458984375], [-124.94776, 41.19867, -3325.88525390625], [-124.9437, 41.20391, -4051.70361328125]]], [[[-124.95586, 41.31655, -5558.8759765625], [-124.95009, 41.31785, -6387.16015625], [-124.9544, 41.32492, -5898.462890625], [-124.95586, 41.31655, -5558.8759765625]]], [[[-124.90283, 41.14397, -5732.53662109375], [-124.89489, 41.14316, -6573.98779296875], [-124.90204, 41.15108, -6512.52392578125], [-124.90283, 41.14397, -5732.53662109375]]], [[[-124.90918, 41.15286, -5734.70751953125], [-124.90204, 41.15108, -6512.52392578125], [-124.9075, 41.15932, -6455.08203125], [-124.90918, 41.15286, -5734.70751953125]]], [[[-124.92104, 41.20009, -7025.5048828125], [-124.91677, 41.20518, -7763.18017578125], [-124.92317, 41.20852, -7010.1630859375], [-124.92104, 41.20009, -7025.5048828125]]], [[[-124.95586, 41.31655, -5558.8759765625], [-124.9544, 41.32492, -5898.462890625], [-124.96012, 41.32374, -5079.63134765625], [-124.95586, 41.31655, -5558.8759765625]]], [[[-124.95009, 41.31785, -6387.16015625], [-124.94868, 41.32611, -6717.2939453125], [-124.9544, 41.32492, -5898.462890625], [-124.95009, 41.31785, -6387.16015625]]], [[[-124.94569, 41.22594, -4745.61328125], [-124.95209, 41.22972, -4104.4775390625], [-124.9488, 41.2211, -4068.27294921875], [-124.94569, 41.22594, -4745.61328125]]], [[[-124.96374, 41.29824, -4187.21630859375], [-124.95788, 41.29333, -4937.46533203125], [-124.95677, 41.29968, -5182.79248046875], [-124.96374, 41.29824, -4187.21630859375]]], [[[-124.95163, 41.24404, -4731.53955078125], [-124.94575, 41.24046, -5433.51513671875], [-124.94811, 41.24959, -5388.66259765625], [-124.95163, 41.24404, -4731.53955078125]]], [[[-124.89255, 41.12839, -5229.6337890625], [-124.88456, 41.12233, -5517.009765625], [-124.88693, 41.12951, -6030.13037109375], [-124.89255, 41.12839, -5229.6337890625]]], [[[-124.90617, 41.13333, -4131.8583984375], [-124.90555, 41.12652, -3465.416259765625], [-124.89837, 41.12718, -4395.1220703125], [-124.90617, 41.13333, -4131.8583984375]]], [[[-124.93967, 41.20909, -4790.98583984375], [-124.94595, 41.21241, -4071.82861328125], [-124.9437, 41.20391, -4051.70361328125], [-124.93967, 41.20909, -4790.98583984375]]], [[[-124.92155, 41.14374, -3467.17626953125], [-124.92208, 41.13781, -2727.622314453125], [-124.91383, 41.13531, -3409.59765625], [-124.92155, 41.14374, -3467.17626953125]]], [[[-124.95209, 41.22972, -4104.4775390625], [-124.95862, 41.23338, -3406.987548828125], [-124.9555, 41.22454, -3374.913330078125], [-124.95209, 41.22972, -4104.4775390625]]], [[[-124.87288, 41.12586, -7308.6884765625], [-124.87861, 41.12321, -6339.5439453125], [-124.87124, 41.11723, -6667.04833984375], [-124.87288, 41.12586, -7308.6884765625]]], [[[-124.94625, 41.3131, -6856.10400390625], [-124.94196, 41.31846, -7543.90625], [-124.95009, 41.31785, -6387.16015625], [-124.94625, 41.3131, -6856.10400390625]]], [[[-124.95085, 41.30057, -6024.18505859375], [-124.94474, 41.29608, -6817.6884765625], [-124.94565, 41.30482, -6812.7998046875], [-124.95085, 41.30057, -6024.18505859375]]], [[[-124.94625, 41.3131, -6856.10400390625], [-124.94088, 41.30964, -7552.58642578125], [-124.94196, 41.31846, -7543.90625], [-124.94625, 41.3131, -6856.10400390625]]], [[[-124.93346, 41.17187, -4165.88720703125], [-124.93742, 41.1796, -4172.18603515625], [-124.94084, 41.1742, -3430.50732421875], [-124.93346, 41.17187, -4165.88720703125]]], [[[-124.94565, 41.30482, -6812.7998046875], [-124.94088, 41.30964, -7552.58642578125], [-124.94625, 41.3131, -6856.10400390625], [-124.94565, 41.30482, -6812.7998046875]]], [[[-124.92945, 41.18903, -5607.984375], [-124.93159, 41.19832, -5527.9326171875], [-124.93557, 41.19254, -4833.58056640625], [-124.92945, 41.18903, -5607.984375]]], [[[-124.94565, 41.30482, -6812.7998046875], [-124.93988, 41.3008, -7561.0439453125], [-124.94088, 41.30964, -7552.58642578125], [-124.94565, 41.30482, -6812.7998046875]]], [[[-124.92909, 41.16473, -4148.4169921875], [-124.93632, 41.1667, -3388.828857421875], [-124.93148, 41.15912, -3397.380615234375], [-124.92909, 41.16473, -4148.4169921875]]], [[[-124.96571, 41.26681, -3434.130615234375], [-124.96485, 41.25854, -3401.037353515625], [-124.95877, 41.26275, -4324.32177734375], [-124.96571, 41.26681, -3434.130615234375]]], [[[-124.949, 41.23483, -4756.72021484375], [-124.95163, 41.24404, -4731.53955078125], [-124.95498, 41.23852, -4111.05322265625], [-124.949, 41.23483, -4756.72021484375]]], [[[-124.91284, 41.16716, -6401.94091796875], [-124.9075, 41.15932, -6455.08203125], [-124.90566, 41.16539, -7170.8720703125], [-124.91284, 41.16716, -6401.94091796875]]], [[[-124.94595, 41.21241, -4071.82861328125], [-124.9488, 41.2211, -4068.27294921875], [-124.95249, 41.21604, -3347.5517578125], [-124.94595, 41.21241, -4071.82861328125]]], [[[-124.94474, 41.29608, -6817.6884765625], [-124.93988, 41.3008, -7561.0439453125], [-124.94565, 41.30482, -6812.7998046875], [-124.94474, 41.29608, -6817.6884765625]]], [[[-124.93873, 41.16114, -2639.838134765625], [-124.94603, 41.16345, -1898.6226806640625], [-124.94104, 41.15546, -1894.500244140625], [-124.93873, 41.16114, -2639.838134765625]]], [[[-124.94474, 41.29608, -6817.6884765625], [-124.93911, 41.29195, -7565.736328125], [-124.93988, 41.3008, -7561.0439453125], [-124.94474, 41.29608, -6817.6884765625]]], [[[-124.97075, 41.26201, -2635.469482421875], [-124.97659, 41.26629, -1910.586669921875], [-124.97561, 41.2575, -1878.1800537109375], [-124.97075, 41.26201, -2635.469482421875]]], [[[-124.94402, 41.28722, -6811.76904296875], [-124.93911, 41.29195, -7565.736328125], [-124.94474, 41.29608, -6817.6884765625], [-124.94402, 41.28722, -6811.76904296875]]], [[[-124.93873, 41.16114, -2639.838134765625], [-124.94104, 41.15546, -1894.500244140625], [-124.93381, 41.15344, -2649.949462890625], [-124.93873, 41.16114, -2639.838134765625]]], [[[-124.92541, 41.19496, -6294.2841796875], [-124.91939, 41.19129, -7050.8515625], [-124.92104, 41.20009, -7025.5048828125], [-124.92541, 41.19496, -6294.2841796875]]], [[[-124.94402, 41.28722, -6811.76904296875], [-124.93814, 41.28311, -7571.87353515625], [-124.93911, 41.29195, -7565.736328125], [-124.94402, 41.28722, -6811.76904296875]]], [[[-124.94287, 41.27824, -6835.15576171875], [-124.93814, 41.28311, -7571.87353515625], [-124.94402, 41.28722, -6811.76904296875], [-124.94287, 41.27824, -6835.15576171875]]], [[[-124.94287, 41.27824, -6835.15576171875], [-124.93697, 41.27429, -7580.28955078125], [-124.93814, 41.28311, -7571.87353515625], [-124.94287, 41.27824, -6835.15576171875]]], [[[-124.94159, 41.2694, -6839.548828125], [-124.93697, 41.27429, -7580.28955078125], [-124.94287, 41.27824, -6835.15576171875], [-124.94159, 41.2694, -6839.548828125]]], [[[-124.91643, 41.18186, -7089.97412109375], [-124.90921, 41.17937, -7830.0947265625], [-124.91307, 41.18769, -7792.2646484375], [-124.91643, 41.18186, -7089.97412109375]]], [[[-124.91383, 41.13531, -3409.59765625], [-124.91518, 41.12983, -2662.989013671875], [-124.90555, 41.12652, -3465.416259765625], [-124.91383, 41.13531, -3409.59765625]]], [[[-124.88082, 41.12938, -6740.203125], [-124.88771, 41.1358, -6637.9072265625], [-124.88693, 41.12951, -6030.13037109375], [-124.88082, 41.12938, -6740.203125]]], [[[-124.94159, 41.2694, -6839.548828125], [-124.93575, 41.26547, -7589.31103515625], [-124.93697, 41.27429, -7580.28955078125], [-124.94159, 41.2694, -6839.548828125]]], [[[-124.95163, 41.24404, -4731.53955078125], [-124.949, 41.23483, -4756.72021484375], [-124.94575, 41.24046, -5433.51513671875], [-124.95163, 41.24404, -4731.53955078125]]], [[[-124.94159, 41.2694, -6839.548828125], [-124.94024, 41.26027, -6869.55029296875], [-124.93575, 41.26547, -7589.31103515625], [-124.94159, 41.2694, -6839.548828125]]], [[[-124.96974, 41.25373, -2634.12890625], [-124.97561, 41.2575, -1878.1800537109375], [-124.97393, 41.24879, -1882.1646728515625], [-124.96974, 41.25373, -2634.12890625]]], [[[-124.94024, 41.26027, -6869.55029296875], [-124.94159, 41.2694, -6839.548828125], [-124.94626, 41.2642, -6098.30712890625], [-124.94024, 41.26027, -6869.55029296875]]], [[[-124.9377, 41.20119, -4779.42431640625], [-124.93159, 41.19832, -5527.9326171875], [-124.93368, 41.20662, -5512.5263671875], [-124.9377, 41.20119, -4779.42431640625]]], [[[-124.94422, 41.25496, -6128.90185546875], [-124.94024, 41.26027, -6869.55029296875], [-124.94626, 41.2642, -6098.30712890625], [-124.94422, 41.25496, -6128.90185546875]]], [[[-124.90918, 41.15286, -5734.70751953125], [-124.9075, 41.15932, -6455.08203125], [-124.91466, 41.16108, -5686.646484375], [-124.90918, 41.15286, -5734.70751953125]]], [[[-124.97377, 41.28872, -2652.00146484375], [-124.97468, 41.2975, -2646.627197265625], [-124.97952, 41.29269, -1900.9444580078125], [-124.97377, 41.28872, -2652.00146484375]]], [[[-124.9488, 41.2211, -4068.27294921875], [-124.9555, 41.22454, -3374.913330078125], [-124.95249, 41.21604, -3347.5517578125], [-124.9488, 41.2211, -4068.27294921875]]], [[[-124.90283, 41.14397, -5732.53662109375], [-124.90013, 41.13474, -5016.14990234375], [-124.89475, 41.13624, -5830.1904296875], [-124.90283, 41.14397, -5732.53662109375]]], [[[-124.92182, 41.16317, -4944.94189453125], [-124.92909, 41.16473, -4148.4169921875], [-124.92424, 41.15769, -4201.85009765625], [-124.92182, 41.16317, -4944.94189453125]]], [[[-124.93894, 41.22273, -5460.3798828125], [-124.93233, 41.21991, -6228.18408203125], [-124.93556, 41.22817, -6201.8037109375], [-124.93894, 41.22273, -5460.3798828125]]], [[[-124.9377, 41.20119, -4779.42431640625], [-124.9437, 41.20391, -4051.70361328125], [-124.94146, 41.19552, -4093.580078125], [-124.9377, 41.20119, -4779.42431640625]]], [[[-124.88456, 41.12233, -5517.009765625], [-124.88283, 41.11482, -4995.193359375], [-124.87703, 41.11602, -5831.12060546875], [-124.88456, 41.12233, -5517.009765625]]], [[[-124.94422, 41.25496, -6128.90185546875], [-124.93765, 41.25145, -6871.73974609375], [-124.94024, 41.26027, -6869.55029296875], [-124.94422, 41.25496, -6128.90185546875]]], [[[-124.94575, 41.24046, -5433.51513671875], [-124.949, 41.23483, -4756.72021484375], [-124.94251, 41.2313, -5457.18310546875], [-124.94575, 41.24046, -5433.51513671875]]], [[[-124.88283, 41.11482, -4995.193359375], [-124.89036, 41.12112, -4681.3203125], [-124.88862, 41.11362, -4159.265625], [-124.88283, 41.11482, -4995.193359375]]], [[[-124.94084, 41.1742, -3430.50732421875], [-124.94403, 41.18223, -3397.800048828125], [-124.9477, 41.17678, -2670.031982421875], [-124.94084, 41.1742, -3430.50732421875]]], [[[-124.91939, 41.19129, -7050.8515625], [-124.92306, 41.18541, -6351.5], [-124.91643, 41.18186, -7089.97412109375], [-124.91939, 41.19129, -7050.8515625]]], [[[-124.94422, 41.25496, -6128.90185546875], [-124.94174, 41.24611, -6147.8583984375], [-124.93765, 41.25145, -6871.73974609375], [-124.94422, 41.25496, -6128.90185546875]]], [[[-124.88456, 41.12233, -5517.009765625], [-124.89255, 41.12839, -5229.6337890625], [-124.89036, 41.12112, -4681.3203125], [-124.88456, 41.12233, -5517.009765625]]], [[[-124.94811, 41.24959, -5388.66259765625], [-124.94174, 41.24611, -6147.8583984375], [-124.94422, 41.25496, -6128.90185546875], [-124.94811, 41.24959, -5388.66259765625]]], [[[-124.9437, 41.20391, -4051.70361328125], [-124.94776, 41.19867, -3325.88525390625], [-124.94146, 41.19552, -4093.580078125], [-124.9437, 41.20391, -4051.70361328125]]], [[[-124.9437, 41.20391, -4051.70361328125], [-124.94595, 41.21241, -4071.82861328125], [-124.95006, 41.20745, -3319.845458984375], [-124.9437, 41.20391, -4051.70361328125]]], [[[-124.94575, 41.24046, -5433.51513671875], [-124.94174, 41.24611, -6147.8583984375], [-124.94811, 41.24959, -5388.66259765625], [-124.94575, 41.24046, -5433.51513671875]]], [[[-124.96514, 41.23673, -2665.590087890625], [-124.96739, 41.24557, -2631.936767578125], [-124.97137, 41.24018, -1910.741455078125], [-124.96514, 41.23673, -2665.590087890625]]], [[[-124.94575, 41.24046, -5433.51513671875], [-124.93909, 41.23704, -6182.31103515625], [-124.94174, 41.24611, -6147.8583984375], [-124.94575, 41.24046, -5433.51513671875]]], [[[-124.949, 41.23483, -4756.72021484375], [-124.94569, 41.22594, -4745.61328125], [-124.94251, 41.2313, -5457.18310546875], [-124.949, 41.23483, -4756.72021484375]]], [[[-124.94251, 41.2313, -5457.18310546875], [-124.93909, 41.23704, -6182.31103515625], [-124.94575, 41.24046, -5433.51513671875], [-124.94251, 41.2313, -5457.18310546875]]], [[[-124.93304, 41.18382, -4942.96923828125], [-124.93983, 41.18738, -4133.2197265625], [-124.93742, 41.1796, -4172.18603515625], [-124.93304, 41.18382, -4942.96923828125]]], [[[-124.95409, 41.20217, -2576.51123046875], [-124.96048, 41.20591, -1847.8814697265625], [-124.95838, 41.19723, -1829.006591796875], [-124.95409, 41.20217, -2576.51123046875]]], [[[-124.94251, 41.2313, -5457.18310546875], [-124.93556, 41.22817, -6201.8037109375], [-124.93909, 41.23704, -6182.31103515625], [-124.94251, 41.2313, -5457.18310546875]]], [[[-124.95696, 41.24712, -4097.35107421875], [-124.96328, 41.25046, -3383.160888671875], [-124.96102, 41.24214, -3387.672119140625], [-124.95696, 41.24712, -4097.35107421875]]], [[[-124.9377, 41.20119, -4779.42431640625], [-124.94146, 41.19552, -4093.580078125], [-124.93557, 41.19254, -4833.58056640625], [-124.9377, 41.20119, -4779.42431640625]]], [[[-124.93074, 41.17676, -4909.46142578125], [-124.9259, 41.17886, -5680.07861328125], [-124.93304, 41.18382, -4942.96923828125], [-124.93074, 41.17676, -4909.46142578125]]], [[[-124.94251, 41.2313, -5457.18310546875], [-124.93894, 41.22273, -5460.3798828125], [-124.93556, 41.22817, -6201.8037109375], [-124.94251, 41.2313, -5457.18310546875]]], [[[-124.92155, 41.14374, -3467.17626953125], [-124.92878, 41.14612, -2724.137451171875], [-124.92208, 41.13781, -2727.622314453125], [-124.92155, 41.14374, -3467.17626953125]]], [[[-124.88693, 41.12951, -6030.13037109375], [-124.88456, 41.12233, -5517.009765625], [-124.87861, 41.12321, -6339.5439453125], [-124.88693, 41.12951, -6030.13037109375]]], [[[-124.90204, 41.15108, -6512.52392578125], [-124.89488, 41.14943, -7296.732421875], [-124.90033, 41.15755, -7223.0185546875], [-124.90204, 41.15108, -6512.52392578125]]], [[[-124.96125, 41.28067, -4297.10888671875], [-124.96786, 41.28464, -3426.334716796875], [-124.96682, 41.27573, -3442.47314453125], [-124.96125, 41.28067, -4297.10888671875]]], [[[-124.9477, 41.17678, -2670.031982421875], [-124.95035, 41.18537, -2631.245849609375], [-124.95429, 41.17988, -1918.012451171875], [-124.9477, 41.17678, -2670.031982421875]]], [[[-124.95915, 41.21935, -2608.8896484375], [-124.9555, 41.22454, -3374.913330078125], [-124.96239, 41.22822, -2660.210693359375], [-124.95915, 41.21935, -2608.8896484375]]], [[[-124.91187, 41.14706, -4954.24267578125], [-124.91647, 41.15496, -4969.51025390625], [-124.91951, 41.14994, -4195.9853515625], [-124.91187, 41.14706, -4954.24267578125]]], [[[-124.94569, 41.22594, -4745.61328125], [-124.93894, 41.22273, -5460.3798828125], [-124.94251, 41.2313, -5457.18310546875], [-124.94569, 41.22594, -4745.61328125]]], [[[-124.94262, 41.21745, -4736.8876953125], [-124.93894, 41.22273, -5460.3798828125], [-124.94569, 41.22594, -4745.61328125], [-124.94262, 41.21745, -4736.8876953125]]], [[[-124.92945, 41.18903, -5607.984375], [-124.92541, 41.19496, -6294.2841796875], [-124.93159, 41.19832, -5527.9326171875], [-124.92945, 41.18903, -5607.984375]]], [[[-124.93894, 41.22273, -5460.3798828125], [-124.94262, 41.21745, -4736.8876953125], [-124.93612, 41.21462, -5488.814453125], [-124.93894, 41.22273, -5460.3798828125]]], [[[-124.95659, 41.21117, -2584.819091796875], [-124.96317, 41.2145, -1843.620849609375], [-124.96048, 41.20591, -1847.8814697265625], [-124.95659, 41.21117, -2584.819091796875]]], [[[-124.93894, 41.22273, -5460.3798828125], [-124.93612, 41.21462, -5488.814453125], [-124.93233, 41.21991, -6228.18408203125], [-124.93894, 41.22273, -5460.3798828125]]], [[[-124.93074, 41.17676, -4909.46142578125], [-124.93304, 41.18382, -4942.96923828125], [-124.93742, 41.1796, -4172.18603515625], [-124.93074, 41.17676, -4909.46142578125]]], [[[-124.95951, 41.25515, -4080.390380859375], [-124.96485, 41.25854, -3401.037353515625], [-124.96328, 41.25046, -3383.160888671875], [-124.95951, 41.25515, -4080.390380859375]]], [[[-124.93233, 41.21991, -6228.18408203125], [-124.92871, 41.22535, -6951.86474609375], [-124.93556, 41.22817, -6201.8037109375], [-124.93233, 41.21991, -6228.18408203125]]], [[[-124.95249, 41.21604, -3347.5517578125], [-124.95915, 41.21935, -2608.8896484375], [-124.95659, 41.21117, -2584.819091796875], [-124.95249, 41.21604, -3347.5517578125]]], [[[-124.93742, 41.1796, -4172.18603515625], [-124.94403, 41.18223, -3397.800048828125], [-124.94084, 41.1742, -3430.50732421875], [-124.93742, 41.1796, -4172.18603515625]]], [[[-124.93233, 41.21991, -6228.18408203125], [-124.92577, 41.217, -6985.427734375], [-124.92871, 41.22535, -6951.86474609375], [-124.93233, 41.21991, -6228.18408203125]]], [[[-124.91841, 41.17571, -6373.5546875], [-124.91643, 41.18186, -7089.97412109375], [-124.92306, 41.18541, -6351.5], [-124.91841, 41.17571, -6373.5546875]]], [[[-124.88693, 41.12951, -6030.13037109375], [-124.87861, 41.12321, -6339.5439453125], [-124.88082, 41.12938, -6740.203125], [-124.88693, 41.12951, -6030.13037109375]]], [[[-124.94595, 41.21241, -4071.82861328125], [-124.95249, 41.21604, -3347.5517578125], [-124.95006, 41.20745, -3319.845458984375], [-124.94595, 41.21241, -4071.82861328125]]], [[[-124.94594, 41.19056, -3354.48583984375], [-124.94776, 41.19867, -3325.88525390625], [-124.95213, 41.19371, -2578.89990234375], [-124.94594, 41.19056, -3354.48583984375]]], [[[-124.93233, 41.21991, -6228.18408203125], [-124.9296, 41.21168, -6255.6357421875], [-124.92577, 41.217, -6985.427734375], [-124.93233, 41.21991, -6228.18408203125]]], [[[-124.95877, 41.26275, -4324.32177734375], [-124.95951, 41.25515, -4080.390380859375], [-124.95435, 41.25354, -4708.65283203125], [-124.95877, 41.26275, -4324.32177734375]]], [[[-124.91518, 41.12983, -2662.989013671875], [-124.92208, 41.13781, -2727.622314453125], [-124.92376, 41.13268, -1924.2935791015625], [-124.91518, 41.12983, -2662.989013671875]]], [[[-124.91187, 41.14706, -4954.24267578125], [-124.9062, 41.14003, -4866.02099609375], [-124.90283, 41.14397, -5732.53662109375], [-124.91187, 41.14706, -4954.24267578125]]], [[[-124.93612, 41.21462, -5488.814453125], [-124.9296, 41.21168, -6255.6357421875], [-124.93233, 41.21991, -6228.18408203125], [-124.93612, 41.21462, -5488.814453125]]], [[[-124.93368, 41.20662, -5512.5263671875], [-124.9296, 41.21168, -6255.6357421875], [-124.93612, 41.21462, -5488.814453125], [-124.93368, 41.20662, -5512.5263671875]]], [[[-124.94594, 41.19056, -3354.48583984375], [-124.93983, 41.18738, -4133.2197265625], [-124.94146, 41.19552, -4093.580078125], [-124.94594, 41.19056, -3354.48583984375]]], [[[-124.96102, 41.24214, -3387.672119140625], [-124.96328, 41.25046, -3383.160888671875], [-124.96739, 41.24557, -2631.936767578125], [-124.96102, 41.24214, -3387.672119140625]]], [[[-124.88862, 41.11362, -4159.265625], [-124.89622, 41.11996, -3843.467529296875], [-124.89441, 41.11241, -3323.338134765625], [-124.88862, 41.11362, -4159.265625]]], [[[-124.95213, 41.19371, -2578.89990234375], [-124.95838, 41.19723, -1829.006591796875], [-124.95645, 41.18853, -1853.1195068359375], [-124.95213, 41.19371, -2578.89990234375]]], [[[-124.9296, 41.21168, -6255.6357421875], [-124.93368, 41.20662, -5512.5263671875], [-124.92733, 41.20344, -6265.509765625], [-124.9296, 41.21168, -6255.6357421875]]], [[[-124.94594, 41.19056, -3354.48583984375], [-124.94146, 41.19552, -4093.580078125], [-124.94776, 41.19867, -3325.88525390625], [-124.94594, 41.19056, -3354.48583984375]]], [[[-124.88456, 41.12233, -5517.009765625], [-124.87703, 41.11602, -5831.12060546875], [-124.87861, 41.12321, -6339.5439453125], [-124.88456, 41.12233, -5517.009765625]]], [[[-124.91518, 41.12983, -2662.989013671875], [-124.91804, 41.12505, -1807.4248046875], [-124.90897, 41.12188, -2513.650390625], [-124.91518, 41.12983, -2662.989013671875]]], [[[-124.91841, 41.17571, -6373.5546875], [-124.92018, 41.16964, -5668.80224609375], [-124.91284, 41.16716, -6401.94091796875], [-124.91841, 41.17571, -6373.5546875]]], [[[-124.9296, 41.21168, -6255.6357421875], [-124.92733, 41.20344, -6265.509765625], [-124.92317, 41.20852, -7010.1630859375], [-124.9296, 41.21168, -6255.6357421875]]], [[[-124.9075, 41.15932, -6455.08203125], [-124.90033, 41.15755, -7223.0185546875], [-124.90566, 41.16539, -7170.8720703125], [-124.9075, 41.15932, -6455.08203125]]], [[[-124.85965, 41.11963, -8338.9033203125], [-124.86603, 41.12705, -8273.7021484375], [-124.86544, 41.11843, -7502.9755859375], [-124.85965, 41.11963, -8338.9033203125]]], [[[-124.9296, 41.21168, -6255.6357421875], [-124.92317, 41.20852, -7010.1630859375], [-124.92577, 41.217, -6985.427734375], [-124.9296, 41.21168, -6255.6357421875]]], [[[-124.95163, 41.24404, -4731.53955078125], [-124.95435, 41.25354, -4708.65283203125], [-124.95696, 41.24712, -4097.35107421875], [-124.95163, 41.24404, -4731.53955078125]]], [[[-124.93873, 41.16114, -2639.838134765625], [-124.93632, 41.1667, -3388.828857421875], [-124.94362, 41.169, -2652.967529296875], [-124.93873, 41.16114, -2639.838134765625]]], [[[-124.95862, 41.23338, -3406.987548828125], [-124.96514, 41.23673, -2665.590087890625], [-124.96239, 41.22822, -2660.210693359375], [-124.95862, 41.23338, -3406.987548828125]]], [[[-124.92317, 41.20852, -7010.1630859375], [-124.91925, 41.21384, -7741.10009765625], [-124.92577, 41.217, -6985.427734375], [-124.92317, 41.20852, -7010.1630859375]]], [[[-124.91187, 41.14706, -4954.24267578125], [-124.91366, 41.14143, -4151.68408203125], [-124.9062, 41.14003, -4866.02099609375], [-124.91187, 41.14706, -4954.24267578125]]], [[[-124.92317, 41.20852, -7010.1630859375], [-124.91677, 41.20518, -7763.18017578125], [-124.91925, 41.21384, -7741.10009765625], [-124.92317, 41.20852, -7010.1630859375]]], [[[-124.90555, 41.12652, -3465.416259765625], [-124.91518, 41.12983, -2662.989013671875], [-124.90897, 41.12188, -2513.650390625], [-124.90555, 41.12652, -3465.416259765625]]], [[[-124.94887, 41.28235, -6056.7705078125], [-124.94287, 41.27824, -6835.15576171875], [-124.94402, 41.28722, -6811.76904296875], [-124.94887, 41.28235, -6056.7705078125]]], [[[-124.92104, 41.20009, -7025.5048828125], [-124.91494, 41.19643, -7777.4912109375], [-124.91677, 41.20518, -7763.18017578125], [-124.92104, 41.20009, -7025.5048828125]]], [[[-124.9062, 41.14003, -4866.02099609375], [-124.91366, 41.14143, -4151.68408203125], [-124.90617, 41.13333, -4131.8583984375], [-124.9062, 41.14003, -4866.02099609375]]], [[[-124.96964, 41.30354, -3442.759521484375], [-124.96306, 41.30649, -4407.74267578125], [-124.9675, 41.31346, -3880.788818359375], [-124.96964, 41.30354, -3442.759521484375]]], [[[-124.91939, 41.19129, -7050.8515625], [-124.91494, 41.19643, -7777.4912109375], [-124.92104, 41.20009, -7025.5048828125], [-124.91939, 41.19129, -7050.8515625]]], [[[-124.92909, 41.16473, -4148.4169921875], [-124.93148, 41.15912, -3397.380615234375], [-124.92424, 41.15769, -4201.85009765625], [-124.92909, 41.16473, -4148.4169921875]]], [[[-124.92663, 41.152, -3446.593505859375], [-124.92878, 41.14612, -2724.137451171875], [-124.92155, 41.14374, -3467.17626953125], [-124.92663, 41.152, -3446.593505859375]]], [[[-124.91939, 41.19129, -7050.8515625], [-124.91307, 41.18769, -7792.2646484375], [-124.91494, 41.19643, -7777.4912109375], [-124.91939, 41.19129, -7050.8515625]]], [[[-124.95432, 41.27711, -5215.20068359375], [-124.94772, 41.27329, -6065.38916015625], [-124.94887, 41.28235, -6056.7705078125], [-124.95432, 41.27711, -5215.20068359375]]], [[[-124.92733, 41.20344, -6265.509765625], [-124.92541, 41.19496, -6294.2841796875], [-124.92104, 41.20009, -7025.5048828125], [-124.92733, 41.20344, -6265.509765625]]], [[[-124.949, 41.23483, -4756.72021484375], [-124.95498, 41.23852, -4111.05322265625], [-124.95209, 41.22972, -4104.4775390625], [-124.949, 41.23483, -4756.72021484375]]], [[[-124.93159, 41.19832, -5527.9326171875], [-124.92541, 41.19496, -6294.2841796875], [-124.92733, 41.20344, -6265.509765625], [-124.93159, 41.19832, -5527.9326171875]]], [[[-124.95301, 41.26806, -5224.8681640625], [-124.95877, 41.26275, -4324.32177734375], [-124.95109, 41.25909, -5334.576171875], [-124.95301, 41.26806, -5224.8681640625]]], [[[-124.92945, 41.18903, -5607.984375], [-124.9259, 41.17886, -5680.07861328125], [-124.92306, 41.18541, -6351.5], [-124.92945, 41.18903, -5607.984375]]], [[[-124.92631, 41.17022, -4929.39501953125], [-124.93074, 41.17676, -4909.46142578125], [-124.93346, 41.17187, -4165.88720703125], [-124.92631, 41.17022, -4929.39501953125]]], [[[-124.93346, 41.17187, -4165.88720703125], [-124.94084, 41.1742, -3430.50732421875], [-124.93632, 41.1667, -3388.828857421875], [-124.93346, 41.17187, -4165.88720703125]]], [[[-124.9555, 41.22454, -3374.913330078125], [-124.9488, 41.2211, -4068.27294921875], [-124.95209, 41.22972, -4104.4775390625], [-124.9555, 41.22454, -3374.913330078125]]], [[[-124.93304, 41.18382, -4942.96923828125], [-124.93557, 41.19254, -4833.58056640625], [-124.93983, 41.18738, -4133.2197265625], [-124.93304, 41.18382, -4942.96923828125]]], [[[-124.93557, 41.19254, -4833.58056640625], [-124.93304, 41.18382, -4942.96923828125], [-124.92945, 41.18903, -5607.984375], [-124.93557, 41.19254, -4833.58056640625]]], [[[-124.93967, 41.20909, -4790.98583984375], [-124.94262, 41.21745, -4736.8876953125], [-124.94595, 41.21241, -4071.82861328125], [-124.93967, 41.20909, -4790.98583984375]]], [[[-124.95006, 41.20745, -3319.845458984375], [-124.95659, 41.21117, -2584.819091796875], [-124.95409, 41.20217, -2576.51123046875], [-124.95006, 41.20745, -3319.845458984375]]], [[[-124.93967, 41.20909, -4790.98583984375], [-124.93368, 41.20662, -5512.5263671875], [-124.93612, 41.21462, -5488.814453125], [-124.93967, 41.20909, -4790.98583984375]]], [[[-124.93967, 41.20909, -4790.98583984375], [-124.9377, 41.20119, -4779.42431640625], [-124.93368, 41.20662, -5512.5263671875], [-124.93967, 41.20909, -4790.98583984375]]], [[[-124.93159, 41.19832, -5527.9326171875], [-124.92733, 41.20344, -6265.509765625], [-124.93368, 41.20662, -5512.5263671875], [-124.93159, 41.19832, -5527.9326171875]]], [[[-124.89837, 41.12718, -4395.1220703125], [-124.89036, 41.12112, -4681.3203125], [-124.89255, 41.12839, -5229.6337890625], [-124.89837, 41.12718, -4395.1220703125]]], [[[-124.94262, 41.21745, -4736.8876953125], [-124.9488, 41.2211, -4068.27294921875], [-124.94595, 41.21241, -4071.82861328125], [-124.94262, 41.21745, -4736.8876953125]]], [[[-124.94262, 41.21745, -4736.8876953125], [-124.94569, 41.22594, -4745.61328125], [-124.9488, 41.2211, -4068.27294921875], [-124.94262, 41.21745, -4736.8876953125]]], [[[-124.94569, 41.22594, -4745.61328125], [-124.949, 41.23483, -4756.72021484375], [-124.95209, 41.22972, -4104.4775390625], [-124.94569, 41.22594, -4745.61328125]]], [[[-124.96514, 41.23673, -2665.590087890625], [-124.96908, 41.23154, -1925.5145263671875], [-124.96239, 41.22822, -2660.210693359375], [-124.96514, 41.23673, -2665.590087890625]]], [[[-124.92878, 41.14612, -2724.137451171875], [-124.93381, 41.15344, -2649.949462890625], [-124.93592, 41.14755, -1921.2952880859375], [-124.92878, 41.14612, -2724.137451171875]]], [[[-124.94776, 41.19867, -3325.88525390625], [-124.95006, 41.20745, -3319.845458984375], [-124.95409, 41.20217, -2576.51123046875], [-124.94776, 41.19867, -3325.88525390625]]], [[[-124.93148, 41.15912, -3397.380615234375], [-124.93873, 41.16114, -2639.838134765625], [-124.93381, 41.15344, -2649.949462890625], [-124.93148, 41.15912, -3397.380615234375]]], [[[-124.90013, 41.13474, -5016.14990234375], [-124.89255, 41.12839, -5229.6337890625], [-124.89475, 41.13624, -5830.1904296875], [-124.90013, 41.13474, -5016.14990234375]]], [[[-124.89475, 41.13624, -5830.1904296875], [-124.89255, 41.12839, -5229.6337890625], [-124.88693, 41.12951, -6030.13037109375], [-124.89475, 41.13624, -5830.1904296875]]], [[[-124.96485, 41.25854, -3401.037353515625], [-124.97075, 41.26201, -2635.469482421875], [-124.96974, 41.25373, -2634.12890625], [-124.96485, 41.25854, -3401.037353515625]]], [[[-124.93983, 41.18738, -4133.2197265625], [-124.94594, 41.19056, -3354.48583984375], [-124.94403, 41.18223, -3397.800048828125], [-124.93983, 41.18738, -4133.2197265625]]], [[[-124.94402, 41.28722, -6811.76904296875], [-124.9506, 41.29182, -5948.923828125], [-124.94887, 41.28235, -6056.7705078125], [-124.94402, 41.28722, -6811.76904296875]]], [[[-124.93148, 41.15912, -3397.380615234375], [-124.93632, 41.1667, -3388.828857421875], [-124.93873, 41.16114, -2639.838134765625], [-124.93148, 41.15912, -3397.380615234375]]], [[[-124.9075, 41.15932, -6455.08203125], [-124.90204, 41.15108, -6512.52392578125], [-124.90033, 41.15755, -7223.0185546875], [-124.9075, 41.15932, -6455.08203125]]], [[[-124.95409, 41.20217, -2576.51123046875], [-124.95838, 41.19723, -1829.006591796875], [-124.95213, 41.19371, -2578.89990234375], [-124.95409, 41.20217, -2576.51123046875]]], [[[-124.92182, 41.16317, -4944.94189453125], [-124.92631, 41.17022, -4929.39501953125], [-124.92909, 41.16473, -4148.4169921875], [-124.92182, 41.16317, -4944.94189453125]]], [[[-124.92182, 41.16317, -4944.94189453125], [-124.91466, 41.16108, -5686.646484375], [-124.92018, 41.16964, -5668.80224609375], [-124.92182, 41.16317, -4944.94189453125]]], [[[-124.91951, 41.14994, -4195.9853515625], [-124.91647, 41.15496, -4969.51025390625], [-124.92424, 41.15769, -4201.85009765625], [-124.91951, 41.14994, -4195.9853515625]]], [[[-124.96514, 41.23673, -2665.590087890625], [-124.97137, 41.24018, -1910.741455078125], [-124.96908, 41.23154, -1925.5145263671875], [-124.96514, 41.23673, -2665.590087890625]]], [[[-124.92182, 41.16317, -4944.94189453125], [-124.91647, 41.15496, -4969.51025390625], [-124.91466, 41.16108, -5686.646484375], [-124.92182, 41.16317, -4944.94189453125]]], [[[-124.91647, 41.15496, -4969.51025390625], [-124.92182, 41.16317, -4944.94189453125], [-124.92424, 41.15769, -4201.85009765625], [-124.91647, 41.15496, -4969.51025390625]]], [[[-124.95915, 41.21935, -2608.8896484375], [-124.96239, 41.22822, -2660.210693359375], [-124.96601, 41.22303, -1907.8424072265625], [-124.95915, 41.21935, -2608.8896484375]]], [[[-124.90283, 41.14397, -5732.53662109375], [-124.9062, 41.14003, -4866.02099609375], [-124.90013, 41.13474, -5016.14990234375], [-124.90283, 41.14397, -5732.53662109375]]], [[[-124.90617, 41.13333, -4131.8583984375], [-124.91383, 41.13531, -3409.59765625], [-124.90555, 41.12652, -3465.416259765625], [-124.90617, 41.13333, -4131.8583984375]]], [[[-124.91366, 41.14143, -4151.68408203125], [-124.91951, 41.14994, -4195.9853515625], [-124.92155, 41.14374, -3467.17626953125], [-124.91366, 41.14143, -4151.68408203125]]], [[[-124.95696, 41.24712, -4097.35107421875], [-124.95951, 41.25515, -4080.390380859375], [-124.96328, 41.25046, -3383.160888671875], [-124.95696, 41.24712, -4097.35107421875]]], [[[-124.92878, 41.14612, -2724.137451171875], [-124.93592, 41.14755, -1921.2952880859375], [-124.93013, 41.14, -2038.531982421875], [-124.92878, 41.14612, -2724.137451171875]]], [[[-124.95432, 41.27711, -5215.20068359375], [-124.94887, 41.28235, -6056.7705078125], [-124.95544, 41.28598, -5189.7294921875], [-124.95432, 41.27711, -5215.20068359375]]], [[[-124.90555, 41.12652, -3465.416259765625], [-124.90897, 41.12188, -2513.650390625], [-124.90184, 41.11865, -3019.4287109375], [-124.90555, 41.12652, -3465.416259765625]]], [[[-124.90555, 41.12652, -3465.416259765625], [-124.90184, 41.11865, -3019.4287109375], [-124.89622, 41.11996, -3843.467529296875], [-124.90555, 41.12652, -3465.416259765625]]], [[[-124.90013, 41.13474, -5016.14990234375], [-124.89837, 41.12718, -4395.1220703125], [-124.89255, 41.12839, -5229.6337890625], [-124.90013, 41.13474, -5016.14990234375]]], [[[-124.94362, 41.169, -2652.967529296875], [-124.9477, 41.17678, -2670.031982421875], [-124.95102, 41.17143, -1923.120361328125], [-124.94362, 41.169, -2652.967529296875]]], [[[-124.95435, 41.25354, -4708.65283203125], [-124.95163, 41.24404, -4731.53955078125], [-124.94811, 41.24959, -5388.66259765625], [-124.95435, 41.25354, -4708.65283203125]]], [[[-124.89475, 41.13624, -5830.1904296875], [-124.88771, 41.1358, -6637.9072265625], [-124.89489, 41.14316, -6573.98779296875], [-124.89475, 41.13624, -5830.1904296875]]], [[[-124.88722, 41.1419, -7331.49853515625], [-124.89489, 41.14316, -6573.98779296875], [-124.88771, 41.1358, -6637.9072265625], [-124.88722, 41.1419, -7331.49853515625]]], [[[-124.95301, 41.26806, -5224.8681640625], [-124.94772, 41.27329, -6065.38916015625], [-124.95432, 41.27711, -5215.20068359375], [-124.95301, 41.26806, -5224.8681640625]]], [[[-124.89489, 41.14316, -6573.98779296875], [-124.88722, 41.1419, -7331.49853515625], [-124.89488, 41.14943, -7296.732421875], [-124.89489, 41.14316, -6573.98779296875]]], [[[-124.90204, 41.15108, -6512.52392578125], [-124.89489, 41.14316, -6573.98779296875], [-124.89488, 41.14943, -7296.732421875], [-124.90204, 41.15108, -6512.52392578125]]], [[[-124.95696, 41.24712, -4097.35107421875], [-124.95435, 41.25354, -4708.65283203125], [-124.95951, 41.25515, -4080.390380859375], [-124.95696, 41.24712, -4097.35107421875]]], [[[-124.96601, 41.22303, -1907.8424072265625], [-124.96239, 41.22822, -2660.210693359375], [-124.96908, 41.23154, -1925.5145263671875], [-124.96601, 41.22303, -1907.8424072265625]]], [[[-124.91466, 41.16108, -5686.646484375], [-124.91284, 41.16716, -6401.94091796875], [-124.92018, 41.16964, -5668.80224609375], [-124.91466, 41.16108, -5686.646484375]]], [[[-124.9259, 41.17886, -5680.07861328125], [-124.92631, 41.17022, -4929.39501953125], [-124.92018, 41.16964, -5668.80224609375], [-124.9259, 41.17886, -5680.07861328125]]], [[[-124.94772, 41.27329, -6065.38916015625], [-124.94159, 41.2694, -6839.548828125], [-124.94287, 41.27824, -6835.15576171875], [-124.94772, 41.27329, -6065.38916015625]]], [[[-124.9259, 41.17886, -5680.07861328125], [-124.91841, 41.17571, -6373.5546875], [-124.92306, 41.18541, -6351.5], [-124.9259, 41.17886, -5680.07861328125]]], [[[-124.96102, 41.24214, -3387.672119140625], [-124.96514, 41.23673, -2665.590087890625], [-124.95862, 41.23338, -3406.987548828125], [-124.96102, 41.24214, -3387.672119140625]]], [[[-124.91284, 41.16716, -6401.94091796875], [-124.90566, 41.16539, -7170.8720703125], [-124.91099, 41.17328, -7113.5439453125], [-124.91284, 41.16716, -6401.94091796875]]], [[[-124.95035, 41.18537, -2631.245849609375], [-124.95213, 41.19371, -2578.89990234375], [-124.95645, 41.18853, -1853.1195068359375], [-124.95035, 41.18537, -2631.245849609375]]], [[[-124.90566, 41.16539, -7170.8720703125], [-124.89849, 41.16362, -7940.095703125], [-124.90387, 41.17149, -7885.228515625], [-124.90566, 41.16539, -7170.8720703125]]], [[[-124.90033, 41.15755, -7223.0185546875], [-124.89319, 41.15572, -7992.4990234375], [-124.89849, 41.16362, -7940.095703125], [-124.90033, 41.15755, -7223.0185546875]]], [[[-124.89488, 41.14943, -7296.732421875], [-124.89319, 41.15572, -7992.4990234375], [-124.90033, 41.15755, -7223.0185546875], [-124.89488, 41.14943, -7296.732421875]]], [[[-124.89488, 41.14943, -7296.732421875], [-124.88735, 41.1481, -8051.52197265625], [-124.89319, 41.15572, -7992.4990234375], [-124.89488, 41.14943, -7296.732421875]]], [[[-124.87124, 41.11723, -6667.04833984375], [-124.87861, 41.12321, -6339.5439453125], [-124.87703, 41.11602, -5831.12060546875], [-124.87124, 41.11723, -6667.04833984375]]], [[[-124.88722, 41.1419, -7331.49853515625], [-124.88735, 41.1481, -8051.52197265625], [-124.89488, 41.14943, -7296.732421875], [-124.88722, 41.1419, -7331.49853515625]]], [[[-124.95301, 41.26806, -5224.8681640625], [-124.94626, 41.2642, -6098.30712890625], [-124.94772, 41.27329, -6065.38916015625], [-124.95301, 41.26806, -5224.8681640625]]], [[[-124.88722, 41.1419, -7331.49853515625], [-124.88015, 41.14114, -8126.662109375], [-124.88735, 41.1481, -8051.52197265625], [-124.88722, 41.1419, -7331.49853515625]]], [[[-124.95862, 41.23338, -3406.987548828125], [-124.96239, 41.22822, -2660.210693359375], [-124.9555, 41.22454, -3374.913330078125], [-124.95862, 41.23338, -3406.987548828125]]], [[[-124.88019, 41.13452, -7417.1474609375], [-124.88015, 41.14114, -8126.662109375], [-124.88722, 41.1419, -7331.49853515625], [-124.88019, 41.13452, -7417.1474609375]]], [[[-124.88019, 41.13452, -7417.1474609375], [-124.87315, 41.13405, -8199.3525390625], [-124.88015, 41.14114, -8126.662109375], [-124.88019, 41.13452, -7417.1474609375]]], [[[-124.88082, 41.12938, -6740.203125], [-124.87288, 41.12586, -7308.6884765625], [-124.88019, 41.13452, -7417.1474609375], [-124.88082, 41.12938, -6740.203125]]], [[[-124.87288, 41.12586, -7308.6884765625], [-124.86603, 41.12705, -8273.7021484375], [-124.87315, 41.13405, -8199.3525390625], [-124.87288, 41.12586, -7308.6884765625]]], [[[-124.89622, 41.11996, -3843.467529296875], [-124.88862, 41.11362, -4159.265625], [-124.89036, 41.12112, -4681.3203125], [-124.89622, 41.11996, -3843.467529296875]]], [[[-124.90184, 41.11865, -3019.4287109375], [-124.89441, 41.11241, -3323.338134765625], [-124.89622, 41.11996, -3843.467529296875], [-124.90184, 41.11865, -3019.4287109375]]], [[[-124.88019, 41.13452, -7417.1474609375], [-124.88771, 41.1358, -6637.9072265625], [-124.88082, 41.12938, -6740.203125], [-124.88019, 41.13452, -7417.1474609375]]], [[[-124.90387, 41.17149, -7885.228515625], [-124.90921, 41.17937, -7830.0947265625], [-124.91099, 41.17328, -7113.5439453125], [-124.90387, 41.17149, -7885.228515625]]], [[[-124.93873, 41.16114, -2639.838134765625], [-124.94362, 41.169, -2652.967529296875], [-124.94603, 41.16345, -1898.6226806640625], [-124.93873, 41.16114, -2639.838134765625]]], [[[-124.94594, 41.19056, -3354.48583984375], [-124.95213, 41.19371, -2578.89990234375], [-124.95035, 41.18537, -2631.245849609375], [-124.94594, 41.19056, -3354.48583984375]]], [[[-124.94776, 41.19867, -3325.88525390625], [-124.95409, 41.20217, -2576.51123046875], [-124.95213, 41.19371, -2578.89990234375], [-124.94776, 41.19867, -3325.88525390625]]], [[[-124.95249, 41.21604, -3347.5517578125], [-124.95659, 41.21117, -2584.819091796875], [-124.95006, 41.20745, -3319.845458984375], [-124.95249, 41.21604, -3347.5517578125]]], [[[-124.95409, 41.20217, -2576.51123046875], [-124.95659, 41.21117, -2584.819091796875], [-124.96048, 41.20591, -1847.8814697265625], [-124.95409, 41.20217, -2576.51123046875]]], [[[-124.95035, 41.18537, -2631.245849609375], [-124.95645, 41.18853, -1853.1195068359375], [-124.95429, 41.17988, -1918.012451171875], [-124.95035, 41.18537, -2631.245849609375]]], [[[-124.96102, 41.24214, -3387.672119140625], [-124.96739, 41.24557, -2631.936767578125], [-124.96514, 41.23673, -2665.590087890625], [-124.96102, 41.24214, -3387.672119140625]]], [[[-124.95109, 41.25909, -5334.576171875], [-124.95435, 41.25354, -4708.65283203125], [-124.94811, 41.24959, -5388.66259765625], [-124.95109, 41.25909, -5334.576171875]]], [[[-124.96485, 41.25854, -3401.037353515625], [-124.96571, 41.26681, -3434.130615234375], [-124.97075, 41.26201, -2635.469482421875], [-124.96485, 41.25854, -3401.037353515625]]], [[[-124.96018, 41.27171, -4301.1591796875], [-124.96682, 41.27573, -3442.47314453125], [-124.96571, 41.26681, -3434.130615234375], [-124.96018, 41.27171, -4301.1591796875]]], [[[-124.96018, 41.27171, -4301.1591796875], [-124.96125, 41.28067, -4297.10888671875], [-124.96682, 41.27573, -3442.47314453125], [-124.96018, 41.27171, -4301.1591796875]]], [[[-124.95432, 41.27711, -5215.20068359375], [-124.96125, 41.28067, -4297.10888671875], [-124.96018, 41.27171, -4301.1591796875], [-124.95432, 41.27711, -5215.20068359375]]], [[[-124.95432, 41.27711, -5215.20068359375], [-124.95544, 41.28598, -5189.7294921875], [-124.96125, 41.28067, -4297.10888671875], [-124.95432, 41.27711, -5215.20068359375]]], [[[-124.95301, 41.26806, -5224.8681640625], [-124.95109, 41.25909, -5334.576171875], [-124.94626, 41.2642, -6098.30712890625], [-124.95301, 41.26806, -5224.8681640625]]], [[[-124.95301, 41.26806, -5224.8681640625], [-124.95432, 41.27711, -5215.20068359375], [-124.96018, 41.27171, -4301.1591796875], [-124.95301, 41.26806, -5224.8681640625]]], [[[-124.95109, 41.25909, -5334.576171875], [-124.94811, 41.24959, -5388.66259765625], [-124.94422, 41.25496, -6128.90185546875], [-124.95109, 41.25909, -5334.576171875]]], [[[-124.94159, 41.2694, -6839.548828125], [-124.94772, 41.27329, -6065.38916015625], [-124.94626, 41.2642, -6098.30712890625], [-124.94159, 41.2694, -6839.548828125]]], [[[-124.94287, 41.27824, -6835.15576171875], [-124.94887, 41.28235, -6056.7705078125], [-124.94772, 41.27329, -6065.38916015625], [-124.94287, 41.27824, -6835.15576171875]]], [[[-124.95085, 41.30057, -6024.18505859375], [-124.9506, 41.29182, -5948.923828125], [-124.94474, 41.29608, -6817.6884765625], [-124.95085, 41.30057, -6024.18505859375]]], [[[-124.95085, 41.30057, -6024.18505859375], [-124.95677, 41.29968, -5182.79248046875], [-124.9506, 41.29182, -5948.923828125], [-124.95085, 41.30057, -6024.18505859375]]], [[[-124.95677, 41.29968, -5182.79248046875], [-124.95085, 41.30057, -6024.18505859375], [-124.95708, 41.30786, -5263.66064453125], [-124.95677, 41.29968, -5182.79248046875]]], [[[-124.95677, 41.29968, -5182.79248046875], [-124.95708, 41.30786, -5263.66064453125], [-124.96306, 41.30649, -4407.74267578125], [-124.95677, 41.29968, -5182.79248046875]]], [[[-124.96374, 41.29824, -4187.21630859375], [-124.95677, 41.29968, -5182.79248046875], [-124.96306, 41.30649, -4407.74267578125], [-124.96374, 41.29824, -4187.21630859375]]], [[[-124.95788, 41.29333, -4937.46533203125], [-124.96374, 41.29824, -4187.21630859375], [-124.96275, 41.28928, -4207.931640625], [-124.95788, 41.29333, -4937.46533203125]]], [[[-124.95544, 41.28598, -5189.7294921875], [-124.95788, 41.29333, -4937.46533203125], [-124.96275, 41.28928, -4207.931640625], [-124.95544, 41.28598, -5189.7294921875]]], [[[-124.95788, 41.29333, -4937.46533203125], [-124.95544, 41.28598, -5189.7294921875], [-124.9506, 41.29182, -5948.923828125], [-124.95788, 41.29333, -4937.46533203125]]], [[[-124.95788, 41.29333, -4937.46533203125], [-124.9506, 41.29182, -5948.923828125], [-124.95677, 41.29968, -5182.79248046875], [-124.95788, 41.29333, -4937.46533203125]]], [[[-124.95544, 41.28598, -5189.7294921875], [-124.94887, 41.28235, -6056.7705078125], [-124.9506, 41.29182, -5948.923828125], [-124.95544, 41.28598, -5189.7294921875]]], [[[-124.96125, 41.28067, -4297.10888671875], [-124.95544, 41.28598, -5189.7294921875], [-124.96275, 41.28928, -4207.931640625], [-124.96125, 41.28067, -4297.10888671875]]], [[[-124.96786, 41.28464, -3426.334716796875], [-124.96125, 41.28067, -4297.10888671875], [-124.96275, 41.28928, -4207.931640625], [-124.96786, 41.28464, -3426.334716796875]]], [[[-124.96786, 41.28464, -3426.334716796875], [-124.97281, 41.2799, -2666.19287109375], [-124.96682, 41.27573, -3442.47314453125], [-124.96786, 41.28464, -3426.334716796875]]], [[[-124.96786, 41.28464, -3426.334716796875], [-124.97377, 41.28872, -2652.00146484375], [-124.97281, 41.2799, -2666.19287109375], [-124.96786, 41.28464, -3426.334716796875]]], [[[-124.96892, 41.29356, -3396.877197265625], [-124.97377, 41.28872, -2652.00146484375], [-124.96786, 41.28464, -3426.334716796875], [-124.96892, 41.29356, -3396.877197265625]]], [[[-124.96892, 41.29356, -3396.877197265625], [-124.97468, 41.2975, -2646.627197265625], [-124.97377, 41.28872, -2652.00146484375], [-124.96892, 41.29356, -3396.877197265625]]], [[[-124.96964, 41.30354, -3442.759521484375], [-124.97468, 41.2975, -2646.627197265625], [-124.96892, 41.29356, -3396.877197265625], [-124.96964, 41.30354, -3442.759521484375]]], [[[-124.96964, 41.30354, -3442.759521484375], [-124.97587, 41.30612, -2612.841552734375], [-124.97468, 41.2975, -2646.627197265625], [-124.96964, 41.30354, -3442.759521484375]]], [[[-124.96964, 41.30354, -3442.759521484375], [-124.97358, 41.3126, -3012.201416015625], [-124.97587, 41.30612, -2612.841552734375], [-124.96964, 41.30354, -3442.759521484375]]], [[[-124.96964, 41.30354, -3442.759521484375], [-124.9675, 41.31346, -3880.788818359375], [-124.97358, 41.3126, -3012.201416015625], [-124.96964, 41.30354, -3442.759521484375]]], [[[-124.96374, 41.29824, -4187.21630859375], [-124.96306, 41.30649, -4407.74267578125], [-124.96964, 41.30354, -3442.759521484375], [-124.96374, 41.29824, -4187.21630859375]]], [[[-124.96374, 41.29824, -4187.21630859375], [-124.96964, 41.30354, -3442.759521484375], [-124.96892, 41.29356, -3396.877197265625], [-124.96374, 41.29824, -4187.21630859375]]], [[[-124.96275, 41.28928, -4207.931640625], [-124.96374, 41.29824, -4187.21630859375], [-124.96892, 41.29356, -3396.877197265625], [-124.96275, 41.28928, -4207.931640625]]], [[[-124.96275, 41.28928, -4207.931640625], [-124.96892, 41.29356, -3396.877197265625], [-124.96786, 41.28464, -3426.334716796875], [-124.96275, 41.28928, -4207.931640625]]], [[[-124.96306, 41.30649, -4407.74267578125], [-124.96156, 41.31537, -4739.50048828125], [-124.9675, 41.31346, -3880.788818359375], [-124.96306, 41.30649, -4407.74267578125]]], [[[-124.96306, 41.30649, -4407.74267578125], [-124.95708, 41.30786, -5263.66064453125], [-124.96156, 41.31537, -4739.50048828125], [-124.96306, 41.30649, -4407.74267578125]]], [[[-124.97587, 41.30612, -2612.841552734375], [-124.97358, 41.3126, -3012.201416015625], [-124.98148, 41.31028, -1871.13720703125], [-124.97587, 41.30612, -2612.841552734375]]], [[[-124.97587, 41.30612, -2612.841552734375], [-124.98148, 41.31028, -1871.13720703125], [-124.9805, 41.30149, -1894.7705078125], [-124.97587, 41.30612, -2612.841552734375]]], [[[-124.93548, 41.24273, -6907.28125], [-124.92891, 41.23941, -7650.4677734375], [-124.93136, 41.24807, -7629.13134765625], [-124.93548, 41.24273, -6907.28125]]], [[[-124.97468, 41.2975, -2646.627197265625], [-124.97587, 41.30612, -2612.841552734375], [-124.9805, 41.30149, -1894.7705078125], [-124.97468, 41.2975, -2646.627197265625]]], [[[-124.97468, 41.2975, -2646.627197265625], [-124.9805, 41.30149, -1894.7705078125], [-124.97952, 41.29269, -1900.9444580078125], [-124.97468, 41.2975, -2646.627197265625]]], [[[-124.97377, 41.28872, -2652.00146484375], [-124.97952, 41.29269, -1900.9444580078125], [-124.97854, 41.28389, -1915.470703125], [-124.97377, 41.28872, -2652.00146484375]]], [[[-124.97281, 41.2799, -2666.19287109375], [-124.97377, 41.28872, -2652.00146484375], [-124.97854, 41.28389, -1915.470703125], [-124.97281, 41.2799, -2666.19287109375]]], [[[-124.97281, 41.2799, -2666.19287109375], [-124.97854, 41.28389, -1915.470703125], [-124.97757, 41.27509, -1926.9783935546875], [-124.97281, 41.2799, -2666.19287109375]]], [[[-124.96682, 41.27573, -3442.47314453125], [-124.97281, 41.2799, -2666.19287109375], [-124.97184, 41.27091, -2664.964599609375], [-124.96682, 41.27573, -3442.47314453125]]], [[[-124.96571, 41.26681, -3434.130615234375], [-124.96682, 41.27573, -3442.47314453125], [-124.97184, 41.27091, -2664.964599609375], [-124.96571, 41.26681, -3434.130615234375]]], [[[-124.96571, 41.26681, -3434.130615234375], [-124.97184, 41.27091, -2664.964599609375], [-124.97075, 41.26201, -2635.469482421875], [-124.96571, 41.26681, -3434.130615234375]]], [[[-124.97184, 41.27091, -2664.964599609375], [-124.97757, 41.27509, -1926.9783935546875], [-124.97659, 41.26629, -1910.586669921875], [-124.97184, 41.27091, -2664.964599609375]]], [[[-124.96974, 41.25373, -2634.12890625], [-124.97075, 41.26201, -2635.469482421875], [-124.97561, 41.2575, -1878.1800537109375], [-124.96974, 41.25373, -2634.12890625]]], [[[-124.96739, 41.24557, -2631.936767578125], [-124.96974, 41.25373, -2634.12890625], [-124.97393, 41.24879, -1882.1646728515625], [-124.96739, 41.24557, -2631.936767578125]]], [[[-124.96328, 41.25046, -3383.160888671875], [-124.96974, 41.25373, -2634.12890625], [-124.96739, 41.24557, -2631.936767578125], [-124.96328, 41.25046, -3383.160888671875]]], [[[-124.96739, 41.24557, -2631.936767578125], [-124.97393, 41.24879, -1882.1646728515625], [-124.97137, 41.24018, -1910.741455078125], [-124.96739, 41.24557, -2631.936767578125]]], [[[-124.95163, 41.24404, -4731.53955078125], [-124.95696, 41.24712, -4097.35107421875], [-124.95498, 41.23852, -4111.05322265625], [-124.95163, 41.24404, -4731.53955078125]]], [[[-124.95498, 41.23852, -4111.05322265625], [-124.95696, 41.24712, -4097.35107421875], [-124.96102, 41.24214, -3387.672119140625], [-124.95498, 41.23852, -4111.05322265625]]], [[[-124.95498, 41.23852, -4111.05322265625], [-124.96102, 41.24214, -3387.672119140625], [-124.95862, 41.23338, -3406.987548828125], [-124.95498, 41.23852, -4111.05322265625]]], [[[-124.93148, 41.15912, -3397.380615234375], [-124.93381, 41.15344, -2649.949462890625], [-124.92663, 41.152, -3446.593505859375], [-124.93148, 41.15912, -3397.380615234375]]], [[[-124.92424, 41.15769, -4201.85009765625], [-124.93148, 41.15912, -3397.380615234375], [-124.92663, 41.152, -3446.593505859375], [-124.92424, 41.15769, -4201.85009765625]]], [[[-124.91951, 41.14994, -4195.9853515625], [-124.92424, 41.15769, -4201.85009765625], [-124.92663, 41.152, -3446.593505859375], [-124.91951, 41.14994, -4195.9853515625]]], [[[-124.91951, 41.14994, -4195.9853515625], [-124.92663, 41.152, -3446.593505859375], [-124.92155, 41.14374, -3467.17626953125], [-124.91951, 41.14994, -4195.9853515625]]], [[[-124.91187, 41.14706, -4954.24267578125], [-124.90283, 41.14397, -5732.53662109375], [-124.90918, 41.15286, -5734.70751953125], [-124.91187, 41.14706, -4954.24267578125]]], [[[-124.93557, 41.19254, -4833.58056640625], [-124.94146, 41.19552, -4093.580078125], [-124.93983, 41.18738, -4133.2197265625], [-124.93557, 41.19254, -4833.58056640625]]], [[[-124.92577, 41.217, -6985.427734375], [-124.91925, 41.21384, -7741.10009765625], [-124.9221, 41.22245, -7714.53466796875], [-124.92577, 41.217, -6985.427734375]]], [[[-124.92871, 41.22535, -6951.86474609375], [-124.92577, 41.217, -6985.427734375], [-124.9221, 41.22245, -7714.53466796875], [-124.92871, 41.22535, -6951.86474609375]]], [[[-124.92871, 41.22535, -6951.86474609375], [-124.9221, 41.22245, -7714.53466796875], [-124.92548, 41.23093, -7682.81005859375], [-124.92871, 41.22535, -6951.86474609375]]], [[[-124.93232, 41.23376, -6931.384765625], [-124.92871, 41.22535, -6951.86474609375], [-124.92548, 41.23093, -7682.81005859375], [-124.93232, 41.23376, -6931.384765625]]], [[[-124.93232, 41.23376, -6931.384765625], [-124.93556, 41.22817, -6201.8037109375], [-124.92871, 41.22535, -6951.86474609375], [-124.93232, 41.23376, -6931.384765625]]], [[[-124.93909, 41.23704, -6182.31103515625], [-124.93556, 41.22817, -6201.8037109375], [-124.93232, 41.23376, -6931.384765625], [-124.93909, 41.23704, -6182.31103515625]]], [[[-124.93909, 41.23704, -6182.31103515625], [-124.93232, 41.23376, -6931.384765625], [-124.93548, 41.24273, -6907.28125], [-124.93909, 41.23704, -6182.31103515625]]], [[[-124.94174, 41.24611, -6147.8583984375], [-124.93909, 41.23704, -6182.31103515625], [-124.93548, 41.24273, -6907.28125], [-124.94174, 41.24611, -6147.8583984375]]], [[[-124.94174, 41.24611, -6147.8583984375], [-124.93548, 41.24273, -6907.28125], [-124.93765, 41.25145, -6871.73974609375], [-124.94174, 41.24611, -6147.8583984375]]], [[[-124.93377, 41.25674, -7607.4267578125], [-124.94024, 41.26027, -6869.55029296875], [-124.93765, 41.25145, -6871.73974609375], [-124.93377, 41.25674, -7607.4267578125]]], [[[-124.93548, 41.24273, -6907.28125], [-124.93136, 41.24807, -7629.13134765625], [-124.93765, 41.25145, -6871.73974609375], [-124.93548, 41.24273, -6907.28125]]], [[[-124.93232, 41.23376, -6931.384765625], [-124.92891, 41.23941, -7650.4677734375], [-124.93548, 41.24273, -6907.28125], [-124.93232, 41.23376, -6931.384765625]]], [[[-124.93232, 41.23376, -6931.384765625], [-124.92548, 41.23093, -7682.81005859375], [-124.92891, 41.23941, -7650.4677734375], [-124.93232, 41.23376, -6931.384765625]]], [[[-124.93765, 41.25145, -6871.73974609375], [-124.93136, 41.24807, -7629.13134765625], [-124.93377, 41.25674, -7607.4267578125], [-124.93765, 41.25145, -6871.73974609375]]], [[[-124.94024, 41.26027, -6869.55029296875], [-124.93377, 41.25674, -7607.4267578125], [-124.93575, 41.26547, -7589.31103515625], [-124.94024, 41.26027, -6869.55029296875]]], [[[-124.86603, 41.12705, -8273.7021484375], [-124.87288, 41.12586, -7308.6884765625], [-124.86544, 41.11843, -7502.9755859375], [-124.86603, 41.12705, -8273.7021484375]]], [[[-124.90021, 41.11121, -2487.41064453125], [-124.90184, 41.11865, -3019.4287109375], [-124.90897, 41.12188, -2513.650390625], [-124.90021, 41.11121, -2487.41064453125]]], [[[-124.91175, 41.11767, -1697.248291015625], [-124.90021, 41.11121, -2487.41064453125], [-124.90897, 41.12188, -2513.650390625], [-124.91175, 41.11767, -1697.248291015625]]], [[[-124.906, 41.11, -1651.4830322265625], [-124.90021, 41.11121, -2487.41064453125], [-124.91175, 41.11767, -1697.248291015625], [-124.906, 41.11, -1651.4830322265625]]], [[[-124.97728, 41.32019, -2623.137451171875], [-124.983, 41.319, -1804.3060302734375], [-124.98148, 41.31028, -1871.13720703125], [-124.97728, 41.32019, -2623.137451171875]]], [[[-124.97358, 41.3126, -3012.201416015625], [-124.97728, 41.32019, -2623.137451171875], [-124.98148, 41.31028, -1871.13720703125], [-124.97358, 41.3126, -3012.201416015625]]], [[[-124.94868, 41.32611, -6717.2939453125], [-124.95009, 41.31785, -6387.16015625], [-124.94196, 41.31846, -7543.90625], [-124.94868, 41.32611, -6717.2939453125]]], [[[-124.94296, 41.32729, -7536.12548828125], [-124.94868, 41.32611, -6717.2939453125], [-124.94196, 41.31846, -7543.90625], [-124.94296, 41.32729, -7536.12548828125]]]]}}]}