{"type": "FeatureCollection", "features": [{"type": "Feature", "properties": {"name": "AW_NCAL_14", "CFM_ID": 353, "region": "Offshore_CA_MendocinoTripleJunction", "primary_state/province": "CA", "secondary_state/province": null, "avg_dip": 59, "dip_dir": "E", "rake": 90, "slip_sense": "Reverse", "fault_level": 2, "NSHM23_sliprates": null, "QFFDAgeCatBin": null, "QFFDAgeBin": null, "upper_depth": -1.0, "upper_depth_constraint": "bathymetry", "lower_depth": -9.6, "lower_depth_constraint": "Slab2", "3D_model_constraints": "trace extended at constant dip", "reference": "Goldfinger et al. (2023)", "nshm23_id": null, "lineage": null, "usgs_qffd_#": null, "comments": null, "id": "353"}, "geometry": {"type": "MultiPolygon", "coordinates": [[[[-124.7803, 41.1102, -6397.88623046875], [-124.78582, 41.10802, -5502.27392578125], [-124.77755, 41.10237, -5846.21533203125], [-124.7803, 41.1102, -6397.88623046875]]], [[[-124.81219, 41.19776, -8297.49609375], [-124.80857, 41.18862, -8315.576171875], [-124.80531, 41.1941, -9072.0478515625], [-124.81219, 41.19776, -8297.49609375]]], [[[-124.83181, 41.17062, -4076.937744140625], [-124.83593, 41.16859, -3406.869140625], [-124.83179, 41.16105, -3604.329345703125], [-124.83181, 41.17062, -4076.937744140625]]], [[[-124.82583, 41.15638, -4279.81640625], [-124.8187, 41.15855, -5358.4384765625], [-124.82584, 41.16415, -4551.8662109375], [-124.82583, 41.15638, -4279.81640625]]], [[[-124.77475, 41.11187, -7236.76513671875], [-124.7803, 41.1102, -6397.88623046875], [-124.77196, 41.10413, -6705.92578125], [-124.77475, 41.11187, -7236.76513671875]]], [[[-124.81916, 41.1739, -5960.78955078125], [-124.8222, 41.18256, -6119.1201171875], [-124.82749, 41.18056, -5291.77978515625], [-124.81916, 41.1739, -5960.78955078125]]], [[[-124.78812, 41.13613, -7834.27490234375], [-124.78198, 41.1277, -7839.63525390625], [-124.78065, 41.13432, -8597.470703125], [-124.78812, 41.13613, -7834.27490234375]]], [[[-124.76606, 41.10602, -7616.83056640625], [-124.77196, 41.10413, -6705.92578125], [-124.76383, 41.09839, -7058.65869140625], [-124.76606, 41.10602, -7616.83056640625]]], [[[-124.80515, 41.10327, -2703.86572265625], [-124.80918, 41.09963, -1808.9930419921875], [-124.79992, 41.09554, -2428.930908203125], [-124.80515, 41.10327, -2703.86572265625]]], [[[-124.84008, 41.19384, -4324.830078125], [-124.84604, 41.20034, -3851.195068359375], [-124.84567, 41.19132, -3428.215576171875], [-124.84008, 41.19384, -4324.830078125]]], [[[-124.80918, 41.09963, -1808.9930419921875], [-124.80515, 41.10327, -2703.86572265625], [-124.81495, 41.1067, -1852.9852294921875], [-124.80918, 41.09963, -1808.9930419921875]]], [[[-124.84567, 41.19132, -3428.215576171875], [-124.84604, 41.20034, -3851.195068359375], [-124.8517, 41.19856, -2991.715087890625], [-124.84567, 41.19132, -3428.215576171875]]], [[[-124.81152, 41.15591, -6236.39599609375], [-124.80509, 41.15358, -7000.240234375], [-124.80804, 41.16143, -6954.70263671875], [-124.81152, 41.15591, -6236.39599609375]]], [[[-124.78242, 41.11933, -7047.32177734375], [-124.77589, 41.12006, -7920.60986328125], [-124.78198, 41.1277, -7839.63525390625], [-124.78242, 41.11933, -7047.32177734375]]], [[[-124.80918, 41.09963, -1808.9930419921875], [-124.81703, 41.10104, -1065.638916015625], [-124.80972, 41.09368, -1052.098876953125], [-124.80918, 41.09963, -1808.9930419921875]]], [[[-124.79534, 41.15702, -8495.2060546875], [-124.79201, 41.16195, -9191.1142578125], [-124.79846, 41.16421, -8397.78515625], [-124.79534, 41.15702, -8495.2060546875]]], [[[-124.8017, 41.15868, -7711.0556640625], [-124.79534, 41.15702, -8495.2060546875], [-124.79846, 41.16421, -8397.78515625], [-124.8017, 41.15868, -7711.0556640625]]], [[[-124.8205, 41.16694, -5403.01220703125], [-124.81461, 41.16436, -6162.49951171875], [-124.81916, 41.1739, -5960.78955078125], [-124.8205, 41.16694, -5403.01220703125]]], [[[-124.85645, 41.19055, -1943.59716796875], [-124.863, 41.195, -1272.7550048828125], [-124.85954, 41.18622, -1272.637451171875], [-124.85645, 41.19055, -1943.59716796875]]], [[[-124.84202, 41.15779, -2039.720703125], [-124.84842, 41.15995, -1224.666748046875], [-124.84509, 41.15124, -1394.47509765625], [-124.84202, 41.15779, -2039.720703125]]], [[[-124.83443, 41.19562, -5184.64599609375], [-124.83474, 41.2039, -5570.1552734375], [-124.84039, 41.20212, -4710.67529296875], [-124.83443, 41.19562, -5184.64599609375]]], [[[-124.79846, 41.16421, -8397.78515625], [-124.79458, 41.16899, -9170.2373046875], [-124.80067, 41.17239, -8407.6962890625], [-124.79846, 41.16421, -8397.78515625]]], [[[-124.78812, 41.13613, -7834.27490234375], [-124.78065, 41.13432, -8597.470703125], [-124.78655, 41.14246, -8544.49609375], [-124.78812, 41.13613, -7834.27490234375]]], [[[-124.78974, 41.12311, -6467.74267578125], [-124.78242, 41.11933, -7047.32177734375], [-124.78903, 41.1294, -7108.3603515625], [-124.78974, 41.12311, -6467.74267578125]]], [[[-124.82583, 41.15638, -4279.81640625], [-124.82584, 41.16415, -4551.8662109375], [-124.83179, 41.16105, -3604.329345703125], [-124.82583, 41.15638, -4279.81640625]]], [[[-124.79123, 41.15009, -8467.5361328125], [-124.78871, 41.1556, -9221.388671875], [-124.79534, 41.15702, -8495.2060546875], [-124.79123, 41.15009, -8467.5361328125]]], [[[-124.80472, 41.12664, -4915.47314453125], [-124.80071, 41.11945, -4777.23046875], [-124.79578, 41.1221, -5625.70263671875], [-124.80472, 41.12664, -4915.47314453125]]], [[[-124.84534, 41.16556, -1970.1187744140625], [-124.85233, 41.16867, -1229.6805419921875], [-124.84842, 41.15995, -1224.666748046875], [-124.84534, 41.16556, -1970.1187744140625]]], [[[-124.81461, 41.16436, -6162.49951171875], [-124.81117, 41.17005, -6834.60009765625], [-124.81916, 41.1739, -5960.78955078125], [-124.81461, 41.16436, -6162.49951171875]]], [[[-124.8187, 41.15855, -5358.4384765625], [-124.81152, 41.15591, -6236.39599609375], [-124.81461, 41.16436, -6162.49951171875], [-124.8187, 41.15855, -5358.4384765625]]], [[[-124.80509, 41.15358, -7000.240234375], [-124.8017, 41.15868, -7711.0556640625], [-124.80804, 41.16143, -6954.70263671875], [-124.80509, 41.15358, -7000.240234375]]], [[[-124.81723, 41.13808, -4267.34326171875], [-124.81609, 41.14453, -4890.7958984375], [-124.82313, 41.14711, -4217.95751953125], [-124.81723, 41.13808, -4267.34326171875]]], [[[-124.85645, 41.19055, -1943.59716796875], [-124.85735, 41.19678, -2132.235107421875], [-124.863, 41.195, -1272.7550048828125], [-124.85645, 41.19055, -1943.59716796875]]], [[[-124.81117, 41.17005, -6834.60009765625], [-124.80716, 41.17496, -7626.04931640625], [-124.81422, 41.17756, -6838.03173828125], [-124.81117, 41.17005, -6834.60009765625]]], [[[-124.79992, 41.09554, -2428.930908203125], [-124.7974, 41.08777, -1903.7950439453125], [-124.79181, 41.08954, -2762.93896484375], [-124.79992, 41.09554, -2428.930908203125]]], [[[-124.81643, 41.19225, -7458.6923828125], [-124.82314, 41.19918, -6904.2783203125], [-124.82285, 41.19094, -6515.4130859375], [-124.81643, 41.19225, -7458.6923828125]]], [[[-124.83915, 41.17647, -3489.928466796875], [-124.83181, 41.17062, -4076.937744140625], [-124.83354, 41.17906, -4400.0302734375], [-124.83915, 41.17647, -3489.928466796875]]], [[[-124.77475, 41.11187, -7236.76513671875], [-124.76606, 41.10602, -7616.83056640625], [-124.76896, 41.11292, -8031.2783203125], [-124.77475, 41.11187, -7236.76513671875]]], [[[-124.80484, 41.16725, -7649.15283203125], [-124.79846, 41.16421, -8397.78515625], [-124.80067, 41.17239, -8407.6962890625], [-124.80484, 41.16725, -7649.15283203125]]], [[[-124.82879, 41.1974, -6044.46240234375], [-124.83474, 41.2039, -5570.1552734375], [-124.83443, 41.19562, -5184.64599609375], [-124.82879, 41.1974, -6044.46240234375]]], [[[-124.79533, 41.13776, -7067.79345703125], [-124.79356, 41.14404, -7759.47216796875], [-124.80072, 41.14659, -7000.2314453125], [-124.79533, 41.13776, -7067.79345703125]]], [[[-124.8205, 41.16694, -5403.01220703125], [-124.81916, 41.1739, -5960.78955078125], [-124.82642, 41.17278, -4924.66943359375], [-124.8205, 41.16694, -5403.01220703125]]], [[[-124.82681, 41.13553, -2843.392822265625], [-124.83061, 41.13101, -2016.683837890625], [-124.82321, 41.12776, -2724.942138671875], [-124.82681, 41.13553, -2843.392822265625]]], [[[-124.78796, 41.11571, -6025.1884765625], [-124.79578, 41.1221, -5625.70263671875], [-124.79375, 41.11386, -5137.716796875], [-124.78796, 41.11571, -6025.1884765625]]], [[[-124.80804, 41.16143, -6954.70263671875], [-124.8017, 41.15868, -7711.0556640625], [-124.80484, 41.16725, -7649.15283203125], [-124.80804, 41.16143, -6954.70263671875]]], [[[-124.83225, 41.14449, -2862.7119140625], [-124.8385, 41.14882, -2203.635498046875], [-124.83435, 41.1389, -2145.66650390625], [-124.83225, 41.14449, -2862.7119140625]]], [[[-124.7916, 41.10632, -4632.63916015625], [-124.78313, 41.1006, -4986.5048828125], [-124.78582, 41.10802, -5502.27392578125], [-124.7916, 41.10632, -4632.63916015625]]], [[[-124.80983, 41.14261, -5558.29052734375], [-124.81609, 41.14453, -4890.7958984375], [-124.81005, 41.13516, -4972.93310546875], [-124.80983, 41.14261, -5558.29052734375]]], [[[-124.82681, 41.13553, -2843.392822265625], [-124.83435, 41.1389, -2145.66650390625], [-124.83061, 41.13101, -2016.683837890625], [-124.82681, 41.13553, -2843.392822265625]]], [[[-124.78582, 41.10802, -5502.27392578125], [-124.78313, 41.1006, -4986.5048828125], [-124.77755, 41.10237, -5846.21533203125], [-124.78582, 41.10802, -5502.27392578125]]], [[[-124.80983, 41.14261, -5558.29052734375], [-124.80251, 41.14015, -6316.62841796875], [-124.80779, 41.14856, -6257.455078125], [-124.80983, 41.14261, -5558.29052734375]]], [[[-124.81723, 41.13808, -4267.34326171875], [-124.8196, 41.13253, -3547.296875], [-124.8121, 41.12948, -4258.68359375], [-124.81723, 41.13808, -4267.34326171875]]], [[[-124.83855, 41.16347, -2752.125], [-124.83179, 41.16105, -3604.329345703125], [-124.83593, 41.16859, -3406.869140625], [-124.83855, 41.16347, -2752.125]]], [[[-124.8017, 41.15868, -7711.0556640625], [-124.79825, 41.15208, -7738.7861328125], [-124.79534, 41.15702, -8495.2060546875], [-124.8017, 41.15868, -7711.0556640625]]], [[[-124.8385, 41.14882, -2203.635498046875], [-124.84127, 41.14262, -1552.8001708984375], [-124.83435, 41.1389, -2145.66650390625], [-124.8385, 41.14882, -2203.635498046875]]], [[[-124.85645, 41.19055, -1943.59716796875], [-124.85085, 41.18978, -2645.554443359375], [-124.85735, 41.19678, -2132.235107421875], [-124.85645, 41.19055, -1943.59716796875]]], [[[-124.80528, 41.10988, -3343.40869140625], [-124.81266, 41.11176, -2609.56201171875], [-124.80515, 41.10327, -2703.86572265625], [-124.80528, 41.10988, -3343.40869140625]]], [[[-124.81916, 41.1739, -5960.78955078125], [-124.81117, 41.17005, -6834.60009765625], [-124.81422, 41.17756, -6838.03173828125], [-124.81916, 41.1739, -5960.78955078125]]], [[[-124.82584, 41.16415, -4551.8662109375], [-124.83181, 41.17062, -4076.937744140625], [-124.83179, 41.16105, -3604.329345703125], [-124.82584, 41.16415, -4551.8662109375]]], [[[-124.76092, 41.11004, -8653.2109375], [-124.75823, 41.10015, -7917.802734375], [-124.75263, 41.10192, -8776.947265625], [-124.76092, 41.11004, -8653.2109375]]], [[[-124.85645, 41.19055, -1943.59716796875], [-124.85285, 41.18275, -2012.7132568359375], [-124.85085, 41.18978, -2645.554443359375], [-124.85645, 41.19055, -1943.59716796875]]], [[[-124.82458, 41.14127, -3561.25244140625], [-124.82313, 41.14711, -4217.95751953125], [-124.82955, 41.15073, -3521.9716796875], [-124.82458, 41.14127, -3561.25244140625]]], [[[-124.81005, 41.13516, -4972.93310546875], [-124.80147, 41.12898, -5530.15673828125], [-124.80461, 41.13511, -5669.873046875], [-124.81005, 41.13516, -4972.93310546875]]], [[[-124.80716, 41.17496, -7626.04931640625], [-124.80067, 41.17239, -8407.6962890625], [-124.80379, 41.18022, -8387.3701171875], [-124.80716, 41.17496, -7626.04931640625]]], [[[-124.80251, 41.14015, -6316.62841796875], [-124.79533, 41.13776, -7067.79345703125], [-124.80072, 41.14659, -7000.2314453125], [-124.80251, 41.14015, -6316.62841796875]]], [[[-124.85285, 41.18275, -2012.7132568359375], [-124.85645, 41.19055, -1943.59716796875], [-124.85954, 41.18622, -1272.637451171875], [-124.85285, 41.18275, -2012.7132568359375]]], [[[-124.85285, 41.18275, -2012.7132568359375], [-124.85954, 41.18622, -1272.637451171875], [-124.85644, 41.17732, -1266.640625], [-124.85285, 41.18275, -2012.7132568359375]]], [[[-124.78903, 41.1294, -7108.3603515625], [-124.78812, 41.13613, -7834.27490234375], [-124.79533, 41.13776, -7067.79345703125], [-124.78903, 41.1294, -7108.3603515625]]], [[[-124.82642, 41.17278, -4924.66943359375], [-124.82749, 41.18056, -5291.77978515625], [-124.83354, 41.17906, -4400.0302734375], [-124.82642, 41.17278, -4924.66943359375]]], [[[-124.79375, 41.11386, -5137.716796875], [-124.7916, 41.10632, -4632.63916015625], [-124.78582, 41.10802, -5502.27392578125], [-124.79375, 41.11386, -5137.716796875]]], [[[-124.84934, 41.17421, -2006.8416748046875], [-124.85233, 41.16867, -1229.6805419921875], [-124.84534, 41.16556, -1970.1187744140625], [-124.84934, 41.17421, -2006.8416748046875]]], [[[-124.80528, 41.10988, -3343.40869140625], [-124.80993, 41.11712, -3420.227783203125], [-124.81266, 41.11176, -2609.56201171875], [-124.80528, 41.10988, -3343.40869140625]]], [[[-124.83915, 41.17647, -3489.928466796875], [-124.84245, 41.17153, -2715.22314453125], [-124.83593, 41.16859, -3406.869140625], [-124.83915, 41.17647, -3489.928466796875]]], [[[-124.79472, 41.09734, -3244.974609375], [-124.79181, 41.08954, -2762.93896484375], [-124.78621, 41.09131, -3622.0830078125], [-124.79472, 41.09734, -3244.974609375]]], [[[-124.78796, 41.11571, -6025.1884765625], [-124.78582, 41.10802, -5502.27392578125], [-124.7803, 41.1102, -6397.88623046875], [-124.78796, 41.11571, -6025.1884765625]]], [[[-124.80072, 41.14659, -7000.2314453125], [-124.79356, 41.14404, -7759.47216796875], [-124.79825, 41.15208, -7738.7861328125], [-124.80072, 41.14659, -7000.2314453125]]], [[[-124.84934, 41.17421, -2006.8416748046875], [-124.85285, 41.18275, -2012.7132568359375], [-124.85644, 41.17732, -1266.640625], [-124.84934, 41.17421, -2006.8416748046875]]], [[[-124.81152, 41.15591, -6236.39599609375], [-124.80779, 41.14856, -6257.455078125], [-124.80509, 41.15358, -7000.240234375], [-124.81152, 41.15591, -6236.39599609375]]], [[[-124.84202, 41.15779, -2039.720703125], [-124.84534, 41.16556, -1970.1187744140625], [-124.84842, 41.15995, -1224.666748046875], [-124.84202, 41.15779, -2039.720703125]]], [[[-124.82564, 41.12256, -1951.4051513671875], [-124.83061, 41.13101, -2016.683837890625], [-124.83335, 41.12563, -1261.9371337890625], [-124.82564, 41.12256, -1951.4051513671875]]], [[[-124.78796, 41.11571, -6025.1884765625], [-124.7803, 41.1102, -6397.88623046875], [-124.78242, 41.11933, -7047.32177734375], [-124.78796, 41.11571, -6025.1884765625]]], [[[-124.80779, 41.14856, -6257.455078125], [-124.80072, 41.14659, -7000.2314453125], [-124.80509, 41.15358, -7000.240234375], [-124.80779, 41.14856, -6257.455078125]]], [[[-124.78655, 41.14246, -8544.49609375], [-124.77944, 41.14053, -9310.1298828125], [-124.78446, 41.14846, -9261.7998046875], [-124.78655, 41.14246, -8544.49609375]]], [[[-124.84934, 41.17421, -2006.8416748046875], [-124.84604, 41.18099, -2866.261962890625], [-124.85285, 41.18275, -2012.7132568359375], [-124.84934, 41.17421, -2006.8416748046875]]], [[[-124.8178, 41.20111, -7731.9453125], [-124.81777, 41.20924, -8148.59521484375], [-124.82343, 41.20746, -7289.115234375], [-124.8178, 41.20111, -7731.9453125]]], [[[-124.83354, 41.17906, -4400.0302734375], [-124.83411, 41.18731, -4798.95751953125], [-124.84008, 41.18502, -3873.487548828125], [-124.83354, 41.17906, -4400.0302734375]]], [[[-124.82321, 41.12776, -2724.942138671875], [-124.82564, 41.12256, -1951.4051513671875], [-124.81791, 41.11966, -2647.786865234375], [-124.82321, 41.12776, -2724.942138671875]]], [[[-124.81791, 41.11966, -2647.786865234375], [-124.82564, 41.12256, -1951.4051513671875], [-124.82054, 41.11442, -1858.845947265625], [-124.81791, 41.11966, -2647.786865234375]]], [[[-124.83435, 41.1389, -2145.66650390625], [-124.84127, 41.14262, -1552.8001708984375], [-124.83804, 41.13412, -1292.9180908203125], [-124.83435, 41.1389, -2145.66650390625]]], [[[-124.77755, 41.10237, -5846.21533203125], [-124.78313, 41.1006, -4986.5048828125], [-124.77502, 41.09485, -5340.37109375], [-124.77755, 41.10237, -5846.21533203125]]], [[[-124.84245, 41.17153, -2715.22314453125], [-124.84604, 41.18099, -2866.261962890625], [-124.84934, 41.17421, -2006.8416748046875], [-124.84245, 41.17153, -2715.22314453125]]], [[[-124.79356, 41.14404, -7759.47216796875], [-124.78655, 41.14246, -8544.49609375], [-124.79123, 41.15009, -8467.5361328125], [-124.79356, 41.14404, -7759.47216796875]]], [[[-124.81266, 41.11176, -2609.56201171875], [-124.82054, 41.11442, -1858.845947265625], [-124.81495, 41.1067, -1852.9852294921875], [-124.81266, 41.11176, -2609.56201171875]]], [[[-124.81473, 41.15068, -5554.0029296875], [-124.80779, 41.14856, -6257.455078125], [-124.81152, 41.15591, -6236.39599609375], [-124.81473, 41.15068, -5554.0029296875]]], [[[-124.8121, 41.12948, -4258.68359375], [-124.81555, 41.12502, -3425.904296875], [-124.80755, 41.12182, -4130.69384765625], [-124.8121, 41.12948, -4258.68359375]]], [[[-124.81461, 41.16436, -6162.49951171875], [-124.81152, 41.15591, -6236.39599609375], [-124.80804, 41.16143, -6954.70263671875], [-124.81461, 41.16436, -6162.49951171875]]], [[[-124.83061, 41.13101, -2016.683837890625], [-124.83435, 41.1389, -2145.66650390625], [-124.83804, 41.13412, -1292.9180908203125], [-124.83061, 41.13101, -2016.683837890625]]], [[[-124.84245, 41.17153, -2715.22314453125], [-124.84934, 41.17421, -2006.8416748046875], [-124.84534, 41.16556, -1970.1187744140625], [-124.84245, 41.17153, -2715.22314453125]]], [[[-124.83915, 41.17647, -3489.928466796875], [-124.84604, 41.18099, -2866.261962890625], [-124.84245, 41.17153, -2715.22314453125], [-124.83915, 41.17647, -3489.928466796875]]], [[[-124.80993, 41.11712, -3420.227783203125], [-124.81791, 41.11966, -2647.786865234375], [-124.81266, 41.11176, -2609.56201171875], [-124.80993, 41.11712, -3420.227783203125]]], [[[-124.83855, 41.16347, -2752.125], [-124.84202, 41.15779, -2039.720703125], [-124.83562, 41.15489, -2863.341796875], [-124.83855, 41.16347, -2752.125]]], [[[-124.78313, 41.1006, -4986.5048828125], [-124.78062, 41.09308, -4481.22705078125], [-124.77502, 41.09485, -5340.37109375], [-124.78313, 41.1006, -4986.5048828125]]], [[[-124.82879, 41.1974, -6044.46240234375], [-124.82314, 41.19918, -6904.2783203125], [-124.82908, 41.20568, -6429.63525390625], [-124.82879, 41.1974, -6044.46240234375]]], [[[-124.83225, 41.14449, -2862.7119140625], [-124.83562, 41.15489, -2863.341796875], [-124.8385, 41.14882, -2203.635498046875], [-124.83225, 41.14449, -2862.7119140625]]], [[[-124.76853, 41.11891, -8719.5078125], [-124.76126, 41.11776, -9491.3837890625], [-124.76758, 41.12522, -9428.54296875], [-124.76853, 41.11891, -8719.5078125]]], [[[-124.8187, 41.15855, -5358.4384765625], [-124.8205, 41.16694, -5403.01220703125], [-124.82584, 41.16415, -4551.8662109375], [-124.8187, 41.15855, -5358.4384765625]]], [[[-124.83915, 41.17647, -3489.928466796875], [-124.84008, 41.18502, -3873.487548828125], [-124.84604, 41.18099, -2866.261962890625], [-124.83915, 41.17647, -3489.928466796875]]], [[[-124.82458, 41.14127, -3561.25244140625], [-124.82681, 41.13553, -2843.392822265625], [-124.8196, 41.13253, -3547.296875], [-124.82458, 41.14127, -3561.25244140625]]], [[[-124.78903, 41.1294, -7108.3603515625], [-124.78198, 41.1277, -7839.63525390625], [-124.78812, 41.13613, -7834.27490234375], [-124.78903, 41.1294, -7108.3603515625]]], [[[-124.80472, 41.12664, -4915.47314453125], [-124.81005, 41.13516, -4972.93310546875], [-124.8121, 41.12948, -4258.68359375], [-124.80472, 41.12664, -4915.47314453125]]], [[[-124.78655, 41.14246, -8544.49609375], [-124.78446, 41.14846, -9261.7998046875], [-124.79123, 41.15009, -8467.5361328125], [-124.78655, 41.14246, -8544.49609375]]], [[[-124.8121, 41.12948, -4258.68359375], [-124.8196, 41.13253, -3547.296875], [-124.81555, 41.12502, -3425.904296875], [-124.8121, 41.12948, -4258.68359375]]], [[[-124.78065, 41.13432, -8597.470703125], [-124.77944, 41.14053, -9310.1298828125], [-124.78655, 41.14246, -8544.49609375], [-124.78065, 41.13432, -8597.470703125]]], [[[-124.83354, 41.17906, -4400.0302734375], [-124.84008, 41.18502, -3873.487548828125], [-124.83915, 41.17647, -3489.928466796875], [-124.83354, 41.17906, -4400.0302734375]]], [[[-124.78198, 41.1277, -7839.63525390625], [-124.77479, 41.12677, -8655.5126953125], [-124.78065, 41.13432, -8597.470703125], [-124.78198, 41.1277, -7839.63525390625]]], [[[-124.80251, 41.14015, -6316.62841796875], [-124.7967, 41.13117, -6320.99169921875], [-124.79533, 41.13776, -7067.79345703125], [-124.80251, 41.14015, -6316.62841796875]]], [[[-124.76092, 41.11004, -8653.2109375], [-124.76126, 41.11776, -9491.3837890625], [-124.76853, 41.11891, -8719.5078125], [-124.76092, 41.11004, -8653.2109375]]], [[[-124.80993, 41.11712, -3420.227783203125], [-124.80755, 41.12182, -4130.69384765625], [-124.81555, 41.12502, -3425.904296875], [-124.80993, 41.11712, -3420.227783203125]]], [[[-124.78974, 41.12311, -6467.74267578125], [-124.78796, 41.11571, -6025.1884765625], [-124.78242, 41.11933, -7047.32177734375], [-124.78974, 41.12311, -6467.74267578125]]], [[[-124.81096, 41.18307, -7617.6181640625], [-124.80716, 41.17496, -7626.04931640625], [-124.80379, 41.18022, -8387.3701171875], [-124.81096, 41.18307, -7617.6181640625]]], [[[-124.80993, 41.11712, -3420.227783203125], [-124.81555, 41.12502, -3425.904296875], [-124.81791, 41.11966, -2647.786865234375], [-124.80993, 41.11712, -3420.227783203125]]], [[[-124.80716, 41.17496, -7626.04931640625], [-124.80484, 41.16725, -7649.15283203125], [-124.80067, 41.17239, -8407.6962890625], [-124.80716, 41.17496, -7626.04931640625]]], [[[-124.81555, 41.12502, -3425.904296875], [-124.8196, 41.13253, -3547.296875], [-124.82321, 41.12776, -2724.942138671875], [-124.81555, 41.12502, -3425.904296875]]], [[[-124.80857, 41.18862, -8315.576171875], [-124.80095, 41.18587, -9114.859375], [-124.80531, 41.1941, -9072.0478515625], [-124.80857, 41.18862, -8315.576171875]]], [[[-124.82749, 41.18056, -5291.77978515625], [-124.83411, 41.18731, -4798.95751953125], [-124.83354, 41.17906, -4400.0302734375], [-124.82749, 41.18056, -5291.77978515625]]], [[[-124.82749, 41.18056, -5291.77978515625], [-124.82846, 41.18909, -5658.40283203125], [-124.83411, 41.18731, -4798.95751953125], [-124.82749, 41.18056, -5291.77978515625]]], [[[-124.8222, 41.18256, -6119.1201171875], [-124.82846, 41.18909, -5658.40283203125], [-124.82749, 41.18056, -5291.77978515625], [-124.8222, 41.18256, -6119.1201171875]]], [[[-124.83855, 41.16347, -2752.125], [-124.83593, 41.16859, -3406.869140625], [-124.84245, 41.17153, -2715.22314453125], [-124.83855, 41.16347, -2752.125]]], [[[-124.8222, 41.18256, -6119.1201171875], [-124.82285, 41.19094, -6515.4130859375], [-124.82846, 41.18909, -5658.40283203125], [-124.8222, 41.18256, -6119.1201171875]]], [[[-124.83061, 41.13101, -2016.683837890625], [-124.83804, 41.13412, -1292.9180908203125], [-124.83335, 41.12563, -1261.9371337890625], [-124.83061, 41.13101, -2016.683837890625]]], [[[-124.81723, 41.13808, -4267.34326171875], [-124.82458, 41.14127, -3561.25244140625], [-124.8196, 41.13253, -3547.296875], [-124.81723, 41.13808, -4267.34326171875]]], [[[-124.81096, 41.18307, -7617.6181640625], [-124.80379, 41.18022, -8387.3701171875], [-124.80857, 41.18862, -8315.576171875], [-124.81096, 41.18307, -7617.6181640625]]], [[[-124.82285, 41.19094, -6515.4130859375], [-124.8222, 41.18256, -6119.1201171875], [-124.81753, 41.18504, -6900.06982421875], [-124.82285, 41.19094, -6515.4130859375]]], [[[-124.80755, 41.12182, -4130.69384765625], [-124.80048, 41.11277, -4206.279296875], [-124.80071, 41.11945, -4777.23046875], [-124.80755, 41.12182, -4130.69384765625]]], [[[-124.81753, 41.18504, -6900.06982421875], [-124.81643, 41.19225, -7458.6923828125], [-124.82285, 41.19094, -6515.4130859375], [-124.81753, 41.18504, -6900.06982421875]]], [[[-124.81753, 41.18504, -6900.06982421875], [-124.81096, 41.18307, -7617.6181640625], [-124.81643, 41.19225, -7458.6923828125], [-124.81753, 41.18504, -6900.06982421875]]], [[[-124.81117, 41.17005, -6834.60009765625], [-124.80484, 41.16725, -7649.15283203125], [-124.80716, 41.17496, -7626.04931640625], [-124.81117, 41.17005, -6834.60009765625]]], [[[-124.7803, 41.1102, -6397.88623046875], [-124.77755, 41.10237, -5846.21533203125], [-124.77196, 41.10413, -6705.92578125], [-124.7803, 41.1102, -6397.88623046875]]], [[[-124.81461, 41.16436, -6162.49951171875], [-124.80804, 41.16143, -6954.70263671875], [-124.81117, 41.17005, -6834.60009765625], [-124.81461, 41.16436, -6162.49951171875]]], [[[-124.78065, 41.13432, -8597.470703125], [-124.77339, 41.13293, -9370.818359375], [-124.77944, 41.14053, -9310.1298828125], [-124.78065, 41.13432, -8597.470703125]]], [[[-124.81422, 41.17756, -6838.03173828125], [-124.81096, 41.18307, -7617.6181640625], [-124.81753, 41.18504, -6900.06982421875], [-124.81422, 41.17756, -6838.03173828125]]], [[[-124.77589, 41.12006, -7920.60986328125], [-124.76896, 41.11292, -8031.2783203125], [-124.76853, 41.11891, -8719.5078125], [-124.77589, 41.12006, -7920.60986328125]]], [[[-124.78065, 41.13432, -8597.470703125], [-124.77479, 41.12677, -8655.5126953125], [-124.77339, 41.13293, -9370.818359375], [-124.78065, 41.13432, -8597.470703125]]], [[[-124.7967, 41.13117, -6320.99169921875], [-124.78903, 41.1294, -7108.3603515625], [-124.79533, 41.13776, -7067.79345703125], [-124.7967, 41.13117, -6320.99169921875]]], [[[-124.82584, 41.16415, -4551.8662109375], [-124.8205, 41.16694, -5403.01220703125], [-124.82642, 41.17278, -4924.66943359375], [-124.82584, 41.16415, -4551.8662109375]]], [[[-124.8187, 41.15855, -5358.4384765625], [-124.81461, 41.16436, -6162.49951171875], [-124.8205, 41.16694, -5403.01220703125], [-124.8187, 41.15855, -5358.4384765625]]], [[[-124.77589, 41.12006, -7920.60986328125], [-124.76853, 41.11891, -8719.5078125], [-124.77479, 41.12677, -8655.5126953125], [-124.77589, 41.12006, -7920.60986328125]]], [[[-124.81096, 41.18307, -7617.6181640625], [-124.81422, 41.17756, -6838.03173828125], [-124.80716, 41.17496, -7626.04931640625], [-124.81096, 41.18307, -7617.6181640625]]], [[[-124.7967, 41.13117, -6320.99169921875], [-124.80251, 41.14015, -6316.62841796875], [-124.80461, 41.13511, -5669.873046875], [-124.7967, 41.13117, -6320.99169921875]]], [[[-124.81609, 41.14453, -4890.7958984375], [-124.81723, 41.13808, -4267.34326171875], [-124.81005, 41.13516, -4972.93310546875], [-124.81609, 41.14453, -4890.7958984375]]], [[[-124.82285, 41.19094, -6515.4130859375], [-124.82314, 41.19918, -6904.2783203125], [-124.82879, 41.1974, -6044.46240234375], [-124.82285, 41.19094, -6515.4130859375]]], [[[-124.79375, 41.11386, -5137.716796875], [-124.80048, 41.11277, -4206.279296875], [-124.7916, 41.10632, -4632.63916015625], [-124.79375, 41.11386, -5137.716796875]]], [[[-124.80095, 41.18587, -9114.859375], [-124.80379, 41.18022, -8387.3701171875], [-124.79687, 41.17754, -9153.09375], [-124.80095, 41.18587, -9114.859375]]], [[[-124.82458, 41.14127, -3561.25244140625], [-124.81723, 41.13808, -4267.34326171875], [-124.82313, 41.14711, -4217.95751953125], [-124.82458, 41.14127, -3561.25244140625]]], [[[-124.83179, 41.16105, -3604.329345703125], [-124.83855, 41.16347, -2752.125], [-124.83562, 41.15489, -2863.341796875], [-124.83179, 41.16105, -3604.329345703125]]], [[[-124.80484, 41.16725, -7649.15283203125], [-124.8017, 41.15868, -7711.0556640625], [-124.79846, 41.16421, -8397.78515625], [-124.80484, 41.16725, -7649.15283203125]]], [[[-124.80983, 41.14261, -5558.29052734375], [-124.80779, 41.14856, -6257.455078125], [-124.81473, 41.15068, -5554.0029296875], [-124.80983, 41.14261, -5558.29052734375]]], [[[-124.81266, 41.11176, -2609.56201171875], [-124.81791, 41.11966, -2647.786865234375], [-124.82054, 41.11442, -1858.845947265625], [-124.81266, 41.11176, -2609.56201171875]]], [[[-124.81005, 41.13516, -4972.93310546875], [-124.81723, 41.13808, -4267.34326171875], [-124.8121, 41.12948, -4258.68359375], [-124.81005, 41.13516, -4972.93310546875]]], [[[-124.76092, 41.11004, -8653.2109375], [-124.75407, 41.11078, -9564.7099609375], [-124.76126, 41.11776, -9491.3837890625], [-124.76092, 41.11004, -8653.2109375]]], [[[-124.81096, 41.18307, -7617.6181640625], [-124.80857, 41.18862, -8315.576171875], [-124.81643, 41.19225, -7458.6923828125], [-124.81096, 41.18307, -7617.6181640625]]], [[[-124.77589, 41.12006, -7920.60986328125], [-124.77475, 41.11187, -7236.76513671875], [-124.76896, 41.11292, -8031.2783203125], [-124.77589, 41.12006, -7920.60986328125]]], [[[-124.80779, 41.14856, -6257.455078125], [-124.80251, 41.14015, -6316.62841796875], [-124.80072, 41.14659, -7000.2314453125], [-124.80779, 41.14856, -6257.455078125]]], [[[-124.82458, 41.14127, -3561.25244140625], [-124.82955, 41.15073, -3521.9716796875], [-124.83225, 41.14449, -2862.7119140625], [-124.82458, 41.14127, -3561.25244140625]]], [[[-124.81643, 41.19225, -7458.6923828125], [-124.80857, 41.18862, -8315.576171875], [-124.81219, 41.19776, -8297.49609375], [-124.81643, 41.19225, -7458.6923828125]]], [[[-124.81609, 41.14453, -4890.7958984375], [-124.82038, 41.15233, -4857.74853515625], [-124.82313, 41.14711, -4217.95751953125], [-124.81609, 41.14453, -4890.7958984375]]], [[[-124.81473, 41.15068, -5554.0029296875], [-124.81152, 41.15591, -6236.39599609375], [-124.8187, 41.15855, -5358.4384765625], [-124.81473, 41.15068, -5554.0029296875]]], [[[-124.79751, 41.10451, -3734.394287109375], [-124.79472, 41.09734, -3244.974609375], [-124.78872, 41.09884, -4126.79443359375], [-124.79751, 41.10451, -3734.394287109375]]], [[[-124.83225, 41.14449, -2862.7119140625], [-124.83435, 41.1389, -2145.66650390625], [-124.82681, 41.13553, -2843.392822265625], [-124.83225, 41.14449, -2862.7119140625]]], [[[-124.81643, 41.19225, -7458.6923828125], [-124.81219, 41.19776, -8297.49609375], [-124.8178, 41.20111, -7731.9453125], [-124.81643, 41.19225, -7458.6923828125]]], [[[-124.80071, 41.11945, -4777.23046875], [-124.80048, 41.11277, -4206.279296875], [-124.79375, 41.11386, -5137.716796875], [-124.80071, 41.11945, -4777.23046875]]], [[[-124.8178, 41.20111, -7731.9453125], [-124.82314, 41.19918, -6904.2783203125], [-124.81643, 41.19225, -7458.6923828125], [-124.8178, 41.20111, -7731.9453125]]], [[[-124.81916, 41.1739, -5960.78955078125], [-124.81422, 41.17756, -6838.03173828125], [-124.8222, 41.18256, -6119.1201171875], [-124.81916, 41.1739, -5960.78955078125]]], [[[-124.80755, 41.12182, -4130.69384765625], [-124.80993, 41.11712, -3420.227783203125], [-124.80048, 41.11277, -4206.279296875], [-124.80755, 41.12182, -4130.69384765625]]], [[[-124.78242, 41.11933, -7047.32177734375], [-124.7803, 41.1102, -6397.88623046875], [-124.77475, 41.11187, -7236.76513671875], [-124.78242, 41.11933, -7047.32177734375]]], [[[-124.82314, 41.19918, -6904.2783203125], [-124.8178, 41.20111, -7731.9453125], [-124.82343, 41.20746, -7289.115234375], [-124.82314, 41.19918, -6904.2783203125]]], [[[-124.79472, 41.09734, -3244.974609375], [-124.79992, 41.09554, -2428.930908203125], [-124.79181, 41.08954, -2762.93896484375], [-124.79472, 41.09734, -3244.974609375]]], [[[-124.7916, 41.10632, -4632.63916015625], [-124.78872, 41.09884, -4126.79443359375], [-124.78313, 41.1006, -4986.5048828125], [-124.7916, 41.10632, -4632.63916015625]]], [[[-124.80528, 41.10988, -3343.40869140625], [-124.80048, 41.11277, -4206.279296875], [-124.80993, 41.11712, -3420.227783203125], [-124.80528, 41.10988, -3343.40869140625]]], [[[-124.82314, 41.19918, -6904.2783203125], [-124.82343, 41.20746, -7289.115234375], [-124.82908, 41.20568, -6429.63525390625], [-124.82314, 41.19918, -6904.2783203125]]], [[[-124.82681, 41.13553, -2843.392822265625], [-124.82321, 41.12776, -2724.942138671875], [-124.8196, 41.13253, -3547.296875], [-124.82681, 41.13553, -2843.392822265625]]], [[[-124.8385, 41.14882, -2203.635498046875], [-124.84202, 41.15779, -2039.720703125], [-124.84509, 41.15124, -1394.47509765625], [-124.8385, 41.14882, -2203.635498046875]]], [[[-124.79578, 41.1221, -5625.70263671875], [-124.78796, 41.11571, -6025.1884765625], [-124.78974, 41.12311, -6467.74267578125], [-124.79578, 41.1221, -5625.70263671875]]], [[[-124.80472, 41.12664, -4915.47314453125], [-124.8121, 41.12948, -4258.68359375], [-124.80755, 41.12182, -4130.69384765625], [-124.80472, 41.12664, -4915.47314453125]]], [[[-124.80472, 41.12664, -4915.47314453125], [-124.79578, 41.1221, -5625.70263671875], [-124.80147, 41.12898, -5530.15673828125], [-124.80472, 41.12664, -4915.47314453125]]], [[[-124.78242, 41.11933, -7047.32177734375], [-124.77475, 41.11187, -7236.76513671875], [-124.77589, 41.12006, -7920.60986328125], [-124.78242, 41.11933, -7047.32177734375]]], [[[-124.84934, 41.17421, -2006.8416748046875], [-124.85644, 41.17732, -1266.640625], [-124.85233, 41.16867, -1229.6805419921875], [-124.84934, 41.17421, -2006.8416748046875]]], [[[-124.80048, 41.11277, -4206.279296875], [-124.80528, 41.10988, -3343.40869140625], [-124.79751, 41.10451, -3734.394287109375], [-124.80048, 41.11277, -4206.279296875]]], [[[-124.79534, 41.15702, -8495.2060546875], [-124.78871, 41.1556, -9221.388671875], [-124.79201, 41.16195, -9191.1142578125], [-124.79534, 41.15702, -8495.2060546875]]], [[[-124.82285, 41.19094, -6515.4130859375], [-124.82879, 41.1974, -6044.46240234375], [-124.82846, 41.18909, -5658.40283203125], [-124.82285, 41.19094, -6515.4130859375]]], [[[-124.7967, 41.13117, -6320.99169921875], [-124.80461, 41.13511, -5669.873046875], [-124.80147, 41.12898, -5530.15673828125], [-124.7967, 41.13117, -6320.99169921875]]], [[[-124.82846, 41.18909, -5658.40283203125], [-124.82879, 41.1974, -6044.46240234375], [-124.83443, 41.19562, -5184.64599609375], [-124.82846, 41.18909, -5658.40283203125]]], [[[-124.82564, 41.12256, -1951.4051513671875], [-124.82321, 41.12776, -2724.942138671875], [-124.83061, 41.13101, -2016.683837890625], [-124.82564, 41.12256, -1951.4051513671875]]], [[[-124.81005, 41.13516, -4972.93310546875], [-124.80472, 41.12664, -4915.47314453125], [-124.80147, 41.12898, -5530.15673828125], [-124.81005, 41.13516, -4972.93310546875]]], [[[-124.83411, 41.18731, -4798.95751953125], [-124.82846, 41.18909, -5658.40283203125], [-124.83443, 41.19562, -5184.64599609375], [-124.83411, 41.18731, -4798.95751953125]]], [[[-124.83411, 41.18731, -4798.95751953125], [-124.83443, 41.19562, -5184.64599609375], [-124.84008, 41.19384, -4324.830078125], [-124.83411, 41.18731, -4798.95751953125]]], [[[-124.84008, 41.18502, -3873.487548828125], [-124.83411, 41.18731, -4798.95751953125], [-124.84008, 41.19384, -4324.830078125], [-124.84008, 41.18502, -3873.487548828125]]], [[[-124.84008, 41.18502, -3873.487548828125], [-124.84008, 41.19384, -4324.830078125], [-124.84567, 41.19132, -3428.215576171875], [-124.84008, 41.18502, -3873.487548828125]]], [[[-124.83855, 41.16347, -2752.125], [-124.84245, 41.17153, -2715.22314453125], [-124.84534, 41.16556, -1970.1187744140625], [-124.83855, 41.16347, -2752.125]]], [[[-124.84008, 41.18502, -3873.487548828125], [-124.84567, 41.19132, -3428.215576171875], [-124.84604, 41.18099, -2866.261962890625], [-124.84008, 41.18502, -3873.487548828125]]], [[[-124.84604, 41.18099, -2866.261962890625], [-124.84567, 41.19132, -3428.215576171875], [-124.85085, 41.18978, -2645.554443359375], [-124.84604, 41.18099, -2866.261962890625]]], [[[-124.81266, 41.11176, -2609.56201171875], [-124.81495, 41.1067, -1852.9852294921875], [-124.80515, 41.10327, -2703.86572265625], [-124.81266, 41.11176, -2609.56201171875]]], [[[-124.83181, 41.17062, -4076.937744140625], [-124.82584, 41.16415, -4551.8662109375], [-124.82642, 41.17278, -4924.66943359375], [-124.83181, 41.17062, -4076.937744140625]]], [[[-124.82038, 41.15233, -4857.74853515625], [-124.8187, 41.15855, -5358.4384765625], [-124.82583, 41.15638, -4279.81640625], [-124.82038, 41.15233, -4857.74853515625]]], [[[-124.79846, 41.16421, -8397.78515625], [-124.79201, 41.16195, -9191.1142578125], [-124.79458, 41.16899, -9170.2373046875], [-124.79846, 41.16421, -8397.78515625]]], [[[-124.79751, 41.10451, -3734.394287109375], [-124.78872, 41.09884, -4126.79443359375], [-124.7916, 41.10632, -4632.63916015625], [-124.79751, 41.10451, -3734.394287109375]]], [[[-124.84604, 41.18099, -2866.261962890625], [-124.85085, 41.18978, -2645.554443359375], [-124.85285, 41.18275, -2012.7132568359375], [-124.84604, 41.18099, -2866.261962890625]]], [[[-124.78313, 41.1006, -4986.5048828125], [-124.78872, 41.09884, -4126.79443359375], [-124.78062, 41.09308, -4481.22705078125], [-124.78313, 41.1006, -4986.5048828125]]], [[[-124.84567, 41.19132, -3428.215576171875], [-124.8517, 41.19856, -2991.715087890625], [-124.85085, 41.18978, -2645.554443359375], [-124.84567, 41.19132, -3428.215576171875]]], [[[-124.77475, 41.11187, -7236.76513671875], [-124.77196, 41.10413, -6705.92578125], [-124.76606, 41.10602, -7616.83056640625], [-124.77475, 41.11187, -7236.76513671875]]], [[[-124.79123, 41.15009, -8467.5361328125], [-124.78446, 41.14846, -9261.7998046875], [-124.78871, 41.1556, -9221.388671875], [-124.79123, 41.15009, -8467.5361328125]]], [[[-124.79356, 41.14404, -7759.47216796875], [-124.78812, 41.13613, -7834.27490234375], [-124.78655, 41.14246, -8544.49609375], [-124.79356, 41.14404, -7759.47216796875]]], [[[-124.79533, 41.13776, -7067.79345703125], [-124.78812, 41.13613, -7834.27490234375], [-124.79356, 41.14404, -7759.47216796875], [-124.79533, 41.13776, -7067.79345703125]]], [[[-124.82955, 41.15073, -3521.9716796875], [-124.83562, 41.15489, -2863.341796875], [-124.83225, 41.14449, -2862.7119140625], [-124.82955, 41.15073, -3521.9716796875]]], [[[-124.84008, 41.19384, -4324.830078125], [-124.84039, 41.20212, -4710.67529296875], [-124.84604, 41.20034, -3851.195068359375], [-124.84008, 41.19384, -4324.830078125]]], [[[-124.8385, 41.14882, -2203.635498046875], [-124.84509, 41.15124, -1394.47509765625], [-124.84127, 41.14262, -1552.8001708984375], [-124.8385, 41.14882, -2203.635498046875]]], [[[-124.83443, 41.19562, -5184.64599609375], [-124.84039, 41.20212, -4710.67529296875], [-124.84008, 41.19384, -4324.830078125], [-124.83443, 41.19562, -5184.64599609375]]], [[[-124.78198, 41.1277, -7839.63525390625], [-124.77589, 41.12006, -7920.60986328125], [-124.77479, 41.12677, -8655.5126953125], [-124.78198, 41.1277, -7839.63525390625]]], [[[-124.82879, 41.1974, -6044.46240234375], [-124.82908, 41.20568, -6429.63525390625], [-124.83474, 41.2039, -5570.1552734375], [-124.82879, 41.1974, -6044.46240234375]]], [[[-124.85085, 41.18978, -2645.554443359375], [-124.8517, 41.19856, -2991.715087890625], [-124.85735, 41.19678, -2132.235107421875], [-124.85085, 41.18978, -2645.554443359375]]], [[[-124.7967, 41.13117, -6320.99169921875], [-124.78974, 41.12311, -6467.74267578125], [-124.78903, 41.1294, -7108.3603515625], [-124.7967, 41.13117, -6320.99169921875]]], [[[-124.82038, 41.15233, -4857.74853515625], [-124.81609, 41.14453, -4890.7958984375], [-124.81473, 41.15068, -5554.0029296875], [-124.82038, 41.15233, -4857.74853515625]]], [[[-124.81219, 41.19776, -8297.49609375], [-124.80531, 41.1941, -9072.0478515625], [-124.80866, 41.2026, -9040.728515625], [-124.81219, 41.19776, -8297.49609375]]], [[[-124.78796, 41.11571, -6025.1884765625], [-124.79375, 41.11386, -5137.716796875], [-124.78582, 41.10802, -5502.27392578125], [-124.78796, 41.11571, -6025.1884765625]]], [[[-124.82458, 41.14127, -3561.25244140625], [-124.83225, 41.14449, -2862.7119140625], [-124.82681, 41.13553, -2843.392822265625], [-124.82458, 41.14127, -3561.25244140625]]], [[[-124.83181, 41.17062, -4076.937744140625], [-124.82642, 41.17278, -4924.66943359375], [-124.83354, 41.17906, -4400.0302734375], [-124.83181, 41.17062, -4076.937744140625]]], [[[-124.80379, 41.18022, -8387.3701171875], [-124.80095, 41.18587, -9114.859375], [-124.80857, 41.18862, -8315.576171875], [-124.80379, 41.18022, -8387.3701171875]]], [[[-124.81005, 41.13516, -4972.93310546875], [-124.80461, 41.13511, -5669.873046875], [-124.80983, 41.14261, -5558.29052734375], [-124.81005, 41.13516, -4972.93310546875]]], [[[-124.80067, 41.17239, -8407.6962890625], [-124.79687, 41.17754, -9153.09375], [-124.80379, 41.18022, -8387.3701171875], [-124.80067, 41.17239, -8407.6962890625]]], [[[-124.80804, 41.16143, -6954.70263671875], [-124.80484, 41.16725, -7649.15283203125], [-124.81117, 41.17005, -6834.60009765625], [-124.80804, 41.16143, -6954.70263671875]]], [[[-124.78872, 41.09884, -4126.79443359375], [-124.79472, 41.09734, -3244.974609375], [-124.78621, 41.09131, -3622.0830078125], [-124.78872, 41.09884, -4126.79443359375]]], [[[-124.82583, 41.15638, -4279.81640625], [-124.83179, 41.16105, -3604.329345703125], [-124.82955, 41.15073, -3521.9716796875], [-124.82583, 41.15638, -4279.81640625]]], [[[-124.78903, 41.1294, -7108.3603515625], [-124.78242, 41.11933, -7047.32177734375], [-124.78198, 41.1277, -7839.63525390625], [-124.78903, 41.1294, -7108.3603515625]]], [[[-124.80067, 41.17239, -8407.6962890625], [-124.79458, 41.16899, -9170.2373046875], [-124.79687, 41.17754, -9153.09375], [-124.80067, 41.17239, -8407.6962890625]]], [[[-124.80515, 41.10327, -2703.86572265625], [-124.79992, 41.09554, -2428.930908203125], [-124.79472, 41.09734, -3244.974609375], [-124.80515, 41.10327, -2703.86572265625]]], [[[-124.80071, 41.11945, -4777.23046875], [-124.79375, 41.11386, -5137.716796875], [-124.79578, 41.1221, -5625.70263671875], [-124.80071, 41.11945, -4777.23046875]]], [[[-124.78974, 41.12311, -6467.74267578125], [-124.7967, 41.13117, -6320.99169921875], [-124.79578, 41.1221, -5625.70263671875], [-124.78974, 41.12311, -6467.74267578125]]], [[[-124.80147, 41.12898, -5530.15673828125], [-124.79578, 41.1221, -5625.70263671875], [-124.7967, 41.13117, -6320.99169921875], [-124.80147, 41.12898, -5530.15673828125]]], [[[-124.80472, 41.12664, -4915.47314453125], [-124.80755, 41.12182, -4130.69384765625], [-124.80071, 41.11945, -4777.23046875], [-124.80472, 41.12664, -4915.47314453125]]], [[[-124.82955, 41.15073, -3521.9716796875], [-124.83179, 41.16105, -3604.329345703125], [-124.83562, 41.15489, -2863.341796875], [-124.82955, 41.15073, -3521.9716796875]]], [[[-124.81609, 41.14453, -4890.7958984375], [-124.80983, 41.14261, -5558.29052734375], [-124.81473, 41.15068, -5554.0029296875], [-124.81609, 41.14453, -4890.7958984375]]], [[[-124.83181, 41.17062, -4076.937744140625], [-124.83915, 41.17647, -3489.928466796875], [-124.83593, 41.16859, -3406.869140625], [-124.83181, 41.17062, -4076.937744140625]]], [[[-124.8187, 41.15855, -5358.4384765625], [-124.82038, 41.15233, -4857.74853515625], [-124.81473, 41.15068, -5554.0029296875], [-124.8187, 41.15855, -5358.4384765625]]], [[[-124.82564, 41.12256, -1951.4051513671875], [-124.83335, 41.12563, -1261.9371337890625], [-124.82821, 41.11734, -1158.6099853515625], [-124.82564, 41.12256, -1951.4051513671875]]], [[[-124.80461, 41.13511, -5669.873046875], [-124.80251, 41.14015, -6316.62841796875], [-124.80983, 41.14261, -5558.29052734375], [-124.80461, 41.13511, -5669.873046875]]], [[[-124.83855, 41.16347, -2752.125], [-124.84534, 41.16556, -1970.1187744140625], [-124.84202, 41.15779, -2039.720703125], [-124.83855, 41.16347, -2752.125]]], [[[-124.82642, 41.17278, -4924.66943359375], [-124.81916, 41.1739, -5960.78955078125], [-124.82749, 41.18056, -5291.77978515625], [-124.82642, 41.17278, -4924.66943359375]]], [[[-124.79751, 41.10451, -3734.394287109375], [-124.80515, 41.10327, -2703.86572265625], [-124.79472, 41.09734, -3244.974609375], [-124.79751, 41.10451, -3734.394287109375]]], [[[-124.80509, 41.15358, -7000.240234375], [-124.79825, 41.15208, -7738.7861328125], [-124.8017, 41.15868, -7711.0556640625], [-124.80509, 41.15358, -7000.240234375]]], [[[-124.80072, 41.14659, -7000.2314453125], [-124.79825, 41.15208, -7738.7861328125], [-124.80509, 41.15358, -7000.240234375], [-124.80072, 41.14659, -7000.2314453125]]], [[[-124.81422, 41.17756, -6838.03173828125], [-124.81753, 41.18504, -6900.06982421875], [-124.8222, 41.18256, -6119.1201171875], [-124.81422, 41.17756, -6838.03173828125]]], [[[-124.79825, 41.15208, -7738.7861328125], [-124.79356, 41.14404, -7759.47216796875], [-124.79123, 41.15009, -8467.5361328125], [-124.79825, 41.15208, -7738.7861328125]]], [[[-124.79825, 41.15208, -7738.7861328125], [-124.79123, 41.15009, -8467.5361328125], [-124.79534, 41.15702, -8495.2060546875], [-124.79825, 41.15208, -7738.7861328125]]], [[[-124.83562, 41.15489, -2863.341796875], [-124.84202, 41.15779, -2039.720703125], [-124.8385, 41.14882, -2203.635498046875], [-124.83562, 41.15489, -2863.341796875]]], [[[-124.81555, 41.12502, -3425.904296875], [-124.82321, 41.12776, -2724.942138671875], [-124.81791, 41.11966, -2647.786865234375], [-124.81555, 41.12502, -3425.904296875]]], [[[-124.80528, 41.10988, -3343.40869140625], [-124.80515, 41.10327, -2703.86572265625], [-124.79751, 41.10451, -3734.394287109375], [-124.80528, 41.10988, -3343.40869140625]]], [[[-124.80048, 41.11277, -4206.279296875], [-124.79751, 41.10451, -3734.394287109375], [-124.7916, 41.10632, -4632.63916015625], [-124.80048, 41.11277, -4206.279296875]]], [[[-124.78872, 41.09884, -4126.79443359375], [-124.78621, 41.09131, -3622.0830078125], [-124.78062, 41.09308, -4481.22705078125], [-124.78872, 41.09884, -4126.79443359375]]], [[[-124.76853, 41.11891, -8719.5078125], [-124.76758, 41.12522, -9428.54296875], [-124.77479, 41.12677, -8655.5126953125], [-124.76853, 41.11891, -8719.5078125]]], [[[-124.76092, 41.11004, -8653.2109375], [-124.76606, 41.10602, -7616.83056640625], [-124.75823, 41.10015, -7917.802734375], [-124.76092, 41.11004, -8653.2109375]]], [[[-124.76896, 41.11292, -8031.2783203125], [-124.76606, 41.10602, -7616.83056640625], [-124.76092, 41.11004, -8653.2109375], [-124.76896, 41.11292, -8031.2783203125]]], [[[-124.76896, 41.11292, -8031.2783203125], [-124.76092, 41.11004, -8653.2109375], [-124.76853, 41.11891, -8719.5078125], [-124.76896, 41.11292, -8031.2783203125]]], [[[-124.76606, 41.10602, -7616.83056640625], [-124.76383, 41.09839, -7058.65869140625], [-124.75823, 41.10015, -7917.802734375], [-124.76606, 41.10602, -7616.83056640625]]], [[[-124.76383, 41.09839, -7058.65869140625], [-124.77196, 41.10413, -6705.92578125], [-124.76943, 41.09662, -6199.51513671875], [-124.76383, 41.09839, -7058.65869140625]]], [[[-124.77755, 41.10237, -5846.21533203125], [-124.76943, 41.09662, -6199.51513671875], [-124.77196, 41.10413, -6705.92578125], [-124.77755, 41.10237, -5846.21533203125]]], [[[-124.77755, 41.10237, -5846.21533203125], [-124.77502, 41.09485, -5340.37109375], [-124.76943, 41.09662, -6199.51513671875], [-124.77755, 41.10237, -5846.21533203125]]], [[[-124.77479, 41.12677, -8655.5126953125], [-124.76758, 41.12522, -9428.54296875], [-124.77339, 41.13293, -9370.818359375], [-124.77479, 41.12677, -8655.5126953125]]], [[[-124.79992, 41.09554, -2428.930908203125], [-124.80324, 41.09251, -1707.8955078125], [-124.7974, 41.08777, -1903.7950439453125], [-124.79992, 41.09554, -2428.930908203125]]], [[[-124.80324, 41.09251, -1707.8955078125], [-124.79992, 41.09554, -2428.930908203125], [-124.80918, 41.09963, -1808.9930419921875], [-124.80324, 41.09251, -1707.8955078125]]], [[[-124.80918, 41.09963, -1808.9930419921875], [-124.80972, 41.09368, -1052.098876953125], [-124.80324, 41.09251, -1707.8955078125], [-124.80918, 41.09963, -1808.9930419921875]]], [[[-124.81495, 41.1067, -1852.9852294921875], [-124.81703, 41.10104, -1065.638916015625], [-124.80918, 41.09963, -1808.9930419921875], [-124.81495, 41.1067, -1852.9852294921875]]], [[[-124.81495, 41.1067, -1852.9852294921875], [-124.82303, 41.10905, -1076.5953369140625], [-124.81703, 41.10104, -1065.638916015625], [-124.81495, 41.1067, -1852.9852294921875]]], [[[-124.81495, 41.1067, -1852.9852294921875], [-124.82054, 41.11442, -1858.845947265625], [-124.82303, 41.10905, -1076.5953369140625], [-124.81495, 41.1067, -1852.9852294921875]]], [[[-124.82054, 41.11442, -1858.845947265625], [-124.82821, 41.11734, -1158.6099853515625], [-124.82303, 41.10905, -1076.5953369140625], [-124.82054, 41.11442, -1858.845947265625]]], [[[-124.82564, 41.12256, -1951.4051513671875], [-124.82821, 41.11734, -1158.6099853515625], [-124.82054, 41.11442, -1858.845947265625], [-124.82564, 41.12256, -1951.4051513671875]]], [[[-124.80324, 41.09251, -1707.8955078125], [-124.80972, 41.09368, -1052.098876953125], [-124.803, 41.086, -1044.6510009765625], [-124.80324, 41.09251, -1707.8955078125]]], [[[-124.80324, 41.09251, -1707.8955078125], [-124.803, 41.086, -1044.6510009765625], [-124.7974, 41.08777, -1903.7950439453125], [-124.80324, 41.09251, -1707.8955078125]]], [[[-124.82038, 41.15233, -4857.74853515625], [-124.82583, 41.15638, -4279.81640625], [-124.82313, 41.14711, -4217.95751953125], [-124.82038, 41.15233, -4857.74853515625]]], [[[-124.82583, 41.15638, -4279.81640625], [-124.82955, 41.15073, -3521.9716796875], [-124.82313, 41.14711, -4217.95751953125], [-124.82583, 41.15638, -4279.81640625]]], [[[-124.75407, 41.11078, -9564.7099609375], [-124.76092, 41.11004, -8653.2109375], [-124.75263, 41.10192, -8776.947265625], [-124.75407, 41.11078, -9564.7099609375]]], [[[-124.74704, 41.10369, -9636.0908203125], [-124.75407, 41.11078, -9564.7099609375], [-124.75263, 41.10192, -8776.947265625], [-124.74704, 41.10369, -9636.0908203125]]], [[[-124.81777, 41.20924, -8148.59521484375], [-124.80866, 41.2026, -9040.728515625], [-124.81212, 41.21102, -9008.0751953125], [-124.81777, 41.20924, -8148.59521484375]]], [[[-124.81219, 41.19776, -8297.49609375], [-124.80866, 41.2026, -9040.728515625], [-124.81777, 41.20924, -8148.59521484375], [-124.81219, 41.19776, -8297.49609375]]], [[[-124.8178, 41.20111, -7731.9453125], [-124.81219, 41.19776, -8297.49609375], [-124.81777, 41.20924, -8148.59521484375], [-124.8178, 41.20111, -7731.9453125]]]]}}]}