{"type": "FeatureCollection", "features": [{"type": "Feature", "properties": {"name": "AW_NCAL_17", "CFM_ID": 356, "region": "Offshore_CA_MendocinoTripleJunction", "primary_state/province": "CA", "secondary_state/province": null, "avg_dip": 59, "dip_dir": "W", "rake": 90, "slip_sense": "Reverse", "fault_level": 2, "NSHM23_sliprates": null, "QFFDAgeCatBin": null, "QFFDAgeBin": null, "upper_depth": -2.3, "upper_depth_constraint": "bathymetry", "lower_depth": -7.8, "lower_depth_constraint": "Slab2", "3D_model_constraints": "trace extended at constant dip", "reference": "Goldfinger et al. (2023)", "nshm23_id": null, "lineage": null, "usgs_qffd_#": null, "comments": null, "id": "356"}, "geometry": {"type": "MultiPolygon", "coordinates": [[[[-124.90234, 40.80813, -7003.005859375], [-124.90545, 40.81381, -7729.4716796875], [-124.90864, 40.80358, -7699.15283203125], [-124.90234, 40.80813, -7003.005859375]]], [[[-124.85047, 40.73543, -2984.041015625], [-124.85164, 40.72953, -3394.220947265625], [-124.84399, 40.73197, -2274.94677734375], [-124.85047, 40.73543, -2984.041015625]]], [[[-124.90234, 40.80813, -7003.005859375], [-124.899, 40.81725, -7043.16357421875], [-124.90545, 40.81381, -7729.4716796875], [-124.90234, 40.80813, -7003.005859375]]], [[[-124.89652, 40.81162, -6338.708984375], [-124.899, 40.81725, -7043.16357421875], [-124.90234, 40.80813, -7003.005859375], [-124.89652, 40.81162, -6338.708984375]]], [[[-124.85047, 40.73543, -2984.041015625], [-124.84399, 40.73197, -2274.94677734375], [-124.8479, 40.74074, -2312.362548828125], [-124.85047, 40.73543, -2984.041015625]]], [[[-124.89652, 40.81162, -6338.708984375], [-124.89299, 40.81803, -6188.3857421875], [-124.899, 40.81725, -7043.16357421875], [-124.89652, 40.81162, -6338.708984375]]], [[[-124.89652, 40.81162, -6338.708984375], [-124.89171, 40.80995, -5548.2080078125], [-124.89299, 40.81803, -6188.3857421875], [-124.89652, 40.81162, -6338.708984375]]], [[[-124.89792, 40.80409, -6189.27490234375], [-124.89171, 40.80995, -5548.2080078125], [-124.89652, 40.81162, -6338.708984375], [-124.89792, 40.80409, -6189.27490234375]]], [[[-124.86837, 40.82726, -3370.2724609375], [-124.87411, 40.81826, -3434.0673828125], [-124.86713, 40.81961, -2491.970703125], [-124.86837, 40.82726, -3370.2724609375]]], [[[-124.86756, 40.75349, -3946.36279296875], [-124.86198, 40.74474, -3903.7177734375], [-124.86004, 40.75108, -3185.0908203125], [-124.86756, 40.75349, -3946.36279296875]]], [[[-124.89792, 40.80409, -6189.27490234375], [-124.89315, 40.801, -5397.38671875], [-124.89171, 40.80995, -5548.2080078125], [-124.89792, 40.80409, -6189.27490234375]]], [[[-124.8682, 40.7742, -2357.662841796875], [-124.87504, 40.77748, -3095.782958984375], [-124.87121, 40.76861, -3108.233154296875], [-124.8682, 40.7742, -2357.662841796875]]], [[[-124.89397, 40.76879, -6103.849609375], [-124.90102, 40.77074, -6896.75146484375], [-124.89812, 40.76408, -6913.6591796875], [-124.89397, 40.76879, -6103.849609375]]], [[[-124.89315, 40.801, -5397.38671875], [-124.89792, 40.80409, -6189.27490234375], [-124.89894, 40.79598, -6090.220703125], [-124.89315, 40.801, -5397.38671875]]], [[[-124.89372, 40.79229, -5284.36083984375], [-124.89315, 40.801, -5397.38671875], [-124.89894, 40.79598, -6090.220703125], [-124.89372, 40.79229, -5284.36083984375]]], [[[-124.88804, 40.79587, -4550.615234375], [-124.89315, 40.801, -5397.38671875], [-124.89372, 40.79229, -5284.36083984375], [-124.88804, 40.79587, -4550.615234375]]], [[[-124.88804, 40.79587, -4550.615234375], [-124.88808, 40.80349, -4757.33251953125], [-124.89315, 40.801, -5397.38671875], [-124.88804, 40.79587, -4550.615234375]]], [[[-124.88804, 40.79587, -4550.615234375], [-124.88245, 40.80228, -3908.9599609375], [-124.88808, 40.80349, -4757.33251953125], [-124.88804, 40.79587, -4550.615234375]]], [[[-124.88804, 40.79587, -4550.615234375], [-124.88325, 40.79183, -3815.223876953125], [-124.88245, 40.80228, -3908.9599609375], [-124.88804, 40.79587, -4550.615234375]]], [[[-124.88804, 40.79587, -4550.615234375], [-124.88796, 40.78602, -4527.48388671875], [-124.88325, 40.79183, -3815.223876953125], [-124.88804, 40.79587, -4550.615234375]]], [[[-124.88796, 40.78602, -4527.48388671875], [-124.88804, 40.79587, -4550.615234375], [-124.89372, 40.79229, -5284.36083984375], [-124.88796, 40.78602, -4527.48388671875]]], [[[-124.88729, 40.76585, -5404.212890625], [-124.89397, 40.76879, -6103.849609375], [-124.8908, 40.76145, -6193.02490234375], [-124.88729, 40.76585, -5404.212890625]]], [[[-124.88796, 40.78602, -4527.48388671875], [-124.89372, 40.79229, -5284.36083984375], [-124.89379, 40.78516, -5336.20556640625], [-124.88796, 40.78602, -4527.48388671875]]], [[[-124.88796, 40.78602, -4527.48388671875], [-124.89379, 40.78516, -5336.20556640625], [-124.89202, 40.77898, -5282.6904296875], [-124.88796, 40.78602, -4527.48388671875]]], [[[-124.88796, 40.78602, -4527.48388671875], [-124.89202, 40.77898, -5282.6904296875], [-124.88517, 40.77586, -4515.42333984375], [-124.88796, 40.78602, -4527.48388671875]]], [[[-124.88517, 40.77586, -4515.42333984375], [-124.88145, 40.76615, -4610.4140625], [-124.87828, 40.77181, -3832.42822265625], [-124.88517, 40.77586, -4515.42333984375]]], [[[-124.88796, 40.78602, -4527.48388671875], [-124.88517, 40.77586, -4515.42333984375], [-124.88184, 40.78144, -3796.431640625], [-124.88796, 40.78602, -4527.48388671875]]], [[[-124.88294, 40.75901, -5411.6767578125], [-124.88145, 40.76615, -4610.4140625], [-124.88729, 40.76585, -5404.212890625], [-124.88294, 40.75901, -5411.6767578125]]], [[[-124.88796, 40.78602, -4527.48388671875], [-124.88184, 40.78144, -3796.431640625], [-124.88325, 40.79183, -3815.223876953125], [-124.88796, 40.78602, -4527.48388671875]]], [[[-124.88325, 40.79183, -3815.223876953125], [-124.88184, 40.78144, -3796.431640625], [-124.87759, 40.78712, -3100.595703125], [-124.88325, 40.79183, -3815.223876953125]]], [[[-124.90476, 40.78418, -6852.8935546875], [-124.9082, 40.788, -7692.83203125], [-124.90797, 40.78022, -7689.671875], [-124.90476, 40.78418, -6852.8935546875]]], [[[-124.88325, 40.79183, -3815.223876953125], [-124.87759, 40.78712, -3100.595703125], [-124.87772, 40.79697, -3130.552001953125], [-124.88325, 40.79183, -3815.223876953125]]], [[[-124.8988, 40.78092, -6094.7509765625], [-124.89664, 40.77481, -6092.99169921875], [-124.89202, 40.77898, -5282.6904296875], [-124.8988, 40.78092, -6094.7509765625]]], [[[-124.87772, 40.79697, -3130.552001953125], [-124.88245, 40.80228, -3908.9599609375], [-124.88325, 40.79183, -3815.223876953125], [-124.87772, 40.79697, -3130.552001953125]]], [[[-124.88729, 40.76585, -5404.212890625], [-124.88944, 40.77248, -5265.33837890625], [-124.89397, 40.76879, -6103.849609375], [-124.88729, 40.76585, -5404.212890625]]], [[[-124.88245, 40.80228, -3908.9599609375], [-124.87772, 40.79697, -3130.552001953125], [-124.87609, 40.80697, -3179.94287109375], [-124.88245, 40.80228, -3908.9599609375]]], [[[-124.88294, 40.75901, -5411.6767578125], [-124.8908, 40.76145, -6193.02490234375], [-124.88543, 40.75374, -6210.23046875], [-124.88294, 40.75901, -5411.6767578125]]], [[[-124.87947, 40.81172, -3865.096923828125], [-124.88245, 40.80228, -3908.9599609375], [-124.87609, 40.80697, -3179.94287109375], [-124.87947, 40.81172, -3865.096923828125]]], [[[-124.87947, 40.81172, -3865.096923828125], [-124.88544, 40.81077, -4681.44677734375], [-124.88245, 40.80228, -3908.9599609375], [-124.87947, 40.81172, -3865.096923828125]]], [[[-124.88544, 40.81077, -4681.44677734375], [-124.87947, 40.81172, -3865.096923828125], [-124.88067, 40.81889, -4458.84130859375], [-124.88544, 40.81077, -4681.44677734375]]], [[[-124.89792, 40.80409, -6189.27490234375], [-124.89652, 40.81162, -6338.708984375], [-124.90234, 40.80813, -7003.005859375], [-124.89792, 40.80409, -6189.27490234375]]], [[[-124.88544, 40.81077, -4681.44677734375], [-124.88067, 40.81889, -4458.84130859375], [-124.88712, 40.81817, -5353.048828125], [-124.88544, 40.81077, -4681.44677734375]]], [[[-124.8988, 40.78092, -6094.7509765625], [-124.89379, 40.78516, -5336.20556640625], [-124.8995, 40.78815, -6077.8759765625], [-124.8988, 40.78092, -6094.7509765625]]], [[[-124.89171, 40.80995, -5548.2080078125], [-124.88544, 40.81077, -4681.44677734375], [-124.88712, 40.81817, -5353.048828125], [-124.89171, 40.80995, -5548.2080078125]]], [[[-124.88808, 40.80349, -4757.33251953125], [-124.88544, 40.81077, -4681.44677734375], [-124.89171, 40.80995, -5548.2080078125], [-124.88808, 40.80349, -4757.33251953125]]], [[[-124.90102, 40.77074, -6896.75146484375], [-124.90337, 40.77686, -6893.185546875], [-124.90775, 40.77243, -7686.51171875], [-124.90102, 40.77074, -6896.75146484375]]], [[[-124.88808, 40.80349, -4757.33251953125], [-124.88245, 40.80228, -3908.9599609375], [-124.88544, 40.81077, -4681.44677734375], [-124.88808, 40.80349, -4757.33251953125]]], [[[-124.89894, 40.79598, -6090.220703125], [-124.9039, 40.79971, -6897.671875], [-124.90473, 40.79197, -6857.02685546875], [-124.89894, 40.79598, -6090.220703125]]], [[[-124.88808, 40.80349, -4757.33251953125], [-124.89171, 40.80995, -5548.2080078125], [-124.89315, 40.801, -5397.38671875], [-124.88808, 40.80349, -4757.33251953125]]], [[[-124.89171, 40.80995, -5548.2080078125], [-124.88712, 40.81817, -5353.048828125], [-124.89299, 40.81803, -6188.3857421875], [-124.89171, 40.80995, -5548.2080078125]]], [[[-124.88712, 40.81817, -5353.048828125], [-124.88748, 40.82502, -6013.7451171875], [-124.89299, 40.81803, -6188.3857421875], [-124.88712, 40.81817, -5353.048828125]]], [[[-124.841, 40.723, -2267.798095703125], [-124.84399, 40.73197, -2274.94677734375], [-124.84672, 40.72233, -3063.39990234375], [-124.841, 40.723, -2267.798095703125]]], [[[-124.90473, 40.79197, -6857.02685546875], [-124.9039, 40.79971, -6897.671875], [-124.90842, 40.79579, -7695.99267578125], [-124.90473, 40.79197, -6857.02685546875]]], [[[-124.88712, 40.81817, -5353.048828125], [-124.88111, 40.82577, -5132.5869140625], [-124.88748, 40.82502, -6013.7451171875], [-124.88712, 40.81817, -5353.048828125]]], [[[-124.86338, 40.72837, -5022.37060546875], [-124.85815, 40.72099, -4654.607421875], [-124.85761, 40.72905, -4217.8896484375], [-124.86338, 40.72837, -5022.37060546875]]], [[[-124.88712, 40.81817, -5353.048828125], [-124.88067, 40.81889, -4458.84130859375], [-124.88111, 40.82577, -5132.5869140625], [-124.88712, 40.81817, -5353.048828125]]], [[[-124.88944, 40.77248, -5265.33837890625], [-124.89202, 40.77898, -5282.6904296875], [-124.89664, 40.77481, -6092.99169921875], [-124.88944, 40.77248, -5265.33837890625]]], [[[-124.88067, 40.81889, -4458.84130859375], [-124.87474, 40.82651, -4251.427734375], [-124.88111, 40.82577, -5132.5869140625], [-124.88067, 40.81889, -4458.84130859375]]], [[[-124.89379, 40.78516, -5336.20556640625], [-124.8988, 40.78092, -6094.7509765625], [-124.89202, 40.77898, -5282.6904296875], [-124.89379, 40.78516, -5336.20556640625]]], [[[-124.88067, 40.81889, -4458.84130859375], [-124.87411, 40.81826, -3434.0673828125], [-124.87474, 40.82651, -4251.427734375], [-124.88067, 40.81889, -4458.84130859375]]], [[[-124.84399, 40.73197, -2274.94677734375], [-124.85164, 40.72953, -3394.220947265625], [-124.84672, 40.72233, -3063.39990234375], [-124.84399, 40.73197, -2274.94677734375]]], [[[-124.87947, 40.81172, -3865.096923828125], [-124.87411, 40.81826, -3434.0673828125], [-124.88067, 40.81889, -4458.84130859375], [-124.87947, 40.81172, -3865.096923828125]]], [[[-124.87411, 40.81826, -3434.0673828125], [-124.87947, 40.81172, -3865.096923828125], [-124.87609, 40.80697, -3179.94287109375], [-124.87411, 40.81826, -3434.0673828125]]], [[[-124.8988, 40.78092, -6094.7509765625], [-124.90337, 40.77686, -6893.185546875], [-124.89664, 40.77481, -6092.99169921875], [-124.8988, 40.78092, -6094.7509765625]]], [[[-124.87609, 40.80697, -3179.94287109375], [-124.87008, 40.81063, -2445.013427734375], [-124.87411, 40.81826, -3434.0673828125], [-124.87609, 40.80697, -3179.94287109375]]], [[[-124.87008, 40.81063, -2445.013427734375], [-124.87609, 40.80697, -3179.94287109375], [-124.87203, 40.8015, -2404.6025390625], [-124.87008, 40.81063, -2445.013427734375]]], [[[-124.87772, 40.79697, -3130.552001953125], [-124.87203, 40.8015, -2404.6025390625], [-124.87609, 40.80697, -3179.94287109375], [-124.87772, 40.79697, -3130.552001953125]]], [[[-124.90473, 40.79197, -6857.02685546875], [-124.9082, 40.788, -7692.83203125], [-124.90476, 40.78418, -6852.8935546875], [-124.90473, 40.79197, -6857.02685546875]]], [[[-124.87772, 40.79697, -3130.552001953125], [-124.87284, 40.79228, -2375.281982421875], [-124.87203, 40.8015, -2404.6025390625], [-124.87772, 40.79697, -3130.552001953125]]], [[[-124.87759, 40.78712, -3100.595703125], [-124.87284, 40.79228, -2375.281982421875], [-124.87772, 40.79697, -3130.552001953125], [-124.87759, 40.78712, -3100.595703125]]], [[[-124.87759, 40.78712, -3100.595703125], [-124.87154, 40.7831, -2358.90185546875], [-124.87284, 40.79228, -2375.281982421875], [-124.87759, 40.78712, -3100.595703125]]], [[[-124.87759, 40.78712, -3100.595703125], [-124.87504, 40.77748, -3095.782958984375], [-124.87154, 40.7831, -2358.90185546875], [-124.87759, 40.78712, -3100.595703125]]], [[[-124.87504, 40.77748, -3095.782958984375], [-124.87759, 40.78712, -3100.595703125], [-124.88184, 40.78144, -3796.431640625], [-124.87504, 40.77748, -3095.782958984375]]], [[[-124.88944, 40.77248, -5265.33837890625], [-124.89664, 40.77481, -6092.99169921875], [-124.89397, 40.76879, -6103.849609375], [-124.88944, 40.77248, -5265.33837890625]]], [[[-124.87828, 40.77181, -3832.42822265625], [-124.87504, 40.77748, -3095.782958984375], [-124.88184, 40.78144, -3796.431640625], [-124.87828, 40.77181, -3832.42822265625]]], [[[-124.87828, 40.77181, -3832.42822265625], [-124.87121, 40.76861, -3108.233154296875], [-124.87504, 40.77748, -3095.782958984375], [-124.87828, 40.77181, -3832.42822265625]]], [[[-124.88517, 40.77586, -4515.42333984375], [-124.87828, 40.77181, -3832.42822265625], [-124.88184, 40.78144, -3796.431640625], [-124.88517, 40.77586, -4515.42333984375]]], [[[-124.87828, 40.77181, -3832.42822265625], [-124.87364, 40.76285, -3886.38330078125], [-124.87121, 40.76861, -3108.233154296875], [-124.87828, 40.77181, -3832.42822265625]]], [[[-124.90473, 40.79197, -6857.02685546875], [-124.90842, 40.79579, -7695.99267578125], [-124.9082, 40.788, -7692.83203125], [-124.90473, 40.79197, -6857.02685546875]]], [[[-124.88145, 40.76615, -4610.4140625], [-124.87364, 40.76285, -3886.38330078125], [-124.87828, 40.77181, -3832.42822265625], [-124.88145, 40.76615, -4610.4140625]]], [[[-124.89372, 40.79229, -5284.36083984375], [-124.8995, 40.78815, -6077.8759765625], [-124.89379, 40.78516, -5336.20556640625], [-124.89372, 40.79229, -5284.36083984375]]], [[[-124.87512, 40.75643, -4647.5029296875], [-124.87364, 40.76285, -3886.38330078125], [-124.88145, 40.76615, -4610.4140625], [-124.87512, 40.75643, -4647.5029296875]]], [[[-124.85761, 40.72905, -4217.8896484375], [-124.85815, 40.72099, -4654.607421875], [-124.85243, 40.72166, -3859.005859375], [-124.85761, 40.72905, -4217.8896484375]]], [[[-124.87364, 40.76285, -3886.38330078125], [-124.87512, 40.75643, -4647.5029296875], [-124.86756, 40.75349, -3946.36279296875], [-124.87364, 40.76285, -3886.38330078125]]], [[[-124.87537, 40.72687, -6694.0712890625], [-124.88026, 40.73241, -7084.7607421875], [-124.88369, 40.72688, -7819.9736328125], [-124.87537, 40.72687, -6694.0712890625]]], [[[-124.87364, 40.76285, -3886.38330078125], [-124.86756, 40.75349, -3946.36279296875], [-124.8662, 40.75998, -3178.873779296875], [-124.87364, 40.76285, -3886.38330078125]]], [[[-124.87364, 40.76285, -3886.38330078125], [-124.8662, 40.75998, -3178.873779296875], [-124.87121, 40.76861, -3108.233154296875], [-124.87364, 40.76285, -3886.38330078125]]], [[[-124.8662, 40.75998, -3178.873779296875], [-124.86406, 40.76551, -2391.46728515625], [-124.87121, 40.76861, -3108.233154296875], [-124.8662, 40.75998, -3178.873779296875]]], [[[-124.8662, 40.75998, -3178.873779296875], [-124.8587, 40.75724, -2469.768310546875], [-124.86406, 40.76551, -2391.46728515625], [-124.8662, 40.75998, -3178.873779296875]]], [[[-124.86004, 40.75108, -3185.0908203125], [-124.8587, 40.75724, -2469.768310546875], [-124.8662, 40.75998, -3178.873779296875], [-124.86004, 40.75108, -3185.0908203125]]], [[[-124.86004, 40.75108, -3185.0908203125], [-124.85286, 40.74914, -2414.441162109375], [-124.8587, 40.75724, -2469.768310546875], [-124.86004, 40.75108, -3185.0908203125]]], [[[-124.86004, 40.75108, -3185.0908203125], [-124.85488, 40.74282, -3100.290283203125], [-124.85286, 40.74914, -2414.441162109375], [-124.86004, 40.75108, -3185.0908203125]]], [[[-124.88357, 40.74047, -7016.75390625], [-124.89095, 40.7436, -7781.03515625], [-124.88703, 40.73531, -7802.35693359375], [-124.88357, 40.74047, -7016.75390625]]], [[[-124.86198, 40.74474, -3903.7177734375], [-124.85488, 40.74282, -3100.290283203125], [-124.86004, 40.75108, -3185.0908203125], [-124.86198, 40.74474, -3903.7177734375]]], [[[-124.88831, 40.74889, -7016.42919921875], [-124.89574, 40.75126, -7753.74755859375], [-124.89095, 40.7436, -7781.03515625], [-124.88831, 40.74889, -7016.42919921875]]], [[[-124.86198, 40.74474, -3903.7177734375], [-124.85722, 40.7367, -3795.086669921875], [-124.85488, 40.74282, -3100.290283203125], [-124.86198, 40.74474, -3903.7177734375]]], [[[-124.87537, 40.72687, -6694.0712890625], [-124.8753, 40.71899, -7041.42138671875], [-124.86958, 40.71966, -6245.8154296875], [-124.87537, 40.72687, -6694.0712890625]]], [[[-124.85722, 40.7367, -3795.086669921875], [-124.86198, 40.74474, -3903.7177734375], [-124.86312, 40.73689, -4561.66162109375], [-124.85722, 40.7367, -3795.086669921875]]], [[[-124.86312, 40.73689, -4561.66162109375], [-124.85761, 40.72905, -4217.8896484375], [-124.85722, 40.7367, -3795.086669921875], [-124.86312, 40.73689, -4561.66162109375]]], [[[-124.86918, 40.72783, -5823.55224609375], [-124.86869, 40.73591, -5354.86474609375], [-124.87533, 40.73575, -6238.79736328125], [-124.86918, 40.72783, -5823.55224609375]]], [[[-124.86312, 40.73689, -4561.66162109375], [-124.86338, 40.72837, -5022.37060546875], [-124.85761, 40.72905, -4217.8896484375], [-124.86312, 40.73689, -4561.66162109375]]], [[[-124.86312, 40.73689, -4561.66162109375], [-124.86869, 40.73591, -5354.86474609375], [-124.86338, 40.72837, -5022.37060546875], [-124.86312, 40.73689, -4561.66162109375]]], [[[-124.8753, 40.71899, -7041.42138671875], [-124.88369, 40.72688, -7819.9736328125], [-124.88102, 40.71832, -7837.02294921875], [-124.8753, 40.71899, -7041.42138671875]]], [[[-124.86312, 40.73689, -4561.66162109375], [-124.86907, 40.74574, -4760.732421875], [-124.86869, 40.73591, -5354.86474609375], [-124.86312, 40.73689, -4561.66162109375]]], [[[-124.86907, 40.74574, -4760.732421875], [-124.86312, 40.73689, -4561.66162109375], [-124.86198, 40.74474, -3903.7177734375], [-124.86907, 40.74574, -4760.732421875]]], [[[-124.89291, 40.75627, -6945.7880859375], [-124.89812, 40.76408, -6913.6591796875], [-124.89975, 40.75723, -7730.63134765625], [-124.89291, 40.75627, -6945.7880859375]]], [[[-124.86756, 40.75349, -3946.36279296875], [-124.86907, 40.74574, -4760.732421875], [-124.86198, 40.74474, -3903.7177734375], [-124.86756, 40.75349, -3946.36279296875]]], [[[-124.87512, 40.75643, -4647.5029296875], [-124.86907, 40.74574, -4760.732421875], [-124.86756, 40.75349, -3946.36279296875], [-124.87512, 40.75643, -4647.5029296875]]], [[[-124.87512, 40.75643, -4647.5029296875], [-124.87754, 40.75089, -5458.982421875], [-124.86907, 40.74574, -4760.732421875], [-124.87512, 40.75643, -4647.5029296875]]], [[[-124.87537, 40.72687, -6694.0712890625], [-124.88369, 40.72688, -7819.9736328125], [-124.8753, 40.71899, -7041.42138671875], [-124.87537, 40.72687, -6694.0712890625]]], [[[-124.88294, 40.75901, -5411.6767578125], [-124.87754, 40.75089, -5458.982421875], [-124.87512, 40.75643, -4647.5029296875], [-124.88294, 40.75901, -5411.6767578125]]], [[[-124.87754, 40.75089, -5458.982421875], [-124.88294, 40.75901, -5411.6767578125], [-124.88543, 40.75374, -6210.23046875], [-124.87754, 40.75089, -5458.982421875]]], [[[-124.88831, 40.74889, -7016.42919921875], [-124.89291, 40.75627, -6945.7880859375], [-124.89574, 40.75126, -7753.74755859375], [-124.88831, 40.74889, -7016.42919921875]]], [[[-124.87754, 40.75089, -5458.982421875], [-124.88543, 40.75374, -6210.23046875], [-124.88062, 40.74556, -6289.5966796875], [-124.87754, 40.75089, -5458.982421875]]], [[[-124.87388, 40.74259, -5608.18798828125], [-124.87754, 40.75089, -5458.982421875], [-124.88062, 40.74556, -6289.5966796875], [-124.87388, 40.74259, -5608.18798828125]]], [[[-124.86338, 40.72837, -5022.37060546875], [-124.86387, 40.72033, -5450.21337890625], [-124.85815, 40.72099, -4654.607421875], [-124.86338, 40.72837, -5022.37060546875]]], [[[-124.87388, 40.74259, -5608.18798828125], [-124.86907, 40.74574, -4760.732421875], [-124.87754, 40.75089, -5458.982421875], [-124.87388, 40.74259, -5608.18798828125]]], [[[-124.87388, 40.74259, -5608.18798828125], [-124.86869, 40.73591, -5354.86474609375], [-124.86907, 40.74574, -4760.732421875], [-124.87388, 40.74259, -5608.18798828125]]], [[[-124.87388, 40.74259, -5608.18798828125], [-124.87533, 40.73575, -6238.79736328125], [-124.86869, 40.73591, -5354.86474609375], [-124.87388, 40.74259, -5608.18798828125]]], [[[-124.87388, 40.74259, -5608.18798828125], [-124.88062, 40.74556, -6289.5966796875], [-124.87533, 40.73575, -6238.79736328125], [-124.87388, 40.74259, -5608.18798828125]]], [[[-124.88062, 40.74556, -6289.5966796875], [-124.88357, 40.74047, -7016.75390625], [-124.87533, 40.73575, -6238.79736328125], [-124.88062, 40.74556, -6289.5966796875]]], [[[-124.88062, 40.74556, -6289.5966796875], [-124.88831, 40.74889, -7016.42919921875], [-124.88357, 40.74047, -7016.75390625], [-124.88062, 40.74556, -6289.5966796875]]], [[[-124.86869, 40.73591, -5354.86474609375], [-124.86918, 40.72783, -5823.55224609375], [-124.86338, 40.72837, -5022.37060546875], [-124.86869, 40.73591, -5354.86474609375]]], [[[-124.88543, 40.75374, -6210.23046875], [-124.88831, 40.74889, -7016.42919921875], [-124.88062, 40.74556, -6289.5966796875], [-124.88543, 40.75374, -6210.23046875]]], [[[-124.899, 40.81725, -7043.16357421875], [-124.89384, 40.82427, -6894.89990234375], [-124.90021, 40.82353, -7776.05908203125], [-124.899, 40.81725, -7043.16357421875]]], [[[-124.88543, 40.75374, -6210.23046875], [-124.89291, 40.75627, -6945.7880859375], [-124.88831, 40.74889, -7016.42919921875], [-124.88543, 40.75374, -6210.23046875]]], [[[-124.88026, 40.73241, -7084.7607421875], [-124.88357, 40.74047, -7016.75390625], [-124.88703, 40.73531, -7802.35693359375], [-124.88026, 40.73241, -7084.7607421875]]], [[[-124.8908, 40.76145, -6193.02490234375], [-124.89291, 40.75627, -6945.7880859375], [-124.88543, 40.75374, -6210.23046875], [-124.8908, 40.76145, -6193.02490234375]]], [[[-124.8908, 40.76145, -6193.02490234375], [-124.89812, 40.76408, -6913.6591796875], [-124.89291, 40.75627, -6945.7880859375], [-124.8908, 40.76145, -6193.02490234375]]], [[[-124.86918, 40.72783, -5823.55224609375], [-124.86387, 40.72033, -5450.21337890625], [-124.86338, 40.72837, -5022.37060546875], [-124.86918, 40.72783, -5823.55224609375]]], [[[-124.89397, 40.76879, -6103.849609375], [-124.89812, 40.76408, -6913.6591796875], [-124.8908, 40.76145, -6193.02490234375], [-124.89397, 40.76879, -6103.849609375]]], [[[-124.89664, 40.77481, -6092.99169921875], [-124.90102, 40.77074, -6896.75146484375], [-124.89397, 40.76879, -6103.849609375], [-124.89664, 40.77481, -6092.99169921875]]], [[[-124.89664, 40.77481, -6092.99169921875], [-124.90337, 40.77686, -6893.185546875], [-124.90102, 40.77074, -6896.75146484375], [-124.89664, 40.77481, -6092.99169921875]]], [[[-124.8988, 40.78092, -6094.7509765625], [-124.90476, 40.78418, -6852.8935546875], [-124.90337, 40.77686, -6893.185546875], [-124.8988, 40.78092, -6094.7509765625]]], [[[-124.8988, 40.78092, -6094.7509765625], [-124.8995, 40.78815, -6077.8759765625], [-124.90476, 40.78418, -6852.8935546875], [-124.8988, 40.78092, -6094.7509765625]]], [[[-124.88944, 40.77248, -5265.33837890625], [-124.88517, 40.77586, -4515.42333984375], [-124.89202, 40.77898, -5282.6904296875], [-124.88944, 40.77248, -5265.33837890625]]], [[[-124.88145, 40.76615, -4610.4140625], [-124.88517, 40.77586, -4515.42333984375], [-124.88944, 40.77248, -5265.33837890625], [-124.88145, 40.76615, -4610.4140625]]], [[[-124.88944, 40.77248, -5265.33837890625], [-124.88729, 40.76585, -5404.212890625], [-124.88145, 40.76615, -4610.4140625], [-124.88944, 40.77248, -5265.33837890625]]], [[[-124.88294, 40.75901, -5411.6767578125], [-124.88729, 40.76585, -5404.212890625], [-124.8908, 40.76145, -6193.02490234375], [-124.88294, 40.75901, -5411.6767578125]]], [[[-124.88294, 40.75901, -5411.6767578125], [-124.87512, 40.75643, -4647.5029296875], [-124.88145, 40.76615, -4610.4140625], [-124.88294, 40.75901, -5411.6767578125]]], [[[-124.89372, 40.79229, -5284.36083984375], [-124.89894, 40.79598, -6090.220703125], [-124.8995, 40.78815, -6077.8759765625], [-124.89372, 40.79229, -5284.36083984375]]], [[[-124.8995, 40.78815, -6077.8759765625], [-124.89894, 40.79598, -6090.220703125], [-124.90473, 40.79197, -6857.02685546875], [-124.8995, 40.78815, -6077.8759765625]]], [[[-124.8995, 40.78815, -6077.8759765625], [-124.90473, 40.79197, -6857.02685546875], [-124.90476, 40.78418, -6852.8935546875], [-124.8995, 40.78815, -6077.8759765625]]], [[[-124.89792, 40.80409, -6189.27490234375], [-124.9039, 40.79971, -6897.671875], [-124.89894, 40.79598, -6090.220703125], [-124.89792, 40.80409, -6189.27490234375]]], [[[-124.89792, 40.80409, -6189.27490234375], [-124.90234, 40.80813, -7003.005859375], [-124.9039, 40.79971, -6897.671875], [-124.89792, 40.80409, -6189.27490234375]]], [[[-124.9039, 40.79971, -6897.671875], [-124.90234, 40.80813, -7003.005859375], [-124.90864, 40.80358, -7699.15283203125], [-124.9039, 40.79971, -6897.671875]]], [[[-124.862, 40.828, -2489.114013671875], [-124.86837, 40.82726, -3370.2724609375], [-124.86713, 40.81961, -2491.970703125], [-124.862, 40.828, -2489.114013671875]]], [[[-124.9039, 40.79971, -6897.671875], [-124.90864, 40.80358, -7699.15283203125], [-124.90842, 40.79579, -7695.99267578125], [-124.9039, 40.79971, -6897.671875]]], [[[-124.90476, 40.78418, -6852.8935546875], [-124.90797, 40.78022, -7689.671875], [-124.90337, 40.77686, -6893.185546875], [-124.90476, 40.78418, -6852.8935546875]]], [[[-124.90337, 40.77686, -6893.185546875], [-124.90797, 40.78022, -7689.671875], [-124.90775, 40.77243, -7686.51171875], [-124.90337, 40.77686, -6893.185546875]]], [[[-124.90102, 40.77074, -6896.75146484375], [-124.90775, 40.77243, -7686.51171875], [-124.90527, 40.76662, -7699.1953125], [-124.90102, 40.77074, -6896.75146484375]]], [[[-124.90102, 40.77074, -6896.75146484375], [-124.90527, 40.76662, -7699.1953125], [-124.89812, 40.76408, -6913.6591796875], [-124.90102, 40.77074, -6896.75146484375]]], [[[-124.89291, 40.75627, -6945.7880859375], [-124.89975, 40.75723, -7730.63134765625], [-124.89574, 40.75126, -7753.74755859375], [-124.89291, 40.75627, -6945.7880859375]]], [[[-124.88357, 40.74047, -7016.75390625], [-124.88831, 40.74889, -7016.42919921875], [-124.89095, 40.7436, -7781.03515625], [-124.88357, 40.74047, -7016.75390625]]], [[[-124.87533, 40.73575, -6238.79736328125], [-124.88357, 40.74047, -7016.75390625], [-124.88026, 40.73241, -7084.7607421875], [-124.87533, 40.73575, -6238.79736328125]]], [[[-124.87537, 40.72687, -6694.0712890625], [-124.87533, 40.73575, -6238.79736328125], [-124.88026, 40.73241, -7084.7607421875], [-124.87537, 40.72687, -6694.0712890625]]], [[[-124.87533, 40.73575, -6238.79736328125], [-124.87537, 40.72687, -6694.0712890625], [-124.86918, 40.72783, -5823.55224609375], [-124.87533, 40.73575, -6238.79736328125]]], [[[-124.86918, 40.72783, -5823.55224609375], [-124.86958, 40.71966, -6245.8154296875], [-124.86387, 40.72033, -5450.21337890625], [-124.86918, 40.72783, -5823.55224609375]]], [[[-124.86918, 40.72783, -5823.55224609375], [-124.87537, 40.72687, -6694.0712890625], [-124.86958, 40.71966, -6245.8154296875], [-124.86918, 40.72783, -5823.55224609375]]], [[[-124.88026, 40.73241, -7084.7607421875], [-124.88703, 40.73531, -7802.35693359375], [-124.88369, 40.72688, -7819.9736328125], [-124.88026, 40.73241, -7084.7607421875]]], [[[-124.85761, 40.72905, -4217.8896484375], [-124.85243, 40.72166, -3859.005859375], [-124.85164, 40.72953, -3394.220947265625], [-124.85761, 40.72905, -4217.8896484375]]], [[[-124.85722, 40.7367, -3795.086669921875], [-124.85761, 40.72905, -4217.8896484375], [-124.85164, 40.72953, -3394.220947265625], [-124.85722, 40.7367, -3795.086669921875]]], [[[-124.85722, 40.7367, -3795.086669921875], [-124.85164, 40.72953, -3394.220947265625], [-124.85047, 40.73543, -2984.041015625], [-124.85722, 40.7367, -3795.086669921875]]], [[[-124.85722, 40.7367, -3795.086669921875], [-124.85047, 40.73543, -2984.041015625], [-124.85488, 40.74282, -3100.290283203125], [-124.85722, 40.7367, -3795.086669921875]]], [[[-124.85488, 40.74282, -3100.290283203125], [-124.85047, 40.73543, -2984.041015625], [-124.8479, 40.74074, -2312.362548828125], [-124.85488, 40.74282, -3100.290283203125]]], [[[-124.85488, 40.74282, -3100.290283203125], [-124.8479, 40.74074, -2312.362548828125], [-124.85286, 40.74914, -2414.441162109375], [-124.85488, 40.74282, -3100.290283203125]]], [[[-124.85164, 40.72953, -3394.220947265625], [-124.85243, 40.72166, -3859.005859375], [-124.84672, 40.72233, -3063.39990234375], [-124.85164, 40.72953, -3394.220947265625]]], [[[-124.86756, 40.75349, -3946.36279296875], [-124.86004, 40.75108, -3185.0908203125], [-124.8662, 40.75998, -3178.873779296875], [-124.86756, 40.75349, -3946.36279296875]]], [[[-124.87121, 40.76861, -3108.233154296875], [-124.86406, 40.76551, -2391.46728515625], [-124.8682, 40.7742, -2357.662841796875], [-124.87121, 40.76861, -3108.233154296875]]], [[[-124.87504, 40.77748, -3095.782958984375], [-124.8682, 40.7742, -2357.662841796875], [-124.87154, 40.7831, -2358.90185546875], [-124.87504, 40.77748, -3095.782958984375]]], [[[-124.87008, 40.81063, -2445.013427734375], [-124.86713, 40.81961, -2491.970703125], [-124.87411, 40.81826, -3434.0673828125], [-124.87008, 40.81063, -2445.013427734375]]], [[[-124.87411, 40.81826, -3434.0673828125], [-124.86837, 40.82726, -3370.2724609375], [-124.87474, 40.82651, -4251.427734375], [-124.87411, 40.81826, -3434.0673828125]]], [[[-124.89299, 40.81803, -6188.3857421875], [-124.88748, 40.82502, -6013.7451171875], [-124.89384, 40.82427, -6894.89990234375], [-124.89299, 40.81803, -6188.3857421875]]], [[[-124.89299, 40.81803, -6188.3857421875], [-124.89384, 40.82427, -6894.89990234375], [-124.899, 40.81725, -7043.16357421875], [-124.89299, 40.81803, -6188.3857421875]]], [[[-124.899, 40.81725, -7043.16357421875], [-124.90021, 40.82353, -7776.05908203125], [-124.90545, 40.81381, -7729.4716796875], [-124.899, 40.81725, -7043.16357421875]]], [[[-124.89812, 40.76408, -6913.6591796875], [-124.90527, 40.76662, -7699.1953125], [-124.89975, 40.75723, -7730.63134765625], [-124.89812, 40.76408, -6913.6591796875]]]]}}]}