{"type": "FeatureCollection", "features": [{"type": "Feature", "properties": {"name": "AW_NCAL_4", "CFM_ID": 358, "region": "Offshore_CA_MendocinoTripleJunction", "primary_state/province": "CA", "secondary_state/province": null, "avg_dip": 59, "dip_dir": "W", "rake": 90, "slip_sense": "Reverse", "fault_level": 2, "NSHM23_sliprates": null, "QFFDAgeCatBin": null, "QFFDAgeBin": null, "upper_depth": -1.8, "upper_depth_constraint": "bathymetry", "lower_depth": -5.7, "lower_depth_constraint": "Slab2", "3D_model_constraints": "trace extended at constant dip", "reference": "Goldfinger et al. (2023)", "nshm23_id": null, "lineage": null, "usgs_qffd_#": null, "comments": null, "id": "358"}, "geometry": {"type": "MultiPolygon", "coordinates": [[[[-125.12993, 41.77725, -3401.61767578125], [-125.13451, 41.76898, -4140.2236328125], [-125.12888, 41.76937, -3364.79736328125], [-125.12993, 41.77725, -3401.61767578125]]], [[[-125.123, 41.76522, -2626.164306640625], [-125.11739, 41.76951, -1793.9632568359375], [-125.12371, 41.77355, -2595.15234375], [-125.123, 41.76522, -2626.164306640625]]], [[[-125.13566, 41.72943, -4275.71240234375], [-125.13809, 41.71883, -4598.79345703125], [-125.13159, 41.71976, -3696.518310546875], [-125.13566, 41.72943, -4275.71240234375]]], [[[-125.13749, 41.83458, -2671.06396484375], [-125.13258, 41.83961, -1869.9715576171875], [-125.13919, 41.84297, -2694.722900390625], [-125.13749, 41.83458, -2671.06396484375]]], [[[-125.15633, 41.84561, -4887.92236328125], [-125.15943, 41.85439, -4859.318359375], [-125.16436, 41.85088, -5662.82958984375], [-125.15633, 41.84561, -4887.92236328125]]], [[[-125.12837, 41.80832, -2697.392822265625], [-125.1242, 41.81369, -1896.556396484375], [-125.13158, 41.81662, -2695.177001953125], [-125.12837, 41.80832, -2697.392822265625]]], [[[-125.19004, 41.97936, -4662.82470703125], [-125.19746, 41.98359, -5540.32177734375], [-125.19558, 41.97467, -5545.0029296875], [-125.19004, 41.97936, -4662.82470703125]]], [[[-125.13063, 41.83083, -1882.4281005859375], [-125.13749, 41.83458, -2671.06396484375], [-125.13501, 41.82555, -2684.42724609375], [-125.13063, 41.83083, -1882.4281005859375]]], [[[-125.12837, 41.80832, -2697.392822265625], [-125.12167, 41.80501, -1876.44384765625], [-125.1242, 41.81369, -1896.556396484375], [-125.12837, 41.80832, -2697.392822265625]]], [[[-125.15633, 41.84561, -4887.92236328125], [-125.16436, 41.85088, -5662.82958984375], [-125.16109, 41.84219, -5680.779296875], [-125.15633, 41.84561, -4887.92236328125]]], [[[-125.17995, 41.96729, -3700.09033203125], [-125.18584, 41.96172, -4706.72607421875], [-125.1782, 41.95838, -3827.65185546875], [-125.17995, 41.96729, -3700.09033203125]]], [[[-125.16442, 41.90337, -4117.755859375], [-125.17037, 41.90771, -4822.30322265625], [-125.1688, 41.89865, -4837.0634765625], [-125.16442, 41.90337, -4117.755859375]]], [[[-125.15546, 41.85964, -4119.03515625], [-125.15849, 41.86841, -4090.140869140625], [-125.16228, 41.86337, -4850.71240234375], [-125.15546, 41.85964, -4119.03515625]]], [[[-125.12663, 41.79983, -2662.933349609375], [-125.12167, 41.80501, -1876.44384765625], [-125.12837, 41.80832, -2697.392822265625], [-125.12663, 41.79983, -2662.933349609375]]], [[[-125.12852, 41.76112, -3444.162109375], [-125.13376, 41.75927, -4188.7666015625], [-125.12825, 41.75221, -3448.094970703125], [-125.12852, 41.76112, -3444.162109375]]], [[[-125.18204, 41.97611, -3686.409423828125], [-125.17995, 41.96729, -3700.09033203125], [-125.17443, 41.97294, -2771.577392578125], [-125.18204, 41.97611, -3686.409423828125]]], [[[-125.12371, 41.77355, -2595.15234375], [-125.11739, 41.76951, -1793.9632568359375], [-125.11838, 41.77839, -1799.2373046875], [-125.12371, 41.77355, -2595.15234375]]], [[[-125.16778, 41.92298, -3910.080322265625], [-125.17559, 41.92607, -4795.9052734375], [-125.17244, 41.91718, -4823.48486328125], [-125.16778, 41.92298, -3910.080322265625]]], [[[-125.12881, 41.74377, -3433.548095703125], [-125.12938, 41.73592, -3461.500244140625], [-125.12307, 41.73939, -2609.56201171875], [-125.12881, 41.74377, -3433.548095703125]]], [[[-125.19776, 42.03003, -4324.30126953125], [-125.19518, 42.0386, -3854.294677734375], [-125.20127, 42.0379, -4688.2353515625], [-125.19776, 42.03003, -4324.30126953125]]], [[[-125.12567, 41.79119, -2624.990966796875], [-125.11936, 41.78728, -1814.8035888671875], [-125.12035, 41.79616, -1837.5819091796875], [-125.12567, 41.79119, -2624.990966796875]]], [[[-125.13182, 41.7945, -3432.822265625], [-125.13652, 41.78748, -4164.87548828125], [-125.13083, 41.78581, -3407.67578125], [-125.13182, 41.7945, -3432.822265625]]], [[[-125.13919, 41.84297, -2694.722900390625], [-125.13478, 41.84834, -1902.3587646484375], [-125.14204, 41.85191, -2667.5185546875], [-125.13919, 41.84297, -2694.722900390625]]], [[[-125.15892, 41.92168, -2810.673583984375], [-125.15131, 41.91793, -2003.55126953125], [-125.15421, 41.92656, -1939.090087890625], [-125.15892, 41.92168, -2810.673583984375]]], [[[-125.18584, 41.96172, -4706.72607421875], [-125.1879, 41.97048, -4659.9365234375], [-125.19338, 41.96579, -5551.80029296875], [-125.18584, 41.96172, -4706.72607421875]]], [[[-125.14148, 41.73019, -5097.57421875], [-125.14563, 41.73521, -5731.22900390625], [-125.14619, 41.72687, -5723.623046875], [-125.14148, 41.73019, -5097.57421875]]], [[[-125.12852, 41.76112, -3444.162109375], [-125.13451, 41.76898, -4140.2236328125], [-125.13376, 41.75927, -4188.7666015625], [-125.12852, 41.76112, -3444.162109375]]], [[[-125.17244, 41.91718, -4823.48486328125], [-125.17701, 41.91303, -5617.3095703125], [-125.17037, 41.90771, -4822.30322265625], [-125.17244, 41.91718, -4823.48486328125]]], [[[-125.14016, 41.73687, -4981.1904296875], [-125.14533, 41.74403, -5738.4599609375], [-125.14563, 41.73521, -5731.22900390625], [-125.14016, 41.73687, -4981.1904296875]]], [[[-125.16313, 41.88522, -4054.968017578125], [-125.16887, 41.8891, -4803.68115234375], [-125.16792, 41.88068, -4814.3232421875], [-125.16313, 41.88522, -4054.968017578125]]], [[[-125.19084, 42.03095, -3375.2060546875], [-125.19518, 42.0386, -3854.294677734375], [-125.19776, 42.03003, -4324.30126953125], [-125.19084, 42.03095, -3375.2060546875]]], [[[-125.16887, 41.8891, -4803.68115234375], [-125.17404, 41.89511, -5624.9638671875], [-125.17475, 41.88611, -5612.57861328125], [-125.16887, 41.8891, -4803.68115234375]]], [[[-125.13748, 41.79668, -4188.078125], [-125.1435, 41.80067, -4950.0009765625], [-125.14257, 41.79139, -4943.11376953125], [-125.13748, 41.79668, -4188.078125]]], [[[-125.1756, 41.94938, -3864.6533203125], [-125.1809, 41.94363, -4760.3486328125], [-125.17332, 41.94045, -3851.804931640625], [-125.1756, 41.94938, -3864.6533203125]]], [[[-125.16249, 41.9171, -3518.24169921875], [-125.15892, 41.92168, -2810.673583984375], [-125.16778, 41.92298, -3910.080322265625], [-125.16249, 41.9171, -3518.24169921875]]], [[[-125.13893, 41.75488, -4963.58642578125], [-125.13376, 41.75927, -4188.7666015625], [-125.13989, 41.76415, -4949.4794921875], [-125.13893, 41.75488, -4963.58642578125]]], [[[-125.16249, 41.9171, -3518.24169921875], [-125.16778, 41.92298, -3910.080322265625], [-125.1662, 41.91301, -4150.70751953125], [-125.16249, 41.9171, -3518.24169921875]]], [[[-125.123, 41.76522, -2626.164306640625], [-125.117, 41.76065, -1878.9080810546875], [-125.11739, 41.76951, -1793.9632568359375], [-125.123, 41.76522, -2626.164306640625]]], [[[-125.1809, 41.94363, -4760.3486328125], [-125.1756, 41.94938, -3864.6533203125], [-125.18332, 41.95268, -4753.89599609375], [-125.1809, 41.94363, -4760.3486328125]]], [[[-125.19084, 42.03095, -3375.2060546875], [-125.18909, 42.0393, -3020.35400390625], [-125.19518, 42.0386, -3854.294677734375], [-125.19084, 42.03095, -3375.2060546875]]], [[[-125.16084, 41.90809, -3521.311279296875], [-125.16249, 41.9171, -3518.24169921875], [-125.1662, 41.91301, -4150.70751953125], [-125.16084, 41.90809, -3521.311279296875]]], [[[-125.16344, 41.89407, -4120.64013671875], [-125.15871, 41.88961, -3385.68896484375], [-125.15871, 41.8984, -3488.489013671875], [-125.16344, 41.89407, -4120.64013671875]]], [[[-125.15156, 41.86383, -3413.075927734375], [-125.15546, 41.85964, -4119.03515625], [-125.14897, 41.85515, -3431.248779296875], [-125.15156, 41.86383, -3413.075927734375]]], [[[-125.16313, 41.88522, -4054.968017578125], [-125.16132, 41.87697, -4050.659423828125], [-125.15719, 41.8815, -3334.9599609375], [-125.16313, 41.88522, -4054.968017578125]]], [[[-125.1809, 41.94363, -4760.3486328125], [-125.18332, 41.95268, -4753.89599609375], [-125.18802, 41.94817, -5573.5595703125], [-125.1809, 41.94363, -4760.3486328125]]], [[[-125.123, 41.76522, -2626.164306640625], [-125.12246, 41.75611, -2690.225341796875], [-125.117, 41.76065, -1878.9080810546875], [-125.123, 41.76522, -2626.164306640625]]], [[[-125.16132, 41.87697, -4050.659423828125], [-125.15471, 41.87273, -3377.757568359375], [-125.15719, 41.8815, -3334.9599609375], [-125.16132, 41.87697, -4050.659423828125]]], [[[-125.18694, 42.02568, -2926.64111328125], [-125.18201, 42.03111, -2177.51708984375], [-125.19084, 42.03095, -3375.2060546875], [-125.18694, 42.02568, -2926.64111328125]]], [[[-125.13809, 41.71883, -4598.79345703125], [-125.13755, 41.7104, -4956.7353515625], [-125.13191, 41.71105, -4174.66259765625], [-125.13809, 41.71883, -4598.79345703125]]], [[[-125.15871, 41.8984, -3488.489013671875], [-125.15321, 41.89471, -2695.7548828125], [-125.15501, 41.90391, -2839.48486328125], [-125.15871, 41.8984, -3488.489013671875]]], [[[-125.17332, 41.94045, -3851.804931640625], [-125.17847, 41.9348, -4766.78515625], [-125.17069, 41.93169, -3858.18798828125], [-125.17332, 41.94045, -3851.804931640625]]], [[[-125.14169, 41.82917, -3428.08447265625], [-125.13876, 41.82008, -3451.387451171875], [-125.13501, 41.82555, -2684.42724609375], [-125.14169, 41.82917, -3428.08447265625]]], [[[-125.18694, 42.02568, -2926.64111328125], [-125.18103, 42.02223, -2183.743896484375], [-125.18201, 42.03111, -2177.51708984375], [-125.18694, 42.02568, -2926.64111328125]]], [[[-125.17069, 41.93169, -3858.18798828125], [-125.17559, 41.92607, -4795.9052734375], [-125.16778, 41.92298, -3910.080322265625], [-125.17069, 41.93169, -3858.18798828125]]], [[[-125.18642, 42.01724, -2999.283935546875], [-125.18103, 42.02223, -2183.743896484375], [-125.18694, 42.02568, -2926.64111328125], [-125.18642, 42.01724, -2999.283935546875]]], [[[-125.15546, 41.85964, -4119.03515625], [-125.15943, 41.85439, -4859.318359375], [-125.15266, 41.85069, -4132.4296875], [-125.15546, 41.85964, -4119.03515625]]], [[[-125.17244, 41.91718, -4823.48486328125], [-125.18016, 41.92175, -5603.27880859375], [-125.17701, 41.91303, -5617.3095703125], [-125.17244, 41.91718, -4823.48486328125]]], [[[-125.17559, 41.92607, -4795.9052734375], [-125.18016, 41.92175, -5603.27880859375], [-125.17244, 41.91718, -4823.48486328125], [-125.17559, 41.92607, -4795.9052734375]]], [[[-125.17995, 41.96729, -3700.09033203125], [-125.17239, 41.96438, -2809.009521484375], [-125.17443, 41.97294, -2771.577392578125], [-125.17995, 41.96729, -3700.09033203125]]], [[[-125.18642, 42.01724, -2999.283935546875], [-125.18004, 42.01335, -2209.47216796875], [-125.18103, 42.02223, -2183.743896484375], [-125.18642, 42.01724, -2999.283935546875]]], [[[-125.1782, 41.95838, -3827.65185546875], [-125.1756, 41.94938, -3864.6533203125], [-125.17012, 41.95565, -2872.501953125], [-125.1782, 41.95838, -3827.65185546875]]], [[[-125.14016, 41.73687, -4981.1904296875], [-125.14148, 41.73019, -5097.57421875], [-125.13566, 41.72943, -4275.71240234375], [-125.14016, 41.73687, -4981.1904296875]]], [[[-125.1435, 41.80067, -4950.0009765625], [-125.14574, 41.81013, -4943.86181640625], [-125.15055, 41.80703, -5735.919921875], [-125.1435, 41.80067, -4950.0009765625]]], [[[-125.15871, 41.8984, -3488.489013671875], [-125.15871, 41.88961, -3385.68896484375], [-125.15321, 41.89471, -2695.7548828125], [-125.15871, 41.8984, -3488.489013671875]]], [[[-125.16442, 41.90337, -4117.755859375], [-125.16344, 41.89407, -4120.64013671875], [-125.15871, 41.8984, -3488.489013671875], [-125.16442, 41.90337, -4117.755859375]]], [[[-125.12307, 41.73939, -2609.56201171875], [-125.117, 41.74311, -1781.3221435546875], [-125.12288, 41.74728, -2621.9208984375], [-125.12307, 41.73939, -2609.56201171875]]], [[[-125.16132, 41.87697, -4050.659423828125], [-125.15849, 41.86841, -4090.140869140625], [-125.15471, 41.87273, -3377.757568359375], [-125.16132, 41.87697, -4050.659423828125]]], [[[-125.14778, 41.83267, -4121.33544921875], [-125.1497, 41.84172, -4147.8896484375], [-125.15426, 41.83628, -4882.83447265625], [-125.14778, 41.83267, -4121.33544921875]]], [[[-125.18419, 42.00763, -2951.58544921875], [-125.18004, 42.01335, -2209.47216796875], [-125.18642, 42.01724, -2999.283935546875], [-125.18419, 42.00763, -2951.58544921875]]], [[[-125.17559, 41.92607, -4795.9052734375], [-125.17069, 41.93169, -3858.18798828125], [-125.17847, 41.9348, -4766.78515625], [-125.17559, 41.92607, -4795.9052734375]]], [[[-125.14897, 41.85515, -3431.248779296875], [-125.14204, 41.85191, -2667.5185546875], [-125.14468, 41.86002, -2662.859130859375], [-125.14897, 41.85515, -3431.248779296875]]], [[[-125.1338, 41.74984, -4193.22900390625], [-125.13952, 41.74549, -4933.814453125], [-125.13447, 41.74004, -4203.48388671875], [-125.1338, 41.74984, -4193.22900390625]]], [[[-125.17069, 41.93169, -3858.18798828125], [-125.16778, 41.92298, -3910.080322265625], [-125.16237, 41.92947, -2869.865478515625], [-125.17069, 41.93169, -3858.18798828125]]], [[[-125.18419, 42.00763, -2951.58544921875], [-125.17696, 42.00482, -2081.865966796875], [-125.18004, 42.01335, -2209.47216796875], [-125.18419, 42.00763, -2951.58544921875]]], [[[-125.14169, 41.82917, -3428.08447265625], [-125.14526, 41.82407, -4118.74755859375], [-125.13876, 41.82008, -3451.387451171875], [-125.14169, 41.82917, -3428.08447265625]]], [[[-125.14139, 41.72387, -5055.9833984375], [-125.13566, 41.72943, -4275.71240234375], [-125.14148, 41.73019, -5097.57421875], [-125.14139, 41.72387, -5055.9833984375]]], [[[-125.1497, 41.84172, -4147.8896484375], [-125.15633, 41.84561, -4887.92236328125], [-125.15426, 41.83628, -4882.83447265625], [-125.1497, 41.84172, -4147.8896484375]]], [[[-125.15216, 41.82755, -4892.94189453125], [-125.15959, 41.83323, -5685.4453125], [-125.15725, 41.82437, -5696.3583984375], [-125.15216, 41.82755, -4892.94189453125]]], [[[-125.14526, 41.82407, -4118.74755859375], [-125.15216, 41.82755, -4892.94189453125], [-125.14931, 41.81894, -4908.296875], [-125.14526, 41.82407, -4118.74755859375]]], [[[-125.14931, 41.81894, -4908.296875], [-125.15216, 41.82755, -4892.94189453125], [-125.15725, 41.82437, -5696.3583984375], [-125.14931, 41.81894, -4908.296875]]], [[[-125.18178, 41.99942, -2892.025634765625], [-125.17696, 42.00482, -2081.865966796875], [-125.18419, 42.00763, -2951.58544921875], [-125.18178, 41.99942, -2892.025634765625]]], [[[-125.1809, 41.94363, -4760.3486328125], [-125.18802, 41.94817, -5573.5595703125], [-125.18589, 41.93928, -5580.1591796875], [-125.1809, 41.94363, -4760.3486328125]]], [[[-125.15871, 41.88961, -3385.68896484375], [-125.1526, 41.88668, -2588.146484375], [-125.15321, 41.89471, -2695.7548828125], [-125.15871, 41.88961, -3385.68896484375]]], [[[-125.1331, 41.80305, -3478.1591796875], [-125.13748, 41.79668, -4188.078125], [-125.13182, 41.7945, -3432.822265625], [-125.1331, 41.80305, -3478.1591796875]]], [[[-125.13893, 41.75488, -4963.58642578125], [-125.14549, 41.76205, -5747.2978515625], [-125.14456, 41.75305, -5749.353515625], [-125.13893, 41.75488, -4963.58642578125]]], [[[-125.15156, 41.86383, -3413.075927734375], [-125.14897, 41.85515, -3431.248779296875], [-125.14468, 41.86002, -2662.859130859375], [-125.15156, 41.86383, -3413.075927734375]]], [[[-125.16228, 41.86337, -4850.71240234375], [-125.16546, 41.87216, -4830.5498046875], [-125.17016, 41.86841, -5632.3798828125], [-125.16228, 41.86337, -4850.71240234375]]], [[[-125.13898, 41.80612, -4193.8759765625], [-125.14574, 41.81013, -4943.86181640625], [-125.1435, 41.80067, -4950.0009765625], [-125.13898, 41.80612, -4193.8759765625]]], [[[-125.16792, 41.88068, -4814.3232421875], [-125.17318, 41.87716, -5617.0771484375], [-125.16546, 41.87216, -4830.5498046875], [-125.16792, 41.88068, -4814.3232421875]]], [[[-125.12852, 41.76112, -3444.162109375], [-125.12246, 41.75611, -2690.225341796875], [-125.123, 41.76522, -2626.164306640625], [-125.12852, 41.76112, -3444.162109375]]], [[[-125.16887, 41.8891, -4803.68115234375], [-125.17475, 41.88611, -5612.57861328125], [-125.16792, 41.88068, -4814.3232421875], [-125.16887, 41.8891, -4803.68115234375]]], [[[-125.18584, 41.96172, -4706.72607421875], [-125.19338, 41.96579, -5551.80029296875], [-125.1908, 41.95696, -5562.42578125], [-125.18584, 41.96172, -4706.72607421875]]], [[[-125.18178, 41.99942, -2892.025634765625], [-125.17501, 41.99603, -2089.620361328125], [-125.17696, 42.00482, -2081.865966796875], [-125.18178, 41.99942, -2892.025634765625]]], [[[-125.17332, 41.94045, -3851.804931640625], [-125.16524, 41.938, -2868.75], [-125.16769, 41.94694, -2878.629638671875], [-125.17332, 41.94045, -3851.804931640625]]], [[[-125.16084, 41.90809, -3521.311279296875], [-125.16442, 41.90337, -4117.755859375], [-125.15871, 41.8984, -3488.489013671875], [-125.16084, 41.90809, -3521.311279296875]]], [[[-125.16546, 41.87216, -4830.5498046875], [-125.17318, 41.87716, -5617.0771484375], [-125.17016, 41.86841, -5632.3798828125], [-125.16546, 41.87216, -4830.5498046875]]], [[[-125.16313, 41.88522, -4054.968017578125], [-125.15719, 41.8815, -3334.9599609375], [-125.15871, 41.88961, -3385.68896484375], [-125.16313, 41.88522, -4054.968017578125]]], [[[-125.15546, 41.85964, -4119.03515625], [-125.16228, 41.86337, -4850.71240234375], [-125.15943, 41.85439, -4859.318359375], [-125.15546, 41.85964, -4119.03515625]]], [[[-125.12455, 41.72239, -2719.13916015625], [-125.118, 41.72124, -1809.7369384765625], [-125.118, 41.7283, -1809.9722900390625], [-125.12455, 41.72239, -2719.13916015625]]], [[[-125.12993, 41.77725, -3401.61767578125], [-125.13557, 41.77837, -4161.0087890625], [-125.13451, 41.76898, -4140.2236328125], [-125.12993, 41.77725, -3401.61767578125]]], [[[-125.16084, 41.90809, -3521.311279296875], [-125.1662, 41.91301, -4150.70751953125], [-125.16442, 41.90337, -4117.755859375], [-125.16084, 41.90809, -3521.311279296875]]], [[[-125.14591, 41.84668, -3457.298828125], [-125.1497, 41.84172, -4147.8896484375], [-125.14395, 41.83796, -3447.863037109375], [-125.14591, 41.84668, -3457.298828125]]], [[[-125.18178, 41.99942, -2892.025634765625], [-125.1792, 41.99037, -2859.14013671875], [-125.17501, 41.99603, -2089.620361328125], [-125.18178, 41.99942, -2892.025634765625]]], [[[-125.13566, 41.72943, -4275.71240234375], [-125.12953, 41.72818, -3409.91748046875], [-125.12938, 41.73592, -3461.500244140625], [-125.13566, 41.72943, -4275.71240234375]]], [[[-125.1526, 41.88668, -2588.146484375], [-125.14719, 41.89169, -1801.5484619140625], [-125.15321, 41.89471, -2695.7548828125], [-125.1526, 41.88668, -2588.146484375]]], [[[-125.14139, 41.72387, -5055.9833984375], [-125.14148, 41.73019, -5097.57421875], [-125.14619, 41.72687, -5723.623046875], [-125.14139, 41.72387, -5055.9833984375]]], [[[-125.18178, 41.99942, -2892.025634765625], [-125.18678, 41.99377, -3742.248779296875], [-125.1792, 41.99037, -2859.14013671875], [-125.18178, 41.99942, -2892.025634765625]]], [[[-125.13652, 41.78748, -4164.87548828125], [-125.14168, 41.78233, -4945.6796875], [-125.13557, 41.77837, -4161.0087890625], [-125.13652, 41.78748, -4164.87548828125]]], [[[-125.13083, 41.78581, -3407.67578125], [-125.13652, 41.78748, -4164.87548828125], [-125.13557, 41.77837, -4161.0087890625], [-125.13083, 41.78581, -3407.67578125]]], [[[-125.1509, 41.87793, -2623.524169921875], [-125.14621, 41.8829, -1809.1544189453125], [-125.1526, 41.88668, -2588.146484375], [-125.1509, 41.87793, -2623.524169921875]]], [[[-125.16344, 41.89407, -4120.64013671875], [-125.16442, 41.90337, -4117.755859375], [-125.1688, 41.89865, -4837.0634765625], [-125.16344, 41.89407, -4120.64013671875]]], [[[-125.17847, 41.9348, -4766.78515625], [-125.17332, 41.94045, -3851.804931640625], [-125.1809, 41.94363, -4760.3486328125], [-125.17847, 41.9348, -4766.78515625]]], [[[-125.16778, 41.92298, -3910.080322265625], [-125.17244, 41.91718, -4823.48486328125], [-125.1662, 41.91301, -4150.70751953125], [-125.16778, 41.92298, -3910.080322265625]]], [[[-125.18332, 41.95268, -4753.89599609375], [-125.1782, 41.95838, -3827.65185546875], [-125.18584, 41.96172, -4706.72607421875], [-125.18332, 41.95268, -4753.89599609375]]], [[[-125.17995, 41.96729, -3700.09033203125], [-125.1782, 41.95838, -3827.65185546875], [-125.17239, 41.96438, -2809.009521484375], [-125.17995, 41.96729, -3700.09033203125]]], [[[-125.16237, 41.92947, -2869.865478515625], [-125.15421, 41.92656, -1939.090087890625], [-125.15738, 41.93515, -1932.197509765625], [-125.16237, 41.92947, -2869.865478515625]]], [[[-125.18678, 41.99377, -3742.248779296875], [-125.18178, 41.99942, -2892.025634765625], [-125.18925, 42.00243, -3799.05712890625], [-125.18678, 41.99377, -3742.248779296875]]], [[[-125.16313, 41.88522, -4054.968017578125], [-125.16344, 41.89407, -4120.64013671875], [-125.16887, 41.8891, -4803.68115234375], [-125.16313, 41.88522, -4054.968017578125]]], [[[-125.18678, 41.99377, -3742.248779296875], [-125.18925, 42.00243, -3799.05712890625], [-125.19467, 41.99723, -4682.80859375], [-125.18678, 41.99377, -3742.248779296875]]], [[[-125.16344, 41.89407, -4120.64013671875], [-125.16313, 41.88522, -4054.968017578125], [-125.15871, 41.88961, -3385.68896484375], [-125.16344, 41.89407, -4120.64013671875]]], [[[-125.13898, 41.80612, -4193.8759765625], [-125.1435, 41.80067, -4950.0009765625], [-125.13748, 41.79668, -4188.078125], [-125.13898, 41.80612, -4193.8759765625]]], [[[-125.15719, 41.8815, -3334.9599609375], [-125.15471, 41.87273, -3377.757568359375], [-125.1509, 41.87793, -2623.524169921875], [-125.15719, 41.8815, -3334.9599609375]]], [[[-125.12288, 41.74728, -2621.9208984375], [-125.117, 41.74311, -1781.3221435546875], [-125.117, 41.75182, -1861.5263671875], [-125.12288, 41.74728, -2621.9208984375]]], [[[-125.15719, 41.8815, -3334.9599609375], [-125.1509, 41.87793, -2623.524169921875], [-125.1526, 41.88668, -2588.146484375], [-125.15719, 41.8815, -3334.9599609375]]], [[[-125.13893, 41.75488, -4963.58642578125], [-125.13989, 41.76415, -4949.4794921875], [-125.14549, 41.76205, -5747.2978515625], [-125.13893, 41.75488, -4963.58642578125]]], [[[-125.14897, 41.85515, -3431.248779296875], [-125.15546, 41.85964, -4119.03515625], [-125.15266, 41.85069, -4132.4296875], [-125.14897, 41.85515, -3431.248779296875]]], [[[-125.18678, 41.99377, -3742.248779296875], [-125.19467, 41.99723, -4682.80859375], [-125.19225, 41.98836, -4672.50244140625], [-125.18678, 41.99377, -3742.248779296875]]], [[[-125.14526, 41.82407, -4118.74755859375], [-125.14931, 41.81894, -4908.296875], [-125.14215, 41.81533, -4163.3359375], [-125.14526, 41.82407, -4118.74755859375]]], [[[-125.13159, 41.71976, -3696.518310546875], [-125.12627, 41.7117, -3392.589599609375], [-125.12455, 41.72239, -2719.13916015625], [-125.13159, 41.71976, -3696.518310546875]]], [[[-125.16249, 41.9171, -3518.24169921875], [-125.1565, 41.9134, -2828.42578125], [-125.15892, 41.92168, -2810.673583984375], [-125.16249, 41.9171, -3518.24169921875]]], [[[-125.1526, 41.88668, -2588.146484375], [-125.14621, 41.8829, -1809.1544189453125], [-125.14719, 41.89169, -1801.5484619140625], [-125.1526, 41.88668, -2588.146484375]]], [[[-125.16344, 41.89407, -4120.64013671875], [-125.1688, 41.89865, -4837.0634765625], [-125.16887, 41.8891, -4803.68115234375], [-125.16344, 41.89407, -4120.64013671875]]], [[[-125.18429, 41.98493, -3734.302001953125], [-125.18678, 41.99377, -3742.248779296875], [-125.19225, 41.98836, -4672.50244140625], [-125.18429, 41.98493, -3734.302001953125]]], [[[-125.1497, 41.84172, -4147.8896484375], [-125.15266, 41.85069, -4132.4296875], [-125.15633, 41.84561, -4887.92236328125], [-125.1497, 41.84172, -4147.8896484375]]], [[[-125.18678, 41.99377, -3742.248779296875], [-125.18429, 41.98493, -3734.302001953125], [-125.1792, 41.99037, -2859.14013671875], [-125.18678, 41.99377, -3742.248779296875]]], [[[-125.16132, 41.87697, -4050.659423828125], [-125.16313, 41.88522, -4054.968017578125], [-125.16792, 41.88068, -4814.3232421875], [-125.16132, 41.87697, -4050.659423828125]]], [[[-125.1688, 41.89865, -4837.0634765625], [-125.17574, 41.90405, -5619.48974609375], [-125.17404, 41.89511, -5624.9638671875], [-125.1688, 41.89865, -4837.0634765625]]], [[[-125.18429, 41.98493, -3734.302001953125], [-125.17691, 41.98206, -2823.52392578125], [-125.1792, 41.99037, -2859.14013671875], [-125.18429, 41.98493, -3734.302001953125]]], [[[-125.17037, 41.90771, -4822.30322265625], [-125.17701, 41.91303, -5617.3095703125], [-125.17574, 41.90405, -5619.48974609375], [-125.17037, 41.90771, -4822.30322265625]]], [[[-125.1406, 41.8656, -1875.092041015625], [-125.14787, 41.86892, -2662.645751953125], [-125.14468, 41.86002, -2662.859130859375], [-125.1406, 41.8656, -1875.092041015625]]], [[[-125.13083, 41.78581, -3407.67578125], [-125.13557, 41.77837, -4161.0087890625], [-125.12993, 41.77725, -3401.61767578125], [-125.13083, 41.78581, -3407.67578125]]], [[[-125.15321, 41.89471, -2695.7548828125], [-125.14719, 41.89169, -1801.5484619140625], [-125.14828, 41.90027, -2036.1405029296875], [-125.15321, 41.89471, -2695.7548828125]]], [[[-125.18429, 41.98493, -3734.302001953125], [-125.18204, 41.97611, -3686.409423828125], [-125.17691, 41.98206, -2823.52392578125], [-125.18429, 41.98493, -3734.302001953125]]], [[[-125.13182, 41.7945, -3432.822265625], [-125.13748, 41.79668, -4188.078125], [-125.13652, 41.78748, -4164.87548828125], [-125.13182, 41.7945, -3432.822265625]]], [[[-125.18429, 41.98493, -3734.302001953125], [-125.19004, 41.97936, -4662.82470703125], [-125.18204, 41.97611, -3686.409423828125], [-125.18429, 41.98493, -3734.302001953125]]], [[[-125.12455, 41.72239, -2719.13916015625], [-125.12627, 41.7117, -3392.589599609375], [-125.12064, 41.71235, -2610.516845703125], [-125.12455, 41.72239, -2719.13916015625]]], [[[-125.15849, 41.86841, -4090.140869140625], [-125.16546, 41.87216, -4830.5498046875], [-125.16228, 41.86337, -4850.71240234375], [-125.15849, 41.86841, -4090.140869140625]]], [[[-125.14778, 41.83267, -4121.33544921875], [-125.15216, 41.82755, -4892.94189453125], [-125.14526, 41.82407, -4118.74755859375], [-125.14778, 41.83267, -4121.33544921875]]], [[[-125.17559, 41.92607, -4795.9052734375], [-125.18329, 41.93046, -5589.93505859375], [-125.18016, 41.92175, -5603.27880859375], [-125.17559, 41.92607, -4795.9052734375]]], [[[-125.18429, 41.98493, -3734.302001953125], [-125.19225, 41.98836, -4672.50244140625], [-125.19004, 41.97936, -4662.82470703125], [-125.18429, 41.98493, -3734.302001953125]]], [[[-125.14591, 41.84668, -3457.298828125], [-125.14897, 41.85515, -3431.248779296875], [-125.15266, 41.85069, -4132.4296875], [-125.14591, 41.84668, -3457.298828125]]], [[[-125.19004, 41.97936, -4662.82470703125], [-125.19225, 41.98836, -4672.50244140625], [-125.19746, 41.98359, -5540.32177734375], [-125.19004, 41.97936, -4662.82470703125]]], [[[-125.17847, 41.9348, -4766.78515625], [-125.18589, 41.93928, -5580.1591796875], [-125.18329, 41.93046, -5589.93505859375], [-125.17847, 41.9348, -4766.78515625]]], [[[-125.1782, 41.95838, -3827.65185546875], [-125.17012, 41.95565, -2872.501953125], [-125.17239, 41.96438, -2809.009521484375], [-125.1782, 41.95838, -3827.65185546875]]], [[[-125.1879, 41.97048, -4659.9365234375], [-125.19004, 41.97936, -4662.82470703125], [-125.19558, 41.97467, -5545.0029296875], [-125.1879, 41.97048, -4659.9365234375]]], [[[-125.13749, 41.83458, -2671.06396484375], [-125.13063, 41.83083, -1882.4281005859375], [-125.13258, 41.83961, -1869.9715576171875], [-125.13749, 41.83458, -2671.06396484375]]], [[[-125.1756, 41.94938, -3864.6533203125], [-125.16769, 41.94694, -2878.629638671875], [-125.17012, 41.95565, -2872.501953125], [-125.1756, 41.94938, -3864.6533203125]]], [[[-125.18204, 41.97611, -3686.409423828125], [-125.19004, 41.97936, -4662.82470703125], [-125.1879, 41.97048, -4659.9365234375], [-125.18204, 41.97611, -3686.409423828125]]], [[[-125.16084, 41.90809, -3521.311279296875], [-125.15871, 41.8984, -3488.489013671875], [-125.15501, 41.90391, -2839.48486328125], [-125.16084, 41.90809, -3521.311279296875]]], [[[-125.15633, 41.84561, -4887.92236328125], [-125.15266, 41.85069, -4132.4296875], [-125.15943, 41.85439, -4859.318359375], [-125.15633, 41.84561, -4887.92236328125]]], [[[-125.17847, 41.9348, -4766.78515625], [-125.1809, 41.94363, -4760.3486328125], [-125.18589, 41.93928, -5580.1591796875], [-125.17847, 41.9348, -4766.78515625]]], [[[-125.17069, 41.93169, -3858.18798828125], [-125.16237, 41.92947, -2869.865478515625], [-125.16524, 41.938, -2868.75], [-125.17069, 41.93169, -3858.18798828125]]], [[[-125.18204, 41.97611, -3686.409423828125], [-125.1879, 41.97048, -4659.9365234375], [-125.17995, 41.96729, -3700.09033203125], [-125.18204, 41.97611, -3686.409423828125]]], [[[-125.17995, 41.96729, -3700.09033203125], [-125.1879, 41.97048, -4659.9365234375], [-125.18584, 41.96172, -4706.72607421875], [-125.17995, 41.96729, -3700.09033203125]]], [[[-125.16249, 41.9171, -3518.24169921875], [-125.16084, 41.90809, -3521.311279296875], [-125.1565, 41.9134, -2828.42578125], [-125.16249, 41.9171, -3518.24169921875]]], [[[-125.18204, 41.97611, -3686.409423828125], [-125.17443, 41.97294, -2771.577392578125], [-125.17691, 41.98206, -2823.52392578125], [-125.18204, 41.97611, -3686.409423828125]]], [[[-125.14215, 41.81533, -4163.3359375], [-125.14931, 41.81894, -4908.296875], [-125.14574, 41.81013, -4943.86181640625], [-125.14215, 41.81533, -4163.3359375]]], [[[-125.1509, 41.87793, -2623.524169921875], [-125.14373, 41.8742, -1852.048095703125], [-125.14621, 41.8829, -1809.1544189453125], [-125.1509, 41.87793, -2623.524169921875]]], [[[-125.15156, 41.86383, -3413.075927734375], [-125.15849, 41.86841, -4090.140869140625], [-125.15546, 41.85964, -4119.03515625], [-125.15156, 41.86383, -3413.075927734375]]], [[[-125.17691, 41.98206, -2823.52392578125], [-125.17443, 41.97294, -2771.577392578125], [-125.17013, 41.9786, -2009.994384765625], [-125.17691, 41.98206, -2823.52392578125]]], [[[-125.17691, 41.98206, -2823.52392578125], [-125.17013, 41.9786, -2009.994384765625], [-125.17213, 41.98739, -2027.6331787109375], [-125.17691, 41.98206, -2823.52392578125]]], [[[-125.18332, 41.95268, -4753.89599609375], [-125.18584, 41.96172, -4706.72607421875], [-125.1908, 41.95696, -5562.42578125], [-125.18332, 41.95268, -4753.89599609375]]], [[[-125.16228, 41.86337, -4850.71240234375], [-125.17016, 41.86841, -5632.3798828125], [-125.16694, 41.85971, -5650.0673828125], [-125.16228, 41.86337, -4850.71240234375]]], [[[-125.13876, 41.82008, -3451.387451171875], [-125.13158, 41.81662, -2695.177001953125], [-125.13501, 41.82555, -2684.42724609375], [-125.13876, 41.82008, -3451.387451171875]]], [[[-125.13876, 41.82008, -3451.387451171875], [-125.13537, 41.81137, -3505.117431640625], [-125.13158, 41.81662, -2695.177001953125], [-125.13876, 41.82008, -3451.387451171875]]], [[[-125.17037, 41.90771, -4822.30322265625], [-125.1662, 41.91301, -4150.70751953125], [-125.17244, 41.91718, -4823.48486328125], [-125.17037, 41.90771, -4822.30322265625]]], [[[-125.17691, 41.98206, -2823.52392578125], [-125.17213, 41.98739, -2027.6331787109375], [-125.1792, 41.99037, -2859.14013671875], [-125.17691, 41.98206, -2823.52392578125]]], [[[-125.12455, 41.72239, -2719.13916015625], [-125.118, 41.7283, -1809.9722900390625], [-125.12368, 41.73191, -2623.411865234375], [-125.12455, 41.72239, -2719.13916015625]]], [[[-125.17213, 41.98739, -2027.6331787109375], [-125.17501, 41.99603, -2089.620361328125], [-125.1792, 41.99037, -2859.14013671875], [-125.17213, 41.98739, -2027.6331787109375]]], [[[-125.15871, 41.88961, -3385.68896484375], [-125.15719, 41.8815, -3334.9599609375], [-125.1526, 41.88668, -2588.146484375], [-125.15871, 41.88961, -3385.68896484375]]], [[[-125.13566, 41.72943, -4275.71240234375], [-125.13159, 41.71976, -3696.518310546875], [-125.12953, 41.72818, -3409.91748046875], [-125.13566, 41.72943, -4275.71240234375]]], [[[-125.15156, 41.86383, -3413.075927734375], [-125.14787, 41.86892, -2662.645751953125], [-125.15471, 41.87273, -3377.757568359375], [-125.15156, 41.86383, -3413.075927734375]]], [[[-125.13537, 41.81137, -3505.117431640625], [-125.14215, 41.81533, -4163.3359375], [-125.13898, 41.80612, -4193.8759765625], [-125.13537, 41.81137, -3505.117431640625]]], [[[-125.16733, 41.96998, -1917.2216796875], [-125.17013, 41.9786, -2009.994384765625], [-125.17443, 41.97294, -2771.577392578125], [-125.16733, 41.96998, -1917.2216796875]]], [[[-125.12953, 41.72818, -3409.91748046875], [-125.13159, 41.71976, -3696.518310546875], [-125.12455, 41.72239, -2719.13916015625], [-125.12953, 41.72818, -3409.91748046875]]], [[[-125.14787, 41.86892, -2662.645751953125], [-125.15156, 41.86383, -3413.075927734375], [-125.14468, 41.86002, -2662.859130859375], [-125.14787, 41.86892, -2662.645751953125]]], [[[-125.14215, 41.81533, -4163.3359375], [-125.14574, 41.81013, -4943.86181640625], [-125.13898, 41.80612, -4193.8759765625], [-125.14215, 41.81533, -4163.3359375]]], [[[-125.17239, 41.96438, -2809.009521484375], [-125.16733, 41.96998, -1917.2216796875], [-125.17443, 41.97294, -2771.577392578125], [-125.17239, 41.96438, -2809.009521484375]]], [[[-125.17239, 41.96438, -2809.009521484375], [-125.16506, 41.96125, -1959.5911865234375], [-125.16733, 41.96998, -1917.2216796875], [-125.17239, 41.96438, -2809.009521484375]]], [[[-125.17332, 41.94045, -3851.804931640625], [-125.17069, 41.93169, -3858.18798828125], [-125.16524, 41.938, -2868.75], [-125.17332, 41.94045, -3851.804931640625]]], [[[-125.12465, 41.78236, -2607.7744140625], [-125.11838, 41.77839, -1799.2373046875], [-125.11936, 41.78728, -1814.8035888671875], [-125.12465, 41.78236, -2607.7744140625]]], [[[-125.17012, 41.95565, -2872.501953125], [-125.16506, 41.96125, -1959.5911865234375], [-125.17239, 41.96438, -2809.009521484375], [-125.17012, 41.95565, -2872.501953125]]], [[[-125.13158, 41.81662, -2695.177001953125], [-125.1242, 41.81369, -1896.556396484375], [-125.12782, 41.82218, -1894.6864013671875], [-125.13158, 41.81662, -2695.177001953125]]], [[[-125.1622, 41.95259, -1952.3062744140625], [-125.16506, 41.96125, -1959.5911865234375], [-125.17012, 41.95565, -2872.501953125], [-125.1622, 41.95259, -1952.3062744140625]]], [[[-125.16887, 41.8891, -4803.68115234375], [-125.1688, 41.89865, -4837.0634765625], [-125.17404, 41.89511, -5624.9638671875], [-125.16887, 41.8891, -4803.68115234375]]], [[[-125.14204, 41.85191, -2667.5185546875], [-125.13478, 41.84834, -1902.3587646484375], [-125.13766, 41.85697, -1847.2261962890625], [-125.14204, 41.85191, -2667.5185546875]]], [[[-125.16778, 41.92298, -3910.080322265625], [-125.15892, 41.92168, -2810.673583984375], [-125.16237, 41.92947, -2869.865478515625], [-125.16778, 41.92298, -3910.080322265625]]], [[[-125.16769, 41.94694, -2878.629638671875], [-125.1622, 41.95259, -1952.3062744140625], [-125.17012, 41.95565, -2872.501953125], [-125.16769, 41.94694, -2878.629638671875]]], [[[-125.16769, 41.94694, -2878.629638671875], [-125.16018, 41.94381, -1967.4229736328125], [-125.1622, 41.95259, -1952.3062744140625], [-125.16769, 41.94694, -2878.629638671875]]], [[[-125.13876, 41.82008, -3451.387451171875], [-125.14526, 41.82407, -4118.74755859375], [-125.14215, 41.81533, -4163.3359375], [-125.13876, 41.82008, -3451.387451171875]]], [[[-125.13537, 41.81137, -3505.117431640625], [-125.13898, 41.80612, -4193.8759765625], [-125.1331, 41.80305, -3478.1591796875], [-125.13537, 41.81137, -3505.117431640625]]], [[[-125.16524, 41.938, -2868.75], [-125.16018, 41.94381, -1967.4229736328125], [-125.16769, 41.94694, -2878.629638671875], [-125.16524, 41.938, -2868.75]]], [[[-125.13501, 41.82555, -2684.42724609375], [-125.12782, 41.82218, -1894.6864013671875], [-125.13063, 41.83083, -1882.4281005859375], [-125.13501, 41.82555, -2684.42724609375]]], [[[-125.1879, 41.97048, -4659.9365234375], [-125.19558, 41.97467, -5545.0029296875], [-125.19338, 41.96579, -5551.80029296875], [-125.1879, 41.97048, -4659.9365234375]]], [[[-125.16524, 41.938, -2868.75], [-125.15738, 41.93515, -1932.197509765625], [-125.16018, 41.94381, -1967.4229736328125], [-125.16524, 41.938, -2868.75]]], [[[-125.16237, 41.92947, -2869.865478515625], [-125.15738, 41.93515, -1932.197509765625], [-125.16524, 41.938, -2868.75], [-125.16237, 41.92947, -2869.865478515625]]], [[[-125.14591, 41.84668, -3457.298828125], [-125.15266, 41.85069, -4132.4296875], [-125.1497, 41.84172, -4147.8896484375], [-125.14591, 41.84668, -3457.298828125]]], [[[-125.13952, 41.74549, -4933.814453125], [-125.1338, 41.74984, -4193.22900390625], [-125.13893, 41.75488, -4963.58642578125], [-125.13952, 41.74549, -4933.814453125]]], [[[-125.13557, 41.77837, -4161.0087890625], [-125.14168, 41.78233, -4945.6796875], [-125.14079, 41.77319, -4946.927734375], [-125.13557, 41.77837, -4161.0087890625]]], [[[-125.15892, 41.92168, -2810.673583984375], [-125.15421, 41.92656, -1939.090087890625], [-125.16237, 41.92947, -2869.865478515625], [-125.15892, 41.92168, -2810.673583984375]]], [[[-125.12567, 41.79119, -2624.990966796875], [-125.12035, 41.79616, -1837.5819091796875], [-125.12663, 41.79983, -2662.933349609375], [-125.12567, 41.79119, -2624.990966796875]]], [[[-125.1565, 41.9134, -2828.42578125], [-125.15131, 41.91793, -2003.55126953125], [-125.15892, 41.92168, -2810.673583984375], [-125.1565, 41.9134, -2828.42578125]]], [[[-125.1565, 41.9134, -2828.42578125], [-125.15012, 41.90908, -2048.160400390625], [-125.15131, 41.91793, -2003.55126953125], [-125.1565, 41.9134, -2828.42578125]]], [[[-125.16792, 41.88068, -4814.3232421875], [-125.17475, 41.88611, -5612.57861328125], [-125.17318, 41.87716, -5617.0771484375], [-125.16792, 41.88068, -4814.3232421875]]], [[[-125.15501, 41.90391, -2839.48486328125], [-125.15012, 41.90908, -2048.160400390625], [-125.1565, 41.9134, -2828.42578125], [-125.15501, 41.90391, -2839.48486328125]]], [[[-125.15501, 41.90391, -2839.48486328125], [-125.14828, 41.90027, -2036.1405029296875], [-125.15012, 41.90908, -2048.160400390625], [-125.15501, 41.90391, -2839.48486328125]]], [[[-125.12852, 41.76112, -3444.162109375], [-125.12825, 41.75221, -3448.094970703125], [-125.12246, 41.75611, -2690.225341796875], [-125.12852, 41.76112, -3444.162109375]]], [[[-125.15321, 41.89471, -2695.7548828125], [-125.14828, 41.90027, -2036.1405029296875], [-125.15501, 41.90391, -2839.48486328125], [-125.15321, 41.89471, -2695.7548828125]]], [[[-125.1509, 41.87793, -2623.524169921875], [-125.14787, 41.86892, -2662.645751953125], [-125.14373, 41.8742, -1852.048095703125], [-125.1509, 41.87793, -2623.524169921875]]], [[[-125.14787, 41.86892, -2662.645751953125], [-125.1509, 41.87793, -2623.524169921875], [-125.15471, 41.87273, -3377.757568359375], [-125.14787, 41.86892, -2662.645751953125]]], [[[-125.15943, 41.85439, -4859.318359375], [-125.16228, 41.86337, -4850.71240234375], [-125.16694, 41.85971, -5650.0673828125], [-125.15943, 41.85439, -4859.318359375]]], [[[-125.14787, 41.86892, -2662.645751953125], [-125.1406, 41.8656, -1875.092041015625], [-125.14373, 41.8742, -1852.048095703125], [-125.14787, 41.86892, -2662.645751953125]]], [[[-125.13766, 41.85697, -1847.2261962890625], [-125.1406, 41.8656, -1875.092041015625], [-125.14468, 41.86002, -2662.859130859375], [-125.13766, 41.85697, -1847.2261962890625]]], [[[-125.14204, 41.85191, -2667.5185546875], [-125.13766, 41.85697, -1847.2261962890625], [-125.14468, 41.86002, -2662.859130859375], [-125.14204, 41.85191, -2667.5185546875]]], [[[-125.18332, 41.95268, -4753.89599609375], [-125.1908, 41.95696, -5562.42578125], [-125.18802, 41.94817, -5573.5595703125], [-125.18332, 41.95268, -4753.89599609375]]], [[[-125.13919, 41.84297, -2694.722900390625], [-125.13258, 41.83961, -1869.9715576171875], [-125.13478, 41.84834, -1902.3587646484375], [-125.13919, 41.84297, -2694.722900390625]]], [[[-125.13158, 41.81662, -2695.177001953125], [-125.12782, 41.82218, -1894.6864013671875], [-125.13501, 41.82555, -2684.42724609375], [-125.13158, 41.81662, -2695.177001953125]]], [[[-125.16442, 41.90337, -4117.755859375], [-125.1662, 41.91301, -4150.70751953125], [-125.17037, 41.90771, -4822.30322265625], [-125.16442, 41.90337, -4117.755859375]]], [[[-125.12663, 41.79983, -2662.933349609375], [-125.12035, 41.79616, -1837.5819091796875], [-125.12167, 41.80501, -1876.44384765625], [-125.12663, 41.79983, -2662.933349609375]]], [[[-125.12465, 41.78236, -2607.7744140625], [-125.11936, 41.78728, -1814.8035888671875], [-125.12567, 41.79119, -2624.990966796875], [-125.12465, 41.78236, -2607.7744140625]]], [[[-125.12371, 41.77355, -2595.15234375], [-125.11838, 41.77839, -1799.2373046875], [-125.12465, 41.78236, -2607.7744140625], [-125.12371, 41.77355, -2595.15234375]]], [[[-125.13159, 41.71976, -3696.518310546875], [-125.13191, 41.71105, -4174.66259765625], [-125.12627, 41.7117, -3392.589599609375], [-125.13159, 41.71976, -3696.518310546875]]], [[[-125.12888, 41.76937, -3364.79736328125], [-125.13451, 41.76898, -4140.2236328125], [-125.12852, 41.76112, -3444.162109375], [-125.12888, 41.76937, -3364.79736328125]]], [[[-125.1331, 41.80305, -3478.1591796875], [-125.13898, 41.80612, -4193.8759765625], [-125.13748, 41.79668, -4188.078125], [-125.1331, 41.80305, -3478.1591796875]]], [[[-125.15849, 41.86841, -4090.140869140625], [-125.16132, 41.87697, -4050.659423828125], [-125.16546, 41.87216, -4830.5498046875], [-125.15849, 41.86841, -4090.140869140625]]], [[[-125.13537, 41.81137, -3505.117431640625], [-125.13876, 41.82008, -3451.387451171875], [-125.14215, 41.81533, -4163.3359375], [-125.13537, 41.81137, -3505.117431640625]]], [[[-125.15426, 41.83628, -4882.83447265625], [-125.15959, 41.83323, -5685.4453125], [-125.15216, 41.82755, -4892.94189453125], [-125.15426, 41.83628, -4882.83447265625]]], [[[-125.13652, 41.78748, -4164.87548828125], [-125.14257, 41.79139, -4943.11376953125], [-125.14168, 41.78233, -4945.6796875], [-125.13652, 41.78748, -4164.87548828125]]], [[[-125.15943, 41.85439, -4859.318359375], [-125.16694, 41.85971, -5650.0673828125], [-125.16436, 41.85088, -5662.82958984375], [-125.15943, 41.85439, -4859.318359375]]], [[[-125.15156, 41.86383, -3413.075927734375], [-125.15471, 41.87273, -3377.757568359375], [-125.15849, 41.86841, -4090.140869140625], [-125.15156, 41.86383, -3413.075927734375]]], [[[-125.14778, 41.83267, -4121.33544921875], [-125.14526, 41.82407, -4118.74755859375], [-125.14169, 41.82917, -3428.08447265625], [-125.14778, 41.83267, -4121.33544921875]]], [[[-125.16084, 41.90809, -3521.311279296875], [-125.15501, 41.90391, -2839.48486328125], [-125.1565, 41.9134, -2828.42578125], [-125.16084, 41.90809, -3521.311279296875]]], [[[-125.14778, 41.83267, -4121.33544921875], [-125.15426, 41.83628, -4882.83447265625], [-125.15216, 41.82755, -4892.94189453125], [-125.14778, 41.83267, -4121.33544921875]]], [[[-125.1688, 41.89865, -4837.0634765625], [-125.17037, 41.90771, -4822.30322265625], [-125.17574, 41.90405, -5619.48974609375], [-125.1688, 41.89865, -4837.0634765625]]], [[[-125.1497, 41.84172, -4147.8896484375], [-125.14778, 41.83267, -4121.33544921875], [-125.14395, 41.83796, -3447.863037109375], [-125.1497, 41.84172, -4147.8896484375]]], [[[-125.14897, 41.85515, -3431.248779296875], [-125.14591, 41.84668, -3457.298828125], [-125.14204, 41.85191, -2667.5185546875], [-125.14897, 41.85515, -3431.248779296875]]], [[[-125.16132, 41.87697, -4050.659423828125], [-125.16792, 41.88068, -4814.3232421875], [-125.16546, 41.87216, -4830.5498046875], [-125.16132, 41.87697, -4050.659423828125]]], [[[-125.15426, 41.83628, -4882.83447265625], [-125.16109, 41.84219, -5680.779296875], [-125.15959, 41.83323, -5685.4453125], [-125.15426, 41.83628, -4882.83447265625]]], [[[-125.1782, 41.95838, -3827.65185546875], [-125.18332, 41.95268, -4753.89599609375], [-125.1756, 41.94938, -3864.6533203125], [-125.1782, 41.95838, -3827.65185546875]]], [[[-125.15633, 41.84561, -4887.92236328125], [-125.16109, 41.84219, -5680.779296875], [-125.15426, 41.83628, -4882.83447265625], [-125.15633, 41.84561, -4887.92236328125]]], [[[-125.12825, 41.75221, -3448.094970703125], [-125.12288, 41.74728, -2621.9208984375], [-125.12246, 41.75611, -2690.225341796875], [-125.12825, 41.75221, -3448.094970703125]]], [[[-125.117, 41.75182, -1861.5263671875], [-125.117, 41.76065, -1878.9080810546875], [-125.12246, 41.75611, -2690.225341796875], [-125.117, 41.75182, -1861.5263671875]]], [[[-125.13809, 41.71883, -4598.79345703125], [-125.14139, 41.72387, -5055.9833984375], [-125.14617, 41.71845, -5720.28369140625], [-125.13809, 41.71883, -4598.79345703125]]], [[[-125.13748, 41.79668, -4188.078125], [-125.14257, 41.79139, -4943.11376953125], [-125.13652, 41.78748, -4164.87548828125], [-125.13748, 41.79668, -4188.078125]]], [[[-125.17559, 41.92607, -4795.9052734375], [-125.17847, 41.9348, -4766.78515625], [-125.18329, 41.93046, -5589.93505859375], [-125.17559, 41.92607, -4795.9052734375]]], [[[-125.1756, 41.94938, -3864.6533203125], [-125.17332, 41.94045, -3851.804931640625], [-125.16769, 41.94694, -2878.629638671875], [-125.1756, 41.94938, -3864.6533203125]]], [[[-125.13557, 41.77837, -4161.0087890625], [-125.14079, 41.77319, -4946.927734375], [-125.13451, 41.76898, -4140.2236328125], [-125.13557, 41.77837, -4161.0087890625]]], [[[-125.13451, 41.76898, -4140.2236328125], [-125.14079, 41.77319, -4946.927734375], [-125.13989, 41.76415, -4949.4794921875], [-125.13451, 41.76898, -4140.2236328125]]], [[[-125.13451, 41.76898, -4140.2236328125], [-125.13989, 41.76415, -4949.4794921875], [-125.13376, 41.75927, -4188.7666015625], [-125.13451, 41.76898, -4140.2236328125]]], [[[-125.13376, 41.75927, -4188.7666015625], [-125.13893, 41.75488, -4963.58642578125], [-125.1338, 41.74984, -4193.22900390625], [-125.13376, 41.75927, -4188.7666015625]]], [[[-125.12825, 41.75221, -3448.094970703125], [-125.13376, 41.75927, -4188.7666015625], [-125.1338, 41.74984, -4193.22900390625], [-125.12825, 41.75221, -3448.094970703125]]], [[[-125.12881, 41.74377, -3433.548095703125], [-125.12825, 41.75221, -3448.094970703125], [-125.1338, 41.74984, -4193.22900390625], [-125.12881, 41.74377, -3433.548095703125]]], [[[-125.12825, 41.75221, -3448.094970703125], [-125.12881, 41.74377, -3433.548095703125], [-125.12288, 41.74728, -2621.9208984375], [-125.12825, 41.75221, -3448.094970703125]]], [[[-125.12288, 41.74728, -2621.9208984375], [-125.117, 41.75182, -1861.5263671875], [-125.12246, 41.75611, -2690.225341796875], [-125.12288, 41.74728, -2621.9208984375]]], [[[-125.12307, 41.73939, -2609.56201171875], [-125.11741, 41.73533, -1780.48486328125], [-125.117, 41.74311, -1781.3221435546875], [-125.12307, 41.73939, -2609.56201171875]]], [[[-125.12368, 41.73191, -2623.411865234375], [-125.11741, 41.73533, -1780.48486328125], [-125.12307, 41.73939, -2609.56201171875], [-125.12368, 41.73191, -2623.411865234375]]], [[[-125.12368, 41.73191, -2623.411865234375], [-125.118, 41.7283, -1809.9722900390625], [-125.11741, 41.73533, -1780.48486328125], [-125.12368, 41.73191, -2623.411865234375]]], [[[-125.13809, 41.71883, -4598.79345703125], [-125.13191, 41.71105, -4174.66259765625], [-125.13159, 41.71976, -3696.518310546875], [-125.13809, 41.71883, -4598.79345703125]]], [[[-125.13809, 41.71883, -4598.79345703125], [-125.13566, 41.72943, -4275.71240234375], [-125.14139, 41.72387, -5055.9833984375], [-125.13809, 41.71883, -4598.79345703125]]], [[[-125.13566, 41.72943, -4275.71240234375], [-125.12938, 41.73592, -3461.500244140625], [-125.13447, 41.74004, -4203.48388671875], [-125.13566, 41.72943, -4275.71240234375]]], [[[-125.14016, 41.73687, -4981.1904296875], [-125.13566, 41.72943, -4275.71240234375], [-125.13447, 41.74004, -4203.48388671875], [-125.14016, 41.73687, -4981.1904296875]]], [[[-125.14148, 41.73019, -5097.57421875], [-125.14016, 41.73687, -4981.1904296875], [-125.14563, 41.73521, -5731.22900390625], [-125.14148, 41.73019, -5097.57421875]]], [[[-125.14139, 41.72387, -5055.9833984375], [-125.14619, 41.72687, -5723.623046875], [-125.14617, 41.71845, -5720.28369140625], [-125.14139, 41.72387, -5055.9833984375]]], [[[-125.14016, 41.73687, -4981.1904296875], [-125.13952, 41.74549, -4933.814453125], [-125.14533, 41.74403, -5738.4599609375], [-125.14016, 41.73687, -4981.1904296875]]], [[[-125.14016, 41.73687, -4981.1904296875], [-125.13447, 41.74004, -4203.48388671875], [-125.13952, 41.74549, -4933.814453125], [-125.14016, 41.73687, -4981.1904296875]]], [[[-125.13952, 41.74549, -4933.814453125], [-125.13893, 41.75488, -4963.58642578125], [-125.14456, 41.75305, -5749.353515625], [-125.13952, 41.74549, -4933.814453125]]], [[[-125.13952, 41.74549, -4933.814453125], [-125.14456, 41.75305, -5749.353515625], [-125.14533, 41.74403, -5738.4599609375], [-125.13952, 41.74549, -4933.814453125]]], [[[-125.13989, 41.76415, -4949.4794921875], [-125.14646, 41.77105, -5744.5126953125], [-125.14549, 41.76205, -5747.2978515625], [-125.13989, 41.76415, -4949.4794921875]]], [[[-125.13989, 41.76415, -4949.4794921875], [-125.14079, 41.77319, -4946.927734375], [-125.14646, 41.77105, -5744.5126953125], [-125.13989, 41.76415, -4949.4794921875]]], [[[-125.14079, 41.77319, -4946.927734375], [-125.14726, 41.78006, -5743.03515625], [-125.14646, 41.77105, -5744.5126953125], [-125.14079, 41.77319, -4946.927734375]]], [[[-125.14079, 41.77319, -4946.927734375], [-125.14168, 41.78233, -4945.6796875], [-125.14726, 41.78006, -5743.03515625], [-125.14079, 41.77319, -4946.927734375]]], [[[-125.14168, 41.78233, -4945.6796875], [-125.14818, 41.78907, -5742.033203125], [-125.14726, 41.78006, -5743.03515625], [-125.14168, 41.78233, -4945.6796875]]], [[[-125.14168, 41.78233, -4945.6796875], [-125.14257, 41.79139, -4943.11376953125], [-125.14818, 41.78907, -5742.033203125], [-125.14168, 41.78233, -4945.6796875]]], [[[-125.14257, 41.79139, -4943.11376953125], [-125.1489, 41.79809, -5742.484375], [-125.14818, 41.78907, -5742.033203125], [-125.14257, 41.79139, -4943.11376953125]]], [[[-125.14257, 41.79139, -4943.11376953125], [-125.1435, 41.80067, -4950.0009765625], [-125.1489, 41.79809, -5742.484375], [-125.14257, 41.79139, -4943.11376953125]]], [[[-125.1435, 41.80067, -4950.0009765625], [-125.15055, 41.80703, -5735.919921875], [-125.1489, 41.79809, -5742.484375], [-125.1435, 41.80067, -4950.0009765625]]], [[[-125.14574, 41.81013, -4943.86181640625], [-125.15408, 41.81566, -5714.73095703125], [-125.15055, 41.80703, -5735.919921875], [-125.14574, 41.81013, -4943.86181640625]]], [[[-125.14574, 41.81013, -4943.86181640625], [-125.14931, 41.81894, -4908.296875], [-125.15408, 41.81566, -5714.73095703125], [-125.14574, 41.81013, -4943.86181640625]]], [[[-125.14931, 41.81894, -4908.296875], [-125.15725, 41.82437, -5696.3583984375], [-125.15408, 41.81566, -5714.73095703125], [-125.14931, 41.81894, -4908.296875]]], [[[-125.1338, 41.74984, -4193.22900390625], [-125.13447, 41.74004, -4203.48388671875], [-125.12881, 41.74377, -3433.548095703125], [-125.1338, 41.74984, -4193.22900390625]]], [[[-125.12938, 41.73592, -3461.500244140625], [-125.12881, 41.74377, -3433.548095703125], [-125.13447, 41.74004, -4203.48388671875], [-125.12938, 41.73592, -3461.500244140625]]], [[[-125.12881, 41.74377, -3433.548095703125], [-125.12307, 41.73939, -2609.56201171875], [-125.12288, 41.74728, -2621.9208984375], [-125.12881, 41.74377, -3433.548095703125]]], [[[-125.12938, 41.73592, -3461.500244140625], [-125.12368, 41.73191, -2623.411865234375], [-125.12307, 41.73939, -2609.56201171875], [-125.12938, 41.73592, -3461.500244140625]]], [[[-125.12938, 41.73592, -3461.500244140625], [-125.12953, 41.72818, -3409.91748046875], [-125.12368, 41.73191, -2623.411865234375], [-125.12938, 41.73592, -3461.500244140625]]], [[[-125.12953, 41.72818, -3409.91748046875], [-125.12455, 41.72239, -2719.13916015625], [-125.12368, 41.73191, -2623.411865234375], [-125.12953, 41.72818, -3409.91748046875]]], [[[-125.14591, 41.84668, -3457.298828125], [-125.13919, 41.84297, -2694.722900390625], [-125.14204, 41.85191, -2667.5185546875], [-125.14591, 41.84668, -3457.298828125]]], [[[-125.14591, 41.84668, -3457.298828125], [-125.14395, 41.83796, -3447.863037109375], [-125.13919, 41.84297, -2694.722900390625], [-125.14591, 41.84668, -3457.298828125]]], [[[-125.13749, 41.83458, -2671.06396484375], [-125.13919, 41.84297, -2694.722900390625], [-125.14395, 41.83796, -3447.863037109375], [-125.13749, 41.83458, -2671.06396484375]]], [[[-125.14169, 41.82917, -3428.08447265625], [-125.13749, 41.83458, -2671.06396484375], [-125.14395, 41.83796, -3447.863037109375], [-125.14169, 41.82917, -3428.08447265625]]], [[[-125.13749, 41.83458, -2671.06396484375], [-125.14169, 41.82917, -3428.08447265625], [-125.13501, 41.82555, -2684.42724609375], [-125.13749, 41.83458, -2671.06396484375]]], [[[-125.14169, 41.82917, -3428.08447265625], [-125.14395, 41.83796, -3447.863037109375], [-125.14778, 41.83267, -4121.33544921875], [-125.14169, 41.82917, -3428.08447265625]]], [[[-125.13537, 41.81137, -3505.117431640625], [-125.12837, 41.80832, -2697.392822265625], [-125.13158, 41.81662, -2695.177001953125], [-125.13537, 41.81137, -3505.117431640625]]], [[[-125.13537, 41.81137, -3505.117431640625], [-125.1331, 41.80305, -3478.1591796875], [-125.12837, 41.80832, -2697.392822265625], [-125.13537, 41.81137, -3505.117431640625]]], [[[-125.1331, 41.80305, -3478.1591796875], [-125.12663, 41.79983, -2662.933349609375], [-125.12837, 41.80832, -2697.392822265625], [-125.1331, 41.80305, -3478.1591796875]]], [[[-125.1331, 41.80305, -3478.1591796875], [-125.13182, 41.7945, -3432.822265625], [-125.12663, 41.79983, -2662.933349609375], [-125.1331, 41.80305, -3478.1591796875]]], [[[-125.13182, 41.7945, -3432.822265625], [-125.12567, 41.79119, -2624.990966796875], [-125.12663, 41.79983, -2662.933349609375], [-125.13182, 41.7945, -3432.822265625]]], [[[-125.13182, 41.7945, -3432.822265625], [-125.13083, 41.78581, -3407.67578125], [-125.12567, 41.79119, -2624.990966796875], [-125.13182, 41.7945, -3432.822265625]]], [[[-125.13083, 41.78581, -3407.67578125], [-125.12465, 41.78236, -2607.7744140625], [-125.12567, 41.79119, -2624.990966796875], [-125.13083, 41.78581, -3407.67578125]]], [[[-125.13083, 41.78581, -3407.67578125], [-125.12993, 41.77725, -3401.61767578125], [-125.12465, 41.78236, -2607.7744140625], [-125.13083, 41.78581, -3407.67578125]]], [[[-125.12993, 41.77725, -3401.61767578125], [-125.12371, 41.77355, -2595.15234375], [-125.12465, 41.78236, -2607.7744140625], [-125.12993, 41.77725, -3401.61767578125]]], [[[-125.12993, 41.77725, -3401.61767578125], [-125.12888, 41.76937, -3364.79736328125], [-125.12371, 41.77355, -2595.15234375], [-125.12993, 41.77725, -3401.61767578125]]], [[[-125.12888, 41.76937, -3364.79736328125], [-125.123, 41.76522, -2626.164306640625], [-125.12371, 41.77355, -2595.15234375], [-125.12888, 41.76937, -3364.79736328125]]], [[[-125.12888, 41.76937, -3364.79736328125], [-125.12852, 41.76112, -3444.162109375], [-125.123, 41.76522, -2626.164306640625], [-125.12888, 41.76937, -3364.79736328125]]], [[[-125.19225, 41.98836, -4672.50244140625], [-125.19985, 41.99245, -5532.1767578125], [-125.19746, 41.98359, -5540.32177734375], [-125.19225, 41.98836, -4672.50244140625]]], [[[-125.19225, 41.98836, -4672.50244140625], [-125.19467, 41.99723, -4682.80859375], [-125.19985, 41.99245, -5532.1767578125], [-125.19225, 41.98836, -4672.50244140625]]], [[[-125.19467, 41.99723, -4682.80859375], [-125.20192, 42.00134, -5526.25], [-125.19985, 41.99245, -5532.1767578125], [-125.19467, 41.99723, -4682.80859375]]], [[[-125.19677, 42.00618, -4678.7099609375], [-125.20192, 42.00134, -5526.25], [-125.19467, 41.99723, -4682.80859375], [-125.19677, 42.00618, -4678.7099609375]]], [[[-125.19677, 42.00618, -4678.7099609375], [-125.20417, 42.01022, -5518.8857421875], [-125.20192, 42.00134, -5526.25], [-125.19677, 42.00618, -4678.7099609375]]], [[[-125.1985, 42.01507, -4667.12548828125], [-125.20417, 42.01022, -5518.8857421875], [-125.19677, 42.00618, -4678.7099609375], [-125.1985, 42.01507, -4667.12548828125]]], [[[-125.1985, 42.01507, -4667.12548828125], [-125.20544, 42.0192, -5518.3662109375], [-125.20417, 42.01022, -5518.8857421875], [-125.1985, 42.01507, -4667.12548828125]]], [[[-125.1985, 42.01507, -4667.12548828125], [-125.20019, 42.02359, -4743.42138671875], [-125.20544, 42.0192, -5518.3662109375], [-125.1985, 42.01507, -4667.12548828125]]], [[[-125.19306, 42.0216, -3813.8291015625], [-125.20019, 42.02359, -4743.42138671875], [-125.1985, 42.01507, -4667.12548828125], [-125.19306, 42.0216, -3813.8291015625]]], [[[-125.19306, 42.0216, -3813.8291015625], [-125.19776, 42.03003, -4324.30126953125], [-125.20019, 42.02359, -4743.42138671875], [-125.19306, 42.0216, -3813.8291015625]]], [[[-125.19084, 42.03095, -3375.2060546875], [-125.19776, 42.03003, -4324.30126953125], [-125.19306, 42.0216, -3813.8291015625], [-125.19084, 42.03095, -3375.2060546875]]], [[[-125.19084, 42.03095, -3375.2060546875], [-125.19306, 42.0216, -3813.8291015625], [-125.18694, 42.02568, -2926.64111328125], [-125.19084, 42.03095, -3375.2060546875]]], [[[-125.18642, 42.01724, -2999.283935546875], [-125.18694, 42.02568, -2926.64111328125], [-125.19306, 42.0216, -3813.8291015625], [-125.18642, 42.01724, -2999.283935546875]]], [[[-125.1915, 42.01158, -3788.44140625], [-125.18642, 42.01724, -2999.283935546875], [-125.19306, 42.0216, -3813.8291015625], [-125.1915, 42.01158, -3788.44140625]]], [[[-125.1915, 42.01158, -3788.44140625], [-125.18419, 42.00763, -2951.58544921875], [-125.18642, 42.01724, -2999.283935546875], [-125.1915, 42.01158, -3788.44140625]]], [[[-125.18419, 42.00763, -2951.58544921875], [-125.1915, 42.01158, -3788.44140625], [-125.18925, 42.00243, -3799.05712890625], [-125.18419, 42.00763, -2951.58544921875]]], [[[-125.18925, 42.00243, -3799.05712890625], [-125.18178, 41.99942, -2892.025634765625], [-125.18419, 42.00763, -2951.58544921875], [-125.18925, 42.00243, -3799.05712890625]]], [[[-125.1915, 42.01158, -3788.44140625], [-125.19677, 42.00618, -4678.7099609375], [-125.18925, 42.00243, -3799.05712890625], [-125.1915, 42.01158, -3788.44140625]]], [[[-125.1915, 42.01158, -3788.44140625], [-125.1985, 42.01507, -4667.12548828125], [-125.19677, 42.00618, -4678.7099609375], [-125.1915, 42.01158, -3788.44140625]]], [[[-125.19306, 42.0216, -3813.8291015625], [-125.1985, 42.01507, -4667.12548828125], [-125.1915, 42.01158, -3788.44140625], [-125.19306, 42.0216, -3813.8291015625]]], [[[-125.19467, 41.99723, -4682.80859375], [-125.18925, 42.00243, -3799.05712890625], [-125.19677, 42.00618, -4678.7099609375], [-125.19467, 41.99723, -4682.80859375]]], [[[-125.20019, 42.02359, -4743.42138671875], [-125.19776, 42.03003, -4324.30126953125], [-125.20641, 42.0282, -5520.21484375], [-125.20019, 42.02359, -4743.42138671875]]], [[[-125.20019, 42.02359, -4743.42138671875], [-125.20641, 42.0282, -5520.21484375], [-125.20544, 42.0192, -5518.3662109375], [-125.20019, 42.02359, -4743.42138671875]]], [[[-125.118, 41.72124, -1809.7369384765625], [-125.12455, 41.72239, -2719.13916015625], [-125.12064, 41.71235, -2610.516845703125], [-125.118, 41.72124, -1809.7369384765625]]], [[[-125.115, 41.713, -1828.4439697265625], [-125.118, 41.72124, -1809.7369384765625], [-125.12064, 41.71235, -2610.516845703125], [-125.115, 41.713, -1828.4439697265625]]], [[[-125.13809, 41.71883, -4598.79345703125], [-125.14617, 41.71845, -5720.28369140625], [-125.13755, 41.7104, -4956.7353515625], [-125.13809, 41.71883, -4598.79345703125]]], [[[-125.13755, 41.7104, -4956.7353515625], [-125.14617, 41.71845, -5720.28369140625], [-125.14319, 41.70975, -5738.80810546875], [-125.13755, 41.7104, -4956.7353515625]]], [[[-125.20127, 42.0379, -4688.2353515625], [-125.20736, 42.0372, -5522.17626953125], [-125.20641, 42.0282, -5520.21484375], [-125.20127, 42.0379, -4688.2353515625]]], [[[-125.19776, 42.03003, -4324.30126953125], [-125.20127, 42.0379, -4688.2353515625], [-125.20641, 42.0282, -5520.21484375], [-125.19776, 42.03003, -4324.30126953125]]], [[[-125.18909, 42.0393, -3020.35400390625], [-125.19084, 42.03095, -3375.2060546875], [-125.18201, 42.03111, -2177.51708984375], [-125.18909, 42.0393, -3020.35400390625]]], [[[-125.183, 42.04, -2186.4130859375], [-125.18909, 42.0393, -3020.35400390625], [-125.18201, 42.03111, -2177.51708984375], [-125.183, 42.04, -2186.4130859375]]]]}}]}