{"type": "FeatureCollection", "features": [{"type": "Feature", "properties": {"name": "AW_CORE_11", "CFM_ID": 365, "region": "Offshore_OR", "primary_state/province": "OR", "secondary_state/province": null, "avg_dip": 59, "dip_dir": "E", "rake": 90, "slip_sense": "Reverse", "fault_level": 2, "NSHM23_sliprates": null, "QFFDAgeCatBin": null, "QFFDAgeBin": null, "upper_depth": -1.6, "upper_depth_constraint": "bathymetry", "lower_depth": -7.1, "lower_depth_constraint": "megathrust", "3D_model_constraints": "trace extended at constant dip", "reference": "Goldfinger et al. (2023)", "nshm23_id": null, "lineage": null, "usgs_qffd_#": null, "comments": null, "id": "365"}, "geometry": {"type": "MultiPolygon", "coordinates": [[[[-125.13237, 44.98394, -4990.81494140625], [-125.12498, 44.97979, -5840.08984375], [-125.12652, 44.98826, -5877.1591796875], [-125.13237, 44.98394, -4990.81494140625]]], [[[-125.14188, 44.87163, -2703.9501953125], [-125.14953, 44.87172, -1835.3646240234375], [-125.14, 44.866, -1863.428955078125], [-125.14188, 44.87163, -2703.9501953125]]], [[[-125.15581, 44.94265, -2432.891845703125], [-125.162, 44.93841, -1616.124755859375], [-125.15597, 44.93387, -2403.180908203125], [-125.15581, 44.94265, -2432.891845703125]]], [[[-125.13662, 44.87257, -3489.259521484375], [-125.13332, 44.86654, -2739.50537109375], [-125.12664, 44.86707, -3615.58154296875], [-125.13662, 44.87257, -3489.259521484375]]], [[[-125.14188, 44.87163, -2703.9501953125], [-125.14, 44.866, -1863.428955078125], [-125.13332, 44.86654, -2739.50537109375], [-125.14188, 44.87163, -2703.9501953125]]], [[[-125.14584, 44.98339, -3236.4794921875], [-125.13957, 44.98561, -4111.8583984375], [-125.14412, 44.99278, -3672.346923828125], [-125.14584, 44.98339, -3236.4794921875]]], [[[-125.12787, 44.9625, -5839.111328125], [-125.12168, 44.95927, -6711.94580078125], [-125.12088, 44.96429, -6705.47314453125], [-125.12787, 44.9625, -5839.111328125]]], [[[-125.14773, 44.87778, -2633.69482421875], [-125.14953, 44.87172, -1835.3646240234375], [-125.14188, 44.87163, -2703.9501953125], [-125.14773, 44.87778, -2633.69482421875]]], [[[-125.12841, 44.92261, -5973.8017578125], [-125.1275, 44.91389, -6011.48095703125], [-125.12165, 44.91863, -6805.14013671875], [-125.12841, 44.92261, -5973.8017578125]]], [[[-125.13662, 44.87257, -3489.259521484375], [-125.14188, 44.87163, -2703.9501953125], [-125.13332, 44.86654, -2739.50537109375], [-125.13662, 44.87257, -3489.259521484375]]], [[[-125.14773, 44.87778, -2633.69482421875], [-125.15558, 44.87945, -1807.991943359375], [-125.14953, 44.87172, -1835.3646240234375], [-125.14773, 44.87778, -2633.69482421875]]], [[[-125.09991, 44.86921, -7119.88671875], [-125.10791, 44.87367, -7019.2158203125], [-125.10659, 44.86868, -6243.810546875], [-125.09991, 44.86921, -7119.88671875]]], [[[-125.1275, 44.91389, -6011.48095703125], [-125.12736, 44.90521, -6025.55712890625], [-125.1212, 44.90971, -6821.47802734375], [-125.1275, 44.91389, -6011.48095703125]]], [[[-125.15168, 44.88489, -2625.05908203125], [-125.15558, 44.87945, -1807.991943359375], [-125.14773, 44.87778, -2633.69482421875], [-125.15168, 44.88489, -2625.05908203125]]], [[[-125.1393, 44.88702, -4317.35595703125], [-125.14695, 44.88934, -3452.1376953125], [-125.14188, 44.88046, -3599.604736328125], [-125.1393, 44.88702, -4317.35595703125]]], [[[-125.15168, 44.88489, -2625.05908203125], [-125.15988, 44.88775, -1742.399169921875], [-125.15558, 44.87945, -1807.991943359375], [-125.15168, 44.88489, -2625.05908203125]]], [[[-125.1539, 44.89249, -2545.5341796875], [-125.15988, 44.88775, -1742.399169921875], [-125.15168, 44.88489, -2625.05908203125], [-125.1539, 44.89249, -2545.5341796875]]], [[[-125.11751, 44.87537, -6165.4365234375], [-125.11358, 44.87859, -6945.51806640625], [-125.11811, 44.88474, -6885.05419921875], [-125.11751, 44.87537, -6165.4365234375]]], [[[-125.1539, 44.89249, -2545.5341796875], [-125.16, 44.89661, -1752.5526123046875], [-125.15988, 44.88775, -1742.399169921875], [-125.1539, 44.89249, -2545.5341796875]]], [[[-125.13237, 44.98394, -4990.81494140625], [-125.13852, 44.97785, -4058.426513671875], [-125.13137, 44.9745, -4995.79150390625], [-125.13237, 44.98394, -4990.81494140625]]], [[[-125.1539, 44.90127, -2539.882568359375], [-125.16, 44.89661, -1752.5526123046875], [-125.1539, 44.89249, -2545.5341796875], [-125.1539, 44.90127, -2539.882568359375]]], [[[-125.14885, 44.94641, -3300.9658203125], [-125.15488, 44.95142, -2426.359375], [-125.15581, 44.94265, -2432.891845703125], [-125.14885, 44.94641, -3300.9658203125]]], [[[-125.1539, 44.90127, -2539.882568359375], [-125.16, 44.90548, -1716.571533203125], [-125.16, 44.89661, -1752.5526123046875], [-125.1539, 44.90127, -2539.882568359375]]], [[[-125.13448, 44.95949, -5009.787109375], [-125.12787, 44.9625, -5839.111328125], [-125.13331, 44.96607, -4949.95654296875], [-125.13448, 44.95949, -5009.787109375]]], [[[-125.1539, 44.90127, -2539.882568359375], [-125.15443, 44.91056, -2465.6962890625], [-125.16, 44.90548, -1716.571533203125], [-125.1539, 44.90127, -2539.882568359375]]], [[[-125.14797, 44.90661, -3299.457275390625], [-125.15443, 44.91056, -2465.6962890625], [-125.1539, 44.90127, -2539.882568359375], [-125.14797, 44.90661, -3299.457275390625]]], [[[-125.13913, 44.96857, -4053.3203125], [-125.14672, 44.9637, -3243.69970703125], [-125.141, 44.95901, -4150.8115234375], [-125.13913, 44.96857, -4053.3203125]]], [[[-125.14797, 44.90661, -3299.457275390625], [-125.14852, 44.91529, -3261.877685546875], [-125.15443, 44.91056, -2465.6962890625], [-125.14797, 44.90661, -3299.457275390625]]], [[[-125.1415, 44.91164, -4165.66162109375], [-125.14852, 44.91529, -3261.877685546875], [-125.14797, 44.90661, -3299.457275390625], [-125.1415, 44.91164, -4165.66162109375]]], [[[-125.14187, 44.94915, -4185.9296875], [-125.14803, 44.95495, -3281.77294921875], [-125.14885, 44.94641, -3300.9658203125], [-125.14187, 44.94915, -4185.9296875]]], [[[-125.1415, 44.91164, -4165.66162109375], [-125.14197, 44.91981, -4168.814453125], [-125.14852, 44.91529, -3261.877685546875], [-125.1415, 44.91164, -4165.66162109375]]], [[[-125.13913, 44.96857, -4053.3203125], [-125.14498, 44.97334, -3205.973388671875], [-125.14672, 44.9637, -3243.69970703125], [-125.13913, 44.96857, -4053.3203125]]], [[[-125.1415, 44.91164, -4165.66162109375], [-125.13451, 44.91763, -5115.05908203125], [-125.14197, 44.91981, -4168.814453125], [-125.1415, 44.91164, -4165.66162109375]]], [[[-125.12851, 44.95614, -5854.68798828125], [-125.12232, 44.95331, -6718.28076171875], [-125.12168, 44.95927, -6711.94580078125], [-125.12851, 44.95614, -5854.68798828125]]], [[[-125.1393, 44.88702, -4317.35595703125], [-125.14188, 44.88046, -3599.604736328125], [-125.13242, 44.88167, -4882.939453125], [-125.1393, 44.88702, -4317.35595703125]]], [[[-125.10659, 44.86868, -6243.810546875], [-125.11751, 44.87537, -6165.4365234375], [-125.11327, 44.86814, -5367.734375], [-125.10659, 44.86868, -6243.810546875]]], [[[-125.1415, 44.91164, -4165.66162109375], [-125.13412, 44.90886, -5120.92578125], [-125.13451, 44.91763, -5115.05908203125], [-125.1415, 44.91164, -4165.66162109375]]], [[[-125.14188, 44.87163, -2703.9501953125], [-125.13662, 44.87257, -3489.259521484375], [-125.14188, 44.88046, -3599.604736328125], [-125.14188, 44.87163, -2703.9501953125]]], [[[-125.14116, 44.9029, -4213.9677734375], [-125.13412, 44.90886, -5120.92578125], [-125.1415, 44.91164, -4165.66162109375], [-125.14116, 44.9029, -4213.9677734375]]], [[[-125.13913, 44.96857, -4053.3203125], [-125.13137, 44.9745, -4995.79150390625], [-125.13852, 44.97785, -4058.426513671875], [-125.13913, 44.96857, -4053.3203125]]], [[[-125.14188, 44.87163, -2703.9501953125], [-125.14188, 44.88046, -3599.604736328125], [-125.14773, 44.87778, -2633.69482421875], [-125.14188, 44.87163, -2703.9501953125]]], [[[-125.11751, 44.87537, -6165.4365234375], [-125.10791, 44.87367, -7019.2158203125], [-125.11358, 44.87859, -6945.51806640625], [-125.11751, 44.87537, -6165.4365234375]]], [[[-125.14852, 44.91529, -3261.877685546875], [-125.15559, 44.9187, -2376.774658203125], [-125.15443, 44.91056, -2465.6962890625], [-125.14852, 44.91529, -3261.877685546875]]], [[[-125.14116, 44.9029, -4213.9677734375], [-125.13381, 44.89997, -5196.39453125], [-125.13412, 44.90886, -5120.92578125], [-125.14116, 44.9029, -4213.9677734375]]], [[[-125.1352, 44.95268, -5018.6328125], [-125.12851, 44.95614, -5854.68798828125], [-125.13448, 44.95949, -5009.787109375], [-125.1352, 44.95268, -5018.6328125]]], [[[-125.14116, 44.9029, -4213.9677734375], [-125.14053, 44.89478, -4298.9423828125], [-125.13381, 44.89997, -5196.39453125], [-125.14116, 44.9029, -4213.9677734375]]], [[[-125.13913, 44.96857, -4053.3203125], [-125.13852, 44.97785, -4058.426513671875], [-125.14498, 44.97334, -3205.973388671875], [-125.13913, 44.96857, -4053.3203125]]], [[[-125.14053, 44.89478, -4298.9423828125], [-125.14116, 44.9029, -4213.9677734375], [-125.14772, 44.89753, -3361.469970703125], [-125.14053, 44.89478, -4298.9423828125]]], [[[-125.14053, 44.89478, -4298.9423828125], [-125.14772, 44.89753, -3361.469970703125], [-125.14695, 44.88934, -3452.1376953125], [-125.14053, 44.89478, -4298.9423828125]]], [[[-125.13852, 44.97785, -4058.426513671875], [-125.14584, 44.98339, -3236.4794921875], [-125.14498, 44.97334, -3205.973388671875], [-125.13852, 44.97785, -4058.426513671875]]], [[[-125.14053, 44.89478, -4298.9423828125], [-125.14695, 44.88934, -3452.1376953125], [-125.1393, 44.88702, -4317.35595703125], [-125.14053, 44.89478, -4298.9423828125]]], [[[-125.15443, 44.91056, -2465.6962890625], [-125.16089, 44.91404, -1633.8040771484375], [-125.16, 44.90548, -1716.571533203125], [-125.15443, 44.91056, -2465.6962890625]]], [[[-125.14053, 44.89478, -4298.9423828125], [-125.1393, 44.88702, -4317.35595703125], [-125.13321, 44.89089, -5253.2724609375], [-125.14053, 44.89478, -4298.9423828125]]], [[[-125.14053, 44.89478, -4298.9423828125], [-125.13321, 44.89089, -5253.2724609375], [-125.13381, 44.89997, -5196.39453125], [-125.14053, 44.89478, -4298.9423828125]]], [[[-125.14672, 44.9637, -3243.69970703125], [-125.15127, 44.96868, -2410.59765625], [-125.15378, 44.95983, -2440.9638671875], [-125.14672, 44.9637, -3243.69970703125]]], [[[-125.13321, 44.89089, -5253.2724609375], [-125.12708, 44.89578, -6062.04052734375], [-125.13381, 44.89997, -5196.39453125], [-125.13321, 44.89089, -5253.2724609375]]], [[[-125.13321, 44.89089, -5253.2724609375], [-125.12545, 44.88529, -5982.1904296875], [-125.12708, 44.89578, -6062.04052734375], [-125.13321, 44.89089, -5253.2724609375]]], [[[-125.13114, 44.8737, -4321.28759765625], [-125.12664, 44.86707, -3615.58154296875], [-125.11995, 44.86761, -4491.65771484375], [-125.13114, 44.8737, -4321.28759765625]]], [[[-125.13242, 44.88167, -4882.939453125], [-125.14188, 44.88046, -3599.604736328125], [-125.13114, 44.8737, -4321.28759765625], [-125.13242, 44.88167, -4882.939453125]]], [[[-125.141, 44.95901, -4150.8115234375], [-125.1352, 44.95268, -5018.6328125], [-125.13448, 44.95949, -5009.787109375], [-125.141, 44.95901, -4150.8115234375]]], [[[-125.13242, 44.88167, -4882.939453125], [-125.12545, 44.88529, -5982.1904296875], [-125.13321, 44.89089, -5253.2724609375], [-125.13242, 44.88167, -4882.939453125]]], [[[-125.13242, 44.88167, -4882.939453125], [-125.12414, 44.87472, -5285.958984375], [-125.12545, 44.88529, -5982.1904296875], [-125.13242, 44.88167, -4882.939453125]]], [[[-125.12652, 44.98826, -5877.1591796875], [-125.11982, 44.98523, -6650.85009765625], [-125.12178, 44.99403, -6600.10888671875], [-125.12652, 44.98826, -5877.1591796875]]], [[[-125.12414, 44.87472, -5285.958984375], [-125.13242, 44.88167, -4882.939453125], [-125.13114, 44.8737, -4321.28759765625], [-125.12414, 44.87472, -5285.958984375]]], [[[-125.12414, 44.87472, -5285.958984375], [-125.13114, 44.8737, -4321.28759765625], [-125.11995, 44.86761, -4491.65771484375], [-125.12414, 44.87472, -5285.958984375]]], [[[-125.14498, 44.97334, -3205.973388671875], [-125.14584, 44.98339, -3236.4794921875], [-125.151, 44.97831, -2419.771728515625], [-125.14498, 44.97334, -3205.973388671875]]], [[[-125.15472, 45.00048, -2426.968994140625], [-125.161, 45.0, -1600.115966796875], [-125.15947, 44.99123, -1649.1962890625], [-125.15472, 45.00048, -2426.968994140625]]], [[[-125.14116, 44.9029, -4213.9677734375], [-125.1415, 44.91164, -4165.66162109375], [-125.14797, 44.90661, -3299.457275390625], [-125.14116, 44.9029, -4213.9677734375]]], [[[-125.12498, 44.97979, -5840.08984375], [-125.11982, 44.98523, -6650.85009765625], [-125.12652, 44.98826, -5877.1591796875], [-125.12498, 44.97979, -5840.08984375]]], [[[-125.12414, 44.87472, -5285.958984375], [-125.11995, 44.86761, -4491.65771484375], [-125.11327, 44.86814, -5367.734375], [-125.12414, 44.87472, -5285.958984375]]], [[[-125.141, 44.95901, -4150.8115234375], [-125.13448, 44.95949, -5009.787109375], [-125.13331, 44.96607, -4949.95654296875], [-125.141, 44.95901, -4150.8115234375]]], [[[-125.12414, 44.87472, -5285.958984375], [-125.11327, 44.86814, -5367.734375], [-125.11751, 44.87537, -6165.4365234375], [-125.12414, 44.87472, -5285.958984375]]], [[[-125.11751, 44.87537, -6165.4365234375], [-125.12545, 44.88529, -5982.1904296875], [-125.12414, 44.87472, -5285.958984375], [-125.11751, 44.87537, -6165.4365234375]]], [[[-125.13913, 44.96857, -4053.3203125], [-125.13331, 44.96607, -4949.95654296875], [-125.13137, 44.9745, -4995.79150390625], [-125.13913, 44.96857, -4053.3203125]]], [[[-125.12545, 44.88529, -5982.1904296875], [-125.11751, 44.87537, -6165.4365234375], [-125.11811, 44.88474, -6885.05419921875], [-125.12545, 44.88529, -5982.1904296875]]], [[[-125.15069, 44.99252, -2811.562744140625], [-125.14584, 44.98339, -3236.4794921875], [-125.14412, 44.99278, -3672.346923828125], [-125.15069, 44.99252, -2811.562744140625]]], [[[-125.12106, 44.89211, -6848.28857421875], [-125.12545, 44.88529, -5982.1904296875], [-125.11811, 44.88474, -6885.05419921875], [-125.12106, 44.89211, -6848.28857421875]]], [[[-125.12787, 44.9625, -5839.111328125], [-125.13448, 44.95949, -5009.787109375], [-125.12851, 44.95614, -5854.68798828125], [-125.12787, 44.9625, -5839.111328125]]], [[[-125.10791, 44.87367, -7019.2158203125], [-125.11751, 44.87537, -6165.4365234375], [-125.10659, 44.86868, -6243.810546875], [-125.10791, 44.87367, -7019.2158203125]]], [[[-125.1352, 44.95268, -5018.6328125], [-125.12891, 44.94904, -5907.59326171875], [-125.12851, 44.95614, -5854.68798828125], [-125.1352, 44.95268, -5018.6328125]]], [[[-125.12708, 44.89578, -6062.04052734375], [-125.12545, 44.88529, -5982.1904296875], [-125.12106, 44.89211, -6848.28857421875], [-125.12708, 44.89578, -6062.04052734375]]], [[[-125.12708, 44.89578, -6062.04052734375], [-125.12106, 44.89211, -6848.28857421875], [-125.12132, 44.90078, -6832.23095703125], [-125.12708, 44.89578, -6062.04052734375]]], [[[-125.12891, 44.94904, -5907.59326171875], [-125.12311, 44.94536, -6731.33251953125], [-125.12232, 44.95331, -6718.28076171875], [-125.12891, 44.94904, -5907.59326171875]]], [[[-125.12736, 44.90521, -6025.55712890625], [-125.12708, 44.89578, -6062.04052734375], [-125.12132, 44.90078, -6832.23095703125], [-125.12736, 44.90521, -6025.55712890625]]], [[[-125.12736, 44.90521, -6025.55712890625], [-125.13381, 44.89997, -5196.39453125], [-125.12708, 44.89578, -6062.04052734375], [-125.12736, 44.90521, -6025.55712890625]]], [[[-125.13381, 44.89997, -5196.39453125], [-125.12736, 44.90521, -6025.55712890625], [-125.13412, 44.90886, -5120.92578125], [-125.13381, 44.89997, -5196.39453125]]], [[[-125.13114, 44.8737, -4321.28759765625], [-125.13662, 44.87257, -3489.259521484375], [-125.12664, 44.86707, -3615.58154296875], [-125.13114, 44.8737, -4321.28759765625]]], [[[-125.1275, 44.91389, -6011.48095703125], [-125.13412, 44.90886, -5120.92578125], [-125.12736, 44.90521, -6025.55712890625], [-125.1275, 44.91389, -6011.48095703125]]], [[[-125.13412, 44.90886, -5120.92578125], [-125.1275, 44.91389, -6011.48095703125], [-125.13451, 44.91763, -5115.05908203125], [-125.13412, 44.90886, -5120.92578125]]], [[[-125.12841, 44.92261, -5973.8017578125], [-125.13451, 44.91763, -5115.05908203125], [-125.1275, 44.91389, -6011.48095703125], [-125.12841, 44.92261, -5973.8017578125]]], [[[-125.14772, 44.89753, -3361.469970703125], [-125.1539, 44.90127, -2539.882568359375], [-125.1539, 44.89249, -2545.5341796875], [-125.14772, 44.89753, -3361.469970703125]]], [[[-125.12841, 44.92261, -5973.8017578125], [-125.13586, 44.92687, -5046.29541015625], [-125.13451, 44.91763, -5115.05908203125], [-125.12841, 44.92261, -5973.8017578125]]], [[[-125.13586, 44.92687, -5046.29541015625], [-125.12841, 44.92261, -5973.8017578125], [-125.12889, 44.93182, -5963.04150390625], [-125.13586, 44.92687, -5046.29541015625]]], [[[-125.1354, 44.93586, -5107.740234375], [-125.13586, 44.92687, -5046.29541015625], [-125.12889, 44.93182, -5963.04150390625], [-125.1354, 44.93586, -5107.740234375]]], [[[-125.14326, 44.9336, -4073.814697265625], [-125.13586, 44.92687, -5046.29541015625], [-125.1354, 44.93586, -5107.740234375], [-125.14326, 44.9336, -4073.814697265625]]], [[[-125.14326, 44.9336, -4073.814697265625], [-125.14314, 44.92646, -4088.4140625], [-125.13586, 44.92687, -5046.29541015625], [-125.14326, 44.9336, -4073.814697265625]]], [[[-125.14695, 44.88934, -3452.1376953125], [-125.15168, 44.88489, -2625.05908203125], [-125.14188, 44.88046, -3599.604736328125], [-125.14695, 44.88934, -3452.1376953125]]], [[[-125.14326, 44.9336, -4073.814697265625], [-125.1498, 44.92982, -3213.325439453125], [-125.14314, 44.92646, -4088.4140625], [-125.14326, 44.9336, -4073.814697265625]]], [[[-125.14326, 44.9336, -4073.814697265625], [-125.1495, 44.93809, -3257.990478515625], [-125.1498, 44.92982, -3213.325439453125], [-125.14326, 44.9336, -4073.814697265625]]], [[[-125.14188, 44.88046, -3599.604736328125], [-125.15168, 44.88489, -2625.05908203125], [-125.14773, 44.87778, -2633.69482421875], [-125.14188, 44.88046, -3599.604736328125]]], [[[-125.14326, 44.9336, -4073.814697265625], [-125.14192, 44.94074, -4257.458984375], [-125.1495, 44.93809, -3257.990478515625], [-125.14326, 44.9336, -4073.814697265625]]], [[[-125.14192, 44.94074, -4257.458984375], [-125.14326, 44.9336, -4073.814697265625], [-125.1354, 44.93586, -5107.740234375], [-125.14192, 44.94074, -4257.458984375]]], [[[-125.1354, 44.93586, -5107.740234375], [-125.13531, 44.9447, -5122.384765625], [-125.14192, 44.94074, -4257.458984375], [-125.1354, 44.93586, -5107.740234375]]], [[[-125.1354, 44.93586, -5107.740234375], [-125.12909, 44.94063, -5943.4267578125], [-125.13531, 44.9447, -5122.384765625], [-125.1354, 44.93586, -5107.740234375]]], [[[-125.12909, 44.94063, -5943.4267578125], [-125.1354, 44.93586, -5107.740234375], [-125.12889, 44.93182, -5963.04150390625], [-125.12909, 44.94063, -5943.4267578125]]], [[[-125.12909, 44.94063, -5943.4267578125], [-125.12889, 44.93182, -5963.04150390625], [-125.12286, 44.93644, -6756.9560546875], [-125.12909, 44.94063, -5943.4267578125]]], [[[-125.12909, 44.94063, -5943.4267578125], [-125.12286, 44.93644, -6756.9560546875], [-125.12311, 44.94536, -6731.33251953125], [-125.12909, 44.94063, -5943.4267578125]]], [[[-125.12891, 44.94904, -5907.59326171875], [-125.12909, 44.94063, -5943.4267578125], [-125.12311, 44.94536, -6731.33251953125], [-125.12891, 44.94904, -5907.59326171875]]], [[[-125.13531, 44.9447, -5122.384765625], [-125.12909, 44.94063, -5943.4267578125], [-125.12891, 44.94904, -5907.59326171875], [-125.13531, 44.9447, -5122.384765625]]], [[[-125.13531, 44.9447, -5122.384765625], [-125.12891, 44.94904, -5907.59326171875], [-125.1352, 44.95268, -5018.6328125], [-125.13531, 44.9447, -5122.384765625]]], [[[-125.14187, 44.94915, -4185.9296875], [-125.13531, 44.9447, -5122.384765625], [-125.1352, 44.95268, -5018.6328125], [-125.14187, 44.94915, -4185.9296875]]], [[[-125.14187, 44.94915, -4185.9296875], [-125.14192, 44.94074, -4257.458984375], [-125.13531, 44.9447, -5122.384765625], [-125.14187, 44.94915, -4185.9296875]]], [[[-125.14695, 44.88934, -3452.1376953125], [-125.1539, 44.89249, -2545.5341796875], [-125.15168, 44.88489, -2625.05908203125], [-125.14695, 44.88934, -3452.1376953125]]], [[[-125.14192, 44.94074, -4257.458984375], [-125.14187, 44.94915, -4185.9296875], [-125.14885, 44.94641, -3300.9658203125], [-125.14192, 44.94074, -4257.458984375]]], [[[-125.1495, 44.93809, -3257.990478515625], [-125.14192, 44.94074, -4257.458984375], [-125.14885, 44.94641, -3300.9658203125], [-125.1495, 44.93809, -3257.990478515625]]], [[[-125.1495, 44.93809, -3257.990478515625], [-125.14885, 44.94641, -3300.9658203125], [-125.15581, 44.94265, -2432.891845703125], [-125.1495, 44.93809, -3257.990478515625]]], [[[-125.1495, 44.93809, -3257.990478515625], [-125.15581, 44.94265, -2432.891845703125], [-125.15597, 44.93387, -2403.180908203125], [-125.1495, 44.93809, -3257.990478515625]]], [[[-125.1498, 44.92982, -3213.325439453125], [-125.1495, 44.93809, -3257.990478515625], [-125.15597, 44.93387, -2403.180908203125], [-125.1498, 44.92982, -3213.325439453125]]], [[[-125.1498, 44.92982, -3213.325439453125], [-125.15597, 44.93387, -2403.180908203125], [-125.15621, 44.92586, -2369.233154296875], [-125.1498, 44.92982, -3213.325439453125]]], [[[-125.1498, 44.92982, -3213.325439453125], [-125.15621, 44.92586, -2369.233154296875], [-125.1495, 44.92266, -3221.534912109375], [-125.1498, 44.92982, -3213.325439453125]]], [[[-125.1498, 44.92982, -3213.325439453125], [-125.1495, 44.92266, -3221.534912109375], [-125.14314, 44.92646, -4088.4140625], [-125.1498, 44.92982, -3213.325439453125]]], [[[-125.14197, 44.91981, -4168.814453125], [-125.14314, 44.92646, -4088.4140625], [-125.1495, 44.92266, -3221.534912109375], [-125.14197, 44.91981, -4168.814453125]]], [[[-125.14197, 44.91981, -4168.814453125], [-125.13586, 44.92687, -5046.29541015625], [-125.14314, 44.92646, -4088.4140625], [-125.14197, 44.91981, -4168.814453125]]], [[[-125.14197, 44.91981, -4168.814453125], [-125.13451, 44.91763, -5115.05908203125], [-125.13586, 44.92687, -5046.29541015625], [-125.14197, 44.91981, -4168.814453125]]], [[[-125.14197, 44.91981, -4168.814453125], [-125.1495, 44.92266, -3221.534912109375], [-125.14852, 44.91529, -3261.877685546875], [-125.14197, 44.91981, -4168.814453125]]], [[[-125.1495, 44.92266, -3221.534912109375], [-125.15559, 44.9187, -2376.774658203125], [-125.14852, 44.91529, -3261.877685546875], [-125.1495, 44.92266, -3221.534912109375]]], [[[-125.1495, 44.92266, -3221.534912109375], [-125.15621, 44.92586, -2369.233154296875], [-125.15559, 44.9187, -2376.774658203125], [-125.1495, 44.92266, -3221.534912109375]]], [[[-125.15621, 44.92586, -2369.233154296875], [-125.16178, 44.922, -1610.856201171875], [-125.15559, 44.9187, -2376.774658203125], [-125.15621, 44.92586, -2369.233154296875]]], [[[-125.15621, 44.92586, -2369.233154296875], [-125.162, 44.92989, -1608.367919921875], [-125.16178, 44.922, -1610.856201171875], [-125.15621, 44.92586, -2369.233154296875]]], [[[-125.15597, 44.93387, -2403.180908203125], [-125.162, 44.92989, -1608.367919921875], [-125.15621, 44.92586, -2369.233154296875], [-125.15597, 44.93387, -2403.180908203125]]], [[[-125.15597, 44.93387, -2403.180908203125], [-125.162, 44.93841, -1616.124755859375], [-125.162, 44.92989, -1608.367919921875], [-125.15597, 44.93387, -2403.180908203125]]], [[[-125.15581, 44.94265, -2432.891845703125], [-125.16141, 44.94727, -1621.08740234375], [-125.162, 44.93841, -1616.124755859375], [-125.15581, 44.94265, -2432.891845703125]]], [[[-125.15488, 44.95142, -2426.359375], [-125.16141, 44.94727, -1621.08740234375], [-125.15581, 44.94265, -2432.891845703125], [-125.15488, 44.95142, -2426.359375]]], [[[-125.15488, 44.95142, -2426.359375], [-125.16043, 44.95612, -1616.435302734375], [-125.16141, 44.94727, -1621.08740234375], [-125.15488, 44.95142, -2426.359375]]], [[[-125.15378, 44.95983, -2440.9638671875], [-125.16043, 44.95612, -1616.435302734375], [-125.15488, 44.95142, -2426.359375], [-125.15378, 44.95983, -2440.9638671875]]], [[[-125.15378, 44.95983, -2440.9638671875], [-125.15839, 44.96484, -1618.1031494140625], [-125.16043, 44.95612, -1616.435302734375], [-125.15378, 44.95983, -2440.9638671875]]], [[[-125.15127, 44.96868, -2410.59765625], [-125.15839, 44.96484, -1618.1031494140625], [-125.15378, 44.95983, -2440.9638671875], [-125.15127, 44.96868, -2410.59765625]]], [[[-125.15127, 44.96868, -2410.59765625], [-125.157, 44.9736, -1627.0318603515625], [-125.15839, 44.96484, -1618.1031494140625], [-125.15127, 44.96868, -2410.59765625]]], [[[-125.151, 44.97831, -2419.771728515625], [-125.157, 44.9736, -1627.0318603515625], [-125.15127, 44.96868, -2410.59765625], [-125.151, 44.97831, -2419.771728515625]]], [[[-125.151, 44.97831, -2419.771728515625], [-125.15798, 44.98242, -1638.9034423828125], [-125.157, 44.9736, -1627.0318603515625], [-125.151, 44.97831, -2419.771728515625]]], [[[-125.151, 44.97831, -2419.771728515625], [-125.15315, 44.98656, -2389.286865234375], [-125.15798, 44.98242, -1638.9034423828125], [-125.151, 44.97831, -2419.771728515625]]], [[[-125.14584, 44.98339, -3236.4794921875], [-125.15315, 44.98656, -2389.286865234375], [-125.151, 44.97831, -2419.771728515625], [-125.14584, 44.98339, -3236.4794921875]]], [[[-125.15069, 44.99252, -2811.562744140625], [-125.15315, 44.98656, -2389.286865234375], [-125.14584, 44.98339, -3236.4794921875], [-125.15069, 44.99252, -2811.562744140625]]], [[[-125.15315, 44.98656, -2389.286865234375], [-125.15069, 44.99252, -2811.562744140625], [-125.15947, 44.99123, -1649.1962890625], [-125.15315, 44.98656, -2389.286865234375]]], [[[-125.15315, 44.98656, -2389.286865234375], [-125.15947, 44.99123, -1649.1962890625], [-125.15798, 44.98242, -1638.9034423828125], [-125.15315, 44.98656, -2389.286865234375]]], [[[-125.15069, 44.99252, -2811.562744140625], [-125.14843, 45.00096, -3253.822021484375], [-125.15472, 45.00048, -2426.968994140625], [-125.15069, 44.99252, -2811.562744140625]]], [[[-125.14412, 44.99278, -3672.346923828125], [-125.14843, 45.00096, -3253.822021484375], [-125.15069, 44.99252, -2811.562744140625], [-125.14412, 44.99278, -3672.346923828125]]], [[[-125.14412, 44.99278, -3672.346923828125], [-125.14214, 45.00144, -4080.675048828125], [-125.14843, 45.00096, -3253.822021484375], [-125.14412, 44.99278, -3672.346923828125]]], [[[-125.1375, 44.99316, -4540.20751953125], [-125.14214, 45.00144, -4080.675048828125], [-125.14412, 44.99278, -3672.346923828125], [-125.1375, 44.99316, -4540.20751953125]]], [[[-125.1375, 44.99316, -4540.20751953125], [-125.13586, 45.00192, -4907.52783203125], [-125.14214, 45.00144, -4080.675048828125], [-125.1375, 44.99316, -4540.20751953125]]], [[[-125.1375, 44.99316, -4540.20751953125], [-125.13087, 44.99395, -5415.3134765625], [-125.13586, 45.00192, -4907.52783203125], [-125.1375, 44.99316, -4540.20751953125]]], [[[-125.13237, 44.98394, -4990.81494140625], [-125.13087, 44.99395, -5415.3134765625], [-125.1375, 44.99316, -4540.20751953125], [-125.13237, 44.98394, -4990.81494140625]]], [[[-125.13237, 44.98394, -4990.81494140625], [-125.12652, 44.98826, -5877.1591796875], [-125.13087, 44.99395, -5415.3134765625], [-125.13237, 44.98394, -4990.81494140625]]], [[[-125.13137, 44.9745, -4995.79150390625], [-125.12498, 44.97979, -5840.08984375], [-125.13237, 44.98394, -4990.81494140625], [-125.13137, 44.9745, -4995.79150390625]]], [[[-125.13137, 44.9745, -4995.79150390625], [-125.12529, 44.9699, -5863.67578125], [-125.12498, 44.97979, -5840.08984375], [-125.13137, 44.9745, -4995.79150390625]]], [[[-125.13331, 44.96607, -4949.95654296875], [-125.12529, 44.9699, -5863.67578125], [-125.13137, 44.9745, -4995.79150390625], [-125.13331, 44.96607, -4949.95654296875]]], [[[-125.12529, 44.9699, -5863.67578125], [-125.13331, 44.96607, -4949.95654296875], [-125.12787, 44.9625, -5839.111328125], [-125.12529, 44.9699, -5863.67578125]]], [[[-125.12529, 44.9699, -5863.67578125], [-125.12787, 44.9625, -5839.111328125], [-125.12088, 44.96429, -6705.47314453125], [-125.12529, 44.9699, -5863.67578125]]], [[[-125.12529, 44.9699, -5863.67578125], [-125.12088, 44.96429, -6705.47314453125], [-125.11908, 44.96991, -6701.74462890625], [-125.12529, 44.9699, -5863.67578125]]], [[[-125.12529, 44.9699, -5863.67578125], [-125.11908, 44.96991, -6701.74462890625], [-125.11854, 44.97671, -6683.60498046875], [-125.12529, 44.9699, -5863.67578125]]], [[[-125.12498, 44.97979, -5840.08984375], [-125.12529, 44.9699, -5863.67578125], [-125.11854, 44.97671, -6683.60498046875], [-125.12498, 44.97979, -5840.08984375]]], [[[-125.12498, 44.97979, -5840.08984375], [-125.11854, 44.97671, -6683.60498046875], [-125.11982, 44.98523, -6650.85009765625], [-125.12498, 44.97979, -5840.08984375]]], [[[-125.12652, 44.98826, -5877.1591796875], [-125.12178, 44.99403, -6600.10888671875], [-125.13087, 44.99395, -5415.3134765625], [-125.12652, 44.98826, -5877.1591796875]]], [[[-125.13087, 44.99395, -5415.3134765625], [-125.12957, 45.0024, -5734.380859375], [-125.13586, 45.00192, -4907.52783203125], [-125.13087, 44.99395, -5415.3134765625]]], [[[-125.15069, 44.99252, -2811.562744140625], [-125.15472, 45.00048, -2426.968994140625], [-125.15947, 44.99123, -1649.1962890625], [-125.15069, 44.99252, -2811.562744140625]]], [[[-125.12787, 44.9625, -5839.111328125], [-125.12851, 44.95614, -5854.68798828125], [-125.12168, 44.95927, -6711.94580078125], [-125.12787, 44.9625, -5839.111328125]]], [[[-125.14695, 44.88934, -3452.1376953125], [-125.14772, 44.89753, -3361.469970703125], [-125.1539, 44.89249, -2545.5341796875], [-125.14695, 44.88934, -3452.1376953125]]], [[[-125.141, 44.95901, -4150.8115234375], [-125.14187, 44.94915, -4185.9296875], [-125.1352, 44.95268, -5018.6328125], [-125.141, 44.95901, -4150.8115234375]]], [[[-125.14187, 44.94915, -4185.9296875], [-125.141, 44.95901, -4150.8115234375], [-125.14803, 44.95495, -3281.77294921875], [-125.14187, 44.94915, -4185.9296875]]], [[[-125.15488, 44.95142, -2426.359375], [-125.14885, 44.94641, -3300.9658203125], [-125.14803, 44.95495, -3281.77294921875], [-125.15488, 44.95142, -2426.359375]]], [[[-125.14803, 44.95495, -3281.77294921875], [-125.15378, 44.95983, -2440.9638671875], [-125.15488, 44.95142, -2426.359375], [-125.14803, 44.95495, -3281.77294921875]]], [[[-125.14803, 44.95495, -3281.77294921875], [-125.14672, 44.9637, -3243.69970703125], [-125.15378, 44.95983, -2440.9638671875], [-125.14803, 44.95495, -3281.77294921875]]], [[[-125.14672, 44.9637, -3243.69970703125], [-125.14803, 44.95495, -3281.77294921875], [-125.141, 44.95901, -4150.8115234375], [-125.14672, 44.9637, -3243.69970703125]]], [[[-125.141, 44.95901, -4150.8115234375], [-125.13331, 44.96607, -4949.95654296875], [-125.13913, 44.96857, -4053.3203125], [-125.141, 44.95901, -4150.8115234375]]], [[[-125.13852, 44.97785, -4058.426513671875], [-125.13237, 44.98394, -4990.81494140625], [-125.13957, 44.98561, -4111.8583984375], [-125.13852, 44.97785, -4058.426513671875]]], [[[-125.14584, 44.98339, -3236.4794921875], [-125.13852, 44.97785, -4058.426513671875], [-125.13957, 44.98561, -4111.8583984375], [-125.14584, 44.98339, -3236.4794921875]]], [[[-125.14498, 44.97334, -3205.973388671875], [-125.151, 44.97831, -2419.771728515625], [-125.15127, 44.96868, -2410.59765625], [-125.14498, 44.97334, -3205.973388671875]]], [[[-125.14672, 44.9637, -3243.69970703125], [-125.14498, 44.97334, -3205.973388671875], [-125.15127, 44.96868, -2410.59765625], [-125.14672, 44.9637, -3243.69970703125]]], [[[-125.12957, 45.0024, -5734.380859375], [-125.13087, 44.99395, -5415.3134765625], [-125.12178, 44.99403, -6600.10888671875], [-125.12957, 45.0024, -5734.380859375]]], [[[-125.1375, 44.99316, -4540.20751953125], [-125.14412, 44.99278, -3672.346923828125], [-125.13957, 44.98561, -4111.8583984375], [-125.1375, 44.99316, -4540.20751953125]]], [[[-125.14116, 44.9029, -4213.9677734375], [-125.14797, 44.90661, -3299.457275390625], [-125.14772, 44.89753, -3361.469970703125], [-125.14116, 44.9029, -4213.9677734375]]], [[[-125.13237, 44.98394, -4990.81494140625], [-125.1375, 44.99316, -4540.20751953125], [-125.13957, 44.98561, -4111.8583984375], [-125.13237, 44.98394, -4990.81494140625]]], [[[-125.1393, 44.88702, -4317.35595703125], [-125.13242, 44.88167, -4882.939453125], [-125.13321, 44.89089, -5253.2724609375], [-125.1393, 44.88702, -4317.35595703125]]], [[[-125.12851, 44.95614, -5854.68798828125], [-125.12891, 44.94904, -5907.59326171875], [-125.12232, 44.95331, -6718.28076171875], [-125.12851, 44.95614, -5854.68798828125]]], [[[-125.14797, 44.90661, -3299.457275390625], [-125.1539, 44.90127, -2539.882568359375], [-125.14772, 44.89753, -3361.469970703125], [-125.14797, 44.90661, -3299.457275390625]]], [[[-125.15559, 44.9187, -2376.774658203125], [-125.16178, 44.922, -1610.856201171875], [-125.16089, 44.91404, -1633.8040771484375], [-125.15559, 44.9187, -2376.774658203125]]], [[[-125.15559, 44.9187, -2376.774658203125], [-125.16089, 44.91404, -1633.8040771484375], [-125.15443, 44.91056, -2465.6962890625], [-125.15559, 44.9187, -2376.774658203125]]], [[[-125.12286, 44.93644, -6756.9560546875], [-125.12889, 44.93182, -5963.04150390625], [-125.12273, 44.92752, -6772.06787109375], [-125.12286, 44.93644, -6756.9560546875]]], [[[-125.12841, 44.92261, -5973.8017578125], [-125.12273, 44.92752, -6772.06787109375], [-125.12889, 44.93182, -5963.04150390625], [-125.12841, 44.92261, -5973.8017578125]]], [[[-125.12841, 44.92261, -5973.8017578125], [-125.12165, 44.91863, -6805.14013671875], [-125.12273, 44.92752, -6772.06787109375], [-125.12841, 44.92261, -5973.8017578125]]], [[[-125.1275, 44.91389, -6011.48095703125], [-125.1212, 44.90971, -6821.47802734375], [-125.12165, 44.91863, -6805.14013671875], [-125.1275, 44.91389, -6011.48095703125]]], [[[-125.12736, 44.90521, -6025.55712890625], [-125.12132, 44.90078, -6832.23095703125], [-125.1212, 44.90971, -6821.47802734375], [-125.12736, 44.90521, -6025.55712890625]]], [[[-125.13662, 44.87257, -3489.259521484375], [-125.13114, 44.8737, -4321.28759765625], [-125.14188, 44.88046, -3599.604736328125], [-125.13662, 44.87257, -3489.259521484375]]], [[[-125.12329, 45.00288, -6561.23388671875], [-125.12957, 45.0024, -5734.380859375], [-125.12178, 44.99403, -6600.10888671875], [-125.12329, 45.00288, -6561.23388671875]]]]}}]}