{"type": "FeatureCollection", "features": [{"type": "Feature", "properties": {"name": "AW_CORE_12", "CFM_ID": 366, "region": "Offshore_OR", "primary_state/province": "OR", "secondary_state/province": null, "avg_dip": null, "dip_dir": "E", "rake": 90, "slip_sense": "Reverse", "fault_level": 2, "NSHM23_sliprates": null, "QFFDAgeCatBin": null, "QFFDAgeBin": null, "upper_depth": null, "upper_depth_constraint": "bathymetry", "lower_depth": null, "lower_depth_constraint": "megathrust", "3D_model_constraints": "trace extended at constant dip", "reference": "Goldfinger et al. (2023)", "nshm23_id": null, "lineage": null, "usgs_qffd_#": null, "comments": null, "id": "366"}, "geometry": {"type": "MultiPolygon", "coordinates": [[[[-124.88308, 44.74624, -6829.98583984375], [-124.88281, 44.73713, -6350.193359375], [-124.87683, 44.73829, -7187.966796875], [-124.88308, 44.74624, -6829.98583984375]]], [[[-124.87437, 44.72288, -7353.4443359375], [-124.86918, 44.71586, -7813.01904296875], [-124.86836, 44.7241, -8194.345703125], [-124.87437, 44.72288, -7353.4443359375]]], [[[-124.9013, 44.76182, -6977.0361328125], [-124.89257, 44.76113, -7747.7353515625], [-124.90018, 44.76937, -7659.14013671875], [-124.9013, 44.76182, -6977.0361328125]]], [[[-124.87714, 44.74616, -7562.84423828125], [-124.87683, 44.73829, -7187.966796875], [-124.8704, 44.73999, -8095.20703125], [-124.87714, 44.74616, -7562.84423828125]]], [[[-124.91219, 44.79816, -7862.1103515625], [-124.91462, 44.79081, -7458.90625], [-124.90811, 44.78718, -8144.5986328125], [-124.91219, 44.79816, -7862.1103515625]]], [[[-124.86836, 44.7241, -8194.345703125], [-124.86319, 44.71708, -8654.4296875], [-124.86235, 44.72532, -9034.7255859375], [-124.86836, 44.7241, -8194.345703125]]], [[[-124.92051, 44.74407, -2107.767333984375], [-124.91343, 44.74636, -3252.47802734375], [-124.9229, 44.75069, -2726.33837890625], [-124.92051, 44.74407, -2107.767333984375]]], [[[-124.89662, 44.72633, -4320.84033203125], [-124.89864, 44.71814, -3967.3369140625], [-124.89241, 44.71923, -4831.82080078125], [-124.89662, 44.72633, -4320.84033203125]]], [[[-124.91723, 44.75659, -4311.80224609375], [-124.91023, 44.75011, -4046.827392578125], [-124.91072, 44.75576, -4850.80908203125], [-124.91723, 44.75659, -4311.80224609375]]], [[[-124.8609, 44.75476, -10276.6103515625], [-124.86815, 44.75495, -9470.826171875], [-124.86051, 44.74792, -9725.2041015625], [-124.8609, 44.75476, -10276.6103515625]]], [[[-124.92427, 44.76243, -4173.79736328125], [-124.93102, 44.7642, -3422.96435546875], [-124.9228, 44.75516, -3537.507568359375], [-124.92427, 44.76243, -4173.79736328125]]], [[[-124.94801, 44.76593, -1459.11376953125], [-124.9397, 44.75929, -2007.1781005859375], [-124.93913, 44.76643, -2573.30419921875], [-124.94801, 44.76593, -1459.11376953125]]], [[[-124.93102, 44.7642, -3422.96435546875], [-124.93255, 44.75793, -2840.40380859375], [-124.9228, 44.75516, -3537.507568359375], [-124.93102, 44.7642, -3422.96435546875]]], [[[-124.91365, 44.76909, -5957.30712890625], [-124.90689, 44.7685, -6760.1875], [-124.91349, 44.776, -6577.1826171875], [-124.91365, 44.76909, -5957.30712890625]]], [[[-124.87857, 44.72997, -6849.81396484375], [-124.88456, 44.72874, -6010.59228515625], [-124.88036, 44.72166, -6516.35986328125], [-124.87857, 44.72997, -6849.81396484375]]], [[[-124.87667, 44.76091, -9305.7998046875], [-124.86973, 44.76158, -10146.501953125], [-124.87889, 44.76655, -10084.404296875], [-124.87667, 44.76091, -9305.7998046875]]], [[[-124.94199, 44.79926, -3525.29345703125], [-124.94715, 44.79144, -2986.82958984375], [-124.94162, 44.7884, -3751.19189453125], [-124.94199, 44.79926, -3525.29345703125]]], [[[-124.9397, 44.75929, -2007.1781005859375], [-124.93897, 44.75236, -1363.5897216796875], [-124.93112, 44.75194, -2083.585693359375], [-124.9397, 44.75929, -2007.1781005859375]]], [[[-124.92745, 44.78817, -5666.9033203125], [-124.9254, 44.79643, -6030.21826171875], [-124.93174, 44.79511, -5125.37841796875], [-124.92745, 44.78817, -5666.9033203125]]], [[[-124.93196, 44.77752, -4446.46337890625], [-124.93438, 44.78643, -4695.45068359375], [-124.93875, 44.77997, -3789.15966796875], [-124.93196, 44.77752, -4446.46337890625]]], [[[-124.87314, 44.74825, -8211.21875], [-124.86701, 44.74771, -8931.2763671875], [-124.87506, 44.75458, -8635.0126953125], [-124.87314, 44.74825, -8211.21875]]], [[[-124.8609, 44.75476, -10276.6103515625], [-124.85375, 44.74675, -10560.2509765625], [-124.855, 44.75613, -11132.00390625], [-124.8609, 44.75476, -10276.6103515625]]], [[[-124.85015, 44.72825, -10752.3984375], [-124.84355, 44.72719, -11590.677734375], [-124.84559, 44.7354, -11465.2587890625], [-124.85015, 44.72825, -10752.3984375]]], [[[-124.89662, 44.72633, -4320.84033203125], [-124.9036, 44.72589, -3357.804931640625], [-124.89864, 44.71814, -3967.3369140625], [-124.89662, 44.72633, -4320.84033203125]]], [[[-124.90811, 44.78718, -8144.5986328125], [-124.9057, 44.79375, -8719.9052734375], [-124.91219, 44.79816, -7862.1103515625], [-124.90811, 44.78718, -8144.5986328125]]], [[[-124.86077, 44.73351, -9339.5126953125], [-124.86235, 44.72532, -9034.7255859375], [-124.85632, 44.72617, -9865.7509765625], [-124.86077, 44.73351, -9339.5126953125]]], [[[-124.95249, 44.78679, -2241.344482421875], [-124.95012, 44.79727, -2390.619873046875], [-124.95763, 44.79034, -1519.51220703125], [-124.95249, 44.78679, -2241.344482421875]]], [[[-124.92427, 44.76243, -4173.79736328125], [-124.92793, 44.76954, -4236.771484375], [-124.93102, 44.7642, -3422.96435546875], [-124.92427, 44.76243, -4173.79736328125]]], [[[-124.94554, 44.80688, -3028.581787109375], [-124.95008, 44.81463, -2562.4970703125], [-124.95181, 44.80615, -2164.989013671875], [-124.94554, 44.80688, -3028.581787109375]]], [[[-124.86655, 44.73248, -8533.9970703125], [-124.8704, 44.73999, -8095.20703125], [-124.87257, 44.73119, -7689.63818359375], [-124.86655, 44.73248, -8533.9970703125]]], [[[-124.95181, 44.80615, -2164.989013671875], [-124.95008, 44.81463, -2562.4970703125], [-124.95654, 44.81331, -1662.956298828125], [-124.95181, 44.80615, -2164.989013671875]]], [[[-124.92068, 44.78921, -6599.64404296875], [-124.91897, 44.79775, -6930.251953125], [-124.9254, 44.79643, -6030.21826171875], [-124.92068, 44.78921, -6599.64404296875]]], [[[-124.9254, 44.79643, -6030.21826171875], [-124.92175, 44.80466, -6322.19677734375], [-124.92815, 44.80334, -5420.99951171875], [-124.9254, 44.79643, -6030.21826171875]]], [[[-124.88308, 44.74624, -6829.98583984375], [-124.87683, 44.73829, -7187.966796875], [-124.87714, 44.74616, -7562.84423828125], [-124.88308, 44.74624, -6829.98583984375]]], [[[-124.8609, 44.75476, -10276.6103515625], [-124.86273, 44.76169, -10931.720703125], [-124.86973, 44.76158, -10146.501953125], [-124.8609, 44.75476, -10276.6103515625]]], [[[-124.94554, 44.80688, -3028.581787109375], [-124.94362, 44.81594, -3462.037353515625], [-124.95008, 44.81463, -2562.4970703125], [-124.94554, 44.80688, -3028.581787109375]]], [[[-124.8704, 44.73999, -8095.20703125], [-124.86701, 44.74771, -8931.2763671875], [-124.87314, 44.74825, -8211.21875], [-124.8704, 44.73999, -8095.20703125]]], [[[-124.8609, 44.75476, -10276.6103515625], [-124.855, 44.75613, -11132.00390625], [-124.86273, 44.76169, -10931.720703125], [-124.8609, 44.75476, -10276.6103515625]]], [[[-124.88229, 44.75411, -7755.86572265625], [-124.87506, 44.75458, -8635.0126953125], [-124.88433, 44.76065, -8512.26171875], [-124.88229, 44.75411, -7755.86572265625]]], [[[-124.92107, 44.70631, -578.7551879882812], [-124.91637, 44.7102, -1335.7161865234375], [-124.92299, 44.71503, -621.7025146484375], [-124.92107, 44.70631, -578.7551879882812]]], [[[-124.91152, 44.72448, -2241.392822265625], [-124.91167, 44.71558, -2142.801025390625], [-124.90535, 44.7173, -3045.384765625], [-124.91152, 44.72448, -2241.392822265625]]], [[[-124.89485, 44.73476, -4664.08447265625], [-124.89052, 44.72753, -5174.95068359375], [-124.8888, 44.73583, -5509.740234375], [-124.89485, 44.73476, -4664.08447265625]]], [[[-124.86836, 44.7241, -8194.345703125], [-124.86918, 44.71586, -7813.01904296875], [-124.86319, 44.71708, -8654.4296875], [-124.86836, 44.7241, -8194.345703125]]], [[[-124.90595, 44.73688, -3329.69873046875], [-124.90925, 44.73144, -2634.54052734375], [-124.9036, 44.72589, -3357.804931640625], [-124.90595, 44.73688, -3329.69873046875]]], [[[-124.92051, 44.74407, -2107.767333984375], [-124.92221, 44.73813, -1314.622314453125], [-124.91492, 44.73471, -1923.3609619140625], [-124.92051, 44.74407, -2107.767333984375]]], [[[-124.95091, 44.7787, -2197.896484375], [-124.95776, 44.78169, -1429.193603515625], [-124.95443, 44.77394, -1386.4345703125], [-124.95091, 44.7787, -2197.896484375]]], [[[-124.94687, 44.77158, -2126.69189453125], [-124.95443, 44.77394, -1386.4345703125], [-124.94801, 44.76593, -1459.11376953125], [-124.94687, 44.77158, -2126.69189453125]]], [[[-124.8609, 44.75476, -10276.6103515625], [-124.86051, 44.74792, -9725.2041015625], [-124.85375, 44.74675, -10560.2509765625], [-124.8609, 44.75476, -10276.6103515625]]], [[[-124.93894, 44.80872, -3955.822021484375], [-124.94362, 44.81594, -3462.037353515625], [-124.94554, 44.80688, -3028.581787109375], [-124.93894, 44.80872, -3955.822021484375]]], [[[-124.86077, 44.73351, -9339.5126953125], [-124.85632, 44.72617, -9865.7509765625], [-124.85536, 44.73306, -10090.6435546875], [-124.86077, 44.73351, -9339.5126953125]]], [[[-124.90682, 44.80222, -8581.0732421875], [-124.91219, 44.79816, -7862.1103515625], [-124.9057, 44.79375, -8719.9052734375], [-124.90682, 44.80222, -8581.0732421875]]], [[[-124.93102, 44.7642, -3422.96435546875], [-124.93913, 44.76643, -2573.30419921875], [-124.93255, 44.75793, -2840.40380859375], [-124.93102, 44.7642, -3422.96435546875]]], [[[-124.91167, 44.71558, -2142.801025390625], [-124.90534, 44.70872, -2750.31591796875], [-124.90535, 44.7173, -3045.384765625], [-124.91167, 44.71558, -2142.801025390625]]], [[[-124.90159, 44.80041, -9349.9189453125], [-124.89612, 44.80529, -10048.3369140625], [-124.90152, 44.80897, -9156.234375], [-124.90159, 44.80041, -9349.9189453125]]], [[[-124.93438, 44.78643, -4695.45068359375], [-124.94162, 44.7884, -3751.19189453125], [-124.93875, 44.77997, -3789.15966796875], [-124.93438, 44.78643, -4695.45068359375]]], [[[-124.91838, 44.7642, -5040.57373046875], [-124.91723, 44.75659, -4311.80224609375], [-124.91072, 44.75576, -4850.80908203125], [-124.91838, 44.7642, -5040.57373046875]]], [[[-124.91152, 44.72448, -2241.392822265625], [-124.91804, 44.72858, -1385.1103515625], [-124.9176, 44.71946, -1382.857666015625], [-124.91152, 44.72448, -2241.392822265625]]], [[[-124.93894, 44.80872, -3955.822021484375], [-124.93716, 44.81726, -4361.57763671875], [-124.94362, 44.81594, -3462.037353515625], [-124.93894, 44.80872, -3955.822021484375]]], [[[-124.86077, 44.73351, -9339.5126953125], [-124.86655, 44.73248, -8533.9970703125], [-124.86235, 44.72532, -9034.7255859375], [-124.86077, 44.73351, -9339.5126953125]]], [[[-124.91343, 44.74636, -3252.47802734375], [-124.90595, 44.73688, -3329.69873046875], [-124.90236, 44.74207, -4111.04638671875], [-124.91343, 44.74636, -3252.47802734375]]], [[[-124.94715, 44.79144, -2986.82958984375], [-124.94199, 44.79926, -3525.29345703125], [-124.95012, 44.79727, -2390.619873046875], [-124.94715, 44.79144, -2986.82958984375]]], [[[-124.93174, 44.79511, -5125.37841796875], [-124.92815, 44.80334, -5420.99951171875], [-124.9346, 44.80203, -4519.828125], [-124.93174, 44.79511, -5125.37841796875]]], [[[-124.86235, 44.72532, -9034.7255859375], [-124.86319, 44.71708, -8654.4296875], [-124.8572, 44.7183, -9495.49609375], [-124.86235, 44.72532, -9034.7255859375]]], [[[-124.94596, 44.7829, -2998.169921875], [-124.95249, 44.78679, -2241.344482421875], [-124.95091, 44.7787, -2197.896484375], [-124.94596, 44.7829, -2998.169921875]]], [[[-124.93236, 44.81031, -4877.2646484375], [-124.93716, 44.81726, -4361.57763671875], [-124.93894, 44.80872, -3955.822021484375], [-124.93236, 44.81031, -4877.2646484375]]], [[[-124.90041, 44.73322, -3877.136474609375], [-124.9036, 44.72589, -3357.804931640625], [-124.89662, 44.72633, -4320.84033203125], [-124.90041, 44.73322, -3877.136474609375]]], [[[-124.95249, 44.78679, -2241.344482421875], [-124.95776, 44.78169, -1429.193603515625], [-124.95091, 44.7787, -2197.896484375], [-124.95249, 44.78679, -2241.344482421875]]], [[[-124.8577, 44.74051, -9846.6875], [-124.85375, 44.74675, -10560.2509765625], [-124.86051, 44.74792, -9725.2041015625], [-124.8577, 44.74051, -9846.6875]]], [[[-124.90535, 44.7173, -3045.384765625], [-124.90534, 44.70872, -2750.31591796875], [-124.89919, 44.7098, -3603.633056640625], [-124.90535, 44.7173, -3045.384765625]]], [[[-124.88638, 44.72043, -5673.94287109375], [-124.88119, 44.71342, -6127.79638671875], [-124.88036, 44.72166, -6516.35986328125], [-124.88638, 44.72043, -5673.94287109375]]], [[[-124.86077, 44.73351, -9339.5126953125], [-124.85536, 44.73306, -10090.6435546875], [-124.8577, 44.74051, -9846.6875], [-124.86077, 44.73351, -9339.5126953125]]], [[[-124.87437, 44.72288, -7353.4443359375], [-124.87517, 44.71464, -6972.2880859375], [-124.86918, 44.71586, -7813.01904296875], [-124.87437, 44.72288, -7353.4443359375]]], [[[-124.91252, 44.73965, -2641.328857421875], [-124.92051, 44.74407, -2107.767333984375], [-124.91492, 44.73471, -1923.3609619140625], [-124.91252, 44.73965, -2641.328857421875]]], [[[-124.90811, 44.78718, -8144.5986328125], [-124.90038, 44.78388, -8855.8466796875], [-124.9057, 44.79375, -8719.9052734375], [-124.90811, 44.78718, -8144.5986328125]]], [[[-124.87506, 44.75458, -8635.0126953125], [-124.87667, 44.76091, -9305.7998046875], [-124.88433, 44.76065, -8512.26171875], [-124.87506, 44.75458, -8635.0126953125]]], [[[-124.91838, 44.7642, -5040.57373046875], [-124.91365, 44.76909, -5957.30712890625], [-124.9198, 44.77385, -5625.140625], [-124.91838, 44.7642, -5040.57373046875]]], [[[-124.93236, 44.81031, -4877.2646484375], [-124.9307, 44.81857, -5261.11767578125], [-124.93716, 44.81726, -4361.57763671875], [-124.93236, 44.81031, -4877.2646484375]]], [[[-124.86235, 44.72532, -9034.7255859375], [-124.8572, 44.7183, -9495.49609375], [-124.85632, 44.72617, -9865.7509765625], [-124.86235, 44.72532, -9034.7255859375]]], [[[-124.88597, 44.76694, -9237.6650390625], [-124.87667, 44.76091, -9305.7998046875], [-124.87889, 44.76655, -10084.404296875], [-124.88597, 44.76694, -9237.6650390625]]], [[[-124.91167, 44.71558, -2142.801025390625], [-124.91085, 44.70711, -1950.4141845703125], [-124.90534, 44.70872, -2750.31591796875], [-124.91167, 44.71558, -2142.801025390625]]], [[[-124.91365, 44.76909, -5957.30712890625], [-124.90965, 44.76198, -5897.00732421875], [-124.90689, 44.7685, -6760.1875], [-124.91365, 44.76909, -5957.30712890625]]], [[[-124.91023, 44.75011, -4046.827392578125], [-124.90236, 44.74207, -4111.04638671875], [-124.90269, 44.74888, -4774.48681640625], [-124.91023, 44.75011, -4046.827392578125]]], [[[-124.94162, 44.7884, -3751.19189453125], [-124.94715, 44.79144, -2986.82958984375], [-124.94596, 44.7829, -2998.169921875], [-124.94162, 44.7884, -3751.19189453125]]], [[[-124.92589, 44.81162, -5776.681640625], [-124.9307, 44.81857, -5261.11767578125], [-124.93236, 44.81031, -4877.2646484375], [-124.92589, 44.81162, -5776.681640625]]], [[[-124.87257, 44.73119, -7689.63818359375], [-124.87857, 44.72997, -6849.81396484375], [-124.87437, 44.72288, -7353.4443359375], [-124.87257, 44.73119, -7689.63818359375]]], [[[-124.91349, 44.776, -6577.1826171875], [-124.91208, 44.78251, -7299.9951171875], [-124.92054, 44.78158, -6180.52685546875], [-124.91349, 44.776, -6577.1826171875]]], [[[-124.86397, 44.74091, -8988.8134765625], [-124.86077, 44.73351, -9339.5126953125], [-124.8577, 44.74051, -9846.6875], [-124.86397, 44.74091, -8988.8134765625]]], [[[-124.88638, 44.72043, -5673.94287109375], [-124.88716, 44.7122, -5290.23486328125], [-124.88119, 44.71342, -6127.79638671875], [-124.88638, 44.72043, -5673.94287109375]]], [[[-124.91072, 44.75576, -4850.80908203125], [-124.91023, 44.75011, -4046.827392578125], [-124.90269, 44.74888, -4774.48681640625], [-124.91072, 44.75576, -4850.80908203125]]], [[[-124.86655, 44.73248, -8533.9970703125], [-124.86836, 44.7241, -8194.345703125], [-124.86235, 44.72532, -9034.7255859375], [-124.86655, 44.73248, -8533.9970703125]]], [[[-124.9036, 44.72589, -3357.804931640625], [-124.91152, 44.72448, -2241.392822265625], [-124.90535, 44.7173, -3045.384765625], [-124.9036, 44.72589, -3357.804931640625]]], [[[-124.93438, 44.78643, -4695.45068359375], [-124.92727, 44.78028, -5244.53515625], [-124.92745, 44.78817, -5666.9033203125], [-124.93438, 44.78643, -4695.45068359375]]], [[[-124.92589, 44.81162, -5776.681640625], [-124.92424, 44.81988, -6160.66015625], [-124.9307, 44.81857, -5261.11767578125], [-124.92589, 44.81162, -5776.681640625]]], [[[-124.8577, 44.74051, -9846.6875], [-124.85141, 44.73815, -10690.4541015625], [-124.85375, 44.74675, -10560.2509765625], [-124.8577, 44.74051, -9846.6875]]], [[[-124.833, 44.71512, -12428.4267578125], [-124.83719, 44.72351, -12342.0986328125], [-124.839, 44.7139, -11587.8017578125], [-124.833, 44.71512, -12428.4267578125]]], [[[-124.92589, 44.81162, -5776.681640625], [-124.91943, 44.81294, -6676.4775390625], [-124.92424, 44.81988, -6160.66015625], [-124.92589, 44.81162, -5776.681640625]]], [[[-124.92175, 44.80466, -6322.19677734375], [-124.91943, 44.81294, -6676.4775390625], [-124.92589, 44.81162, -5776.681640625], [-124.92175, 44.80466, -6322.19677734375]]], [[[-124.92389, 44.77199, -4936.328125], [-124.92727, 44.78028, -5244.53515625], [-124.93196, 44.77752, -4446.46337890625], [-124.92389, 44.77199, -4936.328125]]], [[[-124.90515, 44.75556, -5439.3984375], [-124.91072, 44.75576, -4850.80908203125], [-124.90269, 44.74888, -4774.48681640625], [-124.90515, 44.75556, -5439.3984375]]], [[[-124.93174, 44.79511, -5125.37841796875], [-124.9346, 44.80203, -4519.828125], [-124.93799, 44.79413, -4273.61962890625], [-124.93174, 44.79511, -5125.37841796875]]], [[[-124.91533, 44.80596, -7223.89697265625], [-124.91943, 44.81294, -6676.4775390625], [-124.92175, 44.80466, -6322.19677734375], [-124.91533, 44.80596, -7223.89697265625]]], [[[-124.87437, 44.72288, -7353.4443359375], [-124.88036, 44.72166, -6516.35986328125], [-124.87517, 44.71464, -6972.2880859375], [-124.87437, 44.72288, -7353.4443359375]]], [[[-124.91167, 44.71558, -2142.801025390625], [-124.91637, 44.7102, -1335.7161865234375], [-124.91085, 44.70711, -1950.4141845703125], [-124.91167, 44.71558, -2142.801025390625]]], [[[-124.89241, 44.71923, -4831.82080078125], [-124.88716, 44.7122, -5290.23486328125], [-124.88638, 44.72043, -5673.94287109375], [-124.89241, 44.71923, -4831.82080078125]]], [[[-124.89341, 44.7753, -8963.462890625], [-124.8928, 44.78205, -9636.5654296875], [-124.90038, 44.78388, -8855.8466796875], [-124.89341, 44.7753, -8963.462890625]]], [[[-124.89505, 44.74263, -5070.3349609375], [-124.89485, 44.73476, -4664.08447265625], [-124.8888, 44.73583, -5509.740234375], [-124.89505, 44.74263, -5070.3349609375]]], [[[-124.9397, 44.75929, -2007.1781005859375], [-124.94801, 44.76593, -1459.11376953125], [-124.94519, 44.75804, -1220.3448486328125], [-124.9397, 44.75929, -2007.1781005859375]]], [[[-124.91072, 44.75576, -4850.80908203125], [-124.90965, 44.76198, -5897.00732421875], [-124.91838, 44.7642, -5040.57373046875], [-124.91072, 44.75576, -4850.80908203125]]], [[[-124.87517, 44.71464, -6972.2880859375], [-124.87501, 44.70657, -6544.048828125], [-124.86901, 44.70779, -7384.673828125], [-124.87517, 44.71464, -6972.2880859375]]], [[[-124.91533, 44.80596, -7223.89697265625], [-124.91299, 44.81425, -7576.4833984375], [-124.91943, 44.81294, -6676.4775390625], [-124.91533, 44.80596, -7223.89697265625]]], [[[-124.94199, 44.79926, -3525.29345703125], [-124.94162, 44.7884, -3751.19189453125], [-124.93799, 44.79413, -4273.61962890625], [-124.94199, 44.79926, -3525.29345703125]]], [[[-124.88036, 44.72166, -6516.35986328125], [-124.88119, 44.71342, -6127.79638671875], [-124.87517, 44.71464, -6972.2880859375], [-124.88036, 44.72166, -6516.35986328125]]], [[[-124.92051, 44.74407, -2107.767333984375], [-124.92933, 44.74621, -1371.7239990234375], [-124.92221, 44.73813, -1314.622314453125], [-124.92051, 44.74407, -2107.767333984375]]], [[[-124.90894, 44.80768, -8123.27001953125], [-124.91299, 44.81425, -7576.4833984375], [-124.91533, 44.80596, -7223.89697265625], [-124.90894, 44.80768, -8123.27001953125]]], [[[-124.93112, 44.75194, -2083.585693359375], [-124.93897, 44.75236, -1363.5897216796875], [-124.92933, 44.74621, -1371.7239990234375], [-124.93112, 44.75194, -2083.585693359375]]], [[[-124.93438, 44.78643, -4695.45068359375], [-124.92745, 44.78817, -5666.9033203125], [-124.93174, 44.79511, -5125.37841796875], [-124.93438, 44.78643, -4695.45068359375]]], [[[-124.90161, 44.77743, -8153.6279296875], [-124.89341, 44.7753, -8963.462890625], [-124.90038, 44.78388, -8855.8466796875], [-124.90161, 44.77743, -8153.6279296875]]], [[[-124.95091, 44.7787, -2197.896484375], [-124.95443, 44.77394, -1386.4345703125], [-124.94687, 44.77158, -2126.69189453125], [-124.95091, 44.7787, -2197.896484375]]], [[[-124.95249, 44.78679, -2241.344482421875], [-124.95763, 44.79034, -1519.51220703125], [-124.95776, 44.78169, -1429.193603515625], [-124.95249, 44.78679, -2241.344482421875]]], [[[-124.88716, 44.7122, -5290.23486328125], [-124.88701, 44.70412, -4862.79736328125], [-124.88101, 44.70535, -5703.423828125], [-124.88716, 44.7122, -5290.23486328125]]], [[[-124.90894, 44.80768, -8123.27001953125], [-124.90648, 44.81551, -8481.2451171875], [-124.91299, 44.81425, -7576.4833984375], [-124.90894, 44.80768, -8123.27001953125]]], [[[-124.93552, 44.7717, -3499.526123046875], [-124.93913, 44.76643, -2573.30419921875], [-124.93102, 44.7642, -3422.96435546875], [-124.93552, 44.7717, -3499.526123046875]]], [[[-124.91838, 44.7642, -5040.57373046875], [-124.9198, 44.77385, -5625.140625], [-124.92389, 44.77199, -4936.328125], [-124.91838, 44.7642, -5040.57373046875]]], [[[-124.90894, 44.80768, -8123.27001953125], [-124.90152, 44.80897, -9156.234375], [-124.90648, 44.81551, -8481.2451171875], [-124.90894, 44.80768, -8123.27001953125]]], [[[-124.90152, 44.80897, -9156.234375], [-124.90894, 44.80768, -8123.27001953125], [-124.90682, 44.80222, -8581.0732421875], [-124.90152, 44.80897, -9156.234375]]], [[[-124.90152, 44.80897, -9156.234375], [-124.90682, 44.80222, -8581.0732421875], [-124.90159, 44.80041, -9349.9189453125], [-124.90152, 44.80897, -9156.234375]]], [[[-124.91349, 44.776, -6577.1826171875], [-124.90689, 44.7685, -6760.1875], [-124.90692, 44.77565, -7341.50244140625], [-124.91349, 44.776, -6577.1826171875]]], [[[-124.92745, 44.78817, -5666.9033203125], [-124.92068, 44.78921, -6599.64404296875], [-124.9254, 44.79643, -6030.21826171875], [-124.92745, 44.78817, -5666.9033203125]]], [[[-124.91723, 44.75659, -4311.80224609375], [-124.9228, 44.75516, -3537.507568359375], [-124.91023, 44.75011, -4046.827392578125], [-124.91723, 44.75659, -4311.80224609375]]], [[[-124.91152, 44.72448, -2241.392822265625], [-124.91492, 44.73471, -1923.3609619140625], [-124.91804, 44.72858, -1385.1103515625], [-124.91152, 44.72448, -2241.392822265625]]], [[[-124.89578, 44.79725, -10136.962890625], [-124.89612, 44.80529, -10048.3369140625], [-124.90159, 44.80041, -9349.9189453125], [-124.89578, 44.79725, -10136.962890625]]], [[[-124.87667, 44.76091, -9305.7998046875], [-124.86815, 44.75495, -9470.826171875], [-124.86973, 44.76158, -10146.501953125], [-124.87667, 44.76091, -9305.7998046875]]], [[[-124.83719, 44.72351, -12342.0986328125], [-124.84476, 44.72063, -11230.8056640625], [-124.839, 44.7139, -11587.8017578125], [-124.83719, 44.72351, -12342.0986328125]]], [[[-124.94286, 44.77539, -2916.075927734375], [-124.94596, 44.7829, -2998.169921875], [-124.95091, 44.7787, -2197.896484375], [-124.94286, 44.77539, -2916.075927734375]]], [[[-124.90894, 44.80768, -8123.27001953125], [-124.91533, 44.80596, -7223.89697265625], [-124.91219, 44.79816, -7862.1103515625], [-124.90894, 44.80768, -8123.27001953125]]], [[[-124.89578, 44.79725, -10136.962890625], [-124.89095, 44.80186, -10846.236328125], [-124.89612, 44.80529, -10048.3369140625], [-124.89578, 44.79725, -10136.962890625]]], [[[-124.89578, 44.79725, -10136.962890625], [-124.88957, 44.79523, -10922.5185546875], [-124.89095, 44.80186, -10846.236328125], [-124.89578, 44.79725, -10136.962890625]]], [[[-124.89578, 44.79725, -10136.962890625], [-124.89221, 44.78905, -10273.109375], [-124.88957, 44.79523, -10922.5185546875], [-124.89578, 44.79725, -10136.962890625]]], [[[-124.89578, 44.79725, -10136.962890625], [-124.89921, 44.7909, -9471.0771484375], [-124.89221, 44.78905, -10273.109375], [-124.89578, 44.79725, -10136.962890625]]], [[[-124.90925, 44.73144, -2634.54052734375], [-124.91252, 44.73965, -2641.328857421875], [-124.91492, 44.73471, -1923.3609619140625], [-124.90925, 44.73144, -2634.54052734375]]], [[[-124.89921, 44.7909, -9471.0771484375], [-124.89578, 44.79725, -10136.962890625], [-124.90159, 44.80041, -9349.9189453125], [-124.89921, 44.7909, -9471.0771484375]]], [[[-124.94801, 44.76593, -1459.11376953125], [-124.93913, 44.76643, -2573.30419921875], [-124.94687, 44.77158, -2126.69189453125], [-124.94801, 44.76593, -1459.11376953125]]], [[[-124.9057, 44.79375, -8719.9052734375], [-124.89921, 44.7909, -9471.0771484375], [-124.90159, 44.80041, -9349.9189453125], [-124.9057, 44.79375, -8719.9052734375]]], [[[-124.9036, 44.72589, -3357.804931640625], [-124.90925, 44.73144, -2634.54052734375], [-124.91152, 44.72448, -2241.392822265625], [-124.9036, 44.72589, -3357.804931640625]]], [[[-124.86815, 44.75495, -9470.826171875], [-124.8609, 44.75476, -10276.6103515625], [-124.86973, 44.76158, -10146.501953125], [-124.86815, 44.75495, -9470.826171875]]], [[[-124.91023, 44.75011, -4046.827392578125], [-124.91343, 44.74636, -3252.47802734375], [-124.90236, 44.74207, -4111.04638671875], [-124.91023, 44.75011, -4046.827392578125]]], [[[-124.9057, 44.79375, -8719.9052734375], [-124.90038, 44.78388, -8855.8466796875], [-124.89921, 44.7909, -9471.0771484375], [-124.9057, 44.79375, -8719.9052734375]]], [[[-124.90811, 44.78718, -8144.5986328125], [-124.90161, 44.77743, -8153.6279296875], [-124.90038, 44.78388, -8855.8466796875], [-124.90811, 44.78718, -8144.5986328125]]], [[[-124.91167, 44.71558, -2142.801025390625], [-124.9176, 44.71946, -1382.857666015625], [-124.91637, 44.7102, -1335.7161865234375], [-124.91167, 44.71558, -2142.801025390625]]], [[[-124.89979, 44.75688, -6240.41259765625], [-124.89675, 44.75012, -5607.12353515625], [-124.89091, 44.75103, -6391.80908203125], [-124.89979, 44.75688, -6240.41259765625]]], [[[-124.91208, 44.78251, -7299.9951171875], [-124.90161, 44.77743, -8153.6279296875], [-124.90811, 44.78718, -8144.5986328125], [-124.91208, 44.78251, -7299.9951171875]]], [[[-124.90692, 44.77565, -7341.50244140625], [-124.90161, 44.77743, -8153.6279296875], [-124.91208, 44.78251, -7299.9951171875], [-124.90692, 44.77565, -7341.50244140625]]], [[[-124.90692, 44.77565, -7341.50244140625], [-124.90018, 44.76937, -7659.14013671875], [-124.90161, 44.77743, -8153.6279296875], [-124.90692, 44.77565, -7341.50244140625]]], [[[-124.90689, 44.7685, -6760.1875], [-124.90018, 44.76937, -7659.14013671875], [-124.90692, 44.77565, -7341.50244140625], [-124.90689, 44.7685, -6760.1875]]], [[[-124.89864, 44.71814, -3967.3369140625], [-124.89919, 44.7098, -3603.633056640625], [-124.89318, 44.71101, -4446.89892578125], [-124.89864, 44.71814, -3967.3369140625]]], [[[-124.90689, 44.7685, -6760.1875], [-124.9013, 44.76182, -6977.0361328125], [-124.90018, 44.76937, -7659.14013671875], [-124.90689, 44.7685, -6760.1875]]], [[[-124.93552, 44.7717, -3499.526123046875], [-124.93196, 44.77752, -4446.46337890625], [-124.93875, 44.77997, -3789.15966796875], [-124.93552, 44.7717, -3499.526123046875]]], [[[-124.89675, 44.75012, -5607.12353515625], [-124.89505, 44.74263, -5070.3349609375], [-124.88887, 44.74386, -5930.24755859375], [-124.89675, 44.75012, -5607.12353515625]]], [[[-124.90965, 44.76198, -5897.00732421875], [-124.9013, 44.76182, -6977.0361328125], [-124.90689, 44.7685, -6760.1875], [-124.90965, 44.76198, -5897.00732421875]]], [[[-124.89257, 44.76113, -7747.7353515625], [-124.88433, 44.76065, -8512.26171875], [-124.8932, 44.76814, -8419.7978515625], [-124.89257, 44.76113, -7747.7353515625]]], [[[-124.90965, 44.76198, -5897.00732421875], [-124.89979, 44.75688, -6240.41259765625], [-124.9013, 44.76182, -6977.0361328125], [-124.90965, 44.76198, -5897.00732421875]]], [[[-124.9036, 44.72589, -3357.804931640625], [-124.90535, 44.7173, -3045.384765625], [-124.89864, 44.71814, -3967.3369140625], [-124.9036, 44.72589, -3357.804931640625]]], [[[-124.90965, 44.76198, -5897.00732421875], [-124.90515, 44.75556, -5439.3984375], [-124.89979, 44.75688, -6240.41259765625], [-124.90965, 44.76198, -5897.00732421875]]], [[[-124.92793, 44.76954, -4236.771484375], [-124.92427, 44.76243, -4173.79736328125], [-124.91838, 44.7642, -5040.57373046875], [-124.92793, 44.76954, -4236.771484375]]], [[[-124.91072, 44.75576, -4850.80908203125], [-124.90515, 44.75556, -5439.3984375], [-124.90965, 44.76198, -5897.00732421875], [-124.91072, 44.75576, -4850.80908203125]]], [[[-124.90515, 44.75556, -5439.3984375], [-124.90269, 44.74888, -4774.48681640625], [-124.89675, 44.75012, -5607.12353515625], [-124.90515, 44.75556, -5439.3984375]]], [[[-124.90925, 44.73144, -2634.54052734375], [-124.91492, 44.73471, -1923.3609619140625], [-124.91152, 44.72448, -2241.392822265625], [-124.90925, 44.73144, -2634.54052734375]]], [[[-124.87257, 44.73119, -7689.63818359375], [-124.87437, 44.72288, -7353.4443359375], [-124.86836, 44.7241, -8194.345703125], [-124.87257, 44.73119, -7689.63818359375]]], [[[-124.88229, 44.75411, -7755.86572265625], [-124.87714, 44.74616, -7562.84423828125], [-124.87314, 44.74825, -8211.21875], [-124.88229, 44.75411, -7755.86572265625]]], [[[-124.89864, 44.71814, -3967.3369140625], [-124.89318, 44.71101, -4446.89892578125], [-124.89241, 44.71923, -4831.82080078125], [-124.89864, 44.71814, -3967.3369140625]]], [[[-124.89979, 44.75688, -6240.41259765625], [-124.90515, 44.75556, -5439.3984375], [-124.89675, 44.75012, -5607.12353515625], [-124.89979, 44.75688, -6240.41259765625]]], [[[-124.89052, 44.72753, -5174.95068359375], [-124.89662, 44.72633, -4320.84033203125], [-124.89241, 44.71923, -4831.82080078125], [-124.89052, 44.72753, -5174.95068359375]]], [[[-124.90269, 44.74888, -4774.48681640625], [-124.90236, 44.74207, -4111.04638671875], [-124.89505, 44.74263, -5070.3349609375], [-124.90269, 44.74888, -4774.48681640625]]], [[[-124.89018, 44.75549, -7017.69775390625], [-124.89979, 44.75688, -6240.41259765625], [-124.89091, 44.75103, -6391.80908203125], [-124.89018, 44.75549, -7017.69775390625]]], [[[-124.89018, 44.75549, -7017.69775390625], [-124.9013, 44.76182, -6977.0361328125], [-124.89979, 44.75688, -6240.41259765625], [-124.89018, 44.75549, -7017.69775390625]]], [[[-124.89241, 44.71923, -4831.82080078125], [-124.89318, 44.71101, -4446.89892578125], [-124.88716, 44.7122, -5290.23486328125], [-124.89241, 44.71923, -4831.82080078125]]], [[[-124.92054, 44.78158, -6180.52685546875], [-124.91208, 44.78251, -7299.9951171875], [-124.92068, 44.78921, -6599.64404296875], [-124.92054, 44.78158, -6180.52685546875]]], [[[-124.8704, 44.73999, -8095.20703125], [-124.86397, 44.74091, -8988.8134765625], [-124.86701, 44.74771, -8931.2763671875], [-124.8704, 44.73999, -8095.20703125]]], [[[-124.89018, 44.75549, -7017.69775390625], [-124.89257, 44.76113, -7747.7353515625], [-124.9013, 44.76182, -6977.0361328125], [-124.89018, 44.75549, -7017.69775390625]]], [[[-124.89018, 44.75549, -7017.69775390625], [-124.88229, 44.75411, -7755.86572265625], [-124.89257, 44.76113, -7747.7353515625], [-124.89018, 44.75549, -7017.69775390625]]], [[[-124.89018, 44.75549, -7017.69775390625], [-124.88308, 44.74624, -6829.98583984375], [-124.88229, 44.75411, -7755.86572265625], [-124.89018, 44.75549, -7017.69775390625]]], [[[-124.89018, 44.75549, -7017.69775390625], [-124.89091, 44.75103, -6391.80908203125], [-124.88308, 44.74624, -6829.98583984375], [-124.89018, 44.75549, -7017.69775390625]]], [[[-124.86701, 44.74771, -8931.2763671875], [-124.86051, 44.74792, -9725.2041015625], [-124.86815, 44.75495, -9470.826171875], [-124.86701, 44.74771, -8931.2763671875]]], [[[-124.91349, 44.776, -6577.1826171875], [-124.90692, 44.77565, -7341.50244140625], [-124.91208, 44.78251, -7299.9951171875], [-124.91349, 44.776, -6577.1826171875]]], [[[-124.89091, 44.75103, -6391.80908203125], [-124.88887, 44.74386, -5930.24755859375], [-124.88308, 44.74624, -6829.98583984375], [-124.89091, 44.75103, -6391.80908203125]]], [[[-124.9397, 44.75929, -2007.1781005859375], [-124.94519, 44.75804, -1220.3448486328125], [-124.93897, 44.75236, -1363.5897216796875], [-124.9397, 44.75929, -2007.1781005859375]]], [[[-124.89675, 44.75012, -5607.12353515625], [-124.88887, 44.74386, -5930.24755859375], [-124.89091, 44.75103, -6391.80908203125], [-124.89675, 44.75012, -5607.12353515625]]], [[[-124.87506, 44.75458, -8635.0126953125], [-124.86815, 44.75495, -9470.826171875], [-124.87667, 44.76091, -9305.7998046875], [-124.87506, 44.75458, -8635.0126953125]]], [[[-124.90269, 44.74888, -4774.48681640625], [-124.89505, 44.74263, -5070.3349609375], [-124.89675, 44.75012, -5607.12353515625], [-124.90269, 44.74888, -4774.48681640625]]], [[[-124.92727, 44.78028, -5244.53515625], [-124.93438, 44.78643, -4695.45068359375], [-124.93196, 44.77752, -4446.46337890625], [-124.92727, 44.78028, -5244.53515625]]], [[[-124.88308, 44.74624, -6829.98583984375], [-124.88887, 44.74386, -5930.24755859375], [-124.88281, 44.73713, -6350.193359375], [-124.88308, 44.74624, -6829.98583984375]]], [[[-124.91343, 44.74636, -3252.47802734375], [-124.91023, 44.75011, -4046.827392578125], [-124.9228, 44.75516, -3537.507568359375], [-124.91343, 44.74636, -3252.47802734375]]], [[[-124.91343, 44.74636, -3252.47802734375], [-124.9228, 44.75516, -3537.507568359375], [-124.9229, 44.75069, -2726.33837890625], [-124.91343, 44.74636, -3252.47802734375]]], [[[-124.88456, 44.72874, -6010.59228515625], [-124.89052, 44.72753, -5174.95068359375], [-124.88638, 44.72043, -5673.94287109375], [-124.88456, 44.72874, -6010.59228515625]]], [[[-124.8862, 44.77416, -9775.0556640625], [-124.87929, 44.7737, -10608.619140625], [-124.88536, 44.7808, -10436.4189453125], [-124.8862, 44.77416, -9775.0556640625]]], [[[-124.92068, 44.78921, -6599.64404296875], [-124.91462, 44.79081, -7458.90625], [-124.91897, 44.79775, -6930.251953125], [-124.92068, 44.78921, -6599.64404296875]]], [[[-124.92051, 44.74407, -2107.767333984375], [-124.91252, 44.73965, -2641.328857421875], [-124.91343, 44.74636, -3252.47802734375], [-124.92051, 44.74407, -2107.767333984375]]], [[[-124.90925, 44.73144, -2634.54052734375], [-124.90595, 44.73688, -3329.69873046875], [-124.91252, 44.73965, -2641.328857421875], [-124.90925, 44.73144, -2634.54052734375]]], [[[-124.90595, 44.73688, -3329.69873046875], [-124.9036, 44.72589, -3357.804931640625], [-124.90041, 44.73322, -3877.136474609375], [-124.90595, 44.73688, -3329.69873046875]]], [[[-124.90236, 44.74207, -4111.04638671875], [-124.90595, 44.73688, -3329.69873046875], [-124.90041, 44.73322, -3877.136474609375], [-124.90236, 44.74207, -4111.04638671875]]], [[[-124.91343, 44.74636, -3252.47802734375], [-124.91252, 44.73965, -2641.328857421875], [-124.90595, 44.73688, -3329.69873046875], [-124.91343, 44.74636, -3252.47802734375]]], [[[-124.8888, 44.73583, -5509.740234375], [-124.88456, 44.72874, -6010.59228515625], [-124.88281, 44.73713, -6350.193359375], [-124.8888, 44.73583, -5509.740234375]]], [[[-124.90535, 44.7173, -3045.384765625], [-124.89919, 44.7098, -3603.633056640625], [-124.89864, 44.71814, -3967.3369140625], [-124.90535, 44.7173, -3045.384765625]]], [[[-124.90236, 44.74207, -4111.04638671875], [-124.90041, 44.73322, -3877.136474609375], [-124.89485, 44.73476, -4664.08447265625], [-124.90236, 44.74207, -4111.04638671875]]], [[[-124.8888, 44.73583, -5509.740234375], [-124.88887, 44.74386, -5930.24755859375], [-124.89505, 44.74263, -5070.3349609375], [-124.8888, 44.73583, -5509.740234375]]], [[[-124.89485, 44.73476, -4664.08447265625], [-124.89505, 44.74263, -5070.3349609375], [-124.90236, 44.74207, -4111.04638671875], [-124.89485, 44.73476, -4664.08447265625]]], [[[-124.93438, 44.78643, -4695.45068359375], [-124.93174, 44.79511, -5125.37841796875], [-124.93799, 44.79413, -4273.61962890625], [-124.93438, 44.78643, -4695.45068359375]]], [[[-124.88887, 44.74386, -5930.24755859375], [-124.8888, 44.73583, -5509.740234375], [-124.88281, 44.73713, -6350.193359375], [-124.88887, 44.74386, -5930.24755859375]]], [[[-124.93552, 44.7717, -3499.526123046875], [-124.93875, 44.77997, -3789.15966796875], [-124.94286, 44.77539, -2916.075927734375], [-124.93552, 44.7717, -3499.526123046875]]], [[[-124.90682, 44.80222, -8581.0732421875], [-124.90894, 44.80768, -8123.27001953125], [-124.91219, 44.79816, -7862.1103515625], [-124.90682, 44.80222, -8581.0732421875]]], [[[-124.87857, 44.72997, -6849.81396484375], [-124.88036, 44.72166, -6516.35986328125], [-124.87437, 44.72288, -7353.4443359375], [-124.87857, 44.72997, -6849.81396484375]]], [[[-124.92054, 44.78158, -6180.52685546875], [-124.92727, 44.78028, -5244.53515625], [-124.9198, 44.77385, -5625.140625], [-124.92054, 44.78158, -6180.52685546875]]], [[[-124.88308, 44.74624, -6829.98583984375], [-124.87714, 44.74616, -7562.84423828125], [-124.88229, 44.75411, -7755.86572265625], [-124.88308, 44.74624, -6829.98583984375]]], [[[-124.88229, 44.75411, -7755.86572265625], [-124.87314, 44.74825, -8211.21875], [-124.87506, 44.75458, -8635.0126953125], [-124.88229, 44.75411, -7755.86572265625]]], [[[-124.93552, 44.7717, -3499.526123046875], [-124.94286, 44.77539, -2916.075927734375], [-124.93913, 44.76643, -2573.30419921875], [-124.93552, 44.7717, -3499.526123046875]]], [[[-124.86973, 44.76158, -10146.501953125], [-124.87172, 44.76711, -10885.822265625], [-124.87889, 44.76655, -10084.404296875], [-124.86973, 44.76158, -10146.501953125]]], [[[-124.93552, 44.7717, -3499.526123046875], [-124.92793, 44.76954, -4236.771484375], [-124.93196, 44.77752, -4446.46337890625], [-124.93552, 44.7717, -3499.526123046875]]], [[[-124.89257, 44.76113, -7747.7353515625], [-124.88229, 44.75411, -7755.86572265625], [-124.88433, 44.76065, -8512.26171875], [-124.89257, 44.76113, -7747.7353515625]]], [[[-124.89257, 44.76113, -7747.7353515625], [-124.8932, 44.76814, -8419.7978515625], [-124.90018, 44.76937, -7659.14013671875], [-124.89257, 44.76113, -7747.7353515625]]], [[[-124.91723, 44.75659, -4311.80224609375], [-124.91838, 44.7642, -5040.57373046875], [-124.92427, 44.76243, -4173.79736328125], [-124.91723, 44.75659, -4311.80224609375]]], [[[-124.90018, 44.76937, -7659.14013671875], [-124.8932, 44.76814, -8419.7978515625], [-124.90161, 44.77743, -8153.6279296875], [-124.90018, 44.76937, -7659.14013671875]]], [[[-124.90161, 44.77743, -8153.6279296875], [-124.8932, 44.76814, -8419.7978515625], [-124.89341, 44.7753, -8963.462890625], [-124.90161, 44.77743, -8153.6279296875]]], [[[-124.91897, 44.79775, -6930.251953125], [-124.92175, 44.80466, -6322.19677734375], [-124.9254, 44.79643, -6030.21826171875], [-124.91897, 44.79775, -6930.251953125]]], [[[-124.92389, 44.77199, -4936.328125], [-124.93196, 44.77752, -4446.46337890625], [-124.92793, 44.76954, -4236.771484375], [-124.92389, 44.77199, -4936.328125]]], [[[-124.91723, 44.75659, -4311.80224609375], [-124.92427, 44.76243, -4173.79736328125], [-124.9228, 44.75516, -3537.507568359375], [-124.91723, 44.75659, -4311.80224609375]]], [[[-124.89341, 44.7753, -8963.462890625], [-124.8862, 44.77416, -9775.0556640625], [-124.8928, 44.78205, -9636.5654296875], [-124.89341, 44.7753, -8963.462890625]]], [[[-124.92793, 44.76954, -4236.771484375], [-124.91838, 44.7642, -5040.57373046875], [-124.92389, 44.77199, -4936.328125], [-124.92793, 44.76954, -4236.771484375]]], [[[-124.88597, 44.76694, -9237.6650390625], [-124.8862, 44.77416, -9775.0556640625], [-124.89341, 44.7753, -8963.462890625], [-124.88597, 44.76694, -9237.6650390625]]], [[[-124.88597, 44.76694, -9237.6650390625], [-124.87889, 44.76655, -10084.404296875], [-124.8862, 44.77416, -9775.0556640625], [-124.88597, 44.76694, -9237.6650390625]]], [[[-124.90041, 44.73322, -3877.136474609375], [-124.89662, 44.72633, -4320.84033203125], [-124.89485, 44.73476, -4664.08447265625], [-124.90041, 44.73322, -3877.136474609375]]], [[[-124.92793, 44.76954, -4236.771484375], [-124.93552, 44.7717, -3499.526123046875], [-124.93102, 44.7642, -3422.96435546875], [-124.92793, 44.76954, -4236.771484375]]], [[[-124.87667, 44.76091, -9305.7998046875], [-124.88597, 44.76694, -9237.6650390625], [-124.88433, 44.76065, -8512.26171875], [-124.87667, 44.76091, -9305.7998046875]]], [[[-124.87506, 44.75458, -8635.0126953125], [-124.86701, 44.74771, -8931.2763671875], [-124.86815, 44.75495, -9470.826171875], [-124.87506, 44.75458, -8635.0126953125]]], [[[-124.8704, 44.73999, -8095.20703125], [-124.86655, 44.73248, -8533.9970703125], [-124.86397, 44.74091, -8988.8134765625], [-124.8704, 44.73999, -8095.20703125]]], [[[-124.91492, 44.73471, -1923.3609619140625], [-124.92221, 44.73813, -1314.622314453125], [-124.91804, 44.72858, -1385.1103515625], [-124.91492, 44.73471, -1923.3609619140625]]], [[[-124.86655, 44.73248, -8533.9970703125], [-124.87257, 44.73119, -7689.63818359375], [-124.86836, 44.7241, -8194.345703125], [-124.86655, 44.73248, -8533.9970703125]]], [[[-124.92389, 44.77199, -4936.328125], [-124.9198, 44.77385, -5625.140625], [-124.92727, 44.78028, -5244.53515625], [-124.92389, 44.77199, -4936.328125]]], [[[-124.92054, 44.78158, -6180.52685546875], [-124.92068, 44.78921, -6599.64404296875], [-124.92745, 44.78817, -5666.9033203125], [-124.92054, 44.78158, -6180.52685546875]]], [[[-124.89416, 44.82139, -10251.0146484375], [-124.89194, 44.82644, -10658.3623046875], [-124.8984, 44.82513, -9758.822265625], [-124.89416, 44.82139, -10251.0146484375]]], [[[-124.86077, 44.73351, -9339.5126953125], [-124.86397, 44.74091, -8988.8134765625], [-124.86655, 44.73248, -8533.9970703125], [-124.86077, 44.73351, -9339.5126953125]]], [[[-124.86397, 44.74091, -8988.8134765625], [-124.8577, 44.74051, -9846.6875], [-124.86051, 44.74792, -9725.2041015625], [-124.86397, 44.74091, -8988.8134765625]]], [[[-124.91462, 44.79081, -7458.90625], [-124.92068, 44.78921, -6599.64404296875], [-124.91208, 44.78251, -7299.9951171875], [-124.91462, 44.79081, -7458.90625]]], [[[-124.86701, 44.74771, -8931.2763671875], [-124.86397, 44.74091, -8988.8134765625], [-124.86051, 44.74792, -9725.2041015625], [-124.86701, 44.74771, -8931.2763671875]]], [[[-124.86973, 44.76158, -10146.501953125], [-124.86273, 44.76169, -10931.720703125], [-124.87172, 44.76711, -10885.822265625], [-124.86973, 44.76158, -10146.501953125]]], [[[-124.93799, 44.79413, -4273.61962890625], [-124.9346, 44.80203, -4519.828125], [-124.94199, 44.79926, -3525.29345703125], [-124.93799, 44.79413, -4273.61962890625]]], [[[-124.8577, 44.74051, -9846.6875], [-124.85536, 44.73306, -10090.6435546875], [-124.85141, 44.73815, -10690.4541015625], [-124.8577, 44.74051, -9846.6875]]], [[[-124.89052, 44.72753, -5174.95068359375], [-124.89241, 44.71923, -4831.82080078125], [-124.88638, 44.72043, -5673.94287109375], [-124.89052, 44.72753, -5174.95068359375]]], [[[-124.88281, 44.73713, -6350.193359375], [-124.88456, 44.72874, -6010.59228515625], [-124.87857, 44.72997, -6849.81396484375], [-124.88281, 44.73713, -6350.193359375]]], [[[-124.8888, 44.73583, -5509.740234375], [-124.89052, 44.72753, -5174.95068359375], [-124.88456, 44.72874, -6010.59228515625], [-124.8888, 44.73583, -5509.740234375]]], [[[-124.91365, 44.76909, -5957.30712890625], [-124.91838, 44.7642, -5040.57373046875], [-124.90965, 44.76198, -5897.00732421875], [-124.91365, 44.76909, -5957.30712890625]]], [[[-124.89485, 44.73476, -4664.08447265625], [-124.89662, 44.72633, -4320.84033203125], [-124.89052, 44.72753, -5174.95068359375], [-124.89485, 44.73476, -4664.08447265625]]], [[[-124.88456, 44.72874, -6010.59228515625], [-124.88638, 44.72043, -5673.94287109375], [-124.88036, 44.72166, -6516.35986328125], [-124.88456, 44.72874, -6010.59228515625]]], [[[-124.91152, 44.72448, -2241.392822265625], [-124.9176, 44.71946, -1382.857666015625], [-124.91167, 44.71558, -2142.801025390625], [-124.91152, 44.72448, -2241.392822265625]]], [[[-124.93112, 44.75194, -2083.585693359375], [-124.92933, 44.74621, -1371.7239990234375], [-124.92051, 44.74407, -2107.767333984375], [-124.93112, 44.75194, -2083.585693359375]]], [[[-124.94715, 44.79144, -2986.82958984375], [-124.95012, 44.79727, -2390.619873046875], [-124.95249, 44.78679, -2241.344482421875], [-124.94715, 44.79144, -2986.82958984375]]], [[[-124.9254, 44.79643, -6030.21826171875], [-124.92815, 44.80334, -5420.99951171875], [-124.93174, 44.79511, -5125.37841796875], [-124.9254, 44.79643, -6030.21826171875]]], [[[-124.91897, 44.79775, -6930.251953125], [-124.91533, 44.80596, -7223.89697265625], [-124.92175, 44.80466, -6322.19677734375], [-124.91897, 44.79775, -6930.251953125]]], [[[-124.91897, 44.79775, -6930.251953125], [-124.91219, 44.79816, -7862.1103515625], [-124.91533, 44.80596, -7223.89697265625], [-124.91897, 44.79775, -6930.251953125]]], [[[-124.91462, 44.79081, -7458.90625], [-124.91219, 44.79816, -7862.1103515625], [-124.91897, 44.79775, -6930.251953125], [-124.91462, 44.79081, -7458.90625]]], [[[-124.90682, 44.80222, -8581.0732421875], [-124.9057, 44.79375, -8719.9052734375], [-124.90159, 44.80041, -9349.9189453125], [-124.90682, 44.80222, -8581.0732421875]]], [[[-124.91208, 44.78251, -7299.9951171875], [-124.90811, 44.78718, -8144.5986328125], [-124.91462, 44.79081, -7458.90625], [-124.91208, 44.78251, -7299.9951171875]]], [[[-124.92054, 44.78158, -6180.52685546875], [-124.92745, 44.78817, -5666.9033203125], [-124.92727, 44.78028, -5244.53515625], [-124.92054, 44.78158, -6180.52685546875]]], [[[-124.84476, 44.72063, -11230.8056640625], [-124.83719, 44.72351, -12342.0986328125], [-124.84355, 44.72719, -11590.677734375], [-124.84476, 44.72063, -11230.8056640625]]], [[[-124.94162, 44.7884, -3751.19189453125], [-124.93438, 44.78643, -4695.45068359375], [-124.93799, 44.79413, -4273.61962890625], [-124.94162, 44.7884, -3751.19189453125]]], [[[-124.94162, 44.7884, -3751.19189453125], [-124.94596, 44.7829, -2998.169921875], [-124.93875, 44.77997, -3789.15966796875], [-124.94162, 44.7884, -3751.19189453125]]], [[[-124.94596, 44.7829, -2998.169921875], [-124.94715, 44.79144, -2986.82958984375], [-124.95249, 44.78679, -2241.344482421875], [-124.94596, 44.7829, -2998.169921875]]], [[[-124.93875, 44.77997, -3789.15966796875], [-124.94596, 44.7829, -2998.169921875], [-124.94286, 44.77539, -2916.075927734375], [-124.93875, 44.77997, -3789.15966796875]]], [[[-124.94286, 44.77539, -2916.075927734375], [-124.95091, 44.7787, -2197.896484375], [-124.94687, 44.77158, -2126.69189453125], [-124.94286, 44.77539, -2916.075927734375]]], [[[-124.95635, 44.79838, -1483.4007568359375], [-124.95012, 44.79727, -2390.619873046875], [-124.95181, 44.80615, -2164.989013671875], [-124.95635, 44.79838, -1483.4007568359375]]], [[[-124.93913, 44.76643, -2573.30419921875], [-124.94286, 44.77539, -2916.075927734375], [-124.94687, 44.77158, -2126.69189453125], [-124.93913, 44.76643, -2573.30419921875]]], [[[-124.91349, 44.776, -6577.1826171875], [-124.92054, 44.78158, -6180.52685546875], [-124.9198, 44.77385, -5625.140625], [-124.91349, 44.776, -6577.1826171875]]], [[[-124.91365, 44.76909, -5957.30712890625], [-124.91349, 44.776, -6577.1826171875], [-124.9198, 44.77385, -5625.140625], [-124.91365, 44.76909, -5957.30712890625]]], [[[-124.93913, 44.76643, -2573.30419921875], [-124.9397, 44.75929, -2007.1781005859375], [-124.93255, 44.75793, -2840.40380859375], [-124.93913, 44.76643, -2573.30419921875]]], [[[-124.9397, 44.75929, -2007.1781005859375], [-124.93112, 44.75194, -2083.585693359375], [-124.93255, 44.75793, -2840.40380859375], [-124.9397, 44.75929, -2007.1781005859375]]], [[[-124.93112, 44.75194, -2083.585693359375], [-124.9229, 44.75069, -2726.33837890625], [-124.93255, 44.75793, -2840.40380859375], [-124.93112, 44.75194, -2083.585693359375]]], [[[-124.88119, 44.71342, -6127.79638671875], [-124.88716, 44.7122, -5290.23486328125], [-124.88101, 44.70535, -5703.423828125], [-124.88119, 44.71342, -6127.79638671875]]], [[[-124.9229, 44.75069, -2726.33837890625], [-124.93112, 44.75194, -2083.585693359375], [-124.92051, 44.74407, -2107.767333984375], [-124.9229, 44.75069, -2726.33837890625]]], [[[-124.9229, 44.75069, -2726.33837890625], [-124.9228, 44.75516, -3537.507568359375], [-124.93255, 44.75793, -2840.40380859375], [-124.9229, 44.75069, -2726.33837890625]]], [[[-124.92815, 44.80334, -5420.99951171875], [-124.92175, 44.80466, -6322.19677734375], [-124.92589, 44.81162, -5776.681640625], [-124.92815, 44.80334, -5420.99951171875]]], [[[-124.92815, 44.80334, -5420.99951171875], [-124.92589, 44.81162, -5776.681640625], [-124.93236, 44.81031, -4877.2646484375], [-124.92815, 44.80334, -5420.99951171875]]], [[[-124.9346, 44.80203, -4519.828125], [-124.92815, 44.80334, -5420.99951171875], [-124.93236, 44.81031, -4877.2646484375], [-124.9346, 44.80203, -4519.828125]]], [[[-124.9346, 44.80203, -4519.828125], [-124.93236, 44.81031, -4877.2646484375], [-124.93894, 44.80872, -3955.822021484375], [-124.9346, 44.80203, -4519.828125]]], [[[-124.94199, 44.79926, -3525.29345703125], [-124.9346, 44.80203, -4519.828125], [-124.93894, 44.80872, -3955.822021484375], [-124.94199, 44.79926, -3525.29345703125]]], [[[-124.94199, 44.79926, -3525.29345703125], [-124.93894, 44.80872, -3955.822021484375], [-124.94554, 44.80688, -3028.581787109375], [-124.94199, 44.79926, -3525.29345703125]]], [[[-124.94199, 44.79926, -3525.29345703125], [-124.94554, 44.80688, -3028.581787109375], [-124.95012, 44.79727, -2390.619873046875], [-124.94199, 44.79926, -3525.29345703125]]], [[[-124.94554, 44.80688, -3028.581787109375], [-124.95181, 44.80615, -2164.989013671875], [-124.95012, 44.79727, -2390.619873046875], [-124.94554, 44.80688, -3028.581787109375]]], [[[-124.95012, 44.79727, -2390.619873046875], [-124.95635, 44.79838, -1483.4007568359375], [-124.95763, 44.79034, -1519.51220703125], [-124.95012, 44.79727, -2390.619873046875]]], [[[-124.95763, 44.79034, -1519.51220703125], [-124.95635, 44.79838, -1483.4007568359375], [-124.96236, 44.79438, -687.45556640625], [-124.95763, 44.79034, -1519.51220703125]]], [[[-124.95763, 44.79034, -1519.51220703125], [-124.96236, 44.79438, -687.45556640625], [-124.96384, 44.78561, -684.99267578125], [-124.95763, 44.79034, -1519.51220703125]]], [[[-124.95776, 44.78169, -1429.193603515625], [-124.95763, 44.79034, -1519.51220703125], [-124.96384, 44.78561, -684.99267578125], [-124.95776, 44.78169, -1429.193603515625]]], [[[-124.95776, 44.78169, -1429.193603515625], [-124.96384, 44.78561, -684.99267578125], [-124.96228, 44.77685, -645.5694580078125], [-124.95776, 44.78169, -1429.193603515625]]], [[[-124.95443, 44.77394, -1386.4345703125], [-124.95776, 44.78169, -1429.193603515625], [-124.96228, 44.77685, -645.5694580078125], [-124.95443, 44.77394, -1386.4345703125]]], [[[-124.95443, 44.77394, -1386.4345703125], [-124.96228, 44.77685, -645.5694580078125], [-124.95712, 44.76882, -630.0097045898438], [-124.95443, 44.77394, -1386.4345703125]]], [[[-124.94801, 44.76593, -1459.11376953125], [-124.95443, 44.77394, -1386.4345703125], [-124.95712, 44.76882, -630.0097045898438], [-124.94801, 44.76593, -1459.11376953125]]], [[[-124.94801, 44.76593, -1459.11376953125], [-124.95712, 44.76882, -630.0097045898438], [-124.95153, 44.76095, -584.7935180664062], [-124.94801, 44.76593, -1459.11376953125]]], [[[-124.94801, 44.76593, -1459.11376953125], [-124.95153, 44.76095, -584.7935180664062], [-124.94519, 44.75804, -1220.3448486328125], [-124.94801, 44.76593, -1459.11376953125]]], [[[-124.94732, 44.75266, -573.5654907226562], [-124.94519, 44.75804, -1220.3448486328125], [-124.95153, 44.76095, -584.7935180664062], [-124.94732, 44.75266, -573.5654907226562]]], [[[-124.93897, 44.75236, -1363.5897216796875], [-124.94519, 44.75804, -1220.3448486328125], [-124.94732, 44.75266, -573.5654907226562], [-124.93897, 44.75236, -1363.5897216796875]]], [[[-124.93897, 44.75236, -1363.5897216796875], [-124.94732, 44.75266, -573.5654907226562], [-124.93735, 44.74743, -620.5770874023438], [-124.93897, 44.75236, -1363.5897216796875]]], [[[-124.84952, 44.75052, -11325.8076171875], [-124.84843, 44.75663, -11971.93359375], [-124.855, 44.75613, -11132.00390625], [-124.84952, 44.75052, -11325.8076171875]]], [[[-124.92933, 44.74621, -1371.7239990234375], [-124.93897, 44.75236, -1363.5897216796875], [-124.93735, 44.74743, -620.5770874023438], [-124.92933, 44.74621, -1371.7239990234375]]], [[[-124.92933, 44.74621, -1371.7239990234375], [-124.93735, 44.74743, -620.5770874023438], [-124.92964, 44.74052, -619.4759521484375], [-124.92933, 44.74621, -1371.7239990234375]]], [[[-124.92221, 44.73813, -1314.622314453125], [-124.92933, 44.74621, -1371.7239990234375], [-124.92964, 44.74052, -619.4759521484375], [-124.92221, 44.73813, -1314.622314453125]]], [[[-124.92221, 44.73813, -1314.622314453125], [-124.92964, 44.74052, -619.4759521484375], [-124.92396, 44.73267, -637.6282348632812], [-124.92221, 44.73813, -1314.622314453125]]], [[[-124.91804, 44.72858, -1385.1103515625], [-124.92221, 44.73813, -1314.622314453125], [-124.92396, 44.73267, -637.6282348632812], [-124.91804, 44.72858, -1385.1103515625]]], [[[-124.91804, 44.72858, -1385.1103515625], [-124.92396, 44.73267, -637.6282348632812], [-124.923, 44.72386, -633.0352783203125], [-124.91804, 44.72858, -1385.1103515625]]], [[[-124.91804, 44.72858, -1385.1103515625], [-124.923, 44.72386, -633.0352783203125], [-124.9176, 44.71946, -1382.857666015625], [-124.91804, 44.72858, -1385.1103515625]]], [[[-124.9176, 44.71946, -1382.857666015625], [-124.923, 44.72386, -633.0352783203125], [-124.92299, 44.71503, -621.7025146484375], [-124.9176, 44.71946, -1382.857666015625]]], [[[-124.9176, 44.71946, -1382.857666015625], [-124.92299, 44.71503, -621.7025146484375], [-124.91637, 44.7102, -1335.7161865234375], [-124.9176, 44.71946, -1382.857666015625]]], [[[-124.91085, 44.70711, -1950.4141845703125], [-124.911, 44.69923, -1500.2958984375], [-124.905, 44.70045, -2340.922607421875], [-124.91085, 44.70711, -1950.4141845703125]]], [[[-124.90534, 44.70872, -2750.31591796875], [-124.91085, 44.70711, -1950.4141845703125], [-124.905, 44.70045, -2340.922607421875], [-124.90534, 44.70872, -2750.31591796875]]], [[[-124.90534, 44.70872, -2750.31591796875], [-124.905, 44.70045, -2340.922607421875], [-124.899, 44.70167, -3181.547607421875], [-124.90534, 44.70872, -2750.31591796875]]], [[[-124.89919, 44.7098, -3603.633056640625], [-124.90534, 44.70872, -2750.31591796875], [-124.899, 44.70167, -3181.547607421875], [-124.89919, 44.7098, -3603.633056640625]]], [[[-124.89919, 44.7098, -3603.633056640625], [-124.899, 44.70167, -3181.547607421875], [-124.893, 44.7029, -4022.17236328125], [-124.89919, 44.7098, -3603.633056640625]]], [[[-124.89318, 44.71101, -4446.89892578125], [-124.89919, 44.7098, -3603.633056640625], [-124.893, 44.7029, -4022.17236328125], [-124.89318, 44.71101, -4446.89892578125]]], [[[-124.87683, 44.73829, -7187.966796875], [-124.87857, 44.72997, -6849.81396484375], [-124.87257, 44.73119, -7689.63818359375], [-124.87683, 44.73829, -7187.966796875]]], [[[-124.89318, 44.71101, -4446.89892578125], [-124.893, 44.7029, -4022.17236328125], [-124.88701, 44.70412, -4862.79736328125], [-124.89318, 44.71101, -4446.89892578125]]], [[[-124.88716, 44.7122, -5290.23486328125], [-124.89318, 44.71101, -4446.89892578125], [-124.88701, 44.70412, -4862.79736328125], [-124.88716, 44.7122, -5290.23486328125]]], [[[-124.88119, 44.71342, -6127.79638671875], [-124.88101, 44.70535, -5703.423828125], [-124.87501, 44.70657, -6544.048828125], [-124.88119, 44.71342, -6127.79638671875]]], [[[-124.87517, 44.71464, -6972.2880859375], [-124.88119, 44.71342, -6127.79638671875], [-124.87501, 44.70657, -6544.048828125], [-124.87517, 44.71464, -6972.2880859375]]], [[[-124.86918, 44.71586, -7813.01904296875], [-124.87517, 44.71464, -6972.2880859375], [-124.86901, 44.70779, -7384.673828125], [-124.86918, 44.71586, -7813.01904296875]]], [[[-124.86918, 44.71586, -7813.01904296875], [-124.86901, 44.70779, -7384.673828125], [-124.863, 44.70901, -8225.30078125], [-124.86918, 44.71586, -7813.01904296875]]], [[[-124.86319, 44.71708, -8654.4296875], [-124.86918, 44.71586, -7813.01904296875], [-124.863, 44.70901, -8225.30078125], [-124.86319, 44.71708, -8654.4296875]]], [[[-124.86319, 44.71708, -8654.4296875], [-124.863, 44.70901, -8225.30078125], [-124.857, 44.71024, -9065.9248046875], [-124.86319, 44.71708, -8654.4296875]]], [[[-124.8572, 44.7183, -9495.49609375], [-124.86319, 44.71708, -8654.4296875], [-124.857, 44.71024, -9065.9248046875], [-124.8572, 44.7183, -9495.49609375]]], [[[-124.8572, 44.7183, -9495.49609375], [-124.857, 44.71024, -9065.9248046875], [-124.851, 44.71146, -9906.55078125], [-124.8572, 44.7183, -9495.49609375]]], [[[-124.8512, 44.71952, -10336.3017578125], [-124.8572, 44.7183, -9495.49609375], [-124.851, 44.71146, -9906.55078125], [-124.8512, 44.71952, -10336.3017578125]]], [[[-124.85632, 44.72617, -9865.7509765625], [-124.8572, 44.7183, -9495.49609375], [-124.8512, 44.71952, -10336.3017578125], [-124.85632, 44.72617, -9865.7509765625]]], [[[-124.85632, 44.72617, -9865.7509765625], [-124.8512, 44.71952, -10336.3017578125], [-124.85015, 44.72825, -10752.3984375], [-124.85632, 44.72617, -9865.7509765625]]], [[[-124.85536, 44.73306, -10090.6435546875], [-124.85632, 44.72617, -9865.7509765625], [-124.85015, 44.72825, -10752.3984375], [-124.85536, 44.73306, -10090.6435546875]]], [[[-124.85536, 44.73306, -10090.6435546875], [-124.85015, 44.72825, -10752.3984375], [-124.85141, 44.73815, -10690.4541015625], [-124.85536, 44.73306, -10090.6435546875]]], [[[-124.84559, 44.7354, -11465.2587890625], [-124.85141, 44.73815, -10690.4541015625], [-124.85015, 44.72825, -10752.3984375], [-124.84559, 44.7354, -11465.2587890625]]], [[[-124.85141, 44.73815, -10690.4541015625], [-124.84559, 44.7354, -11465.2587890625], [-124.84676, 44.74382, -11402.705078125], [-124.85141, 44.73815, -10690.4541015625]]], [[[-124.85375, 44.74675, -10560.2509765625], [-124.85141, 44.73815, -10690.4541015625], [-124.84676, 44.74382, -11402.705078125], [-124.85375, 44.74675, -10560.2509765625]]], [[[-124.85375, 44.74675, -10560.2509765625], [-124.84676, 44.74382, -11402.705078125], [-124.84952, 44.75052, -11325.8076171875], [-124.85375, 44.74675, -10560.2509765625]]], [[[-124.85375, 44.74675, -10560.2509765625], [-124.84952, 44.75052, -11325.8076171875], [-124.855, 44.75613, -11132.00390625], [-124.85375, 44.74675, -10560.2509765625]]], [[[-124.84952, 44.75052, -11325.8076171875], [-124.84305, 44.74959, -12108.4580078125], [-124.84843, 44.75663, -11971.93359375], [-124.84952, 44.75052, -11325.8076171875]]], [[[-124.84952, 44.75052, -11325.8076171875], [-124.84676, 44.74382, -11402.705078125], [-124.84305, 44.74959, -12108.4580078125], [-124.84952, 44.75052, -11325.8076171875]]], [[[-124.84676, 44.74382, -11402.705078125], [-124.84069, 44.74117, -12198.822265625], [-124.84305, 44.74959, -12108.4580078125], [-124.84676, 44.74382, -11402.705078125]]], [[[-124.84559, 44.7354, -11465.2587890625], [-124.84069, 44.74117, -12198.822265625], [-124.84676, 44.74382, -11402.705078125], [-124.84559, 44.7354, -11465.2587890625]]], [[[-124.84559, 44.7354, -11465.2587890625], [-124.83943, 44.73228, -12265.2861328125], [-124.84069, 44.74117, -12198.822265625], [-124.84559, 44.7354, -11465.2587890625]]], [[[-124.84559, 44.7354, -11465.2587890625], [-124.84355, 44.72719, -11590.677734375], [-124.83943, 44.73228, -12265.2861328125], [-124.84559, 44.7354, -11465.2587890625]]], [[[-124.85015, 44.72825, -10752.3984375], [-124.84476, 44.72063, -11230.8056640625], [-124.84355, 44.72719, -11590.677734375], [-124.85015, 44.72825, -10752.3984375]]], [[[-124.85015, 44.72825, -10752.3984375], [-124.8512, 44.71952, -10336.3017578125], [-124.84476, 44.72063, -11230.8056640625], [-124.85015, 44.72825, -10752.3984375]]], [[[-124.84476, 44.72063, -11230.8056640625], [-124.8512, 44.71952, -10336.3017578125], [-124.845, 44.71268, -10747.1748046875], [-124.84476, 44.72063, -11230.8056640625]]], [[[-124.84476, 44.72063, -11230.8056640625], [-124.845, 44.71268, -10747.1748046875], [-124.839, 44.7139, -11587.8017578125], [-124.84476, 44.72063, -11230.8056640625]]], [[[-124.83719, 44.72351, -12342.0986328125], [-124.83943, 44.73228, -12265.2861328125], [-124.84355, 44.72719, -11590.677734375], [-124.83719, 44.72351, -12342.0986328125]]], [[[-124.8512, 44.71952, -10336.3017578125], [-124.851, 44.71146, -9906.55078125], [-124.845, 44.71268, -10747.1748046875], [-124.8512, 44.71952, -10336.3017578125]]], [[[-124.84843, 44.75663, -11971.93359375], [-124.85643, 44.76279, -11788.8544921875], [-124.855, 44.75613, -11132.00390625], [-124.84843, 44.75663, -11971.93359375]]], [[[-124.85643, 44.76279, -11788.8544921875], [-124.86273, 44.76169, -10931.720703125], [-124.855, 44.75613, -11132.00390625], [-124.85643, 44.76279, -11788.8544921875]]], [[[-124.86273, 44.76169, -10931.720703125], [-124.85643, 44.76279, -11788.8544921875], [-124.86561, 44.76732, -11594.125], [-124.86273, 44.76169, -10931.720703125]]], [[[-124.86561, 44.76732, -11594.125], [-124.87172, 44.76711, -10885.822265625], [-124.86273, 44.76169, -10931.720703125], [-124.86561, 44.76732, -11594.125]]], [[[-124.87172, 44.76711, -10885.822265625], [-124.86561, 44.76732, -11594.125], [-124.87251, 44.77297, -11427.833984375], [-124.87172, 44.76711, -10885.822265625]]], [[[-124.87929, 44.7737, -10608.619140625], [-124.87172, 44.76711, -10885.822265625], [-124.87251, 44.77297, -11427.833984375], [-124.87929, 44.7737, -10608.619140625]]], [[[-124.87929, 44.7737, -10608.619140625], [-124.87889, 44.76655, -10084.404296875], [-124.87172, 44.76711, -10885.822265625], [-124.87929, 44.7737, -10608.619140625]]], [[[-124.87929, 44.7737, -10608.619140625], [-124.8862, 44.77416, -9775.0556640625], [-124.87889, 44.76655, -10084.404296875], [-124.87929, 44.7737, -10608.619140625]]], [[[-124.8928, 44.78205, -9636.5654296875], [-124.8862, 44.77416, -9775.0556640625], [-124.88536, 44.7808, -10436.4189453125], [-124.8928, 44.78205, -9636.5654296875]]], [[[-124.8928, 44.78205, -9636.5654296875], [-124.88536, 44.7808, -10436.4189453125], [-124.89221, 44.78905, -10273.109375], [-124.8928, 44.78205, -9636.5654296875]]], [[[-124.8928, 44.78205, -9636.5654296875], [-124.89221, 44.78905, -10273.109375], [-124.89921, 44.7909, -9471.0771484375], [-124.8928, 44.78205, -9636.5654296875]]], [[[-124.90038, 44.78388, -8855.8466796875], [-124.8928, 44.78205, -9636.5654296875], [-124.89921, 44.7909, -9471.0771484375], [-124.90038, 44.78388, -8855.8466796875]]], [[[-124.88536, 44.7808, -10436.4189453125], [-124.88498, 44.78773, -11070.474609375], [-124.89221, 44.78905, -10273.109375], [-124.88536, 44.7808, -10436.4189453125]]], [[[-124.88536, 44.7808, -10436.4189453125], [-124.87831, 44.78037, -11260.4375], [-124.88498, 44.78773, -11070.474609375], [-124.88536, 44.7808, -10436.4189453125]]], [[[-124.87929, 44.7737, -10608.619140625], [-124.87831, 44.78037, -11260.4375], [-124.88536, 44.7808, -10436.4189453125], [-124.87929, 44.7737, -10608.619140625]]], [[[-124.87929, 44.7737, -10608.619140625], [-124.87251, 44.77297, -11427.833984375], [-124.87831, 44.78037, -11260.4375], [-124.87929, 44.7737, -10608.619140625]]], [[[-124.89221, 44.78905, -10273.109375], [-124.88498, 44.78773, -11070.474609375], [-124.88957, 44.79523, -10922.5185546875], [-124.89221, 44.78905, -10273.109375]]], [[[-124.95635, 44.79838, -1483.4007568359375], [-124.962, 44.8032, -732.9934692382812], [-124.96236, 44.79438, -687.45556640625], [-124.95635, 44.79838, -1483.4007568359375]]], [[[-124.88281, 44.73713, -6350.193359375], [-124.87857, 44.72997, -6849.81396484375], [-124.87683, 44.73829, -7187.966796875], [-124.88281, 44.73713, -6350.193359375]]], [[[-124.87683, 44.73829, -7187.966796875], [-124.87257, 44.73119, -7689.63818359375], [-124.8704, 44.73999, -8095.20703125], [-124.87683, 44.73829, -7187.966796875]]], [[[-124.87714, 44.74616, -7562.84423828125], [-124.8704, 44.73999, -8095.20703125], [-124.87314, 44.74825, -8211.21875], [-124.87714, 44.74616, -7562.84423828125]]], [[[-124.88597, 44.76694, -9237.6650390625], [-124.8932, 44.76814, -8419.7978515625], [-124.88433, 44.76065, -8512.26171875], [-124.88597, 44.76694, -9237.6650390625]]], [[[-124.8932, 44.76814, -8419.7978515625], [-124.88597, 44.76694, -9237.6650390625], [-124.89341, 44.7753, -8963.462890625], [-124.8932, 44.76814, -8419.7978515625]]], [[[-124.89612, 44.80529, -10048.3369140625], [-124.89095, 44.80186, -10846.236328125], [-124.8901, 44.80904, -10811.947265625], [-124.89612, 44.80529, -10048.3369140625]]], [[[-124.89612, 44.80529, -10048.3369140625], [-124.8901, 44.80904, -10811.947265625], [-124.8954, 44.81398, -9998.5625], [-124.89612, 44.80529, -10048.3369140625]]], [[[-124.90152, 44.80897, -9156.234375], [-124.89612, 44.80529, -10048.3369140625], [-124.8954, 44.81398, -9998.5625], [-124.90152, 44.80897, -9156.234375]]], [[[-124.90152, 44.80897, -9156.234375], [-124.8954, 44.81398, -9998.5625], [-124.90046, 44.81731, -9332.2041015625], [-124.90152, 44.80897, -9156.234375]]], [[[-124.90152, 44.80897, -9156.234375], [-124.90046, 44.81731, -9332.2041015625], [-124.90648, 44.81551, -8481.2451171875], [-124.90152, 44.80897, -9156.234375]]], [[[-124.90648, 44.81551, -8481.2451171875], [-124.90046, 44.81731, -9332.2041015625], [-124.90486, 44.82382, -8859.28125], [-124.90648, 44.81551, -8481.2451171875]]], [[[-124.90648, 44.81551, -8481.2451171875], [-124.90486, 44.82382, -8859.28125], [-124.91132, 44.82251, -7959.7412109375], [-124.90648, 44.81551, -8481.2451171875]]], [[[-124.91299, 44.81425, -7576.4833984375], [-124.90648, 44.81551, -8481.2451171875], [-124.91132, 44.82251, -7959.7412109375], [-124.91299, 44.81425, -7576.4833984375]]], [[[-124.91299, 44.81425, -7576.4833984375], [-124.91132, 44.82251, -7959.7412109375], [-124.91778, 44.82119, -7060.2001953125], [-124.91299, 44.81425, -7576.4833984375]]], [[[-124.91943, 44.81294, -6676.4775390625], [-124.91299, 44.81425, -7576.4833984375], [-124.91778, 44.82119, -7060.2001953125], [-124.91943, 44.81294, -6676.4775390625]]], [[[-124.91943, 44.81294, -6676.4775390625], [-124.91778, 44.82119, -7060.2001953125], [-124.92424, 44.81988, -6160.66015625], [-124.91943, 44.81294, -6676.4775390625]]], [[[-124.90046, 44.81731, -9332.2041015625], [-124.8984, 44.82513, -9758.822265625], [-124.90486, 44.82382, -8859.28125], [-124.90046, 44.81731, -9332.2041015625]]], [[[-124.8984, 44.82513, -9758.822265625], [-124.90046, 44.81731, -9332.2041015625], [-124.89416, 44.82139, -10251.0146484375], [-124.8984, 44.82513, -9758.822265625]]], [[[-124.8901, 44.81763, -10751.1435546875], [-124.89194, 44.82644, -10658.3623046875], [-124.89416, 44.82139, -10251.0146484375], [-124.8901, 44.81763, -10751.1435546875]]], [[[-124.8954, 44.81398, -9998.5625], [-124.8901, 44.81763, -10751.1435546875], [-124.89416, 44.82139, -10251.0146484375], [-124.8954, 44.81398, -9998.5625]]], [[[-124.8954, 44.81398, -9998.5625], [-124.8901, 44.80904, -10811.947265625], [-124.8901, 44.81763, -10751.1435546875], [-124.8954, 44.81398, -9998.5625]]], [[[-124.8954, 44.81398, -9998.5625], [-124.89416, 44.82139, -10251.0146484375], [-124.90046, 44.81731, -9332.2041015625], [-124.8954, 44.81398, -9998.5625]]], [[[-124.911, 44.69923, -1500.2958984375], [-124.91085, 44.70711, -1950.4141845703125], [-124.91637, 44.7102, -1335.7161865234375], [-124.911, 44.69923, -1500.2958984375]]], [[[-124.92107, 44.70631, -578.7551879882812], [-124.911, 44.69923, -1500.2958984375], [-124.91637, 44.7102, -1335.7161865234375], [-124.92107, 44.70631, -578.7551879882812]]], [[[-124.917, 44.698, -659.6710205078125], [-124.911, 44.69923, -1500.2958984375], [-124.92107, 44.70631, -578.7551879882812], [-124.917, 44.698, -659.6710205078125]]], [[[-124.95654, 44.81331, -1662.956298828125], [-124.95635, 44.79838, -1483.4007568359375], [-124.95181, 44.80615, -2164.989013671875], [-124.95654, 44.81331, -1662.956298828125]]], [[[-124.962, 44.8032, -732.9934692382812], [-124.95635, 44.79838, -1483.4007568359375], [-124.95654, 44.81331, -1662.956298828125], [-124.962, 44.8032, -732.9934692382812]]], [[[-124.963, 44.812, -763.416015625], [-124.962, 44.8032, -732.9934692382812], [-124.95654, 44.81331, -1662.956298828125], [-124.963, 44.812, -763.416015625]]]]}}]}