{"type": "FeatureCollection", "features": [{"type": "Feature", "properties": {"name": "AW_CORE_17", "CFM_ID": 371, "region": "Offshore_OR", "primary_state/province": "OR", "secondary_state/province": null, "avg_dip": 59, "dip_dir": "E", "rake": 90, "slip_sense": "Reverse", "fault_level": 2, "NSHM23_sliprates": null, "QFFDAgeCatBin": null, "QFFDAgeBin": null, "upper_depth": -1.4, "upper_depth_constraint": "bathymetry", "lower_depth": -7.6, "lower_depth_constraint": "megathrust", "3D_model_constraints": "trace extended at constant dip", "reference": "Goldfinger et al. (2023)", "nshm23_id": null, "lineage": null, "usgs_qffd_#": null, "comments": null, "id": "371"}, "geometry": {"type": "MultiPolygon", "coordinates": [[[[-125.07947, 43.8749, -6603.32421875], [-125.08618, 43.87401, -5724.44775390625], [-125.08476, 43.86642, -6548.2080078125], [-125.07947, 43.8749, -6603.32421875]]], [[[-125.08194, 43.75904, -4735.7373046875], [-125.08178, 43.76489, -5567.33349609375], [-125.09027, 43.76669, -4781.92431640625], [-125.08194, 43.75904, -4735.7373046875]]], [[[-125.05346, 43.72291, -5684.0810546875], [-125.05843, 43.73095, -5274.8076171875], [-125.05977, 43.72233, -4829.55224609375], [-125.05346, 43.72291, -5684.0810546875]]], [[[-125.11266, 43.7776, -3137.576904296875], [-125.12065, 43.77926, -2280.884521484375], [-125.11489, 43.77162, -2281.008056640625], [-125.11266, 43.7776, -3137.576904296875]]], [[[-125.06109, 43.74488, -5637.546875], [-125.05523, 43.74761, -6564.58154296875], [-125.06577, 43.7517, -5682.11865234375], [-125.06109, 43.74488, -5637.546875]]], [[[-125.06862, 43.7474, -4814.3212890625], [-125.06411, 43.73886, -4899.41064453125], [-125.06109, 43.74488, -5637.546875], [-125.06862, 43.7474, -4814.3212890625]]], [[[-125.13028, 43.79411, -2272.287841796875], [-125.1338, 43.78908, -1449.4102783203125], [-125.12591, 43.78688, -2284.830322265625], [-125.13028, 43.79411, -2272.287841796875]]], [[[-125.10977, 43.8427, -4810.19482421875], [-125.11275, 43.83288, -4800.39794921875], [-125.10628, 43.83679, -5576.22265625], [-125.10977, 43.8427, -4810.19482421875]]], [[[-125.07562, 43.75188, -4506.1142578125], [-125.07591, 43.74622, -3796.160400390625], [-125.06862, 43.7474, -4814.3212890625], [-125.07562, 43.75188, -4506.1142578125]]], [[[-125.0862, 43.74295, -2261.239501953125], [-125.09375, 43.74549, -1438.556884765625], [-125.08974, 43.73721, -1463.0848388671875], [-125.0862, 43.74295, -2261.239501953125]]], [[[-125.09027, 43.76669, -4781.92431640625], [-125.08178, 43.76489, -5567.33349609375], [-125.09014, 43.7729, -5540.98828125], [-125.09027, 43.76669, -4781.92431640625]]], [[[-125.09401, 43.78748, -6421.14501953125], [-125.0902, 43.79049, -7151.39111328125], [-125.09801, 43.79492, -6483.8505859375], [-125.09401, 43.78748, -6421.14501953125]]], [[[-125.12065, 43.77926, -2280.884521484375], [-125.12862, 43.78116, -1448.9622802734375], [-125.12283, 43.77344, -1449.9129638671875], [-125.12065, 43.77926, -2280.884521484375]]], [[[-125.06411, 43.73886, -4899.41064453125], [-125.07044, 43.73842, -4048.6865234375], [-125.06474, 43.73034, -4419.8076171875], [-125.06411, 43.73886, -4899.41064453125]]], [[[-125.09198, 43.76231, -3961.9853515625], [-125.08194, 43.75904, -4735.7373046875], [-125.09027, 43.76669, -4781.92431640625], [-125.09198, 43.76231, -3961.9853515625]]], [[[-125.10873, 43.76494, -2285.15087890625], [-125.11672, 43.76588, -1441.5697021484375], [-125.10899, 43.75911, -1442.0595703125], [-125.10873, 43.76494, -2285.15087890625]]], [[[-125.07869, 43.72058, -2265.965087890625], [-125.08281, 43.72463, -1846.97314453125], [-125.085, 43.72, -1411.43603515625], [-125.07869, 43.72058, -2265.965087890625]]], [[[-125.11482, 43.86574, -2337.81103515625], [-125.11171, 43.87282, -2175.11962890625], [-125.1176, 43.87125, -1476.09375], [-125.11482, 43.86574, -2337.81103515625]]], [[[-125.06411, 43.73886, -4899.41064453125], [-125.05843, 43.73095, -5274.8076171875], [-125.05718, 43.73828, -5779.4853515625], [-125.06411, 43.73886, -4899.41064453125]]], [[[-125.09949, 43.76947, -4027.0068359375], [-125.09198, 43.76231, -3961.9853515625], [-125.09027, 43.76669, -4781.92431640625], [-125.09949, 43.76947, -4027.0068359375]]], [[[-125.08178, 43.76489, -5567.33349609375], [-125.08194, 43.75904, -4735.7373046875], [-125.07338, 43.75725, -5534.21044921875], [-125.08178, 43.76489, -5567.33349609375]]], [[[-125.08849, 43.77931, -6367.6943359375], [-125.07837, 43.77474, -7211.56640625], [-125.0845, 43.78253, -7179.275390625], [-125.08849, 43.77931, -6367.6943359375]]], [[[-125.11904, 43.79795, -3981.95458984375], [-125.121, 43.80579, -3992.0673828125], [-125.12699, 43.8008, -3121.8740234375], [-125.11904, 43.79795, -3981.95458984375]]], [[[-125.11533, 43.82231, -4768.7978515625], [-125.11514, 43.81059, -4837.08349609375], [-125.11006, 43.81688, -5546.63232421875], [-125.11533, 43.82231, -4768.7978515625]]], [[[-125.09014, 43.7729, -5540.98828125], [-125.08219, 43.77136, -6400.595703125], [-125.08849, 43.77931, -6367.6943359375], [-125.09014, 43.7729, -5540.98828125]]], [[[-125.10498, 43.77662, -4018.59912109375], [-125.10361, 43.78408, -4899.482421875], [-125.11011, 43.78361, -4030.340576171875], [-125.10498, 43.77662, -4018.59912109375]]], [[[-125.08253, 43.73304, -2207.889892578125], [-125.08281, 43.72463, -1846.97314453125], [-125.07699, 43.72895, -2752.712646484375], [-125.08253, 43.73304, -2207.889892578125]]], [[[-125.12753, 43.81095, -3174.626953125], [-125.1272, 43.81989, -3206.68603515625], [-125.13386, 43.81641, -2352.969482421875], [-125.12753, 43.81095, -3174.626953125]]], [[[-125.1336, 43.80088, -2241.773193359375], [-125.13379, 43.80786, -2315.00927734375], [-125.13958, 43.80421, -1490.761474609375], [-125.1336, 43.80088, -2241.773193359375]]], [[[-125.06474, 43.73034, -4419.8076171875], [-125.07117, 43.72996, -3556.443115234375], [-125.06607, 43.72175, -3975.023193359375], [-125.06474, 43.73034, -4419.8076171875]]], [[[-125.08981, 43.85778, -6498.63037109375], [-125.08829, 43.85099, -7306.22021484375], [-125.08295, 43.85907, -7375.1240234375], [-125.08981, 43.85778, -6498.63037109375]]], [[[-125.08429, 43.75485, -3868.734375], [-125.08435, 43.74912, -3053.021240234375], [-125.07591, 43.74622, -3796.160400390625], [-125.08429, 43.75485, -3868.734375]]], [[[-125.04974, 43.73554, -6623.3984375], [-125.05231, 43.73062, -6076.2783203125], [-125.04501, 43.72821, -6968.04296875], [-125.04974, 43.73554, -6623.3984375]]], [[[-125.13386, 43.81641, -2352.969482421875], [-125.13907, 43.82118, -1528.1141357421875], [-125.14, 43.81246, -1510.0223388671875], [-125.13386, 43.81641, -2352.969482421875]]], [[[-125.10097, 43.79013, -5742.251953125], [-125.10846, 43.79175, -4911.88232421875], [-125.10361, 43.78408, -4899.482421875], [-125.10097, 43.79013, -5742.251953125]]], [[[-125.12344, 43.83639, -3215.244873046875], [-125.12063, 43.84446, -3217.849853515625], [-125.12779, 43.84155, -2362.522216796875], [-125.12344, 43.83639, -3215.244873046875]]], [[[-125.04715, 43.7235, -6538.6103515625], [-125.04501, 43.72821, -6968.04296875], [-125.05231, 43.73062, -6076.2783203125], [-125.04715, 43.7235, -6538.6103515625]]], [[[-125.10105, 43.75822, -2287.0859375], [-125.09299, 43.75719, -3129.68798828125], [-125.1007, 43.76407, -3143.607421875], [-125.10105, 43.75822, -2287.0859375]]], [[[-125.10876, 43.80619, -5630.11279296875], [-125.10242, 43.80256, -6423.7880859375], [-125.10399, 43.81228, -6340.01318359375], [-125.10876, 43.80619, -5630.11279296875]]], [[[-125.10386, 43.82191, -6364.376953125], [-125.09728, 43.82499, -7173.947265625], [-125.10164, 43.83119, -6379.21728515625], [-125.10386, 43.82191, -6364.376953125]]], [[[-125.10361, 43.78408, -4899.482421875], [-125.09795, 43.7756, -4812.14794921875], [-125.0963, 43.78197, -5627.65478515625], [-125.10361, 43.78408, -4899.482421875]]], [[[-125.09299, 43.75719, -3129.68798828125], [-125.08429, 43.75485, -3868.734375], [-125.09198, 43.76231, -3961.9853515625], [-125.09299, 43.75719, -3129.68798828125]]], [[[-125.11171, 43.87282, -2175.11962890625], [-125.11482, 43.86574, -2337.81103515625], [-125.10622, 43.87227, -3011.958740234375], [-125.11171, 43.87282, -2175.11962890625]]], [[[-125.1007, 43.76407, -3143.607421875], [-125.10873, 43.76494, -2285.15087890625], [-125.10105, 43.75822, -2287.0859375], [-125.1007, 43.76407, -3143.607421875]]], [[[-125.07813, 43.7391, -3075.30029296875], [-125.08253, 43.73304, -2207.889892578125], [-125.07699, 43.72895, -2752.712646484375], [-125.07813, 43.7391, -3075.30029296875]]], [[[-125.1147, 43.79073, -4030.155517578125], [-125.12252, 43.79246, -3154.17578125], [-125.11802, 43.78505, -3149.21484375], [-125.1147, 43.79073, -4030.155517578125]]], [[[-125.13038, 43.83339, -2356.5673828125], [-125.13714, 43.82986, -1528.375732421875], [-125.13227, 43.82487, -2349.549072265625], [-125.13038, 43.83339, -2356.5673828125]]], [[[-125.07562, 43.75188, -4506.1142578125], [-125.08194, 43.75904, -4735.7373046875], [-125.08429, 43.75485, -3868.734375], [-125.07562, 43.75188, -4506.1142578125]]], [[[-125.10498, 43.77662, -4018.59912109375], [-125.11266, 43.7776, -3137.576904296875], [-125.1072, 43.77065, -3162.2998046875], [-125.10498, 43.77662, -4018.59912109375]]], [[[-125.13028, 43.79411, -2272.287841796875], [-125.13784, 43.79668, -1481.462646484375], [-125.1338, 43.78908, -1449.4102783203125], [-125.13028, 43.79411, -2272.287841796875]]], [[[-125.11802, 43.78505, -3149.21484375], [-125.12591, 43.78688, -2284.830322265625], [-125.12065, 43.77926, -2280.884521484375], [-125.11802, 43.78505, -3149.21484375]]], [[[-125.1147, 43.79073, -4030.155517578125], [-125.11904, 43.79795, -3981.95458984375], [-125.12252, 43.79246, -3154.17578125], [-125.1147, 43.79073, -4030.155517578125]]], [[[-125.1272, 43.81989, -3206.68603515625], [-125.12536, 43.82825, -3198.70263671875], [-125.13227, 43.82487, -2349.549072265625], [-125.1272, 43.81989, -3206.68603515625]]], [[[-125.10622, 43.87227, -3011.958740234375], [-125.10545, 43.8796, -2343.29931640625], [-125.11171, 43.87282, -2175.11962890625], [-125.10622, 43.87227, -3011.958740234375]]], [[[-125.10361, 43.78408, -4899.482421875], [-125.10846, 43.79175, -4911.88232421875], [-125.11011, 43.78361, -4030.340576171875], [-125.10361, 43.78408, -4899.482421875]]], [[[-125.07869, 43.72058, -2265.965087890625], [-125.07699, 43.72895, -2752.712646484375], [-125.08281, 43.72463, -1846.97314453125], [-125.07869, 43.72058, -2265.965087890625]]], [[[-125.06862, 43.7474, -4814.3212890625], [-125.07591, 43.74622, -3796.160400390625], [-125.07044, 43.73842, -4048.6865234375], [-125.06862, 43.7474, -4814.3212890625]]], [[[-125.1147, 43.79073, -4030.155517578125], [-125.10846, 43.79175, -4911.88232421875], [-125.11296, 43.79969, -4882.58056640625], [-125.1147, 43.79073, -4030.155517578125]]], [[[-125.10498, 43.77662, -4018.59912109375], [-125.09795, 43.7756, -4812.14794921875], [-125.10361, 43.78408, -4899.482421875], [-125.10498, 43.77662, -4018.59912109375]]], [[[-125.13227, 43.82487, -2349.549072265625], [-125.13714, 43.82986, -1528.375732421875], [-125.13907, 43.82118, -1528.1141357421875], [-125.13227, 43.82487, -2349.549072265625]]], [[[-125.05843, 43.73095, -5274.8076171875], [-125.05346, 43.72291, -5684.0810546875], [-125.05231, 43.73062, -6076.2783203125], [-125.05843, 43.73095, -5274.8076171875]]], [[[-125.10097, 43.79013, -5742.251953125], [-125.0963, 43.78197, -5627.65478515625], [-125.09401, 43.78748, -6421.14501953125], [-125.10097, 43.79013, -5742.251953125]]], [[[-125.09503, 43.83381, -7212.7822265625], [-125.09902, 43.84015, -6422.90380859375], [-125.10164, 43.83119, -6379.21728515625], [-125.09503, 43.83381, -7212.7822265625]]], [[[-125.09304, 43.87322, -4814.27978515625], [-125.08618, 43.87401, -5724.44775390625], [-125.0858, 43.88141, -4991.990234375], [-125.09304, 43.87322, -4814.27978515625]]], [[[-125.05523, 43.74761, -6564.58154296875], [-125.04974, 43.73554, -6623.3984375], [-125.04598, 43.7415, -7400.25537109375], [-125.05523, 43.74761, -6564.58154296875]]], [[[-125.11011, 43.78361, -4030.340576171875], [-125.11802, 43.78505, -3149.21484375], [-125.11266, 43.7776, -3137.576904296875], [-125.11011, 43.78361, -4030.340576171875]]], [[[-125.10499, 43.79727, -5735.99609375], [-125.09801, 43.79492, -6483.8505859375], [-125.10242, 43.80256, -6423.7880859375], [-125.10499, 43.79727, -5735.99609375]]], [[[-125.10105, 43.75822, -2287.0859375], [-125.10899, 43.75911, -1442.0595703125], [-125.10126, 43.75235, -1449.2606201171875], [-125.10105, 43.75822, -2287.0859375]]], [[[-125.10622, 43.87227, -3011.958740234375], [-125.0989, 43.88021, -3226.3994140625], [-125.10545, 43.8796, -2343.29931640625], [-125.10622, 43.87227, -3011.958740234375]]], [[[-125.05718, 43.73828, -5779.4853515625], [-125.05843, 43.73095, -5274.8076171875], [-125.05231, 43.73062, -6076.2783203125], [-125.05718, 43.73828, -5779.4853515625]]], [[[-125.11855, 43.83123, -4048.892333984375], [-125.11533, 43.82231, -4768.7978515625], [-125.11275, 43.83288, -4800.39794921875], [-125.11855, 43.83123, -4048.892333984375]]], [[[-125.08178, 43.76489, -5567.33349609375], [-125.07338, 43.75725, -5534.21044921875], [-125.07361, 43.76389, -6424.96337890625], [-125.08178, 43.76489, -5567.33349609375]]], [[[-125.08435, 43.74912, -3053.021240234375], [-125.0862, 43.74295, -2261.239501953125], [-125.07813, 43.7391, -3075.30029296875], [-125.08435, 43.74912, -3053.021240234375]]], [[[-125.09949, 43.76947, -4027.0068359375], [-125.09795, 43.7756, -4812.14794921875], [-125.10498, 43.77662, -4018.59912109375], [-125.09949, 43.76947, -4027.0068359375]]], [[[-125.10014, 43.87226, -3884.01806640625], [-125.0989, 43.88021, -3226.3994140625], [-125.10622, 43.87227, -3011.958740234375], [-125.10014, 43.87226, -3884.01806640625]]], [[[-125.08435, 43.74912, -3053.021240234375], [-125.09299, 43.75719, -3129.68798828125], [-125.09317, 43.75125, -2279.426025390625], [-125.08435, 43.74912, -3053.021240234375]]], [[[-125.11855, 43.83123, -4048.892333984375], [-125.12344, 43.83639, -3215.244873046875], [-125.12536, 43.82825, -3198.70263671875], [-125.11855, 43.83123, -4048.892333984375]]], [[[-125.12082, 43.82334, -3978.1044921875], [-125.1272, 43.81989, -3206.68603515625], [-125.12119, 43.81502, -4044.873046875], [-125.12082, 43.82334, -3978.1044921875]]], [[[-125.11011, 43.78361, -4030.340576171875], [-125.10846, 43.79175, -4911.88232421875], [-125.1147, 43.79073, -4030.155517578125], [-125.11011, 43.78361, -4030.340576171875]]], [[[-125.10846, 43.79175, -4911.88232421875], [-125.10499, 43.79727, -5735.99609375], [-125.11296, 43.79969, -4882.58056640625], [-125.10846, 43.79175, -4911.88232421875]]], [[[-125.09198, 43.76231, -3961.9853515625], [-125.09949, 43.76947, -4027.0068359375], [-125.1007, 43.76407, -3143.607421875], [-125.09198, 43.76231, -3961.9853515625]]], [[[-125.13386, 43.81641, -2352.969482421875], [-125.14, 43.81246, -1510.0223388671875], [-125.13379, 43.80786, -2315.00927734375], [-125.13386, 43.81641, -2352.969482421875]]], [[[-125.08281, 43.72463, -1846.97314453125], [-125.08693, 43.72867, -1428.048828125], [-125.085, 43.72, -1411.43603515625], [-125.08281, 43.72463, -1846.97314453125]]], [[[-125.10014, 43.87226, -3884.01806640625], [-125.09235, 43.88081, -4109.5], [-125.0989, 43.88021, -3226.3994140625], [-125.10014, 43.87226, -3884.01806640625]]], [[[-125.0963, 43.78197, -5627.65478515625], [-125.09795, 43.7756, -4812.14794921875], [-125.09014, 43.7729, -5540.98828125], [-125.0963, 43.78197, -5627.65478515625]]], [[[-125.05523, 43.74761, -6564.58154296875], [-125.04598, 43.7415, -7400.25537109375], [-125.04928, 43.74862, -7397.49609375], [-125.05523, 43.74761, -6564.58154296875]]], [[[-125.05718, 43.73828, -5779.4853515625], [-125.06109, 43.74488, -5637.546875], [-125.06411, 43.73886, -4899.41064453125], [-125.05718, 43.73828, -5779.4853515625]]], [[[-125.07338, 43.75725, -5534.21044921875], [-125.06577, 43.7517, -5682.11865234375], [-125.06568, 43.75731, -6483.181640625], [-125.07338, 43.75725, -5534.21044921875]]], [[[-125.09801, 43.79492, -6483.8505859375], [-125.0902, 43.79049, -7151.39111328125], [-125.09487, 43.79865, -7131.09033203125], [-125.09801, 43.79492, -6483.8505859375]]], [[[-125.10097, 43.79013, -5742.251953125], [-125.09401, 43.78748, -6421.14501953125], [-125.09801, 43.79492, -6483.8505859375], [-125.10097, 43.79013, -5742.251953125]]], [[[-125.07869, 43.72058, -2265.965087890625], [-125.07238, 43.72117, -3120.494140625], [-125.07699, 43.72895, -2752.712646484375], [-125.07869, 43.72058, -2265.965087890625]]], [[[-125.09304, 43.87322, -4814.27978515625], [-125.09235, 43.88081, -4109.5], [-125.10014, 43.87226, -3884.01806640625], [-125.09304, 43.87322, -4814.27978515625]]], [[[-125.11533, 43.82231, -4768.7978515625], [-125.10859, 43.82725, -5541.6640625], [-125.11275, 43.83288, -4800.39794921875], [-125.11533, 43.82231, -4768.7978515625]]], [[[-125.11266, 43.7776, -3137.576904296875], [-125.11489, 43.77162, -2281.008056640625], [-125.1072, 43.77065, -3162.2998046875], [-125.11266, 43.7776, -3137.576904296875]]], [[[-125.11636, 43.83914, -4064.120361328125], [-125.12063, 43.84446, -3217.849853515625], [-125.12344, 43.83639, -3215.244873046875], [-125.11636, 43.83914, -4064.120361328125]]], [[[-125.09949, 43.76947, -4027.0068359375], [-125.09027, 43.76669, -4781.92431640625], [-125.09795, 43.7756, -4812.14794921875], [-125.09949, 43.76947, -4027.0068359375]]], [[[-125.06411, 43.73886, -4899.41064453125], [-125.06862, 43.7474, -4814.3212890625], [-125.07044, 43.73842, -4048.6865234375], [-125.06411, 43.73886, -4899.41064453125]]], [[[-125.10628, 43.83679, -5576.22265625], [-125.09902, 43.84015, -6422.90380859375], [-125.10276, 43.84608, -5621.890625], [-125.10628, 43.83679, -5576.22265625]]], [[[-125.13227, 43.82487, -2349.549072265625], [-125.12536, 43.82825, -3198.70263671875], [-125.13038, 43.83339, -2356.5673828125], [-125.13227, 43.82487, -2349.549072265625]]], [[[-125.11489, 43.77162, -2281.008056640625], [-125.12065, 43.77926, -2280.884521484375], [-125.12283, 43.77344, -1449.9129638671875], [-125.11489, 43.77162, -2281.008056640625]]], [[[-125.05523, 43.74761, -6564.58154296875], [-125.06568, 43.75731, -6483.181640625], [-125.06577, 43.7517, -5682.11865234375], [-125.05523, 43.74761, -6564.58154296875]]], [[[-125.12699, 43.8008, -3121.8740234375], [-125.13379, 43.80786, -2315.00927734375], [-125.1336, 43.80088, -2241.773193359375], [-125.12699, 43.8008, -3121.8740234375]]], [[[-125.08219, 43.77136, -6400.595703125], [-125.071, 43.76758, -7259.39892578125], [-125.07837, 43.77474, -7211.56640625], [-125.08219, 43.77136, -6400.595703125]]], [[[-125.08435, 43.74912, -3053.021240234375], [-125.09317, 43.75125, -2279.426025390625], [-125.0862, 43.74295, -2261.239501953125], [-125.08435, 43.74912, -3053.021240234375]]], [[[-125.04974, 43.73554, -6623.3984375], [-125.05718, 43.73828, -5779.4853515625], [-125.05231, 43.73062, -6076.2783203125], [-125.04974, 43.73554, -6623.3984375]]], [[[-125.1336, 43.80088, -2241.773193359375], [-125.13958, 43.80421, -1490.761474609375], [-125.13784, 43.79668, -1481.462646484375], [-125.1336, 43.80088, -2241.773193359375]]], [[[-125.0963, 43.78197, -5627.65478515625], [-125.08849, 43.77931, -6367.6943359375], [-125.09401, 43.78748, -6421.14501953125], [-125.0963, 43.78197, -5627.65478515625]]], [[[-125.08253, 43.73304, -2207.889892578125], [-125.08974, 43.73721, -1463.0848388671875], [-125.08693, 43.72867, -1428.048828125], [-125.08253, 43.73304, -2207.889892578125]]], [[[-125.12344, 43.83639, -3215.244873046875], [-125.12779, 43.84155, -2362.522216796875], [-125.13038, 43.83339, -2356.5673828125], [-125.12344, 43.83639, -3215.244873046875]]], [[[-125.09304, 43.87322, -4814.27978515625], [-125.0858, 43.88141, -4991.990234375], [-125.09235, 43.88081, -4109.5], [-125.09304, 43.87322, -4814.27978515625]]], [[[-125.1093, 43.86327, -3321.342529296875], [-125.10622, 43.87227, -3011.958740234375], [-125.11482, 43.86574, -2337.81103515625], [-125.1093, 43.86327, -3321.342529296875]]], [[[-125.11011, 43.78361, -4030.340576171875], [-125.1147, 43.79073, -4030.155517578125], [-125.11802, 43.78505, -3149.21484375], [-125.11011, 43.78361, -4030.340576171875]]], [[[-125.12779, 43.84155, -2362.522216796875], [-125.13484, 43.83848, -1530.5714111328125], [-125.13038, 43.83339, -2356.5673828125], [-125.12779, 43.84155, -2362.522216796875]]], [[[-125.12373, 43.84957, -2351.9892578125], [-125.11889, 43.85799, -2369.645263671875], [-125.12654, 43.85492, -1513.3875732421875], [-125.12373, 43.84957, -2351.9892578125]]], [[[-125.0862, 43.74295, -2261.239501953125], [-125.08974, 43.73721, -1463.0848388671875], [-125.08253, 43.73304, -2207.889892578125], [-125.0862, 43.74295, -2261.239501953125]]], [[[-125.04084, 43.72408, -7393.13916015625], [-125.04288, 43.73293, -7397.88232421875], [-125.04501, 43.72821, -6968.04296875], [-125.04084, 43.72408, -7393.13916015625]]], [[[-125.10483, 43.85243, -4805.6416015625], [-125.11317, 43.84768, -4036.35693359375], [-125.10977, 43.8427, -4810.19482421875], [-125.10483, 43.85243, -4805.6416015625]]], [[[-125.11889, 43.85799, -2369.645263671875], [-125.12226, 43.86314, -1492.600830078125], [-125.12654, 43.85492, -1513.3875732421875], [-125.11889, 43.85799, -2369.645263671875]]], [[[-125.09199, 43.86525, -5617.265625], [-125.08618, 43.87401, -5724.44775390625], [-125.09304, 43.87322, -4814.27978515625], [-125.09199, 43.86525, -5617.265625]]], [[[-125.11489, 43.77162, -2281.008056640625], [-125.12283, 43.77344, -1449.9129638671875], [-125.11672, 43.76588, -1441.5697021484375], [-125.11489, 43.77162, -2281.008056640625]]], [[[-125.13028, 43.79411, -2272.287841796875], [-125.12699, 43.8008, -3121.8740234375], [-125.1336, 43.80088, -2241.773193359375], [-125.13028, 43.79411, -2272.287841796875]]], [[[-125.12119, 43.81502, -4044.873046875], [-125.11533, 43.82231, -4768.7978515625], [-125.12082, 43.82334, -3978.1044921875], [-125.12119, 43.81502, -4044.873046875]]], [[[-125.1093, 43.86327, -3321.342529296875], [-125.11482, 43.86574, -2337.81103515625], [-125.11889, 43.85799, -2369.645263671875], [-125.1093, 43.86327, -3321.342529296875]]], [[[-125.13038, 43.83339, -2356.5673828125], [-125.13484, 43.83848, -1530.5714111328125], [-125.13714, 43.82986, -1528.375732421875], [-125.13038, 43.83339, -2356.5673828125]]], [[[-125.09949, 43.76947, -4027.0068359375], [-125.10498, 43.77662, -4018.59912109375], [-125.1072, 43.77065, -3162.2998046875], [-125.09949, 43.76947, -4027.0068359375]]], [[[-125.06411, 43.73886, -4899.41064453125], [-125.06474, 43.73034, -4419.8076171875], [-125.05843, 43.73095, -5274.8076171875], [-125.06411, 43.73886, -4899.41064453125]]], [[[-125.09199, 43.86525, -5617.265625], [-125.08476, 43.86642, -6548.2080078125], [-125.08618, 43.87401, -5724.44775390625], [-125.09199, 43.86525, -5617.265625]]], [[[-125.09199, 43.86525, -5617.265625], [-125.08981, 43.85778, -6498.63037109375], [-125.08476, 43.86642, -6548.2080078125], [-125.09199, 43.86525, -5617.265625]]], [[[-125.11904, 43.79795, -3981.95458984375], [-125.12699, 43.8008, -3121.8740234375], [-125.12252, 43.79246, -3154.17578125], [-125.11904, 43.79795, -3981.95458984375]]], [[[-125.08178, 43.76489, -5567.33349609375], [-125.07361, 43.76389, -6424.96337890625], [-125.08219, 43.77136, -6400.595703125], [-125.08178, 43.76489, -5567.33349609375]]], [[[-125.10622, 43.87227, -3011.958740234375], [-125.1093, 43.86327, -3321.342529296875], [-125.10014, 43.87226, -3884.01806640625], [-125.10622, 43.87227, -3011.958740234375]]], [[[-125.08253, 43.73304, -2207.889892578125], [-125.08693, 43.72867, -1428.048828125], [-125.08281, 43.72463, -1846.97314453125], [-125.08253, 43.73304, -2207.889892578125]]], [[[-125.09014, 43.7729, -5540.98828125], [-125.08178, 43.76489, -5567.33349609375], [-125.08219, 43.77136, -6400.595703125], [-125.09014, 43.7729, -5540.98828125]]], [[[-125.12862, 43.78116, -1448.9622802734375], [-125.12591, 43.78688, -2284.830322265625], [-125.1338, 43.78908, -1449.4102783203125], [-125.12862, 43.78116, -1448.9622802734375]]], [[[-125.09317, 43.75125, -2279.426025390625], [-125.10126, 43.75235, -1449.2606201171875], [-125.09375, 43.74549, -1438.556884765625], [-125.09317, 43.75125, -2279.426025390625]]], [[[-125.09728, 43.85591, -5580.11767578125], [-125.08981, 43.85778, -6498.63037109375], [-125.09199, 43.86525, -5617.265625], [-125.09728, 43.85591, -5580.11767578125]]], [[[-125.11889, 43.85799, -2369.645263671875], [-125.11482, 43.86574, -2337.81103515625], [-125.12226, 43.86314, -1492.600830078125], [-125.11889, 43.85799, -2369.645263671875]]], [[[-125.09728, 43.85591, -5580.11767578125], [-125.09529, 43.84913, -6470.3662109375], [-125.08981, 43.85778, -6498.63037109375], [-125.09728, 43.85591, -5580.11767578125]]], [[[-125.06474, 43.73034, -4419.8076171875], [-125.05977, 43.72233, -4829.55224609375], [-125.05843, 43.73095, -5274.8076171875], [-125.06474, 43.73034, -4419.8076171875]]], [[[-125.10483, 43.85243, -4805.6416015625], [-125.09728, 43.85591, -5580.11767578125], [-125.1003, 43.86365, -4566.44873046875], [-125.10483, 43.85243, -4805.6416015625]]], [[[-125.10876, 43.80619, -5630.11279296875], [-125.11296, 43.79969, -4882.58056640625], [-125.10499, 43.79727, -5735.99609375], [-125.10876, 43.80619, -5630.11279296875]]], [[[-125.1272, 43.81989, -3206.68603515625], [-125.13227, 43.82487, -2349.549072265625], [-125.13386, 43.81641, -2352.969482421875], [-125.1272, 43.81989, -3206.68603515625]]], [[[-125.08429, 43.75485, -3868.734375], [-125.09299, 43.75719, -3129.68798828125], [-125.08435, 43.74912, -3053.021240234375], [-125.08429, 43.75485, -3868.734375]]], [[[-125.06474, 43.73034, -4419.8076171875], [-125.07044, 43.73842, -4048.6865234375], [-125.07117, 43.72996, -3556.443115234375], [-125.06474, 43.73034, -4419.8076171875]]], [[[-125.09728, 43.85591, -5580.11767578125], [-125.10276, 43.84608, -5621.890625], [-125.09529, 43.84913, -6470.3662109375], [-125.09728, 43.85591, -5580.11767578125]]], [[[-125.11636, 43.83914, -4064.120361328125], [-125.11855, 43.83123, -4048.892333984375], [-125.11275, 43.83288, -4800.39794921875], [-125.11636, 43.83914, -4064.120361328125]]], [[[-125.11855, 43.83123, -4048.892333984375], [-125.11636, 43.83914, -4064.120361328125], [-125.12344, 43.83639, -3215.244873046875], [-125.11855, 43.83123, -4048.892333984375]]], [[[-125.12065, 43.77926, -2280.884521484375], [-125.12591, 43.78688, -2284.830322265625], [-125.12862, 43.78116, -1448.9622802734375], [-125.12065, 43.77926, -2280.884521484375]]], [[[-125.12699, 43.8008, -3121.8740234375], [-125.13028, 43.79411, -2272.287841796875], [-125.12252, 43.79246, -3154.17578125], [-125.12699, 43.8008, -3121.8740234375]]], [[[-125.11802, 43.78505, -3149.21484375], [-125.12065, 43.77926, -2280.884521484375], [-125.11266, 43.7776, -3137.576904296875], [-125.11802, 43.78505, -3149.21484375]]], [[[-125.10499, 43.79727, -5735.99609375], [-125.10097, 43.79013, -5742.251953125], [-125.09801, 43.79492, -6483.8505859375], [-125.10499, 43.79727, -5735.99609375]]], [[[-125.12082, 43.82334, -3978.1044921875], [-125.11855, 43.83123, -4048.892333984375], [-125.12536, 43.82825, -3198.70263671875], [-125.12082, 43.82334, -3978.1044921875]]], [[[-125.12753, 43.81095, -3174.626953125], [-125.13379, 43.80786, -2315.00927734375], [-125.12699, 43.8008, -3121.8740234375], [-125.12753, 43.81095, -3174.626953125]]], [[[-125.11802, 43.78505, -3149.21484375], [-125.12252, 43.79246, -3154.17578125], [-125.12591, 43.78688, -2284.830322265625], [-125.11802, 43.78505, -3149.21484375]]], [[[-125.04974, 43.73554, -6623.3984375], [-125.04288, 43.73293, -7397.88232421875], [-125.04598, 43.7415, -7400.25537109375], [-125.04974, 43.73554, -6623.3984375]]], [[[-125.10483, 43.85243, -4805.6416015625], [-125.10276, 43.84608, -5621.890625], [-125.09728, 43.85591, -5580.11767578125], [-125.10483, 43.85243, -4805.6416015625]]], [[[-125.11577, 43.85311, -3175.84814453125], [-125.11889, 43.85799, -2369.645263671875], [-125.12373, 43.84957, -2351.9892578125], [-125.11577, 43.85311, -3175.84814453125]]], [[[-125.10483, 43.85243, -4805.6416015625], [-125.10977, 43.8427, -4810.19482421875], [-125.10276, 43.84608, -5621.890625], [-125.10483, 43.85243, -4805.6416015625]]], [[[-125.04084, 43.72408, -7393.13916015625], [-125.04501, 43.72821, -6968.04296875], [-125.04715, 43.7235, -6538.6103515625], [-125.04084, 43.72408, -7393.13916015625]]], [[[-125.08981, 43.85778, -6498.63037109375], [-125.08295, 43.85907, -7375.1240234375], [-125.08476, 43.86642, -6548.2080078125], [-125.08981, 43.85778, -6498.63037109375]]], [[[-125.10483, 43.85243, -4805.6416015625], [-125.10829, 43.85647, -3981.436279296875], [-125.11317, 43.84768, -4036.35693359375], [-125.10483, 43.85243, -4805.6416015625]]], [[[-125.10483, 43.85243, -4805.6416015625], [-125.1003, 43.86365, -4566.44873046875], [-125.10829, 43.85647, -3981.436279296875], [-125.10483, 43.85243, -4805.6416015625]]], [[[-125.11482, 43.86574, -2337.81103515625], [-125.1176, 43.87125, -1476.09375], [-125.12226, 43.86314, -1492.600830078125], [-125.11482, 43.86574, -2337.81103515625]]], [[[-125.07361, 43.76389, -6424.96337890625], [-125.06288, 43.76089, -7319.73291015625], [-125.071, 43.76758, -7259.39892578125], [-125.07361, 43.76389, -6424.96337890625]]], [[[-125.11533, 43.82231, -4768.7978515625], [-125.11855, 43.83123, -4048.892333984375], [-125.12082, 43.82334, -3978.1044921875], [-125.11533, 43.82231, -4768.7978515625]]], [[[-125.10242, 43.80256, -6423.7880859375], [-125.09487, 43.79865, -7131.09033203125], [-125.09762, 43.80713, -7130.75927734375], [-125.10242, 43.80256, -6423.7880859375]]], [[[-125.09728, 43.85591, -5580.11767578125], [-125.09199, 43.86525, -5617.265625], [-125.1003, 43.86365, -4566.44873046875], [-125.09728, 43.85591, -5580.11767578125]]], [[[-125.12373, 43.84957, -2351.9892578125], [-125.12654, 43.85492, -1513.3875732421875], [-125.13123, 43.84683, -1522.911376953125], [-125.12373, 43.84957, -2351.9892578125]]], [[[-125.1003, 43.86365, -4566.44873046875], [-125.09199, 43.86525, -5617.265625], [-125.09304, 43.87322, -4814.27978515625], [-125.1003, 43.86365, -4566.44873046875]]], [[[-125.12779, 43.84155, -2362.522216796875], [-125.12373, 43.84957, -2351.9892578125], [-125.13123, 43.84683, -1522.911376953125], [-125.12779, 43.84155, -2362.522216796875]]], [[[-125.1003, 43.86365, -4566.44873046875], [-125.09304, 43.87322, -4814.27978515625], [-125.10014, 43.87226, -3884.01806640625], [-125.1003, 43.86365, -4566.44873046875]]], [[[-125.10498, 43.77662, -4018.59912109375], [-125.11011, 43.78361, -4030.340576171875], [-125.11266, 43.7776, -3137.576904296875], [-125.10498, 43.77662, -4018.59912109375]]], [[[-125.1336, 43.80088, -2241.773193359375], [-125.13784, 43.79668, -1481.462646484375], [-125.13028, 43.79411, -2272.287841796875], [-125.1336, 43.80088, -2241.773193359375]]], [[[-125.1003, 43.86365, -4566.44873046875], [-125.10014, 43.87226, -3884.01806640625], [-125.1093, 43.86327, -3321.342529296875], [-125.1003, 43.86365, -4566.44873046875]]], [[[-125.10105, 43.75822, -2287.0859375], [-125.10126, 43.75235, -1449.2606201171875], [-125.09317, 43.75125, -2279.426025390625], [-125.10105, 43.75822, -2287.0859375]]], [[[-125.05523, 43.74761, -6564.58154296875], [-125.05533, 43.7546, -7364.23779296875], [-125.06568, 43.75731, -6483.181640625], [-125.05523, 43.74761, -6564.58154296875]]], [[[-125.07813, 43.7391, -3075.30029296875], [-125.07117, 43.72996, -3556.443115234375], [-125.07044, 43.73842, -4048.6865234375], [-125.07813, 43.7391, -3075.30029296875]]], [[[-125.11577, 43.85311, -3175.84814453125], [-125.12373, 43.84957, -2351.9892578125], [-125.12063, 43.84446, -3217.849853515625], [-125.11577, 43.85311, -3175.84814453125]]], [[[-125.07338, 43.75725, -5534.21044921875], [-125.06568, 43.75731, -6483.181640625], [-125.07361, 43.76389, -6424.96337890625], [-125.07338, 43.75725, -5534.21044921875]]], [[[-125.10829, 43.85647, -3981.436279296875], [-125.1003, 43.86365, -4566.44873046875], [-125.1093, 43.86327, -3321.342529296875], [-125.10829, 43.85647, -3981.436279296875]]], [[[-125.12063, 43.84446, -3217.849853515625], [-125.12373, 43.84957, -2351.9892578125], [-125.12779, 43.84155, -2362.522216796875], [-125.12063, 43.84446, -3217.849853515625]]], [[[-125.12779, 43.84155, -2362.522216796875], [-125.13123, 43.84683, -1522.911376953125], [-125.13484, 43.83848, -1530.5714111328125], [-125.12779, 43.84155, -2362.522216796875]]], [[[-125.10859, 43.82725, -5541.6640625], [-125.10628, 43.83679, -5576.22265625], [-125.11275, 43.83288, -4800.39794921875], [-125.10859, 43.82725, -5541.6640625]]], [[[-125.10829, 43.85647, -3981.436279296875], [-125.1093, 43.86327, -3321.342529296875], [-125.11577, 43.85311, -3175.84814453125], [-125.10829, 43.85647, -3981.436279296875]]], [[[-125.11317, 43.84768, -4036.35693359375], [-125.10829, 43.85647, -3981.436279296875], [-125.11577, 43.85311, -3175.84814453125], [-125.11317, 43.84768, -4036.35693359375]]], [[[-125.13227, 43.82487, -2349.549072265625], [-125.13907, 43.82118, -1528.1141357421875], [-125.13386, 43.81641, -2352.969482421875], [-125.13227, 43.82487, -2349.549072265625]]], [[[-125.11317, 43.84768, -4036.35693359375], [-125.11577, 43.85311, -3175.84814453125], [-125.12063, 43.84446, -3217.849853515625], [-125.11317, 43.84768, -4036.35693359375]]], [[[-125.12344, 43.83639, -3215.244873046875], [-125.13038, 43.83339, -2356.5673828125], [-125.12536, 43.82825, -3198.70263671875], [-125.12344, 43.83639, -3215.244873046875]]], [[[-125.06474, 43.73034, -4419.8076171875], [-125.06607, 43.72175, -3975.023193359375], [-125.05977, 43.72233, -4829.55224609375], [-125.06474, 43.73034, -4419.8076171875]]], [[[-125.11636, 43.83914, -4064.120361328125], [-125.11317, 43.84768, -4036.35693359375], [-125.12063, 43.84446, -3217.849853515625], [-125.11636, 43.83914, -4064.120361328125]]], [[[-125.11636, 43.83914, -4064.120361328125], [-125.10977, 43.8427, -4810.19482421875], [-125.11317, 43.84768, -4036.35693359375], [-125.11636, 43.83914, -4064.120361328125]]], [[[-125.13379, 43.80786, -2315.00927734375], [-125.14, 43.81246, -1510.0223388671875], [-125.13958, 43.80421, -1490.761474609375], [-125.13379, 43.80786, -2315.00927734375]]], [[[-125.10977, 43.8427, -4810.19482421875], [-125.11636, 43.83914, -4064.120361328125], [-125.11275, 43.83288, -4800.39794921875], [-125.10977, 43.8427, -4810.19482421875]]], [[[-125.12119, 43.81502, -4044.873046875], [-125.121, 43.80579, -3992.0673828125], [-125.11514, 43.81059, -4837.08349609375], [-125.12119, 43.81502, -4044.873046875]]], [[[-125.10977, 43.8427, -4810.19482421875], [-125.10628, 43.83679, -5576.22265625], [-125.10276, 43.84608, -5621.890625], [-125.10977, 43.8427, -4810.19482421875]]], [[[-125.05718, 43.73828, -5779.4853515625], [-125.05523, 43.74761, -6564.58154296875], [-125.06109, 43.74488, -5637.546875], [-125.05718, 43.73828, -5779.4853515625]]], [[[-125.1072, 43.77065, -3162.2998046875], [-125.10873, 43.76494, -2285.15087890625], [-125.1007, 43.76407, -3143.607421875], [-125.1072, 43.77065, -3162.2998046875]]], [[[-125.10628, 43.83679, -5576.22265625], [-125.10164, 43.83119, -6379.21728515625], [-125.09902, 43.84015, -6422.90380859375], [-125.10628, 43.83679, -5576.22265625]]], [[[-125.10859, 43.82725, -5541.6640625], [-125.10164, 43.83119, -6379.21728515625], [-125.10628, 43.83679, -5576.22265625], [-125.10859, 43.82725, -5541.6640625]]], [[[-125.11514, 43.81059, -4837.08349609375], [-125.10876, 43.80619, -5630.11279296875], [-125.11006, 43.81688, -5546.63232421875], [-125.11514, 43.81059, -4837.08349609375]]], [[[-125.10859, 43.82725, -5541.6640625], [-125.10386, 43.82191, -6364.376953125], [-125.10164, 43.83119, -6379.21728515625], [-125.10859, 43.82725, -5541.6640625]]], [[[-125.10386, 43.82191, -6364.376953125], [-125.09809, 43.81607, -7148.638671875], [-125.09728, 43.82499, -7173.947265625], [-125.10386, 43.82191, -6364.376953125]]], [[[-125.11577, 43.85311, -3175.84814453125], [-125.1093, 43.86327, -3321.342529296875], [-125.11889, 43.85799, -2369.645263671875], [-125.11577, 43.85311, -3175.84814453125]]], [[[-125.07562, 43.75188, -4506.1142578125], [-125.08429, 43.75485, -3868.734375], [-125.07591, 43.74622, -3796.160400390625], [-125.07562, 43.75188, -4506.1142578125]]], [[[-125.10859, 43.82725, -5541.6640625], [-125.11006, 43.81688, -5546.63232421875], [-125.10386, 43.82191, -6364.376953125], [-125.10859, 43.82725, -5541.6640625]]], [[[-125.09529, 43.84913, -6470.3662109375], [-125.09902, 43.84015, -6422.90380859375], [-125.09221, 43.84252, -7255.63232421875], [-125.09529, 43.84913, -6470.3662109375]]], [[[-125.10242, 43.80256, -6423.7880859375], [-125.09762, 43.80713, -7130.75927734375], [-125.10399, 43.81228, -6340.01318359375], [-125.10242, 43.80256, -6423.7880859375]]], [[[-125.11533, 43.82231, -4768.7978515625], [-125.11006, 43.81688, -5546.63232421875], [-125.10859, 43.82725, -5541.6640625], [-125.11533, 43.82231, -4768.7978515625]]], [[[-125.10399, 43.81228, -6340.01318359375], [-125.09809, 43.81607, -7148.638671875], [-125.10386, 43.82191, -6364.376953125], [-125.10399, 43.81228, -6340.01318359375]]], [[[-125.08849, 43.77931, -6367.6943359375], [-125.0845, 43.78253, -7179.275390625], [-125.09401, 43.78748, -6421.14501953125], [-125.08849, 43.77931, -6367.6943359375]]], [[[-125.11514, 43.81059, -4837.08349609375], [-125.11533, 43.82231, -4768.7978515625], [-125.12119, 43.81502, -4044.873046875], [-125.11514, 43.81059, -4837.08349609375]]], [[[-125.121, 43.80579, -3992.0673828125], [-125.12119, 43.81502, -4044.873046875], [-125.12753, 43.81095, -3174.626953125], [-125.121, 43.80579, -3992.0673828125]]], [[[-125.121, 43.80579, -3992.0673828125], [-125.12753, 43.81095, -3174.626953125], [-125.12699, 43.8008, -3121.8740234375], [-125.121, 43.80579, -3992.0673828125]]], [[[-125.06862, 43.7474, -4814.3212890625], [-125.06109, 43.74488, -5637.546875], [-125.06577, 43.7517, -5682.11865234375], [-125.06862, 43.7474, -4814.3212890625]]], [[[-125.07117, 43.72996, -3556.443115234375], [-125.07238, 43.72117, -3120.494140625], [-125.06607, 43.72175, -3975.023193359375], [-125.07117, 43.72996, -3556.443115234375]]], [[[-125.121, 43.80579, -3992.0673828125], [-125.11904, 43.79795, -3981.95458984375], [-125.11296, 43.79969, -4882.58056640625], [-125.121, 43.80579, -3992.0673828125]]], [[[-125.11514, 43.81059, -4837.08349609375], [-125.121, 43.80579, -3992.0673828125], [-125.11296, 43.79969, -4882.58056640625], [-125.11514, 43.81059, -4837.08349609375]]], [[[-125.11514, 43.81059, -4837.08349609375], [-125.11296, 43.79969, -4882.58056640625], [-125.10876, 43.80619, -5630.11279296875], [-125.11514, 43.81059, -4837.08349609375]]], [[[-125.07338, 43.75725, -5534.21044921875], [-125.06862, 43.7474, -4814.3212890625], [-125.06577, 43.7517, -5682.11865234375], [-125.07338, 43.75725, -5534.21044921875]]], [[[-125.10876, 43.80619, -5630.11279296875], [-125.10399, 43.81228, -6340.01318359375], [-125.11006, 43.81688, -5546.63232421875], [-125.10876, 43.80619, -5630.11279296875]]], [[[-125.12252, 43.79246, -3154.17578125], [-125.13028, 43.79411, -2272.287841796875], [-125.12591, 43.78688, -2284.830322265625], [-125.12252, 43.79246, -3154.17578125]]], [[[-125.10876, 43.80619, -5630.11279296875], [-125.10499, 43.79727, -5735.99609375], [-125.10242, 43.80256, -6423.7880859375], [-125.10876, 43.80619, -5630.11279296875]]], [[[-125.0963, 43.78197, -5627.65478515625], [-125.09014, 43.7729, -5540.98828125], [-125.08849, 43.77931, -6367.6943359375], [-125.0963, 43.78197, -5627.65478515625]]], [[[-125.10499, 43.79727, -5735.99609375], [-125.10846, 43.79175, -4911.88232421875], [-125.10097, 43.79013, -5742.251953125], [-125.10499, 43.79727, -5735.99609375]]], [[[-125.09801, 43.79492, -6483.8505859375], [-125.09487, 43.79865, -7131.09033203125], [-125.10242, 43.80256, -6423.7880859375], [-125.09801, 43.79492, -6483.8505859375]]], [[[-125.10399, 43.81228, -6340.01318359375], [-125.09762, 43.80713, -7130.75927734375], [-125.09809, 43.81607, -7148.638671875], [-125.10399, 43.81228, -6340.01318359375]]], [[[-125.09401, 43.78748, -6421.14501953125], [-125.0845, 43.78253, -7179.275390625], [-125.0902, 43.79049, -7151.39111328125], [-125.09401, 43.78748, -6421.14501953125]]], [[[-125.08219, 43.77136, -6400.595703125], [-125.07837, 43.77474, -7211.56640625], [-125.08849, 43.77931, -6367.6943359375], [-125.08219, 43.77136, -6400.595703125]]], [[[-125.07361, 43.76389, -6424.96337890625], [-125.071, 43.76758, -7259.39892578125], [-125.08219, 43.77136, -6400.595703125], [-125.07361, 43.76389, -6424.96337890625]]], [[[-125.07591, 43.74622, -3796.160400390625], [-125.07813, 43.7391, -3075.30029296875], [-125.07044, 43.73842, -4048.6865234375], [-125.07591, 43.74622, -3796.160400390625]]], [[[-125.06568, 43.75731, -6483.181640625], [-125.06288, 43.76089, -7319.73291015625], [-125.07361, 43.76389, -6424.96337890625], [-125.06568, 43.75731, -6483.181640625]]], [[[-125.06568, 43.75731, -6483.181640625], [-125.05533, 43.7546, -7364.23779296875], [-125.06288, 43.76089, -7319.73291015625], [-125.06568, 43.75731, -6483.181640625]]], [[[-125.05523, 43.74761, -6564.58154296875], [-125.04928, 43.74862, -7397.49609375], [-125.05533, 43.7546, -7364.23779296875], [-125.05523, 43.74761, -6564.58154296875]]], [[[-125.07117, 43.72996, -3556.443115234375], [-125.07699, 43.72895, -2752.712646484375], [-125.07238, 43.72117, -3120.494140625], [-125.07117, 43.72996, -3556.443115234375]]], [[[-125.09198, 43.76231, -3961.9853515625], [-125.1007, 43.76407, -3143.607421875], [-125.09299, 43.75719, -3129.68798828125], [-125.09198, 43.76231, -3961.9853515625]]], [[[-125.07591, 43.74622, -3796.160400390625], [-125.08435, 43.74912, -3053.021240234375], [-125.07813, 43.7391, -3075.30029296875], [-125.07591, 43.74622, -3796.160400390625]]], [[[-125.05718, 43.73828, -5779.4853515625], [-125.04974, 43.73554, -6623.3984375], [-125.05523, 43.74761, -6564.58154296875], [-125.05718, 43.73828, -5779.4853515625]]], [[[-125.04974, 43.73554, -6623.3984375], [-125.04501, 43.72821, -6968.04296875], [-125.04288, 43.73293, -7397.88232421875], [-125.04974, 43.73554, -6623.3984375]]], [[[-125.04715, 43.7235, -6538.6103515625], [-125.05231, 43.73062, -6076.2783203125], [-125.05346, 43.72291, -5684.0810546875], [-125.04715, 43.7235, -6538.6103515625]]], [[[-125.10097, 43.79013, -5742.251953125], [-125.10361, 43.78408, -4899.482421875], [-125.0963, 43.78197, -5627.65478515625], [-125.10097, 43.79013, -5742.251953125]]], [[[-125.07338, 43.75725, -5534.21044921875], [-125.07562, 43.75188, -4506.1142578125], [-125.06862, 43.7474, -4814.3212890625], [-125.07338, 43.75725, -5534.21044921875]]], [[[-125.09027, 43.76669, -4781.92431640625], [-125.09014, 43.7729, -5540.98828125], [-125.09795, 43.7756, -4812.14794921875], [-125.09027, 43.76669, -4781.92431640625]]], [[[-125.11904, 43.79795, -3981.95458984375], [-125.1147, 43.79073, -4030.155517578125], [-125.11296, 43.79969, -4882.58056640625], [-125.11904, 43.79795, -3981.95458984375]]], [[[-125.07338, 43.75725, -5534.21044921875], [-125.08194, 43.75904, -4735.7373046875], [-125.07562, 43.75188, -4506.1142578125], [-125.07338, 43.75725, -5534.21044921875]]], [[[-125.08194, 43.75904, -4735.7373046875], [-125.09198, 43.76231, -3961.9853515625], [-125.08429, 43.75485, -3868.734375], [-125.08194, 43.75904, -4735.7373046875]]], [[[-125.09949, 43.76947, -4027.0068359375], [-125.1072, 43.77065, -3162.2998046875], [-125.1007, 43.76407, -3143.607421875], [-125.09949, 43.76947, -4027.0068359375]]], [[[-125.10873, 43.76494, -2285.15087890625], [-125.1072, 43.77065, -3162.2998046875], [-125.11489, 43.77162, -2281.008056640625], [-125.10873, 43.76494, -2285.15087890625]]], [[[-125.12753, 43.81095, -3174.626953125], [-125.13386, 43.81641, -2352.969482421875], [-125.13379, 43.80786, -2315.00927734375], [-125.12753, 43.81095, -3174.626953125]]], [[[-125.10873, 43.76494, -2285.15087890625], [-125.11489, 43.77162, -2281.008056640625], [-125.11672, 43.76588, -1441.5697021484375], [-125.10873, 43.76494, -2285.15087890625]]], [[[-125.10105, 43.75822, -2287.0859375], [-125.10873, 43.76494, -2285.15087890625], [-125.10899, 43.75911, -1442.0595703125], [-125.10105, 43.75822, -2287.0859375]]], [[[-125.09299, 43.75719, -3129.68798828125], [-125.10105, 43.75822, -2287.0859375], [-125.09317, 43.75125, -2279.426025390625], [-125.09299, 43.75719, -3129.68798828125]]], [[[-125.12753, 43.81095, -3174.626953125], [-125.12119, 43.81502, -4044.873046875], [-125.1272, 43.81989, -3206.68603515625], [-125.12753, 43.81095, -3174.626953125]]], [[[-125.12082, 43.82334, -3978.1044921875], [-125.12536, 43.82825, -3198.70263671875], [-125.1272, 43.81989, -3206.68603515625], [-125.12082, 43.82334, -3978.1044921875]]], [[[-125.07813, 43.7391, -3075.30029296875], [-125.0862, 43.74295, -2261.239501953125], [-125.08253, 43.73304, -2207.889892578125], [-125.07813, 43.7391, -3075.30029296875]]], [[[-125.07813, 43.7391, -3075.30029296875], [-125.07699, 43.72895, -2752.712646484375], [-125.07117, 43.72996, -3556.443115234375], [-125.07813, 43.7391, -3075.30029296875]]], [[[-125.0862, 43.74295, -2261.239501953125], [-125.09317, 43.75125, -2279.426025390625], [-125.09375, 43.74549, -1438.556884765625], [-125.0862, 43.74295, -2261.239501953125]]], [[[-125.09728, 43.82499, -7173.947265625], [-125.09503, 43.83381, -7212.7822265625], [-125.10164, 43.83119, -6379.21728515625], [-125.09728, 43.82499, -7173.947265625]]], [[[-125.11006, 43.81688, -5546.63232421875], [-125.10399, 43.81228, -6340.01318359375], [-125.10386, 43.82191, -6364.376953125], [-125.11006, 43.81688, -5546.63232421875]]], [[[-125.09902, 43.84015, -6422.90380859375], [-125.09503, 43.83381, -7212.7822265625], [-125.09221, 43.84252, -7255.63232421875], [-125.09902, 43.84015, -6422.90380859375]]], [[[-125.10276, 43.84608, -5621.890625], [-125.09902, 43.84015, -6422.90380859375], [-125.09529, 43.84913, -6470.3662109375], [-125.10276, 43.84608, -5621.890625]]], [[[-125.09529, 43.84913, -6470.3662109375], [-125.09221, 43.84252, -7255.63232421875], [-125.08829, 43.85099, -7306.22021484375], [-125.09529, 43.84913, -6470.3662109375]]], [[[-125.08981, 43.85778, -6498.63037109375], [-125.09529, 43.84913, -6470.3662109375], [-125.08829, 43.85099, -7306.22021484375], [-125.08981, 43.85778, -6498.63037109375]]], [[[-125.08476, 43.86642, -6548.2080078125], [-125.08295, 43.85907, -7375.1240234375], [-125.07804, 43.8673, -7430.9619140625], [-125.08476, 43.86642, -6548.2080078125]]], [[[-125.08476, 43.86642, -6548.2080078125], [-125.07804, 43.8673, -7430.9619140625], [-125.07947, 43.8749, -6603.32421875], [-125.08476, 43.86642, -6548.2080078125]]], [[[-125.08618, 43.87401, -5724.44775390625], [-125.07947, 43.8749, -6603.32421875], [-125.07935, 43.88201, -5861.7763671875], [-125.08618, 43.87401, -5724.44775390625]]], [[[-125.08618, 43.87401, -5724.44775390625], [-125.07935, 43.88201, -5861.7763671875], [-125.0858, 43.88141, -4991.990234375], [-125.08618, 43.87401, -5724.44775390625]]], [[[-125.07947, 43.8749, -6603.32421875], [-125.07308, 43.88258, -6706.7939453125], [-125.07935, 43.88201, -5861.7763671875], [-125.07947, 43.8749, -6603.32421875]]], [[[-125.07804, 43.8673, -7430.9619140625], [-125.07291, 43.87545, -7491.77734375], [-125.07947, 43.8749, -6603.32421875], [-125.07804, 43.8673, -7430.9619140625]]], [[[-125.11171, 43.87282, -2175.11962890625], [-125.10545, 43.8796, -2343.29931640625], [-125.112, 43.879, -1460.198974609375], [-125.11171, 43.87282, -2175.11962890625]]], [[[-125.11171, 43.87282, -2175.11962890625], [-125.112, 43.879, -1460.198974609375], [-125.1176, 43.87125, -1476.09375], [-125.11171, 43.87282, -2175.11962890625]]], [[[-125.07308, 43.88258, -6706.7939453125], [-125.07947, 43.8749, -6603.32421875], [-125.07291, 43.87545, -7491.77734375], [-125.07308, 43.88258, -6706.7939453125]]], [[[-125.06673, 43.88316, -7563.35986328125], [-125.07308, 43.88258, -6706.7939453125], [-125.07291, 43.87545, -7491.77734375], [-125.06673, 43.88316, -7563.35986328125]]]]}}]}