{"type": "FeatureCollection", "features": [{"type": "Feature", "properties": {"name": "AW_CORE_20", "CFM_ID": 374, "region": "Offshore_OR", "primary_state/province": "OR", "secondary_state/province": null, "avg_dip": null, "dip_dir": "E", "rake": 90, "slip_sense": "Reverse", "fault_level": 2, "NSHM23_sliprates": null, "QFFDAgeCatBin": null, "QFFDAgeBin": null, "upper_depth": null, "upper_depth_constraint": "bathymetry", "lower_depth": null, "lower_depth_constraint": "megathrust", "3D_model_constraints": "trace extended at constant dip", "reference": "Goldfinger et al. (2023)", "nshm23_id": null, "lineage": null, "usgs_qffd_#": null, "comments": null, "id": "374"}, "geometry": {"type": "MultiPolygon", "coordinates": [[[[-125.26469, 43.53949, -2377.220458984375], [-125.269, 43.5366, -1796.482177734375], [-125.26478, 43.53438, -2234.600830078125], [-125.26469, 43.53949, -2377.220458984375]]], [[[-125.24999, 43.64737, -5724.1220703125], [-125.25717, 43.64511, -4900.6328125], [-125.25344, 43.6393, -5658.380859375], [-125.24999, 43.64737, -5724.1220703125]]], [[[-125.28434, 43.68554, -2790.610595703125], [-125.28946, 43.68058, -1985.015625], [-125.28256, 43.677, -2780.520263671875], [-125.28434, 43.68554, -2790.610595703125]]], [[[-125.25989, 43.54063, -3021.492919921875], [-125.25523, 43.5414, -3646.064453125], [-125.25545, 43.5496, -3578.557373046875], [-125.25989, 43.54063, -3021.492919921875]]], [[[-125.25717, 43.64511, -4900.6328125], [-125.24999, 43.64737, -5724.1220703125], [-125.25438, 43.6532, -5013.16943359375], [-125.25717, 43.64511, -4900.6328125]]], [[[-125.23672, 43.58054, -4577.02685546875], [-125.23427, 43.57157, -5399.298828125], [-125.23002, 43.57999, -5471.65966796875], [-125.23672, 43.58054, -4577.02685546875]]], [[[-125.2425, 43.51957, -2995.095458984375], [-125.24772, 43.52017, -2318.384033203125], [-125.24223, 43.51364, -2469.936767578125], [-125.2425, 43.51957, -2995.095458984375]]], [[[-125.25405, 43.57324, -2715.368896484375], [-125.25089, 43.58179, -2683.51416015625], [-125.25797, 43.57912, -1790.414306640625], [-125.25405, 43.57324, -2715.368896484375]]], [[[-125.25657, 43.66207, -5050.04296875], [-125.24818, 43.65629, -5784.6474609375], [-125.25276, 43.66458, -5804.7197265625], [-125.25657, 43.66207, -5050.04296875]]], [[[-125.26062, 43.55532, -2747.481201171875], [-125.25754, 43.56448, -2739.960693359375], [-125.26512, 43.56164, -1880.848876953125], [-125.26062, 43.55532, -2747.481201171875]]], [[[-125.25438, 43.6532, -5013.16943359375], [-125.26418, 43.64804, -3840.648193359375], [-125.25717, 43.64511, -4900.6328125], [-125.25438, 43.6532, -5013.16943359375]]], [[[-125.24688, 43.52769, -4108.18505859375], [-125.24438, 43.53005, -4683.361328125], [-125.24899, 43.53202, -4223.85546875], [-125.24688, 43.52769, -4108.18505859375]]], [[[-125.24883, 43.56927, -3652.097412109375], [-125.25405, 43.57324, -2715.368896484375], [-125.25754, 43.56448, -2739.960693359375], [-125.24883, 43.56927, -3652.097412109375]]], [[[-125.23148, 43.7486, -2607.341552734375], [-125.23054, 43.75397, -1729.885498046875], [-125.23964, 43.74773, -1740.222900390625], [-125.23148, 43.7486, -2607.341552734375]]], [[[-125.25438, 43.6532, -5013.16943359375], [-125.26005, 43.65632, -4215.8076171875], [-125.26418, 43.64804, -3840.648193359375], [-125.25438, 43.6532, -5013.16943359375]]], [[[-125.27575, 43.67455, -3606.27783203125], [-125.27015, 43.6735, -4322.49755859375], [-125.27302, 43.68368, -4282.109375], [-125.27575, 43.67455, -3606.27783203125]]], [[[-125.24893, 43.73549, -2605.638671875], [-125.25703, 43.73465, -1776.0166015625], [-125.25801, 43.72932, -2651.728271484375], [-125.24893, 43.73549, -2605.638671875]]], [[[-125.24512, 43.52457, -3658.82763671875], [-125.25023, 43.52475, -2933.833740234375], [-125.2425, 43.51957, -2995.095458984375], [-125.24512, 43.52457, -3658.82763671875]]], [[[-125.26005, 43.65632, -4215.8076171875], [-125.25438, 43.6532, -5013.16943359375], [-125.25657, 43.66207, -5050.04296875], [-125.26005, 43.65632, -4215.8076171875]]], [[[-125.25252, 43.52806, -3352.473388671875], [-125.25023, 43.52475, -2933.833740234375], [-125.24512, 43.52457, -3658.82763671875], [-125.25252, 43.52806, -3352.473388671875]]], [[[-125.26005, 43.65632, -4215.8076171875], [-125.25657, 43.66207, -5050.04296875], [-125.2641, 43.66431, -4206.056640625], [-125.26005, 43.65632, -4215.8076171875]]], [[[-125.2629, 43.5472, -2601.36328125], [-125.26062, 43.55532, -2747.481201171875], [-125.26803, 43.55275, -1879.956787109375], [-125.2629, 43.5472, -2601.36328125]]], [[[-125.27886, 43.69021, -3575.642578125], [-125.28496, 43.69443, -2769.47900390625], [-125.28434, 43.68554, -2790.610595703125], [-125.27886, 43.69021, -3575.642578125]]], [[[-125.26707, 43.65815, -3261.04443359375], [-125.26005, 43.65632, -4215.8076171875], [-125.2641, 43.66431, -4206.056640625], [-125.26707, 43.65815, -3261.04443359375]]], [[[-125.24331, 43.58594, -3619.9912109375], [-125.2445, 43.57751, -3645.247802734375], [-125.23672, 43.58054, -4577.02685546875], [-125.24331, 43.58594, -3619.9912109375]]], [[[-125.23746, 43.51946, -3692.8623046875], [-125.23221, 43.51302, -3817.421630859375], [-125.23254, 43.51966, -4403.39990234375], [-125.23746, 43.51946, -3692.8623046875]]], [[[-125.25234, 43.56009, -3623.349853515625], [-125.25754, 43.56448, -2739.960693359375], [-125.26062, 43.55532, -2747.481201171875], [-125.25234, 43.56009, -3623.349853515625]]], [[[-125.26707, 43.65815, -3261.04443359375], [-125.26418, 43.64804, -3840.648193359375], [-125.26005, 43.65632, -4215.8076171875], [-125.26707, 43.65815, -3261.04443359375]]], [[[-125.25701, 43.53389, -3276.957763671875], [-125.25989, 43.54063, -3021.492919921875], [-125.26095, 43.53382, -2717.008056640625], [-125.25701, 43.53389, -3276.957763671875]]], [[[-125.26151, 43.69041, -5894.0771484375], [-125.26748, 43.68903, -5083.138671875], [-125.26109, 43.68137, -5848.14404296875], [-125.26151, 43.69041, -5894.0771484375]]], [[[-125.24899, 43.53202, -4223.85546875], [-125.24438, 43.53005, -4683.361328125], [-125.24762, 43.53604, -4662.67431640625], [-125.24899, 43.53202, -4223.85546875]]], [[[-125.25228, 43.53711, -4038.4169921875], [-125.24939, 43.54493, -4417.66455078125], [-125.25523, 43.5414, -3646.064453125], [-125.25228, 43.53711, -4038.4169921875]]], [[[-125.24834, 43.5912, -2763.275634765625], [-125.24593, 43.60006, -2742.1435546875], [-125.25301, 43.59696, -1892.9622802734375], [-125.24834, 43.5912, -2763.275634765625]]], [[[-125.28434, 43.68554, -2790.610595703125], [-125.29073, 43.68961, -1982.4957275390625], [-125.28946, 43.68058, -1985.015625], [-125.28434, 43.68554, -2790.610595703125]]], [[[-125.24512, 43.52457, -3658.82763671875], [-125.2425, 43.51957, -2995.095458984375], [-125.23746, 43.51946, -3692.8623046875], [-125.24512, 43.52457, -3658.82763671875]]], [[[-125.26418, 43.64804, -3840.648193359375], [-125.26707, 43.65815, -3261.04443359375], [-125.27152, 43.65165, -2771.121337890625], [-125.26418, 43.64804, -3840.648193359375]]], [[[-125.2629, 43.5472, -2601.36328125], [-125.26803, 43.55275, -1879.956787109375], [-125.269, 43.54402, -1802.59912109375], [-125.2629, 43.5472, -2601.36328125]]], [[[-125.23254, 43.51966, -4403.39990234375], [-125.24045, 43.52493, -4465.125], [-125.23746, 43.51946, -3692.8623046875], [-125.23254, 43.51966, -4403.39990234375]]], [[[-125.2445, 43.57751, -3645.247802734375], [-125.25405, 43.57324, -2715.368896484375], [-125.24883, 43.56927, -3652.097412109375], [-125.2445, 43.57751, -3645.247802734375]]], [[[-125.2425, 43.51957, -2995.095458984375], [-125.24223, 43.51364, -2469.936767578125], [-125.23722, 43.51333, -3143.67919921875], [-125.2425, 43.51957, -2995.095458984375]]], [[[-125.24762, 43.53604, -4662.67431640625], [-125.24438, 43.53005, -4683.361328125], [-125.24332, 43.53325, -5136.15478515625], [-125.24762, 43.53604, -4662.67431640625]]], [[[-125.24688, 43.52769, -4108.18505859375], [-125.24045, 43.52493, -4465.125], [-125.24438, 43.53005, -4683.361328125], [-125.24688, 43.52769, -4108.18505859375]]], [[[-125.27302, 43.68368, -4282.109375], [-125.27015, 43.6735, -4322.49755859375], [-125.26653, 43.67956, -5045.8701171875], [-125.27302, 43.68368, -4282.109375]]], [[[-125.24021, 43.74199, -2585.968505859375], [-125.23964, 43.74773, -1740.222900390625], [-125.24821, 43.7411, -1749.942138671875], [-125.24021, 43.74199, -2585.968505859375]]], [[[-125.26418, 43.64804, -3840.648193359375], [-125.27152, 43.65165, -2771.121337890625], [-125.27418, 43.64142, -2865.54638671875], [-125.26418, 43.64804, -3840.648193359375]]], [[[-125.25905, 43.72334, -3556.11328125], [-125.26406, 43.71499, -4395.1083984375], [-125.25388, 43.72214, -4394.6357421875], [-125.25905, 43.72334, -3556.11328125]]], [[[-125.26707, 43.65815, -3261.04443359375], [-125.27719, 43.65729, -1936.843017578125], [-125.27152, 43.65165, -2771.121337890625], [-125.26707, 43.65815, -3261.04443359375]]], [[[-125.26418, 43.64804, -3840.648193359375], [-125.27418, 43.64142, -2865.54638671875], [-125.26714, 43.63879, -3639.69970703125], [-125.26418, 43.64804, -3840.648193359375]]], [[[-125.2445, 43.57751, -3645.247802734375], [-125.24883, 43.56927, -3652.097412109375], [-125.24031, 43.57228, -4565.31005859375], [-125.2445, 43.57751, -3645.247802734375]]], [[[-125.24899, 43.53202, -4223.85546875], [-125.24762, 43.53604, -4662.67431640625], [-125.25228, 43.53711, -4038.4169921875], [-125.24899, 43.53202, -4223.85546875]]], [[[-125.23922, 43.59517, -3773.272705078125], [-125.24593, 43.60006, -2742.1435546875], [-125.24834, 43.5912, -2763.275634765625], [-125.23922, 43.59517, -3773.272705078125]]], [[[-125.25523, 43.5414, -3646.064453125], [-125.24939, 43.54493, -4417.66455078125], [-125.25545, 43.5496, -3578.557373046875], [-125.25523, 43.5414, -3646.064453125]]], [[[-125.27542, 43.71675, -2733.567626953125], [-125.26635, 43.72308, -2702.165283203125], [-125.27472, 43.72185, -1896.3045654296875], [-125.27542, 43.71675, -2733.567626953125]]], [[[-125.25023, 43.52475, -2933.833740234375], [-125.25582, 43.5255, -2292.042236328125], [-125.24772, 43.52017, -2318.384033203125], [-125.25023, 43.52475, -2933.833740234375]]], [[[-125.26714, 43.63879, -3639.69970703125], [-125.2616, 43.63919, -4483.4384765625], [-125.26418, 43.64804, -3840.648193359375], [-125.26714, 43.63879, -3639.69970703125]]], [[[-125.27542, 43.71675, -2733.567626953125], [-125.27472, 43.72185, -1896.3045654296875], [-125.28355, 43.71545, -1894.5587158203125], [-125.27542, 43.71675, -2733.567626953125]]], [[[-125.26707, 43.65815, -3261.04443359375], [-125.27381, 43.66218, -2664.909912109375], [-125.27719, 43.65729, -1936.843017578125], [-125.26707, 43.65815, -3261.04443359375]]], [[[-125.24331, 43.58594, -3619.9912109375], [-125.24834, 43.5912, -2763.275634765625], [-125.25089, 43.58179, -2683.51416015625], [-125.24331, 43.58594, -3619.9912109375]]], [[[-125.26714, 43.63879, -3639.69970703125], [-125.25957, 43.63246, -3738.158203125], [-125.2616, 43.63919, -4483.4384765625], [-125.26714, 43.63879, -3639.69970703125]]], [[[-125.25801, 43.72932, -2651.728271484375], [-125.26608, 43.72838, -1821.23828125], [-125.26635, 43.72308, -2702.165283203125], [-125.25801, 43.72932, -2651.728271484375]]], [[[-125.26095, 43.53382, -2717.008056640625], [-125.26478, 43.53438, -2234.600830078125], [-125.2615, 43.52961, -2240.98095703125], [-125.26095, 43.53382, -2717.008056640625]]], [[[-125.25307, 43.53232, -3680.572021484375], [-125.24899, 43.53202, -4223.85546875], [-125.25228, 43.53711, -4038.4169921875], [-125.25307, 43.53232, -3680.572021484375]]], [[[-125.23746, 43.51946, -3692.8623046875], [-125.23722, 43.51333, -3143.67919921875], [-125.23221, 43.51302, -3817.421630859375], [-125.23746, 43.51946, -3692.8623046875]]], [[[-125.26714, 43.63879, -3639.69970703125], [-125.26654, 43.63299, -2835.05712890625], [-125.25957, 43.63246, -3738.158203125], [-125.26714, 43.63879, -3639.69970703125]]], [[[-125.26714, 43.63879, -3639.69970703125], [-125.27418, 43.64142, -2865.54638671875], [-125.26654, 43.63299, -2835.05712890625], [-125.26714, 43.63879, -3639.69970703125]]], [[[-125.26152, 43.52651, -1705.0054931640625], [-125.2615, 43.52961, -2240.98095703125], [-125.26601, 43.53121, -1760.561767578125], [-125.26152, 43.52651, -1705.0054931640625]]], [[[-125.26654, 43.63299, -2835.05712890625], [-125.27418, 43.64142, -2865.54638671875], [-125.27389, 43.63393, -1965.6099853515625], [-125.26654, 43.63299, -2835.05712890625]]], [[[-125.25252, 43.52806, -3352.473388671875], [-125.25701, 43.53389, -3276.957763671875], [-125.25726, 43.52908, -2783.88623046875], [-125.25252, 43.52806, -3352.473388671875]]], [[[-125.25044, 43.72971, -3508.7734375], [-125.25905, 43.72334, -3556.11328125], [-125.25388, 43.72214, -4394.6357421875], [-125.25044, 43.72971, -3508.7734375]]], [[[-125.24939, 43.54493, -4417.66455078125], [-125.24391, 43.53871, -5161.79248046875], [-125.24345, 43.54593, -5203.36279296875], [-125.24939, 43.54493, -4417.66455078125]]], [[[-125.2425, 43.51957, -2995.095458984375], [-125.23722, 43.51333, -3143.67919921875], [-125.23746, 43.51946, -3692.8623046875], [-125.2425, 43.51957, -2995.095458984375]]], [[[-125.27886, 43.69021, -3575.642578125], [-125.28434, 43.68554, -2790.610595703125], [-125.27842, 43.68195, -3531.53857421875], [-125.27886, 43.69021, -3575.642578125]]], [[[-125.26732, 43.71794, -3507.4111328125], [-125.25905, 43.72334, -3556.11328125], [-125.26635, 43.72308, -2702.165283203125], [-125.26732, 43.71794, -3507.4111328125]]], [[[-125.26281, 43.67006, -5007.130859375], [-125.25276, 43.66458, -5804.7197265625], [-125.25887, 43.67246, -5813.1220703125], [-125.26281, 43.67006, -5007.130859375]]], [[[-125.26654, 43.63299, -2835.05712890625], [-125.27389, 43.63393, -1965.6099853515625], [-125.265, 43.628, -1943.0113525390625], [-125.26654, 43.63299, -2835.05712890625]]], [[[-125.25545, 43.5496, -3578.557373046875], [-125.26062, 43.55532, -2747.481201171875], [-125.2629, 43.5472, -2601.36328125], [-125.25545, 43.5496, -3578.557373046875]]], [[[-125.24883, 43.56927, -3652.097412109375], [-125.24441, 43.56369, -4496.041015625], [-125.24031, 43.57228, -4565.31005859375], [-125.24883, 43.56927, -3652.097412109375]]], [[[-125.24331, 43.58594, -3619.9912109375], [-125.25089, 43.58179, -2683.51416015625], [-125.2445, 43.57751, -3645.247802734375], [-125.24331, 43.58594, -3619.9912109375]]], [[[-125.25774, 43.62723, -2837.991943359375], [-125.26654, 43.63299, -2835.05712890625], [-125.265, 43.628, -1943.0113525390625], [-125.25774, 43.62723, -2837.991943359375]]], [[[-125.25252, 43.52806, -3352.473388671875], [-125.25726, 43.52908, -2783.88623046875], [-125.25023, 43.52475, -2933.833740234375], [-125.25252, 43.52806, -3352.473388671875]]], [[[-125.22223, 43.75548, -2548.59814453125], [-125.23054, 43.75397, -1729.885498046875], [-125.23148, 43.7486, -2607.341552734375], [-125.22223, 43.75548, -2548.59814453125]]], [[[-125.25252, 43.52806, -3352.473388671875], [-125.25307, 43.53232, -3680.572021484375], [-125.25701, 43.53389, -3276.957763671875], [-125.25252, 43.52806, -3352.473388671875]]], [[[-125.25957, 43.63246, -3738.158203125], [-125.26654, 43.63299, -2835.05712890625], [-125.25774, 43.62723, -2837.991943359375], [-125.25957, 43.63246, -3738.158203125]]], [[[-125.24438, 43.53005, -4683.361328125], [-125.24045, 43.52493, -4465.125], [-125.23997, 43.52822, -5129.3115234375], [-125.24438, 43.53005, -4683.361328125]]], [[[-125.25089, 43.58179, -2683.51416015625], [-125.24834, 43.5912, -2763.275634765625], [-125.25598, 43.58807, -1909.2646484375], [-125.25089, 43.58179, -2683.51416015625]]], [[[-125.25657, 43.66207, -5050.04296875], [-125.25438, 43.6532, -5013.16943359375], [-125.24818, 43.65629, -5784.6474609375], [-125.25657, 43.66207, -5050.04296875]]], [[[-125.27163, 43.70477, -4369.5244140625], [-125.27873, 43.69858, -3584.8564453125], [-125.27339, 43.69414, -4308.10205078125], [-125.27163, 43.70477, -4369.5244140625]]], [[[-125.25989, 43.54063, -3021.492919921875], [-125.25545, 43.5496, -3578.557373046875], [-125.2629, 43.5472, -2601.36328125], [-125.25989, 43.54063, -3021.492919921875]]], [[[-125.22695, 43.61944, -5702.60986328125], [-125.23433, 43.62457, -5687.57666015625], [-125.23433, 43.6209, -4884.453125], [-125.22695, 43.61944, -5702.60986328125]]], [[[-125.27873, 43.69858, -3584.8564453125], [-125.27163, 43.70477, -4369.5244140625], [-125.27799, 43.70534, -3516.684326171875], [-125.27873, 43.69858, -3584.8564453125]]], [[[-125.2138, 43.75829, -3364.864990234375], [-125.20784, 43.76958, -3326.253173828125], [-125.21613, 43.76456, -2545.422607421875], [-125.2138, 43.75829, -3364.864990234375]]], [[[-125.25957, 43.63246, -3738.158203125], [-125.25774, 43.62723, -2837.991943359375], [-125.25106, 43.62731, -3834.919189453125], [-125.25957, 43.63246, -3738.158203125]]], [[[-125.27302, 43.68368, -4282.109375], [-125.26748, 43.68903, -5083.138671875], [-125.27339, 43.69414, -4308.10205078125], [-125.27302, 43.68368, -4282.109375]]], [[[-125.25582, 43.5255, -2292.042236328125], [-125.26152, 43.52651, -1705.0054931640625], [-125.25371, 43.52162, -1612.721435546875], [-125.25582, 43.5255, -2292.042236328125]]], [[[-125.25726, 43.52908, -2783.88623046875], [-125.2615, 43.52961, -2240.98095703125], [-125.25582, 43.5255, -2292.042236328125], [-125.25726, 43.52908, -2783.88623046875]]], [[[-125.26469, 43.53949, -2377.220458984375], [-125.269, 43.54402, -1802.59912109375], [-125.269, 43.5366, -1796.482177734375], [-125.26469, 43.53949, -2377.220458984375]]], [[[-125.25374, 43.63382, -4814.458984375], [-125.25957, 43.63246, -3738.158203125], [-125.25106, 43.62731, -3834.919189453125], [-125.25374, 43.63382, -4814.458984375]]], [[[-125.27873, 43.69858, -3584.8564453125], [-125.27799, 43.70534, -3516.684326171875], [-125.28453, 43.70272, -2742.901123046875], [-125.27873, 43.69858, -3584.8564453125]]], [[[-125.25374, 43.63382, -4814.458984375], [-125.2616, 43.63919, -4483.4384765625], [-125.25957, 43.63246, -3738.158203125], [-125.25374, 43.63382, -4814.458984375]]], [[[-125.25344, 43.6393, -5658.380859375], [-125.2616, 43.63919, -4483.4384765625], [-125.25374, 43.63382, -4814.458984375], [-125.25344, 43.6393, -5658.380859375]]], [[[-125.22223, 43.75548, -2548.59814453125], [-125.22401, 43.76165, -1742.419189453125], [-125.23054, 43.75397, -1729.885498046875], [-125.22223, 43.75548, -2548.59814453125]]], [[[-125.26281, 43.67006, -5007.130859375], [-125.2641, 43.66431, -4206.056640625], [-125.25657, 43.66207, -5050.04296875], [-125.26281, 43.67006, -5007.130859375]]], [[[-125.2425, 43.51957, -2995.095458984375], [-125.25023, 43.52475, -2933.833740234375], [-125.24772, 43.52017, -2318.384033203125], [-125.2425, 43.51957, -2995.095458984375]]], [[[-125.25344, 43.6393, -5658.380859375], [-125.25717, 43.64511, -4900.6328125], [-125.2616, 43.63919, -4483.4384765625], [-125.25344, 43.6393, -5658.380859375]]], [[[-125.25582, 43.5255, -2292.042236328125], [-125.25023, 43.52475, -2933.833740234375], [-125.25726, 43.52908, -2783.88623046875], [-125.25582, 43.5255, -2292.042236328125]]], [[[-125.25106, 43.62731, -3834.919189453125], [-125.24839, 43.6209, -2871.0166015625], [-125.24136, 43.62125, -3930.246337890625], [-125.25106, 43.62731, -3834.919189453125]]], [[[-125.26418, 43.64804, -3840.648193359375], [-125.2616, 43.63919, -4483.4384765625], [-125.25717, 43.64511, -4900.6328125], [-125.26418, 43.64804, -3840.648193359375]]], [[[-125.26653, 43.67956, -5045.8701171875], [-125.26281, 43.67006, -5007.130859375], [-125.25887, 43.67246, -5813.1220703125], [-125.26653, 43.67956, -5045.8701171875]]], [[[-125.26713, 43.69836, -5127.0419921875], [-125.26748, 43.68903, -5083.138671875], [-125.26151, 43.69041, -5894.0771484375], [-125.26713, 43.69836, -5127.0419921875]]], [[[-125.25523, 43.5414, -3646.064453125], [-125.25701, 43.53389, -3276.957763671875], [-125.25228, 43.53711, -4038.4169921875], [-125.25523, 43.5414, -3646.064453125]]], [[[-125.25374, 43.63382, -4814.458984375], [-125.24793, 43.63397, -5660.19091796875], [-125.25344, 43.6393, -5658.380859375], [-125.25374, 43.63382, -4814.458984375]]], [[[-125.24045, 43.52493, -4465.125], [-125.23254, 43.51966, -4403.39990234375], [-125.23452, 43.52412, -5143.69970703125], [-125.24045, 43.52493, -4465.125]]], [[[-125.26062, 43.55532, -2747.481201171875], [-125.26512, 43.56164, -1880.848876953125], [-125.26803, 43.55275, -1879.956787109375], [-125.26062, 43.55532, -2747.481201171875]]], [[[-125.24706, 43.63017, -5063.73388671875], [-125.24793, 43.63397, -5660.19091796875], [-125.25374, 43.63382, -4814.458984375], [-125.24706, 43.63017, -5063.73388671875]]], [[[-125.25905, 43.72334, -3556.11328125], [-125.25801, 43.72932, -2651.728271484375], [-125.26635, 43.72308, -2702.165283203125], [-125.25905, 43.72334, -3556.11328125]]], [[[-125.24706, 43.63017, -5063.73388671875], [-125.24151, 43.62925, -5671.2080078125], [-125.24793, 43.63397, -5660.19091796875], [-125.24706, 43.63017, -5063.73388671875]]], [[[-125.27418, 43.64142, -2865.54638671875], [-125.281, 43.641, -1996.5419921875], [-125.27389, 43.63393, -1965.6099853515625], [-125.27418, 43.64142, -2865.54638671875]]], [[[-125.25234, 43.56009, -3623.349853515625], [-125.26062, 43.55532, -2747.481201171875], [-125.25545, 43.5496, -3578.557373046875], [-125.25234, 43.56009, -3623.349853515625]]], [[[-125.24706, 43.63017, -5063.73388671875], [-125.24293, 43.6261, -4761.7509765625], [-125.24151, 43.62925, -5671.2080078125], [-125.24706, 43.63017, -5063.73388671875]]], [[[-125.25228, 43.53711, -4038.4169921875], [-125.24762, 43.53604, -4662.67431640625], [-125.24939, 43.54493, -4417.66455078125], [-125.25228, 43.53711, -4038.4169921875]]], [[[-125.25405, 43.57324, -2715.368896484375], [-125.25797, 43.57912, -1790.414306640625], [-125.26216, 43.57052, -1848.283447265625], [-125.25405, 43.57324, -2715.368896484375]]], [[[-125.24706, 43.63017, -5063.73388671875], [-125.25106, 43.62731, -3834.919189453125], [-125.24293, 43.6261, -4761.7509765625], [-125.24706, 43.63017, -5063.73388671875]]], [[[-125.2629, 43.5472, -2601.36328125], [-125.269, 43.54402, -1802.59912109375], [-125.26469, 43.53949, -2377.220458984375], [-125.2629, 43.5472, -2601.36328125]]], [[[-125.24706, 43.63017, -5063.73388671875], [-125.25374, 43.63382, -4814.458984375], [-125.25106, 43.62731, -3834.919189453125], [-125.24706, 43.63017, -5063.73388671875]]], [[[-125.24893, 43.73549, -2605.638671875], [-125.24821, 43.7411, -1749.942138671875], [-125.25703, 43.73465, -1776.0166015625], [-125.24893, 43.73549, -2605.638671875]]], [[[-125.24293, 43.6261, -4761.7509765625], [-125.25106, 43.62731, -3834.919189453125], [-125.24136, 43.62125, -3930.246337890625], [-125.24293, 43.6261, -4761.7509765625]]], [[[-125.27302, 43.68368, -4282.109375], [-125.27886, 43.69021, -3575.642578125], [-125.27842, 43.68195, -3531.53857421875], [-125.27302, 43.68368, -4282.109375]]], [[[-125.23433, 43.6209, -4884.453125], [-125.24293, 43.6261, -4761.7509765625], [-125.24136, 43.62125, -3930.246337890625], [-125.23433, 43.6209, -4884.453125]]], [[[-125.27886, 43.69021, -3575.642578125], [-125.27339, 43.69414, -4308.10205078125], [-125.27873, 43.69858, -3584.8564453125], [-125.27886, 43.69021, -3575.642578125]]], [[[-125.25582, 43.5255, -2292.042236328125], [-125.2615, 43.52961, -2240.98095703125], [-125.26152, 43.52651, -1705.0054931640625], [-125.25582, 43.5255, -2292.042236328125]]], [[[-125.24293, 43.6261, -4761.7509765625], [-125.23433, 43.6209, -4884.453125], [-125.23433, 43.62457, -5687.57666015625], [-125.24293, 43.6261, -4761.7509765625]]], [[[-125.23672, 43.58054, -4577.02685546875], [-125.23002, 43.57999, -5471.65966796875], [-125.23473, 43.58877, -4649.36279296875], [-125.23672, 43.58054, -4577.02685546875]]], [[[-125.24293, 43.6261, -4761.7509765625], [-125.23433, 43.62457, -5687.57666015625], [-125.24151, 43.62925, -5671.2080078125], [-125.24293, 43.6261, -4761.7509765625]]], [[[-125.22649, 43.6149, -5115.02978515625], [-125.22695, 43.61944, -5702.60986328125], [-125.23433, 43.6209, -4884.453125], [-125.22649, 43.6149, -5115.02978515625]]], [[[-125.22649, 43.6149, -5115.02978515625], [-125.22184, 43.61442, -5704.84912109375], [-125.22695, 43.61944, -5702.60986328125], [-125.22649, 43.6149, -5115.02978515625]]], [[[-125.26469, 43.53949, -2377.220458984375], [-125.25989, 43.54063, -3021.492919921875], [-125.2629, 43.5472, -2601.36328125], [-125.26469, 43.53949, -2377.220458984375]]], [[[-125.22649, 43.6149, -5115.02978515625], [-125.2216, 43.60961, -5679.419921875], [-125.22184, 43.61442, -5704.84912109375], [-125.22649, 43.6149, -5115.02978515625]]], [[[-125.27152, 43.65165, -2771.121337890625], [-125.27823, 43.64932, -1944.290283203125], [-125.27418, 43.64142, -2865.54638671875], [-125.27152, 43.65165, -2771.121337890625]]], [[[-125.24792, 43.55464, -4441.90087890625], [-125.24345, 43.54593, -5203.36279296875], [-125.24178, 43.55436, -5258.447265625], [-125.24792, 43.55464, -4441.90087890625]]], [[[-125.22649, 43.6149, -5115.02978515625], [-125.22516, 43.6086, -5239.6572265625], [-125.2216, 43.60961, -5679.419921875], [-125.22649, 43.6149, -5115.02978515625]]], [[[-125.22906, 43.60937, -4707.04345703125], [-125.22516, 43.6086, -5239.6572265625], [-125.22649, 43.6149, -5115.02978515625], [-125.22906, 43.60937, -4707.04345703125]]], [[[-125.22906, 43.60937, -4707.04345703125], [-125.22813, 43.60291, -5007.91162109375], [-125.22516, 43.6086, -5239.6572265625], [-125.22906, 43.60937, -4707.04345703125]]], [[[-125.25905, 43.72334, -3556.11328125], [-125.25044, 43.72971, -3508.7734375], [-125.25801, 43.72932, -2651.728271484375], [-125.25905, 43.72334, -3556.11328125]]], [[[-125.23419, 43.6049, -4159.5146484375], [-125.23095, 43.59708, -4790.8251953125], [-125.22813, 43.60291, -5007.91162109375], [-125.23419, 43.6049, -4159.5146484375]]], [[[-125.25774, 43.62723, -2837.991943359375], [-125.265, 43.628, -1943.0113525390625], [-125.25611, 43.62208, -1949.296142578125], [-125.25774, 43.62723, -2837.991943359375]]], [[[-125.26478, 43.53438, -2234.600830078125], [-125.26601, 43.53121, -1760.561767578125], [-125.2615, 43.52961, -2240.98095703125], [-125.26478, 43.53438, -2234.600830078125]]], [[[-125.22906, 43.60937, -4707.04345703125], [-125.23419, 43.6049, -4159.5146484375], [-125.22813, 43.60291, -5007.91162109375], [-125.22906, 43.60937, -4707.04345703125]]], [[[-125.23095, 43.59708, -4790.8251953125], [-125.22792, 43.58888, -5531.18212890625], [-125.22482, 43.59712, -5595.36669921875], [-125.23095, 43.59708, -4790.8251953125]]], [[[-125.22906, 43.60937, -4707.04345703125], [-125.23261, 43.61458, -4199.88916015625], [-125.23419, 43.6049, -4159.5146484375], [-125.22906, 43.60937, -4707.04345703125]]], [[[-125.26601, 43.53121, -1760.561767578125], [-125.26478, 43.53438, -2234.600830078125], [-125.269, 43.5366, -1796.482177734375], [-125.26601, 43.53121, -1760.561767578125]]], [[[-125.28256, 43.677, -2780.520263671875], [-125.27575, 43.67455, -3606.27783203125], [-125.27842, 43.68195, -3531.53857421875], [-125.28256, 43.677, -2780.520263671875]]], [[[-125.23254, 43.51966, -4403.39990234375], [-125.22675, 43.51916, -5169.06103515625], [-125.23452, 43.52412, -5143.69970703125], [-125.23254, 43.51966, -4403.39990234375]]], [[[-125.22906, 43.60937, -4707.04345703125], [-125.22649, 43.6149, -5115.02978515625], [-125.23261, 43.61458, -4199.88916015625], [-125.22906, 43.60937, -4707.04345703125]]], [[[-125.27015, 43.6735, -4322.49755859375], [-125.26281, 43.67006, -5007.130859375], [-125.26653, 43.67956, -5045.8701171875], [-125.27015, 43.6735, -4322.49755859375]]], [[[-125.23261, 43.61458, -4199.88916015625], [-125.22649, 43.6149, -5115.02978515625], [-125.23433, 43.6209, -4884.453125], [-125.23261, 43.61458, -4199.88916015625]]], [[[-125.23261, 43.61458, -4199.88916015625], [-125.23433, 43.6209, -4884.453125], [-125.24136, 43.62125, -3930.246337890625], [-125.23261, 43.61458, -4199.88916015625]]], [[[-125.249, 43.615, -1933.8909912109375], [-125.2445, 43.60943, -2677.8046875], [-125.23924, 43.61449, -3248.3818359375], [-125.249, 43.615, -1933.8909912109375]]], [[[-125.23924, 43.61449, -3248.3818359375], [-125.23261, 43.61458, -4199.88916015625], [-125.24136, 43.62125, -3930.246337890625], [-125.23924, 43.61449, -3248.3818359375]]], [[[-125.27886, 43.69021, -3575.642578125], [-125.27873, 43.69858, -3584.8564453125], [-125.28496, 43.69443, -2769.47900390625], [-125.27886, 43.69021, -3575.642578125]]], [[[-125.24772, 43.52017, -2318.384033203125], [-125.25371, 43.52162, -1612.721435546875], [-125.248, 43.514, -1695.030029296875], [-125.24772, 43.52017, -2318.384033203125]]], [[[-125.22813, 43.60291, -5007.91162109375], [-125.22482, 43.59712, -5595.36669921875], [-125.22306, 43.60415, -5642.39794921875], [-125.22813, 43.60291, -5007.91162109375]]], [[[-125.28434, 43.68554, -2790.610595703125], [-125.28256, 43.677, -2780.520263671875], [-125.27842, 43.68195, -3531.53857421875], [-125.28434, 43.68554, -2790.610595703125]]], [[[-125.23924, 43.61449, -3248.3818359375], [-125.23419, 43.6049, -4159.5146484375], [-125.23261, 43.61458, -4199.88916015625], [-125.23924, 43.61449, -3248.3818359375]]], [[[-125.249, 43.615, -1933.8909912109375], [-125.23924, 43.61449, -3248.3818359375], [-125.24839, 43.6209, -2871.0166015625], [-125.249, 43.615, -1933.8909912109375]]], [[[-125.27081, 43.66675, -3502.442138671875], [-125.27381, 43.66218, -2664.909912109375], [-125.26707, 43.65815, -3261.04443359375], [-125.27081, 43.66675, -3502.442138671875]]], [[[-125.25701, 43.53389, -3276.957763671875], [-125.26095, 43.53382, -2717.008056640625], [-125.25726, 43.52908, -2783.88623046875], [-125.25701, 43.53389, -3276.957763671875]]], [[[-125.23924, 43.61449, -3248.3818359375], [-125.23991, 43.60466, -3412.664306640625], [-125.23419, 43.6049, -4159.5146484375], [-125.23924, 43.61449, -3248.3818359375]]], [[[-125.24045, 43.52493, -4465.125], [-125.23452, 43.52412, -5143.69970703125], [-125.23997, 43.52822, -5129.3115234375], [-125.24045, 43.52493, -4465.125]]], [[[-125.23991, 43.60466, -3412.664306640625], [-125.23924, 43.61449, -3248.3818359375], [-125.2445, 43.60943, -2677.8046875], [-125.23991, 43.60466, -3412.664306640625]]], [[[-125.23991, 43.60466, -3412.664306640625], [-125.2445, 43.60943, -2677.8046875], [-125.24593, 43.60006, -2742.1435546875], [-125.23991, 43.60466, -3412.664306640625]]], [[[-125.2445, 43.60943, -2677.8046875], [-125.249, 43.615, -1933.8909912109375], [-125.25101, 43.60598, -1919.904541015625], [-125.2445, 43.60943, -2677.8046875]]], [[[-125.24021, 43.74199, -2585.968505859375], [-125.24821, 43.7411, -1749.942138671875], [-125.24893, 43.73549, -2605.638671875], [-125.24021, 43.74199, -2585.968505859375]]], [[[-125.23922, 43.59517, -3773.272705078125], [-125.23991, 43.60466, -3412.664306640625], [-125.24593, 43.60006, -2742.1435546875], [-125.23922, 43.59517, -3773.272705078125]]], [[[-125.23991, 43.60466, -3412.664306640625], [-125.23922, 43.59517, -3773.272705078125], [-125.23419, 43.6049, -4159.5146484375], [-125.23991, 43.60466, -3412.664306640625]]], [[[-125.24839, 43.6209, -2871.0166015625], [-125.25611, 43.62208, -1949.296142578125], [-125.249, 43.615, -1933.8909912109375], [-125.24839, 43.6209, -2871.0166015625]]], [[[-125.23922, 43.59517, -3773.272705078125], [-125.23095, 43.59708, -4790.8251953125], [-125.23419, 43.6049, -4159.5146484375], [-125.23922, 43.59517, -3773.272705078125]]], [[[-125.27015, 43.6735, -4322.49755859375], [-125.2641, 43.66431, -4206.056640625], [-125.26281, 43.67006, -5007.130859375], [-125.27015, 43.6735, -4322.49755859375]]], [[[-125.27575, 43.67455, -3606.27783203125], [-125.28256, 43.677, -2780.520263671875], [-125.27859, 43.66961, -2741.209228515625], [-125.27575, 43.67455, -3606.27783203125]]], [[[-125.25754, 43.56448, -2739.960693359375], [-125.25405, 43.57324, -2715.368896484375], [-125.26216, 43.57052, -1848.283447265625], [-125.25754, 43.56448, -2739.960693359375]]], [[[-125.2138, 43.75829, -3364.864990234375], [-125.21613, 43.76456, -2545.422607421875], [-125.22223, 43.75548, -2548.59814453125], [-125.2138, 43.75829, -3364.864990234375]]], [[[-125.24818, 43.65629, -5784.6474609375], [-125.25438, 43.6532, -5013.16943359375], [-125.24999, 43.64737, -5724.1220703125], [-125.24818, 43.65629, -5784.6474609375]]], [[[-125.23922, 43.59517, -3773.272705078125], [-125.23473, 43.58877, -4649.36279296875], [-125.23095, 43.59708, -4790.8251953125], [-125.23922, 43.59517, -3773.272705078125]]], [[[-125.23473, 43.58877, -4649.36279296875], [-125.22792, 43.58888, -5531.18212890625], [-125.23095, 43.59708, -4790.8251953125], [-125.23473, 43.58877, -4649.36279296875]]], [[[-125.24331, 43.58594, -3619.9912109375], [-125.23473, 43.58877, -4649.36279296875], [-125.23922, 43.59517, -3773.272705078125], [-125.24331, 43.58594, -3619.9912109375]]], [[[-125.27081, 43.66675, -3502.442138671875], [-125.27859, 43.66961, -2741.209228515625], [-125.27381, 43.66218, -2664.909912109375], [-125.27081, 43.66675, -3502.442138671875]]], [[[-125.24331, 43.58594, -3619.9912109375], [-125.23672, 43.58054, -4577.02685546875], [-125.23473, 43.58877, -4649.36279296875], [-125.24331, 43.58594, -3619.9912109375]]], [[[-125.28434, 43.68554, -2790.610595703125], [-125.28496, 43.69443, -2769.47900390625], [-125.29073, 43.68961, -1982.4957275390625], [-125.28434, 43.68554, -2790.610595703125]]], [[[-125.22813, 43.60291, -5007.91162109375], [-125.23095, 43.59708, -4790.8251953125], [-125.22482, 43.59712, -5595.36669921875], [-125.22813, 43.60291, -5007.91162109375]]], [[[-125.26109, 43.68137, -5848.14404296875], [-125.26653, 43.67956, -5045.8701171875], [-125.25887, 43.67246, -5813.1220703125], [-125.26109, 43.68137, -5848.14404296875]]], [[[-125.24593, 43.60006, -2742.1435546875], [-125.2445, 43.60943, -2677.8046875], [-125.25101, 43.60598, -1919.904541015625], [-125.24593, 43.60006, -2742.1435546875]]], [[[-125.24593, 43.60006, -2742.1435546875], [-125.25101, 43.60598, -1919.904541015625], [-125.25301, 43.59696, -1892.9622802734375], [-125.24593, 43.60006, -2742.1435546875]]], [[[-125.22516, 43.6086, -5239.6572265625], [-125.22306, 43.60415, -5642.39794921875], [-125.2216, 43.60961, -5679.419921875], [-125.22516, 43.6086, -5239.6572265625]]], [[[-125.25989, 43.54063, -3021.492919921875], [-125.25701, 43.53389, -3276.957763671875], [-125.25523, 43.5414, -3646.064453125], [-125.25989, 43.54063, -3021.492919921875]]], [[[-125.23922, 43.59517, -3773.272705078125], [-125.24834, 43.5912, -2763.275634765625], [-125.24331, 43.58594, -3619.9912109375], [-125.23922, 43.59517, -3773.272705078125]]], [[[-125.27418, 43.64142, -2865.54638671875], [-125.27823, 43.64932, -1944.290283203125], [-125.281, 43.641, -1996.5419921875], [-125.27418, 43.64142, -2865.54638671875]]], [[[-125.28256, 43.677, -2780.520263671875], [-125.28634, 43.67206, -1937.8248291015625], [-125.27859, 43.66961, -2741.209228515625], [-125.28256, 43.677, -2780.520263671875]]], [[[-125.22719, 43.51271, -4491.1640625], [-125.23254, 43.51966, -4403.39990234375], [-125.23221, 43.51302, -3817.421630859375], [-125.22719, 43.51271, -4491.1640625]]], [[[-125.27152, 43.65165, -2771.121337890625], [-125.27719, 43.65729, -1936.843017578125], [-125.27823, 43.64932, -1944.290283203125], [-125.27152, 43.65165, -2771.121337890625]]], [[[-125.24834, 43.5912, -2763.275634765625], [-125.25301, 43.59696, -1892.9622802734375], [-125.25598, 43.58807, -1909.2646484375], [-125.24834, 43.5912, -2763.275634765625]]], [[[-125.24438, 43.53005, -4683.361328125], [-125.23997, 43.52822, -5129.3115234375], [-125.24332, 43.53325, -5136.15478515625], [-125.24438, 43.53005, -4683.361328125]]], [[[-125.25089, 43.58179, -2683.51416015625], [-125.25598, 43.58807, -1909.2646484375], [-125.25797, 43.57912, -1790.414306640625], [-125.25089, 43.58179, -2683.51416015625]]], [[[-125.24839, 43.6209, -2871.0166015625], [-125.25774, 43.62723, -2837.991943359375], [-125.25611, 43.62208, -1949.296142578125], [-125.24839, 43.6209, -2871.0166015625]]], [[[-125.2138, 43.75829, -3364.864990234375], [-125.20601, 43.76221, -4001.435302734375], [-125.20784, 43.76958, -3326.253173828125], [-125.2138, 43.75829, -3364.864990234375]]], [[[-125.2445, 43.57751, -3645.247802734375], [-125.25089, 43.58179, -2683.51416015625], [-125.25405, 43.57324, -2715.368896484375], [-125.2445, 43.57751, -3645.247802734375]]], [[[-125.22516, 43.6086, -5239.6572265625], [-125.22813, 43.60291, -5007.91162109375], [-125.22306, 43.60415, -5642.39794921875], [-125.22516, 43.6086, -5239.6572265625]]], [[[-125.27015, 43.6735, -4322.49755859375], [-125.27081, 43.66675, -3502.442138671875], [-125.2641, 43.66431, -4206.056640625], [-125.27015, 43.6735, -4322.49755859375]]], [[[-125.25582, 43.5255, -2292.042236328125], [-125.25371, 43.52162, -1612.721435546875], [-125.24772, 43.52017, -2318.384033203125], [-125.25582, 43.5255, -2292.042236328125]]], [[[-125.27575, 43.67455, -3606.27783203125], [-125.27302, 43.68368, -4282.109375], [-125.27842, 43.68195, -3531.53857421875], [-125.27575, 43.67455, -3606.27783203125]]], [[[-125.2445, 43.57751, -3645.247802734375], [-125.24031, 43.57228, -4565.31005859375], [-125.23672, 43.58054, -4577.02685546875], [-125.2445, 43.57751, -3645.247802734375]]], [[[-125.23924, 43.61449, -3248.3818359375], [-125.24136, 43.62125, -3930.246337890625], [-125.24839, 43.6209, -2871.0166015625], [-125.23924, 43.61449, -3248.3818359375]]], [[[-125.24772, 43.52017, -2318.384033203125], [-125.248, 43.514, -1695.030029296875], [-125.24223, 43.51364, -2469.936767578125], [-125.24772, 43.52017, -2318.384033203125]]], [[[-125.24031, 43.57228, -4565.31005859375], [-125.23427, 43.57157, -5399.298828125], [-125.23672, 43.58054, -4577.02685546875], [-125.24031, 43.57228, -4565.31005859375]]], [[[-125.24031, 43.57228, -4565.31005859375], [-125.2383, 43.56303, -5327.4580078125], [-125.23427, 43.57157, -5399.298828125], [-125.24031, 43.57228, -4565.31005859375]]], [[[-125.24441, 43.56369, -4496.041015625], [-125.2383, 43.56303, -5327.4580078125], [-125.24031, 43.57228, -4565.31005859375], [-125.24441, 43.56369, -4496.041015625]]], [[[-125.28453, 43.70272, -2742.901123046875], [-125.291, 43.69869, -1955.15380859375], [-125.28496, 43.69443, -2769.47900390625], [-125.28453, 43.70272, -2742.901123046875]]], [[[-125.24688, 43.52769, -4108.18505859375], [-125.25252, 43.52806, -3352.473388671875], [-125.24512, 43.52457, -3658.82763671875], [-125.24688, 43.52769, -4108.18505859375]]], [[[-125.24441, 43.56369, -4496.041015625], [-125.24178, 43.55436, -5258.447265625], [-125.2383, 43.56303, -5327.4580078125], [-125.24441, 43.56369, -4496.041015625]]], [[[-125.28256, 43.677, -2780.520263671875], [-125.28946, 43.68058, -1985.015625], [-125.28634, 43.67206, -1937.8248291015625], [-125.28256, 43.677, -2780.520263671875]]], [[[-125.24441, 43.56369, -4496.041015625], [-125.24792, 43.55464, -4441.90087890625], [-125.24178, 43.55436, -5258.447265625], [-125.24441, 43.56369, -4496.041015625]]], [[[-125.26732, 43.71794, -3507.4111328125], [-125.26635, 43.72308, -2702.165283203125], [-125.27542, 43.71675, -2733.567626953125], [-125.26732, 43.71794, -3507.4111328125]]], [[[-125.22223, 43.75548, -2548.59814453125], [-125.21613, 43.76456, -2545.422607421875], [-125.22401, 43.76165, -1742.419189453125], [-125.22223, 43.75548, -2548.59814453125]]], [[[-125.28213, 43.71024, -2753.82080078125], [-125.28355, 43.71545, -1894.5587158203125], [-125.28951, 43.70768, -1931.0738525390625], [-125.28213, 43.71024, -2753.82080078125]]], [[[-125.26469, 43.53949, -2377.220458984375], [-125.26478, 43.53438, -2234.600830078125], [-125.26095, 43.53382, -2717.008056640625], [-125.26469, 43.53949, -2377.220458984375]]], [[[-125.24792, 43.55464, -4441.90087890625], [-125.24441, 43.56369, -4496.041015625], [-125.25234, 43.56009, -3623.349853515625], [-125.24792, 43.55464, -4441.90087890625]]], [[[-125.25545, 43.5496, -3578.557373046875], [-125.24792, 43.55464, -4441.90087890625], [-125.25234, 43.56009, -3623.349853515625], [-125.25545, 43.5496, -3578.557373046875]]], [[[-125.27081, 43.66675, -3502.442138671875], [-125.27575, 43.67455, -3606.27783203125], [-125.27859, 43.66961, -2741.209228515625], [-125.27081, 43.66675, -3502.442138671875]]], [[[-125.26713, 43.69836, -5127.0419921875], [-125.27339, 43.69414, -4308.10205078125], [-125.26748, 43.68903, -5083.138671875], [-125.26713, 43.69836, -5127.0419921875]]], [[[-125.26653, 43.67956, -5045.8701171875], [-125.26109, 43.68137, -5848.14404296875], [-125.26748, 43.68903, -5083.138671875], [-125.26653, 43.67956, -5045.8701171875]]], [[[-125.24939, 43.54493, -4417.66455078125], [-125.24792, 43.55464, -4441.90087890625], [-125.25545, 43.5496, -3578.557373046875], [-125.24939, 43.54493, -4417.66455078125]]], [[[-125.24939, 43.54493, -4417.66455078125], [-125.24345, 43.54593, -5203.36279296875], [-125.24792, 43.55464, -4441.90087890625], [-125.24939, 43.54493, -4417.66455078125]]], [[[-125.25106, 43.62731, -3834.919189453125], [-125.25774, 43.62723, -2837.991943359375], [-125.24839, 43.6209, -2871.0166015625], [-125.25106, 43.62731, -3834.919189453125]]], [[[-125.24762, 43.53604, -4662.67431640625], [-125.24391, 43.53871, -5161.79248046875], [-125.24939, 43.54493, -4417.66455078125], [-125.24762, 43.53604, -4662.67431640625]]], [[[-125.24883, 43.56927, -3652.097412109375], [-125.25754, 43.56448, -2739.960693359375], [-125.25234, 43.56009, -3623.349853515625], [-125.24883, 43.56927, -3652.097412109375]]], [[[-125.24762, 43.53604, -4662.67431640625], [-125.24332, 43.53325, -5136.15478515625], [-125.24391, 43.53871, -5161.79248046875], [-125.24762, 43.53604, -4662.67431640625]]], [[[-125.26095, 43.53382, -2717.008056640625], [-125.2615, 43.52961, -2240.98095703125], [-125.25726, 43.52908, -2783.88623046875], [-125.26095, 43.53382, -2717.008056640625]]], [[[-125.27081, 43.66675, -3502.442138671875], [-125.27015, 43.6735, -4322.49755859375], [-125.27575, 43.67455, -3606.27783203125], [-125.27081, 43.66675, -3502.442138671875]]], [[[-125.28213, 43.71024, -2753.82080078125], [-125.28951, 43.70768, -1931.0738525390625], [-125.28453, 43.70272, -2742.901123046875], [-125.28213, 43.71024, -2753.82080078125]]], [[[-125.27163, 43.70477, -4369.5244140625], [-125.27339, 43.69414, -4308.10205078125], [-125.26713, 43.69836, -5127.0419921875], [-125.27163, 43.70477, -4369.5244140625]]], [[[-125.24045, 43.52493, -4465.125], [-125.24688, 43.52769, -4108.18505859375], [-125.24512, 43.52457, -3658.82763671875], [-125.24045, 43.52493, -4465.125]]], [[[-125.24883, 43.56927, -3652.097412109375], [-125.25234, 43.56009, -3623.349853515625], [-125.24441, 43.56369, -4496.041015625], [-125.24883, 43.56927, -3652.097412109375]]], [[[-125.27302, 43.68368, -4282.109375], [-125.26653, 43.67956, -5045.8701171875], [-125.26748, 43.68903, -5083.138671875], [-125.27302, 43.68368, -4282.109375]]], [[[-125.24512, 43.52457, -3658.82763671875], [-125.23746, 43.51946, -3692.8623046875], [-125.24045, 43.52493, -4465.125], [-125.24512, 43.52457, -3658.82763671875]]], [[[-125.27542, 43.71675, -2733.567626953125], [-125.28355, 43.71545, -1894.5587158203125], [-125.28213, 43.71024, -2753.82080078125], [-125.27542, 43.71675, -2733.567626953125]]], [[[-125.25307, 43.53232, -3680.572021484375], [-125.25228, 43.53711, -4038.4169921875], [-125.25701, 43.53389, -3276.957763671875], [-125.25307, 43.53232, -3680.572021484375]]], [[[-125.25801, 43.72932, -2651.728271484375], [-125.25703, 43.73465, -1776.0166015625], [-125.26608, 43.72838, -1821.23828125], [-125.25801, 43.72932, -2651.728271484375]]], [[[-125.28453, 43.70272, -2742.901123046875], [-125.28951, 43.70768, -1931.0738525390625], [-125.291, 43.69869, -1955.15380859375], [-125.28453, 43.70272, -2742.901123046875]]], [[[-125.23148, 43.7486, -2607.341552734375], [-125.23964, 43.74773, -1740.222900390625], [-125.24021, 43.74199, -2585.968505859375], [-125.23148, 43.7486, -2607.341552734375]]], [[[-125.24688, 43.52769, -4108.18505859375], [-125.25307, 43.53232, -3680.572021484375], [-125.25252, 43.52806, -3352.473388671875], [-125.24688, 43.52769, -4108.18505859375]]], [[[-125.24688, 43.52769, -4108.18505859375], [-125.24899, 43.53202, -4223.85546875], [-125.25307, 43.53232, -3680.572021484375], [-125.24688, 43.52769, -4108.18505859375]]], [[[-125.27886, 43.69021, -3575.642578125], [-125.27302, 43.68368, -4282.109375], [-125.27339, 43.69414, -4308.10205078125], [-125.27886, 43.69021, -3575.642578125]]], [[[-125.26406, 43.71499, -4395.1083984375], [-125.25905, 43.72334, -3556.11328125], [-125.26732, 43.71794, -3507.4111328125], [-125.26406, 43.71499, -4395.1083984375]]], [[[-125.26281, 43.67006, -5007.130859375], [-125.25657, 43.66207, -5050.04296875], [-125.25276, 43.66458, -5804.7197265625], [-125.26281, 43.67006, -5007.130859375]]], [[[-125.25754, 43.56448, -2739.960693359375], [-125.26216, 43.57052, -1848.283447265625], [-125.26512, 43.56164, -1880.848876953125], [-125.25754, 43.56448, -2739.960693359375]]], [[[-125.27873, 43.69858, -3584.8564453125], [-125.28453, 43.70272, -2742.901123046875], [-125.28496, 43.69443, -2769.47900390625], [-125.27873, 43.69858, -3584.8564453125]]], [[[-125.25989, 43.54063, -3021.492919921875], [-125.26469, 43.53949, -2377.220458984375], [-125.26095, 43.53382, -2717.008056640625], [-125.25989, 43.54063, -3021.492919921875]]], [[[-125.23473, 43.58877, -4649.36279296875], [-125.23002, 43.57999, -5471.65966796875], [-125.22792, 43.58888, -5531.18212890625], [-125.23473, 43.58877, -4649.36279296875]]], [[[-125.20601, 43.76221, -4001.435302734375], [-125.2138, 43.75829, -3364.864990234375], [-125.21063, 43.75251, -4436.52490234375], [-125.20601, 43.76221, -4001.435302734375]]], [[[-125.20601, 43.76221, -4001.435302734375], [-125.21063, 43.75251, -4436.52490234375], [-125.20305, 43.75804, -4763.2060546875], [-125.20601, 43.76221, -4001.435302734375]]], [[[-125.19852, 43.7645, -4836.42529296875], [-125.20601, 43.76221, -4001.435302734375], [-125.20305, 43.75804, -4763.2060546875], [-125.19852, 43.7645, -4836.42529296875]]], [[[-125.19852, 43.7645, -4836.42529296875], [-125.20094, 43.77058, -4162.68359375], [-125.20601, 43.76221, -4001.435302734375], [-125.19852, 43.7645, -4836.42529296875]]], [[[-125.19468, 43.77157, -4938.248046875], [-125.20094, 43.77058, -4162.68359375], [-125.19852, 43.7645, -4836.42529296875], [-125.19468, 43.77157, -4938.248046875]]], [[[-125.19468, 43.77157, -4938.248046875], [-125.19526, 43.77865, -4588.5927734375], [-125.20094, 43.77058, -4162.68359375], [-125.19468, 43.77157, -4938.248046875]]], [[[-125.19468, 43.77157, -4938.248046875], [-125.18828, 43.77597, -5606.798828125], [-125.19526, 43.77865, -4588.5927734375], [-125.19468, 43.77157, -4938.248046875]]], [[[-125.19468, 43.77157, -4938.248046875], [-125.19118, 43.76634, -5681.486328125], [-125.18828, 43.77597, -5606.798828125], [-125.19468, 43.77157, -4938.248046875]]], [[[-125.19468, 43.77157, -4938.248046875], [-125.19852, 43.7645, -4836.42529296875], [-125.19118, 43.76634, -5681.486328125], [-125.19468, 43.77157, -4938.248046875]]], [[[-125.19852, 43.7645, -4836.42529296875], [-125.19576, 43.75879, -5625.13037109375], [-125.19118, 43.76634, -5681.486328125], [-125.19852, 43.7645, -4836.42529296875]]], [[[-125.20305, 43.75804, -4763.2060546875], [-125.19576, 43.75879, -5625.13037109375], [-125.19852, 43.7645, -4836.42529296875], [-125.20305, 43.75804, -4763.2060546875]]], [[[-125.19576, 43.75879, -5625.13037109375], [-125.20305, 43.75804, -4763.2060546875], [-125.20232, 43.75217, -5517.71240234375], [-125.19576, 43.75879, -5625.13037109375]]], [[[-125.19576, 43.75879, -5625.13037109375], [-125.20232, 43.75217, -5517.71240234375], [-125.19525, 43.75202, -6408.84912109375], [-125.19576, 43.75879, -5625.13037109375]]], [[[-125.19576, 43.75879, -5625.13037109375], [-125.19525, 43.75202, -6408.84912109375], [-125.18868, 43.75964, -6451.3310546875], [-125.19576, 43.75879, -5625.13037109375]]], [[[-125.19118, 43.76634, -5681.486328125], [-125.19576, 43.75879, -5625.13037109375], [-125.18868, 43.75964, -6451.3310546875], [-125.19118, 43.76634, -5681.486328125]]], [[[-125.19118, 43.76634, -5681.486328125], [-125.18868, 43.75964, -6451.3310546875], [-125.1842, 43.76808, -6485.154296875], [-125.19118, 43.76634, -5681.486328125]]], [[[-125.19118, 43.76634, -5681.486328125], [-125.1842, 43.76808, -6485.154296875], [-125.18828, 43.77597, -5606.798828125], [-125.19118, 43.76634, -5681.486328125]]], [[[-125.18828, 43.77597, -5606.798828125], [-125.1842, 43.76808, -6485.154296875], [-125.18115, 43.77686, -6507.33642578125], [-125.18828, 43.77597, -5606.798828125]]], [[[-125.18828, 43.77597, -5606.798828125], [-125.18495, 43.78614, -5722.56396484375], [-125.19096, 43.78652, -4918.00244140625], [-125.18828, 43.77597, -5606.798828125]]], [[[-125.19526, 43.77865, -4588.5927734375], [-125.18828, 43.77597, -5606.798828125], [-125.19096, 43.78652, -4918.00244140625], [-125.19526, 43.77865, -4588.5927734375]]], [[[-125.19526, 43.77865, -4588.5927734375], [-125.19096, 43.78652, -4918.00244140625], [-125.19697, 43.78689, -4113.4404296875], [-125.19526, 43.77865, -4588.5927734375]]], [[[-125.19526, 43.77865, -4588.5927734375], [-125.19697, 43.78689, -4113.4404296875], [-125.20178, 43.77864, -3734.27783203125], [-125.19526, 43.77865, -4588.5927734375]]], [[[-125.20094, 43.77058, -4162.68359375], [-125.19526, 43.77865, -4588.5927734375], [-125.20178, 43.77864, -3734.27783203125], [-125.20094, 43.77058, -4162.68359375]]], [[[-125.20784, 43.76958, -3326.253173828125], [-125.20094, 43.77058, -4162.68359375], [-125.20178, 43.77864, -3734.27783203125], [-125.20784, 43.76958, -3326.253173828125]]], [[[-125.20601, 43.76221, -4001.435302734375], [-125.20094, 43.77058, -4162.68359375], [-125.20784, 43.76958, -3326.253173828125], [-125.20601, 43.76221, -4001.435302734375]]], [[[-125.20784, 43.76958, -3326.253173828125], [-125.20178, 43.77864, -3734.27783203125], [-125.20835, 43.77931, -2847.540771484375], [-125.20784, 43.76958, -3326.253173828125]]], [[[-125.20784, 43.76958, -3326.253173828125], [-125.20835, 43.77931, -2847.540771484375], [-125.21309, 43.77333, -2456.770263671875], [-125.20784, 43.76958, -3326.253173828125]]], [[[-125.20784, 43.76958, -3326.253173828125], [-125.21309, 43.77333, -2456.770263671875], [-125.21613, 43.76456, -2545.422607421875], [-125.20784, 43.76958, -3326.253173828125]]], [[[-125.21309, 43.77333, -2456.770263671875], [-125.21981, 43.77019, -1735.333984375], [-125.21613, 43.76456, -2545.422607421875], [-125.21309, 43.77333, -2456.770263671875]]], [[[-125.21309, 43.77333, -2456.770263671875], [-125.21724, 43.77906, -1691.906982421875], [-125.21981, 43.77019, -1735.333984375], [-125.21309, 43.77333, -2456.770263671875]]], [[[-125.20835, 43.77931, -2847.540771484375], [-125.21724, 43.77906, -1691.906982421875], [-125.21309, 43.77333, -2456.770263671875], [-125.20835, 43.77931, -2847.540771484375]]], [[[-125.20835, 43.77931, -2847.540771484375], [-125.20298, 43.78726, -3308.878662109375], [-125.20899, 43.78763, -2504.31689453125], [-125.20835, 43.77931, -2847.540771484375]]], [[[-125.20835, 43.77931, -2847.540771484375], [-125.20178, 43.77864, -3734.27783203125], [-125.20298, 43.78726, -3308.878662109375], [-125.20835, 43.77931, -2847.540771484375]]], [[[-125.20298, 43.78726, -3308.878662109375], [-125.20178, 43.77864, -3734.27783203125], [-125.19697, 43.78689, -4113.4404296875], [-125.20298, 43.78726, -3308.878662109375]]], [[[-125.21613, 43.76456, -2545.422607421875], [-125.21981, 43.77019, -1735.333984375], [-125.22401, 43.76165, -1742.419189453125], [-125.21613, 43.76456, -2545.422607421875]]], [[[-125.20232, 43.75217, -5517.71240234375], [-125.2045, 43.74594, -6364.4794921875], [-125.19525, 43.75202, -6408.84912109375], [-125.20232, 43.75217, -5517.71240234375]]], [[[-125.20232, 43.75217, -5517.71240234375], [-125.21102, 43.74636, -5490.6591796875], [-125.2045, 43.74594, -6364.4794921875], [-125.20232, 43.75217, -5517.71240234375]]], [[[-125.21063, 43.75251, -4436.52490234375], [-125.21102, 43.74636, -5490.6591796875], [-125.20232, 43.75217, -5517.71240234375], [-125.21063, 43.75251, -4436.52490234375]]], [[[-125.21863, 43.74623, -4572.19091796875], [-125.21102, 43.74636, -5490.6591796875], [-125.21063, 43.75251, -4436.52490234375], [-125.21863, 43.74623, -4572.19091796875]]], [[[-125.21863, 43.74623, -4572.19091796875], [-125.21949, 43.74016, -5437.509765625], [-125.21102, 43.74636, -5490.6591796875], [-125.21863, 43.74623, -4572.19091796875]]], [[[-125.22681, 43.74066, -4453.15576171875], [-125.21949, 43.74016, -5437.509765625], [-125.21863, 43.74623, -4572.19091796875], [-125.22681, 43.74066, -4453.15576171875]]], [[[-125.22681, 43.74066, -4453.15576171875], [-125.22815, 43.73423, -5378.3642578125], [-125.21949, 43.74016, -5437.509765625], [-125.22681, 43.74066, -4453.15576171875]]], [[[-125.23552, 43.73456, -4417.88232421875], [-125.22815, 43.73423, -5378.3642578125], [-125.22681, 43.74066, -4453.15576171875], [-125.23552, 43.73456, -4417.88232421875]]], [[[-125.23552, 43.73456, -4417.88232421875], [-125.23758, 43.72831, -5337.37109375], [-125.22815, 43.73423, -5378.3642578125], [-125.23552, 43.73456, -4417.88232421875]]], [[[-125.24487, 43.72852, -4403.90966796875], [-125.23758, 43.72831, -5337.37109375], [-125.23552, 43.73456, -4417.88232421875], [-125.24487, 43.72852, -4403.90966796875]]], [[[-125.24487, 43.72852, -4403.90966796875], [-125.24626, 43.72243, -5283.423828125], [-125.23758, 43.72831, -5337.37109375], [-125.24487, 43.72852, -4403.90966796875]]], [[[-125.25388, 43.72214, -4394.6357421875], [-125.24626, 43.72243, -5283.423828125], [-125.24487, 43.72852, -4403.90966796875], [-125.25388, 43.72214, -4394.6357421875]]], [[[-125.25388, 43.72214, -4394.6357421875], [-125.25562, 43.71625, -5241.86328125], [-125.24626, 43.72243, -5283.423828125], [-125.25388, 43.72214, -4394.6357421875]]], [[[-125.26406, 43.71499, -4395.1083984375], [-125.25562, 43.71625, -5241.86328125], [-125.25388, 43.72214, -4394.6357421875], [-125.26406, 43.71499, -4395.1083984375]]], [[[-125.26406, 43.71499, -4395.1083984375], [-125.26437, 43.70816, -5213.43017578125], [-125.25562, 43.71625, -5241.86328125], [-125.26406, 43.71499, -4395.1083984375]]], [[[-125.26406, 43.71499, -4395.1083984375], [-125.27163, 43.70477, -4369.5244140625], [-125.26437, 43.70816, -5213.43017578125], [-125.26406, 43.71499, -4395.1083984375]]], [[[-125.27163, 43.70477, -4369.5244140625], [-125.26406, 43.71499, -4395.1083984375], [-125.2737, 43.71165, -3624.55419921875], [-125.27163, 43.70477, -4369.5244140625]]], [[[-125.27163, 43.70477, -4369.5244140625], [-125.2737, 43.71165, -3624.55419921875], [-125.27799, 43.70534, -3516.684326171875], [-125.27163, 43.70477, -4369.5244140625]]], [[[-125.27799, 43.70534, -3516.684326171875], [-125.2737, 43.71165, -3624.55419921875], [-125.28213, 43.71024, -2753.82080078125], [-125.27799, 43.70534, -3516.684326171875]]], [[[-125.27799, 43.70534, -3516.684326171875], [-125.28213, 43.71024, -2753.82080078125], [-125.28453, 43.70272, -2742.901123046875], [-125.27799, 43.70534, -3516.684326171875]]], [[[-125.28213, 43.71024, -2753.82080078125], [-125.2737, 43.71165, -3624.55419921875], [-125.27542, 43.71675, -2733.567626953125], [-125.28213, 43.71024, -2753.82080078125]]], [[[-125.26732, 43.71794, -3507.4111328125], [-125.27542, 43.71675, -2733.567626953125], [-125.2737, 43.71165, -3624.55419921875], [-125.26732, 43.71794, -3507.4111328125]]], [[[-125.26406, 43.71499, -4395.1083984375], [-125.26732, 43.71794, -3507.4111328125], [-125.2737, 43.71165, -3624.55419921875], [-125.26406, 43.71499, -4395.1083984375]]], [[[-125.27163, 43.70477, -4369.5244140625], [-125.26713, 43.69836, -5127.0419921875], [-125.26437, 43.70816, -5213.43017578125], [-125.27163, 43.70477, -4369.5244140625]]], [[[-125.26713, 43.69836, -5127.0419921875], [-125.26086, 43.69945, -5948.84033203125], [-125.26437, 43.70816, -5213.43017578125], [-125.26713, 43.69836, -5127.0419921875]]], [[[-125.26713, 43.69836, -5127.0419921875], [-125.26151, 43.69041, -5894.0771484375], [-125.26086, 43.69945, -5948.84033203125], [-125.26713, 43.69836, -5127.0419921875]]], [[[-125.26437, 43.70816, -5213.43017578125], [-125.26086, 43.69945, -5948.84033203125], [-125.25819, 43.70826, -6004.845703125], [-125.26437, 43.70816, -5213.43017578125]]], [[[-125.26437, 43.70816, -5213.43017578125], [-125.25819, 43.70826, -6004.845703125], [-125.25562, 43.71625, -5241.86328125], [-125.26437, 43.70816, -5213.43017578125]]], [[[-125.25022, 43.71519, -6091.94580078125], [-125.25562, 43.71625, -5241.86328125], [-125.25819, 43.70826, -6004.845703125], [-125.25022, 43.71519, -6091.94580078125]]], [[[-125.24626, 43.72243, -5283.423828125], [-125.25562, 43.71625, -5241.86328125], [-125.25022, 43.71519, -6091.94580078125], [-125.24626, 43.72243, -5283.423828125]]], [[[-125.24626, 43.72243, -5283.423828125], [-125.25022, 43.71519, -6091.94580078125], [-125.24083, 43.72113, -6165.23388671875], [-125.24626, 43.72243, -5283.423828125]]], [[[-125.23758, 43.72831, -5337.37109375], [-125.24626, 43.72243, -5283.423828125], [-125.24083, 43.72113, -6165.23388671875], [-125.23758, 43.72831, -5337.37109375]]], [[[-125.23758, 43.72831, -5337.37109375], [-125.24083, 43.72113, -6165.23388671875], [-125.23178, 43.72737, -6211.56494140625], [-125.23758, 43.72831, -5337.37109375]]], [[[-125.22815, 43.73423, -5378.3642578125], [-125.23758, 43.72831, -5337.37109375], [-125.23178, 43.72737, -6211.56494140625], [-125.22815, 43.73423, -5378.3642578125]]], [[[-125.22815, 43.73423, -5378.3642578125], [-125.23178, 43.72737, -6211.56494140625], [-125.22235, 43.73329, -6262.0], [-125.22815, 43.73423, -5378.3642578125]]], [[[-125.21949, 43.74016, -5437.509765625], [-125.22815, 43.73423, -5378.3642578125], [-125.22235, 43.73329, -6262.0], [-125.21949, 43.74016, -5437.509765625]]], [[[-125.21949, 43.74016, -5437.509765625], [-125.22235, 43.73329, -6262.0], [-125.21326, 43.73949, -6314.03125], [-125.21949, 43.74016, -5437.509765625]]], [[[-125.21102, 43.74636, -5490.6591796875], [-125.21949, 43.74016, -5437.509765625], [-125.21326, 43.73949, -6314.03125], [-125.21102, 43.74636, -5490.6591796875]]], [[[-125.21102, 43.74636, -5490.6591796875], [-125.21326, 43.73949, -6314.03125], [-125.2045, 43.74594, -6364.4794921875], [-125.21102, 43.74636, -5490.6591796875]]], [[[-125.24487, 43.72852, -4403.90966796875], [-125.25044, 43.72971, -3508.7734375], [-125.25388, 43.72214, -4394.6357421875], [-125.24487, 43.72852, -4403.90966796875]]], [[[-125.24487, 43.72852, -4403.90966796875], [-125.24123, 43.73589, -3480.7041015625], [-125.25044, 43.72971, -3508.7734375], [-125.24487, 43.72852, -4403.90966796875]]], [[[-125.24487, 43.72852, -4403.90966796875], [-125.23552, 43.73456, -4417.88232421875], [-125.24123, 43.73589, -3480.7041015625], [-125.24487, 43.72852, -4403.90966796875]]], [[[-125.23552, 43.73456, -4417.88232421875], [-125.23233, 43.74244, -3486.969970703125], [-125.24123, 43.73589, -3480.7041015625], [-125.23552, 43.73456, -4417.88232421875]]], [[[-125.23552, 43.73456, -4417.88232421875], [-125.22681, 43.74066, -4453.15576171875], [-125.23233, 43.74244, -3486.969970703125], [-125.23552, 43.73456, -4417.88232421875]]], [[[-125.22681, 43.74066, -4453.15576171875], [-125.2224, 43.74954, -3547.8095703125], [-125.23233, 43.74244, -3486.969970703125], [-125.22681, 43.74066, -4453.15576171875]]], [[[-125.22681, 43.74066, -4453.15576171875], [-125.21863, 43.74623, -4572.19091796875], [-125.2224, 43.74954, -3547.8095703125], [-125.22681, 43.74066, -4453.15576171875]]], [[[-125.21063, 43.75251, -4436.52490234375], [-125.2224, 43.74954, -3547.8095703125], [-125.21863, 43.74623, -4572.19091796875], [-125.21063, 43.75251, -4436.52490234375]]], [[[-125.2224, 43.74954, -3547.8095703125], [-125.21063, 43.75251, -4436.52490234375], [-125.2138, 43.75829, -3364.864990234375], [-125.2224, 43.74954, -3547.8095703125]]], [[[-125.2138, 43.75829, -3364.864990234375], [-125.22223, 43.75548, -2548.59814453125], [-125.2224, 43.74954, -3547.8095703125], [-125.2138, 43.75829, -3364.864990234375]]], [[[-125.2224, 43.74954, -3547.8095703125], [-125.22223, 43.75548, -2548.59814453125], [-125.23148, 43.7486, -2607.341552734375], [-125.2224, 43.74954, -3547.8095703125]]], [[[-125.23233, 43.74244, -3486.969970703125], [-125.2224, 43.74954, -3547.8095703125], [-125.23148, 43.7486, -2607.341552734375], [-125.23233, 43.74244, -3486.969970703125]]], [[[-125.23233, 43.74244, -3486.969970703125], [-125.23148, 43.7486, -2607.341552734375], [-125.24021, 43.74199, -2585.968505859375], [-125.23233, 43.74244, -3486.969970703125]]], [[[-125.24123, 43.73589, -3480.7041015625], [-125.23233, 43.74244, -3486.969970703125], [-125.24021, 43.74199, -2585.968505859375], [-125.24123, 43.73589, -3480.7041015625]]], [[[-125.24123, 43.73589, -3480.7041015625], [-125.24021, 43.74199, -2585.968505859375], [-125.24893, 43.73549, -2605.638671875], [-125.24123, 43.73589, -3480.7041015625]]], [[[-125.25044, 43.72971, -3508.7734375], [-125.24123, 43.73589, -3480.7041015625], [-125.24893, 43.73549, -2605.638671875], [-125.25044, 43.72971, -3508.7734375]]], [[[-125.25044, 43.72971, -3508.7734375], [-125.24893, 43.73549, -2605.638671875], [-125.25801, 43.72932, -2651.728271484375], [-125.25044, 43.72971, -3508.7734375]]], [[[-125.21063, 43.75251, -4436.52490234375], [-125.20232, 43.75217, -5517.71240234375], [-125.20305, 43.75804, -4763.2060546875], [-125.21063, 43.75251, -4436.52490234375]]], [[[-125.26608, 43.72838, -1821.23828125], [-125.27472, 43.72185, -1896.3045654296875], [-125.26635, 43.72308, -2702.165283203125], [-125.26608, 43.72838, -1821.23828125]]], [[[-125.28496, 43.69443, -2769.47900390625], [-125.291, 43.69869, -1955.15380859375], [-125.29073, 43.68961, -1982.4957275390625], [-125.28496, 43.69443, -2769.47900390625]]], [[[-125.27859, 43.66961, -2741.209228515625], [-125.28634, 43.67206, -1937.8248291015625], [-125.28059, 43.66474, -1954.9822998046875], [-125.27859, 43.66961, -2741.209228515625]]], [[[-125.27381, 43.66218, -2664.909912109375], [-125.27859, 43.66961, -2741.209228515625], [-125.28059, 43.66474, -1954.9822998046875], [-125.27381, 43.66218, -2664.909912109375]]], [[[-125.27381, 43.66218, -2664.909912109375], [-125.28059, 43.66474, -1954.9822998046875], [-125.27719, 43.65729, -1936.843017578125], [-125.27381, 43.66218, -2664.909912109375]]], [[[-125.26707, 43.65815, -3261.04443359375], [-125.2641, 43.66431, -4206.056640625], [-125.27081, 43.66675, -3502.442138671875], [-125.26707, 43.65815, -3261.04443359375]]], [[[-125.215, 43.788, -1699.7550048828125], [-125.21724, 43.77906, -1691.906982421875], [-125.20899, 43.78763, -2504.31689453125], [-125.215, 43.788, -1699.7550048828125]]], [[[-125.20899, 43.78763, -2504.31689453125], [-125.21724, 43.77906, -1691.906982421875], [-125.20835, 43.77931, -2847.540771484375], [-125.20899, 43.78763, -2504.31689453125]]], [[[-125.18495, 43.78614, -5722.56396484375], [-125.18828, 43.77597, -5606.798828125], [-125.18115, 43.77686, -6507.33642578125], [-125.18495, 43.78614, -5722.56396484375]]], [[[-125.17894, 43.78577, -6527.1259765625], [-125.18495, 43.78614, -5722.56396484375], [-125.18115, 43.77686, -6507.33642578125], [-125.17894, 43.78577, -6527.1259765625]]], [[[-125.22675, 43.51916, -5169.06103515625], [-125.23254, 43.51966, -4403.39990234375], [-125.22719, 43.51271, -4491.1640625], [-125.22675, 43.51916, -5169.06103515625]]], [[[-125.22218, 43.5124, -5164.90625], [-125.22675, 43.51916, -5169.06103515625], [-125.22719, 43.51271, -4491.1640625], [-125.22218, 43.5124, -5164.90625]]]]}}]}