{"type": "FeatureCollection", "features": [{"type": "Feature", "properties": {"name": "AW_CORE_22", "CFM_ID": 376, "region": "Offshore_OR", "primary_state/province": "OR", "secondary_state/province": null, "avg_dip": 59, "dip_dir": "E", "rake": 90, "slip_sense": "Reverse", "fault_level": 2, "NSHM23_sliprates": null, "QFFDAgeCatBin": null, "QFFDAgeBin": null, "upper_depth": -2.1, "upper_depth_constraint": "bathymetry", "lower_depth": -5.6, "lower_depth_constraint": "megathrust", "3D_model_constraints": "trace extended at constant dip", "reference": "Goldfinger et al. (2023)", "nshm23_id": null, "lineage": null, "usgs_qffd_#": null, "comments": null, "id": "376"}, "geometry": {"type": "MultiPolygon", "coordinates": [[[[-125.15222, 43.69453, -4054.101318359375], [-125.14772, 43.68859, -4906.58642578125], [-125.14452, 43.69747, -4933.216796875], [-125.15222, 43.69453, -4054.101318359375]]], [[[-125.12306, 43.78554, -5338.3466796875], [-125.11833, 43.78527, -5971.99755859375], [-125.11824, 43.79352, -5741.689453125], [-125.12306, 43.78554, -5338.3466796875]]], [[[-125.10936, 43.75713, -5467.134765625], [-125.11471, 43.75937, -4949.90966796875], [-125.10975, 43.75247, -4922.82373046875], [-125.10936, 43.75713, -5467.134765625]]], [[[-125.11824, 43.79352, -5741.689453125], [-125.11292, 43.78964, -6478.98388671875], [-125.11394, 43.79553, -6440.8857421875], [-125.11824, 43.79352, -5741.689453125]]], [[[-125.13256, 43.76268, -2862.06689453125], [-125.13423, 43.75916, -2170.361328125], [-125.12921, 43.75616, -2563.107177734375], [-125.13256, 43.76268, -2862.06689453125]]], [[[-125.16685, 43.6526, -2445.02783203125], [-125.17138, 43.65712, -2032.8568115234375], [-125.173, 43.653, -1619.7139892578125], [-125.16685, 43.6526, -2445.02783203125]]], [[[-125.13139, 43.74609, -2105.7333984375], [-125.13651, 43.74318, -1555.523681640625], [-125.13351, 43.73937, -2246.485595703125], [-125.13139, 43.74609, -2105.7333984375]]], [[[-125.1287, 43.76413, -3627.820068359375], [-125.13578, 43.77009, -3267.801025390625], [-125.13256, 43.76268, -2862.06689453125], [-125.1287, 43.76413, -3627.820068359375]]], [[[-125.13945, 43.70691, -5008.38916015625], [-125.13187, 43.70788, -5863.1494140625], [-125.13153, 43.71517, -4945.013671875], [-125.13945, 43.70691, -5008.38916015625]]], [[[-125.12259, 43.74789, -3216.70458984375], [-125.12251, 43.74041, -3584.72900390625], [-125.11592, 43.74704, -4124.193359375], [-125.12259, 43.74789, -3216.70458984375]]], [[[-125.10975, 43.75247, -4922.82373046875], [-125.10862, 43.74607, -5119.31005859375], [-125.10394, 43.75194, -5687.97802734375], [-125.10975, 43.75247, -4922.82373046875]]], [[[-125.1035, 43.74451, -5844.125], [-125.10394, 43.75194, -5687.97802734375], [-125.10862, 43.74607, -5119.31005859375], [-125.1035, 43.74451, -5844.125]]], [[[-125.11111, 43.77483, -6934.0771484375], [-125.11436, 43.77122, -6310.57861328125], [-125.1074, 43.76637, -6937.62744140625], [-125.11111, 43.77483, -6934.0771484375]]], [[[-125.16685, 43.6526, -2445.02783203125], [-125.16573, 43.66042, -2962.85791015625], [-125.17138, 43.65712, -2032.8568115234375], [-125.16685, 43.6526, -2445.02783203125]]], [[[-125.16051, 43.68704, -3292.69677734375], [-125.16346, 43.6785, -3156.905029296875], [-125.15772, 43.67793, -3932.49267578125], [-125.16051, 43.68704, -3292.69677734375]]], [[[-125.10701, 43.76047, -6202.2255859375], [-125.10094, 43.75454, -6385.2685546875], [-125.10075, 43.75955, -6967.30419921875], [-125.10701, 43.76047, -6202.2255859375]]], [[[-125.09732, 43.75039, -6487.99169921875], [-125.09857, 43.74528, -6473.87451171875], [-125.09416, 43.74786, -6980.6455078125], [-125.09732, 43.75039, -6487.99169921875]]], [[[-125.11585, 43.75439, -4264.39013671875], [-125.12001, 43.75292, -3522.437255859375], [-125.11592, 43.74704, -4124.193359375], [-125.11585, 43.75439, -4264.39013671875]]], [[[-125.12306, 43.78554, -5338.3466796875], [-125.12974, 43.7862, -4430.55859375], [-125.12713, 43.77845, -4823.85888671875], [-125.12306, 43.78554, -5338.3466796875]]], [[[-125.1035, 43.74451, -5844.125], [-125.10862, 43.74607, -5119.31005859375], [-125.10933, 43.73822, -5462.0224609375], [-125.1035, 43.74451, -5844.125]]], [[[-125.10701, 43.76047, -6202.2255859375], [-125.10936, 43.75713, -5467.134765625], [-125.10394, 43.75194, -5687.97802734375], [-125.10701, 43.76047, -6202.2255859375]]], [[[-125.12974, 43.7862, -4430.55859375], [-125.1246, 43.79359, -4870.7412109375], [-125.13095, 43.794, -4018.491943359375], [-125.12974, 43.7862, -4430.55859375]]], [[[-125.13379, 43.7794, -3938.372314453125], [-125.12974, 43.7862, -4430.55859375], [-125.13776, 43.78723, -3327.07861328125], [-125.13379, 43.7794, -3938.372314453125]]], [[[-125.13578, 43.77009, -3267.801025390625], [-125.13953, 43.77777, -3143.6875], [-125.14404, 43.7731, -2333.76806640625], [-125.13578, 43.77009, -3267.801025390625]]], [[[-125.13014, 43.75275, -2075.756103515625], [-125.12491, 43.75274, -2811.63916015625], [-125.12921, 43.75616, -2563.107177734375], [-125.13014, 43.75275, -2075.756103515625]]], [[[-125.16573, 43.66042, -2962.85791015625], [-125.16685, 43.6526, -2445.02783203125], [-125.1607, 43.6522, -3270.341796875], [-125.16573, 43.66042, -2962.85791015625]]], [[[-125.12328, 43.76426, -4423.55224609375], [-125.11471, 43.75937, -4949.90966796875], [-125.11916, 43.76417, -5000.7958984375], [-125.12328, 43.76426, -4423.55224609375]]], [[[-125.14782, 43.70389, -4217.33935546875], [-125.15222, 43.69453, -4054.101318359375], [-125.14452, 43.69747, -4933.216796875], [-125.14782, 43.70389, -4217.33935546875]]], [[[-125.12328, 43.76426, -4423.55224609375], [-125.13009, 43.77128, -4138.4912109375], [-125.1287, 43.76413, -3627.820068359375], [-125.12328, 43.76426, -4423.55224609375]]], [[[-125.16051, 43.68704, -3292.69677734375], [-125.15772, 43.67793, -3932.49267578125], [-125.15442, 43.6856, -4140.7451171875], [-125.16051, 43.68704, -3292.69677734375]]], [[[-125.12251, 43.74041, -3584.72900390625], [-125.12993, 43.7347, -3087.71533203125], [-125.12498, 43.73062, -4120.90185546875], [-125.12251, 43.74041, -3584.72900390625]]], [[[-125.16002, 43.66038, -3747.25390625], [-125.16573, 43.66042, -2962.85791015625], [-125.1607, 43.6522, -3270.341796875], [-125.16002, 43.66038, -3747.25390625]]], [[[-125.15107, 43.66853, -4970.85888671875], [-125.15411, 43.65997, -4543.2470703125], [-125.14644, 43.65868, -5541.37353515625], [-125.15107, 43.66853, -4970.85888671875]]], [[[-125.11835, 43.76875, -5586.7470703125], [-125.11436, 43.77122, -6310.57861328125], [-125.12067, 43.77615, -5664.08349609375], [-125.11835, 43.76875, -5586.7470703125]]], [[[-125.14505, 43.66489, -5786.6025390625], [-125.14644, 43.65868, -5541.37353515625], [-125.14041, 43.66268, -6411.47509765625], [-125.14505, 43.66489, -5786.6025390625]]], [[[-125.12375, 43.72326, -4991.6591796875], [-125.1324, 43.72099, -4094.2626953125], [-125.13153, 43.71517, -4945.013671875], [-125.12375, 43.72326, -4991.6591796875]]], [[[-125.14141, 43.71233, -4138.3447265625], [-125.15032, 43.70987, -3299.029541015625], [-125.14782, 43.70389, -4217.33935546875], [-125.14141, 43.71233, -4138.3447265625]]], [[[-125.10264, 43.73901, -6262.708984375], [-125.10057, 43.73455, -6885.88525390625], [-125.09586, 43.74152, -6946.296875], [-125.10264, 43.73901, -6262.708984375]]], [[[-125.14339, 43.68275, -5685.3359375], [-125.13646, 43.68584, -6506.9130859375], [-125.14044, 43.69172, -5725.14111328125], [-125.14339, 43.68275, -5685.3359375]]], [[[-125.15875, 43.70809, -2425.81103515625], [-125.15032, 43.70987, -3299.029541015625], [-125.15187, 43.71522, -2402.32666015625], [-125.15875, 43.70809, -2425.81103515625]]], [[[-125.12259, 43.74789, -3216.70458984375], [-125.11592, 43.74704, -4124.193359375], [-125.12001, 43.75292, -3522.437255859375], [-125.12259, 43.74789, -3216.70458984375]]], [[[-125.12993, 43.7347, -3087.71533203125], [-125.13351, 43.73937, -2246.485595703125], [-125.13843, 43.731, -2366.46435546875], [-125.12993, 43.7347, -3087.71533203125]]], [[[-125.10701, 43.76047, -6202.2255859375], [-125.1074, 43.76637, -6937.62744140625], [-125.11436, 43.77122, -6310.57861328125], [-125.10701, 43.76047, -6202.2255859375]]], [[[-125.11585, 43.75439, -4264.39013671875], [-125.11592, 43.74704, -4124.193359375], [-125.10975, 43.75247, -4922.82373046875], [-125.11585, 43.75439, -4264.39013671875]]], [[[-125.11436, 43.77122, -6310.57861328125], [-125.11111, 43.77483, -6934.0771484375], [-125.11565, 43.77835, -6369.89013671875], [-125.11436, 43.77122, -6310.57861328125]]], [[[-125.1567, 43.66914, -4205.6201171875], [-125.16002, 43.66038, -3747.25390625], [-125.15411, 43.65997, -4543.2470703125], [-125.1567, 43.66914, -4205.6201171875]]], [[[-125.10701, 43.76047, -6202.2255859375], [-125.10394, 43.75194, -5687.97802734375], [-125.10094, 43.75454, -6385.2685546875], [-125.10701, 43.76047, -6202.2255859375]]], [[[-125.16002, 43.66038, -3747.25390625], [-125.16327, 43.66941, -3326.0830078125], [-125.16573, 43.66042, -2962.85791015625], [-125.16002, 43.66038, -3747.25390625]]], [[[-125.15107, 43.66853, -4970.85888671875], [-125.15075, 43.67847, -4838.55859375], [-125.1567, 43.66914, -4205.6201171875], [-125.15107, 43.66853, -4970.85888671875]]], [[[-125.12105, 43.75883, -3995.494873046875], [-125.1287, 43.76413, -3627.820068359375], [-125.1261, 43.75764, -3157.88671875], [-125.12105, 43.75883, -3995.494873046875]]], [[[-125.11111, 43.77483, -6934.0771484375], [-125.11137, 43.78375, -6958.0126953125], [-125.11461, 43.78377, -6531.97509765625], [-125.11111, 43.77483, -6934.0771484375]]], [[[-125.14782, 43.70389, -4217.33935546875], [-125.15032, 43.70987, -3299.029541015625], [-125.15513, 43.70254, -3317.1396484375], [-125.14782, 43.70389, -4217.33935546875]]], [[[-125.11824, 43.79352, -5741.689453125], [-125.11394, 43.79553, -6440.8857421875], [-125.11951, 43.80064, -6169.0078125], [-125.11824, 43.79352, -5741.689453125]]], [[[-125.14141, 43.71233, -4138.3447265625], [-125.14248, 43.71742, -3242.001708984375], [-125.15032, 43.70987, -3299.029541015625], [-125.14141, 43.71233, -4138.3447265625]]], [[[-125.10881, 43.73166, -6082.6005859375], [-125.11599, 43.72389, -5928.64794921875], [-125.10643, 43.72734, -6811.70947265625], [-125.10881, 43.73166, -6082.6005859375]]], [[[-125.12747, 43.74926, -2530.037353515625], [-125.13014, 43.75275, -2075.756103515625], [-125.13139, 43.74609, -2105.7333984375], [-125.12747, 43.74926, -2530.037353515625]]], [[[-125.11824, 43.79352, -5741.689453125], [-125.11951, 43.80064, -6169.0078125], [-125.1256, 43.80105, -5354.0517578125], [-125.11824, 43.79352, -5741.689453125]]], [[[-125.12375, 43.72326, -4991.6591796875], [-125.12275, 43.71664, -5817.9970703125], [-125.11599, 43.72389, -5928.64794921875], [-125.12375, 43.72326, -4991.6591796875]]], [[[-125.16793, 43.68353, -2416.76806640625], [-125.17491, 43.6794, -1615.679443359375], [-125.16936, 43.67461, -2433.39990234375], [-125.16793, 43.68353, -2416.76806640625]]], [[[-125.10394, 43.75194, -5687.97802734375], [-125.09732, 43.75039, -6487.99169921875], [-125.10094, 43.75454, -6385.2685546875], [-125.10394, 43.75194, -5687.97802734375]]], [[[-125.14248, 43.71742, -3242.001708984375], [-125.14447, 43.72278, -2378.62646484375], [-125.15187, 43.71522, -2402.32666015625], [-125.14248, 43.71742, -3242.001708984375]]], [[[-125.11243, 43.7201, -6737.95166015625], [-125.12275, 43.71664, -5817.9970703125], [-125.11978, 43.71348, -6662.65283203125], [-125.11243, 43.7201, -6737.95166015625]]], [[[-125.12001, 43.75292, -3522.437255859375], [-125.1261, 43.75764, -3157.88671875], [-125.12491, 43.75274, -2811.63916015625], [-125.12001, 43.75292, -3522.437255859375]]], [[[-125.11585, 43.75439, -4264.39013671875], [-125.10975, 43.75247, -4922.82373046875], [-125.11471, 43.75937, -4949.90966796875], [-125.11585, 43.75439, -4264.39013671875]]], [[[-125.11633, 43.73103, -5184.35498046875], [-125.10881, 43.73166, -6082.6005859375], [-125.10933, 43.73822, -5462.0224609375], [-125.11633, 43.73103, -5184.35498046875]]], [[[-125.10862, 43.74607, -5119.31005859375], [-125.11619, 43.7389, -4521.27978515625], [-125.10933, 43.73822, -5462.0224609375], [-125.10862, 43.74607, -5119.31005859375]]], [[[-125.16327, 43.66941, -3326.0830078125], [-125.16002, 43.66038, -3747.25390625], [-125.1567, 43.66914, -4205.6201171875], [-125.16327, 43.66941, -3326.0830078125]]], [[[-125.15107, 43.66853, -4970.85888671875], [-125.1567, 43.66914, -4205.6201171875], [-125.15411, 43.65997, -4543.2470703125], [-125.15107, 43.66853, -4970.85888671875]]], [[[-125.13843, 43.731, -2366.46435546875], [-125.14719, 43.72774, -1567.097412109375], [-125.14447, 43.72278, -2378.62646484375], [-125.13843, 43.731, -2366.46435546875]]], [[[-125.12251, 43.74041, -3584.72900390625], [-125.12717, 43.74316, -2764.364013671875], [-125.12993, 43.7347, -3087.71533203125], [-125.12251, 43.74041, -3584.72900390625]]], [[[-125.13187, 43.70788, -5863.1494140625], [-125.13079, 43.70114, -6572.1552734375], [-125.1264, 43.70741, -6609.8408203125], [-125.13187, 43.70788, -5863.1494140625]]], [[[-125.13743, 43.65068, -6391.833984375], [-125.13955, 43.65662, -6395.6220703125], [-125.1427, 43.65102, -5684.48828125], [-125.13743, 43.65068, -6391.833984375]]], [[[-125.11835, 43.76875, -5586.7470703125], [-125.12067, 43.77615, -5664.08349609375], [-125.12445, 43.77082, -4886.611328125], [-125.11835, 43.76875, -5586.7470703125]]], [[[-125.16346, 43.6785, -3156.905029296875], [-125.16793, 43.68353, -2416.76806640625], [-125.16936, 43.67461, -2433.39990234375], [-125.16346, 43.6785, -3156.905029296875]]], [[[-125.14141, 43.71233, -4138.3447265625], [-125.13945, 43.70691, -5008.38916015625], [-125.13153, 43.71517, -4945.013671875], [-125.14141, 43.71233, -4138.3447265625]]], [[[-125.16327, 43.66941, -3326.0830078125], [-125.1567, 43.66914, -4205.6201171875], [-125.15772, 43.67793, -3932.49267578125], [-125.16327, 43.66941, -3326.0830078125]]], [[[-125.1324, 43.72099, -4094.2626953125], [-125.14248, 43.71742, -3242.001708984375], [-125.14141, 43.71233, -4138.3447265625], [-125.1324, 43.72099, -4094.2626953125]]], [[[-125.14505, 43.66489, -5786.6025390625], [-125.13995, 43.66896, -6436.79736328125], [-125.14532, 43.67275, -5663.5654296875], [-125.14505, 43.66489, -5786.6025390625]]], [[[-125.12275, 43.71664, -5817.9970703125], [-125.11243, 43.7201, -6737.95166015625], [-125.11599, 43.72389, -5928.64794921875], [-125.12275, 43.71664, -5817.9970703125]]], [[[-125.12498, 43.73062, -4120.90185546875], [-125.12375, 43.72326, -4991.6591796875], [-125.11633, 43.73103, -5184.35498046875], [-125.12498, 43.73062, -4120.90185546875]]], [[[-125.16327, 43.66941, -3326.0830078125], [-125.15772, 43.67793, -3932.49267578125], [-125.16346, 43.6785, -3156.905029296875], [-125.16327, 43.66941, -3326.0830078125]]], [[[-125.13187, 43.70788, -5863.1494140625], [-125.12275, 43.71664, -5817.9970703125], [-125.13153, 43.71517, -4945.013671875], [-125.13187, 43.70788, -5863.1494140625]]], [[[-125.13694, 43.7, -5815.02490234375], [-125.14044, 43.69172, -5725.14111328125], [-125.13337, 43.69419, -6544.11962890625], [-125.13694, 43.7, -5815.02490234375]]], [[[-125.14452, 43.69747, -4933.216796875], [-125.13945, 43.70691, -5008.38916015625], [-125.14782, 43.70389, -4217.33935546875], [-125.14452, 43.69747, -4933.216796875]]], [[[-125.13139, 43.74609, -2105.7333984375], [-125.13014, 43.75275, -2075.756103515625], [-125.13469, 43.74991, -1556.0399169921875], [-125.13139, 43.74609, -2105.7333984375]]], [[[-125.11633, 43.73103, -5184.35498046875], [-125.11599, 43.72389, -5928.64794921875], [-125.10881, 43.73166, -6082.6005859375], [-125.11633, 43.73103, -5184.35498046875]]], [[[-125.16327, 43.66941, -3326.0830078125], [-125.16346, 43.6785, -3156.905029296875], [-125.16936, 43.67461, -2433.39990234375], [-125.16327, 43.66941, -3326.0830078125]]], [[[-125.11592, 43.74704, -4124.193359375], [-125.10862, 43.74607, -5119.31005859375], [-125.10975, 43.75247, -4922.82373046875], [-125.11592, 43.74704, -4124.193359375]]], [[[-125.13187, 43.70788, -5863.1494140625], [-125.1264, 43.70741, -6609.8408203125], [-125.12275, 43.71664, -5817.9970703125], [-125.13187, 43.70788, -5863.1494140625]]], [[[-125.13014, 43.75275, -2075.756103515625], [-125.12747, 43.74926, -2530.037353515625], [-125.12491, 43.75274, -2811.63916015625], [-125.13014, 43.75275, -2075.756103515625]]], [[[-125.15032, 43.70987, -3299.029541015625], [-125.15875, 43.70809, -2425.81103515625], [-125.15513, 43.70254, -3317.1396484375], [-125.15032, 43.70987, -3299.029541015625]]], [[[-125.11592, 43.74704, -4124.193359375], [-125.11619, 43.7389, -4521.27978515625], [-125.10862, 43.74607, -5119.31005859375], [-125.11592, 43.74704, -4124.193359375]]], [[[-125.14248, 43.71742, -3242.001708984375], [-125.13551, 43.72583, -3242.923583984375], [-125.14447, 43.72278, -2378.62646484375], [-125.14248, 43.71742, -3242.001708984375]]], [[[-125.12105, 43.75883, -3995.494873046875], [-125.11471, 43.75937, -4949.90966796875], [-125.12328, 43.76426, -4423.55224609375], [-125.12105, 43.75883, -3995.494873046875]]], [[[-125.13337, 43.69419, -6544.11962890625], [-125.14044, 43.69172, -5725.14111328125], [-125.13646, 43.68584, -6506.9130859375], [-125.13337, 43.69419, -6544.11962890625]]], [[[-125.16553, 43.69207, -2414.281982421875], [-125.16051, 43.68704, -3292.69677734375], [-125.15866, 43.69514, -3181.922119140625], [-125.16553, 43.69207, -2414.281982421875]]], [[[-125.13694, 43.7, -5815.02490234375], [-125.13337, 43.69419, -6544.11962890625], [-125.13079, 43.70114, -6572.1552734375], [-125.13694, 43.7, -5815.02490234375]]], [[[-125.15866, 43.69514, -3181.922119140625], [-125.16269, 43.70065, -2409.5654296875], [-125.16553, 43.69207, -2414.281982421875], [-125.15866, 43.69514, -3181.922119140625]]], [[[-125.12498, 43.73062, -4120.90185546875], [-125.1324, 43.72099, -4094.2626953125], [-125.12375, 43.72326, -4991.6591796875], [-125.12498, 43.73062, -4120.90185546875]]], [[[-125.11978, 43.71348, -6662.65283203125], [-125.12275, 43.71664, -5817.9970703125], [-125.1264, 43.70741, -6609.8408203125], [-125.11978, 43.71348, -6662.65283203125]]], [[[-125.16327, 43.66941, -3326.0830078125], [-125.16936, 43.67461, -2433.39990234375], [-125.1701, 43.66521, -2413.36279296875], [-125.16327, 43.66941, -3326.0830078125]]], [[[-125.11392, 43.76315, -5604.1513671875], [-125.11916, 43.76417, -5000.7958984375], [-125.11471, 43.75937, -4949.90966796875], [-125.11392, 43.76315, -5604.1513671875]]], [[[-125.13551, 43.72583, -3242.923583984375], [-125.13843, 43.731, -2366.46435546875], [-125.14447, 43.72278, -2378.62646484375], [-125.13551, 43.72583, -3242.923583984375]]], [[[-125.14547, 43.78863, -2248.735107421875], [-125.14959, 43.79222, -1539.495361328125], [-125.15198, 43.78482, -1560.3759765625], [-125.14547, 43.78863, -2248.735107421875]]], [[[-125.14404, 43.7731, -2333.76806640625], [-125.1454, 43.7811, -2397.281982421875], [-125.15107, 43.77663, -1572.1270751953125], [-125.14404, 43.7731, -2333.76806640625]]], [[[-125.12251, 43.74041, -3584.72900390625], [-125.12498, 43.73062, -4120.90185546875], [-125.11619, 43.7389, -4521.27978515625], [-125.12251, 43.74041, -3584.72900390625]]], [[[-125.13694, 43.7, -5815.02490234375], [-125.14452, 43.69747, -4933.216796875], [-125.14044, 43.69172, -5725.14111328125], [-125.13694, 43.7, -5815.02490234375]]], [[[-125.12498, 43.73062, -4120.90185546875], [-125.12993, 43.7347, -3087.71533203125], [-125.13551, 43.72583, -3242.923583984375], [-125.12498, 43.73062, -4120.90185546875]]], [[[-125.12713, 43.77845, -4823.85888671875], [-125.12445, 43.77082, -4886.611328125], [-125.12067, 43.77615, -5664.08349609375], [-125.12713, 43.77845, -4823.85888671875]]], [[[-125.1701, 43.66521, -2413.36279296875], [-125.16573, 43.66042, -2962.85791015625], [-125.16327, 43.66941, -3326.0830078125], [-125.1701, 43.66521, -2413.36279296875]]], [[[-125.1701, 43.66521, -2413.36279296875], [-125.17138, 43.65712, -2032.8568115234375], [-125.16573, 43.66042, -2962.85791015625], [-125.1701, 43.66521, -2413.36279296875]]], [[[-125.13843, 43.731, -2366.46435546875], [-125.14133, 43.73556, -1547.5328369140625], [-125.14719, 43.72774, -1567.097412109375], [-125.13843, 43.731, -2366.46435546875]]], [[[-125.1035, 43.74451, -5844.125], [-125.10933, 43.73822, -5462.0224609375], [-125.10264, 43.73901, -6262.708984375], [-125.1035, 43.74451, -5844.125]]], [[[-125.13139, 43.74609, -2105.7333984375], [-125.13469, 43.74991, -1556.0399169921875], [-125.13651, 43.74318, -1555.523681640625], [-125.13139, 43.74609, -2105.7333984375]]], [[[-125.13256, 43.76268, -2862.06689453125], [-125.12921, 43.75616, -2563.107177734375], [-125.1261, 43.75764, -3157.88671875], [-125.13256, 43.76268, -2862.06689453125]]], [[[-125.14959, 43.79222, -1539.495361328125], [-125.14547, 43.78863, -2248.735107421875], [-125.14104, 43.79341, -2607.755859375], [-125.14959, 43.79222, -1539.495361328125]]], [[[-125.10881, 43.73166, -6082.6005859375], [-125.10643, 43.72734, -6811.70947265625], [-125.10057, 43.73455, -6885.88525390625], [-125.10881, 43.73166, -6082.6005859375]]], [[[-125.14505, 43.66489, -5786.6025390625], [-125.14041, 43.66268, -6411.47509765625], [-125.13995, 43.66896, -6436.79736328125], [-125.14505, 43.66489, -5786.6025390625]]], [[[-125.1701, 43.66521, -2413.36279296875], [-125.17588, 43.66165, -1619.7015380859375], [-125.17138, 43.65712, -2032.8568115234375], [-125.1701, 43.66521, -2413.36279296875]]], [[[-125.11394, 43.79553, -6440.8857421875], [-125.10861, 43.79236, -7005.4052734375], [-125.11343, 43.80022, -6983.9638671875], [-125.11394, 43.79553, -6440.8857421875]]], [[[-125.13379, 43.7794, -3938.372314453125], [-125.13953, 43.77777, -3143.6875], [-125.13578, 43.77009, -3267.801025390625], [-125.13379, 43.7794, -3938.372314453125]]], [[[-125.1701, 43.66521, -2413.36279296875], [-125.17594, 43.67054, -1618.390625], [-125.17588, 43.66165, -1619.7015380859375], [-125.1701, 43.66521, -2413.36279296875]]], [[[-125.15772, 43.67793, -3932.49267578125], [-125.15075, 43.67847, -4838.55859375], [-125.15442, 43.6856, -4140.7451171875], [-125.15772, 43.67793, -3932.49267578125]]], [[[-125.16936, 43.67461, -2433.39990234375], [-125.17594, 43.67054, -1618.390625], [-125.1701, 43.66521, -2413.36279296875], [-125.16936, 43.67461, -2433.39990234375]]], [[[-125.11592, 43.74704, -4124.193359375], [-125.12251, 43.74041, -3584.72900390625], [-125.11619, 43.7389, -4521.27978515625], [-125.11592, 43.74704, -4124.193359375]]], [[[-125.14505, 43.66489, -5786.6025390625], [-125.14532, 43.67275, -5663.5654296875], [-125.15107, 43.66853, -4970.85888671875], [-125.14505, 43.66489, -5786.6025390625]]], [[[-125.15075, 43.67847, -4838.55859375], [-125.14339, 43.68275, -5685.3359375], [-125.14772, 43.68859, -4906.58642578125], [-125.15075, 43.67847, -4838.55859375]]], [[[-125.12713, 43.77845, -4823.85888671875], [-125.12067, 43.77615, -5664.08349609375], [-125.12306, 43.78554, -5338.3466796875], [-125.12713, 43.77845, -4823.85888671875]]], [[[-125.13014, 43.75275, -2075.756103515625], [-125.13618, 43.7559, -1553.4261474609375], [-125.13469, 43.74991, -1556.0399169921875], [-125.13014, 43.75275, -2075.756103515625]]], [[[-125.16936, 43.67461, -2433.39990234375], [-125.17491, 43.6794, -1615.679443359375], [-125.17594, 43.67054, -1618.390625], [-125.16936, 43.67461, -2433.39990234375]]], [[[-125.14644, 43.65868, -5541.37353515625], [-125.13955, 43.65662, -6395.6220703125], [-125.14041, 43.66268, -6411.47509765625], [-125.14644, 43.65868, -5541.37353515625]]], [[[-125.15222, 43.69453, -4054.101318359375], [-125.15513, 43.70254, -3317.1396484375], [-125.15866, 43.69514, -3181.922119140625], [-125.15222, 43.69453, -4054.101318359375]]], [[[-125.13187, 43.70788, -5863.1494140625], [-125.13694, 43.7, -5815.02490234375], [-125.13079, 43.70114, -6572.1552734375], [-125.13187, 43.70788, -5863.1494140625]]], [[[-125.15411, 43.65997, -4543.2470703125], [-125.15455, 43.6518, -4095.655517578125], [-125.14844, 43.6514, -4914.26708984375], [-125.15411, 43.65997, -4543.2470703125]]], [[[-125.12067, 43.77615, -5664.08349609375], [-125.11833, 43.78527, -5971.99755859375], [-125.12306, 43.78554, -5338.3466796875], [-125.12067, 43.77615, -5664.08349609375]]], [[[-125.16793, 43.68353, -2416.76806640625], [-125.17294, 43.68818, -1612.77880859375], [-125.17491, 43.6794, -1615.679443359375], [-125.16793, 43.68353, -2416.76806640625]]], [[[-125.13423, 43.75916, -2170.361328125], [-125.14006, 43.76661, -2361.7255859375], [-125.14142, 43.76242, -1553.540771484375], [-125.13423, 43.75916, -2170.361328125]]], [[[-125.11833, 43.78527, -5971.99755859375], [-125.11292, 43.78964, -6478.98388671875], [-125.11824, 43.79352, -5741.689453125], [-125.11833, 43.78527, -5971.99755859375]]], [[[-125.12921, 43.75616, -2563.107177734375], [-125.13423, 43.75916, -2170.361328125], [-125.13014, 43.75275, -2075.756103515625], [-125.12921, 43.75616, -2563.107177734375]]], [[[-125.15222, 43.69453, -4054.101318359375], [-125.15442, 43.6856, -4140.7451171875], [-125.14772, 43.68859, -4906.58642578125], [-125.15222, 43.69453, -4054.101318359375]]], [[[-125.10643, 43.72734, -6811.70947265625], [-125.11599, 43.72389, -5928.64794921875], [-125.11243, 43.7201, -6737.95166015625], [-125.10643, 43.72734, -6811.70947265625]]], [[[-125.16553, 43.69207, -2414.281982421875], [-125.17294, 43.68818, -1612.77880859375], [-125.16793, 43.68353, -2416.76806640625], [-125.16553, 43.69207, -2414.281982421875]]], [[[-125.10094, 43.75454, -6385.2685546875], [-125.09732, 43.75039, -6487.99169921875], [-125.09587, 43.75345, -6985.47119140625], [-125.10094, 43.75454, -6385.2685546875]]], [[[-125.14782, 43.70389, -4217.33935546875], [-125.13945, 43.70691, -5008.38916015625], [-125.14141, 43.71233, -4138.3447265625], [-125.14782, 43.70389, -4217.33935546875]]], [[[-125.16346, 43.6785, -3156.905029296875], [-125.16051, 43.68704, -3292.69677734375], [-125.16793, 43.68353, -2416.76806640625], [-125.16346, 43.6785, -3156.905029296875]]], [[[-125.16553, 43.69207, -2414.281982421875], [-125.17006, 43.69683, -1610.519287109375], [-125.17294, 43.68818, -1612.77880859375], [-125.16553, 43.69207, -2414.281982421875]]], [[[-125.10094, 43.75454, -6385.2685546875], [-125.09587, 43.75345, -6985.47119140625], [-125.10075, 43.75955, -6967.30419921875], [-125.10094, 43.75454, -6385.2685546875]]], [[[-125.15222, 43.69453, -4054.101318359375], [-125.16051, 43.68704, -3292.69677734375], [-125.15442, 43.6856, -4140.7451171875], [-125.15222, 43.69453, -4054.101318359375]]], [[[-125.16269, 43.70065, -2409.5654296875], [-125.17006, 43.69683, -1610.519287109375], [-125.16553, 43.69207, -2414.281982421875], [-125.16269, 43.70065, -2409.5654296875]]], [[[-125.15075, 43.67847, -4838.55859375], [-125.14772, 43.68859, -4906.58642578125], [-125.15442, 43.6856, -4140.7451171875], [-125.15075, 43.67847, -4838.55859375]]], [[[-125.13777, 43.80189, -3724.14013671875], [-125.1438, 43.8023, -2915.417724609375], [-125.13691, 43.79586, -3297.618896484375], [-125.13777, 43.80189, -3724.14013671875]]], [[[-125.1035, 43.74451, -5844.125], [-125.10264, 43.73901, -6262.708984375], [-125.09857, 43.74528, -6473.87451171875], [-125.1035, 43.74451, -5844.125]]], [[[-125.13256, 43.76268, -2862.06689453125], [-125.14006, 43.76661, -2361.7255859375], [-125.13423, 43.75916, -2170.361328125], [-125.13256, 43.76268, -2862.06689453125]]], [[[-125.16269, 43.70065, -2409.5654296875], [-125.16717, 43.70548, -1608.2655029296875], [-125.17006, 43.69683, -1610.519287109375], [-125.16269, 43.70065, -2409.5654296875]]], [[[-125.13095, 43.794, -4018.491943359375], [-125.13168, 43.80147, -4539.09619140625], [-125.13777, 43.80189, -3724.14013671875], [-125.13095, 43.794, -4018.491943359375]]], [[[-125.09732, 43.75039, -6487.99169921875], [-125.09416, 43.74786, -6980.6455078125], [-125.09587, 43.75345, -6985.47119140625], [-125.09732, 43.75039, -6487.99169921875]]], [[[-125.11394, 43.79553, -6440.8857421875], [-125.11343, 43.80022, -6983.9638671875], [-125.11951, 43.80064, -6169.0078125], [-125.11394, 43.79553, -6440.8857421875]]], [[[-125.14644, 43.65868, -5541.37353515625], [-125.14844, 43.6514, -4914.26708984375], [-125.1427, 43.65102, -5684.48828125], [-125.14644, 43.65868, -5541.37353515625]]], [[[-125.15875, 43.70809, -2425.81103515625], [-125.16717, 43.70548, -1608.2655029296875], [-125.16269, 43.70065, -2409.5654296875], [-125.15875, 43.70809, -2425.81103515625]]], [[[-125.13351, 43.73937, -2246.485595703125], [-125.14133, 43.73556, -1547.5328369140625], [-125.13843, 43.731, -2366.46435546875], [-125.13351, 43.73937, -2246.485595703125]]], [[[-125.12713, 43.77845, -4823.85888671875], [-125.13009, 43.77128, -4138.4912109375], [-125.12445, 43.77082, -4886.611328125], [-125.12713, 43.77845, -4823.85888671875]]], [[[-125.15875, 43.70809, -2425.81103515625], [-125.16089, 43.7131, -1595.945556640625], [-125.16717, 43.70548, -1608.2655029296875], [-125.15875, 43.70809, -2425.81103515625]]], [[[-125.1246, 43.79359, -4870.7412109375], [-125.1256, 43.80105, -5354.0517578125], [-125.13168, 43.80147, -4539.09619140625], [-125.1246, 43.79359, -4870.7412109375]]], [[[-125.15187, 43.71522, -2402.32666015625], [-125.16089, 43.7131, -1595.945556640625], [-125.15875, 43.70809, -2425.81103515625], [-125.15187, 43.71522, -2402.32666015625]]], [[[-125.10701, 43.76047, -6202.2255859375], [-125.10075, 43.75955, -6967.30419921875], [-125.1074, 43.76637, -6937.62744140625], [-125.10701, 43.76047, -6202.2255859375]]], [[[-125.15107, 43.66853, -4970.85888671875], [-125.14532, 43.67275, -5663.5654296875], [-125.15075, 43.67847, -4838.55859375], [-125.15107, 43.66853, -4970.85888671875]]], [[[-125.14532, 43.67275, -5663.5654296875], [-125.13876, 43.67706, -6465.69580078125], [-125.14339, 43.68275, -5685.3359375], [-125.14532, 43.67275, -5663.5654296875]]], [[[-125.15187, 43.71522, -2402.32666015625], [-125.15307, 43.71994, -1544.0604248046875], [-125.16089, 43.7131, -1595.945556640625], [-125.15187, 43.71522, -2402.32666015625]]], [[[-125.1246, 43.79359, -4870.7412109375], [-125.13168, 43.80147, -4539.09619140625], [-125.13095, 43.794, -4018.491943359375], [-125.1246, 43.79359, -4870.7412109375]]], [[[-125.14141, 43.71233, -4138.3447265625], [-125.13153, 43.71517, -4945.013671875], [-125.1324, 43.72099, -4094.2626953125], [-125.14141, 43.71233, -4138.3447265625]]], [[[-125.11916, 43.76417, -5000.7958984375], [-125.11835, 43.76875, -5586.7470703125], [-125.12445, 43.77082, -4886.611328125], [-125.11916, 43.76417, -5000.7958984375]]], [[[-125.14447, 43.72278, -2378.62646484375], [-125.15307, 43.71994, -1544.0604248046875], [-125.15187, 43.71522, -2402.32666015625], [-125.14447, 43.72278, -2378.62646484375]]], [[[-125.12105, 43.75883, -3995.494873046875], [-125.12328, 43.76426, -4423.55224609375], [-125.1287, 43.76413, -3627.820068359375], [-125.12105, 43.75883, -3995.494873046875]]], [[[-125.11916, 43.76417, -5000.7958984375], [-125.11392, 43.76315, -5604.1513671875], [-125.11835, 43.76875, -5586.7470703125], [-125.11916, 43.76417, -5000.7958984375]]], [[[-125.14772, 43.68859, -4906.58642578125], [-125.14339, 43.68275, -5685.3359375], [-125.14044, 43.69172, -5725.14111328125], [-125.14772, 43.68859, -4906.58642578125]]], [[[-125.12747, 43.74926, -2530.037353515625], [-125.12259, 43.74789, -3216.70458984375], [-125.12491, 43.75274, -2811.63916015625], [-125.12747, 43.74926, -2530.037353515625]]], [[[-125.11436, 43.77122, -6310.57861328125], [-125.11392, 43.76315, -5604.1513671875], [-125.10701, 43.76047, -6202.2255859375], [-125.11436, 43.77122, -6310.57861328125]]], [[[-125.10264, 43.73901, -6262.708984375], [-125.10933, 43.73822, -5462.0224609375], [-125.10881, 43.73166, -6082.6005859375], [-125.10264, 43.73901, -6262.708984375]]], [[[-125.13423, 43.75916, -2170.361328125], [-125.14142, 43.76242, -1553.540771484375], [-125.13618, 43.7559, -1553.4261474609375], [-125.13423, 43.75916, -2170.361328125]]], [[[-125.14772, 43.68859, -4906.58642578125], [-125.14044, 43.69172, -5725.14111328125], [-125.14452, 43.69747, -4933.216796875], [-125.14772, 43.68859, -4906.58642578125]]], [[[-125.11111, 43.77483, -6934.0771484375], [-125.11461, 43.78377, -6531.97509765625], [-125.11565, 43.77835, -6369.89013671875], [-125.11111, 43.77483, -6934.0771484375]]], [[[-125.13694, 43.7, -5815.02490234375], [-125.13945, 43.70691, -5008.38916015625], [-125.14452, 43.69747, -4933.216796875], [-125.13694, 43.7, -5815.02490234375]]], [[[-125.14447, 43.72278, -2378.62646484375], [-125.14719, 43.72774, -1567.097412109375], [-125.15307, 43.71994, -1544.0604248046875], [-125.14447, 43.72278, -2378.62646484375]]], [[[-125.15075, 43.67847, -4838.55859375], [-125.14532, 43.67275, -5663.5654296875], [-125.14339, 43.68275, -5685.3359375], [-125.15075, 43.67847, -4838.55859375]]], [[[-125.10264, 43.73901, -6262.708984375], [-125.10881, 43.73166, -6082.6005859375], [-125.10057, 43.73455, -6885.88525390625], [-125.10264, 43.73901, -6262.708984375]]], [[[-125.12993, 43.7347, -3087.71533203125], [-125.12717, 43.74316, -2764.364013671875], [-125.13351, 43.73937, -2246.485595703125], [-125.12993, 43.7347, -3087.71533203125]]], [[[-125.11565, 43.77835, -6369.89013671875], [-125.12067, 43.77615, -5664.08349609375], [-125.11436, 43.77122, -6310.57861328125], [-125.11565, 43.77835, -6369.89013671875]]], [[[-125.14104, 43.79341, -2607.755859375], [-125.13691, 43.79586, -3297.618896484375], [-125.1438, 43.8023, -2915.417724609375], [-125.14104, 43.79341, -2607.755859375]]], [[[-125.11392, 43.76315, -5604.1513671875], [-125.11471, 43.75937, -4949.90966796875], [-125.10936, 43.75713, -5467.134765625], [-125.11392, 43.76315, -5604.1513671875]]], [[[-125.13351, 43.73937, -2246.485595703125], [-125.13651, 43.74318, -1555.523681640625], [-125.14133, 43.73556, -1547.5328369140625], [-125.13351, 43.73937, -2246.485595703125]]], [[[-125.11824, 43.79352, -5741.689453125], [-125.1256, 43.80105, -5354.0517578125], [-125.1246, 43.79359, -4870.7412109375], [-125.11824, 43.79352, -5741.689453125]]], [[[-125.12067, 43.77615, -5664.08349609375], [-125.11565, 43.77835, -6369.89013671875], [-125.11833, 43.78527, -5971.99755859375], [-125.12067, 43.77615, -5664.08349609375]]], [[[-125.11461, 43.78377, -6531.97509765625], [-125.11137, 43.78375, -6958.0126953125], [-125.11292, 43.78964, -6478.98388671875], [-125.11461, 43.78377, -6531.97509765625]]], [[[-125.14006, 43.76661, -2361.7255859375], [-125.13256, 43.76268, -2862.06689453125], [-125.13578, 43.77009, -3267.801025390625], [-125.14006, 43.76661, -2361.7255859375]]], [[[-125.14547, 43.78863, -2248.735107421875], [-125.1454, 43.7811, -2397.281982421875], [-125.13776, 43.78723, -3327.07861328125], [-125.14547, 43.78863, -2248.735107421875]]], [[[-125.14006, 43.76661, -2361.7255859375], [-125.13578, 43.77009, -3267.801025390625], [-125.14404, 43.7731, -2333.76806640625], [-125.14006, 43.76661, -2361.7255859375]]], [[[-125.09857, 43.74528, -6473.87451171875], [-125.09586, 43.74152, -6946.296875], [-125.09416, 43.74786, -6980.6455078125], [-125.09857, 43.74528, -6473.87451171875]]], [[[-125.1287, 43.76413, -3627.820068359375], [-125.13256, 43.76268, -2862.06689453125], [-125.1261, 43.75764, -3157.88671875], [-125.1287, 43.76413, -3627.820068359375]]], [[[-125.14006, 43.76661, -2361.7255859375], [-125.14404, 43.7731, -2333.76806640625], [-125.14757, 43.76915, -1570.520263671875], [-125.14006, 43.76661, -2361.7255859375]]], [[[-125.14006, 43.76661, -2361.7255859375], [-125.14757, 43.76915, -1570.520263671875], [-125.14142, 43.76242, -1553.540771484375], [-125.14006, 43.76661, -2361.7255859375]]], [[[-125.11461, 43.78377, -6531.97509765625], [-125.11833, 43.78527, -5971.99755859375], [-125.11565, 43.77835, -6369.89013671875], [-125.11461, 43.78377, -6531.97509765625]]], [[[-125.13423, 43.75916, -2170.361328125], [-125.13618, 43.7559, -1553.4261474609375], [-125.13014, 43.75275, -2075.756103515625], [-125.13423, 43.75916, -2170.361328125]]], [[[-125.12105, 43.75883, -3995.494873046875], [-125.11585, 43.75439, -4264.39013671875], [-125.11471, 43.75937, -4949.90966796875], [-125.12105, 43.75883, -3995.494873046875]]], [[[-125.14404, 43.7731, -2333.76806640625], [-125.15107, 43.77663, -1572.1270751953125], [-125.14757, 43.76915, -1570.520263671875], [-125.14404, 43.7731, -2333.76806640625]]], [[[-125.14248, 43.71742, -3242.001708984375], [-125.15187, 43.71522, -2402.32666015625], [-125.15032, 43.70987, -3299.029541015625], [-125.14248, 43.71742, -3242.001708984375]]], [[[-125.12491, 43.75274, -2811.63916015625], [-125.1261, 43.75764, -3157.88671875], [-125.12921, 43.75616, -2563.107177734375], [-125.12491, 43.75274, -2811.63916015625]]], [[[-125.13691, 43.79586, -3297.618896484375], [-125.13776, 43.78723, -3327.07861328125], [-125.13095, 43.794, -4018.491943359375], [-125.13691, 43.79586, -3297.618896484375]]], [[[-125.14505, 43.66489, -5786.6025390625], [-125.15107, 43.66853, -4970.85888671875], [-125.14644, 43.65868, -5541.37353515625], [-125.14505, 43.66489, -5786.6025390625]]], [[[-125.13953, 43.77777, -3143.6875], [-125.1454, 43.7811, -2397.281982421875], [-125.14404, 43.7731, -2333.76806640625], [-125.13953, 43.77777, -3143.6875]]], [[[-125.12498, 43.73062, -4120.90185546875], [-125.13551, 43.72583, -3242.923583984375], [-125.1324, 43.72099, -4094.2626953125], [-125.12498, 43.73062, -4120.90185546875]]], [[[-125.12974, 43.7862, -4430.55859375], [-125.13095, 43.794, -4018.491943359375], [-125.13776, 43.78723, -3327.07861328125], [-125.12974, 43.7862, -4430.55859375]]], [[[-125.11436, 43.77122, -6310.57861328125], [-125.11835, 43.76875, -5586.7470703125], [-125.11392, 43.76315, -5604.1513671875], [-125.11436, 43.77122, -6310.57861328125]]], [[[-125.15222, 43.69453, -4054.101318359375], [-125.14782, 43.70389, -4217.33935546875], [-125.15513, 43.70254, -3317.1396484375], [-125.15222, 43.69453, -4054.101318359375]]], [[[-125.13953, 43.77777, -3143.6875], [-125.13776, 43.78723, -3327.07861328125], [-125.1454, 43.7811, -2397.281982421875], [-125.13953, 43.77777, -3143.6875]]], [[[-125.1324, 43.72099, -4094.2626953125], [-125.13551, 43.72583, -3242.923583984375], [-125.14248, 43.71742, -3242.001708984375], [-125.1324, 43.72099, -4094.2626953125]]], [[[-125.15411, 43.65997, -4543.2470703125], [-125.16002, 43.66038, -3747.25390625], [-125.15455, 43.6518, -4095.655517578125], [-125.15411, 43.65997, -4543.2470703125]]], [[[-125.13379, 43.7794, -3938.372314453125], [-125.13776, 43.78723, -3327.07861328125], [-125.13953, 43.77777, -3143.6875], [-125.13379, 43.7794, -3938.372314453125]]], [[[-125.12713, 43.77845, -4823.85888671875], [-125.12974, 43.7862, -4430.55859375], [-125.13379, 43.7794, -3938.372314453125], [-125.12713, 43.77845, -4823.85888671875]]], [[[-125.14547, 43.78863, -2248.735107421875], [-125.15198, 43.78482, -1560.3759765625], [-125.1454, 43.7811, -2397.281982421875], [-125.14547, 43.78863, -2248.735107421875]]], [[[-125.12306, 43.78554, -5338.3466796875], [-125.1246, 43.79359, -4870.7412109375], [-125.12974, 43.7862, -4430.55859375], [-125.12306, 43.78554, -5338.3466796875]]], [[[-125.12306, 43.78554, -5338.3466796875], [-125.11824, 43.79352, -5741.689453125], [-125.1246, 43.79359, -4870.7412109375], [-125.12306, 43.78554, -5338.3466796875]]], [[[-125.16051, 43.68704, -3292.69677734375], [-125.16553, 43.69207, -2414.281982421875], [-125.16793, 43.68353, -2416.76806640625], [-125.16051, 43.68704, -3292.69677734375]]], [[[-125.12259, 43.74789, -3216.70458984375], [-125.12717, 43.74316, -2764.364013671875], [-125.12251, 43.74041, -3584.72900390625], [-125.12259, 43.74789, -3216.70458984375]]], [[[-125.11833, 43.78527, -5971.99755859375], [-125.11461, 43.78377, -6531.97509765625], [-125.11292, 43.78964, -6478.98388671875], [-125.11833, 43.78527, -5971.99755859375]]], [[[-125.14339, 43.68275, -5685.3359375], [-125.13876, 43.67706, -6465.69580078125], [-125.13646, 43.68584, -6506.9130859375], [-125.14339, 43.68275, -5685.3359375]]], [[[-125.11392, 43.76315, -5604.1513671875], [-125.10936, 43.75713, -5467.134765625], [-125.10701, 43.76047, -6202.2255859375], [-125.11392, 43.76315, -5604.1513671875]]], [[[-125.16269, 43.70065, -2409.5654296875], [-125.15866, 43.69514, -3181.922119140625], [-125.15513, 43.70254, -3317.1396484375], [-125.16269, 43.70065, -2409.5654296875]]], [[[-125.13153, 43.71517, -4945.013671875], [-125.12275, 43.71664, -5817.9970703125], [-125.12375, 43.72326, -4991.6591796875], [-125.13153, 43.71517, -4945.013671875]]], [[[-125.11916, 43.76417, -5000.7958984375], [-125.12445, 43.77082, -4886.611328125], [-125.12328, 43.76426, -4423.55224609375], [-125.11916, 43.76417, -5000.7958984375]]], [[[-125.12105, 43.75883, -3995.494873046875], [-125.12001, 43.75292, -3522.437255859375], [-125.11585, 43.75439, -4264.39013671875], [-125.12105, 43.75883, -3995.494873046875]]], [[[-125.12105, 43.75883, -3995.494873046875], [-125.1261, 43.75764, -3157.88671875], [-125.12001, 43.75292, -3522.437255859375], [-125.12105, 43.75883, -3995.494873046875]]], [[[-125.09857, 43.74528, -6473.87451171875], [-125.10264, 43.73901, -6262.708984375], [-125.09586, 43.74152, -6946.296875], [-125.09857, 43.74528, -6473.87451171875]]], [[[-125.12328, 43.76426, -4423.55224609375], [-125.12445, 43.77082, -4886.611328125], [-125.13009, 43.77128, -4138.4912109375], [-125.12328, 43.76426, -4423.55224609375]]], [[[-125.10936, 43.75713, -5467.134765625], [-125.10975, 43.75247, -4922.82373046875], [-125.10394, 43.75194, -5687.97802734375], [-125.10936, 43.75713, -5467.134765625]]], [[[-125.13009, 43.77128, -4138.4912109375], [-125.12713, 43.77845, -4823.85888671875], [-125.13379, 43.7794, -3938.372314453125], [-125.13009, 43.77128, -4138.4912109375]]], [[[-125.13379, 43.7794, -3938.372314453125], [-125.13578, 43.77009, -3267.801025390625], [-125.13009, 43.77128, -4138.4912109375], [-125.13379, 43.7794, -3938.372314453125]]], [[[-125.11619, 43.7389, -4521.27978515625], [-125.12498, 43.73062, -4120.90185546875], [-125.11633, 43.73103, -5184.35498046875], [-125.11619, 43.7389, -4521.27978515625]]], [[[-125.13009, 43.77128, -4138.4912109375], [-125.13578, 43.77009, -3267.801025390625], [-125.1287, 43.76413, -3627.820068359375], [-125.13009, 43.77128, -4138.4912109375]]], [[[-125.1454, 43.7811, -2397.281982421875], [-125.15198, 43.78482, -1560.3759765625], [-125.15107, 43.77663, -1572.1270751953125], [-125.1454, 43.7811, -2397.281982421875]]], [[[-125.12259, 43.74789, -3216.70458984375], [-125.12001, 43.75292, -3522.437255859375], [-125.12491, 43.75274, -2811.63916015625], [-125.12259, 43.74789, -3216.70458984375]]], [[[-125.12747, 43.74926, -2530.037353515625], [-125.12717, 43.74316, -2764.364013671875], [-125.12259, 43.74789, -3216.70458984375], [-125.12747, 43.74926, -2530.037353515625]]], [[[-125.11619, 43.7389, -4521.27978515625], [-125.11633, 43.73103, -5184.35498046875], [-125.10933, 43.73822, -5462.0224609375], [-125.11619, 43.7389, -4521.27978515625]]], [[[-125.15772, 43.67793, -3932.49267578125], [-125.1567, 43.66914, -4205.6201171875], [-125.15075, 43.67847, -4838.55859375], [-125.15772, 43.67793, -3932.49267578125]]], [[[-125.12747, 43.74926, -2530.037353515625], [-125.13139, 43.74609, -2105.7333984375], [-125.12717, 43.74316, -2764.364013671875], [-125.12747, 43.74926, -2530.037353515625]]], [[[-125.14104, 43.79341, -2607.755859375], [-125.14547, 43.78863, -2248.735107421875], [-125.13776, 43.78723, -3327.07861328125], [-125.14104, 43.79341, -2607.755859375]]], [[[-125.12717, 43.74316, -2764.364013671875], [-125.13139, 43.74609, -2105.7333984375], [-125.13351, 43.73937, -2246.485595703125], [-125.12717, 43.74316, -2764.364013671875]]], [[[-125.16002, 43.66038, -3747.25390625], [-125.1607, 43.6522, -3270.341796875], [-125.15455, 43.6518, -4095.655517578125], [-125.16002, 43.66038, -3747.25390625]]], [[[-125.15222, 43.69453, -4054.101318359375], [-125.15866, 43.69514, -3181.922119140625], [-125.16051, 43.68704, -3292.69677734375], [-125.15222, 43.69453, -4054.101318359375]]], [[[-125.13551, 43.72583, -3242.923583984375], [-125.12993, 43.7347, -3087.71533203125], [-125.13843, 43.731, -2366.46435546875], [-125.13551, 43.72583, -3242.923583984375]]], [[[-125.13691, 43.79586, -3297.618896484375], [-125.13095, 43.794, -4018.491943359375], [-125.13777, 43.80189, -3724.14013671875], [-125.13691, 43.79586, -3297.618896484375]]], [[[-125.13694, 43.7, -5815.02490234375], [-125.13187, 43.70788, -5863.1494140625], [-125.13945, 43.70691, -5008.38916015625], [-125.13694, 43.7, -5815.02490234375]]], [[[-125.14532, 43.67275, -5663.5654296875], [-125.13995, 43.66896, -6436.79736328125], [-125.13876, 43.67706, -6465.69580078125], [-125.14532, 43.67275, -5663.5654296875]]], [[[-125.12375, 43.72326, -4991.6591796875], [-125.11599, 43.72389, -5928.64794921875], [-125.11633, 43.73103, -5184.35498046875], [-125.12375, 43.72326, -4991.6591796875]]], [[[-125.15875, 43.70809, -2425.81103515625], [-125.16269, 43.70065, -2409.5654296875], [-125.15513, 43.70254, -3317.1396484375], [-125.15875, 43.70809, -2425.81103515625]]], [[[-125.14644, 43.65868, -5541.37353515625], [-125.15411, 43.65997, -4543.2470703125], [-125.14844, 43.6514, -4914.26708984375], [-125.14644, 43.65868, -5541.37353515625]]], [[[-125.14104, 43.79341, -2607.755859375], [-125.13776, 43.78723, -3327.07861328125], [-125.13691, 43.79586, -3297.618896484375], [-125.14104, 43.79341, -2607.755859375]]], [[[-125.11394, 43.79553, -6440.8857421875], [-125.11292, 43.78964, -6478.98388671875], [-125.10861, 43.79236, -7005.4052734375], [-125.11394, 43.79553, -6440.8857421875]]], [[[-125.11292, 43.78964, -6478.98388671875], [-125.11137, 43.78375, -6958.0126953125], [-125.10861, 43.79236, -7005.4052734375], [-125.11292, 43.78964, -6478.98388671875]]], [[[-125.17138, 43.65712, -2032.8568115234375], [-125.17588, 43.66165, -1619.7015380859375], [-125.173, 43.653, -1619.7139892578125], [-125.17138, 43.65712, -2032.8568115234375]]], [[[-125.13955, 43.65662, -6395.6220703125], [-125.14644, 43.65868, -5541.37353515625], [-125.1427, 43.65102, -5684.48828125], [-125.13955, 43.65662, -6395.6220703125]]], [[[-125.14104, 43.79341, -2607.755859375], [-125.1438, 43.8023, -2915.417724609375], [-125.14928, 43.80268, -2182.138427734375], [-125.14104, 43.79341, -2607.755859375]]], [[[-125.14928, 43.80268, -2182.138427734375], [-125.154, 43.803, -1549.9200439453125], [-125.14959, 43.79222, -1539.495361328125], [-125.14928, 43.80268, -2182.138427734375]]], [[[-125.14104, 43.79341, -2607.755859375], [-125.14928, 43.80268, -2182.138427734375], [-125.14959, 43.79222, -1539.495361328125], [-125.14104, 43.79341, -2607.755859375]]], [[[-125.09732, 43.75039, -6487.99169921875], [-125.10394, 43.75194, -5687.97802734375], [-125.1035, 43.74451, -5844.125], [-125.09732, 43.75039, -6487.99169921875]]], [[[-125.09857, 43.74528, -6473.87451171875], [-125.09732, 43.75039, -6487.99169921875], [-125.1035, 43.74451, -5844.125], [-125.09857, 43.74528, -6473.87451171875]]]]}}]}