{"type": "FeatureCollection", "features": [{"type": "Feature", "properties": {"name": "AW_CORE_9", "CFM_ID": 379, "region": "Offshore_OR", "primary_state/province": "OR", "secondary_state/province": null, "avg_dip": null, "dip_dir": "E", "rake": 90, "slip_sense": "Reverse", "fault_level": 2, "NSHM23_sliprates": null, "QFFDAgeCatBin": null, "QFFDAgeBin": null, "upper_depth": null, "upper_depth_constraint": "bathymetry", "lower_depth": null, "lower_depth_constraint": "megathrust", "3D_model_constraints": "trace extended at constant dip", "reference": "Goldfinger et al. (2023)", "nshm23_id": null, "lineage": null, "usgs_qffd_#": null, "comments": null, "id": "379"}, "geometry": {"type": "MultiPolygon", "coordinates": [[[[-125.27023, 44.35468, -3161.841552734375], [-125.276, 44.35915, -2414.1162109375], [-125.2757, 44.35033, -2427.50634765625], [-125.27023, 44.35468, -3161.841552734375]]], [[[-125.25951, 44.36123, -4582.7275390625], [-125.26396, 44.35644, -3988.714599609375], [-125.25927, 44.35248, -4582.43994140625], [-125.25951, 44.36123, -4582.7275390625]]], [[[-125.26772, 44.36155, -3505.95458984375], [-125.276, 44.35915, -2414.1162109375], [-125.27023, 44.35468, -3161.841552734375], [-125.26772, 44.36155, -3505.95458984375]]], [[[-125.27051, 44.36866, -3141.5712890625], [-125.276, 44.35915, -2414.1162109375], [-125.26772, 44.36155, -3505.95458984375], [-125.27051, 44.36866, -3141.5712890625]]], [[[-125.25954, 44.36998, -4584.33984375], [-125.26503, 44.36932, -3862.95556640625], [-125.25951, 44.36123, -4582.7275390625], [-125.25954, 44.36998, -4584.33984375]]], [[[-125.26772, 44.36155, -3505.95458984375], [-125.26503, 44.36932, -3862.95556640625], [-125.27051, 44.36866, -3141.5712890625], [-125.26772, 44.36155, -3505.95458984375]]], [[[-125.25951, 44.36123, -4582.7275390625], [-125.26772, 44.36155, -3505.95458984375], [-125.26396, 44.35644, -3988.714599609375], [-125.25951, 44.36123, -4582.7275390625]]], [[[-125.26396, 44.35644, -3988.714599609375], [-125.26457, 44.34816, -3870.645263671875], [-125.25927, 44.35248, -4582.43994140625], [-125.26396, 44.35644, -3988.714599609375]]], [[[-125.26396, 44.35644, -3988.714599609375], [-125.27023, 44.35468, -3161.841552734375], [-125.26457, 44.34816, -3870.645263671875], [-125.26396, 44.35644, -3988.714599609375]]], [[[-125.25216, 44.27747, -3267.07666015625], [-125.25874, 44.28081, -2527.677490234375], [-125.2567, 44.27209, -2517.4609375], [-125.25216, 44.27747, -3267.07666015625]]], [[[-125.26396, 44.35644, -3988.714599609375], [-125.26772, 44.36155, -3505.95458984375], [-125.27023, 44.35468, -3161.841552734375], [-125.26396, 44.35644, -3988.714599609375]]], [[[-125.26976, 44.34624, -3184.99169921875], [-125.26457, 44.34816, -3870.645263671875], [-125.27023, 44.35468, -3161.841552734375], [-125.26976, 44.34624, -3184.99169921875]]], [[[-125.26457, 44.34816, -3870.645263671875], [-125.26976, 44.34624, -3184.99169921875], [-125.26341, 44.33996, -3870.3564453125], [-125.26457, 44.34816, -3870.645263671875]]], [[[-125.26457, 44.34816, -3870.645263671875], [-125.26341, 44.33996, -3870.3564453125], [-125.25852, 44.34377, -4589.44287109375], [-125.26457, 44.34816, -3870.645263671875]]], [[[-125.24966, 44.26887, -3266.675537109375], [-125.24601, 44.27633, -4016.5439453125], [-125.25216, 44.27747, -3267.07666015625], [-125.24966, 44.26887, -3266.675537109375]]], [[[-125.26457, 44.34816, -3870.645263671875], [-125.25852, 44.34377, -4589.44287109375], [-125.25927, 44.35248, -4582.43994140625], [-125.26457, 44.34816, -3870.645263671875]]], [[[-125.25697, 44.33572, -4599.14306640625], [-125.25852, 44.34377, -4589.44287109375], [-125.26341, 44.33996, -3870.3564453125], [-125.25697, 44.33572, -4599.14306640625]]], [[[-125.26825, 44.33756, -3190.43701171875], [-125.27446, 44.34156, -2498.221923828125], [-125.27276, 44.3328, -2511.0205078125], [-125.26825, 44.33756, -3190.43701171875]]], [[[-125.26233, 44.33211, -3842.452880859375], [-125.25697, 44.33572, -4599.14306640625], [-125.26341, 44.33996, -3870.3564453125], [-125.26233, 44.33211, -3842.452880859375]]], [[[-125.26233, 44.33211, -3842.452880859375], [-125.25597, 44.32906, -4606.88525390625], [-125.25697, 44.33572, -4599.14306640625], [-125.26233, 44.33211, -3842.452880859375]]], [[[-125.24966, 44.26887, -3266.675537109375], [-125.24321, 44.26775, -4032.0712890625], [-125.24601, 44.27633, -4016.5439453125], [-125.24966, 44.26887, -3266.675537109375]]], [[[-125.26052, 44.32434, -3880.330322265625], [-125.25597, 44.32906, -4606.88525390625], [-125.26233, 44.33211, -3842.452880859375], [-125.26052, 44.32434, -3880.330322265625]]], [[[-125.23757, 44.25059, -4082.677734375], [-125.2302, 44.24822, -4897.732421875], [-125.23377, 44.25657, -4854.2978515625], [-125.23757, 44.25059, -4082.677734375]]], [[[-125.23569, 44.23714, -3720.526611328125], [-125.23651, 44.2298, -3284.392333984375], [-125.23002, 44.2306, -4137.56787109375], [-125.23569, 44.23714, -3720.526611328125]]], [[[-125.26052, 44.32434, -3880.330322265625], [-125.25447, 44.32354, -4618.77099609375], [-125.25597, 44.32906, -4606.88525390625], [-125.26052, 44.32434, -3880.330322265625]]], [[[-125.26052, 44.32434, -3880.330322265625], [-125.25845, 44.31606, -3861.319580078125], [-125.25447, 44.32354, -4618.77099609375], [-125.26052, 44.32434, -3880.330322265625]]], [[[-125.26052, 44.32434, -3880.330322265625], [-125.26691, 44.32862, -3188.293212890625], [-125.26483, 44.32015, -3192.220947265625], [-125.26052, 44.32434, -3880.330322265625]]], [[[-125.25845, 44.31606, -3861.319580078125], [-125.26052, 44.32434, -3880.330322265625], [-125.26483, 44.32015, -3192.220947265625], [-125.25845, 44.31606, -3861.319580078125]]], [[[-125.25845, 44.31606, -3861.319580078125], [-125.26483, 44.32015, -3192.220947265625], [-125.26284, 44.31194, -3154.779541015625], [-125.25845, 44.31606, -3861.319580078125]]], [[[-125.25845, 44.31606, -3861.319580078125], [-125.26284, 44.31194, -3154.779541015625], [-125.25637, 44.30907, -3871.599609375], [-125.25845, 44.31606, -3861.319580078125]]], [[[-125.25845, 44.31606, -3861.319580078125], [-125.25637, 44.30907, -3871.599609375], [-125.25153, 44.31338, -4642.998046875], [-125.25845, 44.31606, -3861.319580078125]]], [[[-125.26035, 44.30329, -3215.07177734375], [-125.26284, 44.31194, -3154.779541015625], [-125.26671, 44.3067, -2487.03076171875], [-125.26035, 44.30329, -3215.07177734375]]], [[[-125.25845, 44.31606, -3861.319580078125], [-125.25153, 44.31338, -4642.998046875], [-125.25315, 44.31867, -4629.37890625], [-125.25845, 44.31606, -3861.319580078125]]], [[[-125.276, 44.368, -2420.18701171875], [-125.276, 44.35915, -2414.1162109375], [-125.27051, 44.36866, -3141.5712890625], [-125.276, 44.368, -2420.18701171875]]], [[[-125.25756, 44.29486, -3256.938720703125], [-125.25428, 44.3015, -3948.409423828125], [-125.26035, 44.30329, -3215.07177734375], [-125.25756, 44.29486, -3256.938720703125]]], [[[-125.25315, 44.31867, -4629.37890625], [-125.25447, 44.32354, -4618.77099609375], [-125.25845, 44.31606, -3861.319580078125], [-125.25315, 44.31867, -4629.37890625]]], [[[-125.24987, 44.30722, -4658.193359375], [-125.25153, 44.31338, -4642.998046875], [-125.25637, 44.30907, -3871.599609375], [-125.24987, 44.30722, -4658.193359375]]], [[[-125.23002, 44.2306, -4137.56787109375], [-125.22847, 44.2352, -4540.64111328125], [-125.23569, 44.23714, -3720.526611328125], [-125.23002, 44.2306, -4137.56787109375]]], [[[-125.25428, 44.3015, -3948.409423828125], [-125.24987, 44.30722, -4658.193359375], [-125.25637, 44.30907, -3871.599609375], [-125.25428, 44.3015, -3948.409423828125]]], [[[-125.25428, 44.3015, -3948.409423828125], [-125.2477, 44.29911, -4681.78466796875], [-125.24987, 44.30722, -4658.193359375], [-125.25428, 44.3015, -3948.409423828125]]], [[[-125.25134, 44.29329, -3965.977783203125], [-125.2477, 44.29911, -4681.78466796875], [-125.25428, 44.3015, -3948.409423828125], [-125.25134, 44.29329, -3965.977783203125]]], [[[-125.25134, 44.29329, -3965.977783203125], [-125.24456, 44.29066, -4712.86376953125], [-125.2477, 44.29911, -4681.78466796875], [-125.25134, 44.29329, -3965.977783203125]]], [[[-125.26691, 44.32862, -3188.293212890625], [-125.26825, 44.33756, -3190.43701171875], [-125.27276, 44.3328, -2511.0205078125], [-125.26691, 44.32862, -3188.293212890625]]], [[[-125.24842, 44.28491, -3985.129638671875], [-125.24456, 44.29066, -4712.86376953125], [-125.25134, 44.29329, -3965.977783203125], [-125.24842, 44.28491, -3985.129638671875]]], [[[-125.24842, 44.28491, -3985.129638671875], [-125.24166, 44.28217, -4743.73095703125], [-125.24456, 44.29066, -4712.86376953125], [-125.24842, 44.28491, -3985.129638671875]]], [[[-125.24842, 44.28491, -3985.129638671875], [-125.24601, 44.27633, -4016.5439453125], [-125.24166, 44.28217, -4743.73095703125], [-125.24842, 44.28491, -3985.129638671875]]], [[[-125.26052, 44.32434, -3880.330322265625], [-125.26233, 44.33211, -3842.452880859375], [-125.26691, 44.32862, -3188.293212890625], [-125.26052, 44.32434, -3880.330322265625]]], [[[-125.26483, 44.32015, -3192.220947265625], [-125.26691, 44.32862, -3188.293212890625], [-125.27156, 44.32401, -2472.201416015625], [-125.26483, 44.32015, -3192.220947265625]]], [[[-125.24842, 44.28491, -3985.129638671875], [-125.25216, 44.27747, -3267.07666015625], [-125.24601, 44.27633, -4016.5439453125], [-125.24842, 44.28491, -3985.129638671875]]], [[[-125.26483, 44.32015, -3192.220947265625], [-125.27156, 44.32401, -2472.201416015625], [-125.26944, 44.31531, -2439.404052734375], [-125.26483, 44.32015, -3192.220947265625]]], [[[-125.24842, 44.28491, -3985.129638671875], [-125.25459, 44.28616, -3260.107177734375], [-125.25216, 44.27747, -3267.07666015625], [-125.24842, 44.28491, -3985.129638671875]]], [[[-125.24842, 44.28491, -3985.129638671875], [-125.25134, 44.29329, -3965.977783203125], [-125.25459, 44.28616, -3260.107177734375], [-125.24842, 44.28491, -3985.129638671875]]], [[[-125.25459, 44.28616, -3260.107177734375], [-125.25134, 44.29329, -3965.977783203125], [-125.25756, 44.29486, -3256.938720703125], [-125.25459, 44.28616, -3260.107177734375]]], [[[-125.25459, 44.28616, -3260.107177734375], [-125.25756, 44.29486, -3256.938720703125], [-125.26148, 44.28943, -2528.456787109375], [-125.25459, 44.28616, -3260.107177734375]]], [[[-125.25459, 44.28616, -3260.107177734375], [-125.26148, 44.28943, -2528.456787109375], [-125.25874, 44.28081, -2527.677490234375], [-125.25459, 44.28616, -3260.107177734375]]], [[[-125.25459, 44.28616, -3260.107177734375], [-125.25874, 44.28081, -2527.677490234375], [-125.25216, 44.27747, -3267.07666015625], [-125.25459, 44.28616, -3260.107177734375]]], [[[-125.24966, 44.26887, -3266.675537109375], [-125.25216, 44.27747, -3267.07666015625], [-125.2567, 44.27209, -2517.4609375], [-125.24966, 44.26887, -3266.675537109375]]], [[[-125.24716, 44.26025, -3272.3857421875], [-125.24321, 44.26775, -4032.0712890625], [-125.24966, 44.26887, -3266.675537109375], [-125.24716, 44.26025, -3272.3857421875]]], [[[-125.243, 44.229, -2431.217041015625], [-125.23651, 44.2298, -3284.392333984375], [-125.24081, 44.23477, -2969.113525390625], [-125.243, 44.229, -2431.217041015625]]], [[[-125.24716, 44.26025, -3272.3857421875], [-125.24069, 44.25914, -4062.647705078125], [-125.24321, 44.26775, -4032.0712890625], [-125.24716, 44.26025, -3272.3857421875]]], [[[-125.24454, 44.25179, -3270.28076171875], [-125.24069, 44.25914, -4062.647705078125], [-125.24716, 44.26025, -3272.3857421875], [-125.24454, 44.25179, -3270.28076171875]]], [[[-125.24454, 44.25179, -3270.28076171875], [-125.23757, 44.25059, -4082.677734375], [-125.24069, 44.25914, -4062.647705078125], [-125.24454, 44.25179, -3270.28076171875]]], [[[-125.24454, 44.25179, -3270.28076171875], [-125.24144, 44.24335, -3270.655517578125], [-125.23757, 44.25059, -4082.677734375], [-125.24454, 44.25179, -3270.28076171875]]], [[[-125.24144, 44.24335, -3270.655517578125], [-125.24454, 44.25179, -3270.28076171875], [-125.24873, 44.2462, -2474.0341796875], [-125.24144, 44.24335, -3270.655517578125]]], [[[-125.24069, 44.25914, -4062.647705078125], [-125.23621, 44.26514, -4815.68212890625], [-125.24321, 44.26775, -4032.0712890625], [-125.24069, 44.25914, -4062.647705078125]]], [[[-125.24144, 44.24335, -3270.655517578125], [-125.24873, 44.2462, -2474.0341796875], [-125.24587, 44.2376, -2462.212890625], [-125.24144, 44.24335, -3270.655517578125]]], [[[-125.24081, 44.23477, -2969.113525390625], [-125.24144, 44.24335, -3270.655517578125], [-125.24587, 44.2376, -2462.212890625], [-125.24081, 44.23477, -2969.113525390625]]], [[[-125.24454, 44.25179, -3270.28076171875], [-125.24716, 44.26025, -3272.3857421875], [-125.25191, 44.25475, -2495.56494140625], [-125.24454, 44.25179, -3270.28076171875]]], [[[-125.24081, 44.23477, -2969.113525390625], [-125.23569, 44.23714, -3720.526611328125], [-125.24144, 44.24335, -3270.655517578125], [-125.24081, 44.23477, -2969.113525390625]]], [[[-125.23569, 44.23714, -3720.526611328125], [-125.24081, 44.23477, -2969.113525390625], [-125.23651, 44.2298, -3284.392333984375], [-125.23569, 44.23714, -3720.526611328125]]], [[[-125.22353, 44.23141, -4990.7431640625], [-125.22847, 44.2352, -4540.64111328125], [-125.23002, 44.2306, -4137.56787109375], [-125.22353, 44.23141, -4990.7431640625]]], [[[-125.22353, 44.23141, -4990.7431640625], [-125.22692, 44.2398, -4944.0478515625], [-125.22847, 44.2352, -4540.64111328125], [-125.22353, 44.23141, -4990.7431640625]]], [[[-125.23393, 44.2426, -4184.927734375], [-125.22847, 44.2352, -4540.64111328125], [-125.22692, 44.2398, -4944.0478515625], [-125.23393, 44.2426, -4184.927734375]]], [[[-125.23393, 44.2426, -4184.927734375], [-125.23569, 44.23714, -3720.526611328125], [-125.22847, 44.2352, -4540.64111328125], [-125.23393, 44.2426, -4184.927734375]]], [[[-125.23569, 44.23714, -3720.526611328125], [-125.23393, 44.2426, -4184.927734375], [-125.24144, 44.24335, -3270.655517578125], [-125.23569, 44.23714, -3720.526611328125]]], [[[-125.24144, 44.24335, -3270.655517578125], [-125.23393, 44.2426, -4184.927734375], [-125.23757, 44.25059, -4082.677734375], [-125.24144, 44.24335, -3270.655517578125]]], [[[-125.23393, 44.2426, -4184.927734375], [-125.2302, 44.24822, -4897.732421875], [-125.23757, 44.25059, -4082.677734375], [-125.23393, 44.2426, -4184.927734375]]], [[[-125.23393, 44.2426, -4184.927734375], [-125.22692, 44.2398, -4944.0478515625], [-125.2302, 44.24822, -4897.732421875], [-125.23393, 44.2426, -4184.927734375]]], [[[-125.23757, 44.25059, -4082.677734375], [-125.23377, 44.25657, -4854.2978515625], [-125.24069, 44.25914, -4062.647705078125], [-125.23757, 44.25059, -4082.677734375]]], [[[-125.24069, 44.25914, -4062.647705078125], [-125.23377, 44.25657, -4854.2978515625], [-125.23621, 44.26514, -4815.68212890625], [-125.24069, 44.25914, -4062.647705078125]]], [[[-125.24321, 44.26775, -4032.0712890625], [-125.23621, 44.26514, -4815.68212890625], [-125.23925, 44.2736, -4778.6376953125], [-125.24321, 44.26775, -4032.0712890625]]], [[[-125.24321, 44.26775, -4032.0712890625], [-125.23925, 44.2736, -4778.6376953125], [-125.24601, 44.27633, -4016.5439453125], [-125.24321, 44.26775, -4032.0712890625]]], [[[-125.23925, 44.2736, -4778.6376953125], [-125.24166, 44.28217, -4743.73095703125], [-125.24601, 44.27633, -4016.5439453125], [-125.23925, 44.2736, -4778.6376953125]]], [[[-125.26503, 44.36932, -3862.95556640625], [-125.26772, 44.36155, -3505.95458984375], [-125.25951, 44.36123, -4582.7275390625], [-125.26503, 44.36932, -3862.95556640625]]], [[[-125.243, 44.229, -2431.217041015625], [-125.24081, 44.23477, -2969.113525390625], [-125.24587, 44.2376, -2462.212890625], [-125.243, 44.229, -2431.217041015625]]], [[[-125.24454, 44.25179, -3270.28076171875], [-125.25191, 44.25475, -2495.56494140625], [-125.24873, 44.2462, -2474.0341796875], [-125.24454, 44.25179, -3270.28076171875]]], [[[-125.24716, 44.26025, -3272.3857421875], [-125.25388, 44.26348, -2513.33203125], [-125.25191, 44.25475, -2495.56494140625], [-125.24716, 44.26025, -3272.3857421875]]], [[[-125.24716, 44.26025, -3272.3857421875], [-125.24966, 44.26887, -3266.675537109375], [-125.25388, 44.26348, -2513.33203125], [-125.24716, 44.26025, -3272.3857421875]]], [[[-125.24966, 44.26887, -3266.675537109375], [-125.2567, 44.27209, -2517.4609375], [-125.25388, 44.26348, -2513.33203125], [-125.24966, 44.26887, -3266.675537109375]]], [[[-125.25756, 44.29486, -3256.938720703125], [-125.26462, 44.29799, -2513.20751953125], [-125.26148, 44.28943, -2528.456787109375], [-125.25756, 44.29486, -3256.938720703125]]], [[[-125.25756, 44.29486, -3256.938720703125], [-125.26035, 44.30329, -3215.07177734375], [-125.26462, 44.29799, -2513.20751953125], [-125.25756, 44.29486, -3256.938720703125]]], [[[-125.25756, 44.29486, -3256.938720703125], [-125.25134, 44.29329, -3965.977783203125], [-125.25428, 44.3015, -3948.409423828125], [-125.25756, 44.29486, -3256.938720703125]]], [[[-125.26035, 44.30329, -3215.07177734375], [-125.25428, 44.3015, -3948.409423828125], [-125.25637, 44.30907, -3871.599609375], [-125.26035, 44.30329, -3215.07177734375]]], [[[-125.26035, 44.30329, -3215.07177734375], [-125.25637, 44.30907, -3871.599609375], [-125.26284, 44.31194, -3154.779541015625], [-125.26035, 44.30329, -3215.07177734375]]], [[[-125.26035, 44.30329, -3215.07177734375], [-125.26671, 44.3067, -2487.03076171875], [-125.26462, 44.29799, -2513.20751953125], [-125.26035, 44.30329, -3215.07177734375]]], [[[-125.26284, 44.31194, -3154.779541015625], [-125.26944, 44.31531, -2439.404052734375], [-125.26671, 44.3067, -2487.03076171875], [-125.26284, 44.31194, -3154.779541015625]]], [[[-125.26284, 44.31194, -3154.779541015625], [-125.26483, 44.32015, -3192.220947265625], [-125.26944, 44.31531, -2439.404052734375], [-125.26284, 44.31194, -3154.779541015625]]], [[[-125.26233, 44.33211, -3842.452880859375], [-125.26825, 44.33756, -3190.43701171875], [-125.26691, 44.32862, -3188.293212890625], [-125.26233, 44.33211, -3842.452880859375]]], [[[-125.26825, 44.33756, -3190.43701171875], [-125.26233, 44.33211, -3842.452880859375], [-125.26341, 44.33996, -3870.3564453125], [-125.26825, 44.33756, -3190.43701171875]]], [[[-125.26976, 44.34624, -3184.99169921875], [-125.26825, 44.33756, -3190.43701171875], [-125.26341, 44.33996, -3870.3564453125], [-125.26976, 44.34624, -3184.99169921875]]], [[[-125.26825, 44.33756, -3190.43701171875], [-125.26976, 44.34624, -3184.99169921875], [-125.27446, 44.34156, -2498.221923828125], [-125.26825, 44.33756, -3190.43701171875]]], [[[-125.26691, 44.32862, -3188.293212890625], [-125.27276, 44.3328, -2511.0205078125], [-125.27156, 44.32401, -2472.201416015625], [-125.26691, 44.32862, -3188.293212890625]]], [[[-125.26976, 44.34624, -3184.99169921875], [-125.2757, 44.35033, -2427.50634765625], [-125.27446, 44.34156, -2498.221923828125], [-125.26976, 44.34624, -3184.99169921875]]], [[[-125.26976, 44.34624, -3184.99169921875], [-125.27023, 44.35468, -3161.841552734375], [-125.2757, 44.35033, -2427.50634765625], [-125.26976, 44.34624, -3184.99169921875]]]]}}]}