{"type": "FeatureCollection", "features": [{"type": "Feature", "properties": {"name": "AW_NORE_27", "CFM_ID": 380, "region": "Offshore_OR", "primary_state/province": "OR", "secondary_state/province": null, "avg_dip": null, "dip_dir": "W", "rake": 90, "slip_sense": "Reverse", "fault_level": 2, "NSHM23_sliprates": null, "QFFDAgeCatBin": null, "QFFDAgeBin": null, "upper_depth": null, "upper_depth_constraint": "bathymetry", "lower_depth": null, "lower_depth_constraint": "megathrust", "3D_model_constraints": "trace extended at constant dip", "reference": "Goldfinger et al. (2023)", "nshm23_id": null, "lineage": null, "usgs_qffd_#": null, "comments": null, "id": "380"}, "geometry": {"type": "MultiPolygon", "coordinates": [[[[-125.343, 45.099, -1944.7550048828125], [-125.34876, 45.09789, -2715.830078125], [-125.33877, 45.09054, -1982.470458984375], [-125.343, 45.099, -1944.7550048828125]]], [[[-125.35982, 45.08786, -4709.38671875], [-125.36028, 45.09568, -4257.98046875], [-125.36604, 45.09457, -5029.0556640625], [-125.35982, 45.08786, -4709.38671875]]], [[[-125.32624, 45.04585, -3432.015869140625], [-125.31857, 45.04405, -2633.802734375], [-125.3226, 45.05151, -2685.763427734375], [-125.32624, 45.04585, -3432.015869140625]]], [[[-125.35356, 45.08859, -3902.34130859375], [-125.36028, 45.09568, -4257.98046875], [-125.35982, 45.08786, -4709.38671875], [-125.35356, 45.08859, -3902.34130859375]]], [[[-125.34837, 45.07236, -4218.87109375], [-125.35564, 45.07427, -5015.138671875], [-125.35168, 45.06623, -5005.1162109375], [-125.34837, 45.07236, -4218.87109375]]], [[[-125.35356, 45.08859, -3902.34130859375], [-125.35452, 45.09678, -3486.9052734375], [-125.36028, 45.09568, -4257.98046875], [-125.35356, 45.08859, -3902.34130859375]]], [[[-125.3474, 45.09, -3064.34228515625], [-125.35452, 45.09678, -3486.9052734375], [-125.35356, 45.08859, -3902.34130859375], [-125.3474, 45.09, -3064.34228515625]]], [[[-125.3474, 45.09, -3064.34228515625], [-125.34876, 45.09789, -2715.830078125], [-125.35452, 45.09678, -3486.9052734375], [-125.3474, 45.09, -3064.34228515625]]], [[[-125.34167, 45.0847, -2705.364501953125], [-125.33877, 45.09054, -1982.470458984375], [-125.3474, 45.09, -3064.34228515625], [-125.34167, 45.0847, -2705.364501953125]]], [[[-125.31821, 45.03066, -3496.086181640625], [-125.31155, 45.02706, -2762.708984375], [-125.31481, 45.03605, -2725.42626953125], [-125.31821, 45.03066, -3496.086181640625]]], [[[-125.33877, 45.09054, -1982.470458984375], [-125.34167, 45.0847, -2705.364501953125], [-125.33458, 45.08206, -2000.7403564453125], [-125.33877, 45.09054, -1982.470458984375]]], [[[-125.33821, 45.07646, -2746.518798828125], [-125.33458, 45.08206, -2000.7403564453125], [-125.34167, 45.0847, -2705.364501953125], [-125.33821, 45.07646, -2746.518798828125]]], [[[-125.33362, 45.04803, -4231.685546875], [-125.34078, 45.05045, -5012.1904296875], [-125.33709, 45.04246, -4981.8896484375], [-125.33362, 45.04803, -4231.685546875]]], [[[-125.33821, 45.07646, -2746.518798828125], [-125.33069, 45.07351, -1981.396240234375], [-125.33458, 45.08206, -2000.7403564453125], [-125.33821, 45.07646, -2746.518798828125]]], [[[-125.33326, 45.06755, -2681.421875], [-125.33069, 45.07351, -1981.396240234375], [-125.33821, 45.07646, -2746.518798828125], [-125.33326, 45.06755, -2681.421875]]], [[[-125.33326, 45.06755, -2681.421875], [-125.32552, 45.06536, -1913.2177734375], [-125.33069, 45.07351, -1981.396240234375], [-125.33326, 45.06755, -2681.421875]]], [[[-125.35168, 45.06623, -5005.1162109375], [-125.35922, 45.0688, -5747.98095703125], [-125.35475, 45.06065, -5742.1171875], [-125.35168, 45.06623, -5005.1162109375]]], [[[-125.32784, 45.06013, -2720.859619140625], [-125.32552, 45.06536, -1913.2177734375], [-125.33326, 45.06755, -2681.421875], [-125.32784, 45.06013, -2720.859619140625]]], [[[-125.32784, 45.06013, -2720.859619140625], [-125.31971, 45.05749, -2041.2772216796875], [-125.32552, 45.06536, -1913.2177734375], [-125.32784, 45.06013, -2720.859619140625]]], [[[-125.3226, 45.05151, -2685.763427734375], [-125.31971, 45.05749, -2041.2772216796875], [-125.32784, 45.06013, -2720.859619140625], [-125.3226, 45.05151, -2685.763427734375]]], [[[-125.32974, 45.05412, -3456.62890625], [-125.33825, 45.05656, -4274.08056640625], [-125.33362, 45.04803, -4231.685546875], [-125.32974, 45.05412, -3456.62890625]]], [[[-125.3226, 45.05151, -2685.763427734375], [-125.31515, 45.04927, -1859.0009765625], [-125.31971, 45.05749, -2041.2772216796875], [-125.3226, 45.05151, -2685.763427734375]]], [[[-125.3222, 45.03863, -3449.77783203125], [-125.32489, 45.03196, -4217.22607421875], [-125.31821, 45.03066, -3496.086181640625], [-125.3222, 45.03863, -3449.77783203125]]], [[[-125.31857, 45.04405, -2633.802734375], [-125.31515, 45.04927, -1859.0009765625], [-125.3226, 45.05151, -2685.763427734375], [-125.31857, 45.04405, -2633.802734375]]], [[[-125.32624, 45.04585, -3432.015869140625], [-125.3222, 45.03863, -3449.77783203125], [-125.31857, 45.04405, -2633.802734375], [-125.32624, 45.04585, -3432.015869140625]]], [[[-125.301, 44.988, -2049.553955078125], [-125.30391, 44.99674, -2008.123046875], [-125.30616, 44.98702, -2740.468505859375], [-125.301, 44.988, -2049.553955078125]]], [[[-125.31857, 45.04405, -2633.802734375], [-125.31093, 45.04084, -1937.4344482421875], [-125.31515, 45.04927, -1859.0009765625], [-125.31857, 45.04405, -2633.802734375]]], [[[-125.3222, 45.03863, -3449.77783203125], [-125.32949, 45.04021, -4223.8525390625], [-125.32489, 45.03196, -4217.22607421875], [-125.3222, 45.03863, -3449.77783203125]]], [[[-125.31481, 45.03605, -2725.42626953125], [-125.31093, 45.04084, -1937.4344482421875], [-125.31857, 45.04405, -2633.802734375], [-125.31481, 45.03605, -2725.42626953125]]], [[[-125.33709, 45.04246, -4981.8896484375], [-125.34448, 45.04494, -5737.2041015625], [-125.33991, 45.03683, -5720.38037109375], [-125.33709, 45.04246, -4981.8896484375]]], [[[-125.31481, 45.03605, -2725.42626953125], [-125.30714, 45.03232, -2047.22021484375], [-125.31093, 45.04084, -1937.4344482421875], [-125.31481, 45.03605, -2725.42626953125]]], [[[-125.3442, 45.06425, -4225.4033203125], [-125.33825, 45.05656, -4274.08056640625], [-125.33616, 45.06216, -3453.1845703125], [-125.3442, 45.06425, -4225.4033203125]]], [[[-125.31155, 45.02706, -2762.708984375], [-125.30714, 45.03232, -2047.22021484375], [-125.31481, 45.03605, -2725.42626953125], [-125.31155, 45.02706, -2762.708984375]]], [[[-125.34118, 45.07064, -3442.69921875], [-125.34837, 45.07236, -4218.87109375], [-125.3442, 45.06425, -4225.4033203125], [-125.34118, 45.07064, -3442.69921875]]], [[[-125.31155, 45.02706, -2762.708984375], [-125.305, 45.02349, -1994.9853515625], [-125.30714, 45.03232, -2047.22021484375], [-125.31155, 45.02706, -2762.708984375]]], [[[-125.32163, 44.98409, -4813.21240234375], [-125.32901, 44.98866, -5524.1962890625], [-125.32678, 44.98311, -5504.126953125], [-125.32163, 44.98409, -4813.21240234375]]], [[[-125.31054, 45.01884, -2732.911376953125], [-125.305, 45.02349, -1994.9853515625], [-125.31155, 45.02706, -2762.708984375], [-125.31054, 45.01884, -2732.911376953125]]], [[[-125.31054, 45.01884, -2732.911376953125], [-125.30489, 45.01451, -1986.015625], [-125.305, 45.02349, -1994.9853515625], [-125.31054, 45.01884, -2732.911376953125]]], [[[-125.31054, 45.01884, -2732.911376953125], [-125.30977, 45.00984, -2781.87255859375], [-125.30489, 45.01451, -1986.015625], [-125.31054, 45.01884, -2732.911376953125]]], [[[-125.31054, 45.01884, -2732.911376953125], [-125.31566, 45.01334, -3412.78662109375], [-125.30977, 45.00984, -2781.87255859375], [-125.31054, 45.01884, -2732.911376953125]]], [[[-125.32108, 45.01531, -4144.17236328125], [-125.32604, 45.00984, -4839.8154296875], [-125.31921, 45.00776, -4055.33447265625], [-125.32108, 45.01531, -4144.17236328125]]], [[[-125.31632, 45.02216, -3500.57763671875], [-125.31566, 45.01334, -3412.78662109375], [-125.31054, 45.01884, -2732.911376953125], [-125.31632, 45.02216, -3500.57763671875]]], [[[-125.30391, 44.99674, -2008.123046875], [-125.31116, 44.99437, -3025.948486328125], [-125.30616, 44.98702, -2740.468505859375], [-125.30391, 44.99674, -2008.123046875]]], [[[-125.31632, 45.02216, -3500.57763671875], [-125.32108, 45.01531, -4144.17236328125], [-125.31566, 45.01334, -3412.78662109375], [-125.31632, 45.02216, -3500.57763671875]]], [[[-125.32108, 45.01531, -4144.17236328125], [-125.31632, 45.02216, -3500.57763671875], [-125.32209, 45.02347, -4210.32568359375], [-125.32108, 45.01531, -4144.17236328125]]], [[[-125.32108, 45.01531, -4144.17236328125], [-125.32209, 45.02347, -4210.32568359375], [-125.3268, 45.01777, -4918.76953125], [-125.32108, 45.01531, -4144.17236328125]]], [[[-125.32108, 45.01531, -4144.17236328125], [-125.3268, 45.01777, -4918.76953125], [-125.32604, 45.00984, -4839.8154296875], [-125.32108, 45.01531, -4144.17236328125]]], [[[-125.32108, 45.01531, -4144.17236328125], [-125.31921, 45.00776, -4055.33447265625], [-125.31566, 45.01334, -3412.78662109375], [-125.32108, 45.01531, -4144.17236328125]]], [[[-125.31921, 45.00776, -4055.33447265625], [-125.31365, 45.00283, -3474.710693359375], [-125.31566, 45.01334, -3412.78662109375], [-125.31921, 45.00776, -4055.33447265625]]], [[[-125.35265, 45.08042, -4309.66357421875], [-125.35985, 45.08199, -5085.3408203125], [-125.35564, 45.07427, -5015.138671875], [-125.35265, 45.08042, -4309.66357421875]]], [[[-125.31365, 45.00283, -3474.710693359375], [-125.31921, 45.00776, -4055.33447265625], [-125.31893, 45.00059, -4155.51318359375], [-125.31365, 45.00283, -3474.710693359375]]], [[[-125.3085, 45.00138, -2728.8076171875], [-125.30304, 45.00567, -2069.371337890625], [-125.30977, 45.00984, -2781.87255859375], [-125.3085, 45.00138, -2728.8076171875]]], [[[-125.31365, 45.00283, -3474.710693359375], [-125.31893, 45.00059, -4155.51318359375], [-125.3171, 44.99345, -3811.700439453125], [-125.31365, 45.00283, -3474.710693359375]]], [[[-125.31365, 45.00283, -3474.710693359375], [-125.3171, 44.99345, -3811.700439453125], [-125.31116, 44.99437, -3025.948486328125], [-125.31365, 45.00283, -3474.710693359375]]], [[[-125.31365, 45.00283, -3474.710693359375], [-125.31116, 44.99437, -3025.948486328125], [-125.3085, 45.00138, -2728.8076171875], [-125.31365, 45.00283, -3474.710693359375]]], [[[-125.31365, 45.00283, -3474.710693359375], [-125.3085, 45.00138, -2728.8076171875], [-125.30977, 45.00984, -2781.87255859375], [-125.31365, 45.00283, -3474.710693359375]]], [[[-125.31566, 45.01334, -3412.78662109375], [-125.31365, 45.00283, -3474.710693359375], [-125.30977, 45.00984, -2781.87255859375], [-125.31566, 45.01334, -3412.78662109375]]], [[[-125.3085, 45.00138, -2728.8076171875], [-125.30391, 44.99674, -2008.123046875], [-125.30304, 45.00567, -2069.371337890625], [-125.3085, 45.00138, -2728.8076171875]]], [[[-125.3463, 45.08065, -3522.9736328125], [-125.3474, 45.09, -3064.34228515625], [-125.35356, 45.08859, -3902.34130859375], [-125.3463, 45.08065, -3522.9736328125]]], [[[-125.31116, 44.99437, -3025.948486328125], [-125.30391, 44.99674, -2008.123046875], [-125.3085, 45.00138, -2728.8076171875], [-125.31116, 44.99437, -3025.948486328125]]], [[[-125.31116, 44.99437, -3025.948486328125], [-125.31131, 44.98605, -3431.383056640625], [-125.30616, 44.98702, -2740.468505859375], [-125.31116, 44.99437, -3025.948486328125]]], [[[-125.3171, 44.99345, -3811.700439453125], [-125.31131, 44.98605, -3431.383056640625], [-125.31116, 44.99437, -3025.948486328125], [-125.3171, 44.99345, -3811.700439453125]]], [[[-125.3268, 45.01777, -4918.76953125], [-125.32835, 45.02632, -4944.654296875], [-125.33306, 45.0213, -5679.0498046875], [-125.3268, 45.01777, -4918.76953125]]], [[[-125.3171, 44.99345, -3811.700439453125], [-125.31647, 44.98507, -4122.2978515625], [-125.31131, 44.98605, -3431.383056640625], [-125.3171, 44.99345, -3811.700439453125]]], [[[-125.3171, 44.99345, -3811.700439453125], [-125.32387, 44.99408, -4693.01123046875], [-125.31647, 44.98507, -4122.2978515625], [-125.3171, 44.99345, -3811.700439453125]]], [[[-125.31893, 45.00059, -4155.51318359375], [-125.32387, 44.99408, -4693.01123046875], [-125.3171, 44.99345, -3811.700439453125], [-125.31893, 45.00059, -4155.51318359375]]], [[[-125.31893, 45.00059, -4155.51318359375], [-125.32393, 45.00272, -4845.7744140625], [-125.32387, 44.99408, -4693.01123046875], [-125.31893, 45.00059, -4155.51318359375]]], [[[-125.34118, 45.07064, -3442.69921875], [-125.3463, 45.08065, -3522.9736328125], [-125.34837, 45.07236, -4218.87109375], [-125.34118, 45.07064, -3442.69921875]]], [[[-125.31921, 45.00776, -4055.33447265625], [-125.32393, 45.00272, -4845.7744140625], [-125.31893, 45.00059, -4155.51318359375], [-125.31921, 45.00776, -4055.33447265625]]], [[[-125.31921, 45.00776, -4055.33447265625], [-125.32604, 45.00984, -4839.8154296875], [-125.32393, 45.00272, -4845.7744140625], [-125.31921, 45.00776, -4055.33447265625]]], [[[-125.32393, 45.00272, -4845.7744140625], [-125.32604, 45.00984, -4839.8154296875], [-125.3307, 45.00521, -5606.130859375], [-125.32393, 45.00272, -4845.7744140625]]], [[[-125.32393, 45.00272, -4845.7744140625], [-125.3307, 45.00521, -5606.130859375], [-125.32947, 44.99893, -5577.83740234375], [-125.32393, 45.00272, -4845.7744140625]]], [[[-125.3463, 45.08065, -3522.9736328125], [-125.35356, 45.08859, -3902.34130859375], [-125.35265, 45.08042, -4309.66357421875], [-125.3463, 45.08065, -3522.9736328125]]], [[[-125.32393, 45.00272, -4845.7744140625], [-125.32947, 44.99893, -5577.83740234375], [-125.32387, 44.99408, -4693.01123046875], [-125.32393, 45.00272, -4845.7744140625]]], [[[-125.3463, 45.08065, -3522.9736328125], [-125.34167, 45.0847, -2705.364501953125], [-125.3474, 45.09, -3064.34228515625], [-125.3463, 45.08065, -3522.9736328125]]], [[[-125.32163, 44.98409, -4813.21240234375], [-125.31647, 44.98507, -4122.2978515625], [-125.32387, 44.99408, -4693.01123046875], [-125.32163, 44.98409, -4813.21240234375]]], [[[-125.3307, 45.00521, -5606.130859375], [-125.32604, 45.00984, -4839.8154296875], [-125.33222, 45.01283, -5638.97509765625], [-125.3307, 45.00521, -5606.130859375]]], [[[-125.32835, 45.02632, -4944.654296875], [-125.33555, 45.02899, -5704.14697265625], [-125.33306, 45.0213, -5679.0498046875], [-125.32835, 45.02632, -4944.654296875]]], [[[-125.3268, 45.01777, -4918.76953125], [-125.33222, 45.01283, -5638.97509765625], [-125.32604, 45.00984, -4839.8154296875], [-125.3268, 45.01777, -4918.76953125]]], [[[-125.3268, 45.01777, -4918.76953125], [-125.33306, 45.0213, -5679.0498046875], [-125.33222, 45.01283, -5638.97509765625], [-125.3268, 45.01777, -4918.76953125]]], [[[-125.32835, 45.02632, -4944.654296875], [-125.3268, 45.01777, -4918.76953125], [-125.32209, 45.02347, -4210.32568359375], [-125.32835, 45.02632, -4944.654296875]]], [[[-125.32489, 45.03196, -4217.22607421875], [-125.32835, 45.02632, -4944.654296875], [-125.32209, 45.02347, -4210.32568359375], [-125.32489, 45.03196, -4217.22607421875]]], [[[-125.32489, 45.03196, -4217.22607421875], [-125.33243, 45.03452, -4958.89111328125], [-125.32835, 45.02632, -4944.654296875], [-125.32489, 45.03196, -4217.22607421875]]], [[[-125.32949, 45.04021, -4223.8525390625], [-125.33243, 45.03452, -4958.89111328125], [-125.32489, 45.03196, -4217.22607421875], [-125.32949, 45.04021, -4223.8525390625]]], [[[-125.32949, 45.04021, -4223.8525390625], [-125.33709, 45.04246, -4981.8896484375], [-125.33243, 45.03452, -4958.89111328125], [-125.32949, 45.04021, -4223.8525390625]]], [[[-125.33362, 45.04803, -4231.685546875], [-125.33709, 45.04246, -4981.8896484375], [-125.32949, 45.04021, -4223.8525390625], [-125.33362, 45.04803, -4231.685546875]]], [[[-125.33825, 45.05656, -4274.08056640625], [-125.34078, 45.05045, -5012.1904296875], [-125.33362, 45.04803, -4231.685546875], [-125.33825, 45.05656, -4274.08056640625]]], [[[-125.33825, 45.05656, -4274.08056640625], [-125.34674, 45.0588, -5004.32470703125], [-125.34078, 45.05045, -5012.1904296875], [-125.33825, 45.05656, -4274.08056640625]]], [[[-125.3442, 45.06425, -4225.4033203125], [-125.34674, 45.0588, -5004.32470703125], [-125.33825, 45.05656, -4274.08056640625], [-125.3442, 45.06425, -4225.4033203125]]], [[[-125.3442, 45.06425, -4225.4033203125], [-125.35168, 45.06623, -5005.1162109375], [-125.34674, 45.0588, -5004.32470703125], [-125.3442, 45.06425, -4225.4033203125]]], [[[-125.34837, 45.07236, -4218.87109375], [-125.35168, 45.06623, -5005.1162109375], [-125.3442, 45.06425, -4225.4033203125], [-125.34837, 45.07236, -4218.87109375]]], [[[-125.34837, 45.07236, -4218.87109375], [-125.35265, 45.08042, -4309.66357421875], [-125.35564, 45.07427, -5015.138671875], [-125.34837, 45.07236, -4218.87109375]]], [[[-125.3463, 45.08065, -3522.9736328125], [-125.35265, 45.08042, -4309.66357421875], [-125.34837, 45.07236, -4218.87109375], [-125.3463, 45.08065, -3522.9736328125]]], [[[-125.34167, 45.0847, -2705.364501953125], [-125.3463, 45.08065, -3522.9736328125], [-125.33821, 45.07646, -2746.518798828125], [-125.34167, 45.0847, -2705.364501953125]]], [[[-125.3463, 45.08065, -3522.9736328125], [-125.34118, 45.07064, -3442.69921875], [-125.33821, 45.07646, -2746.518798828125], [-125.3463, 45.08065, -3522.9736328125]]], [[[-125.34118, 45.07064, -3442.69921875], [-125.3442, 45.06425, -4225.4033203125], [-125.33616, 45.06216, -3453.1845703125], [-125.34118, 45.07064, -3442.69921875]]], [[[-125.34118, 45.07064, -3442.69921875], [-125.33616, 45.06216, -3453.1845703125], [-125.33326, 45.06755, -2681.421875], [-125.34118, 45.07064, -3442.69921875]]], [[[-125.34118, 45.07064, -3442.69921875], [-125.33326, 45.06755, -2681.421875], [-125.33821, 45.07646, -2746.518798828125], [-125.34118, 45.07064, -3442.69921875]]], [[[-125.33616, 45.06216, -3453.1845703125], [-125.32784, 45.06013, -2720.859619140625], [-125.33326, 45.06755, -2681.421875], [-125.33616, 45.06216, -3453.1845703125]]], [[[-125.33616, 45.06216, -3453.1845703125], [-125.32974, 45.05412, -3456.62890625], [-125.32784, 45.06013, -2720.859619140625], [-125.33616, 45.06216, -3453.1845703125]]], [[[-125.32974, 45.05412, -3456.62890625], [-125.33616, 45.06216, -3453.1845703125], [-125.33825, 45.05656, -4274.08056640625], [-125.32974, 45.05412, -3456.62890625]]], [[[-125.32974, 45.05412, -3456.62890625], [-125.33362, 45.04803, -4231.685546875], [-125.32624, 45.04585, -3432.015869140625], [-125.32974, 45.05412, -3456.62890625]]], [[[-125.32974, 45.05412, -3456.62890625], [-125.32624, 45.04585, -3432.015869140625], [-125.3226, 45.05151, -2685.763427734375], [-125.32974, 45.05412, -3456.62890625]]], [[[-125.32974, 45.05412, -3456.62890625], [-125.3226, 45.05151, -2685.763427734375], [-125.32784, 45.06013, -2720.859619140625], [-125.32974, 45.05412, -3456.62890625]]], [[[-125.32624, 45.04585, -3432.015869140625], [-125.32949, 45.04021, -4223.8525390625], [-125.3222, 45.03863, -3449.77783203125], [-125.32624, 45.04585, -3432.015869140625]]], [[[-125.32624, 45.04585, -3432.015869140625], [-125.33362, 45.04803, -4231.685546875], [-125.32949, 45.04021, -4223.8525390625], [-125.32624, 45.04585, -3432.015869140625]]], [[[-125.3222, 45.03863, -3449.77783203125], [-125.31821, 45.03066, -3496.086181640625], [-125.31481, 45.03605, -2725.42626953125], [-125.3222, 45.03863, -3449.77783203125]]], [[[-125.3222, 45.03863, -3449.77783203125], [-125.31481, 45.03605, -2725.42626953125], [-125.31857, 45.04405, -2633.802734375], [-125.3222, 45.03863, -3449.77783203125]]], [[[-125.31821, 45.03066, -3496.086181640625], [-125.31632, 45.02216, -3500.57763671875], [-125.31155, 45.02706, -2762.708984375], [-125.31821, 45.03066, -3496.086181640625]]], [[[-125.31821, 45.03066, -3496.086181640625], [-125.32209, 45.02347, -4210.32568359375], [-125.31632, 45.02216, -3500.57763671875], [-125.31821, 45.03066, -3496.086181640625]]], [[[-125.31821, 45.03066, -3496.086181640625], [-125.32489, 45.03196, -4217.22607421875], [-125.32209, 45.02347, -4210.32568359375], [-125.31821, 45.03066, -3496.086181640625]]], [[[-125.31632, 45.02216, -3500.57763671875], [-125.31054, 45.01884, -2732.911376953125], [-125.31155, 45.02706, -2762.708984375], [-125.31632, 45.02216, -3500.57763671875]]], [[[-125.35982, 45.08786, -4709.38671875], [-125.35265, 45.08042, -4309.66357421875], [-125.35356, 45.08859, -3902.34130859375], [-125.35982, 45.08786, -4709.38671875]]], [[[-125.35982, 45.08786, -4709.38671875], [-125.35985, 45.08199, -5085.3408203125], [-125.35265, 45.08042, -4309.66357421875], [-125.35982, 45.08786, -4709.38671875]]], [[[-125.35985, 45.08199, -5085.3408203125], [-125.35982, 45.08786, -4709.38671875], [-125.36729, 45.08532, -5779.5751953125], [-125.35985, 45.08199, -5085.3408203125]]], [[[-125.35985, 45.08199, -5085.3408203125], [-125.36729, 45.08532, -5779.5751953125], [-125.36292, 45.07714, -5760.69921875], [-125.35985, 45.08199, -5085.3408203125]]], [[[-125.35564, 45.07427, -5015.138671875], [-125.35985, 45.08199, -5085.3408203125], [-125.36292, 45.07714, -5760.69921875], [-125.35564, 45.07427, -5015.138671875]]], [[[-125.35564, 45.07427, -5015.138671875], [-125.36292, 45.07714, -5760.69921875], [-125.35922, 45.0688, -5747.98095703125], [-125.35564, 45.07427, -5015.138671875]]], [[[-125.35168, 45.06623, -5005.1162109375], [-125.35564, 45.07427, -5015.138671875], [-125.35922, 45.0688, -5747.98095703125], [-125.35168, 45.06623, -5005.1162109375]]], [[[-125.34674, 45.0588, -5004.32470703125], [-125.35168, 45.06623, -5005.1162109375], [-125.35475, 45.06065, -5742.1171875], [-125.34674, 45.0588, -5004.32470703125]]], [[[-125.34674, 45.0588, -5004.32470703125], [-125.35475, 45.06065, -5742.1171875], [-125.34822, 45.05324, -5749.79296875], [-125.34674, 45.0588, -5004.32470703125]]], [[[-125.34078, 45.05045, -5012.1904296875], [-125.34674, 45.0588, -5004.32470703125], [-125.34822, 45.05324, -5749.79296875], [-125.34078, 45.05045, -5012.1904296875]]], [[[-125.34078, 45.05045, -5012.1904296875], [-125.34822, 45.05324, -5749.79296875], [-125.34448, 45.04494, -5737.2041015625], [-125.34078, 45.05045, -5012.1904296875]]], [[[-125.33709, 45.04246, -4981.8896484375], [-125.34078, 45.05045, -5012.1904296875], [-125.34448, 45.04494, -5737.2041015625], [-125.33709, 45.04246, -4981.8896484375]]], [[[-125.33243, 45.03452, -4958.89111328125], [-125.33709, 45.04246, -4981.8896484375], [-125.33991, 45.03683, -5720.38037109375], [-125.33243, 45.03452, -4958.89111328125]]], [[[-125.33243, 45.03452, -4958.89111328125], [-125.33991, 45.03683, -5720.38037109375], [-125.33555, 45.02899, -5704.14697265625], [-125.33243, 45.03452, -4958.89111328125]]], [[[-125.32835, 45.02632, -4944.654296875], [-125.33243, 45.03452, -4958.89111328125], [-125.33555, 45.02899, -5704.14697265625], [-125.32835, 45.02632, -4944.654296875]]], [[[-125.30304, 45.00567, -2069.371337890625], [-125.30489, 45.01451, -1986.015625], [-125.30977, 45.00984, -2781.87255859375], [-125.30304, 45.00567, -2069.371337890625]]], [[[-125.32387, 44.99408, -4693.01123046875], [-125.32901, 44.98866, -5524.1962890625], [-125.32163, 44.98409, -4813.21240234375], [-125.32387, 44.99408, -4693.01123046875]]], [[[-125.32387, 44.99408, -4693.01123046875], [-125.32947, 44.99893, -5577.83740234375], [-125.32901, 44.98866, -5524.1962890625], [-125.32387, 44.99408, -4693.01123046875]]], [[[-125.36604, 45.09457, -5029.0556640625], [-125.3718, 45.09346, -5800.130859375], [-125.36729, 45.08532, -5779.5751953125], [-125.36604, 45.09457, -5029.0556640625]]], [[[-125.35982, 45.08786, -4709.38671875], [-125.36604, 45.09457, -5029.0556640625], [-125.36729, 45.08532, -5779.5751953125], [-125.35982, 45.08786, -4709.38671875]]], [[[-125.33877, 45.09054, -1982.470458984375], [-125.34876, 45.09789, -2715.830078125], [-125.3474, 45.09, -3064.34228515625], [-125.33877, 45.09054, -1982.470458984375]]]]}}]}