{"type": "FeatureCollection", "features": [{"type": "Feature", "properties": {"name": "AW_SORE_10", "CFM_ID": 381, "region": "Offshore_OR", "primary_state/province": "OR", "secondary_state/province": null, "avg_dip": null, "dip_dir": "E", "rake": 90, "slip_sense": "Reverse", "fault_level": 2, "NSHM23_sliprates": null, "QFFDAgeCatBin": null, "QFFDAgeBin": null, "upper_depth": null, "upper_depth_constraint": "bathymetry", "lower_depth": null, "lower_depth_constraint": "megathrust", "3D_model_constraints": "trace extended at constant dip", "reference": "Goldfinger et al. (2023)", "nshm23_id": null, "lineage": null, "usgs_qffd_#": null, "comments": null, "id": "381"}, "geometry": {"type": "MultiPolygon", "coordinates": [[[[-125.17899, 42.86575, -3842.14599609375], [-125.17531, 42.85844, -4716.64990234375], [-125.1723, 42.86731, -4709.26611328125], [-125.17899, 42.86575, -3842.14599609375]]], [[[-125.17899, 42.86575, -3842.14599609375], [-125.18135, 42.85394, -3952.692138671875], [-125.17531, 42.85844, -4716.64990234375], [-125.17899, 42.86575, -3842.14599609375]]], [[[-125.18135, 42.85394, -3952.692138671875], [-125.17899, 42.86575, -3842.14599609375], [-125.18515, 42.86037, -3252.468994140625], [-125.18135, 42.85394, -3952.692138671875]]], [[[-125.18725, 42.85198, -3173.477783203125], [-125.18135, 42.85394, -3952.692138671875], [-125.18515, 42.86037, -3252.468994140625], [-125.18725, 42.85198, -3173.477783203125]]], [[[-125.18725, 42.85198, -3173.477783203125], [-125.18443, 42.84432, -3235.604248046875], [-125.18135, 42.85394, -3952.692138671875], [-125.18725, 42.85198, -3173.477783203125]]], [[[-125.18725, 42.85198, -3173.477783203125], [-125.19284, 42.84768, -2436.72998046875], [-125.18443, 42.84432, -3235.604248046875], [-125.18725, 42.85198, -3173.477783203125]]], [[[-125.18725, 42.85198, -3173.477783203125], [-125.19204, 42.85661, -2458.819580078125], [-125.19284, 42.84768, -2436.72998046875], [-125.18725, 42.85198, -3173.477783203125]]], [[[-125.18725, 42.85198, -3173.477783203125], [-125.18515, 42.86037, -3252.468994140625], [-125.19204, 42.85661, -2458.819580078125], [-125.18725, 42.85198, -3173.477783203125]]], [[[-125.19204, 42.85661, -2458.819580078125], [-125.18515, 42.86037, -3252.468994140625], [-125.18922, 42.86534, -2411.482177734375], [-125.19204, 42.85661, -2458.819580078125]]], [[[-125.18423, 42.86824, -2972.765380859375], [-125.18922, 42.86534, -2411.482177734375], [-125.18515, 42.86037, -3252.468994140625], [-125.18423, 42.86824, -2972.765380859375]]], [[[-125.18423, 42.86824, -2972.765380859375], [-125.186, 42.874, -2446.431884765625], [-125.18922, 42.86534, -2411.482177734375], [-125.18423, 42.86824, -2972.765380859375]]], [[[-125.18423, 42.86824, -2972.765380859375], [-125.18049, 42.87474, -3188.294677734375], [-125.186, 42.874, -2446.431884765625], [-125.18423, 42.86824, -2972.765380859375]]], [[[-125.18423, 42.86824, -2972.765380859375], [-125.17899, 42.86575, -3842.14599609375], [-125.18049, 42.87474, -3188.294677734375], [-125.18423, 42.86824, -2972.765380859375]]], [[[-125.18423, 42.86824, -2972.765380859375], [-125.18515, 42.86037, -3252.468994140625], [-125.17899, 42.86575, -3842.14599609375], [-125.18423, 42.86824, -2972.765380859375]]], [[[-125.17899, 42.86575, -3842.14599609375], [-125.17498, 42.87547, -3930.1572265625], [-125.18049, 42.87474, -3188.294677734375], [-125.17899, 42.86575, -3842.14599609375]]], [[[-125.18875, 42.83926, -2352.322998046875], [-125.18443, 42.84432, -3235.604248046875], [-125.19284, 42.84768, -2436.72998046875], [-125.18875, 42.83926, -2352.322998046875]]], [[[-125.18138, 42.83556, -3195.0927734375], [-125.18443, 42.84432, -3235.604248046875], [-125.18875, 42.83926, -2352.322998046875], [-125.18138, 42.83556, -3195.0927734375]]], [[[-125.1753, 42.83816, -4077.97802734375], [-125.18443, 42.84432, -3235.604248046875], [-125.18138, 42.83556, -3195.0927734375], [-125.1753, 42.83816, -4077.97802734375]]], [[[-125.1753, 42.83816, -4077.97802734375], [-125.17791, 42.84556, -4141.0888671875], [-125.18443, 42.84432, -3235.604248046875], [-125.1753, 42.83816, -4077.97802734375]]], [[[-125.1753, 42.83816, -4077.97802734375], [-125.17216, 42.8447, -4795.06005859375], [-125.17791, 42.84556, -4141.0888671875], [-125.1753, 42.83816, -4077.97802734375]]], [[[-125.1753, 42.83816, -4077.97802734375], [-125.16966, 42.83842, -4826.15283203125], [-125.17216, 42.8447, -4795.06005859375], [-125.1753, 42.83816, -4077.97802734375]]], [[[-125.1753, 42.83816, -4077.97802734375], [-125.16763, 42.83117, -4857.7197265625], [-125.16966, 42.83842, -4826.15283203125], [-125.1753, 42.83816, -4077.97802734375]]], [[[-125.1753, 42.83816, -4077.97802734375], [-125.17346, 42.82923, -4037.701171875], [-125.16763, 42.83117, -4857.7197265625], [-125.1753, 42.83816, -4077.97802734375]]], [[[-125.17346, 42.82923, -4037.701171875], [-125.1753, 42.83816, -4077.97802734375], [-125.18138, 42.83556, -3195.0927734375], [-125.17346, 42.82923, -4037.701171875]]], [[[-125.17346, 42.82923, -4037.701171875], [-125.18138, 42.83556, -3195.0927734375], [-125.17896, 42.82653, -3240.541748046875], [-125.17346, 42.82923, -4037.701171875]]], [[[-125.17896, 42.82653, -3240.541748046875], [-125.17119, 42.82028, -4073.12646484375], [-125.17346, 42.82923, -4037.701171875], [-125.17896, 42.82653, -3240.541748046875]]], [[[-125.17695, 42.81779, -3244.44580078125], [-125.17119, 42.82028, -4073.12646484375], [-125.17896, 42.82653, -3240.541748046875], [-125.17695, 42.81779, -3244.44580078125]]], [[[-125.17695, 42.81779, -3244.44580078125], [-125.16974, 42.81103, -4052.807373046875], [-125.17119, 42.82028, -4073.12646484375], [-125.17695, 42.81779, -3244.44580078125]]], [[[-125.16974, 42.81103, -4052.807373046875], [-125.17695, 42.81779, -3244.44580078125], [-125.17589, 42.80931, -3215.536865234375], [-125.16974, 42.81103, -4052.807373046875]]], [[[-125.17378, 42.80153, -3332.59716796875], [-125.16974, 42.81103, -4052.807373046875], [-125.17589, 42.80931, -3215.536865234375], [-125.17378, 42.80153, -3332.59716796875]]], [[[-125.17378, 42.80153, -3332.59716796875], [-125.16761, 42.80149, -4132.79931640625], [-125.16974, 42.81103, -4052.807373046875], [-125.17378, 42.80153, -3332.59716796875]]], [[[-125.17092, 42.79282, -3387.996337890625], [-125.16761, 42.80149, -4132.79931640625], [-125.17378, 42.80153, -3332.59716796875], [-125.17092, 42.79282, -3387.996337890625]]], [[[-125.17092, 42.79282, -3387.996337890625], [-125.16468, 42.79216, -4169.09619140625], [-125.16761, 42.80149, -4132.79931640625], [-125.17092, 42.79282, -3387.996337890625]]], [[[-125.16692, 42.78415, -3402.64990234375], [-125.16468, 42.79216, -4169.09619140625], [-125.17092, 42.79282, -3387.996337890625], [-125.16692, 42.78415, -3402.64990234375]]], [[[-125.16692, 42.78415, -3402.64990234375], [-125.15997, 42.78304, -4166.39892578125], [-125.16468, 42.79216, -4169.09619140625], [-125.16692, 42.78415, -3402.64990234375]]], [[[-125.16233, 42.77573, -3366.640625], [-125.15997, 42.78304, -4166.39892578125], [-125.16692, 42.78415, -3402.64990234375], [-125.16233, 42.77573, -3366.640625]]], [[[-125.16233, 42.77573, -3366.640625], [-125.15523, 42.77487, -4208.314453125], [-125.15997, 42.78304, -4166.39892578125], [-125.16233, 42.77573, -3366.640625]]], [[[-125.15811, 42.76786, -3375.3017578125], [-125.15523, 42.77487, -4208.314453125], [-125.16233, 42.77573, -3366.640625], [-125.15811, 42.76786, -3375.3017578125]]], [[[-125.15811, 42.76786, -3375.3017578125], [-125.15041, 42.76647, -4233.6181640625], [-125.15523, 42.77487, -4208.314453125], [-125.15811, 42.76786, -3375.3017578125]]], [[[-125.153, 42.75956, -3401.20361328125], [-125.15041, 42.76647, -4233.6181640625], [-125.15811, 42.76786, -3375.3017578125], [-125.153, 42.75956, -3401.20361328125]]], [[[-125.153, 42.75956, -3401.20361328125], [-125.1451, 42.75796, -4264.48681640625], [-125.15041, 42.76647, -4233.6181640625], [-125.153, 42.75956, -3401.20361328125]]], [[[-125.14742, 42.75139, -3404.23388671875], [-125.1451, 42.75796, -4264.48681640625], [-125.153, 42.75956, -3401.20361328125], [-125.14742, 42.75139, -3404.23388671875]]], [[[-125.14742, 42.75139, -3404.23388671875], [-125.13938, 42.75, -4250.53955078125], [-125.1451, 42.75796, -4264.48681640625], [-125.14742, 42.75139, -3404.23388671875]]], [[[-125.14247, 42.74197, -3425.843505859375], [-125.13938, 42.75, -4250.53955078125], [-125.14742, 42.75139, -3404.23388671875], [-125.14247, 42.74197, -3425.843505859375]]], [[[-125.14247, 42.74197, -3425.843505859375], [-125.13583, 42.74331, -4335.31591796875], [-125.13938, 42.75, -4250.53955078125], [-125.14247, 42.74197, -3425.843505859375]]], [[[-125.13583, 42.74331, -4335.31591796875], [-125.14247, 42.74197, -3425.843505859375], [-125.13506, 42.73539, -4221.0029296875], [-125.13583, 42.74331, -4335.31591796875]]], [[[-125.13506, 42.73539, -4221.0029296875], [-125.12926, 42.73973, -5069.3447265625], [-125.13583, 42.74331, -4335.31591796875], [-125.13506, 42.73539, -4221.0029296875]]], [[[-125.13506, 42.73539, -4221.0029296875], [-125.12835, 42.73062, -5029.603515625], [-125.12926, 42.73973, -5069.3447265625], [-125.13506, 42.73539, -4221.0029296875]]], [[[-125.13459, 42.7267, -4171.51513671875], [-125.12835, 42.73062, -5029.603515625], [-125.13506, 42.73539, -4221.0029296875], [-125.13459, 42.7267, -4171.51513671875]]], [[[-125.13459, 42.7267, -4171.51513671875], [-125.12855, 42.72149, -4956.55419921875], [-125.12835, 42.73062, -5029.603515625], [-125.13459, 42.7267, -4171.51513671875]]], [[[-125.13459, 42.7267, -4171.51513671875], [-125.13468, 42.71794, -4041.123291015625], [-125.12855, 42.72149, -4956.55419921875], [-125.13459, 42.7267, -4171.51513671875]]], [[[-125.13468, 42.71794, -4041.123291015625], [-125.13459, 42.7267, -4171.51513671875], [-125.14099, 42.72243, -3288.925537109375], [-125.13468, 42.71794, -4041.123291015625]]], [[[-125.14099, 42.72243, -3288.925537109375], [-125.14292, 42.71484, -2863.14697265625], [-125.13468, 42.71794, -4041.123291015625], [-125.14099, 42.72243, -3288.925537109375]]], [[[-125.14099, 42.72243, -3288.925537109375], [-125.14697, 42.71887, -2463.646484375], [-125.14292, 42.71484, -2863.14697265625], [-125.14099, 42.72243, -3288.925537109375]]], [[[-125.14099, 42.72243, -3288.925537109375], [-125.147, 42.72784, -2512.063232421875], [-125.14697, 42.71887, -2463.646484375], [-125.14099, 42.72243, -3288.925537109375]]], [[[-125.14132, 42.73234, -3340.58447265625], [-125.147, 42.72784, -2512.063232421875], [-125.14099, 42.72243, -3288.925537109375], [-125.14132, 42.73234, -3340.58447265625]]], [[[-125.14132, 42.73234, -3340.58447265625], [-125.14798, 42.7368, -2541.626953125], [-125.147, 42.72784, -2512.063232421875], [-125.14132, 42.73234, -3340.58447265625]]], [[[-125.14132, 42.73234, -3340.58447265625], [-125.14247, 42.74197, -3425.843505859375], [-125.14798, 42.7368, -2541.626953125], [-125.14132, 42.73234, -3340.58447265625]]], [[[-125.14132, 42.73234, -3340.58447265625], [-125.13506, 42.73539, -4221.0029296875], [-125.14247, 42.74197, -3425.843505859375], [-125.14132, 42.73234, -3340.58447265625]]], [[[-125.14132, 42.73234, -3340.58447265625], [-125.13459, 42.7267, -4171.51513671875], [-125.13506, 42.73539, -4221.0029296875], [-125.14132, 42.73234, -3340.58447265625]]], [[[-125.13459, 42.7267, -4171.51513671875], [-125.14132, 42.73234, -3340.58447265625], [-125.14099, 42.72243, -3288.925537109375], [-125.13459, 42.7267, -4171.51513671875]]], [[[-125.14247, 42.74197, -3425.843505859375], [-125.14993, 42.74566, -2574.925537109375], [-125.14798, 42.7368, -2541.626953125], [-125.14247, 42.74197, -3425.843505859375]]], [[[-125.14247, 42.74197, -3425.843505859375], [-125.14742, 42.75139, -3404.23388671875], [-125.14993, 42.74566, -2574.925537109375], [-125.14247, 42.74197, -3425.843505859375]]], [[[-125.14742, 42.75139, -3404.23388671875], [-125.15567, 42.75356, -2605.75146484375], [-125.14993, 42.74566, -2574.925537109375], [-125.14742, 42.75139, -3404.23388671875]]], [[[-125.14742, 42.75139, -3404.23388671875], [-125.153, 42.75956, -3401.20361328125], [-125.15567, 42.75356, -2605.75146484375], [-125.14742, 42.75139, -3404.23388671875]]], [[[-125.153, 42.75956, -3401.20361328125], [-125.16082, 42.76171, -2590.588134765625], [-125.15567, 42.75356, -2605.75146484375], [-125.153, 42.75956, -3401.20361328125]]], [[[-125.153, 42.75956, -3401.20361328125], [-125.15811, 42.76786, -3375.3017578125], [-125.16082, 42.76171, -2590.588134765625], [-125.153, 42.75956, -3401.20361328125]]], [[[-125.15811, 42.76786, -3375.3017578125], [-125.16592, 42.76987, -2546.9931640625], [-125.16082, 42.76171, -2590.588134765625], [-125.15811, 42.76786, -3375.3017578125]]], [[[-125.15811, 42.76786, -3375.3017578125], [-125.16233, 42.77573, -3366.640625], [-125.16592, 42.76987, -2546.9931640625], [-125.15811, 42.76786, -3375.3017578125]]], [[[-125.16233, 42.77573, -3366.640625], [-125.16973, 42.77839, -2597.0029296875], [-125.16592, 42.76987, -2546.9931640625], [-125.16233, 42.77573, -3366.640625]]], [[[-125.16233, 42.77573, -3366.640625], [-125.16692, 42.78415, -3402.64990234375], [-125.16973, 42.77839, -2597.0029296875], [-125.16233, 42.77573, -3366.640625]]], [[[-125.16692, 42.78415, -3402.64990234375], [-125.17473, 42.78657, -2640.885009765625], [-125.16973, 42.77839, -2597.0029296875], [-125.16692, 42.78415, -3402.64990234375]]], [[[-125.16692, 42.78415, -3402.64990234375], [-125.17092, 42.79282, -3387.996337890625], [-125.17473, 42.78657, -2640.885009765625], [-125.16692, 42.78415, -3402.64990234375]]], [[[-125.17092, 42.79282, -3387.996337890625], [-125.17775, 42.79526, -2596.109375], [-125.17473, 42.78657, -2640.885009765625], [-125.17092, 42.79282, -3387.996337890625]]], [[[-125.17092, 42.79282, -3387.996337890625], [-125.17378, 42.80153, -3332.59716796875], [-125.17775, 42.79526, -2596.109375], [-125.17092, 42.79282, -3387.996337890625]]], [[[-125.17378, 42.80153, -3332.59716796875], [-125.18095, 42.80387, -2482.640625], [-125.17775, 42.79526, -2596.109375], [-125.17378, 42.80153, -3332.59716796875]]], [[[-125.17378, 42.80153, -3332.59716796875], [-125.17589, 42.80931, -3215.536865234375], [-125.18095, 42.80387, -2482.640625], [-125.17378, 42.80153, -3332.59716796875]]], [[[-125.17589, 42.80931, -3215.536865234375], [-125.18198, 42.81282, -2438.761474609375], [-125.18095, 42.80387, -2482.640625], [-125.17589, 42.80931, -3215.536865234375]]], [[[-125.17695, 42.81779, -3244.44580078125], [-125.18198, 42.81282, -2438.761474609375], [-125.17589, 42.80931, -3215.536865234375], [-125.17695, 42.81779, -3244.44580078125]]], [[[-125.17695, 42.81779, -3244.44580078125], [-125.18393, 42.82169, -2453.031005859375], [-125.18198, 42.81282, -2438.761474609375], [-125.17695, 42.81779, -3244.44580078125]]], [[[-125.17695, 42.81779, -3244.44580078125], [-125.17896, 42.82653, -3240.541748046875], [-125.18393, 42.82169, -2453.031005859375], [-125.17695, 42.81779, -3244.44580078125]]], [[[-125.17896, 42.82653, -3240.541748046875], [-125.1859, 42.83056, -2438.229248046875], [-125.18393, 42.82169, -2453.031005859375], [-125.17896, 42.82653, -3240.541748046875]]], [[[-125.17896, 42.82653, -3240.541748046875], [-125.18138, 42.83556, -3195.0927734375], [-125.1859, 42.83056, -2438.229248046875], [-125.17896, 42.82653, -3240.541748046875]]], [[[-125.18138, 42.83556, -3195.0927734375], [-125.18875, 42.83926, -2352.322998046875], [-125.1859, 42.83056, -2438.229248046875], [-125.18138, 42.83556, -3195.0927734375]]], [[[-125.14292, 42.71484, -2863.14697265625], [-125.14697, 42.71887, -2463.646484375], [-125.145, 42.71, -2435.678955078125], [-125.14292, 42.71484, -2863.14697265625]]], [[[-125.13887, 42.71082, -3261.99462890625], [-125.14292, 42.71484, -2863.14697265625], [-125.145, 42.71, -2435.678955078125], [-125.13887, 42.71082, -3261.99462890625]]], [[[-125.13887, 42.71082, -3261.99462890625], [-125.13468, 42.71794, -4041.123291015625], [-125.14292, 42.71484, -2863.14697265625], [-125.13887, 42.71082, -3261.99462890625]]], [[[-125.13887, 42.71082, -3261.99462890625], [-125.13273, 42.71164, -4088.310302734375], [-125.13468, 42.71794, -4041.123291015625], [-125.13887, 42.71082, -3261.99462890625]]], [[[-125.1266, 42.71246, -4914.6259765625], [-125.13468, 42.71794, -4041.123291015625], [-125.13273, 42.71164, -4088.310302734375], [-125.1266, 42.71246, -4914.6259765625]]], [[[-125.13468, 42.71794, -4041.123291015625], [-125.1266, 42.71246, -4914.6259765625], [-125.12855, 42.72149, -4956.55419921875], [-125.13468, 42.71794, -4041.123291015625]]], [[[-125.13583, 42.74331, -4335.31591796875], [-125.12926, 42.73973, -5069.3447265625], [-125.13119, 42.74826, -5100.5703125], [-125.13583, 42.74331, -4335.31591796875]]], [[[-125.13583, 42.74331, -4335.31591796875], [-125.13119, 42.74826, -5100.5703125], [-125.13938, 42.75, -4250.53955078125], [-125.13583, 42.74331, -4335.31591796875]]], [[[-125.13119, 42.74826, -5100.5703125], [-125.137, 42.75574, -5086.853515625], [-125.13938, 42.75, -4250.53955078125], [-125.13119, 42.74826, -5100.5703125]]], [[[-125.1451, 42.75796, -4264.48681640625], [-125.13938, 42.75, -4250.53955078125], [-125.137, 42.75574, -5086.853515625], [-125.1451, 42.75796, -4264.48681640625]]], [[[-125.1451, 42.75796, -4264.48681640625], [-125.137, 42.75574, -5086.853515625], [-125.14237, 42.76395, -5056.40771484375], [-125.1451, 42.75796, -4264.48681640625]]], [[[-125.15041, 42.76647, -4233.6181640625], [-125.1451, 42.75796, -4264.48681640625], [-125.14237, 42.76395, -5056.40771484375], [-125.15041, 42.76647, -4233.6181640625]]], [[[-125.15041, 42.76647, -4233.6181640625], [-125.14237, 42.76395, -5056.40771484375], [-125.14741, 42.77231, -5029.681640625], [-125.15041, 42.76647, -4233.6181640625]]], [[[-125.15041, 42.76647, -4233.6181640625], [-125.14741, 42.77231, -5029.681640625], [-125.15523, 42.77487, -4208.314453125], [-125.15041, 42.76647, -4233.6181640625]]], [[[-125.15523, 42.77487, -4208.314453125], [-125.14741, 42.77231, -5029.681640625], [-125.15187, 42.78084, -5004.4970703125], [-125.15523, 42.77487, -4208.314453125]]], [[[-125.15523, 42.77487, -4208.314453125], [-125.15187, 42.78084, -5004.4970703125], [-125.15997, 42.78304, -4166.39892578125], [-125.15523, 42.77487, -4208.314453125]]], [[[-125.15997, 42.78304, -4166.39892578125], [-125.15187, 42.78084, -5004.4970703125], [-125.15682, 42.7881, -4969.10009765625], [-125.15997, 42.78304, -4166.39892578125]]], [[[-125.15997, 42.78304, -4166.39892578125], [-125.15682, 42.7881, -4969.10009765625], [-125.16468, 42.79216, -4169.09619140625], [-125.15997, 42.78304, -4166.39892578125]]], [[[-125.16468, 42.79216, -4169.09619140625], [-125.15682, 42.7881, -4969.10009765625], [-125.15968, 42.79587, -4953.00634765625], [-125.16468, 42.79216, -4169.09619140625]]], [[[-125.16468, 42.79216, -4169.09619140625], [-125.15968, 42.79587, -4953.00634765625], [-125.16761, 42.80149, -4132.79931640625], [-125.16468, 42.79216, -4169.09619140625]]], [[[-125.16761, 42.80149, -4132.79931640625], [-125.15968, 42.79587, -4953.00634765625], [-125.16225, 42.80449, -4932.9033203125], [-125.16761, 42.80149, -4132.79931640625]]], [[[-125.16761, 42.80149, -4132.79931640625], [-125.16225, 42.80449, -4932.9033203125], [-125.16974, 42.81103, -4052.807373046875], [-125.16761, 42.80149, -4132.79931640625]]], [[[-125.16974, 42.81103, -4052.807373046875], [-125.16225, 42.80449, -4932.9033203125], [-125.16346, 42.81358, -4917.00830078125], [-125.16974, 42.81103, -4052.807373046875]]], [[[-125.16974, 42.81103, -4052.807373046875], [-125.16346, 42.81358, -4917.00830078125], [-125.17119, 42.82028, -4073.12646484375], [-125.16974, 42.81103, -4052.807373046875]]], [[[-125.16346, 42.81358, -4917.00830078125], [-125.16542, 42.8226, -4897.18408203125], [-125.17119, 42.82028, -4073.12646484375], [-125.16346, 42.81358, -4917.00830078125]]], [[[-125.16542, 42.8226, -4897.18408203125], [-125.17346, 42.82923, -4037.701171875], [-125.17119, 42.82028, -4073.12646484375], [-125.16542, 42.8226, -4897.18408203125]]], [[[-125.17346, 42.82923, -4037.701171875], [-125.16542, 42.8226, -4897.18408203125], [-125.16763, 42.83117, -4857.7197265625], [-125.17346, 42.82923, -4037.701171875]]], [[[-125.17791, 42.84556, -4141.0888671875], [-125.17216, 42.8447, -4795.06005859375], [-125.17591, 42.85041, -4740.40625], [-125.17791, 42.84556, -4141.0888671875]]], [[[-125.17791, 42.84556, -4141.0888671875], [-125.17591, 42.85041, -4740.40625], [-125.18135, 42.85394, -3952.692138671875], [-125.17791, 42.84556, -4141.0888671875]]], [[[-125.17791, 42.84556, -4141.0888671875], [-125.18135, 42.85394, -3952.692138671875], [-125.18443, 42.84432, -3235.604248046875], [-125.17791, 42.84556, -4141.0888671875]]], [[[-125.17591, 42.85041, -4740.40625], [-125.17531, 42.85844, -4716.64990234375], [-125.18135, 42.85394, -3952.692138671875], [-125.17591, 42.85041, -4740.40625]]], [[[-125.17498, 42.87547, -3930.1572265625], [-125.17899, 42.86575, -3842.14599609375], [-125.1723, 42.86731, -4709.26611328125], [-125.17498, 42.87547, -3930.1572265625]]], [[[-125.16948, 42.87621, -4672.02001953125], [-125.17498, 42.87547, -3930.1572265625], [-125.1723, 42.86731, -4709.26611328125], [-125.16948, 42.87621, -4672.02001953125]]]]}}]}