{"type": "FeatureCollection", "features": [{"type": "Feature", "properties": {"name": "AW_SORE_13", "CFM_ID": 384, "region": "Offshore_OR", "primary_state/province": "OR", "secondary_state/province": null, "avg_dip": 58, "dip_dir": "E", "rake": 90, "slip_sense": "Reverse", "fault_level": 2, "NSHM23_sliprates": null, "QFFDAgeCatBin": null, "QFFDAgeBin": null, "upper_depth": -1.8, "upper_depth_constraint": "bathymetry", "lower_depth": -8.4, "lower_depth_constraint": "megathrust", "3D_model_constraints": "trace extended at constant dip", "reference": "Goldfinger et al. (2023)", "nshm23_id": null, "lineage": null, "usgs_qffd_#": null, "comments": null, "id": "384"}, "geometry": {"type": "MultiPolygon", "coordinates": [[[[-125.13426, 42.32102, -4274.9169921875], [-125.12725, 42.32201, -4971.35107421875], [-125.12554, 42.32801, -4277.05224609375], [-125.13426, 42.32102, -4274.9169921875]]], [[[-125.15373, 42.30474, -3671.34228515625], [-125.1474, 42.31229, -3611.494140625], [-125.15492, 42.3108, -2914.673583984375], [-125.15373, 42.30474, -3671.34228515625]]], [[[-125.10713, 42.34134, -3955.084716796875], [-125.10846, 42.33305, -5049.998046875], [-125.09929, 42.33885, -5086.99609375], [-125.10713, 42.34134, -3955.084716796875]]], [[[-125.19945, 42.14549, -5524.154296875], [-125.20556, 42.14097, -4735.9150390625], [-125.20025, 42.13655, -5541.13720703125], [-125.19945, 42.14549, -5524.154296875]]], [[[-125.16967, 42.26635, -4451.48779296875], [-125.17266, 42.27283, -3698.46728515625], [-125.17686, 42.26429, -3672.90087890625], [-125.16967, 42.26635, -4451.48779296875]]], [[[-125.13426, 42.32102, -4274.9169921875], [-125.13375, 42.31445, -4972.53369140625], [-125.12725, 42.32201, -4971.35107421875], [-125.13426, 42.32102, -4274.9169921875]]], [[[-125.20556, 42.14097, -4735.9150390625], [-125.19945, 42.14549, -5524.154296875], [-125.2033, 42.15058, -4798.98486328125], [-125.20556, 42.14097, -4735.9150390625]]], [[[-125.17686, 42.26429, -3672.90087890625], [-125.17266, 42.27283, -3698.46728515625], [-125.17972, 42.27056, -2951.1474609375], [-125.17686, 42.26429, -3672.90087890625]]], [[[-125.14013, 42.30685, -4975.732421875], [-125.14736, 42.30595, -4258.9208984375], [-125.14703, 42.2995, -4973.59765625], [-125.14013, 42.30685, -4975.732421875]]], [[[-125.15806, 42.29792, -3955.451171875], [-125.15367, 42.29212, -4974.00390625], [-125.14703, 42.2995, -4973.59765625], [-125.15806, 42.29792, -3955.451171875]]], [[[-125.20914, 42.14861, -4121.9853515625], [-125.20556, 42.14097, -4735.9150390625], [-125.2033, 42.15058, -4798.98486328125], [-125.20914, 42.14861, -4121.9853515625]]], [[[-125.15806, 42.29792, -3955.451171875], [-125.16162, 42.30338, -2950.260498046875], [-125.16794, 42.29588, -2975.39794921875], [-125.15806, 42.29792, -3955.451171875]]], [[[-125.18486, 42.22266, -3863.863525390625], [-125.1828, 42.21265, -4007.908203125], [-125.17937, 42.21899, -4627.8251953125], [-125.18486, 42.22266, -3863.863525390625]]], [[[-125.20914, 42.14861, -4121.9853515625], [-125.21091, 42.13836, -4003.3701171875], [-125.20556, 42.14097, -4735.9150390625], [-125.20914, 42.14861, -4121.9853515625]]], [[[-125.20914, 42.14861, -4121.9853515625], [-125.21483, 42.14652, -3356.38818359375], [-125.21091, 42.13836, -4003.3701171875], [-125.20914, 42.14861, -4121.9853515625]]], [[[-125.20652, 42.13029, -4644.38916015625], [-125.20025, 42.13655, -5541.13720703125], [-125.20556, 42.14097, -4735.9150390625], [-125.20652, 42.13029, -4644.38916015625]]], [[[-125.14101, 42.31979, -3633.56640625], [-125.134, 42.32713, -3647.432373046875], [-125.1419, 42.32583, -2945.074951171875], [-125.14101, 42.31979, -3633.56640625]]], [[[-125.17687, 42.2556, -3900.587158203125], [-125.17146, 42.25596, -4639.08984375], [-125.17372, 42.26054, -4254.60302734375], [-125.17687, 42.2556, -3900.587158203125]]], [[[-125.07955, 42.34909, -5184.63525390625], [-125.08503, 42.35073, -4401.580078125], [-125.08943, 42.34396, -5135.7998046875], [-125.07955, 42.34909, -5184.63525390625]]], [[[-125.09657, 42.34584, -4165.6337890625], [-125.08503, 42.35073, -4401.580078125], [-125.09052, 42.35236, -3618.525146484375], [-125.09657, 42.34584, -4165.6337890625]]], [[[-125.16985, 42.26109, -4734.888671875], [-125.16456, 42.2665, -5082.42431640625], [-125.16967, 42.26635, -4451.48779296875], [-125.16985, 42.26109, -4734.888671875]]], [[[-125.16456, 42.2665, -5082.42431640625], [-125.16985, 42.26109, -4734.888671875], [-125.16771, 42.2579, -5124.70849609375], [-125.16456, 42.2665, -5082.42431640625]]], [[[-125.14081, 42.31333, -4268.4384765625], [-125.13426, 42.32102, -4274.9169921875], [-125.14101, 42.31979, -3633.56640625], [-125.14081, 42.31333, -4268.4384765625]]], [[[-125.15806, 42.29792, -3955.451171875], [-125.16794, 42.29588, -2975.39794921875], [-125.16298, 42.28981, -3937.029052734375], [-125.15806, 42.29792, -3955.451171875]]], [[[-125.18486, 42.22266, -3863.863525390625], [-125.1898, 42.22428, -3149.359375], [-125.18823, 42.21528, -3238.856201171875], [-125.18486, 42.22266, -3863.863525390625]]], [[[-125.14736, 42.30595, -4258.9208984375], [-125.1474, 42.31229, -3611.494140625], [-125.15373, 42.30474, -3671.34228515625], [-125.14736, 42.30595, -4258.9208984375]]], [[[-125.14101, 42.31979, -3633.56640625], [-125.1419, 42.32583, -2945.074951171875], [-125.14843, 42.31833, -2928.837158203125], [-125.14101, 42.31979, -3633.56640625]]], [[[-125.21289, 42.15502, -3352.93505859375], [-125.21483, 42.14652, -3356.38818359375], [-125.20914, 42.14861, -4121.9853515625], [-125.21289, 42.15502, -3352.93505859375]]], [[[-125.17204, 42.24057, -5227.177734375], [-125.16865, 42.24901, -5187.787109375], [-125.17422, 42.2501, -4417.6201171875], [-125.17204, 42.24057, -5227.177734375]]], [[[-125.16967, 42.26635, -4451.48779296875], [-125.16671, 42.27335, -4410.23193359375], [-125.17266, 42.27283, -3698.46728515625], [-125.16967, 42.26635, -4451.48779296875]]], [[[-125.21289, 42.15502, -3352.93505859375], [-125.22003, 42.15175, -2552.52880859375], [-125.21483, 42.14652, -3356.38818359375], [-125.21289, 42.15502, -3352.93505859375]]], [[[-125.15806, 42.29792, -3955.451171875], [-125.15373, 42.30474, -3671.34228515625], [-125.16162, 42.30338, -2950.260498046875], [-125.15806, 42.29792, -3955.451171875]]], [[[-125.10713, 42.34134, -3955.084716796875], [-125.11558, 42.3337, -4270.65966796875], [-125.10846, 42.33305, -5049.998046875], [-125.10713, 42.34134, -3955.084716796875]]], [[[-125.21289, 42.15502, -3352.93505859375], [-125.21719, 42.16043, -2557.807861328125], [-125.22003, 42.15175, -2552.52880859375], [-125.21289, 42.15502, -3352.93505859375]]], [[[-125.17266, 42.27283, -3698.46728515625], [-125.17588, 42.27902, -2933.01123046875], [-125.17972, 42.27056, -2951.1474609375], [-125.17266, 42.27283, -3698.46728515625]]], [[[-125.10713, 42.34134, -3955.084716796875], [-125.09929, 42.33885, -5086.99609375], [-125.09657, 42.34584, -4165.6337890625], [-125.10713, 42.34134, -3955.084716796875]]], [[[-125.10713, 42.34134, -3955.084716796875], [-125.10523, 42.34838, -2938.591796875], [-125.11499, 42.3432, -2908.4375], [-125.10713, 42.34134, -3955.084716796875]]], [[[-125.1474, 42.31229, -3611.494140625], [-125.14843, 42.31833, -2928.837158203125], [-125.15492, 42.3108, -2914.673583984375], [-125.1474, 42.31229, -3611.494140625]]], [[[-125.20965, 42.16302, -3367.03564453125], [-125.21719, 42.16043, -2557.807861328125], [-125.21289, 42.15502, -3352.93505859375], [-125.20965, 42.16302, -3367.03564453125]]], [[[-125.16671, 42.27335, -4410.23193359375], [-125.16456, 42.2665, -5082.42431640625], [-125.16081, 42.27501, -5047.10400390625], [-125.16671, 42.27335, -4410.23193359375]]], [[[-125.09657, 42.34584, -4165.6337890625], [-125.09929, 42.33885, -5086.99609375], [-125.08943, 42.34396, -5135.7998046875], [-125.09657, 42.34584, -4165.6337890625]]], [[[-125.20965, 42.16302, -3367.03564453125], [-125.21309, 42.16883, -2586.70849609375], [-125.21719, 42.16043, -2557.807861328125], [-125.20965, 42.16302, -3367.03564453125]]], [[[-125.1828, 42.21265, -4007.908203125], [-125.18486, 42.22266, -3863.863525390625], [-125.18823, 42.21528, -3238.856201171875], [-125.1828, 42.21265, -4007.908203125]]], [[[-125.16967, 42.26635, -4451.48779296875], [-125.17372, 42.26054, -4254.60302734375], [-125.16985, 42.26109, -4734.888671875], [-125.16967, 42.26635, -4451.48779296875]]], [[[-125.1474, 42.31229, -3611.494140625], [-125.14101, 42.31979, -3633.56640625], [-125.14843, 42.31833, -2928.837158203125], [-125.1474, 42.31229, -3611.494140625]]], [[[-125.20592, 42.17202, -3388.967041015625], [-125.21309, 42.16883, -2586.70849609375], [-125.20965, 42.16302, -3367.03564453125], [-125.20592, 42.17202, -3388.967041015625]]], [[[-125.20592, 42.17202, -3388.967041015625], [-125.21017, 42.1775, -2596.852783203125], [-125.21309, 42.16883, -2586.70849609375], [-125.20592, 42.17202, -3388.967041015625]]], [[[-125.134, 42.32713, -3647.432373046875], [-125.13374, 42.33217, -2818.094482421875], [-125.1419, 42.32583, -2945.074951171875], [-125.134, 42.32713, -3647.432373046875]]], [[[-125.2031, 42.18071, -3369.52001953125], [-125.21017, 42.1775, -2596.852783203125], [-125.20592, 42.17202, -3388.967041015625], [-125.2031, 42.18071, -3369.52001953125]]], [[[-125.1669, 42.28123, -3929.464599609375], [-125.16081, 42.27501, -5047.10400390625], [-125.15723, 42.28356, -5010.228515625], [-125.1669, 42.28123, -3929.464599609375]]], [[[-125.14736, 42.30595, -4258.9208984375], [-125.15373, 42.30474, -3671.34228515625], [-125.15806, 42.29792, -3955.451171875], [-125.14736, 42.30595, -4258.9208984375]]], [[[-125.20079, 42.11864, -5588.93115234375], [-125.20012, 42.12759, -5568.876953125], [-125.20609, 42.12023, -4822.4970703125], [-125.20079, 42.11864, -5588.93115234375]]], [[[-125.2031, 42.18071, -3369.52001953125], [-125.20728, 42.18617, -2575.430419921875], [-125.21017, 42.1775, -2596.852783203125], [-125.2031, 42.18071, -3369.52001953125]]], [[[-125.20012, 42.12759, -5568.876953125], [-125.20652, 42.13029, -4644.38916015625], [-125.20609, 42.12023, -4822.4970703125], [-125.20012, 42.12759, -5568.876953125]]], [[[-125.12554, 42.32801, -4277.05224609375], [-125.11815, 42.32771, -5006.59423828125], [-125.11558, 42.3337, -4270.65966796875], [-125.12554, 42.32801, -4277.05224609375]]], [[[-125.16671, 42.27335, -4410.23193359375], [-125.16967, 42.26635, -4451.48779296875], [-125.16456, 42.2665, -5082.42431640625], [-125.16671, 42.27335, -4410.23193359375]]], [[[-125.19908, 42.18851, -3345.5048828125], [-125.20728, 42.18617, -2575.430419921875], [-125.2031, 42.18071, -3369.52001953125], [-125.19908, 42.18851, -3345.5048828125]]], [[[-125.11686, 42.33742, -3548.419189453125], [-125.12436, 42.33769, -2794.742919921875], [-125.12541, 42.33235, -3555.499755859375], [-125.11686, 42.33742, -3548.419189453125]]], [[[-125.19908, 42.18851, -3345.5048828125], [-125.20172, 42.19404, -2512.061279296875], [-125.20728, 42.18617, -2575.430419921875], [-125.19908, 42.18851, -3345.5048828125]]], [[[-125.13426, 42.32102, -4274.9169921875], [-125.134, 42.32713, -3647.432373046875], [-125.14101, 42.31979, -3633.56640625], [-125.13426, 42.32102, -4274.9169921875]]], [[[-125.17422, 42.2501, -4417.6201171875], [-125.16865, 42.24901, -5187.787109375], [-125.17146, 42.25596, -4639.08984375], [-125.17422, 42.2501, -4417.6201171875]]], [[[-125.17204, 42.24057, -5227.177734375], [-125.17422, 42.2501, -4417.6201171875], [-125.17782, 42.24321, -4343.8193359375], [-125.17204, 42.24057, -5227.177734375]]], [[[-125.15806, 42.29792, -3955.451171875], [-125.14703, 42.2995, -4973.59765625], [-125.14736, 42.30595, -4258.9208984375], [-125.15806, 42.29792, -3955.451171875]]], [[[-125.19361, 42.19635, -3290.679443359375], [-125.20172, 42.19404, -2512.061279296875], [-125.19908, 42.18851, -3345.5048828125], [-125.19361, 42.19635, -3290.679443359375]]], [[[-125.19361, 42.19635, -3290.679443359375], [-125.19656, 42.20211, -2483.08056640625], [-125.20172, 42.19404, -2512.061279296875], [-125.19361, 42.19635, -3290.679443359375]]], [[[-125.21091, 42.13836, -4003.3701171875], [-125.21336, 42.13055, -3670.07275390625], [-125.20652, 42.13029, -4644.38916015625], [-125.21091, 42.13836, -4003.3701171875]]], [[[-125.17686, 42.26429, -3672.90087890625], [-125.17687, 42.2556, -3900.587158203125], [-125.17372, 42.26054, -4254.60302734375], [-125.17686, 42.26429, -3672.90087890625]]], [[[-125.11558, 42.3337, -4270.65966796875], [-125.10713, 42.34134, -3955.084716796875], [-125.11686, 42.33742, -3548.419189453125], [-125.11558, 42.3337, -4270.65966796875]]], [[[-125.18856, 42.20563, -3336.427734375], [-125.19656, 42.20211, -2483.08056640625], [-125.19361, 42.19635, -3290.679443359375], [-125.18856, 42.20563, -3336.427734375]]], [[[-125.11686, 42.33742, -3548.419189453125], [-125.11499, 42.3432, -2908.4375], [-125.12436, 42.33769, -2794.742919921875], [-125.11686, 42.33742, -3548.419189453125]]], [[[-125.18856, 42.20563, -3336.427734375], [-125.19343, 42.21072, -2467.662353515625], [-125.19656, 42.20211, -2483.08056640625], [-125.18856, 42.20563, -3336.427734375]]], [[[-125.16298, 42.28981, -3937.029052734375], [-125.1669, 42.28123, -3929.464599609375], [-125.15723, 42.28356, -5010.228515625], [-125.16298, 42.28981, -3937.029052734375]]], [[[-125.18856, 42.20563, -3336.427734375], [-125.18823, 42.21528, -3238.856201171875], [-125.19343, 42.21072, -2467.662353515625], [-125.18856, 42.20563, -3336.427734375]]], [[[-125.10846, 42.33305, -5049.998046875], [-125.11558, 42.3337, -4270.65966796875], [-125.11815, 42.32771, -5006.59423828125], [-125.10846, 42.33305, -5049.998046875]]], [[[-125.18856, 42.20563, -3336.427734375], [-125.1828, 42.21265, -4007.908203125], [-125.18823, 42.21528, -3238.856201171875], [-125.18856, 42.20563, -3336.427734375]]], [[[-125.08503, 42.35073, -4401.580078125], [-125.09657, 42.34584, -4165.6337890625], [-125.08943, 42.34396, -5135.7998046875], [-125.08503, 42.35073, -4401.580078125]]], [[[-125.1828, 42.21265, -4007.908203125], [-125.18856, 42.20563, -3336.427734375], [-125.18083, 42.20577, -4342.69677734375], [-125.1828, 42.21265, -4007.908203125]]], [[[-125.1669, 42.28123, -3929.464599609375], [-125.16298, 42.28981, -3937.029052734375], [-125.17179, 42.28742, -2966.6015625], [-125.1669, 42.28123, -3929.464599609375]]], [[[-125.17708, 42.21059, -4830.34228515625], [-125.1828, 42.21265, -4007.908203125], [-125.18083, 42.20577, -4342.69677734375], [-125.17708, 42.21059, -4830.34228515625]]], [[[-125.1669, 42.28123, -3929.464599609375], [-125.17179, 42.28742, -2966.6015625], [-125.17588, 42.27902, -2933.01123046875], [-125.1669, 42.28123, -3929.464599609375]]], [[[-125.17708, 42.21059, -4830.34228515625], [-125.17937, 42.21899, -4627.8251953125], [-125.1828, 42.21265, -4007.908203125], [-125.17708, 42.21059, -4830.34228515625]]], [[[-125.1669, 42.28123, -3929.464599609375], [-125.17588, 42.27902, -2933.01123046875], [-125.17266, 42.27283, -3698.46728515625], [-125.1669, 42.28123, -3929.464599609375]]], [[[-125.17708, 42.21059, -4830.34228515625], [-125.17405, 42.21718, -5394.6806640625], [-125.17937, 42.21899, -4627.8251953125], [-125.17708, 42.21059, -4830.34228515625]]], [[[-125.17686, 42.26429, -3672.90087890625], [-125.17972, 42.27056, -2951.1474609375], [-125.18376, 42.26228, -2844.890869140625], [-125.17686, 42.26429, -3672.90087890625]]], [[[-125.17708, 42.21059, -4830.34228515625], [-125.17271, 42.20916, -5460.33251953125], [-125.17405, 42.21718, -5394.6806640625], [-125.17708, 42.21059, -4830.34228515625]]], [[[-125.17708, 42.21059, -4830.34228515625], [-125.17318, 42.20231, -5501.6474609375], [-125.17271, 42.20916, -5460.33251953125], [-125.17708, 42.21059, -4830.34228515625]]], [[[-125.15373, 42.30474, -3671.34228515625], [-125.15492, 42.3108, -2914.673583984375], [-125.16162, 42.30338, -2950.260498046875], [-125.15373, 42.30474, -3671.34228515625]]], [[[-125.21091, 42.13836, -4003.3701171875], [-125.20652, 42.13029, -4644.38916015625], [-125.20556, 42.14097, -4735.9150390625], [-125.21091, 42.13836, -4003.3701171875]]], [[[-125.12554, 42.32801, -4277.05224609375], [-125.134, 42.32713, -3647.432373046875], [-125.13426, 42.32102, -4274.9169921875], [-125.12554, 42.32801, -4277.05224609375]]], [[[-125.17708, 42.21059, -4830.34228515625], [-125.18083, 42.20577, -4342.69677734375], [-125.17318, 42.20231, -5501.6474609375], [-125.17708, 42.21059, -4830.34228515625]]], [[[-125.13374, 42.33217, -2818.094482421875], [-125.12541, 42.33235, -3555.499755859375], [-125.12436, 42.33769, -2794.742919921875], [-125.13374, 42.33217, -2818.094482421875]]], [[[-125.18083, 42.20577, -4342.69677734375], [-125.17907, 42.1991, -4875.52734375], [-125.17318, 42.20231, -5501.6474609375], [-125.18083, 42.20577, -4342.69677734375]]], [[[-125.1854, 42.19937, -4045.940673828125], [-125.17907, 42.1991, -4875.52734375], [-125.18083, 42.20577, -4342.69677734375], [-125.1854, 42.19937, -4045.940673828125]]], [[[-125.11686, 42.33742, -3548.419189453125], [-125.10713, 42.34134, -3955.084716796875], [-125.11499, 42.3432, -2908.4375], [-125.11686, 42.33742, -3548.419189453125]]], [[[-125.21483, 42.14652, -3356.38818359375], [-125.22003, 42.15175, -2552.52880859375], [-125.221, 42.14284, -2544.151123046875], [-125.21483, 42.14652, -3356.38818359375]]], [[[-125.14081, 42.31333, -4268.4384765625], [-125.14013, 42.30685, -4975.732421875], [-125.13375, 42.31445, -4972.53369140625], [-125.14081, 42.31333, -4268.4384765625]]], [[[-125.1854, 42.19937, -4045.940673828125], [-125.18378, 42.19259, -4774.47216796875], [-125.17907, 42.1991, -4875.52734375], [-125.1854, 42.19937, -4045.940673828125]]], [[[-125.21336, 42.13055, -3670.07275390625], [-125.2167, 42.12341, -3289.62841796875], [-125.21139, 42.12182, -4056.0625], [-125.21336, 42.13055, -3670.07275390625]]], [[[-125.1854, 42.19937, -4045.940673828125], [-125.19077, 42.19098, -4071.00927734375], [-125.18378, 42.19259, -4774.47216796875], [-125.1854, 42.19937, -4045.940673828125]]], [[[-125.19077, 42.19098, -4071.00927734375], [-125.1854, 42.19937, -4045.940673828125], [-125.19361, 42.19635, -3290.679443359375], [-125.19077, 42.19098, -4071.00927734375]]], [[[-125.09657, 42.34584, -4165.6337890625], [-125.10523, 42.34838, -2938.591796875], [-125.10713, 42.34134, -3955.084716796875], [-125.09657, 42.34584, -4165.6337890625]]], [[[-125.19908, 42.18851, -3345.5048828125], [-125.19077, 42.19098, -4071.00927734375], [-125.19361, 42.19635, -3290.679443359375], [-125.19908, 42.18851, -3345.5048828125]]], [[[-125.17372, 42.26054, -4254.60302734375], [-125.16967, 42.26635, -4451.48779296875], [-125.17686, 42.26429, -3672.90087890625], [-125.17372, 42.26054, -4254.60302734375]]], [[[-125.19625, 42.18325, -4142.02587890625], [-125.19077, 42.19098, -4071.00927734375], [-125.19908, 42.18851, -3345.5048828125], [-125.19625, 42.18325, -4142.02587890625]]], [[[-125.20652, 42.13029, -4644.38916015625], [-125.20012, 42.12759, -5568.876953125], [-125.20025, 42.13655, -5541.13720703125], [-125.20652, 42.13029, -4644.38916015625]]], [[[-125.19077, 42.19098, -4071.00927734375], [-125.19625, 42.18325, -4142.02587890625], [-125.18968, 42.18454, -4810.986328125], [-125.19077, 42.19098, -4071.00927734375]]], [[[-125.19077, 42.19098, -4071.00927734375], [-125.18968, 42.18454, -4810.986328125], [-125.18378, 42.19259, -4774.47216796875], [-125.19077, 42.19098, -4071.00927734375]]], [[[-125.18378, 42.19259, -4774.47216796875], [-125.18968, 42.18454, -4810.986328125], [-125.18156, 42.1869, -5524.9189453125], [-125.18378, 42.19259, -4774.47216796875]]], [[[-125.18378, 42.19259, -4774.47216796875], [-125.18156, 42.1869, -5524.9189453125], [-125.17613, 42.19478, -5527.70849609375], [-125.18378, 42.19259, -4774.47216796875]]], [[[-125.17907, 42.1991, -4875.52734375], [-125.18378, 42.19259, -4774.47216796875], [-125.17613, 42.19478, -5527.70849609375], [-125.17907, 42.1991, -4875.52734375]]], [[[-125.17907, 42.1991, -4875.52734375], [-125.17613, 42.19478, -5527.70849609375], [-125.17318, 42.20231, -5501.6474609375], [-125.17907, 42.1991, -4875.52734375]]], [[[-125.21483, 42.14652, -3356.38818359375], [-125.21616, 42.13834, -3246.739013671875], [-125.21091, 42.13836, -4003.3701171875], [-125.21483, 42.14652, -3356.38818359375]]], [[[-125.16298, 42.28981, -3937.029052734375], [-125.16794, 42.29588, -2975.39794921875], [-125.17179, 42.28742, -2966.6015625], [-125.16298, 42.28981, -3937.029052734375]]], [[[-125.18968, 42.18454, -4810.986328125], [-125.18717, 42.17905, -5514.40234375], [-125.18156, 42.1869, -5524.9189453125], [-125.18968, 42.18454, -4810.986328125]]], [[[-125.18968, 42.18454, -4810.986328125], [-125.19367, 42.1758, -4819.46826171875], [-125.18717, 42.17905, -5514.40234375], [-125.18968, 42.18454, -4810.986328125]]], [[[-125.19625, 42.18325, -4142.02587890625], [-125.19367, 42.1758, -4819.46826171875], [-125.18968, 42.18454, -4810.986328125], [-125.19625, 42.18325, -4142.02587890625]]], [[[-125.19625, 42.18325, -4142.02587890625], [-125.19944, 42.17495, -4113.88818359375], [-125.19367, 42.1758, -4819.46826171875], [-125.19625, 42.18325, -4142.02587890625]]], [[[-125.19944, 42.17495, -4113.88818359375], [-125.19625, 42.18325, -4142.02587890625], [-125.2031, 42.18071, -3369.52001953125], [-125.19944, 42.17495, -4113.88818359375]]], [[[-125.2031, 42.18071, -3369.52001953125], [-125.20592, 42.17202, -3388.967041015625], [-125.19944, 42.17495, -4113.88818359375], [-125.2031, 42.18071, -3369.52001953125]]], [[[-125.16671, 42.27335, -4410.23193359375], [-125.1669, 42.28123, -3929.464599609375], [-125.17266, 42.27283, -3698.46728515625], [-125.16671, 42.27335, -4410.23193359375]]], [[[-125.16771, 42.2579, -5124.70849609375], [-125.17146, 42.25596, -4639.08984375], [-125.16865, 42.24901, -5187.787109375], [-125.16771, 42.2579, -5124.70849609375]]], [[[-125.16298, 42.28981, -3937.029052734375], [-125.15367, 42.29212, -4974.00390625], [-125.15806, 42.29792, -3955.451171875], [-125.16298, 42.28981, -3937.029052734375]]], [[[-125.20252, 42.16609, -4089.77880859375], [-125.19944, 42.17495, -4113.88818359375], [-125.20592, 42.17202, -3388.967041015625], [-125.20252, 42.16609, -4089.77880859375]]], [[[-125.19944, 42.17495, -4113.88818359375], [-125.20252, 42.16609, -4089.77880859375], [-125.19658, 42.16778, -4798.2998046875], [-125.19944, 42.17495, -4113.88818359375]]], [[[-125.19944, 42.17495, -4113.88818359375], [-125.19658, 42.16778, -4798.2998046875], [-125.19367, 42.1758, -4819.46826171875], [-125.19944, 42.17495, -4113.88818359375]]], [[[-125.21616, 42.13834, -3246.739013671875], [-125.22101, 42.1339, -2552.1298828125], [-125.21336, 42.13055, -3670.07275390625], [-125.21616, 42.13834, -3246.739013671875]]], [[[-125.19367, 42.1758, -4819.46826171875], [-125.19658, 42.16778, -4798.2998046875], [-125.19003, 42.17085, -5527.8251953125], [-125.19367, 42.1758, -4819.46826171875]]], [[[-125.19367, 42.1758, -4819.46826171875], [-125.19003, 42.17085, -5527.8251953125], [-125.18717, 42.17905, -5514.40234375], [-125.19367, 42.1758, -4819.46826171875]]], [[[-125.19658, 42.16778, -4798.2998046875], [-125.19269, 42.16264, -5533.51416015625], [-125.19003, 42.17085, -5527.8251953125], [-125.19658, 42.16778, -4798.2998046875]]], [[[-125.19658, 42.16778, -4798.2998046875], [-125.2, 42.1595, -4797.44140625], [-125.19269, 42.16264, -5533.51416015625], [-125.19658, 42.16778, -4798.2998046875]]], [[[-125.21091, 42.13836, -4003.3701171875], [-125.21616, 42.13834, -3246.739013671875], [-125.21336, 42.13055, -3670.07275390625], [-125.21091, 42.13836, -4003.3701171875]]], [[[-125.20252, 42.16609, -4089.77880859375], [-125.2, 42.1595, -4797.44140625], [-125.19658, 42.16778, -4798.2998046875], [-125.20252, 42.16609, -4089.77880859375]]], [[[-125.20252, 42.16609, -4089.77880859375], [-125.20618, 42.15752, -4123.53369140625], [-125.2, 42.1595, -4797.44140625], [-125.20252, 42.16609, -4089.77880859375]]], [[[-125.20618, 42.15752, -4123.53369140625], [-125.20252, 42.16609, -4089.77880859375], [-125.20965, 42.16302, -3367.03564453125], [-125.20618, 42.15752, -4123.53369140625]]], [[[-125.20652, 42.13029, -4644.38916015625], [-125.21336, 42.13055, -3670.07275390625], [-125.21139, 42.12182, -4056.0625], [-125.20652, 42.13029, -4644.38916015625]]], [[[-125.21289, 42.15502, -3352.93505859375], [-125.20618, 42.15752, -4123.53369140625], [-125.20965, 42.16302, -3367.03564453125], [-125.21289, 42.15502, -3352.93505859375]]], [[[-125.1669, 42.28123, -3929.464599609375], [-125.16671, 42.27335, -4410.23193359375], [-125.16081, 42.27501, -5047.10400390625], [-125.1669, 42.28123, -3929.464599609375]]], [[[-125.20914, 42.14861, -4121.9853515625], [-125.20618, 42.15752, -4123.53369140625], [-125.21289, 42.15502, -3352.93505859375], [-125.20914, 42.14861, -4121.9853515625]]], [[[-125.17687, 42.2556, -3900.587158203125], [-125.17422, 42.2501, -4417.6201171875], [-125.17146, 42.25596, -4639.08984375], [-125.17687, 42.2556, -3900.587158203125]]], [[[-125.21616, 42.13834, -3246.739013671875], [-125.221, 42.14284, -2544.151123046875], [-125.22101, 42.1339, -2552.1298828125], [-125.21616, 42.13834, -3246.739013671875]]], [[[-125.1898, 42.22428, -3149.359375], [-125.19494, 42.2285, -2446.134765625], [-125.19395, 42.21959, -2457.322998046875], [-125.1898, 42.22428, -3149.359375]]], [[[-125.20618, 42.15752, -4123.53369140625], [-125.20914, 42.14861, -4121.9853515625], [-125.2033, 42.15058, -4798.98486328125], [-125.20618, 42.15752, -4123.53369140625]]], [[[-125.21336, 42.13055, -3670.07275390625], [-125.22101, 42.1339, -2552.1298828125], [-125.2167, 42.12341, -3289.62841796875], [-125.21336, 42.13055, -3670.07275390625]]], [[[-125.14736, 42.30595, -4258.9208984375], [-125.14081, 42.31333, -4268.4384765625], [-125.1474, 42.31229, -3611.494140625], [-125.14736, 42.30595, -4258.9208984375]]], [[[-125.17146, 42.25596, -4639.08984375], [-125.16985, 42.26109, -4734.888671875], [-125.17372, 42.26054, -4254.60302734375], [-125.17146, 42.25596, -4639.08984375]]], [[[-125.20618, 42.15752, -4123.53369140625], [-125.2033, 42.15058, -4798.98486328125], [-125.2, 42.1595, -4797.44140625], [-125.20618, 42.15752, -4123.53369140625]]], [[[-125.2, 42.1595, -4797.44140625], [-125.2033, 42.15058, -4798.98486328125], [-125.19657, 42.15419, -5523.978515625], [-125.2, 42.1595, -4797.44140625]]], [[[-125.2, 42.1595, -4797.44140625], [-125.19657, 42.15419, -5523.978515625], [-125.19269, 42.16264, -5533.51416015625], [-125.2, 42.1595, -4797.44140625]]], [[[-125.19657, 42.15419, -5523.978515625], [-125.2033, 42.15058, -4798.98486328125], [-125.19945, 42.14549, -5524.154296875], [-125.19657, 42.15419, -5523.978515625]]], [[[-125.20592, 42.17202, -3388.967041015625], [-125.20965, 42.16302, -3367.03564453125], [-125.20252, 42.16609, -4089.77880859375], [-125.20592, 42.17202, -3388.967041015625]]], [[[-125.2031, 42.18071, -3369.52001953125], [-125.19625, 42.18325, -4142.02587890625], [-125.19908, 42.18851, -3345.5048828125], [-125.2031, 42.18071, -3369.52001953125]]], [[[-125.1854, 42.19937, -4045.940673828125], [-125.18856, 42.20563, -3336.427734375], [-125.19361, 42.19635, -3290.679443359375], [-125.1854, 42.19937, -4045.940673828125]]], [[[-125.20652, 42.13029, -4644.38916015625], [-125.21139, 42.12182, -4056.0625], [-125.20609, 42.12023, -4822.4970703125], [-125.20652, 42.13029, -4644.38916015625]]], [[[-125.18856, 42.20563, -3336.427734375], [-125.1854, 42.19937, -4045.940673828125], [-125.18083, 42.20577, -4342.69677734375], [-125.18856, 42.20563, -3336.427734375]]], [[[-125.17937, 42.21899, -4627.8251953125], [-125.17405, 42.21718, -5394.6806640625], [-125.17508, 42.2256, -5320.892578125], [-125.17937, 42.21899, -4627.8251953125]]], [[[-125.18056, 42.22847, -4531.90380859375], [-125.17937, 42.21899, -4627.8251953125], [-125.17508, 42.2256, -5320.892578125], [-125.18056, 42.22847, -4531.90380859375]]], [[[-125.18056, 42.22847, -4531.90380859375], [-125.18486, 42.22266, -3863.863525390625], [-125.17937, 42.21899, -4627.8251953125], [-125.18056, 42.22847, -4531.90380859375]]], [[[-125.18056, 42.22847, -4531.90380859375], [-125.18813, 42.23216, -3439.678466796875], [-125.18486, 42.22266, -3863.863525390625], [-125.18056, 42.22847, -4531.90380859375]]], [[[-125.18056, 42.22847, -4531.90380859375], [-125.18051, 42.23546, -4437.796875], [-125.18813, 42.23216, -3439.678466796875], [-125.18056, 42.22847, -4531.90380859375]]], [[[-125.18056, 42.22847, -4531.90380859375], [-125.1751, 42.23306, -5261.95166015625], [-125.18051, 42.23546, -4437.796875], [-125.18056, 42.22847, -4531.90380859375]]], [[[-125.1751, 42.23306, -5261.95166015625], [-125.18056, 42.22847, -4531.90380859375], [-125.17508, 42.2256, -5320.892578125], [-125.1751, 42.23306, -5261.95166015625]]], [[[-125.17204, 42.24057, -5227.177734375], [-125.18051, 42.23546, -4437.796875], [-125.1751, 42.23306, -5261.95166015625], [-125.17204, 42.24057, -5227.177734375]]], [[[-125.17782, 42.24321, -4343.8193359375], [-125.18051, 42.23546, -4437.796875], [-125.17204, 42.24057, -5227.177734375], [-125.17782, 42.24321, -4343.8193359375]]], [[[-125.17782, 42.24321, -4343.8193359375], [-125.18659, 42.2403, -3391.5712890625], [-125.18051, 42.23546, -4437.796875], [-125.17782, 42.24321, -4343.8193359375]]], [[[-125.096, 42.354, -2835.469970703125], [-125.10523, 42.34838, -2938.591796875], [-125.09052, 42.35236, -3618.525146484375], [-125.096, 42.354, -2835.469970703125]]], [[[-125.17782, 42.24321, -4343.8193359375], [-125.1835, 42.24827, -3337.202880859375], [-125.18659, 42.2403, -3391.5712890625], [-125.17782, 42.24321, -4343.8193359375]]], [[[-125.17422, 42.2501, -4417.6201171875], [-125.1835, 42.24827, -3337.202880859375], [-125.17782, 42.24321, -4343.8193359375], [-125.17422, 42.2501, -4417.6201171875]]], [[[-125.17687, 42.2556, -3900.587158203125], [-125.1835, 42.24827, -3337.202880859375], [-125.17422, 42.2501, -4417.6201171875], [-125.17687, 42.2556, -3900.587158203125]]], [[[-125.09052, 42.35236, -3618.525146484375], [-125.10523, 42.34838, -2938.591796875], [-125.09657, 42.34584, -4165.6337890625], [-125.09052, 42.35236, -3618.525146484375]]], [[[-125.17687, 42.2556, -3900.587158203125], [-125.18108, 42.25569, -3319.964111328125], [-125.1835, 42.24827, -3337.202880859375], [-125.17687, 42.2556, -3900.587158203125]]], [[[-125.17686, 42.26429, -3672.90087890625], [-125.18108, 42.25569, -3319.964111328125], [-125.17687, 42.2556, -3900.587158203125], [-125.17686, 42.26429, -3672.90087890625]]], [[[-125.18108, 42.25569, -3319.964111328125], [-125.17686, 42.26429, -3672.90087890625], [-125.18376, 42.26228, -2844.890869140625], [-125.18108, 42.25569, -3319.964111328125]]], [[[-125.18108, 42.25569, -3319.964111328125], [-125.18376, 42.26228, -2844.890869140625], [-125.18734, 42.25433, -2510.86572265625], [-125.18108, 42.25569, -3319.964111328125]]], [[[-125.18108, 42.25569, -3319.964111328125], [-125.18734, 42.25433, -2510.86572265625], [-125.1835, 42.24827, -3337.202880859375], [-125.18108, 42.25569, -3319.964111328125]]], [[[-125.1835, 42.24827, -3337.202880859375], [-125.18734, 42.25433, -2510.86572265625], [-125.19147, 42.24595, -2452.9345703125], [-125.1835, 42.24827, -3337.202880859375]]], [[[-125.18659, 42.2403, -3391.5712890625], [-125.1835, 42.24827, -3337.202880859375], [-125.19147, 42.24595, -2452.9345703125], [-125.18659, 42.2403, -3391.5712890625]]], [[[-125.18659, 42.2403, -3391.5712890625], [-125.19147, 42.24595, -2452.9345703125], [-125.195, 42.23743, -2451.251220703125], [-125.18659, 42.2403, -3391.5712890625]]], [[[-125.18659, 42.2403, -3391.5712890625], [-125.195, 42.23743, -2451.251220703125], [-125.18813, 42.23216, -3439.678466796875], [-125.18659, 42.2403, -3391.5712890625]]], [[[-125.18051, 42.23546, -4437.796875], [-125.18659, 42.2403, -3391.5712890625], [-125.18813, 42.23216, -3439.678466796875], [-125.18051, 42.23546, -4437.796875]]], [[[-125.18813, 42.23216, -3439.678466796875], [-125.195, 42.23743, -2451.251220703125], [-125.19494, 42.2285, -2446.134765625], [-125.18813, 42.23216, -3439.678466796875]]], [[[-125.18813, 42.23216, -3439.678466796875], [-125.19494, 42.2285, -2446.134765625], [-125.1898, 42.22428, -3149.359375], [-125.18813, 42.23216, -3439.678466796875]]], [[[-125.18813, 42.23216, -3439.678466796875], [-125.1898, 42.22428, -3149.359375], [-125.18486, 42.22266, -3863.863525390625], [-125.18813, 42.23216, -3439.678466796875]]], [[[-125.12554, 42.32801, -4277.05224609375], [-125.12725, 42.32201, -4971.35107421875], [-125.11815, 42.32771, -5006.59423828125], [-125.12554, 42.32801, -4277.05224609375]]], [[[-125.11558, 42.3337, -4270.65966796875], [-125.12541, 42.33235, -3555.499755859375], [-125.12554, 42.32801, -4277.05224609375], [-125.11558, 42.3337, -4270.65966796875]]], [[[-125.18823, 42.21528, -3238.856201171875], [-125.1898, 42.22428, -3149.359375], [-125.19395, 42.21959, -2457.322998046875], [-125.18823, 42.21528, -3238.856201171875]]], [[[-125.18823, 42.21528, -3238.856201171875], [-125.19395, 42.21959, -2457.322998046875], [-125.19343, 42.21072, -2467.662353515625], [-125.18823, 42.21528, -3238.856201171875]]], [[[-125.17146, 42.25596, -4639.08984375], [-125.16771, 42.2579, -5124.70849609375], [-125.16985, 42.26109, -4734.888671875], [-125.17146, 42.25596, -4639.08984375]]], [[[-125.16298, 42.28981, -3937.029052734375], [-125.15723, 42.28356, -5010.228515625], [-125.15367, 42.29212, -4974.00390625], [-125.16298, 42.28981, -3937.029052734375]]], [[[-125.14081, 42.31333, -4268.4384765625], [-125.14736, 42.30595, -4258.9208984375], [-125.14013, 42.30685, -4975.732421875], [-125.14081, 42.31333, -4268.4384765625]]], [[[-125.13426, 42.32102, -4274.9169921875], [-125.14081, 42.31333, -4268.4384765625], [-125.13375, 42.31445, -4972.53369140625], [-125.13426, 42.32102, -4274.9169921875]]], [[[-125.134, 42.32713, -3647.432373046875], [-125.12554, 42.32801, -4277.05224609375], [-125.12541, 42.33235, -3555.499755859375], [-125.134, 42.32713, -3647.432373046875]]], [[[-125.14081, 42.31333, -4268.4384765625], [-125.14101, 42.31979, -3633.56640625], [-125.1474, 42.31229, -3611.494140625], [-125.14081, 42.31333, -4268.4384765625]]], [[[-125.134, 42.32713, -3647.432373046875], [-125.12541, 42.33235, -3555.499755859375], [-125.13374, 42.33217, -2818.094482421875], [-125.134, 42.32713, -3647.432373046875]]], [[[-125.22101, 42.1339, -2552.1298828125], [-125.222, 42.125, -2523.194091796875], [-125.2167, 42.12341, -3289.62841796875], [-125.22101, 42.1339, -2552.1298828125]]], [[[-125.21483, 42.14652, -3356.38818359375], [-125.221, 42.14284, -2544.151123046875], [-125.21616, 42.13834, -3246.739013671875], [-125.21483, 42.14652, -3356.38818359375]]], [[[-125.11558, 42.3337, -4270.65966796875], [-125.11686, 42.33742, -3548.419189453125], [-125.12541, 42.33235, -3555.499755859375], [-125.11558, 42.3337, -4270.65966796875]]]]}}]}