{"type": "FeatureCollection", "features": [{"type": "Feature", "properties": {"name": "AW_SORE_6", "CFM_ID": 391, "region": "Offshore_OR", "primary_state/province": "OR", "secondary_state/province": null, "avg_dip": null, "dip_dir": "E", "rake": 90, "slip_sense": "Reverse", "fault_level": 2, "NSHM23_sliprates": null, "QFFDAgeCatBin": null, "QFFDAgeBin": null, "upper_depth": null, "upper_depth_constraint": "bathymetry", "lower_depth": null, "lower_depth_constraint": "megathrust", "3D_model_constraints": "trace extended at constant dip", "reference": "Goldfinger et al. (2023)", "nshm23_id": null, "lineage": null, "usgs_qffd_#": null, "comments": null, "id": "391"}, "geometry": {"type": "MultiPolygon", "coordinates": [[[[-125.14743, 43.11131, -3284.28759765625], [-125.1566, 43.11722, -3186.324951171875], [-125.15641, 43.11151, -2469.90380859375], [-125.14743, 43.11131, -3284.28759765625]]], [[[-125.13129, 43.1069, -3968.2294921875], [-125.12718, 43.10131, -4034.579833984375], [-125.12433, 43.10664, -4748.18896484375], [-125.13129, 43.1069, -3968.2294921875]]], [[[-125.20255, 43.20362, -1854.5743408203125], [-125.20267, 43.2082, -2332.4267578125], [-125.209, 43.211, -1920.5889892578125], [-125.20255, 43.20362, -1854.5743408203125]]], [[[-125.1753, 43.14493, -2620.916748046875], [-125.18274, 43.14835, -1830.740234375], [-125.17896, 43.14014, -1764.2515869140625], [-125.1753, 43.14493, -2620.916748046875]]], [[[-125.1641, 43.13469, -3101.5703125], [-125.17108, 43.1375, -2478.66552734375], [-125.16669, 43.12901, -2412.2626953125], [-125.1641, 43.13469, -3101.5703125]]], [[[-125.13877, 43.11108, -4041.706298828125], [-125.13257, 43.11153, -4695.13720703125], [-125.13965, 43.1149, -4655.07861328125], [-125.13877, 43.11108, -4041.706298828125]]], [[[-125.16506, 43.12112, -2429.661376953125], [-125.16669, 43.12901, -2412.2626953125], [-125.17092, 43.12412, -1712.224609375], [-125.16506, 43.12112, -2429.661376953125]]], [[[-125.19402, 43.20183, -2621.628173828125], [-125.20267, 43.2082, -2332.4267578125], [-125.20255, 43.20362, -1854.5743408203125], [-125.19402, 43.20183, -2621.628173828125]]], [[[-125.19402, 43.20183, -2621.628173828125], [-125.19406, 43.2071, -3182.957763671875], [-125.20267, 43.2082, -2332.4267578125], [-125.19402, 43.20183, -2621.628173828125]]], [[[-125.16285, 43.11585, -2317.083984375], [-125.16506, 43.12112, -2429.661376953125], [-125.16861, 43.11721, -1708.1346435546875], [-125.16285, 43.11585, -2317.083984375]]], [[[-125.18468, 43.20196, -3687.62646484375], [-125.19406, 43.2071, -3182.957763671875], [-125.19402, 43.20183, -2621.628173828125], [-125.18468, 43.20196, -3687.62646484375]]], [[[-125.19406, 43.2071, -3182.957763671875], [-125.18468, 43.20196, -3687.62646484375], [-125.18997, 43.20966, -3917.88623046875], [-125.19406, 43.2071, -3182.957763671875]]], [[[-125.19406, 43.2071, -3182.957763671875], [-125.18997, 43.20966, -3917.88623046875], [-125.19659, 43.21456, -3699.969482421875], [-125.19406, 43.2071, -3182.957763671875]]], [[[-125.19406, 43.2071, -3182.957763671875], [-125.19659, 43.21456, -3699.969482421875], [-125.20279, 43.21278, -2810.279296875], [-125.19406, 43.2071, -3182.957763671875]]], [[[-125.1641, 43.13469, -3101.5703125], [-125.16067, 43.12533, -3155.17236328125], [-125.15679, 43.13182, -3846.076416015625], [-125.1641, 43.13469, -3101.5703125]]], [[[-125.20279, 43.21278, -2810.279296875], [-125.20267, 43.2082, -2332.4267578125], [-125.19406, 43.2071, -3182.957763671875], [-125.20279, 43.21278, -2810.279296875]]], [[[-125.20267, 43.2082, -2332.4267578125], [-125.20279, 43.21278, -2810.279296875], [-125.209, 43.211, -1920.5889892578125], [-125.20267, 43.2082, -2332.4267578125]]], [[[-125.177, 43.17823, -2495.9287109375], [-125.1715, 43.17328, -3206.07080078125], [-125.17003, 43.17944, -3489.404541015625], [-125.177, 43.17823, -2495.9287109375]]], [[[-125.18997, 43.20966, -3917.88623046875], [-125.19038, 43.21635, -4589.65966796875], [-125.19659, 43.21456, -3699.969482421875], [-125.18997, 43.20966, -3917.88623046875]]], [[[-125.13283, 43.10107, -3310.623291015625], [-125.12718, 43.10131, -4034.579833984375], [-125.13129, 43.1069, -3968.2294921875], [-125.13283, 43.10107, -3310.623291015625]]], [[[-125.16669, 43.12901, -2412.2626953125], [-125.16506, 43.12112, -2429.661376953125], [-125.16067, 43.12533, -3155.17236328125], [-125.16669, 43.12901, -2412.2626953125]]], [[[-125.15409, 43.12336, -3942.167236328125], [-125.1506, 43.12881, -4627.1640625], [-125.15679, 43.13182, -3846.076416015625], [-125.15409, 43.12336, -3942.167236328125]]], [[[-125.19038, 43.21635, -4589.65966796875], [-125.18997, 43.20966, -3917.88623046875], [-125.18324, 43.20924, -4630.34326171875], [-125.19038, 43.21635, -4589.65966796875]]], [[[-125.15641, 43.11151, -2469.90380859375], [-125.16285, 43.11585, -2317.083984375], [-125.16431, 43.11116, -1659.5439453125], [-125.15641, 43.11151, -2469.90380859375]]], [[[-125.18468, 43.20196, -3687.62646484375], [-125.18324, 43.20924, -4630.34326171875], [-125.18997, 43.20966, -3917.88623046875], [-125.18468, 43.20196, -3687.62646484375]]], [[[-125.16884, 43.16599, -3738.5087890625], [-125.17602, 43.16957, -2595.507080078125], [-125.17609, 43.16107, -2793.835205078125], [-125.16884, 43.16599, -3738.5087890625]]], [[[-125.18468, 43.20196, -3687.62646484375], [-125.17616, 43.20211, -4667.435546875], [-125.18324, 43.20924, -4630.34326171875], [-125.18468, 43.20196, -3687.62646484375]]], [[[-125.12451, 43.08975, -4114.8779296875], [-125.12791, 43.09565, -3702.250732421875], [-125.12863, 43.08856, -3518.844970703125], [-125.12451, 43.08975, -4114.8779296875]]], [[[-125.16993, 43.15625, -3794.007568359375], [-125.17609, 43.16107, -2793.835205078125], [-125.17702, 43.15294, -2738.983154296875], [-125.16993, 43.15625, -3794.007568359375]]], [[[-125.17662, 43.196, -3998.7412109375], [-125.17616, 43.20211, -4667.435546875], [-125.18468, 43.20196, -3687.62646484375], [-125.17662, 43.196, -3998.7412109375]]], [[[-125.13283, 43.10107, -3310.623291015625], [-125.13129, 43.1069, -3968.2294921875], [-125.13809, 43.10711, -3380.64501953125], [-125.13283, 43.10107, -3310.623291015625]]], [[[-125.17128, 43.14966, -3422.5009765625], [-125.16993, 43.15625, -3794.007568359375], [-125.17702, 43.15294, -2738.983154296875], [-125.17128, 43.14966, -3422.5009765625]]], [[[-125.1753, 43.14493, -2620.916748046875], [-125.17896, 43.14014, -1764.2515869140625], [-125.17108, 43.1375, -2478.66552734375], [-125.1753, 43.14493, -2620.916748046875]]], [[[-125.17662, 43.196, -3998.7412109375], [-125.16949, 43.19476, -4696.927734375], [-125.17616, 43.20211, -4667.435546875], [-125.17662, 43.196, -3998.7412109375]]], [[[-125.14743, 43.11131, -3284.28759765625], [-125.14452, 43.11443, -4110.482421875], [-125.15004, 43.11744, -4009.828125], [-125.14743, 43.11131, -3284.28759765625]]], [[[-125.14743, 43.11131, -3284.28759765625], [-125.15641, 43.11151, -2469.90380859375], [-125.14806, 43.10664, -2377.518310546875], [-125.14743, 43.11131, -3284.28759765625]]], [[[-125.16949, 43.19476, -4696.927734375], [-125.17662, 43.196, -3998.7412109375], [-125.17054, 43.1884, -3952.36962890625], [-125.16949, 43.19476, -4696.927734375]]], [[[-125.14183, 43.10141, -2204.566650390625], [-125.14697, 43.10249, -1719.434814453125], [-125.14367, 43.09733, -1702.4345703125], [-125.14183, 43.10141, -2204.566650390625]]], [[[-125.14806, 43.10664, -2377.518310546875], [-125.15641, 43.11151, -2469.90380859375], [-125.15523, 43.10661, -1712.067626953125], [-125.14806, 43.10664, -2377.518310546875]]], [[[-125.1566, 43.11722, -3186.324951171875], [-125.14743, 43.11131, -3284.28759765625], [-125.15004, 43.11744, -4009.828125], [-125.1566, 43.11722, -3186.324951171875]]], [[[-125.177, 43.17823, -2495.9287109375], [-125.18389, 43.18119, -1706.1597900390625], [-125.18139, 43.17356, -1794.563232421875], [-125.177, 43.17823, -2495.9287109375]]], [[[-125.18468, 43.20196, -3687.62646484375], [-125.17966, 43.19254, -3299.423828125], [-125.17662, 43.196, -3998.7412109375], [-125.18468, 43.20196, -3687.62646484375]]], [[[-125.16297, 43.18734, -4730.58447265625], [-125.16949, 43.19476, -4696.927734375], [-125.17054, 43.1884, -3952.36962890625], [-125.16297, 43.18734, -4730.58447265625]]], [[[-125.177, 43.17823, -2495.9287109375], [-125.17003, 43.17944, -3489.404541015625], [-125.17457, 43.18443, -3102.04150390625], [-125.177, 43.17823, -2495.9287109375]]], [[[-125.14806, 43.10664, -2377.518310546875], [-125.14697, 43.10249, -1719.434814453125], [-125.14183, 43.10141, -2204.566650390625], [-125.14806, 43.10664, -2377.518310546875]]], [[[-125.16607, 43.18355, -4120.6767578125], [-125.16297, 43.18734, -4730.58447265625], [-125.17054, 43.1884, -3952.36962890625], [-125.16607, 43.18355, -4120.6767578125]]], [[[-125.17602, 43.16957, -2595.507080078125], [-125.18139, 43.17356, -1794.563232421875], [-125.1817, 43.16567, -1815.1478271484375], [-125.17602, 43.16957, -2595.507080078125]]], [[[-125.16607, 43.18355, -4120.6767578125], [-125.16106, 43.17873, -4722.9453125], [-125.16297, 43.18734, -4730.58447265625], [-125.16607, 43.18355, -4120.6767578125]]], [[[-125.16074, 43.13967, -3912.511962890625], [-125.1654, 43.14749, -4018.227783203125], [-125.16796, 43.14298, -3316.968505859375], [-125.16074, 43.13967, -3912.511962890625]]], [[[-125.18177, 43.18671, -2482.25], [-125.18973, 43.18883, -1764.3714599609375], [-125.18389, 43.18119, -1706.1597900390625], [-125.18177, 43.18671, -2482.25]]], [[[-125.13397, 43.09367, -2823.3466796875], [-125.13276, 43.08738, -2922.81201171875], [-125.12863, 43.08856, -3518.844970703125], [-125.13397, 43.09367, -2823.3466796875]]], [[[-125.16577, 43.17352, -4051.595458984375], [-125.16185, 43.16997, -4689.7197265625], [-125.16106, 43.17873, -4722.9453125], [-125.16577, 43.17352, -4051.595458984375]]], [[[-125.16607, 43.18355, -4120.6767578125], [-125.17003, 43.17944, -3489.404541015625], [-125.16577, 43.17352, -4051.595458984375], [-125.16607, 43.18355, -4120.6767578125]]], [[[-125.16884, 43.16599, -3738.5087890625], [-125.16185, 43.16997, -4689.7197265625], [-125.16577, 43.17352, -4051.595458984375], [-125.16884, 43.16599, -3738.5087890625]]], [[[-125.17662, 43.196, -3998.7412109375], [-125.17966, 43.19254, -3299.423828125], [-125.17054, 43.1884, -3952.36962890625], [-125.17662, 43.196, -3998.7412109375]]], [[[-125.1566, 43.11722, -3186.324951171875], [-125.16285, 43.11585, -2317.083984375], [-125.15641, 43.11151, -2469.90380859375], [-125.1566, 43.11722, -3186.324951171875]]], [[[-125.17609, 43.16107, -2793.835205078125], [-125.18333, 43.15701, -1819.5654296875], [-125.17702, 43.15294, -2738.983154296875], [-125.17609, 43.16107, -2793.835205078125]]], [[[-125.16884, 43.16599, -3738.5087890625], [-125.16404, 43.16131, -4645.224609375], [-125.16185, 43.16997, -4689.7197265625], [-125.16884, 43.16599, -3738.5087890625]]], [[[-125.16993, 43.15625, -3794.007568359375], [-125.16404, 43.16131, -4645.224609375], [-125.16884, 43.16599, -3738.5087890625], [-125.16993, 43.15625, -3794.007568359375]]], [[[-125.16506, 43.12112, -2429.661376953125], [-125.1566, 43.11722, -3186.324951171875], [-125.16067, 43.12533, -3155.17236328125], [-125.16506, 43.12112, -2429.661376953125]]], [[[-125.16993, 43.15625, -3794.007568359375], [-125.16306, 43.15258, -4621.3369140625], [-125.16404, 43.16131, -4645.224609375], [-125.16993, 43.15625, -3794.007568359375]]], [[[-125.1654, 43.14749, -4018.227783203125], [-125.16306, 43.15258, -4621.3369140625], [-125.16993, 43.15625, -3794.007568359375], [-125.1654, 43.14749, -4018.227783203125]]], [[[-125.16067, 43.12533, -3155.17236328125], [-125.1641, 43.13469, -3101.5703125], [-125.16669, 43.12901, -2412.2626953125], [-125.16067, 43.12533, -3155.17236328125]]], [[[-125.17128, 43.14966, -3422.5009765625], [-125.16796, 43.14298, -3316.968505859375], [-125.1654, 43.14749, -4018.227783203125], [-125.17128, 43.14966, -3422.5009765625]]], [[[-125.12079, 43.09851, -4743.0361328125], [-125.12718, 43.10131, -4034.579833984375], [-125.12791, 43.09565, -3702.250732421875], [-125.12079, 43.09851, -4743.0361328125]]], [[[-125.18757, 43.19498, -2632.0458984375], [-125.19619, 43.19622, -1765.0650634765625], [-125.18973, 43.18883, -1764.3714599609375], [-125.18757, 43.19498, -2632.0458984375]]], [[[-125.1654, 43.14749, -4018.227783203125], [-125.15809, 43.14465, -4632.04443359375], [-125.16306, 43.15258, -4621.3369140625], [-125.1654, 43.14749, -4018.227783203125]]], [[[-125.14806, 43.10664, -2377.518310546875], [-125.15523, 43.10661, -1712.067626953125], [-125.14697, 43.10249, -1719.434814453125], [-125.14806, 43.10664, -2377.518310546875]]], [[[-125.17108, 43.1375, -2478.66552734375], [-125.17399, 43.13218, -1695.0072021484375], [-125.16669, 43.12901, -2412.2626953125], [-125.17108, 43.1375, -2478.66552734375]]], [[[-125.13938, 43.09641, -2178.24755859375], [-125.14367, 43.09733, -1702.4345703125], [-125.14174, 43.09168, -1700.2352294921875], [-125.13938, 43.09641, -2178.24755859375]]], [[[-125.19402, 43.20183, -2621.628173828125], [-125.20255, 43.20362, -1854.5743408203125], [-125.19619, 43.19622, -1765.0650634765625], [-125.19402, 43.20183, -2621.628173828125]]], [[[-125.16074, 43.13967, -3912.511962890625], [-125.15809, 43.14465, -4632.04443359375], [-125.1654, 43.14749, -4018.227783203125], [-125.16074, 43.13967, -3912.511962890625]]], [[[-125.16074, 43.13967, -3912.511962890625], [-125.15277, 43.13675, -4644.6220703125], [-125.15809, 43.14465, -4632.04443359375], [-125.16074, 43.13967, -3912.511962890625]]], [[[-125.1641, 43.13469, -3101.5703125], [-125.16074, 43.13967, -3912.511962890625], [-125.16796, 43.14298, -3316.968505859375], [-125.1641, 43.13469, -3101.5703125]]], [[[-125.15409, 43.12336, -3942.167236328125], [-125.16067, 43.12533, -3155.17236328125], [-125.1566, 43.11722, -3186.324951171875], [-125.15409, 43.12336, -3942.167236328125]]], [[[-125.15679, 43.13182, -3846.076416015625], [-125.15277, 43.13675, -4644.6220703125], [-125.16074, 43.13967, -3912.511962890625], [-125.15679, 43.13182, -3846.076416015625]]], [[[-125.15679, 43.13182, -3846.076416015625], [-125.1506, 43.12881, -4627.1640625], [-125.15277, 43.13675, -4644.6220703125], [-125.15679, 43.13182, -3846.076416015625]]], [[[-125.15409, 43.12336, -3942.167236328125], [-125.14806, 43.12249, -4620.9521484375], [-125.1506, 43.12881, -4627.1640625], [-125.15409, 43.12336, -3942.167236328125]]], [[[-125.16506, 43.12112, -2429.661376953125], [-125.17092, 43.12412, -1712.224609375], [-125.16861, 43.11721, -1708.1346435546875], [-125.16506, 43.12112, -2429.661376953125]]], [[[-125.15004, 43.11744, -4009.828125], [-125.14806, 43.12249, -4620.9521484375], [-125.15409, 43.12336, -3942.167236328125], [-125.15004, 43.11744, -4009.828125]]], [[[-125.1715, 43.17328, -3206.07080078125], [-125.16884, 43.16599, -3738.5087890625], [-125.16577, 43.17352, -4051.595458984375], [-125.1715, 43.17328, -3206.07080078125]]], [[[-125.15004, 43.11744, -4009.828125], [-125.14533, 43.11776, -4622.990234375], [-125.14806, 43.12249, -4620.9521484375], [-125.15004, 43.11744, -4009.828125]]], [[[-125.18757, 43.19498, -2632.0458984375], [-125.19402, 43.20183, -2621.628173828125], [-125.19619, 43.19622, -1765.0650634765625], [-125.18757, 43.19498, -2632.0458984375]]], [[[-125.14452, 43.11443, -4110.482421875], [-125.14533, 43.11776, -4622.990234375], [-125.15004, 43.11744, -4009.828125], [-125.14452, 43.11443, -4110.482421875]]], [[[-125.141, 43.085, -1730.7459716796875], [-125.13688, 43.08619, -2326.779052734375], [-125.14174, 43.09168, -1700.2352294921875], [-125.141, 43.085, -1730.7459716796875]]], [[[-125.14452, 43.11443, -4110.482421875], [-125.13965, 43.1149, -4655.07861328125], [-125.14533, 43.11776, -4622.990234375], [-125.14452, 43.11443, -4110.482421875]]], [[[-125.12718, 43.10131, -4034.579833984375], [-125.13283, 43.10107, -3310.623291015625], [-125.12791, 43.09565, -3702.250732421875], [-125.12718, 43.10131, -4034.579833984375]]], [[[-125.14452, 43.11443, -4110.482421875], [-125.13877, 43.11108, -4041.706298828125], [-125.13965, 43.1149, -4655.07861328125], [-125.14452, 43.11443, -4110.482421875]]], [[[-125.14059, 43.10509, -2782.796630859375], [-125.14183, 43.10141, -2204.566650390625], [-125.13665, 43.09963, -2735.80908203125], [-125.14059, 43.10509, -2782.796630859375]]], [[[-125.14743, 43.11131, -3284.28759765625], [-125.13877, 43.11108, -4041.706298828125], [-125.14452, 43.11443, -4110.482421875], [-125.14743, 43.11131, -3284.28759765625]]], [[[-125.13688, 43.08619, -2326.779052734375], [-125.13397, 43.09367, -2823.3466796875], [-125.13938, 43.09641, -2178.24755859375], [-125.13688, 43.08619, -2326.779052734375]]], [[[-125.14743, 43.11131, -3284.28759765625], [-125.13809, 43.10711, -3380.64501953125], [-125.13877, 43.11108, -4041.706298828125], [-125.14743, 43.11131, -3284.28759765625]]], [[[-125.17702, 43.15294, -2738.983154296875], [-125.18274, 43.14835, -1830.740234375], [-125.1753, 43.14493, -2620.916748046875], [-125.17702, 43.15294, -2738.983154296875]]], [[[-125.13809, 43.10711, -3380.64501953125], [-125.14743, 43.11131, -3284.28759765625], [-125.14059, 43.10509, -2782.796630859375], [-125.13809, 43.10711, -3380.64501953125]]], [[[-125.14059, 43.10509, -2782.796630859375], [-125.14743, 43.11131, -3284.28759765625], [-125.14806, 43.10664, -2377.518310546875], [-125.14059, 43.10509, -2782.796630859375]]], [[[-125.14059, 43.10509, -2782.796630859375], [-125.13283, 43.10107, -3310.623291015625], [-125.13809, 43.10711, -3380.64501953125], [-125.14059, 43.10509, -2782.796630859375]]], [[[-125.16993, 43.15625, -3794.007568359375], [-125.16884, 43.16599, -3738.5087890625], [-125.17609, 43.16107, -2793.835205078125], [-125.16993, 43.15625, -3794.007568359375]]], [[[-125.13283, 43.10107, -3310.623291015625], [-125.14059, 43.10509, -2782.796630859375], [-125.13665, 43.09963, -2735.80908203125], [-125.13283, 43.10107, -3310.623291015625]]], [[[-125.13665, 43.09963, -2735.80908203125], [-125.14183, 43.10141, -2204.566650390625], [-125.13938, 43.09641, -2178.24755859375], [-125.13665, 43.09963, -2735.80908203125]]], [[[-125.177, 43.17823, -2495.9287109375], [-125.17457, 43.18443, -3102.04150390625], [-125.18177, 43.18671, -2482.25], [-125.177, 43.17823, -2495.9287109375]]], [[[-125.15409, 43.12336, -3942.167236328125], [-125.15679, 43.13182, -3846.076416015625], [-125.16067, 43.12533, -3155.17236328125], [-125.15409, 43.12336, -3942.167236328125]]], [[[-125.13397, 43.09367, -2823.3466796875], [-125.13283, 43.10107, -3310.623291015625], [-125.13665, 43.09963, -2735.80908203125], [-125.13397, 43.09367, -2823.3466796875]]], [[[-125.15641, 43.11151, -2469.90380859375], [-125.16431, 43.11116, -1659.5439453125], [-125.15523, 43.10661, -1712.067626953125], [-125.15641, 43.11151, -2469.90380859375]]], [[[-125.13283, 43.10107, -3310.623291015625], [-125.13397, 43.09367, -2823.3466796875], [-125.12791, 43.09565, -3702.250732421875], [-125.13283, 43.10107, -3310.623291015625]]], [[[-125.13809, 43.10711, -3380.64501953125], [-125.13129, 43.1069, -3968.2294921875], [-125.13877, 43.11108, -4041.706298828125], [-125.13809, 43.10711, -3380.64501953125]]], [[[-125.13877, 43.11108, -4041.706298828125], [-125.13129, 43.1069, -3968.2294921875], [-125.13257, 43.11153, -4695.13720703125], [-125.13877, 43.11108, -4041.706298828125]]], [[[-125.1641, 43.13469, -3101.5703125], [-125.15679, 43.13182, -3846.076416015625], [-125.16074, 43.13967, -3912.511962890625], [-125.1641, 43.13469, -3101.5703125]]], [[[-125.13129, 43.1069, -3968.2294921875], [-125.12433, 43.10664, -4748.18896484375], [-125.13257, 43.11153, -4695.13720703125], [-125.13129, 43.1069, -3968.2294921875]]], [[[-125.16506, 43.12112, -2429.661376953125], [-125.16285, 43.11585, -2317.083984375], [-125.1566, 43.11722, -3186.324951171875], [-125.16506, 43.12112, -2429.661376953125]]], [[[-125.12718, 43.10131, -4034.579833984375], [-125.12079, 43.09851, -4743.0361328125], [-125.12433, 43.10664, -4748.18896484375], [-125.12718, 43.10131, -4034.579833984375]]], [[[-125.12791, 43.09565, -3702.250732421875], [-125.13397, 43.09367, -2823.3466796875], [-125.12863, 43.08856, -3518.844970703125], [-125.12791, 43.09565, -3702.250732421875]]], [[[-125.16796, 43.14298, -3316.968505859375], [-125.1753, 43.14493, -2620.916748046875], [-125.17108, 43.1375, -2478.66552734375], [-125.16796, 43.14298, -3316.968505859375]]], [[[-125.17128, 43.14966, -3422.5009765625], [-125.1753, 43.14493, -2620.916748046875], [-125.16796, 43.14298, -3316.968505859375], [-125.17128, 43.14966, -3422.5009765625]]], [[[-125.13397, 43.09367, -2823.3466796875], [-125.13688, 43.08619, -2326.779052734375], [-125.13276, 43.08738, -2922.81201171875], [-125.13397, 43.09367, -2823.3466796875]]], [[[-125.14183, 43.10141, -2204.566650390625], [-125.14367, 43.09733, -1702.4345703125], [-125.13938, 43.09641, -2178.24755859375], [-125.14183, 43.10141, -2204.566650390625]]], [[[-125.1566, 43.11722, -3186.324951171875], [-125.15004, 43.11744, -4009.828125], [-125.15409, 43.12336, -3942.167236328125], [-125.1566, 43.11722, -3186.324951171875]]], [[[-125.16285, 43.11585, -2317.083984375], [-125.16861, 43.11721, -1708.1346435546875], [-125.16431, 43.11116, -1659.5439453125], [-125.16285, 43.11585, -2317.083984375]]], [[[-125.16669, 43.12901, -2412.2626953125], [-125.17399, 43.13218, -1695.0072021484375], [-125.17092, 43.12412, -1712.224609375], [-125.16669, 43.12901, -2412.2626953125]]], [[[-125.17108, 43.1375, -2478.66552734375], [-125.17896, 43.14014, -1764.2515869140625], [-125.17399, 43.13218, -1695.0072021484375], [-125.17108, 43.1375, -2478.66552734375]]], [[[-125.17702, 43.15294, -2738.983154296875], [-125.18333, 43.15701, -1819.5654296875], [-125.18274, 43.14835, -1830.740234375], [-125.17702, 43.15294, -2738.983154296875]]], [[[-125.17609, 43.16107, -2793.835205078125], [-125.1817, 43.16567, -1815.1478271484375], [-125.18333, 43.15701, -1819.5654296875], [-125.17609, 43.16107, -2793.835205078125]]], [[[-125.1715, 43.17328, -3206.07080078125], [-125.16577, 43.17352, -4051.595458984375], [-125.17003, 43.17944, -3489.404541015625], [-125.1715, 43.17328, -3206.07080078125]]], [[[-125.17609, 43.16107, -2793.835205078125], [-125.17602, 43.16957, -2595.507080078125], [-125.1817, 43.16567, -1815.1478271484375], [-125.17609, 43.16107, -2793.835205078125]]], [[[-125.16884, 43.16599, -3738.5087890625], [-125.1715, 43.17328, -3206.07080078125], [-125.17602, 43.16957, -2595.507080078125], [-125.16884, 43.16599, -3738.5087890625]]], [[[-125.1715, 43.17328, -3206.07080078125], [-125.177, 43.17823, -2495.9287109375], [-125.17602, 43.16957, -2595.507080078125], [-125.1715, 43.17328, -3206.07080078125]]], [[[-125.177, 43.17823, -2495.9287109375], [-125.18139, 43.17356, -1794.563232421875], [-125.17602, 43.16957, -2595.507080078125], [-125.177, 43.17823, -2495.9287109375]]], [[[-125.18177, 43.18671, -2482.25], [-125.18389, 43.18119, -1706.1597900390625], [-125.177, 43.17823, -2495.9287109375], [-125.18177, 43.18671, -2482.25]]], [[[-125.17966, 43.19254, -3299.423828125], [-125.18757, 43.19498, -2632.0458984375], [-125.18177, 43.18671, -2482.25], [-125.17966, 43.19254, -3299.423828125]]], [[[-125.18177, 43.18671, -2482.25], [-125.18757, 43.19498, -2632.0458984375], [-125.18973, 43.18883, -1764.3714599609375], [-125.18177, 43.18671, -2482.25]]], [[[-125.17457, 43.18443, -3102.04150390625], [-125.17054, 43.1884, -3952.36962890625], [-125.17966, 43.19254, -3299.423828125], [-125.17457, 43.18443, -3102.04150390625]]], [[[-125.18468, 43.20196, -3687.62646484375], [-125.18757, 43.19498, -2632.0458984375], [-125.17966, 43.19254, -3299.423828125], [-125.18468, 43.20196, -3687.62646484375]]], [[[-125.18468, 43.20196, -3687.62646484375], [-125.19402, 43.20183, -2621.628173828125], [-125.18757, 43.19498, -2632.0458984375], [-125.18468, 43.20196, -3687.62646484375]]], [[[-125.17457, 43.18443, -3102.04150390625], [-125.17003, 43.17944, -3489.404541015625], [-125.17054, 43.1884, -3952.36962890625], [-125.17457, 43.18443, -3102.04150390625]]], [[[-125.17457, 43.18443, -3102.04150390625], [-125.17966, 43.19254, -3299.423828125], [-125.18177, 43.18671, -2482.25], [-125.17457, 43.18443, -3102.04150390625]]], [[[-125.17003, 43.17944, -3489.404541015625], [-125.16607, 43.18355, -4120.6767578125], [-125.17054, 43.1884, -3952.36962890625], [-125.17003, 43.17944, -3489.404541015625]]], [[[-125.17128, 43.14966, -3422.5009765625], [-125.1654, 43.14749, -4018.227783203125], [-125.16993, 43.15625, -3794.007568359375], [-125.17128, 43.14966, -3422.5009765625]]], [[[-125.17128, 43.14966, -3422.5009765625], [-125.17702, 43.15294, -2738.983154296875], [-125.1753, 43.14493, -2620.916748046875], [-125.17128, 43.14966, -3422.5009765625]]], [[[-125.16796, 43.14298, -3316.968505859375], [-125.17108, 43.1375, -2478.66552734375], [-125.1641, 43.13469, -3101.5703125], [-125.16796, 43.14298, -3316.968505859375]]], [[[-125.14059, 43.10509, -2782.796630859375], [-125.14806, 43.10664, -2377.518310546875], [-125.14183, 43.10141, -2204.566650390625], [-125.14059, 43.10509, -2782.796630859375]]], [[[-125.13397, 43.09367, -2823.3466796875], [-125.13665, 43.09963, -2735.80908203125], [-125.13938, 43.09641, -2178.24755859375], [-125.13397, 43.09367, -2823.3466796875]]], [[[-125.14174, 43.09168, -1700.2352294921875], [-125.13688, 43.08619, -2326.779052734375], [-125.13938, 43.09641, -2178.24755859375], [-125.14174, 43.09168, -1700.2352294921875]]], [[[-125.12079, 43.09851, -4743.0361328125], [-125.12791, 43.09565, -3702.250732421875], [-125.12451, 43.08975, -4114.8779296875], [-125.12079, 43.09851, -4743.0361328125]]], [[[-125.12039, 43.09094, -4710.9111328125], [-125.12079, 43.09851, -4743.0361328125], [-125.12451, 43.08975, -4114.8779296875], [-125.12039, 43.09094, -4710.9111328125]]], [[[-125.16106, 43.17873, -4722.9453125], [-125.16607, 43.18355, -4120.6767578125], [-125.16577, 43.17352, -4051.595458984375], [-125.16106, 43.17873, -4722.9453125]]]]}}]}