{"type": "FeatureCollection", "features": [{"type": "Feature", "properties": {"name": "AW_SORE_7", "CFM_ID": 392, "region": "Offshore_OR", "primary_state/province": "OR", "secondary_state/province": null, "avg_dip": 59, "dip_dir": "E", "rake": 90, "slip_sense": "Reverse", "fault_level": 2, "NSHM23_sliprates": null, "QFFDAgeCatBin": null, "QFFDAgeBin": null, "upper_depth": -2.0, "upper_depth_constraint": "bathymetry", "lower_depth": -11.5, "lower_depth_constraint": "megathrust", "3D_model_constraints": "trace extended at constant dip", "reference": "Goldfinger et al. (2023)", "nshm23_id": null, "lineage": null, "usgs_qffd_#": null, "comments": null, "id": "392"}, "geometry": {"type": "MultiPolygon", "coordinates": [[[[-125.02197, 42.85729, -3073.94580078125], [-125.02878, 42.85821, -2239.227294921875], [-125.02332, 42.85141, -2322.903076171875], [-125.02197, 42.85729, -3073.94580078125]]], [[[-125.00128, 42.85912, -5728.330078125], [-125.0027, 42.85363, -4914.63232421875], [-124.9938, 42.85221, -5718.91796875], [-125.00128, 42.85912, -5728.330078125]]], [[[-125.00555, 42.86564, -5669.2744140625], [-125.01084, 42.86911, -5161.3603515625], [-125.00926, 42.86149, -4957.26513671875], [-125.00555, 42.86564, -5669.2744140625]]], [[[-125.01273, 42.90827, -5633.18408203125], [-125.00718, 42.90098, -5470.3291015625], [-125.00764, 42.90821, -6215.80859375], [-125.01273, 42.90827, -5633.18408203125]]], [[[-125.03477, 42.89364, -1470.8348388671875], [-125.03, 42.886, -1474.51904296875], [-125.02407, 42.88754, -2331.5927734375], [-125.03477, 42.89364, -1470.8348388671875]]], [[[-124.99915, 42.83202, -2217.396484375], [-124.99953, 42.82637, -1363.2261962890625], [-124.99222, 42.82492, -2110.271484375], [-124.99915, 42.83202, -2217.396484375]]], [[[-124.97603, 42.83919, -5737.52685546875], [-124.96848, 42.84088, -6787.51611328125], [-124.97761, 42.84613, -6580.23486328125], [-124.97603, 42.83919, -5737.52685546875]]], [[[-125.01084, 42.86911, -5161.3603515625], [-125.00555, 42.86564, -5669.2744140625], [-125.00685, 42.87136, -5775.62060546875], [-125.01084, 42.86911, -5161.3603515625]]], [[[-125.03051, 42.8819, -2187.609375], [-125.02407, 42.88754, -2331.5927734375], [-125.03, 42.886, -1474.51904296875], [-125.03051, 42.8819, -2187.609375]]], [[[-125.03071, 42.87432, -2535.912353515625], [-125.03426, 42.87233, -2046.7894287109375], [-125.03185, 42.86639, -2212.6015625], [-125.03071, 42.87432, -2535.912353515625]]], [[[-124.97603, 42.83919, -5737.52685546875], [-124.96627, 42.83369, -6054.02685546875], [-124.96848, 42.84088, -6787.51611328125], [-124.97603, 42.83919, -5737.52685546875]]], [[[-125.02614, 42.89531, -2673.86962890625], [-125.03477, 42.89364, -1470.8348388671875], [-125.02407, 42.88754, -2331.5927734375], [-125.02614, 42.89531, -2673.86962890625]]], [[[-125.00718, 42.90098, -5470.3291015625], [-125.00602, 42.89223, -4938.048828125], [-125.00016, 42.89375, -5784.8974609375], [-125.00718, 42.90098, -5470.3291015625]]], [[[-125.04316, 42.92819, -3113.126953125], [-125.04913, 42.93664, -3024.0126953125], [-125.05116, 42.93029, -2257.703369140625], [-125.04316, 42.92819, -3113.126953125]]], [[[-124.98142, 42.83049, -3929.273193359375], [-124.97957, 42.82225, -3405.6611328125], [-124.97334, 42.82347, -4286.38427734375], [-124.98142, 42.83049, -3929.273193359375]]], [[[-125.00128, 42.85912, -5728.330078125], [-124.9938, 42.85221, -5718.91796875], [-124.99301, 42.85753, -6472.20458984375], [-125.00128, 42.85912, -5728.330078125]]], [[[-124.95549, 42.81922, -6469.88916015625], [-124.96115, 42.82621, -6027.837890625], [-124.9614, 42.81769, -5611.52294921875], [-124.95549, 42.81922, -6469.88916015625]]], [[[-124.99222, 42.82492, -2110.271484375], [-124.99953, 42.82637, -1363.2261962890625], [-124.99386, 42.81859, -1343.6243896484375], [-124.99222, 42.82492, -2110.271484375]]], [[[-125.00969, 42.87562, -5519.25830078125], [-125.01406, 42.8741, -4875.8857421875], [-125.01084, 42.86911, -5161.3603515625], [-125.00969, 42.87562, -5519.25830078125]]], [[[-125.04769, 42.948, -4631.896484375], [-125.04623, 42.94295, -4080.419921875], [-125.03975, 42.94236, -4749.33544921875], [-125.04769, 42.948, -4631.896484375]]], [[[-124.97471, 42.83225, -4903.376953125], [-124.96627, 42.83369, -6054.02685546875], [-124.97603, 42.83919, -5737.52685546875], [-124.97471, 42.83225, -4903.376953125]]], [[[-125.03071, 42.87432, -2535.912353515625], [-125.03376, 42.87753, -2006.6734619140625], [-125.03426, 42.87233, -2046.7894287109375], [-125.03071, 42.87432, -2535.912353515625]]], [[[-125.02502, 42.92268, -5308.64013671875], [-125.02301, 42.92785, -5803.2392578125], [-125.02936, 42.92919, -5004.47119140625], [-125.02502, 42.92268, -5308.64013671875]]], [[[-125.05765, 42.9387, -2287.30908203125], [-125.05938, 42.933, -1469.652587890625], [-125.05116, 42.93029, -2257.703369140625], [-125.05765, 42.9387, -2287.30908203125]]], [[[-125.02492, 42.88299, -3065.978759765625], [-125.01908, 42.88435, -3938.964111328125], [-125.01803, 42.88911, -3203.804931640625], [-125.02492, 42.88299, -3065.978759765625]]], [[[-125.02614, 42.89531, -2673.86962890625], [-125.03343, 42.89955, -2268.63623046875], [-125.03477, 42.89364, -1470.8348388671875], [-125.02614, 42.89531, -2673.86962890625]]], [[[-124.9597, 42.83579, -7042.76416015625], [-124.95347, 42.83715, -7920.04345703125], [-124.96276, 42.84288, -7693.7734375], [-124.9597, 42.83579, -7042.76416015625]]], [[[-125.00685, 42.87136, -5775.62060546875], [-125.00555, 42.86564, -5669.2744140625], [-125.0029, 42.86965, -6234.29150390625], [-125.00685, 42.87136, -5775.62060546875]]], [[[-125.02197, 42.85729, -3073.94580078125], [-125.01501, 42.8506, -3164.456787109375], [-125.01298, 42.85655, -4102.21240234375], [-125.02197, 42.85729, -3073.94580078125]]], [[[-124.97603, 42.83919, -5737.52685546875], [-124.98537, 42.83858, -4663.36865234375], [-124.97471, 42.83225, -4903.376953125], [-124.97603, 42.83919, -5737.52685546875]]], [[[-124.99915, 42.83202, -2217.396484375], [-125.00771, 42.83278, -1433.2740478515625], [-124.99953, 42.82637, -1363.2261962890625], [-124.99915, 42.83202, -2217.396484375]]], [[[-124.95494, 42.82879, -6968.931640625], [-124.9597, 42.83579, -7042.76416015625], [-124.96627, 42.83369, -6054.02685546875], [-124.95494, 42.82879, -6968.931640625]]], [[[-124.99797, 42.843, -3943.671142578125], [-125.00608, 42.8495, -4013.95166015625], [-125.0074, 42.84425, -3111.133544921875], [-124.99797, 42.843, -3943.671142578125]]], [[[-124.98633, 42.85191, -6471.98291015625], [-124.98195, 42.85398, -7240.408203125], [-124.99301, 42.85753, -6472.20458984375], [-124.98633, 42.85191, -6471.98291015625]]], [[[-125.04316, 42.92819, -3113.126953125], [-125.05116, 42.93029, -2257.703369140625], [-125.04752, 42.92172, -2268.31787109375], [-125.04316, 42.92819, -3113.126953125]]], [[[-125.02413, 42.86501, -3219.763916015625], [-125.02777, 42.86937, -2860.4130859375], [-125.02678, 42.86267, -2745.51513671875], [-125.02413, 42.86501, -3219.763916015625]]], [[[-125.0292, 42.9038, -3230.530517578125], [-125.03343, 42.89955, -2268.63623046875], [-125.02614, 42.89531, -2673.86962890625], [-125.0292, 42.9038, -3230.530517578125]]], [[[-125.01965, 42.89748, -3649.268798828125], [-125.01803, 42.88911, -3203.804931640625], [-125.01209, 42.89065, -4061.746826171875], [-125.01965, 42.89748, -3649.268798828125]]], [[[-125.02919, 42.87845, -2672.978515625], [-125.02492, 42.88299, -3065.978759765625], [-125.03051, 42.8819, -2187.609375], [-125.02919, 42.87845, -2672.978515625]]], [[[-125.02936, 42.92919, -5004.47119140625], [-125.02657, 42.93542, -5695.1923828125], [-125.03406, 42.93632, -4848.625], [-125.02936, 42.92919, -5004.47119140625]]], [[[-125.0066, 42.88735, -5788.47998046875], [-125.0023, 42.88414, -6584.365234375], [-125.00057, 42.88944, -6557.53076171875], [-125.0066, 42.88735, -5788.47998046875]]], [[[-124.96848, 42.84088, -6787.51611328125], [-124.9597, 42.83579, -7042.76416015625], [-124.96276, 42.84288, -7693.7734375], [-124.96848, 42.84088, -6787.51611328125]]], [[[-125.04316, 42.92819, -3113.126953125], [-125.04752, 42.92172, -2268.31787109375], [-125.0413, 42.91892, -2980.42626953125], [-125.04316, 42.92819, -3113.126953125]]], [[[-125.01601, 42.86613, -4336.43017578125], [-125.01406, 42.8741, -4875.8857421875], [-125.01787, 42.8738, -4347.9306640625], [-125.01601, 42.86613, -4336.43017578125]]], [[[-125.05407, 42.94729, -3894.6376953125], [-125.04769, 42.948, -4631.896484375], [-125.05764, 42.95225, -4486.0546875], [-125.05407, 42.94729, -3894.6376953125]]], [[[-125.0292, 42.9038, -3230.530517578125], [-125.03929, 42.90613, -2298.28271484375], [-125.03343, 42.89955, -2268.63623046875], [-125.0292, 42.9038, -3230.530517578125]]], [[[-125.01365, 42.90025, -4636.06787109375], [-125.01209, 42.89065, -4061.746826171875], [-125.00602, 42.89223, -4938.048828125], [-125.01365, 42.90025, -4636.06787109375]]], [[[-125.02148, 42.91725, -5503.630859375], [-125.02012, 42.92177, -5906.38916015625], [-125.02502, 42.92268, -5308.64013671875], [-125.02148, 42.91725, -5503.630859375]]], [[[-125.00685, 42.87136, -5775.62060546875], [-125.0029, 42.86965, -6234.29150390625], [-125.00521, 42.87622, -6148.94677734375], [-125.00685, 42.87136, -5775.62060546875]]], [[[-125.01665, 42.88026, -4515.08203125], [-125.01293, 42.88578, -4861.01318359375], [-125.01908, 42.88435, -3938.964111328125], [-125.01665, 42.88026, -4515.08203125]]], [[[-125.0363, 42.92957, -4088.262451171875], [-125.03406, 42.93632, -4848.625], [-125.04194, 42.93657, -3901.338134765625], [-125.0363, 42.92957, -4088.262451171875]]], [[[-125.01669, 42.90705, -5038.322265625], [-125.00718, 42.90098, -5470.3291015625], [-125.01273, 42.90827, -5633.18408203125], [-125.01669, 42.90705, -5038.322265625]]], [[[-125.03185, 42.86639, -2212.6015625], [-125.03746, 42.86859, -1513.9423828125], [-125.03552, 42.86091, -1513.52978515625], [-125.03185, 42.86639, -2212.6015625]]], [[[-125.02878, 42.85821, -2239.227294921875], [-125.03185, 42.86639, -2212.6015625], [-125.03552, 42.86091, -1513.52978515625], [-125.02878, 42.85821, -2239.227294921875]]], [[[-125.02413, 42.86501, -3219.763916015625], [-125.01963, 42.86198, -3637.3779296875], [-125.02233, 42.87067, -3643.3193359375], [-125.02413, 42.86501, -3219.763916015625]]], [[[-125.01289, 42.88001, -5085.3603515625], [-125.01293, 42.88578, -4861.01318359375], [-125.01665, 42.88026, -4515.08203125], [-125.01289, 42.88001, -5085.3603515625]]], [[[-125.03677, 42.91134, -3145.352783203125], [-125.03929, 42.90613, -2298.28271484375], [-125.0292, 42.9038, -3230.530517578125], [-125.03677, 42.91134, -3145.352783203125]]], [[[-125.02301, 42.92785, -5803.2392578125], [-125.02502, 42.92268, -5308.64013671875], [-125.02012, 42.92177, -5906.38916015625], [-125.02301, 42.92785, -5803.2392578125]]], [[[-125.00016, 42.89375, -5784.8974609375], [-125.00602, 42.89223, -4938.048828125], [-125.0066, 42.88735, -5788.47998046875], [-125.00016, 42.89375, -5784.8974609375]]], [[[-125.02614, 42.89531, -2673.86962890625], [-125.01803, 42.88911, -3203.804931640625], [-125.01965, 42.89748, -3649.268798828125], [-125.02614, 42.89531, -2673.86962890625]]], [[[-125.02332, 42.85141, -2322.903076171875], [-125.02437, 42.84553, -1486.963134765625], [-125.01624, 42.84515, -2300.083251953125], [-125.02332, 42.85141, -2322.903076171875]]], [[[-125.0074, 42.84425, -3111.133544921875], [-125.01501, 42.8506, -3164.456787109375], [-125.01624, 42.84515, -2300.083251953125], [-125.0074, 42.84425, -3111.133544921875]]], [[[-124.98527, 42.84543, -5656.25341796875], [-124.98633, 42.85191, -6471.98291015625], [-124.9938, 42.85221, -5718.91796875], [-124.98527, 42.84543, -5656.25341796875]]], [[[-125.03677, 42.91134, -3145.352783203125], [-125.04439, 42.91324, -2290.7392578125], [-125.03929, 42.90613, -2298.28271484375], [-125.03677, 42.91134, -3145.352783203125]]], [[[-124.99438, 42.84667, -4852.30078125], [-125.0027, 42.85363, -4914.63232421875], [-125.00608, 42.8495, -4013.95166015625], [-124.99438, 42.84667, -4852.30078125]]], [[[-125.06573, 42.94545, -2445.201904296875], [-125.07481, 42.9508, -2648.012451171875], [-125.07508, 42.94585, -1634.7132568359375], [-125.06573, 42.94545, -2445.201904296875]]], [[[-124.99797, 42.843, -3943.671142578125], [-124.99438, 42.84667, -4852.30078125], [-125.00608, 42.8495, -4013.95166015625], [-124.99797, 42.843, -3943.671142578125]]], [[[-125.01601, 42.86613, -4336.43017578125], [-125.00926, 42.86149, -4957.26513671875], [-125.01084, 42.86911, -5161.3603515625], [-125.01601, 42.86613, -4336.43017578125]]], [[[-125.03677, 42.91134, -3145.352783203125], [-125.0413, 42.91892, -2980.42626953125], [-125.04439, 42.91324, -2290.7392578125], [-125.03677, 42.91134, -3145.352783203125]]], [[[-125.02878, 42.85821, -2239.227294921875], [-125.03158, 42.85258, -1530.236328125], [-125.02332, 42.85141, -2322.903076171875], [-125.02878, 42.85821, -2239.227294921875]]], [[[-125.01624, 42.84515, -2300.083251953125], [-125.02437, 42.84553, -1486.963134765625], [-125.01597, 42.8392, -1466.1468505859375], [-125.01624, 42.84515, -2300.083251953125]]], [[[-125.04623, 42.94295, -4080.419921875], [-125.04769, 42.948, -4631.896484375], [-125.05407, 42.94729, -3894.6376953125], [-125.04623, 42.94295, -4080.419921875]]], [[[-125.02413, 42.86501, -3219.763916015625], [-125.02233, 42.87067, -3643.3193359375], [-125.02777, 42.86937, -2860.4130859375], [-125.02413, 42.86501, -3219.763916015625]]], [[[-125.01908, 42.88435, -3938.964111328125], [-125.01209, 42.89065, -4061.746826171875], [-125.01803, 42.88911, -3203.804931640625], [-125.01908, 42.88435, -3938.964111328125]]], [[[-124.97761, 42.84613, -6580.23486328125], [-124.97239, 42.84839, -7463.52587890625], [-124.98195, 42.85398, -7240.408203125], [-124.97761, 42.84613, -6580.23486328125]]], [[[-124.99797, 42.843, -3943.671142578125], [-125.0074, 42.84425, -3111.133544921875], [-124.99899, 42.83748, -3044.96435546875], [-124.99797, 42.843, -3943.671142578125]]], [[[-124.96724, 42.82539, -5183.736328125], [-124.96732, 42.81615, -4753.1572265625], [-124.9614, 42.81769, -5611.52294921875], [-124.96724, 42.82539, -5183.736328125]]], [[[-125.03677, 42.91134, -3145.352783203125], [-125.03645, 42.92046, -3694.059326171875], [-125.0413, 42.91892, -2980.42626953125], [-125.03677, 42.91134, -3145.352783203125]]], [[[-125.0029, 42.86965, -6234.29150390625], [-124.99716, 42.86729, -6850.66943359375], [-125.00047, 42.87396, -6725.74658203125], [-125.0029, 42.86965, -6234.29150390625]]], [[[-125.02197, 42.85729, -3073.94580078125], [-125.02332, 42.85141, -2322.903076171875], [-125.01501, 42.8506, -3164.456787109375], [-125.02197, 42.85729, -3073.94580078125]]], [[[-124.97957, 42.82225, -3405.6611328125], [-124.9856, 42.82025, -2514.06396484375], [-124.97916, 42.81308, -3036.425537109375], [-124.97957, 42.82225, -3405.6611328125]]], [[[-125.02233, 42.87067, -3643.3193359375], [-125.02315, 42.87861, -3576.727783203125], [-125.02651, 42.87572, -3135.438720703125], [-125.02233, 42.87067, -3643.3193359375]]], [[[-125.02197, 42.85729, -3073.94580078125], [-125.01963, 42.86198, -3637.3779296875], [-125.02413, 42.86501, -3219.763916015625], [-125.02197, 42.85729, -3073.94580078125]]], [[[-125.03185, 42.86639, -2212.6015625], [-125.03426, 42.87233, -2046.7894287109375], [-125.03746, 42.86859, -1513.9423828125], [-125.03185, 42.86639, -2212.6015625]]], [[[-125.0294, 42.91183, -4056.312255859375], [-125.03645, 42.92046, -3694.059326171875], [-125.03677, 42.91134, -3145.352783203125], [-125.0294, 42.91183, -4056.312255859375]]], [[[-125.05765, 42.9387, -2287.30908203125], [-125.06619, 42.94019, -1489.4031982421875], [-125.05938, 42.933, -1469.652587890625], [-125.05765, 42.9387, -2287.30908203125]]], [[[-124.98527, 42.84543, -5656.25341796875], [-124.97603, 42.83919, -5737.52685546875], [-124.97761, 42.84613, -6580.23486328125], [-124.98527, 42.84543, -5656.25341796875]]], [[[-124.97471, 42.83225, -4903.376953125], [-124.97334, 42.82347, -4286.38427734375], [-124.96724, 42.82539, -5183.736328125], [-124.97471, 42.83225, -4903.376953125]]], [[[-125.06573, 42.94545, -2445.201904296875], [-125.06494, 42.95093, -3555.99169921875], [-125.07481, 42.9508, -2648.012451171875], [-125.06573, 42.94545, -2445.201904296875]]], [[[-124.98142, 42.83049, -3929.273193359375], [-124.97334, 42.82347, -4286.38427734375], [-124.97471, 42.83225, -4903.376953125], [-124.98142, 42.83049, -3929.273193359375]]], [[[-125.00926, 42.86149, -4957.26513671875], [-125.0027, 42.85363, -4914.63232421875], [-125.00128, 42.85912, -5728.330078125], [-125.00926, 42.86149, -4957.26513671875]]], [[[-125.0294, 42.91183, -4056.312255859375], [-125.0292, 42.9038, -3230.530517578125], [-125.02215, 42.905, -4179.5732421875], [-125.0294, 42.91183, -4056.312255859375]]], [[[-124.99222, 42.82492, -2110.271484375], [-124.99386, 42.81859, -1343.6243896484375], [-124.9856, 42.82025, -2514.06396484375], [-124.99222, 42.82492, -2110.271484375]]], [[[-125.01963, 42.86198, -3637.3779296875], [-125.02197, 42.85729, -3073.94580078125], [-125.01298, 42.85655, -4102.21240234375], [-125.01963, 42.86198, -3637.3779296875]]], [[[-125.03645, 42.92046, -3694.059326171875], [-125.0294, 42.91183, -4056.312255859375], [-125.0309, 42.92157, -4480.552734375], [-125.03645, 42.92046, -3694.059326171875]]], [[[-124.97334, 42.82347, -4286.38427734375], [-124.96732, 42.81615, -4753.1572265625], [-124.96724, 42.82539, -5183.736328125], [-124.97334, 42.82347, -4286.38427734375]]], [[[-125.03426, 42.87233, -2046.7894287109375], [-125.03755, 42.8746, -1502.8983154296875], [-125.03746, 42.86859, -1513.9423828125], [-125.03426, 42.87233, -2046.7894287109375]]], [[[-125.0074, 42.84425, -3111.133544921875], [-125.01624, 42.84515, -2300.083251953125], [-125.00774, 42.83865, -2272.8017578125], [-125.0074, 42.84425, -3111.133544921875]]], [[[-125.01787, 42.8738, -4347.9306640625], [-125.01665, 42.88026, -4515.08203125], [-125.02045, 42.87761, -4003.623291015625], [-125.01787, 42.8738, -4347.9306640625]]], [[[-125.02233, 42.87067, -3643.3193359375], [-125.01963, 42.86198, -3637.3779296875], [-125.01601, 42.86613, -4336.43017578125], [-125.02233, 42.87067, -3643.3193359375]]], [[[-125.0309, 42.92157, -4480.552734375], [-125.0363, 42.92957, -4088.262451171875], [-125.03645, 42.92046, -3694.059326171875], [-125.0309, 42.92157, -4480.552734375]]], [[[-124.99899, 42.83748, -3044.96435546875], [-125.00774, 42.83865, -2272.8017578125], [-124.99915, 42.83202, -2217.396484375], [-124.99899, 42.83748, -3044.96435546875]]], [[[-125.04988, 42.942, -3554.61181640625], [-125.05407, 42.94729, -3894.6376953125], [-125.05692, 42.94443, -3088.50390625], [-125.04988, 42.942, -3554.61181640625]]], [[[-125.02651, 42.87572, -3135.438720703125], [-125.02315, 42.87861, -3576.727783203125], [-125.02492, 42.88299, -3065.978759765625], [-125.02651, 42.87572, -3135.438720703125]]], [[[-124.99438, 42.84667, -4852.30078125], [-124.98537, 42.83858, -4663.36865234375], [-124.98527, 42.84543, -5656.25341796875], [-124.99438, 42.84667, -4852.30078125]]], [[[-125.0027, 42.85363, -4914.63232421875], [-124.99438, 42.84667, -4852.30078125], [-124.9938, 42.85221, -5718.91796875], [-125.0027, 42.85363, -4914.63232421875]]], [[[-125.0309, 42.92157, -4480.552734375], [-125.02936, 42.92919, -5004.47119140625], [-125.0363, 42.92957, -4088.262451171875], [-125.0309, 42.92157, -4480.552734375]]], [[[-125.01908, 42.88435, -3938.964111328125], [-125.01293, 42.88578, -4861.01318359375], [-125.01209, 42.89065, -4061.746826171875], [-125.01908, 42.88435, -3938.964111328125]]], [[[-124.9938, 42.85221, -5718.91796875], [-124.98633, 42.85191, -6471.98291015625], [-124.99301, 42.85753, -6472.20458984375], [-124.9938, 42.85221, -5718.91796875]]], [[[-125.0292, 42.9038, -3230.530517578125], [-125.01965, 42.89748, -3649.268798828125], [-125.02215, 42.905, -4179.5732421875], [-125.0292, 42.9038, -3230.530517578125]]], [[[-125.0309, 42.92157, -4480.552734375], [-125.02502, 42.92268, -5308.64013671875], [-125.02936, 42.92919, -5004.47119140625], [-125.0309, 42.92157, -4480.552734375]]], [[[-124.99915, 42.83202, -2217.396484375], [-124.99222, 42.82492, -2110.271484375], [-124.98903, 42.82996, -2970.508544921875], [-124.99915, 42.83202, -2217.396484375]]], [[[-124.99438, 42.84667, -4852.30078125], [-124.99797, 42.843, -3943.671142578125], [-124.98537, 42.83858, -4663.36865234375], [-124.99438, 42.84667, -4852.30078125]]], [[[-125.02197, 42.85729, -3073.94580078125], [-125.02413, 42.86501, -3219.763916015625], [-125.02678, 42.86267, -2745.51513671875], [-125.02197, 42.85729, -3073.94580078125]]], [[[-125.00521, 42.87622, -6148.94677734375], [-125.00047, 42.87396, -6725.74658203125], [-125.00232, 42.87927, -6636.3544921875], [-125.00521, 42.87622, -6148.94677734375]]], [[[-125.00555, 42.86564, -5669.2744140625], [-124.99954, 42.86373, -6344.33642578125], [-125.0029, 42.86965, -6234.29150390625], [-125.00555, 42.86564, -5669.2744140625]]], [[[-125.01787, 42.8738, -4347.9306640625], [-125.01406, 42.8741, -4875.8857421875], [-125.01665, 42.88026, -4515.08203125], [-125.01787, 42.8738, -4347.9306640625]]], [[[-124.99954, 42.86373, -6344.33642578125], [-124.99301, 42.85753, -6472.20458984375], [-124.99085, 42.86012, -7025.1240234375], [-124.99954, 42.86373, -6344.33642578125]]], [[[-124.99438, 42.84667, -4852.30078125], [-124.98527, 42.84543, -5656.25341796875], [-124.9938, 42.85221, -5718.91796875], [-124.99438, 42.84667, -4852.30078125]]], [[[-125.03376, 42.87753, -2006.6734619140625], [-125.03755, 42.8746, -1502.8983154296875], [-125.03426, 42.87233, -2046.7894287109375], [-125.03376, 42.87753, -2006.6734619140625]]], [[[-125.02641, 42.9175, -4866.7919921875], [-125.02502, 42.92268, -5308.64013671875], [-125.0309, 42.92157, -4480.552734375], [-125.02641, 42.9175, -4866.7919921875]]], [[[-125.03051, 42.8819, -2187.609375], [-125.03, 42.886, -1474.51904296875], [-125.03578, 42.88022, -1485.637939453125], [-125.03051, 42.8819, -2187.609375]]], [[[-124.98537, 42.83858, -4663.36865234375], [-124.98142, 42.83049, -3929.273193359375], [-124.97471, 42.83225, -4903.376953125], [-124.98537, 42.83858, -4663.36865234375]]], [[[-124.95494, 42.82879, -6968.931640625], [-124.95549, 42.81922, -6469.88916015625], [-124.94956, 42.82076, -7328.2548828125], [-124.95494, 42.82879, -6968.931640625]]], [[[-125.02657, 42.93542, -5695.1923828125], [-125.02936, 42.92919, -5004.47119140625], [-125.02301, 42.92785, -5803.2392578125], [-125.02657, 42.93542, -5695.1923828125]]], [[[-125.00969, 42.87562, -5519.25830078125], [-125.00521, 42.87622, -6148.94677734375], [-125.00939, 42.8815, -5578.19091796875], [-125.00969, 42.87562, -5519.25830078125]]], [[[-125.04194, 42.93657, -3901.338134765625], [-125.04988, 42.942, -3554.61181640625], [-125.04913, 42.93664, -3024.0126953125], [-125.04194, 42.93657, -3901.338134765625]]], [[[-125.02215, 42.905, -4179.5732421875], [-125.01965, 42.89748, -3649.268798828125], [-125.01365, 42.90025, -4636.06787109375], [-125.02215, 42.905, -4179.5732421875]]], [[[-124.99797, 42.843, -3943.671142578125], [-124.99899, 42.83748, -3044.96435546875], [-124.99082, 42.83643, -3763.76171875], [-124.99797, 42.843, -3943.671142578125]]], [[[-125.02641, 42.9175, -4866.7919921875], [-125.02148, 42.91725, -5503.630859375], [-125.02502, 42.92268, -5308.64013671875], [-125.02641, 42.9175, -4866.7919921875]]], [[[-124.99915, 42.83202, -2217.396484375], [-125.00774, 42.83865, -2272.8017578125], [-125.00771, 42.83278, -1433.2740478515625], [-124.99915, 42.83202, -2217.396484375]]], [[[-125.04988, 42.942, -3554.61181640625], [-125.04194, 42.93657, -3901.338134765625], [-125.04623, 42.94295, -4080.419921875], [-125.04988, 42.942, -3554.61181640625]]], [[[-125.01963, 42.86198, -3637.3779296875], [-125.01298, 42.85655, -4102.21240234375], [-125.01601, 42.86613, -4336.43017578125], [-125.01963, 42.86198, -3637.3779296875]]], [[[-125.02641, 42.9175, -4866.7919921875], [-125.02255, 42.91185, -4855.6865234375], [-125.02148, 42.91725, -5503.630859375], [-125.02641, 42.9175, -4866.7919921875]]], [[[-124.98903, 42.82996, -2970.508544921875], [-124.9856, 42.82025, -2514.06396484375], [-124.97957, 42.82225, -3405.6611328125], [-124.98903, 42.82996, -2970.508544921875]]], [[[-125.04194, 42.93657, -3901.338134765625], [-125.03406, 42.93632, -4848.625], [-125.03975, 42.94236, -4749.33544921875], [-125.04194, 42.93657, -3901.338134765625]]], [[[-125.01601, 42.86613, -4336.43017578125], [-125.01084, 42.86911, -5161.3603515625], [-125.01406, 42.8741, -4875.8857421875], [-125.01601, 42.86613, -4336.43017578125]]], [[[-125.00128, 42.85912, -5728.330078125], [-125.00555, 42.86564, -5669.2744140625], [-125.00926, 42.86149, -4957.26513671875], [-125.00128, 42.85912, -5728.330078125]]], [[[-125.0294, 42.91183, -4056.312255859375], [-125.02255, 42.91185, -4855.6865234375], [-125.02641, 42.9175, -4866.7919921875], [-125.0294, 42.91183, -4056.312255859375]]], [[[-125.03376, 42.87753, -2006.6734619140625], [-125.03071, 42.87432, -2535.912353515625], [-125.02919, 42.87845, -2672.978515625], [-125.03376, 42.87753, -2006.6734619140625]]], [[[-125.02255, 42.91185, -4855.6865234375], [-125.0294, 42.91183, -4056.312255859375], [-125.02215, 42.905, -4179.5732421875], [-125.02255, 42.91185, -4855.6865234375]]], [[[-124.99082, 42.83643, -3763.76171875], [-124.98903, 42.82996, -2970.508544921875], [-124.98142, 42.83049, -3929.273193359375], [-124.99082, 42.83643, -3763.76171875]]], [[[-125.0363, 42.92957, -4088.262451171875], [-125.02936, 42.92919, -5004.47119140625], [-125.03406, 42.93632, -4848.625], [-125.0363, 42.92957, -4088.262451171875]]], [[[-125.02678, 42.86267, -2745.51513671875], [-125.02878, 42.85821, -2239.227294921875], [-125.02197, 42.85729, -3073.94580078125], [-125.02678, 42.86267, -2745.51513671875]]], [[[-125.04194, 42.93657, -3901.338134765625], [-125.03975, 42.94236, -4749.33544921875], [-125.04623, 42.94295, -4080.419921875], [-125.04194, 42.93657, -3901.338134765625]]], [[[-125.02255, 42.91185, -4855.6865234375], [-125.02215, 42.905, -4179.5732421875], [-125.01669, 42.90705, -5038.322265625], [-125.02255, 42.91185, -4855.6865234375]]], [[[-124.96848, 42.84088, -6787.51611328125], [-124.96276, 42.84288, -7693.7734375], [-124.97239, 42.84839, -7463.52587890625], [-124.96848, 42.84088, -6787.51611328125]]], [[[-125.03645, 42.92046, -3694.059326171875], [-125.04316, 42.92819, -3113.126953125], [-125.0413, 42.91892, -2980.42626953125], [-125.03645, 42.92046, -3694.059326171875]]], [[[-124.95494, 42.82879, -6968.931640625], [-124.96627, 42.83369, -6054.02685546875], [-124.96115, 42.82621, -6027.837890625], [-124.95494, 42.82879, -6968.931640625]]], [[[-125.02777, 42.86937, -2860.4130859375], [-125.03185, 42.86639, -2212.6015625], [-125.02678, 42.86267, -2745.51513671875], [-125.02777, 42.86937, -2860.4130859375]]], [[[-125.04316, 42.92819, -3113.126953125], [-125.04194, 42.93657, -3901.338134765625], [-125.04913, 42.93664, -3024.0126953125], [-125.04316, 42.92819, -3113.126953125]]], [[[-124.96627, 42.83369, -6054.02685546875], [-124.9597, 42.83579, -7042.76416015625], [-124.96848, 42.84088, -6787.51611328125], [-124.96627, 42.83369, -6054.02685546875]]], [[[-125.02045, 42.87761, -4003.623291015625], [-125.01908, 42.88435, -3938.964111328125], [-125.02315, 42.87861, -3576.727783203125], [-125.02045, 42.87761, -4003.623291015625]]], [[[-125.05692, 42.94443, -3088.50390625], [-125.06494, 42.95093, -3555.99169921875], [-125.06573, 42.94545, -2445.201904296875], [-125.05692, 42.94443, -3088.50390625]]], [[[-125.01774, 42.91318, -5557.32080078125], [-125.02255, 42.91185, -4855.6865234375], [-125.01669, 42.90705, -5038.322265625], [-125.01774, 42.91318, -5557.32080078125]]], [[[-124.97334, 42.82347, -4286.38427734375], [-124.97957, 42.82225, -3405.6611328125], [-124.97324, 42.81461, -3894.79150390625], [-124.97334, 42.82347, -4286.38427734375]]], [[[-125.03975, 42.94236, -4749.33544921875], [-125.04126, 42.94911, -5448.39892578125], [-125.04769, 42.948, -4631.896484375], [-125.03975, 42.94236, -4749.33544921875]]], [[[-125.02651, 42.87572, -3135.438720703125], [-125.02919, 42.87845, -2672.978515625], [-125.03071, 42.87432, -2535.912353515625], [-125.02651, 42.87572, -3135.438720703125]]], [[[-125.04316, 42.92819, -3113.126953125], [-125.03645, 42.92046, -3694.059326171875], [-125.0363, 42.92957, -4088.262451171875], [-125.04316, 42.92819, -3113.126953125]]], [[[-125.03376, 42.87753, -2006.6734619140625], [-125.03578, 42.88022, -1485.637939453125], [-125.03755, 42.8746, -1502.8983154296875], [-125.03376, 42.87753, -2006.6734619140625]]], [[[-125.00602, 42.89223, -4938.048828125], [-125.01209, 42.89065, -4061.746826171875], [-125.01293, 42.88578, -4861.01318359375], [-125.00602, 42.89223, -4938.048828125]]], [[[-125.01774, 42.91318, -5557.32080078125], [-125.02148, 42.91725, -5503.630859375], [-125.02255, 42.91185, -4855.6865234375], [-125.01774, 42.91318, -5557.32080078125]]], [[[-125.06573, 42.94545, -2445.201904296875], [-125.07508, 42.94585, -1634.7132568359375], [-125.06619, 42.94019, -1489.4031982421875], [-125.06573, 42.94545, -2445.201904296875]]], [[[-125.0294, 42.91183, -4056.312255859375], [-125.03677, 42.91134, -3145.352783203125], [-125.0292, 42.9038, -3230.530517578125], [-125.0294, 42.91183, -4056.312255859375]]], [[[-125.01774, 42.91318, -5557.32080078125], [-125.01754, 42.91714, -6001.1640625], [-125.02148, 42.91725, -5503.630859375], [-125.01774, 42.91318, -5557.32080078125]]], [[[-125.04913, 42.93664, -3024.0126953125], [-125.05765, 42.9387, -2287.30908203125], [-125.05116, 42.93029, -2257.703369140625], [-125.04913, 42.93664, -3024.0126953125]]], [[[-125.04988, 42.942, -3554.61181640625], [-125.04623, 42.94295, -4080.419921875], [-125.05407, 42.94729, -3894.6376953125], [-125.04988, 42.942, -3554.61181640625]]], [[[-125.01601, 42.86613, -4336.43017578125], [-125.01298, 42.85655, -4102.21240234375], [-125.00926, 42.86149, -4957.26513671875], [-125.01601, 42.86613, -4336.43017578125]]], [[[-125.01787, 42.8738, -4347.9306640625], [-125.02045, 42.87761, -4003.623291015625], [-125.02233, 42.87067, -3643.3193359375], [-125.01787, 42.8738, -4347.9306640625]]], [[[-124.9597, 42.83579, -7042.76416015625], [-124.95494, 42.82879, -6968.931640625], [-124.95347, 42.83715, -7920.04345703125], [-124.9597, 42.83579, -7042.76416015625]]], [[[-125.01774, 42.91318, -5557.32080078125], [-125.0132, 42.91326, -6093.15673828125], [-125.01754, 42.91714, -6001.1640625], [-125.01774, 42.91318, -5557.32080078125]]], [[[-125.01406, 42.8741, -4875.8857421875], [-125.01289, 42.88001, -5085.3603515625], [-125.01665, 42.88026, -4515.08203125], [-125.01406, 42.8741, -4875.8857421875]]], [[[-125.01774, 42.91318, -5557.32080078125], [-125.01273, 42.90827, -5633.18408203125], [-125.0132, 42.91326, -6093.15673828125], [-125.01774, 42.91318, -5557.32080078125]]], [[[-125.02315, 42.87861, -3576.727783203125], [-125.01908, 42.88435, -3938.964111328125], [-125.02492, 42.88299, -3065.978759765625], [-125.02315, 42.87861, -3576.727783203125]]], [[[-124.9856, 42.82025, -2514.06396484375], [-124.98508, 42.81154, -2178.059814453125], [-124.97916, 42.81308, -3036.425537109375], [-124.9856, 42.82025, -2514.06396484375]]], [[[-125.04316, 42.92819, -3113.126953125], [-125.0363, 42.92957, -4088.262451171875], [-125.04194, 42.93657, -3901.338134765625], [-125.04316, 42.92819, -3113.126953125]]], [[[-125.02233, 42.87067, -3643.3193359375], [-125.02651, 42.87572, -3135.438720703125], [-125.02777, 42.86937, -2860.4130859375], [-125.02233, 42.87067, -3643.3193359375]]], [[[-125.03051, 42.8819, -2187.609375], [-125.02492, 42.88299, -3065.978759765625], [-125.02407, 42.88754, -2331.5927734375], [-125.03051, 42.8819, -2187.609375]]], [[[-125.01774, 42.91318, -5557.32080078125], [-125.01669, 42.90705, -5038.322265625], [-125.01273, 42.90827, -5633.18408203125], [-125.01774, 42.91318, -5557.32080078125]]], [[[-125.00718, 42.90098, -5470.3291015625], [-125.01669, 42.90705, -5038.322265625], [-125.01365, 42.90025, -4636.06787109375], [-125.00718, 42.90098, -5470.3291015625]]], [[[-125.00718, 42.90098, -5470.3291015625], [-125.01365, 42.90025, -4636.06787109375], [-125.00602, 42.89223, -4938.048828125], [-125.00718, 42.90098, -5470.3291015625]]], [[[-125.08987, 43.02889, -3057.857666015625], [-125.09374, 43.03636, -2655.6689453125], [-125.09759, 43.0263, -1952.4949951171875], [-125.08987, 43.02889, -3057.857666015625]]], [[[-125.04769, 42.948, -4631.896484375], [-125.04126, 42.94911, -5448.39892578125], [-125.05149, 42.9537, -5339.80712890625], [-125.04769, 42.948, -4631.896484375]]], [[[-125.04913, 42.93664, -3024.0126953125], [-125.05692, 42.94443, -3088.50390625], [-125.05765, 42.9387, -2287.30908203125], [-125.04913, 42.93664, -3024.0126953125]]], [[[-125.01293, 42.88578, -4861.01318359375], [-125.0066, 42.88735, -5788.47998046875], [-125.00602, 42.89223, -4938.048828125], [-125.01293, 42.88578, -4861.01318359375]]], [[[-124.97471, 42.83225, -4903.376953125], [-124.96724, 42.82539, -5183.736328125], [-124.96627, 42.83369, -6054.02685546875], [-124.97471, 42.83225, -4903.376953125]]], [[[-124.96724, 42.82539, -5183.736328125], [-124.9614, 42.81769, -5611.52294921875], [-124.96115, 42.82621, -6027.837890625], [-124.96724, 42.82539, -5183.736328125]]], [[[-125.00718, 42.90098, -5470.3291015625], [-125.00016, 42.89375, -5784.8974609375], [-125.00049, 42.90221, -6397.7861328125], [-125.00718, 42.90098, -5470.3291015625]]], [[[-125.0292, 42.9038, -3230.530517578125], [-125.02614, 42.89531, -2673.86962890625], [-125.01965, 42.89748, -3649.268798828125], [-125.0292, 42.9038, -3230.530517578125]]], [[[-125.00718, 42.90098, -5470.3291015625], [-125.00049, 42.90221, -6397.7861328125], [-125.00764, 42.90821, -6215.80859375], [-125.00718, 42.90098, -5470.3291015625]]], [[[-124.97761, 42.84613, -6580.23486328125], [-124.98195, 42.85398, -7240.408203125], [-124.98633, 42.85191, -6471.98291015625], [-124.97761, 42.84613, -6580.23486328125]]], [[[-124.99085, 42.86012, -7025.1240234375], [-124.99301, 42.85753, -6472.20458984375], [-124.98195, 42.85398, -7240.408203125], [-124.99085, 42.86012, -7025.1240234375]]], [[[-125.01787, 42.8738, -4347.9306640625], [-125.02233, 42.87067, -3643.3193359375], [-125.01601, 42.86613, -4336.43017578125], [-125.01787, 42.8738, -4347.9306640625]]], [[[-124.98142, 42.83049, -3929.273193359375], [-124.98903, 42.82996, -2970.508544921875], [-124.97957, 42.82225, -3405.6611328125], [-124.98142, 42.83049, -3929.273193359375]]], [[[-125.01273, 42.90827, -5633.18408203125], [-125.00764, 42.90821, -6215.80859375], [-125.0132, 42.91326, -6093.15673828125], [-125.01273, 42.90827, -5633.18408203125]]], [[[-124.99456, 42.8952, -6592.57568359375], [-125.00049, 42.90221, -6397.7861328125], [-125.00016, 42.89375, -5784.8974609375], [-124.99456, 42.8952, -6592.57568359375]]], [[[-124.99456, 42.8952, -6592.57568359375], [-125.00016, 42.89375, -5784.8974609375], [-125.00057, 42.88944, -6557.53076171875], [-124.99456, 42.8952, -6592.57568359375]]], [[[-125.0066, 42.88735, -5788.47998046875], [-125.00057, 42.88944, -6557.53076171875], [-125.00016, 42.89375, -5784.8974609375], [-125.0066, 42.88735, -5788.47998046875]]], [[[-125.03975, 42.94236, -4749.33544921875], [-125.03406, 42.93632, -4848.625], [-125.03301, 42.94278, -5566.1181640625], [-125.03975, 42.94236, -4749.33544921875]]], [[[-125.00556, 42.88168, -6149.603515625], [-125.0023, 42.88414, -6584.365234375], [-125.0066, 42.88735, -5788.47998046875], [-125.00556, 42.88168, -6149.603515625]]], [[[-125.00556, 42.88168, -6149.603515625], [-125.00232, 42.87927, -6636.3544921875], [-125.0023, 42.88414, -6584.365234375], [-125.00556, 42.88168, -6149.603515625]]], [[[-125.00556, 42.88168, -6149.603515625], [-125.00521, 42.87622, -6148.94677734375], [-125.00232, 42.87927, -6636.3544921875], [-125.00556, 42.88168, -6149.603515625]]], [[[-124.99954, 42.86373, -6344.33642578125], [-124.99716, 42.86729, -6850.66943359375], [-125.0029, 42.86965, -6234.29150390625], [-124.99954, 42.86373, -6344.33642578125]]], [[[-125.00556, 42.88168, -6149.603515625], [-125.00939, 42.8815, -5578.19091796875], [-125.00521, 42.87622, -6148.94677734375], [-125.00556, 42.88168, -6149.603515625]]], [[[-125.00939, 42.8815, -5578.19091796875], [-125.00556, 42.88168, -6149.603515625], [-125.0066, 42.88735, -5788.47998046875], [-125.00939, 42.8815, -5578.19091796875]]], [[[-125.00939, 42.8815, -5578.19091796875], [-125.0066, 42.88735, -5788.47998046875], [-125.01293, 42.88578, -4861.01318359375], [-125.00939, 42.8815, -5578.19091796875]]], [[[-124.95494, 42.82879, -6968.931640625], [-124.96115, 42.82621, -6027.837890625], [-124.95549, 42.81922, -6469.88916015625], [-124.95494, 42.82879, -6968.931640625]]], [[[-125.01289, 42.88001, -5085.3603515625], [-125.00939, 42.8815, -5578.19091796875], [-125.01293, 42.88578, -4861.01318359375], [-125.01289, 42.88001, -5085.3603515625]]], [[[-125.01289, 42.88001, -5085.3603515625], [-125.00969, 42.87562, -5519.25830078125], [-125.00939, 42.8815, -5578.19091796875], [-125.01289, 42.88001, -5085.3603515625]]], [[[-125.01406, 42.8741, -4875.8857421875], [-125.00969, 42.87562, -5519.25830078125], [-125.01289, 42.88001, -5085.3603515625], [-125.01406, 42.8741, -4875.8857421875]]], [[[-124.95494, 42.82879, -6968.931640625], [-124.94706, 42.8303, -8081.91259765625], [-124.95347, 42.83715, -7920.04345703125], [-124.95494, 42.82879, -6968.931640625]]], [[[-124.99899, 42.83748, -3044.96435546875], [-124.99915, 42.83202, -2217.396484375], [-124.98903, 42.82996, -2970.508544921875], [-124.99899, 42.83748, -3044.96435546875]]], [[[-125.02045, 42.87761, -4003.623291015625], [-125.01665, 42.88026, -4515.08203125], [-125.01908, 42.88435, -3938.964111328125], [-125.02045, 42.87761, -4003.623291015625]]], [[[-124.98903, 42.82996, -2970.508544921875], [-124.99222, 42.82492, -2110.271484375], [-124.9856, 42.82025, -2514.06396484375], [-124.98903, 42.82996, -2970.508544921875]]], [[[-125.03051, 42.8819, -2187.609375], [-125.03578, 42.88022, -1485.637939453125], [-125.03376, 42.87753, -2006.6734619140625], [-125.03051, 42.8819, -2187.609375]]], [[[-125.00969, 42.87562, -5519.25830078125], [-125.01084, 42.86911, -5161.3603515625], [-125.00685, 42.87136, -5775.62060546875], [-125.00969, 42.87562, -5519.25830078125]]], [[[-125.0074, 42.84425, -3111.133544921875], [-125.00774, 42.83865, -2272.8017578125], [-124.99899, 42.83748, -3044.96435546875], [-125.0074, 42.84425, -3111.133544921875]]], [[[-125.00969, 42.87562, -5519.25830078125], [-125.00685, 42.87136, -5775.62060546875], [-125.00521, 42.87622, -6148.94677734375], [-125.00969, 42.87562, -5519.25830078125]]], [[[-125.00774, 42.83865, -2272.8017578125], [-125.01597, 42.8392, -1466.1468505859375], [-125.00771, 42.83278, -1433.2740478515625], [-125.00774, 42.83865, -2272.8017578125]]], [[[-125.0074, 42.84425, -3111.133544921875], [-125.00608, 42.8495, -4013.95166015625], [-125.01501, 42.8506, -3164.456787109375], [-125.0074, 42.84425, -3111.133544921875]]], [[[-124.99954, 42.86373, -6344.33642578125], [-125.00128, 42.85912, -5728.330078125], [-124.99301, 42.85753, -6472.20458984375], [-124.99954, 42.86373, -6344.33642578125]]], [[[-124.99954, 42.86373, -6344.33642578125], [-125.00555, 42.86564, -5669.2744140625], [-125.00128, 42.85912, -5728.330078125], [-124.99954, 42.86373, -6344.33642578125]]], [[[-124.98537, 42.83858, -4663.36865234375], [-124.97603, 42.83919, -5737.52685546875], [-124.98527, 42.84543, -5656.25341796875], [-124.98537, 42.83858, -4663.36865234375]]], [[[-124.99954, 42.86373, -6344.33642578125], [-124.99085, 42.86012, -7025.1240234375], [-124.99716, 42.86729, -6850.66943359375], [-124.99954, 42.86373, -6344.33642578125]]], [[[-124.97957, 42.82225, -3405.6611328125], [-124.97916, 42.81308, -3036.425537109375], [-124.97324, 42.81461, -3894.79150390625], [-124.97957, 42.82225, -3405.6611328125]]], [[[-125.00926, 42.86149, -4957.26513671875], [-125.01298, 42.85655, -4102.21240234375], [-125.0027, 42.85363, -4914.63232421875], [-125.00926, 42.86149, -4957.26513671875]]], [[[-125.00774, 42.83865, -2272.8017578125], [-125.01624, 42.84515, -2300.083251953125], [-125.01597, 42.8392, -1466.1468505859375], [-125.00774, 42.83865, -2272.8017578125]]], [[[-125.02492, 42.88299, -3065.978759765625], [-125.01803, 42.88911, -3203.804931640625], [-125.02407, 42.88754, -2331.5927734375], [-125.02492, 42.88299, -3065.978759765625]]], [[[-125.02678, 42.86267, -2745.51513671875], [-125.03185, 42.86639, -2212.6015625], [-125.02878, 42.85821, -2239.227294921875], [-125.02678, 42.86267, -2745.51513671875]]], [[[-125.03071, 42.87432, -2535.912353515625], [-125.03185, 42.86639, -2212.6015625], [-125.02777, 42.86937, -2860.4130859375], [-125.03071, 42.87432, -2535.912353515625]]], [[[-125.05692, 42.94443, -3088.50390625], [-125.04913, 42.93664, -3024.0126953125], [-125.04988, 42.942, -3554.61181640625], [-125.05692, 42.94443, -3088.50390625]]], [[[-125.03376, 42.87753, -2006.6734619140625], [-125.02919, 42.87845, -2672.978515625], [-125.03051, 42.8819, -2187.609375], [-125.03376, 42.87753, -2006.6734619140625]]], [[[-125.02148, 42.91725, -5503.630859375], [-125.01754, 42.91714, -6001.1640625], [-125.02012, 42.92177, -5906.38916015625], [-125.02148, 42.91725, -5503.630859375]]], [[[-125.02878, 42.85821, -2239.227294921875], [-125.03552, 42.86091, -1513.52978515625], [-125.03158, 42.85258, -1530.236328125], [-125.02878, 42.85821, -2239.227294921875]]], [[[-125.02651, 42.87572, -3135.438720703125], [-125.02492, 42.88299, -3065.978759765625], [-125.02919, 42.87845, -2672.978515625], [-125.02651, 42.87572, -3135.438720703125]]], [[[-125.0029, 42.86965, -6234.29150390625], [-125.00047, 42.87396, -6725.74658203125], [-125.00521, 42.87622, -6148.94677734375], [-125.0029, 42.86965, -6234.29150390625]]], [[[-125.02233, 42.87067, -3643.3193359375], [-125.02045, 42.87761, -4003.623291015625], [-125.02315, 42.87861, -3576.727783203125], [-125.02233, 42.87067, -3643.3193359375]]], [[[-125.03301, 42.94278, -5566.1181640625], [-125.03406, 42.93632, -4848.625], [-125.02657, 42.93542, -5695.1923828125], [-125.03301, 42.94278, -5566.1181640625]]], [[[-125.05692, 42.94443, -3088.50390625], [-125.05407, 42.94729, -3894.6376953125], [-125.06494, 42.95093, -3555.99169921875], [-125.05692, 42.94443, -3088.50390625]]], [[[-125.06573, 42.94545, -2445.201904296875], [-125.06619, 42.94019, -1489.4031982421875], [-125.05765, 42.9387, -2287.30908203125], [-125.06573, 42.94545, -2445.201904296875]]], [[[-125.05407, 42.94729, -3894.6376953125], [-125.05764, 42.95225, -4486.0546875], [-125.06494, 42.95093, -3555.99169921875], [-125.05407, 42.94729, -3894.6376953125]]], [[[-125.02651, 42.87572, -3135.438720703125], [-125.03071, 42.87432, -2535.912353515625], [-125.02777, 42.86937, -2860.4130859375], [-125.02651, 42.87572, -3135.438720703125]]], [[[-124.97334, 42.82347, -4286.38427734375], [-124.97324, 42.81461, -3894.79150390625], [-124.96732, 42.81615, -4753.1572265625], [-124.97334, 42.82347, -4286.38427734375]]], [[[-125.02332, 42.85141, -2322.903076171875], [-125.03158, 42.85258, -1530.236328125], [-125.02437, 42.84553, -1486.963134765625], [-125.02332, 42.85141, -2322.903076171875]]], [[[-125.02614, 42.89531, -2673.86962890625], [-125.02407, 42.88754, -2331.5927734375], [-125.01803, 42.88911, -3203.804931640625], [-125.02614, 42.89531, -2673.86962890625]]], [[[-125.02215, 42.905, -4179.5732421875], [-125.01365, 42.90025, -4636.06787109375], [-125.01669, 42.90705, -5038.322265625], [-125.02215, 42.905, -4179.5732421875]]], [[[-125.01965, 42.89748, -3649.268798828125], [-125.01209, 42.89065, -4061.746826171875], [-125.01365, 42.90025, -4636.06787109375], [-125.01965, 42.89748, -3649.268798828125]]], [[[-125.01501, 42.8506, -3164.456787109375], [-125.02332, 42.85141, -2322.903076171875], [-125.01624, 42.84515, -2300.083251953125], [-125.01501, 42.8506, -3164.456787109375]]], [[[-125.01298, 42.85655, -4102.21240234375], [-125.01501, 42.8506, -3164.456787109375], [-125.00608, 42.8495, -4013.95166015625], [-125.01298, 42.85655, -4102.21240234375]]], [[[-125.01298, 42.85655, -4102.21240234375], [-125.00608, 42.8495, -4013.95166015625], [-125.0027, 42.85363, -4914.63232421875], [-125.01298, 42.85655, -4102.21240234375]]], [[[-124.98537, 42.83858, -4663.36865234375], [-124.99797, 42.843, -3943.671142578125], [-124.99082, 42.83643, -3763.76171875], [-124.98537, 42.83858, -4663.36865234375]]], [[[-124.98537, 42.83858, -4663.36865234375], [-124.99082, 42.83643, -3763.76171875], [-124.98142, 42.83049, -3929.273193359375], [-124.98537, 42.83858, -4663.36865234375]]], [[[-124.98633, 42.85191, -6471.98291015625], [-124.98527, 42.84543, -5656.25341796875], [-124.97761, 42.84613, -6580.23486328125], [-124.98633, 42.85191, -6471.98291015625]]], [[[-124.97761, 42.84613, -6580.23486328125], [-124.96848, 42.84088, -6787.51611328125], [-124.97239, 42.84839, -7463.52587890625], [-124.97761, 42.84613, -6580.23486328125]]], [[[-124.99082, 42.83643, -3763.76171875], [-124.99899, 42.83748, -3044.96435546875], [-124.98903, 42.82996, -2970.508544921875], [-124.99082, 42.83643, -3763.76171875]]], [[[-124.96627, 42.83369, -6054.02685546875], [-124.96724, 42.82539, -5183.736328125], [-124.96115, 42.82621, -6027.837890625], [-124.96627, 42.83369, -6054.02685546875]]], [[[-125.03975, 42.94236, -4749.33544921875], [-125.03301, 42.94278, -5566.1181640625], [-125.04126, 42.94911, -5448.39892578125], [-125.03975, 42.94236, -4749.33544921875]]], [[[-125.05764, 42.95225, -4486.0546875], [-125.04769, 42.948, -4631.896484375], [-125.05149, 42.9537, -5339.80712890625], [-125.05764, 42.95225, -4486.0546875]]], [[[-125.05764, 42.95225, -4486.0546875], [-125.05149, 42.9537, -5339.80712890625], [-125.06171, 42.95769, -5239.103515625], [-125.05764, 42.95225, -4486.0546875]]], [[[-125.06862, 42.95667, -4411.04443359375], [-125.05764, 42.95225, -4486.0546875], [-125.06171, 42.95769, -5239.103515625], [-125.06862, 42.95667, -4411.04443359375]]], [[[-125.06862, 42.95667, -4411.04443359375], [-125.06494, 42.95093, -3555.99169921875], [-125.05764, 42.95225, -4486.0546875], [-125.06862, 42.95667, -4411.04443359375]]], [[[-125.06862, 42.95667, -4411.04443359375], [-125.077, 42.95801, -3571.35888671875], [-125.06494, 42.95093, -3555.99169921875], [-125.06862, 42.95667, -4411.04443359375]]], [[[-125.06862, 42.95667, -4411.04443359375], [-125.07577, 42.96384, -4289.6474609375], [-125.077, 42.95801, -3571.35888671875], [-125.06862, 42.95667, -4411.04443359375]]], [[[-125.06862, 42.95667, -4411.04443359375], [-125.06791, 42.96321, -5148.20849609375], [-125.07577, 42.96384, -4289.6474609375], [-125.06862, 42.95667, -4411.04443359375]]], [[[-125.06862, 42.95667, -4411.04443359375], [-125.06171, 42.95769, -5239.103515625], [-125.06791, 42.96321, -5148.20849609375], [-125.06862, 42.95667, -4411.04443359375]]], [[[-125.07118, 42.96974, -5064.46923828125], [-125.07577, 42.96384, -4289.6474609375], [-125.06791, 42.96321, -5148.20849609375], [-125.07118, 42.96974, -5064.46923828125]]], [[[-125.07577, 42.96384, -4289.6474609375], [-125.07118, 42.96974, -5064.46923828125], [-125.07699, 42.97293, -4286.599609375], [-125.07577, 42.96384, -4289.6474609375]]], [[[-125.07577, 42.96384, -4289.6474609375], [-125.07699, 42.97293, -4286.599609375], [-125.08155, 42.96709, -3588.81201171875], [-125.07577, 42.96384, -4289.6474609375]]], [[[-125.07577, 42.96384, -4289.6474609375], [-125.08155, 42.96709, -3588.81201171875], [-125.08634, 42.9627, -2855.504150390625], [-125.07577, 42.96384, -4289.6474609375]]], [[[-125.07577, 42.96384, -4289.6474609375], [-125.08634, 42.9627, -2855.504150390625], [-125.077, 42.95801, -3571.35888671875], [-125.07577, 42.96384, -4289.6474609375]]], [[[-125.077, 42.95801, -3571.35888671875], [-125.08634, 42.9627, -2855.504150390625], [-125.08303, 42.95574, -2641.39306640625], [-125.077, 42.95801, -3571.35888671875]]], [[[-125.077, 42.95801, -3571.35888671875], [-125.08303, 42.95574, -2641.39306640625], [-125.07481, 42.9508, -2648.012451171875], [-125.077, 42.95801, -3571.35888671875]]], [[[-125.06494, 42.95093, -3555.99169921875], [-125.077, 42.95801, -3571.35888671875], [-125.07481, 42.9508, -2648.012451171875], [-125.06494, 42.95093, -3555.99169921875]]], [[[-125.07481, 42.9508, -2648.012451171875], [-125.08303, 42.95574, -2641.39306640625], [-125.08472, 42.95086, -1775.6888427734375], [-125.07481, 42.9508, -2648.012451171875]]], [[[-125.07481, 42.9508, -2648.012451171875], [-125.08472, 42.95086, -1775.6888427734375], [-125.07508, 42.94585, -1634.7132568359375], [-125.07481, 42.9508, -2648.012451171875]]], [[[-125.08303, 42.95574, -2641.39306640625], [-125.09141, 42.95788, -1868.8555908203125], [-125.08472, 42.95086, -1775.6888427734375], [-125.08303, 42.95574, -2641.39306640625]]], [[[-125.08303, 42.95574, -2641.39306640625], [-125.08634, 42.9627, -2855.504150390625], [-125.09141, 42.95788, -1868.8555908203125], [-125.08303, 42.95574, -2641.39306640625]]], [[[-125.08634, 42.9627, -2855.504150390625], [-125.09379, 42.96632, -1883.9512939453125], [-125.09141, 42.95788, -1868.8555908203125], [-125.08634, 42.9627, -2855.504150390625]]], [[[-125.0879, 42.9707, -2701.801513671875], [-125.09379, 42.96632, -1883.9512939453125], [-125.08634, 42.9627, -2855.504150390625], [-125.0879, 42.9707, -2701.801513671875]]], [[[-125.0879, 42.9707, -2701.801513671875], [-125.09245, 42.97496, -1797.9771728515625], [-125.09379, 42.96632, -1883.9512939453125], [-125.0879, 42.9707, -2701.801513671875]]], [[[-125.08643, 42.9785, -2567.512939453125], [-125.09245, 42.97496, -1797.9771728515625], [-125.0879, 42.9707, -2701.801513671875], [-125.08643, 42.9785, -2567.512939453125]]], [[[-125.08643, 42.9785, -2567.512939453125], [-125.09054, 42.98358, -1851.28564453125], [-125.09245, 42.97496, -1797.9771728515625], [-125.08643, 42.9785, -2567.512939453125]]], [[[-125.08643, 42.9785, -2567.512939453125], [-125.08444, 42.98662, -2688.85546875], [-125.09054, 42.98358, -1851.28564453125], [-125.08643, 42.9785, -2567.512939453125]]], [[[-125.08132, 42.97776, -3392.308837890625], [-125.08444, 42.98662, -2688.85546875], [-125.08643, 42.9785, -2567.512939453125], [-125.08132, 42.97776, -3392.308837890625]]], [[[-125.08132, 42.97776, -3392.308837890625], [-125.07915, 42.98888, -3421.9033203125], [-125.08444, 42.98662, -2688.85546875], [-125.08132, 42.97776, -3392.308837890625]]], [[[-125.07915, 42.98888, -3421.9033203125], [-125.08132, 42.97776, -3392.308837890625], [-125.07512, 42.98259, -4151.966796875], [-125.07915, 42.98888, -3421.9033203125]]], [[[-125.0733, 42.992, -4206.49462890625], [-125.07915, 42.98888, -3421.9033203125], [-125.07512, 42.98259, -4151.966796875], [-125.0733, 42.992, -4206.49462890625]]], [[[-125.07707, 43.00005, -3556.049072265625], [-125.07915, 42.98888, -3421.9033203125], [-125.0733, 42.992, -4206.49462890625], [-125.07707, 43.00005, -3556.049072265625]]], [[[-125.07915, 42.98888, -3421.9033203125], [-125.07707, 43.00005, -3556.049072265625], [-125.0825, 42.99632, -2704.7421875], [-125.07915, 42.98888, -3421.9033203125]]], [[[-125.07915, 42.98888, -3421.9033203125], [-125.0825, 42.99632, -2704.7421875], [-125.08444, 42.98662, -2688.85546875], [-125.07915, 42.98888, -3421.9033203125]]], [[[-125.0825, 42.99632, -2704.7421875], [-125.08862, 42.99222, -1906.858642578125], [-125.08444, 42.98662, -2688.85546875], [-125.0825, 42.99632, -2704.7421875]]], [[[-125.0825, 42.99632, -2704.7421875], [-125.08946, 43.00086, -1947.79541015625], [-125.08862, 42.99222, -1906.858642578125], [-125.0825, 42.99632, -2704.7421875]]], [[[-125.08516, 43.00537, -2723.567138671875], [-125.08946, 43.00086, -1947.79541015625], [-125.0825, 42.99632, -2704.7421875], [-125.08516, 43.00537, -2723.567138671875]]], [[[-125.08516, 43.00537, -2723.567138671875], [-125.09339, 43.00911, -1958.4310302734375], [-125.08946, 43.00086, -1947.79541015625], [-125.08516, 43.00537, -2723.567138671875]]], [[[-125.08945, 43.01423, -2772.1953125], [-125.09339, 43.00911, -1958.4310302734375], [-125.08516, 43.00537, -2723.567138671875], [-125.08945, 43.01423, -2772.1953125]]], [[[-125.08945, 43.01423, -2772.1953125], [-125.09624, 43.01758, -1965.85498046875], [-125.09339, 43.00911, -1958.4310302734375], [-125.08945, 43.01423, -2772.1953125]]], [[[-125.08945, 43.01423, -2772.1953125], [-125.09185, 43.02219, -2698.3359375], [-125.09624, 43.01758, -1965.85498046875], [-125.08945, 43.01423, -2772.1953125]]], [[[-125.08545, 43.02053, -3504.5517578125], [-125.09185, 43.02219, -2698.3359375], [-125.08945, 43.01423, -2772.1953125], [-125.08545, 43.02053, -3504.5517578125]]], [[[-125.08545, 43.02053, -3504.5517578125], [-125.08987, 43.02889, -3057.857666015625], [-125.09185, 43.02219, -2698.3359375], [-125.08545, 43.02053, -3504.5517578125]]], [[[-125.08545, 43.02053, -3504.5517578125], [-125.08313, 43.02891, -3994.771240234375], [-125.08987, 43.02889, -3057.857666015625], [-125.08545, 43.02053, -3504.5517578125]]], [[[-125.08313, 43.02891, -3994.771240234375], [-125.08545, 43.02053, -3504.5517578125], [-125.07989, 43.01741, -4153.943359375], [-125.08313, 43.02891, -3994.771240234375]]], [[[-125.08313, 43.02891, -3994.771240234375], [-125.07989, 43.01741, -4153.943359375], [-125.07578, 43.02279, -4871.5302734375], [-125.08313, 43.02891, -3994.771240234375]]], [[[-125.08313, 43.02891, -3994.771240234375], [-125.07578, 43.02279, -4871.5302734375], [-125.07702, 43.0316, -4878.142578125], [-125.08313, 43.02891, -3994.771240234375]]], [[[-125.08313, 43.02891, -3994.771240234375], [-125.08323, 43.03908, -4152.05517578125], [-125.08848, 43.03772, -3403.862060546875], [-125.08313, 43.02891, -3994.771240234375]]], [[[-125.08313, 43.02891, -3994.771240234375], [-125.08848, 43.03772, -3403.862060546875], [-125.08987, 43.02889, -3057.857666015625], [-125.08313, 43.02891, -3994.771240234375]]], [[[-125.09374, 43.03636, -2655.6689453125], [-125.08987, 43.02889, -3057.857666015625], [-125.08848, 43.03772, -3403.862060546875], [-125.09374, 43.03636, -2655.6689453125]]], [[[-125.09185, 43.02219, -2698.3359375], [-125.08987, 43.02889, -3057.857666015625], [-125.09759, 43.0263, -1952.4949951171875], [-125.09185, 43.02219, -2698.3359375]]], [[[-125.09185, 43.02219, -2698.3359375], [-125.09759, 43.0263, -1952.4949951171875], [-125.09624, 43.01758, -1965.85498046875], [-125.09185, 43.02219, -2698.3359375]]], [[[-125.07578, 43.02279, -4871.5302734375], [-125.07989, 43.01741, -4153.943359375], [-125.07265, 43.01427, -4892.283203125], [-125.07578, 43.02279, -4871.5302734375]]], [[[-125.07483, 43.00792, -4182.05126953125], [-125.07265, 43.01427, -4892.283203125], [-125.07989, 43.01741, -4153.943359375], [-125.07483, 43.00792, -4182.05126953125]]], [[[-125.07265, 43.01427, -4892.283203125], [-125.07483, 43.00792, -4182.05126953125], [-125.06872, 43.00691, -4922.1767578125], [-125.07265, 43.01427, -4892.283203125]]], [[[-125.0709, 43.00007, -4374.1748046875], [-125.06872, 43.00691, -4922.1767578125], [-125.07483, 43.00792, -4182.05126953125], [-125.0709, 43.00007, -4374.1748046875]]], [[[-125.0709, 43.00007, -4374.1748046875], [-125.06678, 43.00085, -4949.40283203125], [-125.06872, 43.00691, -4922.1767578125], [-125.0709, 43.00007, -4374.1748046875]]], [[[-125.0709, 43.00007, -4374.1748046875], [-125.06776, 42.99469, -4958.8388671875], [-125.06678, 43.00085, -4949.40283203125], [-125.0709, 43.00007, -4374.1748046875]]], [[[-125.0709, 43.00007, -4374.1748046875], [-125.0733, 42.992, -4206.49462890625], [-125.06776, 42.99469, -4958.8388671875], [-125.0709, 43.00007, -4374.1748046875]]], [[[-125.07707, 43.00005, -3556.049072265625], [-125.0733, 42.992, -4206.49462890625], [-125.0709, 43.00007, -4374.1748046875], [-125.07707, 43.00005, -3556.049072265625]]], [[[-125.07707, 43.00005, -3556.049072265625], [-125.0709, 43.00007, -4374.1748046875], [-125.07483, 43.00792, -4182.05126953125], [-125.07707, 43.00005, -3556.049072265625]]], [[[-125.08221, 43.01026, -3427.375244140625], [-125.07707, 43.00005, -3556.049072265625], [-125.07483, 43.00792, -4182.05126953125], [-125.08221, 43.01026, -3427.375244140625]]], [[[-125.07707, 43.00005, -3556.049072265625], [-125.08221, 43.01026, -3427.375244140625], [-125.08516, 43.00537, -2723.567138671875], [-125.07707, 43.00005, -3556.049072265625]]], [[[-125.07707, 43.00005, -3556.049072265625], [-125.08516, 43.00537, -2723.567138671875], [-125.0825, 42.99632, -2704.7421875], [-125.07707, 43.00005, -3556.049072265625]]], [[[-125.08516, 43.00537, -2723.567138671875], [-125.08221, 43.01026, -3427.375244140625], [-125.08945, 43.01423, -2772.1953125], [-125.08516, 43.00537, -2723.567138671875]]], [[[-125.08221, 43.01026, -3427.375244140625], [-125.08545, 43.02053, -3504.5517578125], [-125.08945, 43.01423, -2772.1953125], [-125.08221, 43.01026, -3427.375244140625]]], [[[-125.08545, 43.02053, -3504.5517578125], [-125.08221, 43.01026, -3427.375244140625], [-125.07989, 43.01741, -4153.943359375], [-125.08545, 43.02053, -3504.5517578125]]], [[[-125.07989, 43.01741, -4153.943359375], [-125.08221, 43.01026, -3427.375244140625], [-125.07483, 43.00792, -4182.05126953125], [-125.07989, 43.01741, -4153.943359375]]], [[[-125.06776, 42.99469, -4958.8388671875], [-125.0733, 42.992, -4206.49462890625], [-125.06897, 42.98683, -4971.69921875], [-125.06776, 42.99469, -4958.8388671875]]], [[[-125.07512, 42.98259, -4151.966796875], [-125.06897, 42.98683, -4971.69921875], [-125.0733, 42.992, -4206.49462890625], [-125.07512, 42.98259, -4151.966796875]]], [[[-125.07512, 42.98259, -4151.966796875], [-125.07083, 42.9781, -5000.0927734375], [-125.06897, 42.98683, -4971.69921875], [-125.07512, 42.98259, -4151.966796875]]], [[[-125.07699, 42.97293, -4286.599609375], [-125.07083, 42.9781, -5000.0927734375], [-125.07512, 42.98259, -4151.966796875], [-125.07699, 42.97293, -4286.599609375]]], [[[-125.07083, 42.9781, -5000.0927734375], [-125.07699, 42.97293, -4286.599609375], [-125.07118, 42.96974, -5064.46923828125], [-125.07083, 42.9781, -5000.0927734375]]], [[[-125.07512, 42.98259, -4151.966796875], [-125.08132, 42.97776, -3392.308837890625], [-125.07699, 42.97293, -4286.599609375], [-125.07512, 42.98259, -4151.966796875]]], [[[-125.08132, 42.97776, -3392.308837890625], [-125.08155, 42.96709, -3588.81201171875], [-125.07699, 42.97293, -4286.599609375], [-125.08132, 42.97776, -3392.308837890625]]], [[[-125.08155, 42.96709, -3588.81201171875], [-125.08132, 42.97776, -3392.308837890625], [-125.0879, 42.9707, -2701.801513671875], [-125.08155, 42.96709, -3588.81201171875]]], [[[-125.08155, 42.96709, -3588.81201171875], [-125.0879, 42.9707, -2701.801513671875], [-125.08634, 42.9627, -2855.504150390625], [-125.08155, 42.96709, -3588.81201171875]]], [[[-125.08132, 42.97776, -3392.308837890625], [-125.08643, 42.9785, -2567.512939453125], [-125.0879, 42.9707, -2701.801513671875], [-125.08132, 42.97776, -3392.308837890625]]], [[[-125.08444, 42.98662, -2688.85546875], [-125.08862, 42.99222, -1906.858642578125], [-125.09054, 42.98358, -1851.28564453125], [-125.08444, 42.98662, -2688.85546875]]], [[[-125.05692, 42.94443, -3088.50390625], [-125.06573, 42.94545, -2445.201904296875], [-125.05765, 42.9387, -2287.30908203125], [-125.05692, 42.94443, -3088.50390625]]], [[[-125.05116, 42.93029, -2257.703369140625], [-125.05938, 42.933, -1469.652587890625], [-125.05465, 42.92496, -1441.2537841796875], [-125.05116, 42.93029, -2257.703369140625]]], [[[-125.04752, 42.92172, -2268.31787109375], [-125.05116, 42.93029, -2257.703369140625], [-125.05465, 42.92496, -1441.2537841796875], [-125.04752, 42.92172, -2268.31787109375]]], [[[-125.04752, 42.92172, -2268.31787109375], [-125.05465, 42.92496, -1441.2537841796875], [-125.05179, 42.91645, -1477.3375244140625], [-125.04752, 42.92172, -2268.31787109375]]], [[[-125.04439, 42.91324, -2290.7392578125], [-125.04752, 42.92172, -2268.31787109375], [-125.05179, 42.91645, -1477.3375244140625], [-125.04439, 42.91324, -2290.7392578125]]], [[[-125.0413, 42.91892, -2980.42626953125], [-125.04752, 42.92172, -2268.31787109375], [-125.04439, 42.91324, -2290.7392578125], [-125.0413, 42.91892, -2980.42626953125]]], [[[-125.04439, 42.91324, -2290.7392578125], [-125.05179, 42.91645, -1477.3375244140625], [-125.04822, 42.90811, -1469.27783203125], [-125.04439, 42.91324, -2290.7392578125]]], [[[-125.04439, 42.91324, -2290.7392578125], [-125.04822, 42.90811, -1469.27783203125], [-125.03929, 42.90613, -2298.28271484375], [-125.04439, 42.91324, -2290.7392578125]]], [[[-125.03929, 42.90613, -2298.28271484375], [-125.04822, 42.90811, -1469.27783203125], [-125.04175, 42.90075, -1439.0941162109375], [-125.03929, 42.90613, -2298.28271484375]]], [[[-125.03929, 42.90613, -2298.28271484375], [-125.04175, 42.90075, -1439.0941162109375], [-125.03343, 42.89955, -2268.63623046875], [-125.03929, 42.90613, -2298.28271484375]]], [[[-125.03343, 42.89955, -2268.63623046875], [-125.04175, 42.90075, -1439.0941162109375], [-125.03477, 42.89364, -1470.8348388671875], [-125.03343, 42.89955, -2268.63623046875]]], [[[-125.0294, 42.91183, -4056.312255859375], [-125.02641, 42.9175, -4866.7919921875], [-125.0309, 42.92157, -4480.552734375], [-125.0294, 42.91183, -4056.312255859375]]], [[[-124.9856, 42.82025, -2514.06396484375], [-124.99386, 42.81859, -1343.6243896484375], [-124.98508, 42.81154, -2178.059814453125], [-124.9856, 42.82025, -2514.06396484375]]], [[[-124.98508, 42.81154, -2178.059814453125], [-124.99386, 42.81859, -1343.6243896484375], [-124.991, 42.81, -1319.6939697265625], [-124.98508, 42.81154, -2178.059814453125]]], [[[-124.94706, 42.8303, -8081.91259765625], [-124.95494, 42.82879, -6968.931640625], [-124.94956, 42.82076, -7328.2548828125], [-124.94706, 42.8303, -8081.91259765625]]], [[[-124.94364, 42.82229, -8186.62060546875], [-124.94706, 42.8303, -8081.91259765625], [-124.94956, 42.82076, -7328.2548828125], [-124.94364, 42.82229, -8186.62060546875]]], [[[-125.08323, 43.03908, -4152.05517578125], [-125.08313, 43.02891, -3994.771240234375], [-125.07702, 43.0316, -4878.142578125], [-125.08323, 43.03908, -4152.05517578125]]], [[[-125.07797, 43.04044, -4900.248046875], [-125.08323, 43.03908, -4152.05517578125], [-125.07702, 43.0316, -4878.142578125], [-125.07797, 43.04044, -4900.248046875]]], [[[-125.09374, 43.03636, -2655.6689453125], [-125.099, 43.035, -1907.4759521484375], [-125.09759, 43.0263, -1952.4949951171875], [-125.09374, 43.03636, -2655.6689453125]]]]}}]}