{"type": "FeatureCollection", "features": [{"type": "Feature", "properties": {"name": "AW_SORE_8", "CFM_ID": 393, "region": "Offshore_OR", "primary_state/province": "OR", "secondary_state/province": null, "avg_dip": null, "dip_dir": "W", "rake": 90, "slip_sense": "Reverse", "fault_level": 2, "NSHM23_sliprates": null, "QFFDAgeCatBin": null, "QFFDAgeBin": null, "upper_depth": null, "upper_depth_constraint": "bathymetry", "lower_depth": null, "lower_depth_constraint": "megathrust", "3D_model_constraints": "trace extended at constant dip", "reference": "Goldfinger et al. (2023)", "nshm23_id": null, "lineage": null, "usgs_qffd_#": null, "comments": null, "id": "393"}, "geometry": {"type": "MultiPolygon", "coordinates": [[[[-125.11121, 42.7984, -4179.279296875], [-125.12014, 42.79821, -5367.58056640625], [-125.11067, 42.78995, -4674.3232421875], [-125.11121, 42.7984, -4179.279296875]]], [[[-125.1148, 42.92004, -3668.527587890625], [-125.11784, 42.92819, -3953.49462890625], [-125.12307, 42.91884, -4799.21435546875], [-125.1148, 42.92004, -3668.527587890625]]], [[[-125.11968, 42.90476, -4040.19775390625], [-125.1179, 42.91365, -4095.310546875], [-125.12389, 42.90978, -4855.07470703125], [-125.11968, 42.90476, -4040.19775390625]]], [[[-125.10544, 42.91517, -2409.345458984375], [-125.10003, 42.92027, -1675.56982421875], [-125.10835, 42.92039, -2794.5791015625], [-125.10544, 42.91517, -2409.345458984375]]], [[[-125.10835, 42.92039, -2794.5791015625], [-125.1148, 42.92004, -3668.527587890625], [-125.11197, 42.91106, -3274.8720703125], [-125.10835, 42.92039, -2794.5791015625]]], [[[-125.10544, 42.91517, -2409.345458984375], [-125.10016, 42.91153, -1669.8175048828125], [-125.10003, 42.92027, -1675.56982421875], [-125.10544, 42.91517, -2409.345458984375]]], [[[-125.10728, 42.90784, -2477.726318359375], [-125.10016, 42.91153, -1669.8175048828125], [-125.10544, 42.91517, -2409.345458984375], [-125.10728, 42.90784, -2477.726318359375]]], [[[-125.10728, 42.90784, -2477.726318359375], [-125.10299, 42.90303, -1660.623779296875], [-125.10016, 42.91153, -1669.8175048828125], [-125.10728, 42.90784, -2477.726318359375]]], [[[-125.11019, 42.90131, -2347.22314453125], [-125.10299, 42.90303, -1660.623779296875], [-125.10728, 42.90784, -2477.726318359375], [-125.11019, 42.90131, -2347.22314453125]]], [[[-125.11019, 42.90131, -2347.22314453125], [-125.1112, 42.89753, -1691.355712890625], [-125.10299, 42.90303, -1660.623779296875], [-125.11019, 42.90131, -2347.22314453125]]], [[[-125.11633, 42.83333, -3537.870361328125], [-125.10895, 42.83032, -2629.40283203125], [-125.11088, 42.83911, -2664.12451171875], [-125.11633, 42.83333, -3537.870361328125]]], [[[-125.11741, 42.89593, -2363.322265625], [-125.1112, 42.89753, -1691.355712890625], [-125.11019, 42.90131, -2347.22314453125], [-125.11741, 42.89593, -2363.322265625]]], [[[-125.11741, 42.89593, -2363.322265625], [-125.11543, 42.89151, -1754.4639892578125], [-125.1112, 42.89753, -1691.355712890625], [-125.11741, 42.89593, -2363.322265625]]], [[[-125.12065, 42.88963, -2335.883056640625], [-125.11543, 42.89151, -1754.4639892578125], [-125.11741, 42.89593, -2363.322265625], [-125.12065, 42.88963, -2335.883056640625]]], [[[-125.13044, 42.84304, -5184.83349609375], [-125.12487, 42.84587, -4363.79736328125], [-125.13192, 42.85208, -5134.787109375], [-125.13044, 42.84304, -5184.83349609375]]], [[[-125.12065, 42.88963, -2335.883056640625], [-125.11741, 42.88528, -1804.0072021484375], [-125.11543, 42.89151, -1754.4639892578125], [-125.12065, 42.88963, -2335.883056640625]]], [[[-125.12065, 42.88963, -2335.883056640625], [-125.12278, 42.88254, -2504.76220703125], [-125.11741, 42.88528, -1804.0072021484375], [-125.12065, 42.88963, -2335.883056640625]]], [[[-125.12567, 42.88834, -2948.025146484375], [-125.12278, 42.88254, -2504.76220703125], [-125.12065, 42.88963, -2335.883056640625], [-125.12567, 42.88834, -2948.025146484375]]], [[[-125.11791, 42.84211, -3531.66748046875], [-125.11088, 42.83911, -2664.12451171875], [-125.11279, 42.84807, -2692.678466796875], [-125.11791, 42.84211, -3531.66748046875]]], [[[-125.12843, 42.87972, -3243.312255859375], [-125.12278, 42.88254, -2504.76220703125], [-125.12567, 42.88834, -2948.025146484375], [-125.12843, 42.87972, -3243.312255859375]]], [[[-125.12278, 42.88254, -2504.76220703125], [-125.12843, 42.87972, -3243.312255859375], [-125.12105, 42.87445, -2654.713134765625], [-125.12278, 42.88254, -2504.76220703125]]], [[[-125.12278, 42.88254, -2504.76220703125], [-125.12105, 42.87445, -2654.713134765625], [-125.11679, 42.87759, -1860.3890380859375], [-125.12278, 42.88254, -2504.76220703125]]], [[[-125.12278, 42.88254, -2504.76220703125], [-125.11679, 42.87759, -1860.3890380859375], [-125.11741, 42.88528, -1804.0072021484375], [-125.12278, 42.88254, -2504.76220703125]]], [[[-125.12105, 42.87445, -2654.713134765625], [-125.11311, 42.86932, -1893.045654296875], [-125.11679, 42.87759, -1860.3890380859375], [-125.12105, 42.87445, -2654.713134765625]]], [[[-125.12105, 42.87445, -2654.713134765625], [-125.11804, 42.86535, -2687.9169921875], [-125.11311, 42.86932, -1893.045654296875], [-125.12105, 42.87445, -2654.713134765625]]], [[[-125.14062, 42.8785, -4911.0859375], [-125.13723, 42.87836, -4476.15576171875], [-125.13987, 42.88734, -4860.93212890625], [-125.14062, 42.8785, -4911.0859375]]], [[[-125.12579, 42.87002, -3557.806884765625], [-125.11804, 42.86535, -2687.9169921875], [-125.12105, 42.87445, -2654.713134765625], [-125.12579, 42.87002, -3557.806884765625]]], [[[-125.12579, 42.87002, -3557.806884765625], [-125.12228, 42.85989, -3480.8076171875], [-125.11804, 42.86535, -2687.9169921875], [-125.12579, 42.87002, -3557.806884765625]]], [[[-125.12228, 42.85989, -3480.8076171875], [-125.12579, 42.87002, -3557.806884765625], [-125.12954, 42.86347, -4285.099609375], [-125.12228, 42.85989, -3480.8076171875]]], [[[-125.12228, 42.85989, -3480.8076171875], [-125.12954, 42.86347, -4285.099609375], [-125.12665, 42.85475, -4319.453125], [-125.12228, 42.85989, -3480.8076171875]]], [[[-125.12228, 42.85989, -3480.8076171875], [-125.12665, 42.85475, -4319.453125], [-125.11958, 42.85095, -3519.745361328125], [-125.12228, 42.85989, -3480.8076171875]]], [[[-125.101, 42.929, -1674.092041015625], [-125.10661, 42.92873, -2433.892822265625], [-125.10003, 42.92027, -1675.56982421875], [-125.101, 42.929, -1674.092041015625]]], [[[-125.12228, 42.85989, -3480.8076171875], [-125.11958, 42.85095, -3519.745361328125], [-125.11507, 42.85691, -2679.798583984375], [-125.12228, 42.85989, -3480.8076171875]]], [[[-125.12228, 42.85989, -3480.8076171875], [-125.11507, 42.85691, -2679.798583984375], [-125.11804, 42.86535, -2687.9169921875], [-125.12228, 42.85989, -3480.8076171875]]], [[[-125.11804, 42.86535, -2687.9169921875], [-125.11507, 42.85691, -2679.798583984375], [-125.11028, 42.86084, -1846.8857421875], [-125.11804, 42.86535, -2687.9169921875]]], [[[-125.11804, 42.86535, -2687.9169921875], [-125.11028, 42.86084, -1846.8857421875], [-125.11311, 42.86932, -1893.045654296875], [-125.11804, 42.86535, -2687.9169921875]]], [[[-125.11507, 42.85691, -2679.798583984375], [-125.10763, 42.85232, -1888.841796875], [-125.11028, 42.86084, -1846.8857421875], [-125.11507, 42.85691, -2679.798583984375]]], [[[-125.11279, 42.84807, -2692.678466796875], [-125.10763, 42.85232, -1888.841796875], [-125.11507, 42.85691, -2679.798583984375], [-125.11279, 42.84807, -2692.678466796875]]], [[[-125.11067, 42.78995, -4674.3232421875], [-125.12014, 42.79821, -5367.58056640625], [-125.11609, 42.78969, -5409.384765625], [-125.11067, 42.78995, -4674.3232421875]]], [[[-125.11279, 42.84807, -2692.678466796875], [-125.10571, 42.84368, -1862.6629638671875], [-125.10763, 42.85232, -1888.841796875], [-125.11279, 42.84807, -2692.678466796875]]], [[[-125.11088, 42.83911, -2664.12451171875], [-125.10571, 42.84368, -1862.6629638671875], [-125.11279, 42.84807, -2692.678466796875], [-125.11088, 42.83911, -2664.12451171875]]], [[[-125.11088, 42.83911, -2664.12451171875], [-125.10376, 42.83505, -1812.757568359375], [-125.10571, 42.84368, -1862.6629638671875], [-125.11088, 42.83911, -2664.12451171875]]], [[[-125.10895, 42.83032, -2629.40283203125], [-125.10376, 42.83505, -1812.757568359375], [-125.11088, 42.83911, -2664.12451171875], [-125.10895, 42.83032, -2629.40283203125]]], [[[-125.10895, 42.83032, -2629.40283203125], [-125.10166, 42.82645, -1766.1263427734375], [-125.10376, 42.83505, -1812.757568359375], [-125.10895, 42.83032, -2629.40283203125]]], [[[-125.10687, 42.82191, -2610.527099609375], [-125.10166, 42.82645, -1766.1263427734375], [-125.10895, 42.83032, -2629.40283203125], [-125.10687, 42.82191, -2610.527099609375]]], [[[-125.10687, 42.82191, -2610.527099609375], [-125.09974, 42.81781, -1796.3826904296875], [-125.10166, 42.82645, -1766.1263427734375], [-125.10687, 42.82191, -2610.527099609375]]], [[[-125.10473, 42.81258, -2645.697021484375], [-125.09974, 42.81781, -1796.3826904296875], [-125.10687, 42.82191, -2610.527099609375], [-125.10473, 42.81258, -2645.697021484375]]], [[[-125.10473, 42.81258, -2645.697021484375], [-125.09765, 42.80921, -1824.483642578125], [-125.09974, 42.81781, -1796.3826904296875], [-125.10473, 42.81258, -2645.697021484375]]], [[[-125.10473, 42.81258, -2645.697021484375], [-125.10119, 42.80183, -2629.654296875], [-125.09765, 42.80921, -1824.483642578125], [-125.10473, 42.81258, -2645.697021484375]]], [[[-125.10998, 42.80708, -3567.406494140625], [-125.10119, 42.80183, -2629.654296875], [-125.10473, 42.81258, -2645.697021484375], [-125.10998, 42.80708, -3567.406494140625]]], [[[-125.10998, 42.80708, -3567.406494140625], [-125.10543, 42.79839, -3421.33349609375], [-125.10119, 42.80183, -2629.654296875], [-125.10998, 42.80708, -3567.406494140625]]], [[[-125.11121, 42.7984, -4179.279296875], [-125.10543, 42.79839, -3421.33349609375], [-125.10998, 42.80708, -3567.406494140625], [-125.11121, 42.7984, -4179.279296875]]], [[[-125.10543, 42.79839, -3421.33349609375], [-125.11121, 42.7984, -4179.279296875], [-125.10526, 42.79021, -3939.26171875], [-125.10543, 42.79839, -3421.33349609375]]], [[[-125.10543, 42.79839, -3421.33349609375], [-125.10526, 42.79021, -3939.26171875], [-125.09984, 42.79048, -3204.2001953125], [-125.10543, 42.79839, -3421.33349609375]]], [[[-125.10543, 42.79839, -3421.33349609375], [-125.09984, 42.79048, -3204.2001953125], [-125.10119, 42.80183, -2629.654296875], [-125.10543, 42.79839, -3421.33349609375]]], [[[-125.10119, 42.80183, -2629.654296875], [-125.09984, 42.79048, -3204.2001953125], [-125.09442, 42.79074, -2469.138671875], [-125.10119, 42.80183, -2629.654296875]]], [[[-125.10119, 42.80183, -2629.654296875], [-125.09397, 42.80095, -1706.9132080078125], [-125.09765, 42.80921, -1824.483642578125], [-125.10119, 42.80183, -2629.654296875]]], [[[-125.11121, 42.7984, -4179.279296875], [-125.11067, 42.78995, -4674.3232421875], [-125.10526, 42.79021, -3939.26171875], [-125.11121, 42.7984, -4179.279296875]]], [[[-125.11624, 42.80343, -4568.67578125], [-125.12014, 42.79821, -5367.58056640625], [-125.11121, 42.7984, -4179.279296875], [-125.11624, 42.80343, -4568.67578125]]], [[[-125.11624, 42.80343, -4568.67578125], [-125.12315, 42.80703, -5328.8349609375], [-125.12014, 42.79821, -5367.58056640625], [-125.11624, 42.80343, -4568.67578125]]], [[[-125.11624, 42.80343, -4568.67578125], [-125.1179, 42.81157, -4440.68115234375], [-125.12315, 42.80703, -5328.8349609375], [-125.11624, 42.80343, -4568.67578125]]], [[[-125.10998, 42.80708, -3567.406494140625], [-125.1179, 42.81157, -4440.68115234375], [-125.11624, 42.80343, -4568.67578125], [-125.10998, 42.80708, -3567.406494140625]]], [[[-125.11201, 42.81645, -3483.20166015625], [-125.1179, 42.81157, -4440.68115234375], [-125.10998, 42.80708, -3567.406494140625], [-125.11201, 42.81645, -3483.20166015625]]], [[[-125.11201, 42.81645, -3483.20166015625], [-125.12018, 42.81991, -4452.73583984375], [-125.1179, 42.81157, -4440.68115234375], [-125.11201, 42.81645, -3483.20166015625]]], [[[-125.11201, 42.81645, -3483.20166015625], [-125.11462, 42.82473, -3551.39306640625], [-125.12018, 42.81991, -4452.73583984375], [-125.11201, 42.81645, -3483.20166015625]]], [[[-125.11201, 42.81645, -3483.20166015625], [-125.10687, 42.82191, -2610.527099609375], [-125.11462, 42.82473, -3551.39306640625], [-125.11201, 42.81645, -3483.20166015625]]], [[[-125.11201, 42.81645, -3483.20166015625], [-125.10473, 42.81258, -2645.697021484375], [-125.10687, 42.82191, -2610.527099609375], [-125.11201, 42.81645, -3483.20166015625]]], [[[-125.11201, 42.81645, -3483.20166015625], [-125.10998, 42.80708, -3567.406494140625], [-125.10473, 42.81258, -2645.697021484375], [-125.11201, 42.81645, -3483.20166015625]]], [[[-125.11462, 42.82473, -3551.39306640625], [-125.10687, 42.82191, -2610.527099609375], [-125.10895, 42.83032, -2629.40283203125], [-125.11462, 42.82473, -3551.39306640625]]], [[[-125.11633, 42.83333, -3537.870361328125], [-125.11462, 42.82473, -3551.39306640625], [-125.10895, 42.83032, -2629.40283203125], [-125.11633, 42.83333, -3537.870361328125]]], [[[-125.10119, 42.80183, -2629.654296875], [-125.09442, 42.79074, -2469.138671875], [-125.09397, 42.80095, -1706.9132080078125], [-125.10119, 42.80183, -2629.654296875]]], [[[-125.11633, 42.83333, -3537.870361328125], [-125.12209, 42.82843, -4437.09765625], [-125.11462, 42.82473, -3551.39306640625], [-125.11633, 42.83333, -3537.870361328125]]], [[[-125.12209, 42.82843, -4437.09765625], [-125.11633, 42.83333, -3537.870361328125], [-125.12352, 42.83713, -4402.55908203125], [-125.12209, 42.82843, -4437.09765625]]], [[[-125.12209, 42.82843, -4437.09765625], [-125.12352, 42.83713, -4402.55908203125], [-125.12906, 42.83399, -5223.3759765625], [-125.12209, 42.82843, -4437.09765625]]], [[[-125.12209, 42.82843, -4437.09765625], [-125.12906, 42.83399, -5223.3759765625], [-125.12752, 42.82496, -5264.66650390625], [-125.12209, 42.82843, -4437.09765625]]], [[[-125.12018, 42.81991, -4452.73583984375], [-125.12209, 42.82843, -4437.09765625], [-125.12752, 42.82496, -5264.66650390625], [-125.12018, 42.81991, -4452.73583984375]]], [[[-125.12209, 42.82843, -4437.09765625], [-125.12018, 42.81991, -4452.73583984375], [-125.11462, 42.82473, -3551.39306640625], [-125.12209, 42.82843, -4437.09765625]]], [[[-125.12018, 42.81991, -4452.73583984375], [-125.12752, 42.82496, -5264.66650390625], [-125.12546, 42.81598, -5296.4072265625], [-125.12018, 42.81991, -4452.73583984375]]], [[[-125.1179, 42.81157, -4440.68115234375], [-125.12018, 42.81991, -4452.73583984375], [-125.12546, 42.81598, -5296.4072265625], [-125.1179, 42.81157, -4440.68115234375]]], [[[-125.12315, 42.80703, -5328.8349609375], [-125.1179, 42.81157, -4440.68115234375], [-125.12546, 42.81598, -5296.4072265625], [-125.12315, 42.80703, -5328.8349609375]]], [[[-125.12352, 42.83713, -4402.55908203125], [-125.13044, 42.84304, -5184.83349609375], [-125.12906, 42.83399, -5223.3759765625], [-125.12352, 42.83713, -4402.55908203125]]], [[[-125.12352, 42.83713, -4402.55908203125], [-125.12487, 42.84587, -4363.79736328125], [-125.13044, 42.84304, -5184.83349609375], [-125.12352, 42.83713, -4402.55908203125]]], [[[-125.11791, 42.84211, -3531.66748046875], [-125.12487, 42.84587, -4363.79736328125], [-125.12352, 42.83713, -4402.55908203125], [-125.11791, 42.84211, -3531.66748046875]]], [[[-125.11958, 42.85095, -3519.745361328125], [-125.12487, 42.84587, -4363.79736328125], [-125.11791, 42.84211, -3531.66748046875], [-125.11958, 42.85095, -3519.745361328125]]], [[[-125.11958, 42.85095, -3519.745361328125], [-125.12665, 42.85475, -4319.453125], [-125.12487, 42.84587, -4363.79736328125], [-125.11958, 42.85095, -3519.745361328125]]], [[[-125.12665, 42.85475, -4319.453125], [-125.13192, 42.85208, -5134.787109375], [-125.12487, 42.84587, -4363.79736328125], [-125.12665, 42.85475, -4319.453125]]], [[[-125.12665, 42.85475, -4319.453125], [-125.13468, 42.86094, -5066.45751953125], [-125.13192, 42.85208, -5134.787109375], [-125.12665, 42.85475, -4319.453125]]], [[[-125.12665, 42.85475, -4319.453125], [-125.12954, 42.86347, -4285.099609375], [-125.13468, 42.86094, -5066.45751953125], [-125.12665, 42.85475, -4319.453125]]], [[[-125.12954, 42.86347, -4285.099609375], [-125.13664, 42.86992, -5005.025390625], [-125.13468, 42.86094, -5066.45751953125], [-125.12954, 42.86347, -4285.099609375]]], [[[-125.12954, 42.86347, -4285.099609375], [-125.13268, 42.8716, -4393.8408203125], [-125.13664, 42.86992, -5005.025390625], [-125.12954, 42.86347, -4285.099609375]]], [[[-125.12954, 42.86347, -4285.099609375], [-125.12579, 42.87002, -3557.806884765625], [-125.13268, 42.8716, -4393.8408203125], [-125.12954, 42.86347, -4285.099609375]]], [[[-125.13258, 42.87784, -3907.119140625], [-125.13268, 42.8716, -4393.8408203125], [-125.12579, 42.87002, -3557.806884765625], [-125.13258, 42.87784, -3907.119140625]]], [[[-125.13258, 42.87784, -3907.119140625], [-125.13723, 42.87836, -4476.15576171875], [-125.13268, 42.8716, -4393.8408203125], [-125.13258, 42.87784, -3907.119140625]]], [[[-125.13425, 42.88514, -4080.28662109375], [-125.13723, 42.87836, -4476.15576171875], [-125.13258, 42.87784, -3907.119140625], [-125.13425, 42.88514, -4080.28662109375]]], [[[-125.13425, 42.88514, -4080.28662109375], [-125.13987, 42.88734, -4860.93212890625], [-125.13723, 42.87836, -4476.15576171875], [-125.13425, 42.88514, -4080.28662109375]]], [[[-125.13425, 42.88514, -4080.28662109375], [-125.13352, 42.89088, -4215.6201171875], [-125.13987, 42.88734, -4860.93212890625], [-125.13425, 42.88514, -4080.28662109375]]], [[[-125.13352, 42.89088, -4215.6201171875], [-125.13425, 42.88514, -4080.28662109375], [-125.12994, 42.88744, -3518.3837890625], [-125.13352, 42.89088, -4215.6201171875]]], [[[-125.13352, 42.89088, -4215.6201171875], [-125.12994, 42.88744, -3518.3837890625], [-125.12779, 42.8927, -3558.42529296875], [-125.13352, 42.89088, -4215.6201171875]]], [[[-125.12779, 42.8927, -3558.42529296875], [-125.12893, 42.89694, -4146.75244140625], [-125.13352, 42.89088, -4215.6201171875], [-125.12779, 42.8927, -3558.42529296875]]], [[[-125.12779, 42.8927, -3558.42529296875], [-125.1229, 42.89811, -3517.2890625], [-125.12893, 42.89694, -4146.75244140625], [-125.12779, 42.8927, -3558.42529296875]]], [[[-125.12226, 42.89455, -2930.846435546875], [-125.1229, 42.89811, -3517.2890625], [-125.12779, 42.8927, -3558.42529296875], [-125.12226, 42.89455, -2930.846435546875]]], [[[-125.12226, 42.89455, -2930.846435546875], [-125.11403, 42.90227, -3111.779052734375], [-125.1229, 42.89811, -3517.2890625], [-125.12226, 42.89455, -2930.846435546875]]], [[[-125.12226, 42.89455, -2930.846435546875], [-125.11741, 42.89593, -2363.322265625], [-125.11403, 42.90227, -3111.779052734375], [-125.12226, 42.89455, -2930.846435546875]]], [[[-125.12226, 42.89455, -2930.846435546875], [-125.12065, 42.88963, -2335.883056640625], [-125.11741, 42.89593, -2363.322265625], [-125.12226, 42.89455, -2930.846435546875]]], [[[-125.11791, 42.84211, -3531.66748046875], [-125.12352, 42.83713, -4402.55908203125], [-125.11633, 42.83333, -3537.870361328125], [-125.11791, 42.84211, -3531.66748046875]]], [[[-125.12226, 42.89455, -2930.846435546875], [-125.12567, 42.88834, -2948.025146484375], [-125.12065, 42.88963, -2335.883056640625], [-125.12226, 42.89455, -2930.846435546875]]], [[[-125.12226, 42.89455, -2930.846435546875], [-125.12779, 42.8927, -3558.42529296875], [-125.12567, 42.88834, -2948.025146484375], [-125.12226, 42.89455, -2930.846435546875]]], [[[-125.12567, 42.88834, -2948.025146484375], [-125.12779, 42.8927, -3558.42529296875], [-125.12994, 42.88744, -3518.3837890625], [-125.12567, 42.88834, -2948.025146484375]]], [[[-125.12843, 42.87972, -3243.312255859375], [-125.12567, 42.88834, -2948.025146484375], [-125.12994, 42.88744, -3518.3837890625], [-125.12843, 42.87972, -3243.312255859375]]], [[[-125.12994, 42.88744, -3518.3837890625], [-125.13425, 42.88514, -4080.28662109375], [-125.12843, 42.87972, -3243.312255859375], [-125.12994, 42.88744, -3518.3837890625]]], [[[-125.13425, 42.88514, -4080.28662109375], [-125.13258, 42.87784, -3907.119140625], [-125.12843, 42.87972, -3243.312255859375], [-125.13425, 42.88514, -4080.28662109375]]], [[[-125.12843, 42.87972, -3243.312255859375], [-125.13258, 42.87784, -3907.119140625], [-125.12579, 42.87002, -3557.806884765625], [-125.12843, 42.87972, -3243.312255859375]]], [[[-125.12843, 42.87972, -3243.312255859375], [-125.12579, 42.87002, -3557.806884765625], [-125.12105, 42.87445, -2654.713134765625], [-125.12843, 42.87972, -3243.312255859375]]], [[[-125.11741, 42.89593, -2363.322265625], [-125.11019, 42.90131, -2347.22314453125], [-125.11403, 42.90227, -3111.779052734375], [-125.11741, 42.89593, -2363.322265625]]], [[[-125.10728, 42.90784, -2477.726318359375], [-125.11403, 42.90227, -3111.779052734375], [-125.11019, 42.90131, -2347.22314453125], [-125.10728, 42.90784, -2477.726318359375]]], [[[-125.10835, 42.92039, -2794.5791015625], [-125.10661, 42.92873, -2433.892822265625], [-125.11222, 42.92846, -3193.69384765625], [-125.10835, 42.92039, -2794.5791015625]]], [[[-125.10728, 42.90784, -2477.726318359375], [-125.11197, 42.91106, -3274.8720703125], [-125.11403, 42.90227, -3111.779052734375], [-125.10728, 42.90784, -2477.726318359375]]], [[[-125.11197, 42.91106, -3274.8720703125], [-125.10728, 42.90784, -2477.726318359375], [-125.10544, 42.91517, -2409.345458984375], [-125.11197, 42.91106, -3274.8720703125]]], [[[-125.10835, 42.92039, -2794.5791015625], [-125.11197, 42.91106, -3274.8720703125], [-125.10544, 42.91517, -2409.345458984375], [-125.10835, 42.92039, -2794.5791015625]]], [[[-125.1148, 42.92004, -3668.527587890625], [-125.10835, 42.92039, -2794.5791015625], [-125.11222, 42.92846, -3193.69384765625], [-125.1148, 42.92004, -3668.527587890625]]], [[[-125.1148, 42.92004, -3668.527587890625], [-125.11222, 42.92846, -3193.69384765625], [-125.11784, 42.92819, -3953.49462890625], [-125.1148, 42.92004, -3668.527587890625]]], [[[-125.1148, 42.92004, -3668.527587890625], [-125.12307, 42.91884, -4799.21435546875], [-125.1179, 42.91365, -4095.310546875], [-125.1148, 42.92004, -3668.527587890625]]], [[[-125.11197, 42.91106, -3274.8720703125], [-125.1148, 42.92004, -3668.527587890625], [-125.1179, 42.91365, -4095.310546875], [-125.11197, 42.91106, -3274.8720703125]]], [[[-125.11968, 42.90476, -4040.19775390625], [-125.11197, 42.91106, -3274.8720703125], [-125.1179, 42.91365, -4095.310546875], [-125.11968, 42.90476, -4040.19775390625]]], [[[-125.11403, 42.90227, -3111.779052734375], [-125.11197, 42.91106, -3274.8720703125], [-125.11968, 42.90476, -4040.19775390625], [-125.11403, 42.90227, -3111.779052734375]]], [[[-125.1229, 42.89811, -3517.2890625], [-125.11403, 42.90227, -3111.779052734375], [-125.11968, 42.90476, -4040.19775390625], [-125.1229, 42.89811, -3517.2890625]]], [[[-125.1229, 42.89811, -3517.2890625], [-125.11968, 42.90476, -4040.19775390625], [-125.12893, 42.89694, -4146.75244140625], [-125.1229, 42.89811, -3517.2890625]]], [[[-125.12893, 42.89694, -4146.75244140625], [-125.11968, 42.90476, -4040.19775390625], [-125.12763, 42.90127, -4876.72900390625], [-125.12893, 42.89694, -4146.75244140625]]], [[[-125.12893, 42.89694, -4146.75244140625], [-125.12763, 42.90127, -4876.72900390625], [-125.13575, 42.89511, -4844.609375], [-125.12893, 42.89694, -4146.75244140625]]], [[[-125.13352, 42.89088, -4215.6201171875], [-125.12893, 42.89694, -4146.75244140625], [-125.13575, 42.89511, -4844.609375], [-125.13352, 42.89088, -4215.6201171875]]], [[[-125.13352, 42.89088, -4215.6201171875], [-125.13575, 42.89511, -4844.609375], [-125.13987, 42.88734, -4860.93212890625], [-125.13352, 42.89088, -4215.6201171875]]], [[[-125.11968, 42.90476, -4040.19775390625], [-125.12389, 42.90978, -4855.07470703125], [-125.12763, 42.90127, -4876.72900390625], [-125.11968, 42.90476, -4040.19775390625]]], [[[-125.12389, 42.90978, -4855.07470703125], [-125.1179, 42.91365, -4095.310546875], [-125.12307, 42.91884, -4799.21435546875], [-125.12389, 42.90978, -4855.07470703125]]], [[[-125.13664, 42.86992, -5005.025390625], [-125.13723, 42.87836, -4476.15576171875], [-125.14062, 42.8785, -4911.0859375], [-125.13664, 42.86992, -5005.025390625]]], [[[-125.13723, 42.87836, -4476.15576171875], [-125.13664, 42.86992, -5005.025390625], [-125.13268, 42.8716, -4393.8408203125], [-125.13723, 42.87836, -4476.15576171875]]], [[[-125.11958, 42.85095, -3519.745361328125], [-125.11791, 42.84211, -3531.66748046875], [-125.11279, 42.84807, -2692.678466796875], [-125.11958, 42.85095, -3519.745361328125]]], [[[-125.11507, 42.85691, -2679.798583984375], [-125.11958, 42.85095, -3519.745361328125], [-125.11279, 42.84807, -2692.678466796875], [-125.11507, 42.85691, -2679.798583984375]]], [[[-125.11791, 42.84211, -3531.66748046875], [-125.11633, 42.83333, -3537.870361328125], [-125.11088, 42.83911, -2664.12451171875], [-125.11791, 42.84211, -3531.66748046875]]], [[[-125.11121, 42.7984, -4179.279296875], [-125.10998, 42.80708, -3567.406494140625], [-125.11624, 42.80343, -4568.67578125], [-125.11121, 42.7984, -4179.279296875]]], [[[-125.09442, 42.79074, -2469.138671875], [-125.089, 42.791, -1734.0770263671875], [-125.09397, 42.80095, -1706.9132080078125], [-125.09442, 42.79074, -2469.138671875]]], [[[-125.11784, 42.92819, -3953.49462890625], [-125.12345, 42.92792, -4713.29541015625], [-125.12307, 42.91884, -4799.21435546875], [-125.11784, 42.92819, -3953.49462890625]]], [[[-125.10661, 42.92873, -2433.892822265625], [-125.10835, 42.92039, -2794.5791015625], [-125.10003, 42.92027, -1675.56982421875], [-125.10661, 42.92873, -2433.892822265625]]]]}}]}