{"type": "FeatureCollection", "features": [{"type": "Feature", "properties": {"name": "AW_SORE_9", "CFM_ID": 394, "region": "Offshore_OR", "primary_state/province": "OR", "secondary_state/province": null, "avg_dip": null, "dip_dir": "E", "rake": 90, "slip_sense": "Reverse", "fault_level": 2, "NSHM23_sliprates": null, "QFFDAgeCatBin": null, "QFFDAgeBin": null, "upper_depth": null, "upper_depth_constraint": "bathymetry", "lower_depth": null, "lower_depth_constraint": "megathrust", "3D_model_constraints": "trace extended at constant dip", "reference": "Goldfinger et al. (2023)", "nshm23_id": null, "lineage": null, "usgs_qffd_#": null, "comments": null, "id": "394"}, "geometry": {"type": "MultiPolygon", "coordinates": [[[[-125.14, 42.83821, -2084.731689453125], [-125.13713, 42.84314, -2384.951904296875], [-125.141, 42.847, -1921.4320068359375], [-125.14, 42.83821, -2084.731689453125]]], [[[-125.13181, 42.84039, -3192.436279296875], [-125.13713, 42.84314, -2384.951904296875], [-125.14, 42.83821, -2084.731689453125], [-125.13181, 42.84039, -3192.436279296875]]], [[[-125.13181, 42.84039, -3192.436279296875], [-125.13511, 42.8479, -2728.556640625], [-125.13713, 42.84314, -2384.951904296875], [-125.13181, 42.84039, -3192.436279296875]]], [[[-125.13181, 42.84039, -3192.436279296875], [-125.12923, 42.84879, -3535.32666015625], [-125.13511, 42.8479, -2728.556640625], [-125.13181, 42.84039, -3192.436279296875]]], [[[-125.12559, 42.84152, -4044.374755859375], [-125.12923, 42.84879, -3535.32666015625], [-125.13181, 42.84039, -3192.436279296875], [-125.12559, 42.84152, -4044.374755859375]]], [[[-125.12701, 42.80777, -2906.122802734375], [-125.1297, 42.81606, -2950.430419921875], [-125.13439, 42.81116, -2117.9169921875], [-125.12701, 42.80777, -2906.122802734375]]], [[[-125.12559, 42.84152, -4044.374755859375], [-125.12388, 42.84961, -4267.40478515625], [-125.12923, 42.84879, -3535.32666015625], [-125.12559, 42.84152, -4044.374755859375]]], [[[-125.12012, 42.84354, -4772.279296875], [-125.12388, 42.84961, -4267.40478515625], [-125.12559, 42.84152, -4044.374755859375], [-125.12012, 42.84354, -4772.279296875]]], [[[-125.12012, 42.84354, -4772.279296875], [-125.11961, 42.85026, -4853.5673828125], [-125.12388, 42.84961, -4267.40478515625], [-125.12012, 42.84354, -4772.279296875]]], [[[-125.12012, 42.84354, -4772.279296875], [-125.11616, 42.83939, -5353.57958984375], [-125.11572, 42.84596, -5340.87158203125], [-125.12012, 42.84354, -4772.279296875]]], [[[-125.12012, 42.84354, -4772.279296875], [-125.12131, 42.83541, -4630.173828125], [-125.11616, 42.83939, -5353.57958984375], [-125.12012, 42.84354, -4772.279296875]]], [[[-125.12012, 42.84354, -4772.279296875], [-125.12559, 42.84152, -4044.374755859375], [-125.12131, 42.83541, -4630.173828125], [-125.12012, 42.84354, -4772.279296875]]], [[[-125.12559, 42.84152, -4044.374755859375], [-125.12736, 42.83154, -3785.18896484375], [-125.12131, 42.83541, -4630.173828125], [-125.12559, 42.84152, -4044.374755859375]]], [[[-125.12559, 42.84152, -4044.374755859375], [-125.13181, 42.84039, -3192.436279296875], [-125.12736, 42.83154, -3785.18896484375], [-125.12559, 42.84152, -4044.374755859375]]], [[[-125.13181, 42.84039, -3192.436279296875], [-125.13413, 42.83372, -2883.376708984375], [-125.12736, 42.83154, -3785.18896484375], [-125.13181, 42.84039, -3192.436279296875]]], [[[-125.13413, 42.83372, -2883.376708984375], [-125.13181, 42.84039, -3192.436279296875], [-125.14, 42.83821, -2084.731689453125], [-125.13413, 42.83372, -2883.376708984375]]], [[[-125.13413, 42.83372, -2883.376708984375], [-125.14, 42.83821, -2084.731689453125], [-125.13912, 42.82912, -2176.571533203125], [-125.13413, 42.83372, -2883.376708984375]]], [[[-125.09429, 42.77334, -4999.2822265625], [-125.08736, 42.77051, -5752.90283203125], [-125.08975, 42.77699, -5736.849609375], [-125.09429, 42.77334, -4999.2822265625]]], [[[-125.13217, 42.82503, -2979.827392578125], [-125.13413, 42.83372, -2883.376708984375], [-125.13912, 42.82912, -2176.571533203125], [-125.13217, 42.82503, -2979.827392578125]]], [[[-125.11665, 42.81618, -4649.97607421875], [-125.12104, 42.80914, -3745.951416015625], [-125.11303, 42.80674, -4660.25732421875], [-125.11665, 42.81618, -4649.97607421875]]], [[[-125.12736, 42.83154, -3785.18896484375], [-125.13413, 42.83372, -2883.376708984375], [-125.13217, 42.82503, -2979.827392578125], [-125.12736, 42.83154, -3785.18896484375]]], [[[-125.12463, 42.82013, -3794.973876953125], [-125.12736, 42.83154, -3785.18896484375], [-125.13217, 42.82503, -2979.827392578125], [-125.12463, 42.82013, -3794.973876953125]]], [[[-125.12736, 42.83154, -3785.18896484375], [-125.12463, 42.82013, -3794.973876953125], [-125.12008, 42.82567, -4590.30126953125], [-125.12736, 42.83154, -3785.18896484375]]], [[[-125.12736, 42.83154, -3785.18896484375], [-125.12008, 42.82567, -4590.30126953125], [-125.12131, 42.83541, -4630.173828125], [-125.12736, 42.83154, -3785.18896484375]]], [[[-125.10326, 42.79008, -4790.4453125], [-125.09582, 42.78952, -5670.8046875], [-125.10124, 42.79691, -5607.587890625], [-125.10326, 42.79008, -4790.4453125]]], [[[-125.12131, 42.83541, -4630.173828125], [-125.12008, 42.82567, -4590.30126953125], [-125.11549, 42.83121, -5383.90380859375], [-125.12131, 42.83541, -4630.173828125]]], [[[-125.11549, 42.83121, -5383.90380859375], [-125.11616, 42.83939, -5353.57958984375], [-125.12131, 42.83541, -4630.173828125], [-125.11549, 42.83121, -5383.90380859375]]], [[[-125.12008, 42.82567, -4590.30126953125], [-125.11276, 42.82248, -5442.0751953125], [-125.11549, 42.83121, -5383.90380859375], [-125.12008, 42.82567, -4590.30126953125]]], [[[-125.12008, 42.82567, -4590.30126953125], [-125.11665, 42.81618, -4649.97607421875], [-125.11276, 42.82248, -5442.0751953125], [-125.12008, 42.82567, -4590.30126953125]]], [[[-125.11665, 42.81618, -4649.97607421875], [-125.10936, 42.81385, -5490.91015625], [-125.11276, 42.82248, -5442.0751953125], [-125.11665, 42.81618, -4649.97607421875]]], [[[-125.12463, 42.82013, -3794.973876953125], [-125.11665, 42.81618, -4649.97607421875], [-125.12008, 42.82567, -4590.30126953125], [-125.12463, 42.82013, -3794.973876953125]]], [[[-125.12463, 42.82013, -3794.973876953125], [-125.12104, 42.80914, -3745.951416015625], [-125.11665, 42.81618, -4649.97607421875], [-125.12463, 42.82013, -3794.973876953125]]], [[[-125.12104, 42.80914, -3745.951416015625], [-125.12463, 42.82013, -3794.973876953125], [-125.1297, 42.81606, -2950.430419921875], [-125.12104, 42.80914, -3745.951416015625]]], [[[-125.12104, 42.80914, -3745.951416015625], [-125.1297, 42.81606, -2950.430419921875], [-125.12701, 42.80777, -2906.122802734375], [-125.12104, 42.80914, -3745.951416015625]]], [[[-125.12104, 42.80914, -3745.951416015625], [-125.12701, 42.80777, -2906.122802734375], [-125.12348, 42.79972, -2926.4921875], [-125.12104, 42.80914, -3745.951416015625]]], [[[-125.12104, 42.80914, -3745.951416015625], [-125.12348, 42.79972, -2926.4921875], [-125.11619, 42.79815, -3763.962158203125], [-125.12104, 42.80914, -3745.951416015625]]], [[[-125.11619, 42.79815, -3763.962158203125], [-125.11303, 42.80674, -4660.25732421875], [-125.12104, 42.80914, -3745.951416015625], [-125.11619, 42.79815, -3763.962158203125]]], [[[-125.11619, 42.79815, -3763.962158203125], [-125.10884, 42.79786, -4685.7373046875], [-125.11303, 42.80674, -4660.25732421875], [-125.11619, 42.79815, -3763.962158203125]]], [[[-125.11139, 42.78947, -3729.548583984375], [-125.10884, 42.79786, -4685.7373046875], [-125.11619, 42.79815, -3763.962158203125], [-125.11139, 42.78947, -3729.548583984375]]], [[[-125.1297, 42.81606, -2950.430419921875], [-125.13724, 42.82007, -2142.85205078125], [-125.13439, 42.81116, -2117.9169921875], [-125.1297, 42.81606, -2950.430419921875]]], [[[-125.11139, 42.78947, -3729.548583984375], [-125.10326, 42.79008, -4790.4453125], [-125.10884, 42.79786, -4685.7373046875], [-125.11139, 42.78947, -3729.548583984375]]], [[[-125.12348, 42.79972, -2926.4921875], [-125.13112, 42.80232, -2101.7900390625], [-125.12727, 42.7936, -2082.438720703125], [-125.12348, 42.79972, -2926.4921875]]], [[[-125.11139, 42.78947, -3729.548583984375], [-125.10588, 42.78378, -4019.80615234375], [-125.10326, 42.79008, -4790.4453125], [-125.11139, 42.78947, -3729.548583984375]]], [[[-125.11139, 42.78947, -3729.548583984375], [-125.11425, 42.78272, -2885.39306640625], [-125.10588, 42.78378, -4019.80615234375], [-125.11139, 42.78947, -3729.548583984375]]], [[[-125.11139, 42.78947, -3729.548583984375], [-125.11931, 42.79097, -2868.5009765625], [-125.11425, 42.78272, -2885.39306640625], [-125.11139, 42.78947, -3729.548583984375]]], [[[-125.09696, 42.73269, -3289.26513671875], [-125.10602, 42.73215, -2045.8675537109375], [-125.0996, 42.72398, -2972.54638671875], [-125.09696, 42.73269, -3289.26513671875]]], [[[-125.11139, 42.78947, -3729.548583984375], [-125.11619, 42.79815, -3763.962158203125], [-125.11931, 42.79097, -2868.5009765625], [-125.11139, 42.78947, -3729.548583984375]]], [[[-125.11931, 42.79097, -2868.5009765625], [-125.11619, 42.79815, -3763.962158203125], [-125.12348, 42.79972, -2926.4921875], [-125.11931, 42.79097, -2868.5009765625]]], [[[-125.11931, 42.79097, -2868.5009765625], [-125.12348, 42.79972, -2926.4921875], [-125.12727, 42.7936, -2082.438720703125], [-125.11931, 42.79097, -2868.5009765625]]], [[[-125.11931, 42.79097, -2868.5009765625], [-125.12727, 42.7936, -2082.438720703125], [-125.12216, 42.78526, -2041.6845703125], [-125.11931, 42.79097, -2868.5009765625]]], [[[-125.11931, 42.79097, -2868.5009765625], [-125.12216, 42.78526, -2041.6845703125], [-125.11425, 42.78272, -2885.39306640625], [-125.11931, 42.79097, -2868.5009765625]]], [[[-125.11425, 42.78272, -2885.39306640625], [-125.12216, 42.78526, -2041.6845703125], [-125.11825, 42.77657, -1988.769775390625], [-125.11425, 42.78272, -2885.39306640625]]], [[[-125.1101, 42.77509, -2988.899658203125], [-125.11425, 42.78272, -2885.39306640625], [-125.11825, 42.77657, -1988.769775390625], [-125.1101, 42.77509, -2988.899658203125]]], [[[-125.10588, 42.78378, -4019.80615234375], [-125.11425, 42.78272, -2885.39306640625], [-125.1101, 42.77509, -2988.899658203125], [-125.10588, 42.78378, -4019.80615234375]]], [[[-125.10247, 42.77673, -4055.06787109375], [-125.10588, 42.78378, -4019.80615234375], [-125.1101, 42.77509, -2988.899658203125], [-125.10247, 42.77673, -4055.06787109375]]], [[[-125.08438, 42.73348, -5020.32958984375], [-125.0804, 42.72691, -5601.63037109375], [-125.07936, 42.73583, -5699.79638671875], [-125.08438, 42.73348, -5020.32958984375]]], [[[-125.09842, 42.78352, -4955.27978515625], [-125.10588, 42.78378, -4019.80615234375], [-125.10247, 42.77673, -4055.06787109375], [-125.09842, 42.78352, -4955.27978515625]]], [[[-125.09842, 42.78352, -4955.27978515625], [-125.10326, 42.79008, -4790.4453125], [-125.10588, 42.78378, -4019.80615234375], [-125.09842, 42.78352, -4955.27978515625]]], [[[-125.09842, 42.78352, -4955.27978515625], [-125.09582, 42.78952, -5670.8046875], [-125.10326, 42.79008, -4790.4453125], [-125.09842, 42.78352, -4955.27978515625]]], [[[-125.1297, 42.81606, -2950.430419921875], [-125.12463, 42.82013, -3794.973876953125], [-125.13217, 42.82503, -2979.827392578125], [-125.1297, 42.81606, -2950.430419921875]]], [[[-125.09842, 42.78352, -4955.27978515625], [-125.09236, 42.78323, -5710.04931640625], [-125.09582, 42.78952, -5670.8046875], [-125.09842, 42.78352, -4955.27978515625]]], [[[-125.09473, 42.77902, -5160.7021484375], [-125.09236, 42.78323, -5710.04931640625], [-125.09842, 42.78352, -4955.27978515625], [-125.09473, 42.77902, -5160.7021484375]]], [[[-125.09473, 42.77902, -5160.7021484375], [-125.08975, 42.77699, -5736.849609375], [-125.09236, 42.78323, -5710.04931640625], [-125.09473, 42.77902, -5160.7021484375]]], [[[-125.09473, 42.77902, -5160.7021484375], [-125.09429, 42.77334, -4999.2822265625], [-125.08975, 42.77699, -5736.849609375], [-125.09473, 42.77902, -5160.7021484375]]], [[[-125.10936, 42.81385, -5490.91015625], [-125.11665, 42.81618, -4649.97607421875], [-125.11303, 42.80674, -4660.25732421875], [-125.10936, 42.81385, -5490.91015625]]], [[[-125.09473, 42.77902, -5160.7021484375], [-125.10247, 42.77673, -4055.06787109375], [-125.09429, 42.77334, -4999.2822265625], [-125.09473, 42.77902, -5160.7021484375]]], [[[-125.09473, 42.77902, -5160.7021484375], [-125.09842, 42.78352, -4955.27978515625], [-125.10247, 42.77673, -4055.06787109375], [-125.09473, 42.77902, -5160.7021484375]]], [[[-125.09829, 42.76827, -4228.21923828125], [-125.09429, 42.77334, -4999.2822265625], [-125.10247, 42.77673, -4055.06787109375], [-125.09829, 42.76827, -4228.21923828125]]], [[[-125.09829, 42.76827, -4228.21923828125], [-125.09163, 42.76538, -4917.97509765625], [-125.09429, 42.77334, -4999.2822265625], [-125.09829, 42.76827, -4228.21923828125]]], [[[-125.09829, 42.76827, -4228.21923828125], [-125.09836, 42.76081, -3808.148193359375], [-125.09163, 42.76538, -4917.97509765625], [-125.09829, 42.76827, -4228.21923828125]]], [[[-125.09829, 42.76827, -4228.21923828125], [-125.1043, 42.77012, -3559.541259765625], [-125.09836, 42.76081, -3808.148193359375], [-125.09829, 42.76827, -4228.21923828125]]], [[[-125.09829, 42.76827, -4228.21923828125], [-125.10247, 42.77673, -4055.06787109375], [-125.1043, 42.77012, -3559.541259765625], [-125.09829, 42.76827, -4228.21923828125]]], [[[-125.10247, 42.77673, -4055.06787109375], [-125.1101, 42.77509, -2988.899658203125], [-125.1043, 42.77012, -3559.541259765625], [-125.10247, 42.77673, -4055.06787109375]]], [[[-125.1043, 42.77012, -3559.541259765625], [-125.1101, 42.77509, -2988.899658203125], [-125.10677, 42.76444, -2927.599853515625], [-125.1043, 42.77012, -3559.541259765625]]], [[[-125.1043, 42.77012, -3559.541259765625], [-125.10677, 42.76444, -2927.599853515625], [-125.09836, 42.76081, -3808.148193359375], [-125.1043, 42.77012, -3559.541259765625]]], [[[-125.09836, 42.76081, -3808.148193359375], [-125.10677, 42.76444, -2927.599853515625], [-125.10408, 42.75551, -2903.376708984375], [-125.09836, 42.76081, -3808.148193359375]]], [[[-125.09836, 42.76081, -3808.148193359375], [-125.10408, 42.75551, -2903.376708984375], [-125.09621, 42.7516, -3830.54296875], [-125.09836, 42.76081, -3808.148193359375]]], [[[-125.09836, 42.76081, -3808.148193359375], [-125.09621, 42.7516, -3830.54296875], [-125.08987, 42.75721, -4837.4091796875], [-125.09836, 42.76081, -3808.148193359375]]], [[[-125.1297, 42.81606, -2950.430419921875], [-125.13217, 42.82503, -2979.827392578125], [-125.13724, 42.82007, -2142.85205078125], [-125.1297, 42.81606, -2950.430419921875]]], [[[-125.09836, 42.76081, -3808.148193359375], [-125.08987, 42.75721, -4837.4091796875], [-125.09163, 42.76538, -4917.97509765625], [-125.09836, 42.76081, -3808.148193359375]]], [[[-125.08987, 42.75721, -4837.4091796875], [-125.08385, 42.76253, -5782.05419921875], [-125.09163, 42.76538, -4917.97509765625], [-125.08987, 42.75721, -4837.4091796875]]], [[[-125.10551, 42.80533, -5550.56689453125], [-125.10936, 42.81385, -5490.91015625], [-125.11303, 42.80674, -4660.25732421875], [-125.10551, 42.80533, -5550.56689453125]]], [[[-125.08987, 42.75721, -4837.4091796875], [-125.08191, 42.75365, -5776.12109375], [-125.08385, 42.76253, -5782.05419921875], [-125.08987, 42.75721, -4837.4091796875]]], [[[-125.08755, 42.74881, -4855.99267578125], [-125.08191, 42.75365, -5776.12109375], [-125.08987, 42.75721, -4837.4091796875], [-125.08755, 42.74881, -4855.99267578125]]], [[[-125.13217, 42.82503, -2979.827392578125], [-125.13912, 42.82912, -2176.571533203125], [-125.13724, 42.82007, -2142.85205078125], [-125.13217, 42.82503, -2979.827392578125]]], [[[-125.08755, 42.74881, -4855.99267578125], [-125.07971, 42.74481, -5756.9208984375], [-125.08191, 42.75365, -5776.12109375], [-125.08755, 42.74881, -4855.99267578125]]], [[[-125.08755, 42.74881, -4855.99267578125], [-125.08565, 42.7408, -4906.501953125], [-125.07971, 42.74481, -5756.9208984375], [-125.08755, 42.74881, -4855.99267578125]]], [[[-125.09325, 42.74241, -3895.22705078125], [-125.08565, 42.7408, -4906.501953125], [-125.08755, 42.74881, -4855.99267578125], [-125.09325, 42.74241, -3895.22705078125]]], [[[-125.09325, 42.74241, -3895.22705078125], [-125.09038, 42.73372, -4191.791015625], [-125.08565, 42.7408, -4906.501953125], [-125.09325, 42.74241, -3895.22705078125]]], [[[-125.09696, 42.73269, -3289.26513671875], [-125.09038, 42.73372, -4191.791015625], [-125.09325, 42.74241, -3895.22705078125], [-125.09696, 42.73269, -3289.26513671875]]], [[[-125.09696, 42.73269, -3289.26513671875], [-125.0932, 42.72496, -3848.90771484375], [-125.09038, 42.73372, -4191.791015625], [-125.09696, 42.73269, -3289.26513671875]]], [[[-125.09696, 42.73269, -3289.26513671875], [-125.0996, 42.72398, -2972.54638671875], [-125.0932, 42.72496, -3848.90771484375], [-125.09696, 42.73269, -3289.26513671875]]], [[[-125.09696, 42.73269, -3289.26513671875], [-125.10062, 42.73812, -2847.53173828125], [-125.10602, 42.73215, -2045.8675537109375], [-125.09696, 42.73269, -3289.26513671875]]], [[[-125.09325, 42.74241, -3895.22705078125], [-125.10062, 42.73812, -2847.53173828125], [-125.09696, 42.73269, -3289.26513671875], [-125.09325, 42.74241, -3895.22705078125]]], [[[-125.09325, 42.74241, -3895.22705078125], [-125.1016, 42.7463, -2924.222412109375], [-125.10062, 42.73812, -2847.53173828125], [-125.09325, 42.74241, -3895.22705078125]]], [[[-125.09621, 42.7516, -3830.54296875], [-125.1016, 42.7463, -2924.222412109375], [-125.09325, 42.74241, -3895.22705078125], [-125.09621, 42.7516, -3830.54296875]]], [[[-125.09621, 42.7516, -3830.54296875], [-125.10408, 42.75551, -2903.376708984375], [-125.1016, 42.7463, -2924.222412109375], [-125.09621, 42.7516, -3830.54296875]]], [[[-125.10602, 42.73215, -2045.8675537109375], [-125.106, 42.723, -2096.18505859375], [-125.0996, 42.72398, -2972.54638671875], [-125.10602, 42.73215, -2045.8675537109375]]], [[[-125.1016, 42.7463, -2924.222412109375], [-125.10408, 42.75551, -2903.376708984375], [-125.10907, 42.7503, -2097.693115234375], [-125.1016, 42.7463, -2924.222412109375]]], [[[-125.1016, 42.7463, -2924.222412109375], [-125.10907, 42.7503, -2097.693115234375], [-125.10706, 42.74128, -2019.65771484375], [-125.1016, 42.7463, -2924.222412109375]]], [[[-125.10062, 42.73812, -2847.53173828125], [-125.1016, 42.7463, -2924.222412109375], [-125.10706, 42.74128, -2019.65771484375], [-125.10062, 42.73812, -2847.53173828125]]], [[[-125.12701, 42.80777, -2906.122802734375], [-125.13439, 42.81116, -2117.9169921875], [-125.13112, 42.80232, -2101.7900390625], [-125.12701, 42.80777, -2906.122802734375]]], [[[-125.10062, 42.73812, -2847.53173828125], [-125.10706, 42.74128, -2019.65771484375], [-125.10602, 42.73215, -2045.8675537109375], [-125.10062, 42.73812, -2847.53173828125]]], [[[-125.10408, 42.75551, -2903.376708984375], [-125.11111, 42.75934, -2085.1044921875], [-125.10907, 42.7503, -2097.693115234375], [-125.10408, 42.75551, -2903.376708984375]]], [[[-125.10408, 42.75551, -2903.376708984375], [-125.10677, 42.76444, -2927.599853515625], [-125.11111, 42.75934, -2085.1044921875], [-125.10408, 42.75551, -2903.376708984375]]], [[[-125.10677, 42.76444, -2927.599853515625], [-125.11408, 42.76817, -2198.6298828125], [-125.11111, 42.75934, -2085.1044921875], [-125.10677, 42.76444, -2927.599853515625]]], [[[-125.10677, 42.76444, -2927.599853515625], [-125.1101, 42.77509, -2988.899658203125], [-125.11408, 42.76817, -2198.6298828125], [-125.10677, 42.76444, -2927.599853515625]]], [[[-125.1101, 42.77509, -2988.899658203125], [-125.11825, 42.77657, -1988.769775390625], [-125.11408, 42.76817, -2198.6298828125], [-125.1101, 42.77509, -2988.899658203125]]], [[[-125.09621, 42.7516, -3830.54296875], [-125.09325, 42.74241, -3895.22705078125], [-125.08755, 42.74881, -4855.99267578125], [-125.09621, 42.7516, -3830.54296875]]], [[[-125.09621, 42.7516, -3830.54296875], [-125.08755, 42.74881, -4855.99267578125], [-125.08987, 42.75721, -4837.4091796875], [-125.09621, 42.7516, -3830.54296875]]], [[[-125.09038, 42.73372, -4191.791015625], [-125.0932, 42.72496, -3848.90771484375], [-125.0868, 42.72593, -4725.26904296875], [-125.09038, 42.73372, -4191.791015625]]], [[[-125.09038, 42.73372, -4191.791015625], [-125.0868, 42.72593, -4725.26904296875], [-125.08438, 42.73348, -5020.32958984375], [-125.09038, 42.73372, -4191.791015625]]], [[[-125.09038, 42.73372, -4191.791015625], [-125.08438, 42.73348, -5020.32958984375], [-125.08565, 42.7408, -4906.501953125], [-125.09038, 42.73372, -4191.791015625]]], [[[-125.08565, 42.7408, -4906.501953125], [-125.08438, 42.73348, -5020.32958984375], [-125.07936, 42.73583, -5699.79638671875], [-125.08565, 42.7408, -4906.501953125]]], [[[-125.08565, 42.7408, -4906.501953125], [-125.07936, 42.73583, -5699.79638671875], [-125.07971, 42.74481, -5756.9208984375], [-125.08565, 42.7408, -4906.501953125]]], [[[-125.0804, 42.72691, -5601.63037109375], [-125.08438, 42.73348, -5020.32958984375], [-125.0868, 42.72593, -4725.26904296875], [-125.0804, 42.72691, -5601.63037109375]]], [[[-125.08385, 42.76253, -5782.05419921875], [-125.08736, 42.77051, -5752.90283203125], [-125.09163, 42.76538, -4917.97509765625], [-125.08385, 42.76253, -5782.05419921875]]], [[[-125.08736, 42.77051, -5752.90283203125], [-125.09429, 42.77334, -4999.2822265625], [-125.09163, 42.76538, -4917.97509765625], [-125.08736, 42.77051, -5752.90283203125]]], [[[-125.10326, 42.79008, -4790.4453125], [-125.10124, 42.79691, -5607.587890625], [-125.10884, 42.79786, -4685.7373046875], [-125.10326, 42.79008, -4790.4453125]]], [[[-125.10884, 42.79786, -4685.7373046875], [-125.10124, 42.79691, -5607.587890625], [-125.10551, 42.80533, -5550.56689453125], [-125.10884, 42.79786, -4685.7373046875]]], [[[-125.10884, 42.79786, -4685.7373046875], [-125.10551, 42.80533, -5550.56689453125], [-125.11303, 42.80674, -4660.25732421875], [-125.10884, 42.79786, -4685.7373046875]]], [[[-125.12701, 42.80777, -2906.122802734375], [-125.13112, 42.80232, -2101.7900390625], [-125.12348, 42.79972, -2926.4921875], [-125.12701, 42.80777, -2906.122802734375]]], [[[-125.13713, 42.84314, -2384.951904296875], [-125.13511, 42.8479, -2728.556640625], [-125.141, 42.847, -1921.4320068359375], [-125.13713, 42.84314, -2384.951904296875]]], [[[-125.11961, 42.85026, -4853.5673828125], [-125.12012, 42.84354, -4772.279296875], [-125.11572, 42.84596, -5340.87158203125], [-125.11961, 42.85026, -4853.5673828125]]], [[[-125.11626, 42.85077, -5312.82373046875], [-125.11961, 42.85026, -4853.5673828125], [-125.11572, 42.84596, -5340.87158203125], [-125.11626, 42.85077, -5312.82373046875]]]]}}]}