{"type": "FeatureCollection", "features": [{"type": "Feature", "properties": {"name": "AW_NORE_28", "CFM_ID": 396, "region": "Offshore_WAOR", "primary_state/province": "OR", "secondary_state/province": null, "avg_dip": 59, "dip_dir": "E", "rake": 90, "slip_sense": "Reverse", "fault_level": 2, "NSHM23_sliprates": null, "QFFDAgeCatBin": null, "QFFDAgeBin": null, "upper_depth": -1.4, "upper_depth_constraint": "bathymetry", "lower_depth": -8.0, "lower_depth_constraint": "megathrust", "3D_model_constraints": "trace extended at constant dip", "reference": "Goldfinger et al. (2023)", "nshm23_id": null, "lineage": null, "usgs_qffd_#": null, "comments": null, "id": "396"}, "geometry": {"type": "MultiPolygon", "coordinates": [[[[-125.02009, 45.11619, -4570.5458984375], [-125.02254, 45.1081, -4092.57421875], [-125.01582, 45.10793, -4969.80908203125], [-125.02009, 45.11619, -4570.5458984375]]], [[[-125.02008, 45.20745, -5452.62744140625], [-125.01437, 45.20293, -6189.4072265625], [-125.01389, 45.21104, -6268.23095703125], [-125.02008, 45.20745, -5452.62744140625]]], [[[-125.02413, 45.14664, -4389.99560546875], [-125.02538, 45.15576, -4356.6435546875], [-125.03061, 45.15106, -3605.8740234375], [-125.02413, 45.14664, -4389.99560546875]]], [[[-125.02008, 45.20745, -5452.62744140625], [-125.02054, 45.19846, -5390.33349609375], [-125.01437, 45.20293, -6189.4072265625], [-125.02008, 45.20745, -5452.62744140625]]], [[[-125.00787, 45.22375, -7082.4091796875], [-125.00217, 45.21891, -7809.587890625], [-125.00212, 45.22798, -7853.0693359375], [-125.00787, 45.22375, -7082.4091796875]]], [[[-125.03756, 45.16419, -2879.883056640625], [-125.04332, 45.16837, -2132.051025390625], [-125.04282, 45.15975, -2128.595947265625], [-125.03756, 45.16419, -2879.883056640625]]], [[[-125.03042, 45.23855, -4028.694091796875], [-125.03291, 45.24622, -3600.72021484375], [-125.03777, 45.2373, -3084.16259765625], [-125.03042, 45.23855, -4028.694091796875]]], [[[-125.03869, 45.24612, -2846.384765625], [-125.04181, 45.25413, -2369.751953125], [-125.04367, 45.24813, -2179.394775390625], [-125.03869, 45.24612, -2846.384765625]]], [[[-125.006, 45.14171, -6769.10595703125], [-125.00017, 45.13821, -7517.16259765625], [-125.00016, 45.14627, -7536.724609375], [-125.006, 45.14171, -6769.10595703125]]], [[[-125.0255, 45.21277, -4752.10791015625], [-125.02678, 45.22161, -4603.50830078125], [-125.03314, 45.21376, -3754.018310546875], [-125.0255, 45.21277, -4752.10791015625]]], [[[-125.03648, 45.10485, -2230.52587890625], [-125.03, 45.10895, -3124.87646484375], [-125.03774, 45.11447, -2227.04443359375], [-125.03648, 45.10485, -2230.52587890625]]], [[[-125.00717, 45.23323, -7131.7880859375], [-125.00212, 45.22798, -7853.0693359375], [-125.00092, 45.23701, -7907.65966796875], [-125.00717, 45.23323, -7131.7880859375]]], [[[-125.03782, 45.17323, -2858.9609375], [-125.03867, 45.18261, -2874.447509765625], [-125.04384, 45.17778, -2133.57958984375], [-125.03782, 45.17323, -2858.9609375]]], [[[-125.00534, 45.13341, -6764.076171875], [-125.00017, 45.13821, -7517.16259765625], [-125.006, 45.14171, -6769.10595703125], [-125.00534, 45.13341, -6764.076171875]]], [[[-125.03869, 45.24612, -2846.384765625], [-125.03562, 45.25427, -3176.55078125], [-125.04181, 45.25413, -2369.751953125], [-125.03869, 45.24612, -2846.384765625]]], [[[-125.03954, 45.22674, -2963.755126953125], [-125.03777, 45.2373, -3084.16259765625], [-125.04459, 45.23133, -2260.123291015625], [-125.03954, 45.22674, -2963.755126953125]]], [[[-125.00534, 45.13341, -6764.076171875], [-124.99912, 45.12916, -7509.78955078125], [-125.00017, 45.13821, -7517.16259765625], [-125.00534, 45.13341, -6764.076171875]]], [[[-125.02245, 45.1256, -4416.6796875], [-125.0285, 45.12466, -3614.619384765625], [-125.02643, 45.11637, -3748.114990234375], [-125.02245, 45.1256, -4416.6796875]]], [[[-125.02643, 45.11637, -3748.114990234375], [-125.03324, 45.11929, -2929.6142578125], [-125.03, 45.10895, -3124.87646484375], [-125.02643, 45.11637, -3748.114990234375]]], [[[-125.03291, 45.24622, -3600.72021484375], [-125.03562, 45.25427, -3176.55078125], [-125.03869, 45.24612, -2846.384765625], [-125.03291, 45.24622, -3600.72021484375]]], [[[-125.04483, 45.18676, -2129.505126953125], [-125.04999, 45.18194, -1385.6553955078125], [-125.04384, 45.17778, -2133.57958984375], [-125.04483, 45.18676, -2129.505126953125]]], [[[-125.02377, 45.13673, -4410.99365234375], [-125.03003, 45.14179, -3612.7265625], [-125.02905, 45.1328, -3658.515380859375], [-125.02377, 45.13673, -4410.99365234375]]], [[[-125.03984, 45.12386, -2123.44873046875], [-125.04599, 45.12789, -1367.68115234375], [-125.04498, 45.1189, -1390.111572265625], [-125.03984, 45.12386, -2123.44873046875]]], [[[-125.03648, 45.10485, -2230.52587890625], [-125.042, 45.101, -1464.12158203125], [-125.03819, 45.09657, -1905.8602294921875], [-125.03648, 45.10485, -2230.52587890625]]], [[[-125.03665, 45.15555, -2876.73486328125], [-125.04184, 45.15071, -2129.366455078125], [-125.03574, 45.14621, -2862.73046875], [-125.03665, 45.15555, -2876.73486328125]]], [[[-125.02538, 45.15576, -4356.6435546875], [-125.02413, 45.14664, -4389.99560546875], [-125.01937, 45.15427, -5126.4013671875], [-125.02538, 45.15576, -4356.6435546875]]], [[[-125.04531, 45.21342, -2162.29150390625], [-125.051, 45.21801, -1423.4234619140625], [-125.051, 45.20898, -1412.0394287109375], [-125.04531, 45.21342, -2162.29150390625]]], [[[-125.03648, 45.10485, -2230.52587890625], [-125.043, 45.10999, -1434.0093994140625], [-125.042, 45.101, -1464.12158203125], [-125.03648, 45.10485, -2230.52587890625]]], [[[-125.00441, 45.12437, -6760.34326171875], [-124.99827, 45.1201, -7508.45556640625], [-124.99912, 45.12916, -7509.78955078125], [-125.00441, 45.12437, -6760.34326171875]]], [[[-125.02377, 45.13673, -4410.99365234375], [-125.02413, 45.14664, -4389.99560546875], [-125.03003, 45.14179, -3612.7265625], [-125.02377, 45.13673, -4410.99365234375]]], [[[-125.01337, 45.15757, -5945.7392578125], [-125.00707, 45.15475, -6745.39404296875], [-125.00738, 45.16032, -6767.501953125], [-125.01337, 45.15757, -5945.7392578125]]], [[[-125.02904, 45.20834, -4282.86279296875], [-125.0255, 45.21277, -4752.10791015625], [-125.03314, 45.21376, -3754.018310546875], [-125.02904, 45.20834, -4282.86279296875]]], [[[-125.00646, 45.14872, -6736.943359375], [-125.00064, 45.1522, -7549.9560546875], [-125.00707, 45.15475, -6745.39404296875], [-125.00646, 45.14872, -6736.943359375]]], [[[-125.03291, 45.24622, -3600.72021484375], [-125.02943, 45.2544, -3983.349609375], [-125.03562, 45.25427, -3176.55078125], [-125.03291, 45.24622, -3600.72021484375]]], [[[-125.01848, 45.10028, -4531.3212890625], [-125.02519, 45.10035, -3654.235107421875], [-125.02114, 45.09243, -4082.4326171875], [-125.01848, 45.10028, -4531.3212890625]]], [[[-125.00441, 45.12437, -6760.34326171875], [-125.00939, 45.11903, -6032.97314453125], [-125.00321, 45.11488, -6740.01318359375], [-125.00441, 45.12437, -6760.34326171875]]], [[[-125.03984, 45.12386, -2123.44873046875], [-125.04081, 45.13261, -2119.531982421875], [-125.04599, 45.12789, -1367.68115234375], [-125.03984, 45.12386, -2123.44873046875]]], [[[-125.04385, 45.24008, -2251.12158203125], [-125.04459, 45.23133, -2260.123291015625], [-125.03777, 45.2373, -3084.16259765625], [-125.04385, 45.24008, -2251.12158203125]]], [[[-125.04367, 45.24813, -2179.394775390625], [-125.04181, 45.25413, -2369.751953125], [-125.048, 45.254, -1562.9530029296875], [-125.04367, 45.24813, -2179.394775390625]]], [[[-125.00183, 45.10654, -6786.55126953125], [-125.00872, 45.10882, -5909.75341796875], [-125.00464, 45.10047, -6344.919921875], [-125.00183, 45.10654, -6786.55126953125]]], [[[-125.01848, 45.10028, -4531.3212890625], [-125.02114, 45.09243, -4082.4326171875], [-125.01452, 45.09257, -4949.91455078125], [-125.01848, 45.10028, -4531.3212890625]]], [[[-125.03954, 45.22674, -2963.755126953125], [-125.04529, 45.22221, -2189.42822265625], [-125.03958, 45.21763, -2916.036376953125], [-125.03954, 45.22674, -2963.755126953125]]], [[[-125.01767, 45.23837, -5697.93310546875], [-125.01425, 45.24683, -6030.48876953125], [-125.02044, 45.2467, -5223.68994140625], [-125.01767, 45.23837, -5697.93310546875]]], [[[-125.01716, 45.13221, -5201.48974609375], [-125.01052, 45.12862, -6012.35595703125], [-125.01157, 45.13716, -6010.9599609375], [-125.01716, 45.13221, -5201.48974609375]]], [[[-125.03774, 45.11447, -2227.04443359375], [-125.04498, 45.1189, -1390.111572265625], [-125.043, 45.10999, -1434.0093994140625], [-125.03774, 45.11447, -2227.04443359375]]], [[[-125.02663, 45.24657, -4416.89111328125], [-125.02943, 45.2544, -3983.349609375], [-125.03291, 45.24622, -3600.72021484375], [-125.02663, 45.24657, -4416.89111328125]]], [[[-125.02413, 45.14664, -4389.99560546875], [-125.01797, 45.14059, -5197.1728515625], [-125.01826, 45.14767, -5174.3349609375], [-125.02413, 45.14664, -4389.99560546875]]], [[[-125.01181, 45.10046, -5407.13427734375], [-125.01582, 45.10793, -4969.80908203125], [-125.01848, 45.10028, -4531.3212890625], [-125.01181, 45.10046, -5407.13427734375]]], [[[-125.03314, 45.21376, -3754.018310546875], [-125.02678, 45.22161, -4603.50830078125], [-125.03341, 45.22238, -3741.06884765625], [-125.03314, 45.21376, -3754.018310546875]]], [[[-125.02008, 45.20745, -5452.62744140625], [-125.01389, 45.21104, -6268.23095703125], [-125.01978, 45.21605, -5503.955078125], [-125.02008, 45.20745, -5452.62744140625]]], [[[-125.0255, 45.21277, -4752.10791015625], [-125.02637, 45.20223, -4617.8037109375], [-125.02008, 45.20745, -5452.62744140625], [-125.0255, 45.21277, -4752.10791015625]]], [[[-125.01933, 45.22379, -5586.44873046875], [-125.01978, 45.21605, -5503.955078125], [-125.01357, 45.21959, -6319.48193359375], [-125.01933, 45.22379, -5586.44873046875]]], [[[-125.02663, 45.24657, -4416.89111328125], [-125.02324, 45.25453, -4790.1484375], [-125.02943, 45.2544, -3983.349609375], [-125.02663, 45.24657, -4416.89111328125]]], [[[-125.04529, 45.22221, -2189.42822265625], [-125.051, 45.22702, -1468.6644287109375], [-125.051, 45.21801, -1423.4234619140625], [-125.04529, 45.22221, -2189.42822265625]]], [[[-125.02904, 45.20834, -4282.86279296875], [-125.03375, 45.20414, -3656.99755859375], [-125.02637, 45.20223, -4617.8037109375], [-125.02904, 45.20834, -4282.86279296875]]], [[[-125.00441, 45.12437, -6760.34326171875], [-124.99912, 45.12916, -7509.78955078125], [-125.00534, 45.13341, -6764.076171875], [-125.00441, 45.12437, -6760.34326171875]]], [[[-125.03399, 45.23078, -3652.0283203125], [-125.03777, 45.2373, -3084.16259765625], [-125.03954, 45.22674, -2963.755126953125], [-125.03399, 45.23078, -3652.0283203125]]], [[[-125.03665, 45.15555, -2876.73486328125], [-125.04282, 45.15975, -2128.595947265625], [-125.04184, 45.15071, -2129.366455078125], [-125.03665, 45.15555, -2876.73486328125]]], [[[-125.0255, 45.21277, -4752.10791015625], [-125.02008, 45.20745, -5452.62744140625], [-125.01978, 45.21605, -5503.955078125], [-125.0255, 45.21277, -4752.10791015625]]], [[[-125.02009, 45.11619, -4570.5458984375], [-125.01571, 45.12332, -5270.75146484375], [-125.02245, 45.1256, -4416.6796875], [-125.02009, 45.11619, -4570.5458984375]]], [[[-125.01178, 45.23874, -6464.16357421875], [-125.01767, 45.23837, -5697.93310546875], [-125.01371, 45.22948, -6318.1181640625], [-125.01178, 45.23874, -6464.16357421875]]], [[[-125.04532, 45.19539, -2133.261474609375], [-125.051, 45.19996, -1391.98876953125], [-125.05099, 45.19093, -1383.57421875], [-125.04532, 45.19539, -2133.261474609375]]], [[[-125.03324, 45.11929, -2929.6142578125], [-125.03984, 45.12386, -2123.44873046875], [-125.03774, 45.11447, -2227.04443359375], [-125.03324, 45.11929, -2929.6142578125]]], [[[-125.02557, 45.18656, -4641.400390625], [-125.0201, 45.19039, -5411.21630859375], [-125.02728, 45.19326, -4500.3623046875], [-125.02557, 45.18656, -4641.400390625]]], [[[-125.02637, 45.20223, -4617.8037109375], [-125.03375, 45.20414, -3656.99755859375], [-125.03331, 45.19601, -3710.90234375], [-125.02637, 45.20223, -4617.8037109375]]], [[[-125.03438, 45.09214, -2347.46826171875], [-125.03819, 45.09657, -1905.8602294921875], [-125.041, 45.092, -1479.9859619140625], [-125.03438, 45.09214, -2347.46826171875]]], [[[-125.02044, 45.2467, -5223.68994140625], [-125.02324, 45.25453, -4790.1484375], [-125.02663, 45.24657, -4416.89111328125], [-125.02044, 45.2467, -5223.68994140625]]], [[[-125.02643, 45.11637, -3748.114990234375], [-125.0285, 45.12466, -3614.619384765625], [-125.03324, 45.11929, -2929.6142578125], [-125.02643, 45.11637, -3748.114990234375]]], [[[-125.01403, 45.11491, -5329.423828125], [-125.00872, 45.10882, -5909.75341796875], [-125.00939, 45.11903, -6032.97314453125], [-125.01403, 45.11491, -5329.423828125]]], [[[-125.04385, 45.24008, -2251.12158203125], [-125.049, 45.24501, -1510.7484130859375], [-125.05, 45.23602, -1501.7615966796875], [-125.04385, 45.24008, -2251.12158203125]]], [[[-125.03003, 45.14179, -3612.7265625], [-125.03574, 45.14621, -2862.73046875], [-125.03558, 45.13711, -2874.807373046875], [-125.03003, 45.14179, -3612.7265625]]], [[[-125.02637, 45.20223, -4617.8037109375], [-125.03331, 45.19601, -3710.90234375], [-125.02728, 45.19326, -4500.3623046875], [-125.02637, 45.20223, -4617.8037109375]]], [[[-125.02044, 45.2467, -5223.68994140625], [-125.01704, 45.25467, -5596.94775390625], [-125.02324, 45.25453, -4790.1484375], [-125.02044, 45.2467, -5223.68994140625]]], [[[-125.02596, 45.16433, -4396.3779296875], [-125.03203, 45.16893, -3616.181640625], [-125.03145, 45.16015, -3620.7978515625], [-125.02596, 45.16433, -4396.3779296875]]], [[[-125.01973, 45.16755, -5229.6826171875], [-125.01362, 45.16365, -5998.2607421875], [-125.01362, 45.17043, -6035.12060546875], [-125.01973, 45.16755, -5229.6826171875]]], [[[-125.03958, 45.21763, -2916.036376953125], [-125.04529, 45.22221, -2189.42822265625], [-125.04531, 45.21342, -2162.29150390625], [-125.03958, 45.21763, -2916.036376953125]]], [[[-125.02678, 45.22161, -4603.50830078125], [-125.02099, 45.23035, -5356.90234375], [-125.02783, 45.2302, -4463.81787109375], [-125.02678, 45.22161, -4603.50830078125]]], [[[-125.04483, 45.18676, -2129.505126953125], [-125.0394, 45.1912, -2900.98388671875], [-125.04532, 45.19539, -2133.261474609375], [-125.04483, 45.18676, -2129.505126953125]]], [[[-125.02575, 45.17193, -4443.77099609375], [-125.02576, 45.17939, -4526.7275390625], [-125.03229, 45.1778, -3647.720458984375], [-125.02575, 45.17193, -4443.77099609375]]], [[[-125.03955, 45.20879, -2909.5400390625], [-125.04531, 45.20434, -2146.435546875], [-125.03968, 45.19977, -2878.219970703125], [-125.03955, 45.20879, -2909.5400390625]]], [[[-125.02044, 45.2467, -5223.68994140625], [-125.01425, 45.24683, -6030.48876953125], [-125.01704, 45.25467, -5596.94775390625], [-125.02044, 45.2467, -5223.68994140625]]], [[[-125.02904, 45.20834, -4282.86279296875], [-125.03314, 45.21376, -3754.018310546875], [-125.03375, 45.20414, -3656.99755859375], [-125.02904, 45.20834, -4282.86279296875]]], [[[-125.04531, 45.21342, -2162.29150390625], [-125.04529, 45.22221, -2189.42822265625], [-125.051, 45.21801, -1423.4234619140625], [-125.04531, 45.21342, -2162.29150390625]]], [[[-125.01933, 45.22379, -5586.44873046875], [-125.02678, 45.22161, -4603.50830078125], [-125.01978, 45.21605, -5503.955078125], [-125.01933, 45.22379, -5586.44873046875]]], [[[-125.00183, 45.10654, -6786.55126953125], [-125.00464, 45.10047, -6344.919921875], [-124.99574, 45.10204, -7529.2578125], [-125.00183, 45.10654, -6786.55126953125]]], [[[-125.0055, 45.24153, -7247.52783203125], [-125.00092, 45.23701, -7907.65966796875], [-124.99955, 45.24602, -7964.23193359375], [-125.0055, 45.24153, -7247.52783203125]]], [[[-125.04459, 45.23133, -2260.123291015625], [-125.04385, 45.24008, -2251.12158203125], [-125.05, 45.23602, -1501.7615966796875], [-125.04459, 45.23133, -2260.123291015625]]], [[[-125.03955, 45.20879, -2909.5400390625], [-125.04531, 45.21342, -2162.29150390625], [-125.04531, 45.20434, -2146.435546875], [-125.03955, 45.20879, -2909.5400390625]]], [[[-125.02377, 45.13673, -4410.99365234375], [-125.02905, 45.1328, -3658.515380859375], [-125.02245, 45.1256, -4416.6796875], [-125.02377, 45.13673, -4410.99365234375]]], [[[-125.04385, 45.24008, -2251.12158203125], [-125.04367, 45.24813, -2179.394775390625], [-125.049, 45.24501, -1510.7484130859375], [-125.04385, 45.24008, -2251.12158203125]]], [[[-125.01767, 45.23837, -5697.93310546875], [-125.01178, 45.23874, -6464.16357421875], [-125.01425, 45.24683, -6030.48876953125], [-125.01767, 45.23837, -5697.93310546875]]], [[[-125.03968, 45.19977, -2878.219970703125], [-125.04532, 45.19539, -2133.261474609375], [-125.0394, 45.1912, -2900.98388671875], [-125.03968, 45.19977, -2878.219970703125]]], [[[-125.02254, 45.1081, -4092.57421875], [-125.02519, 45.10035, -3654.235107421875], [-125.01848, 45.10028, -4531.3212890625], [-125.02254, 45.1081, -4092.57421875]]], [[[-125.0255, 45.21277, -4752.10791015625], [-125.01978, 45.21605, -5503.955078125], [-125.02678, 45.22161, -4603.50830078125], [-125.0255, 45.21277, -4752.10791015625]]], [[[-125.02557, 45.18656, -4641.400390625], [-125.02576, 45.17939, -4526.7275390625], [-125.01963, 45.18238, -5371.5791015625], [-125.02557, 45.18656, -4641.400390625]]], [[[-125.04459, 45.23133, -2260.123291015625], [-125.05, 45.23602, -1501.7615966796875], [-125.051, 45.22702, -1468.6644287109375], [-125.04459, 45.23133, -2260.123291015625]]], [[[-125.01371, 45.22948, -6318.1181640625], [-125.00717, 45.23323, -7131.7880859375], [-125.01178, 45.23874, -6464.16357421875], [-125.01371, 45.22948, -6318.1181640625]]], [[[-125.02783, 45.2302, -4463.81787109375], [-125.02099, 45.23035, -5356.90234375], [-125.02395, 45.2385, -4874.9072265625], [-125.02783, 45.2302, -4463.81787109375]]], [[[-125.01371, 45.22948, -6318.1181640625], [-125.00787, 45.22375, -7082.4091796875], [-125.00717, 45.23323, -7131.7880859375], [-125.01371, 45.22948, -6318.1181640625]]], [[[-125.03558, 45.13711, -2874.807373046875], [-125.03574, 45.14621, -2862.73046875], [-125.04133, 45.1414, -2128.097900390625], [-125.03558, 45.13711, -2874.807373046875]]], [[[-125.00787, 45.22375, -7082.4091796875], [-125.01371, 45.22948, -6318.1181640625], [-125.01357, 45.21959, -6319.48193359375], [-125.00787, 45.22375, -7082.4091796875]]], [[[-125.01371, 45.22948, -6318.1181640625], [-125.02099, 45.23035, -5356.90234375], [-125.01933, 45.22379, -5586.44873046875], [-125.01371, 45.22948, -6318.1181640625]]], [[[-125.01357, 45.21959, -6319.48193359375], [-125.00801, 45.21477, -7040.54345703125], [-125.00787, 45.22375, -7082.4091796875], [-125.01357, 45.21959, -6319.48193359375]]], [[[-125.01357, 45.21959, -6319.48193359375], [-125.01389, 45.21104, -6268.23095703125], [-125.00801, 45.21477, -7040.54345703125], [-125.01357, 45.21959, -6319.48193359375]]], [[[-125.01797, 45.14059, -5197.1728515625], [-125.01157, 45.13716, -6010.9599609375], [-125.01211, 45.14482, -5966.82275390625], [-125.01797, 45.14059, -5197.1728515625]]], [[[-125.03756, 45.16419, -2879.883056640625], [-125.03203, 45.16893, -3616.181640625], [-125.03782, 45.17323, -2858.9609375], [-125.03756, 45.16419, -2879.883056640625]]], [[[-125.01362, 45.16365, -5998.2607421875], [-125.00738, 45.16032, -6767.501953125], [-125.00772, 45.16669, -6806.5087890625], [-125.01362, 45.16365, -5998.2607421875]]], [[[-125.03954, 45.22674, -2963.755126953125], [-125.04459, 45.23133, -2260.123291015625], [-125.04529, 45.22221, -2189.42822265625], [-125.03954, 45.22674, -2963.755126953125]]], [[[-125.03958, 45.21763, -2916.036376953125], [-125.04531, 45.21342, -2162.29150390625], [-125.03955, 45.20879, -2909.5400390625], [-125.03958, 45.21763, -2916.036376953125]]], [[[-125.03463, 45.12858, -2861.749755859375], [-125.04081, 45.13261, -2119.531982421875], [-125.03984, 45.12386, -2123.44873046875], [-125.03463, 45.12858, -2861.749755859375]]], [[[-125.03341, 45.22238, -3741.06884765625], [-125.03399, 45.23078, -3652.0283203125], [-125.03954, 45.22674, -2963.755126953125], [-125.03341, 45.22238, -3741.06884765625]]], [[[-125.01978, 45.21605, -5503.955078125], [-125.01389, 45.21104, -6268.23095703125], [-125.01357, 45.21959, -6319.48193359375], [-125.01978, 45.21605, -5503.955078125]]], [[[-125.03003, 45.14179, -3612.7265625], [-125.02413, 45.14664, -4389.99560546875], [-125.03061, 45.15106, -3605.8740234375], [-125.03003, 45.14179, -3612.7265625]]], [[[-125.03756, 45.16419, -2879.883056640625], [-125.03782, 45.17323, -2858.9609375], [-125.04332, 45.16837, -2132.051025390625], [-125.03756, 45.16419, -2879.883056640625]]], [[[-125.03314, 45.21376, -3754.018310546875], [-125.03341, 45.22238, -3741.06884765625], [-125.03958, 45.21763, -2916.036376953125], [-125.03314, 45.21376, -3754.018310546875]]], [[[-125.03324, 45.11929, -2929.6142578125], [-125.03774, 45.11447, -2227.04443359375], [-125.03, 45.10895, -3124.87646484375], [-125.03324, 45.11929, -2929.6142578125]]], [[[-125.04384, 45.17778, -2133.57958984375], [-125.049, 45.17294, -1390.749755859375], [-125.04332, 45.16837, -2132.051025390625], [-125.04384, 45.17778, -2133.57958984375]]], [[[-125.03782, 45.17323, -2858.9609375], [-125.04384, 45.17778, -2133.57958984375], [-125.04332, 45.16837, -2132.051025390625], [-125.03782, 45.17323, -2858.9609375]]], [[[-125.04184, 45.15071, -2129.366455078125], [-125.04133, 45.1414, -2128.097900390625], [-125.03574, 45.14621, -2862.73046875], [-125.04184, 45.15071, -2129.366455078125]]], [[[-125.01571, 45.12332, -5270.75146484375], [-125.01403, 45.11491, -5329.423828125], [-125.00939, 45.11903, -6032.97314453125], [-125.01571, 45.12332, -5270.75146484375]]], [[[-125.02557, 45.18656, -4641.400390625], [-125.02728, 45.19326, -4500.3623046875], [-125.03256, 45.1867, -3730.5966796875], [-125.02557, 45.18656, -4641.400390625]]], [[[-125.02519, 45.10035, -3654.235107421875], [-125.03157, 45.09993, -2814.516357421875], [-125.02776, 45.09229, -3214.950439453125], [-125.02519, 45.10035, -3654.235107421875]]], [[[-125.00302, 45.19445, -7688.3974609375], [-125.00864, 45.19865, -6954.16162109375], [-125.00842, 45.19004, -6931.68701171875], [-125.00302, 45.19445, -7688.3974609375]]], [[[-125.02596, 45.16433, -4396.3779296875], [-125.02538, 45.15576, -4356.6435546875], [-125.01971, 45.16095, -5165.19482421875], [-125.02596, 45.16433, -4396.3779296875]]], [[[-125.03341, 45.22238, -3741.06884765625], [-125.03954, 45.22674, -2963.755126953125], [-125.03958, 45.21763, -2916.036376953125], [-125.03341, 45.22238, -3741.06884765625]]], [[[-125.00787, 45.22375, -7082.4091796875], [-125.00212, 45.22798, -7853.0693359375], [-125.00717, 45.23323, -7131.7880859375], [-125.00787, 45.22375, -7082.4091796875]]], [[[-125.02054, 45.19846, -5390.33349609375], [-125.02008, 45.20745, -5452.62744140625], [-125.02637, 45.20223, -4617.8037109375], [-125.02054, 45.19846, -5390.33349609375]]], [[[-125.02575, 45.17193, -4443.77099609375], [-125.03229, 45.1778, -3647.720458984375], [-125.03203, 45.16893, -3616.181640625], [-125.02575, 45.17193, -4443.77099609375]]], [[[-125.03145, 45.16015, -3620.7978515625], [-125.03203, 45.16893, -3616.181640625], [-125.03756, 45.16419, -2879.883056640625], [-125.03145, 45.16015, -3620.7978515625]]], [[[-125.03145, 45.16015, -3620.7978515625], [-125.03756, 45.16419, -2879.883056640625], [-125.03665, 45.15555, -2876.73486328125], [-125.03145, 45.16015, -3620.7978515625]]], [[[-125.02728, 45.19326, -4500.3623046875], [-125.02054, 45.19846, -5390.33349609375], [-125.02637, 45.20223, -4617.8037109375], [-125.02728, 45.19326, -4500.3623046875]]], [[[-125.00321, 45.11488, -6740.01318359375], [-124.99655, 45.11111, -7529.00537109375], [-124.99827, 45.1201, -7508.45556640625], [-125.00321, 45.11488, -6740.01318359375]]], [[[-125.02728, 45.19326, -4500.3623046875], [-125.0201, 45.19039, -5411.21630859375], [-125.02054, 45.19846, -5390.33349609375], [-125.02728, 45.19326, -4500.3623046875]]], [[[-125.03777, 45.2373, -3084.16259765625], [-125.03291, 45.24622, -3600.72021484375], [-125.03869, 45.24612, -2846.384765625], [-125.03777, 45.2373, -3084.16259765625]]], [[[-125.04367, 45.24813, -2179.394775390625], [-125.048, 45.254, -1562.9530029296875], [-125.049, 45.24501, -1510.7484130859375], [-125.04367, 45.24813, -2179.394775390625]]], [[[-125.02557, 45.18656, -4641.400390625], [-125.01963, 45.18238, -5371.5791015625], [-125.0201, 45.19039, -5411.21630859375], [-125.02557, 45.18656, -4641.400390625]]], [[[-125.02783, 45.2302, -4463.81787109375], [-125.03042, 45.23855, -4028.694091796875], [-125.03399, 45.23078, -3652.0283203125], [-125.02783, 45.2302, -4463.81787109375]]], [[[-125.03, 45.10895, -3124.87646484375], [-125.02519, 45.10035, -3654.235107421875], [-125.02254, 45.1081, -4092.57421875], [-125.03, 45.10895, -3124.87646484375]]], [[[-125.02395, 45.2385, -4874.9072265625], [-125.01767, 45.23837, -5697.93310546875], [-125.02044, 45.2467, -5223.68994140625], [-125.02395, 45.2385, -4874.9072265625]]], [[[-125.03756, 45.16419, -2879.883056640625], [-125.04282, 45.15975, -2128.595947265625], [-125.03665, 45.15555, -2876.73486328125], [-125.03756, 45.16419, -2879.883056640625]]], [[[-125.02783, 45.2302, -4463.81787109375], [-125.02395, 45.2385, -4874.9072265625], [-125.03042, 45.23855, -4028.694091796875], [-125.02783, 45.2302, -4463.81787109375]]], [[[-125.03, 45.10895, -3124.87646484375], [-125.03157, 45.09993, -2814.516357421875], [-125.02519, 45.10035, -3654.235107421875], [-125.03, 45.10895, -3124.87646484375]]], [[[-125.03061, 45.15106, -3605.8740234375], [-125.03145, 45.16015, -3620.7978515625], [-125.03665, 45.15555, -2876.73486328125], [-125.03061, 45.15106, -3605.8740234375]]], [[[-125.02904, 45.20834, -4282.86279296875], [-125.02637, 45.20223, -4617.8037109375], [-125.0255, 45.21277, -4752.10791015625], [-125.02904, 45.20834, -4282.86279296875]]], [[[-125.02557, 45.18656, -4641.400390625], [-125.03256, 45.1867, -3730.5966796875], [-125.02576, 45.17939, -4526.7275390625], [-125.02557, 45.18656, -4641.400390625]]], [[[-125.04483, 45.18676, -2129.505126953125], [-125.04532, 45.19539, -2133.261474609375], [-125.05099, 45.19093, -1383.57421875], [-125.04483, 45.18676, -2129.505126953125]]], [[[-125.03061, 45.15106, -3605.8740234375], [-125.03665, 45.15555, -2876.73486328125], [-125.03574, 45.14621, -2862.73046875], [-125.03061, 45.15106, -3605.8740234375]]], [[[-125.01425, 45.24683, -6030.48876953125], [-125.00788, 45.24722, -6858.17333984375], [-125.01085, 45.2548, -6403.74658203125], [-125.01425, 45.24683, -6030.48876953125]]], [[[-125.03042, 45.23855, -4028.694091796875], [-125.02395, 45.2385, -4874.9072265625], [-125.02663, 45.24657, -4416.89111328125], [-125.03042, 45.23855, -4028.694091796875]]], [[[-125.03331, 45.19601, -3710.90234375], [-125.03256, 45.1867, -3730.5966796875], [-125.02728, 45.19326, -4500.3623046875], [-125.03331, 45.19601, -3710.90234375]]], [[[-125.006, 45.14171, -6769.10595703125], [-125.00016, 45.14627, -7536.724609375], [-125.00646, 45.14872, -6736.943359375], [-125.006, 45.14171, -6769.10595703125]]], [[[-125.03463, 45.12858, -2861.749755859375], [-125.03984, 45.12386, -2123.44873046875], [-125.03324, 45.11929, -2929.6142578125], [-125.03463, 45.12858, -2861.749755859375]]], [[[-125.03256, 45.1867, -3730.5966796875], [-125.03331, 45.19601, -3710.90234375], [-125.0394, 45.1912, -2900.98388671875], [-125.03256, 45.1867, -3730.5966796875]]], [[[-125.03256, 45.1867, -3730.5966796875], [-125.0394, 45.1912, -2900.98388671875], [-125.03867, 45.18261, -2874.447509765625], [-125.03256, 45.1867, -3730.5966796875]]], [[[-125.03042, 45.23855, -4028.694091796875], [-125.02663, 45.24657, -4416.89111328125], [-125.03291, 45.24622, -3600.72021484375], [-125.03042, 45.23855, -4028.694091796875]]], [[[-125.02538, 45.15576, -4356.6435546875], [-125.01937, 45.15427, -5126.4013671875], [-125.01971, 45.16095, -5165.19482421875], [-125.02538, 45.15576, -4356.6435546875]]], [[[-125.03229, 45.1778, -3647.720458984375], [-125.03256, 45.1867, -3730.5966796875], [-125.03867, 45.18261, -2874.447509765625], [-125.03229, 45.1778, -3647.720458984375]]], [[[-125.03229, 45.1778, -3647.720458984375], [-125.03782, 45.17323, -2858.9609375], [-125.03203, 45.16893, -3616.181640625], [-125.03229, 45.1778, -3647.720458984375]]], [[[-125.02576, 45.17939, -4526.7275390625], [-125.03256, 45.1867, -3730.5966796875], [-125.03229, 45.1778, -3647.720458984375], [-125.02576, 45.17939, -4526.7275390625]]], [[[-125.02245, 45.1256, -4416.6796875], [-125.01571, 45.12332, -5270.75146484375], [-125.01716, 45.13221, -5201.48974609375], [-125.02245, 45.1256, -4416.6796875]]], [[[-125.02576, 45.17939, -4526.7275390625], [-125.02575, 45.17193, -4443.77099609375], [-125.0195, 45.17474, -5281.94775390625], [-125.02576, 45.17939, -4526.7275390625]]], [[[-125.0285, 45.12466, -3614.619384765625], [-125.03463, 45.12858, -2861.749755859375], [-125.03324, 45.11929, -2929.6142578125], [-125.0285, 45.12466, -3614.619384765625]]], [[[-125.00872, 45.10882, -5909.75341796875], [-125.00183, 45.10654, -6786.55126953125], [-125.00321, 45.11488, -6740.01318359375], [-125.00872, 45.10882, -5909.75341796875]]], [[[-125.02576, 45.17939, -4526.7275390625], [-125.0195, 45.17474, -5281.94775390625], [-125.01963, 45.18238, -5371.5791015625], [-125.02576, 45.17939, -4526.7275390625]]], [[[-125.02413, 45.14664, -4389.99560546875], [-125.02377, 45.13673, -4410.99365234375], [-125.01797, 45.14059, -5197.1728515625], [-125.02413, 45.14664, -4389.99560546875]]], [[[-125.01848, 45.10028, -4531.3212890625], [-125.01452, 45.09257, -4949.91455078125], [-125.01181, 45.10046, -5407.13427734375], [-125.01848, 45.10028, -4531.3212890625]]], [[[-125.0195, 45.17474, -5281.94775390625], [-125.01365, 45.17791, -6093.27783203125], [-125.01963, 45.18238, -5371.5791015625], [-125.0195, 45.17474, -5281.94775390625]]], [[[-125.00149, 45.16321, -7577.18994140625], [-125.00772, 45.16669, -6806.5087890625], [-125.00738, 45.16032, -6767.501953125], [-125.00149, 45.16321, -7577.18994140625]]], [[[-125.00466, 45.25493, -7210.54541015625], [-125.00788, 45.24722, -6858.17333984375], [-124.99955, 45.24602, -7964.23193359375], [-125.00466, 45.25493, -7210.54541015625]]], [[[-125.03819, 45.09657, -1905.8602294921875], [-125.042, 45.101, -1464.12158203125], [-125.041, 45.092, -1479.9859619140625], [-125.03819, 45.09657, -1905.8602294921875]]], [[[-125.04133, 45.1414, -2128.097900390625], [-125.04699, 45.13689, -1382.0791015625], [-125.04081, 45.13261, -2119.531982421875], [-125.04133, 45.1414, -2128.097900390625]]], [[[-125.0195, 45.17474, -5281.94775390625], [-125.01362, 45.17043, -6035.12060546875], [-125.01365, 45.17791, -6093.27783203125], [-125.0195, 45.17474, -5281.94775390625]]], [[[-125.03777, 45.2373, -3084.16259765625], [-125.03869, 45.24612, -2846.384765625], [-125.04385, 45.24008, -2251.12158203125], [-125.03777, 45.2373, -3084.16259765625]]], [[[-125.04483, 45.18676, -2129.505126953125], [-125.05099, 45.19093, -1383.57421875], [-125.04999, 45.18194, -1385.6553955078125], [-125.04483, 45.18676, -2129.505126953125]]], [[[-125.04367, 45.24813, -2179.394775390625], [-125.04385, 45.24008, -2251.12158203125], [-125.03869, 45.24612, -2846.384765625], [-125.04367, 45.24813, -2179.394775390625]]], [[[-125.03648, 45.10485, -2230.52587890625], [-125.03819, 45.09657, -1905.8602294921875], [-125.03157, 45.09993, -2814.516357421875], [-125.03648, 45.10485, -2230.52587890625]]], [[[-125.00824, 45.2062, -6998.091796875], [-125.00244, 45.20986, -7763.95263671875], [-125.00801, 45.21477, -7040.54345703125], [-125.00824, 45.2062, -6998.091796875]]], [[[-125.01389, 45.21104, -6268.23095703125], [-125.00824, 45.2062, -6998.091796875], [-125.00801, 45.21477, -7040.54345703125], [-125.01389, 45.21104, -6268.23095703125]]], [[[-125.03003, 45.14179, -3612.7265625], [-125.03061, 45.15106, -3605.8740234375], [-125.03574, 45.14621, -2862.73046875], [-125.03003, 45.14179, -3612.7265625]]], [[[-125.03774, 45.11447, -2227.04443359375], [-125.03984, 45.12386, -2123.44873046875], [-125.04498, 45.1189, -1390.111572265625], [-125.03774, 45.11447, -2227.04443359375]]], [[[-125.03648, 45.10485, -2230.52587890625], [-125.03774, 45.11447, -2227.04443359375], [-125.043, 45.10999, -1434.0093994140625], [-125.03648, 45.10485, -2230.52587890625]]], [[[-125.0195, 45.17474, -5281.94775390625], [-125.01973, 45.16755, -5229.6826171875], [-125.01362, 45.17043, -6035.12060546875], [-125.0195, 45.17474, -5281.94775390625]]], [[[-125.04282, 45.15975, -2128.595947265625], [-125.04332, 45.16837, -2132.051025390625], [-125.04899, 45.16391, -1382.49169921875], [-125.04282, 45.15975, -2128.595947265625]]], [[[-125.02678, 45.22161, -4603.50830078125], [-125.02783, 45.2302, -4463.81787109375], [-125.03341, 45.22238, -3741.06884765625], [-125.02678, 45.22161, -4603.50830078125]]], [[[-125.03438, 45.09214, -2347.46826171875], [-125.03157, 45.09993, -2814.516357421875], [-125.03819, 45.09657, -1905.8602294921875], [-125.03438, 45.09214, -2347.46826171875]]], [[[-125.01973, 45.16755, -5229.6826171875], [-125.0195, 45.17474, -5281.94775390625], [-125.02575, 45.17193, -4443.77099609375], [-125.01973, 45.16755, -5229.6826171875]]], [[[-125.04332, 45.16837, -2132.051025390625], [-125.049, 45.17294, -1390.749755859375], [-125.04899, 45.16391, -1382.49169921875], [-125.04332, 45.16837, -2132.051025390625]]], [[[-125.02643, 45.11637, -3748.114990234375], [-125.03, 45.10895, -3124.87646484375], [-125.02254, 45.1081, -4092.57421875], [-125.02643, 45.11637, -3748.114990234375]]], [[[-125.02596, 45.16433, -4396.3779296875], [-125.01973, 45.16755, -5229.6826171875], [-125.02575, 45.17193, -4443.77099609375], [-125.02596, 45.16433, -4396.3779296875]]], [[[-125.01973, 45.16755, -5229.6826171875], [-125.02596, 45.16433, -4396.3779296875], [-125.01971, 45.16095, -5165.19482421875], [-125.01973, 45.16755, -5229.6826171875]]], [[[-125.03157, 45.09993, -2814.516357421875], [-125.03438, 45.09214, -2347.46826171875], [-125.02776, 45.09229, -3214.950439453125], [-125.03157, 45.09993, -2814.516357421875]]], [[[-125.01973, 45.16755, -5229.6826171875], [-125.01971, 45.16095, -5165.19482421875], [-125.01362, 45.16365, -5998.2607421875], [-125.01973, 45.16755, -5229.6826171875]]], [[[-125.04081, 45.13261, -2119.531982421875], [-125.04699, 45.13689, -1382.0791015625], [-125.04599, 45.12789, -1367.68115234375], [-125.04081, 45.13261, -2119.531982421875]]], [[[-125.02395, 45.2385, -4874.9072265625], [-125.02044, 45.2467, -5223.68994140625], [-125.02663, 45.24657, -4416.89111328125], [-125.02395, 45.2385, -4874.9072265625]]], [[[-125.04184, 45.15071, -2129.366455078125], [-125.04799, 45.15491, -1385.084716796875], [-125.047, 45.14592, -1383.0821533203125], [-125.04184, 45.15071, -2129.366455078125]]], [[[-125.04531, 45.20434, -2146.435546875], [-125.051, 45.20898, -1412.0394287109375], [-125.051, 45.19996, -1391.98876953125], [-125.04531, 45.20434, -2146.435546875]]], [[[-125.01362, 45.16365, -5998.2607421875], [-125.00772, 45.16669, -6806.5087890625], [-125.01362, 45.17043, -6035.12060546875], [-125.01362, 45.16365, -5998.2607421875]]], [[[-125.01826, 45.14767, -5174.3349609375], [-125.01211, 45.14482, -5966.82275390625], [-125.0129, 45.15162, -5935.53369140625], [-125.01826, 45.14767, -5174.3349609375]]], [[[-125.01181, 45.10046, -5407.13427734375], [-125.0079, 45.09271, -5817.39697265625], [-125.00464, 45.10047, -6344.919921875], [-125.01181, 45.10046, -5407.13427734375]]], [[[-125.0394, 45.1912, -2900.98388671875], [-125.04483, 45.18676, -2129.505126953125], [-125.03867, 45.18261, -2874.447509765625], [-125.0394, 45.1912, -2900.98388671875]]], [[[-125.01362, 45.16365, -5998.2607421875], [-125.01337, 45.15757, -5945.7392578125], [-125.00738, 45.16032, -6767.501953125], [-125.01362, 45.16365, -5998.2607421875]]], [[[-125.03399, 45.23078, -3652.0283203125], [-125.03042, 45.23855, -4028.694091796875], [-125.03777, 45.2373, -3084.16259765625], [-125.03399, 45.23078, -3652.0283203125]]], [[[-125.00872, 45.10882, -5909.75341796875], [-125.01582, 45.10793, -4969.80908203125], [-125.01181, 45.10046, -5407.13427734375], [-125.00872, 45.10882, -5909.75341796875]]], [[[-125.01971, 45.16095, -5165.19482421875], [-125.01337, 45.15757, -5945.7392578125], [-125.01362, 45.16365, -5998.2607421875], [-125.01971, 45.16095, -5165.19482421875]]], [[[-125.01937, 45.15427, -5126.4013671875], [-125.01337, 45.15757, -5945.7392578125], [-125.01971, 45.16095, -5165.19482421875], [-125.01937, 45.15427, -5126.4013671875]]], [[[-125.01337, 45.15757, -5945.7392578125], [-125.01937, 45.15427, -5126.4013671875], [-125.0129, 45.15162, -5935.53369140625], [-125.01337, 45.15757, -5945.7392578125]]], [[[-125.01337, 45.15757, -5945.7392578125], [-125.0129, 45.15162, -5935.53369140625], [-125.00707, 45.15475, -6745.39404296875], [-125.01337, 45.15757, -5945.7392578125]]], [[[-125.02254, 45.1081, -4092.57421875], [-125.01848, 45.10028, -4531.3212890625], [-125.01582, 45.10793, -4969.80908203125], [-125.02254, 45.1081, -4092.57421875]]], [[[-125.03, 45.10895, -3124.87646484375], [-125.03648, 45.10485, -2230.52587890625], [-125.03157, 45.09993, -2814.516357421875], [-125.03, 45.10895, -3124.87646484375]]], [[[-125.00128, 45.09285, -6684.87890625], [-125.00464, 45.10047, -6344.919921875], [-125.0079, 45.09271, -5817.39697265625], [-125.00128, 45.09285, -6684.87890625]]], [[[-124.99574, 45.10204, -7529.2578125], [-124.99655, 45.11111, -7529.00537109375], [-125.00183, 45.10654, -6786.55126953125], [-124.99574, 45.10204, -7529.2578125]]], [[[-125.02099, 45.23035, -5356.90234375], [-125.01767, 45.23837, -5697.93310546875], [-125.02395, 45.2385, -4874.9072265625], [-125.02099, 45.23035, -5356.90234375]]], [[[-125.00707, 45.15475, -6745.39404296875], [-125.00098, 45.15738, -7562.95458984375], [-125.00738, 45.16032, -6767.501953125], [-125.00707, 45.15475, -6745.39404296875]]], [[[-125.00707, 45.15475, -6745.39404296875], [-125.00064, 45.1522, -7549.9560546875], [-125.00098, 45.15738, -7562.95458984375], [-125.00707, 45.15475, -6745.39404296875]]], [[[-125.01371, 45.22948, -6318.1181640625], [-125.01933, 45.22379, -5586.44873046875], [-125.01357, 45.21959, -6319.48193359375], [-125.01371, 45.22948, -6318.1181640625]]], [[[-125.00646, 45.14872, -6736.943359375], [-125.00016, 45.14627, -7536.724609375], [-125.00064, 45.1522, -7549.9560546875], [-125.00646, 45.14872, -6736.943359375]]], [[[-125.03558, 45.13711, -2874.807373046875], [-125.04081, 45.13261, -2119.531982421875], [-125.03463, 45.12858, -2861.749755859375], [-125.03558, 45.13711, -2874.807373046875]]], [[[-125.04529, 45.22221, -2189.42822265625], [-125.04459, 45.23133, -2260.123291015625], [-125.051, 45.22702, -1468.6644287109375], [-125.04529, 45.22221, -2189.42822265625]]], [[[-125.00441, 45.12437, -6760.34326171875], [-125.00321, 45.11488, -6740.01318359375], [-124.99827, 45.1201, -7508.45556640625], [-125.00441, 45.12437, -6760.34326171875]]], [[[-125.00788, 45.24722, -6858.17333984375], [-125.00466, 45.25493, -7210.54541015625], [-125.01085, 45.2548, -6403.74658203125], [-125.00788, 45.24722, -6858.17333984375]]], [[[-125.00872, 45.10882, -5909.75341796875], [-125.01181, 45.10046, -5407.13427734375], [-125.00464, 45.10047, -6344.919921875], [-125.00872, 45.10882, -5909.75341796875]]], [[[-125.01052, 45.12862, -6012.35595703125], [-125.00939, 45.11903, -6032.97314453125], [-125.00441, 45.12437, -6760.34326171875], [-125.01052, 45.12862, -6012.35595703125]]], [[[-125.02678, 45.22161, -4603.50830078125], [-125.01933, 45.22379, -5586.44873046875], [-125.02099, 45.23035, -5356.90234375], [-125.02678, 45.22161, -4603.50830078125]]], [[[-125.00321, 45.11488, -6740.01318359375], [-125.00183, 45.10654, -6786.55126953125], [-124.99655, 45.11111, -7529.00537109375], [-125.00321, 45.11488, -6740.01318359375]]], [[[-125.01571, 45.12332, -5270.75146484375], [-125.00939, 45.11903, -6032.97314453125], [-125.01052, 45.12862, -6012.35595703125], [-125.01571, 45.12332, -5270.75146484375]]], [[[-125.03399, 45.23078, -3652.0283203125], [-125.03341, 45.22238, -3741.06884765625], [-125.02783, 45.2302, -4463.81787109375], [-125.03399, 45.23078, -3652.0283203125]]], [[[-125.01403, 45.11491, -5329.423828125], [-125.01582, 45.10793, -4969.80908203125], [-125.00872, 45.10882, -5909.75341796875], [-125.01403, 45.11491, -5329.423828125]]], [[[-125.02009, 45.11619, -4570.5458984375], [-125.01403, 45.11491, -5329.423828125], [-125.01571, 45.12332, -5270.75146484375], [-125.02009, 45.11619, -4570.5458984375]]], [[[-125.04532, 45.19539, -2133.261474609375], [-125.04531, 45.20434, -2146.435546875], [-125.051, 45.19996, -1391.98876953125], [-125.04532, 45.19539, -2133.261474609375]]], [[[-125.04184, 45.15071, -2129.366455078125], [-125.04282, 45.15975, -2128.595947265625], [-125.04799, 45.15491, -1385.084716796875], [-125.04184, 45.15071, -2129.366455078125]]], [[[-125.02009, 45.11619, -4570.5458984375], [-125.01582, 45.10793, -4969.80908203125], [-125.01403, 45.11491, -5329.423828125], [-125.02009, 45.11619, -4570.5458984375]]], [[[-125.04531, 45.20434, -2146.435546875], [-125.04531, 45.21342, -2162.29150390625], [-125.051, 45.20898, -1412.0394287109375], [-125.04531, 45.20434, -2146.435546875]]], [[[-125.01052, 45.12862, -6012.35595703125], [-125.00441, 45.12437, -6760.34326171875], [-125.00534, 45.13341, -6764.076171875], [-125.01052, 45.12862, -6012.35595703125]]], [[[-125.03229, 45.1778, -3647.720458984375], [-125.03867, 45.18261, -2874.447509765625], [-125.03782, 45.17323, -2858.9609375], [-125.03229, 45.1778, -3647.720458984375]]], [[[-125.02009, 45.11619, -4570.5458984375], [-125.02643, 45.11637, -3748.114990234375], [-125.02254, 45.1081, -4092.57421875], [-125.02009, 45.11619, -4570.5458984375]]], [[[-125.02245, 45.1256, -4416.6796875], [-125.02643, 45.11637, -3748.114990234375], [-125.02009, 45.11619, -4570.5458984375], [-125.02245, 45.1256, -4416.6796875]]], [[[-125.02245, 45.1256, -4416.6796875], [-125.02905, 45.1328, -3658.515380859375], [-125.0285, 45.12466, -3614.619384765625], [-125.02245, 45.1256, -4416.6796875]]], [[[-125.04384, 45.17778, -2133.57958984375], [-125.04999, 45.18194, -1385.6553955078125], [-125.049, 45.17294, -1390.749755859375], [-125.04384, 45.17778, -2133.57958984375]]], [[[-125.02413, 45.14664, -4389.99560546875], [-125.01826, 45.14767, -5174.3349609375], [-125.01937, 45.15427, -5126.4013671875], [-125.02413, 45.14664, -4389.99560546875]]], [[[-125.01716, 45.13221, -5201.48974609375], [-125.01157, 45.13716, -6010.9599609375], [-125.01797, 45.14059, -5197.1728515625], [-125.01716, 45.13221, -5201.48974609375]]], [[[-125.03003, 45.14179, -3612.7265625], [-125.03558, 45.13711, -2874.807373046875], [-125.02905, 45.1328, -3658.515380859375], [-125.03003, 45.14179, -3612.7265625]]], [[[-125.02905, 45.1328, -3658.515380859375], [-125.03558, 45.13711, -2874.807373046875], [-125.03463, 45.12858, -2861.749755859375], [-125.02905, 45.1328, -3658.515380859375]]], [[[-125.0285, 45.12466, -3614.619384765625], [-125.02905, 45.1328, -3658.515380859375], [-125.03463, 45.12858, -2861.749755859375], [-125.0285, 45.12466, -3614.619384765625]]], [[[-125.03331, 45.19601, -3710.90234375], [-125.03375, 45.20414, -3656.99755859375], [-125.03968, 45.19977, -2878.219970703125], [-125.03331, 45.19601, -3710.90234375]]], [[[-125.0079, 45.09271, -5817.39697265625], [-125.01181, 45.10046, -5407.13427734375], [-125.01452, 45.09257, -4949.91455078125], [-125.0079, 45.09271, -5817.39697265625]]], [[[-125.02538, 45.15576, -4356.6435546875], [-125.02596, 45.16433, -4396.3779296875], [-125.03145, 45.16015, -3620.7978515625], [-125.02538, 45.15576, -4356.6435546875]]], [[[-125.02519, 45.10035, -3654.235107421875], [-125.02776, 45.09229, -3214.950439453125], [-125.02114, 45.09243, -4082.4326171875], [-125.02519, 45.10035, -3654.235107421875]]], [[[-125.02596, 45.16433, -4396.3779296875], [-125.02575, 45.17193, -4443.77099609375], [-125.03203, 45.16893, -3616.181640625], [-125.02596, 45.16433, -4396.3779296875]]], [[[-125.03061, 45.15106, -3605.8740234375], [-125.02538, 45.15576, -4356.6435546875], [-125.03145, 45.16015, -3620.7978515625], [-125.03061, 45.15106, -3605.8740234375]]], [[[-125.00872, 45.10882, -5909.75341796875], [-125.00321, 45.11488, -6740.01318359375], [-125.00939, 45.11903, -6032.97314453125], [-125.00872, 45.10882, -5909.75341796875]]], [[[-125.03867, 45.18261, -2874.447509765625], [-125.04483, 45.18676, -2129.505126953125], [-125.04384, 45.17778, -2133.57958984375], [-125.03867, 45.18261, -2874.447509765625]]], [[[-125.03558, 45.13711, -2874.807373046875], [-125.04133, 45.1414, -2128.097900390625], [-125.04081, 45.13261, -2119.531982421875], [-125.03558, 45.13711, -2874.807373046875]]], [[[-125.04133, 45.1414, -2128.097900390625], [-125.04184, 45.15071, -2129.366455078125], [-125.047, 45.14592, -1383.0821533203125], [-125.04133, 45.1414, -2128.097900390625]]], [[[-125.02099, 45.23035, -5356.90234375], [-125.01371, 45.22948, -6318.1181640625], [-125.01767, 45.23837, -5697.93310546875], [-125.02099, 45.23035, -5356.90234375]]], [[[-125.04133, 45.1414, -2128.097900390625], [-125.047, 45.14592, -1383.0821533203125], [-125.04699, 45.13689, -1382.0791015625], [-125.04133, 45.1414, -2128.097900390625]]], [[[-125.03968, 45.19977, -2878.219970703125], [-125.04531, 45.20434, -2146.435546875], [-125.04532, 45.19539, -2133.261474609375], [-125.03968, 45.19977, -2878.219970703125]]], [[[-125.03314, 45.21376, -3754.018310546875], [-125.03958, 45.21763, -2916.036376953125], [-125.03955, 45.20879, -2909.5400390625], [-125.03314, 45.21376, -3754.018310546875]]], [[[-125.03375, 45.20414, -3656.99755859375], [-125.03314, 45.21376, -3754.018310546875], [-125.03955, 45.20879, -2909.5400390625], [-125.03375, 45.20414, -3656.99755859375]]], [[[-125.03375, 45.20414, -3656.99755859375], [-125.03955, 45.20879, -2909.5400390625], [-125.03968, 45.19977, -2878.219970703125], [-125.03375, 45.20414, -3656.99755859375]]], [[[-125.03331, 45.19601, -3710.90234375], [-125.03968, 45.19977, -2878.219970703125], [-125.0394, 45.1912, -2900.98388671875], [-125.03331, 45.19601, -3710.90234375]]], [[[-125.04282, 45.15975, -2128.595947265625], [-125.04899, 45.16391, -1382.49169921875], [-125.04799, 45.15491, -1385.084716796875], [-125.04282, 45.15975, -2128.595947265625]]], [[[-125.01826, 45.14767, -5174.3349609375], [-125.0129, 45.15162, -5935.53369140625], [-125.01937, 45.15427, -5126.4013671875], [-125.01826, 45.14767, -5174.3349609375]]], [[[-125.01797, 45.14059, -5197.1728515625], [-125.01211, 45.14482, -5966.82275390625], [-125.01826, 45.14767, -5174.3349609375], [-125.01797, 45.14059, -5197.1728515625]]], [[[-125.01571, 45.12332, -5270.75146484375], [-125.01052, 45.12862, -6012.35595703125], [-125.01716, 45.13221, -5201.48974609375], [-125.01571, 45.12332, -5270.75146484375]]], [[[-125.02377, 45.13673, -4410.99365234375], [-125.02245, 45.1256, -4416.6796875], [-125.01716, 45.13221, -5201.48974609375], [-125.02377, 45.13673, -4410.99365234375]]], [[[-125.01716, 45.13221, -5201.48974609375], [-125.01797, 45.14059, -5197.1728515625], [-125.02377, 45.13673, -4410.99365234375], [-125.01716, 45.13221, -5201.48974609375]]], [[[-125.01157, 45.13716, -6010.9599609375], [-125.01052, 45.12862, -6012.35595703125], [-125.00534, 45.13341, -6764.076171875], [-125.01157, 45.13716, -6010.9599609375]]], [[[-125.01157, 45.13716, -6010.9599609375], [-125.00534, 45.13341, -6764.076171875], [-125.006, 45.14171, -6769.10595703125], [-125.01157, 45.13716, -6010.9599609375]]], [[[-125.01211, 45.14482, -5966.82275390625], [-125.01157, 45.13716, -6010.9599609375], [-125.006, 45.14171, -6769.10595703125], [-125.01211, 45.14482, -5966.82275390625]]], [[[-125.01211, 45.14482, -5966.82275390625], [-125.006, 45.14171, -6769.10595703125], [-125.00646, 45.14872, -6736.943359375], [-125.01211, 45.14482, -5966.82275390625]]], [[[-125.0129, 45.15162, -5935.53369140625], [-125.01211, 45.14482, -5966.82275390625], [-125.00646, 45.14872, -6736.943359375], [-125.0129, 45.15162, -5935.53369140625]]], [[[-125.0129, 45.15162, -5935.53369140625], [-125.00646, 45.14872, -6736.943359375], [-125.00707, 45.15475, -6745.39404296875], [-125.0129, 45.15162, -5935.53369140625]]], [[[-125.00098, 45.15738, -7562.95458984375], [-125.00149, 45.16321, -7577.18994140625], [-125.00738, 45.16032, -6767.501953125], [-125.00098, 45.15738, -7562.95458984375]]], [[[-125.00772, 45.16669, -6806.5087890625], [-125.00149, 45.16321, -7577.18994140625], [-125.0017, 45.16993, -7599.5859375], [-125.00772, 45.16669, -6806.5087890625]]], [[[-125.0076, 45.17368, -6828.26318359375], [-125.00772, 45.16669, -6806.5087890625], [-125.0017, 45.16993, -7599.5859375], [-125.0076, 45.17368, -6828.26318359375]]], [[[-125.0076, 45.17368, -6828.26318359375], [-125.01362, 45.17043, -6035.12060546875], [-125.00772, 45.16669, -6806.5087890625], [-125.0076, 45.17368, -6828.26318359375]]], [[[-125.0076, 45.17368, -6828.26318359375], [-125.01365, 45.17791, -6093.27783203125], [-125.01362, 45.17043, -6035.12060546875], [-125.0076, 45.17368, -6828.26318359375]]], [[[-125.01365, 45.17791, -6093.27783203125], [-125.0076, 45.17368, -6828.26318359375], [-125.00792, 45.18143, -6892.6201171875], [-125.01365, 45.17791, -6093.27783203125]]], [[[-125.01384, 45.18592, -6165.39453125], [-125.01365, 45.17791, -6093.27783203125], [-125.00792, 45.18143, -6892.6201171875], [-125.01384, 45.18592, -6165.39453125]]], [[[-125.01384, 45.18592, -6165.39453125], [-125.01963, 45.18238, -5371.5791015625], [-125.01365, 45.17791, -6093.27783203125], [-125.01384, 45.18592, -6165.39453125]]], [[[-125.01963, 45.18238, -5371.5791015625], [-125.01384, 45.18592, -6165.39453125], [-125.0201, 45.19039, -5411.21630859375], [-125.01963, 45.18238, -5371.5791015625]]], [[[-125.0201, 45.19039, -5411.21630859375], [-125.01384, 45.18592, -6165.39453125], [-125.01432, 45.19449, -6203.4345703125], [-125.0201, 45.19039, -5411.21630859375]]], [[[-125.01432, 45.19449, -6203.4345703125], [-125.02054, 45.19846, -5390.33349609375], [-125.0201, 45.19039, -5411.21630859375], [-125.01432, 45.19449, -6203.4345703125]]], [[[-125.02054, 45.19846, -5390.33349609375], [-125.01432, 45.19449, -6203.4345703125], [-125.01437, 45.20293, -6189.4072265625], [-125.02054, 45.19846, -5390.33349609375]]], [[[-125.01432, 45.19449, -6203.4345703125], [-125.00864, 45.19865, -6954.16162109375], [-125.01437, 45.20293, -6189.4072265625], [-125.01432, 45.19449, -6203.4345703125]]], [[[-125.01432, 45.19449, -6203.4345703125], [-125.00842, 45.19004, -6931.68701171875], [-125.00864, 45.19865, -6954.16162109375], [-125.01432, 45.19449, -6203.4345703125]]], [[[-125.01432, 45.19449, -6203.4345703125], [-125.01384, 45.18592, -6165.39453125], [-125.00842, 45.19004, -6931.68701171875], [-125.01432, 45.19449, -6203.4345703125]]], [[[-125.01384, 45.18592, -6165.39453125], [-125.00792, 45.18143, -6892.6201171875], [-125.00842, 45.19004, -6931.68701171875], [-125.01384, 45.18592, -6165.39453125]]], [[[-125.00792, 45.18143, -6892.6201171875], [-125.00239, 45.18559, -7656.03125], [-125.00842, 45.19004, -6931.68701171875], [-125.00792, 45.18143, -6892.6201171875]]], [[[-125.00792, 45.18143, -6892.6201171875], [-125.00186, 45.17708, -7626.8134765625], [-125.00239, 45.18559, -7656.03125], [-125.00792, 45.18143, -6892.6201171875]]], [[[-125.0076, 45.17368, -6828.26318359375], [-125.00186, 45.17708, -7626.8134765625], [-125.00792, 45.18143, -6892.6201171875], [-125.0076, 45.17368, -6828.26318359375]]], [[[-125.0076, 45.17368, -6828.26318359375], [-125.0017, 45.16993, -7599.5859375], [-125.00186, 45.17708, -7626.8134765625], [-125.0076, 45.17368, -6828.26318359375]]], [[[-125.00239, 45.18559, -7656.03125], [-125.00302, 45.19445, -7688.3974609375], [-125.00842, 45.19004, -6931.68701171875], [-125.00239, 45.18559, -7656.03125]]], [[[-125.00864, 45.19865, -6954.16162109375], [-125.00302, 45.19445, -7688.3974609375], [-125.00268, 45.20194, -7725.97998046875], [-125.00864, 45.19865, -6954.16162109375]]], [[[-125.00864, 45.19865, -6954.16162109375], [-125.00268, 45.20194, -7725.97998046875], [-125.00824, 45.2062, -6998.091796875], [-125.00864, 45.19865, -6954.16162109375]]], [[[-125.00864, 45.19865, -6954.16162109375], [-125.00824, 45.2062, -6998.091796875], [-125.01437, 45.20293, -6189.4072265625], [-125.00864, 45.19865, -6954.16162109375]]], [[[-125.00824, 45.2062, -6998.091796875], [-125.01389, 45.21104, -6268.23095703125], [-125.01437, 45.20293, -6189.4072265625], [-125.00824, 45.2062, -6998.091796875]]], [[[-125.00824, 45.2062, -6998.091796875], [-125.00268, 45.20194, -7725.97998046875], [-125.00244, 45.20986, -7763.95263671875], [-125.00824, 45.2062, -6998.091796875]]], [[[-125.00801, 45.21477, -7040.54345703125], [-125.00244, 45.20986, -7763.95263671875], [-125.00217, 45.21891, -7809.587890625], [-125.00801, 45.21477, -7040.54345703125]]], [[[-125.00801, 45.21477, -7040.54345703125], [-125.00217, 45.21891, -7809.587890625], [-125.00787, 45.22375, -7082.4091796875], [-125.00801, 45.21477, -7040.54345703125]]], [[[-125.00717, 45.23323, -7131.7880859375], [-125.00092, 45.23701, -7907.65966796875], [-125.0055, 45.24153, -7247.52783203125], [-125.00717, 45.23323, -7131.7880859375]]], [[[-125.0055, 45.24153, -7247.52783203125], [-125.01178, 45.23874, -6464.16357421875], [-125.00717, 45.23323, -7131.7880859375], [-125.0055, 45.24153, -7247.52783203125]]], [[[-125.01178, 45.23874, -6464.16357421875], [-125.0055, 45.24153, -7247.52783203125], [-125.00788, 45.24722, -6858.17333984375], [-125.01178, 45.23874, -6464.16357421875]]], [[[-125.01178, 45.23874, -6464.16357421875], [-125.00788, 45.24722, -6858.17333984375], [-125.01425, 45.24683, -6030.48876953125], [-125.01178, 45.23874, -6464.16357421875]]], [[[-125.01425, 45.24683, -6030.48876953125], [-125.01085, 45.2548, -6403.74658203125], [-125.01704, 45.25467, -5596.94775390625], [-125.01425, 45.24683, -6030.48876953125]]], [[[-125.0055, 45.24153, -7247.52783203125], [-124.99955, 45.24602, -7964.23193359375], [-125.00788, 45.24722, -6858.17333984375], [-125.0055, 45.24153, -7247.52783203125]]], [[[-124.99574, 45.10204, -7529.2578125], [-125.00464, 45.10047, -6344.919921875], [-125.00128, 45.09285, -6684.87890625], [-124.99574, 45.10204, -7529.2578125]]], [[[-124.99466, 45.093, -7552.361328125], [-124.99574, 45.10204, -7529.2578125], [-125.00128, 45.09285, -6684.87890625], [-124.99466, 45.093, -7552.361328125]]], [[[-124.99847, 45.25506, -8017.34423828125], [-125.00466, 45.25493, -7210.54541015625], [-124.99955, 45.24602, -7964.23193359375], [-124.99847, 45.25506, -8017.34423828125]]]]}}]}