{"type": "FeatureCollection", "features": [{"type": "Feature", "properties": {"name": "AW_WASH_64", "CFM_ID": 402, "region": "Offshore_WAOR", "primary_state/province": "WA", "secondary_state/province": null, "avg_dip": 50, "dip_dir": "W", "rake": -90, "slip_sense": "Normal", "fault_level": 1, "NSHM23_sliprates": null, "QFFDAgeCatBin": "latest Quaternary", "QFFDAgeBin": "<15,000", "upper_depth": -0.6, "upper_depth_constraint": "bathymetry", "lower_depth": -7.8, "lower_depth_constraint": "megathrust", "3D_model_constraints": "trace extended at constant dip", "reference": "McNeill 97 and 98", "nshm23_id": null, "lineage": null, "usgs_qffd_#": "593", "comments": null, "id": "402"}, "geometry": {"type": "MultiPolygon", "coordinates": [[[[-124.88611, 46.90995, -6172.73583984375], [-124.89172, 46.90199, -6435.58154296875], [-124.88331, 46.90189, -5679.32470703125], [-124.88611, 46.90995, -6172.73583984375]]], [[[-124.82489, 46.93952, -941.2686157226562], [-124.82491, 46.93158, -956.0847778320312], [-124.817, 46.935, -241.95399475097656], [-124.82489, 46.93952, -941.2686157226562]]], [[[-124.83268, 46.92771, -1658.3717041015625], [-124.82585, 46.92313, -1015.94384765625], [-124.82491, 46.93158, -956.0847778320312], [-124.83268, 46.92771, -1658.3717041015625]]], [[[-124.8749, 46.90178, -4923.06787109375], [-124.88115, 46.89432, -5182.5244140625], [-124.87276, 46.89421, -4425.439453125], [-124.8749, 46.90178, -4923.06787109375]]], [[[-124.8364, 46.88611, -940.98681640625], [-124.83127, 46.89016, -551.7238159179688], [-124.83909, 46.894, -1399.0592041015625], [-124.8364, 46.88611, -940.98681640625]]], [[[-124.82489, 46.93952, -941.2686157226562], [-124.817, 46.935, -241.95399475097656], [-124.81801, 46.94409, -310.69573974609375], [-124.82489, 46.93952, -941.2686157226562]]], [[[-124.83527, 46.91095, -1636.6788330078125], [-124.82687, 46.91435, -965.5228881835938], [-124.83357, 46.91891, -1662.330322265625], [-124.83527, 46.91095, -1636.6788330078125]]], [[[-124.83155, 46.89791, -896.77490234375], [-124.83909, 46.894, -1399.0592041015625], [-124.83127, 46.89016, -551.7238159179688], [-124.83155, 46.89791, -896.77490234375]]], [[[-124.91807, 46.89903, -8699.3642578125], [-124.92387, 46.90421, -9379.826171875], [-124.92657, 46.89578, -9317.5361328125], [-124.91807, 46.89903, -8699.3642578125]]], [[[-124.90599, 46.93065, -8233.0205078125], [-124.91354, 46.93474, -8907.603515625], [-124.91324, 46.9259, -8871.8994140625], [-124.90599, 46.93065, -8233.0205078125]]], [[[-124.86649, 46.90167, -4166.81103515625], [-124.87276, 46.89421, -4425.439453125], [-124.86436, 46.8941, -3668.3544921875], [-124.86649, 46.90167, -4166.81103515625]]], [[[-124.83841, 46.90262, -1680.509765625], [-124.84696, 46.89444, -2123.98046875], [-124.83909, 46.894, -1399.0592041015625], [-124.83841, 46.90262, -1680.509765625]]], [[[-124.82489, 46.93952, -941.2686157226562], [-124.83259, 46.93553, -1643.92236328125], [-124.82491, 46.93158, -956.0847778320312], [-124.82489, 46.93952, -941.2686157226562]]], [[[-124.91557, 46.9081, -8750.931640625], [-124.92387, 46.90421, -9379.826171875], [-124.91807, 46.89903, -8699.3642578125], [-124.91557, 46.9081, -8750.931640625]]], [[[-124.83967, 46.93981, -2270.807861328125], [-124.83262, 46.94435, -1621.9736328125], [-124.84119, 46.94833, -2328.210205078125], [-124.83967, 46.93981, -2270.807861328125]]], [[[-124.83268, 46.92771, -1658.3717041015625], [-124.82491, 46.93158, -956.0847778320312], [-124.83259, 46.93553, -1643.92236328125], [-124.83268, 46.92771, -1658.3717041015625]]], [[[-124.82585, 46.92313, -1015.94384765625], [-124.82687, 46.91435, -965.5228881835938], [-124.81894, 46.91847, -347.4595947265625], [-124.82585, 46.92313, -1015.94384765625]]], [[[-124.84656, 46.94251, -2884.559326171875], [-124.84119, 46.94833, -2328.210205078125], [-124.85134, 46.94851, -3238.801025390625], [-124.84656, 46.94251, -2884.559326171875]]], [[[-124.83615, 46.95451, -1754.9393310546875], [-124.82802, 46.95696, -942.76708984375], [-124.83663, 46.9634, -1511.0313720703125], [-124.83615, 46.95451, -1754.9393310546875]]], [[[-124.86363, 46.91692, -4324.01318359375], [-124.86914, 46.90933, -4632.07080078125], [-124.86073, 46.90922, -3875.514404296875], [-124.86363, 46.91692, -4324.01318359375]]], [[[-124.83262, 46.94435, -1621.9736328125], [-124.82628, 46.94866, -979.9378662109375], [-124.83615, 46.95451, -1754.9393310546875], [-124.83262, 46.94435, -1621.9736328125]]], [[[-124.83909, 46.894, -1399.0592041015625], [-124.8448, 46.88622, -1697.6737060546875], [-124.8364, 46.88611, -940.98681640625], [-124.83909, 46.894, -1399.0592041015625]]], [[[-124.91557, 46.9081, -8750.931640625], [-124.92187, 46.91274, -9447.240234375], [-124.92387, 46.90421, -9379.826171875], [-124.91557, 46.9081, -8750.931640625]]], [[[-124.83841, 46.90262, -1680.509765625], [-124.83155, 46.89791, -896.77490234375], [-124.82871, 46.90653, -927.1032104492188], [-124.83841, 46.90262, -1680.509765625]]], [[[-124.82802, 46.95696, -942.76708984375], [-124.81906, 46.95319, -252.3748016357422], [-124.82203, 46.96209, -237.39524841308594], [-124.82802, 46.95696, -942.76708984375]]], [[[-124.86292, 46.96396, -3865.466796875], [-124.86009, 46.97154, -3355.278564453125], [-124.86886, 46.97167, -4143.37109375], [-124.86292, 46.96396, -3865.466796875]]], [[[-124.89923, 46.91671, -7511.69091796875], [-124.90183, 46.90809, -7520.7236328125], [-124.89421, 46.90977, -6893.06787109375], [-124.89923, 46.91671, -7511.69091796875]]], [[[-124.83663, 46.9634, -1511.0313720703125], [-124.83377, 46.97114, -991.0014038085938], [-124.84254, 46.97127, -1779.09375], [-124.83663, 46.9634, -1511.0313720703125]]], [[[-124.85569, 46.91665, -3605.469970703125], [-124.86073, 46.90922, -3875.514404296875], [-124.85167, 46.9095, -3072.94140625], [-124.85569, 46.91665, -3605.469970703125]]], [[[-124.91381, 46.91692, -8824.09375], [-124.92187, 46.91274, -9447.240234375], [-124.91557, 46.9081, -8750.931640625], [-124.91381, 46.91692, -8824.09375]]], [[[-124.85414, 46.96383, -3077.707763671875], [-124.84483, 46.96318, -2259.20166015625], [-124.85132, 46.9714, -2567.18603515625], [-124.85414, 46.96383, -3077.707763671875]]], [[[-124.83663, 46.9634, -1511.0313720703125], [-124.84483, 46.96318, -2259.20166015625], [-124.83615, 46.95451, -1754.9393310546875], [-124.83663, 46.9634, -1511.0313720703125]]], [[[-124.83909, 46.894, -1399.0592041015625], [-124.84696, 46.89444, -2123.98046875], [-124.8448, 46.88622, -1697.6737060546875], [-124.83909, 46.894, -1399.0592041015625]]], [[[-124.91381, 46.91692, -8824.09375], [-124.92078, 46.92135, -9500.322265625], [-124.92187, 46.91274, -9447.240234375], [-124.91381, 46.91692, -8824.09375]]], [[[-124.82687, 46.91435, -965.5228881835938], [-124.81986, 46.91024, -237.93136596679688], [-124.81894, 46.91847, -347.4595947265625], [-124.82687, 46.91435, -965.5228881835938]]], [[[-124.83357, 46.91891, -1662.330322265625], [-124.82585, 46.92313, -1015.94384765625], [-124.83268, 46.92771, -1658.3717041015625], [-124.83357, 46.91891, -1662.330322265625]]], [[[-124.93027, 46.97258, -9660.017578125], [-124.92435, 46.96832, -9262.1328125], [-124.92149, 46.97245, -8871.9248046875], [-124.93027, 46.97258, -9660.017578125]]], [[[-124.82802, 46.95696, -942.76708984375], [-124.83615, 46.95451, -1754.9393310546875], [-124.82628, 46.94866, -979.9378662109375], [-124.82802, 46.95696, -942.76708984375]]], [[[-124.83909, 46.894, -1399.0592041015625], [-124.83155, 46.89791, -896.77490234375], [-124.83841, 46.90262, -1680.509765625], [-124.83909, 46.894, -1399.0592041015625]]], [[[-124.90183, 46.90809, -7520.7236328125], [-124.90736, 46.91226, -8133.99755859375], [-124.90936, 46.90274, -8036.9736328125], [-124.90183, 46.90809, -7520.7236328125]]], [[[-124.81906, 46.95319, -252.3748016357422], [-124.82628, 46.94866, -979.9378662109375], [-124.81801, 46.94409, -310.69573974609375], [-124.81906, 46.95319, -252.3748016357422]]], [[[-124.91324, 46.9259, -8871.8994140625], [-124.92078, 46.92135, -9500.322265625], [-124.91381, 46.91692, -8824.09375], [-124.91324, 46.9259, -8871.8994140625]]], [[[-124.84727, 46.95577, -2720.962890625], [-124.84483, 46.96318, -2259.20166015625], [-124.85414, 46.96383, -3077.707763671875], [-124.84727, 46.95577, -2720.962890625]]], [[[-124.91324, 46.9259, -8871.8994140625], [-124.92063, 46.92999, -9548.3037109375], [-124.92078, 46.92135, -9500.322265625], [-124.91324, 46.9259, -8871.8994140625]]], [[[-124.83663, 46.9634, -1511.0313720703125], [-124.82964, 46.96497, -826.9791259765625], [-124.83377, 46.97114, -991.0014038085938], [-124.83663, 46.9634, -1511.0313720703125]]], [[[-124.89868, 46.93605, -7587.15673828125], [-124.8981, 46.94732, -7468.83935546875], [-124.90593, 46.94024, -8232.1083984375], [-124.89868, 46.93605, -7587.15673828125]]], [[[-124.89923, 46.91671, -7511.69091796875], [-124.89051, 46.91902, -6764.38671875], [-124.89825, 46.92589, -7529.08837890625], [-124.89923, 46.91671, -7511.69091796875]]], [[[-124.87204, 46.91703, -5080.56298828125], [-124.86914, 46.90933, -4632.07080078125], [-124.86363, 46.91692, -4324.01318359375], [-124.87204, 46.91703, -5080.56298828125]]], [[[-124.82585, 46.92313, -1015.94384765625], [-124.81894, 46.91847, -347.4595947265625], [-124.81792, 46.92675, -334.6343078613281], [-124.82585, 46.92313, -1015.94384765625]]], [[[-124.828, 46.886, -184.3000030517578], [-124.82561, 46.89412, -196.76528930664062], [-124.83127, 46.89016, -551.7238159179688], [-124.828, 46.886, -184.3000030517578]]], [[[-124.91354, 46.93474, -8907.603515625], [-124.92063, 46.92999, -9548.3037109375], [-124.91324, 46.9259, -8871.8994140625], [-124.91354, 46.93474, -8907.603515625]]], [[[-124.828, 46.886, -184.3000030517578], [-124.83127, 46.89016, -551.7238159179688], [-124.8364, 46.88611, -940.98681640625], [-124.828, 46.886, -184.3000030517578]]], [[[-124.84483, 46.96318, -2259.20166015625], [-124.84254, 46.97127, -1779.09375], [-124.85132, 46.9714, -2567.18603515625], [-124.84483, 46.96318, -2259.20166015625]]], [[[-124.84915, 46.90146, -2607.73095703125], [-124.85597, 46.89399, -2911.26953125], [-124.84696, 46.89444, -2123.98046875], [-124.84915, 46.90146, -2607.73095703125]]], [[[-124.90599, 46.93065, -8233.0205078125], [-124.90593, 46.94024, -8232.1083984375], [-124.91354, 46.93474, -8907.603515625], [-124.90599, 46.93065, -8233.0205078125]]], [[[-124.83262, 46.94435, -1621.9736328125], [-124.83259, 46.93553, -1643.92236328125], [-124.82489, 46.93952, -941.2686157226562], [-124.83262, 46.94435, -1621.9736328125]]], [[[-124.83841, 46.90262, -1680.509765625], [-124.82871, 46.90653, -927.1032104492188], [-124.83527, 46.91095, -1636.6788330078125], [-124.83841, 46.90262, -1680.509765625]]], [[[-124.87276, 46.89421, -4425.439453125], [-124.88115, 46.89432, -5182.5244140625], [-124.8784, 46.88666, -4724.4208984375], [-124.87276, 46.89421, -4425.439453125]]], [[[-124.82964, 46.96497, -826.9791259765625], [-124.83663, 46.9634, -1511.0313720703125], [-124.82802, 46.95696, -942.76708984375], [-124.82964, 46.96497, -826.9791259765625]]], [[[-124.82802, 46.95696, -942.76708984375], [-124.82203, 46.96209, -237.39524841308594], [-124.82964, 46.96497, -826.9791259765625], [-124.82802, 46.95696, -942.76708984375]]], [[[-124.9204, 46.88719, -8507.85546875], [-124.92378, 46.89153, -8893.212890625], [-124.9288, 46.88729, -9264.5419921875], [-124.9204, 46.88719, -8507.85546875]]], [[[-124.84915, 46.90146, -2607.73095703125], [-124.84696, 46.89444, -2123.98046875], [-124.83841, 46.90262, -1680.509765625], [-124.84915, 46.90146, -2607.73095703125]]], [[[-124.82491, 46.93158, -956.0847778320312], [-124.82585, 46.92313, -1015.94384765625], [-124.81792, 46.92675, -334.6343078613281], [-124.82491, 46.93158, -956.0847778320312]]], [[[-124.91354, 46.93474, -8907.603515625], [-124.92101, 46.93863, -9593.3154296875], [-124.92063, 46.92999, -9548.3037109375], [-124.91354, 46.93474, -8907.603515625]]], [[[-124.89868, 46.93605, -7587.15673828125], [-124.90599, 46.93065, -8233.0205078125], [-124.89825, 46.92589, -7529.08837890625], [-124.89868, 46.93605, -7587.15673828125]]], [[[-124.85597, 46.89399, -2911.26953125], [-124.8532, 46.88633, -2454.360595703125], [-124.84696, 46.89444, -2123.98046875], [-124.85597, 46.89399, -2911.26953125]]], [[[-124.9068, 46.96461, -7804.26171875], [-124.90395, 46.9722, -7295.740234375], [-124.91272, 46.97232, -8083.8330078125], [-124.9068, 46.96461, -7804.26171875]]], [[[-124.91354, 46.93474, -8907.603515625], [-124.91409, 46.94357, -8958.0537109375], [-124.92101, 46.93863, -9593.3154296875], [-124.91354, 46.93474, -8907.603515625]]], [[[-124.82871, 46.90653, -927.1032104492188], [-124.83155, 46.89791, -896.77490234375], [-124.8223, 46.90211, -222.3817596435547], [-124.82871, 46.90653, -927.1032104492188]]], [[[-124.84119, 46.94833, -2328.210205078125], [-124.83615, 46.95451, -1754.9393310546875], [-124.84727, 46.95577, -2720.962890625], [-124.84119, 46.94833, -2328.210205078125]]], [[[-124.84202, 46.91534, -2347.552978515625], [-124.84379, 46.908, -2320.634521484375], [-124.83527, 46.91095, -1636.6788330078125], [-124.84202, 46.91534, -2347.552978515625]]], [[[-124.89923, 46.91671, -7511.69091796875], [-124.90613, 46.92147, -8189.22802734375], [-124.90736, 46.91226, -8133.99755859375], [-124.89923, 46.91671, -7511.69091796875]]], [[[-124.89172, 46.90199, -6435.58154296875], [-124.88955, 46.89442, -5939.609375], [-124.88331, 46.90189, -5679.32470703125], [-124.89172, 46.90199, -6435.58154296875]]], [[[-124.90593, 46.94024, -8232.1083984375], [-124.91409, 46.94357, -8958.0537109375], [-124.91354, 46.93474, -8907.603515625], [-124.90593, 46.94024, -8232.1083984375]]], [[[-124.85167, 46.9095, -3072.94140625], [-124.84915, 46.90146, -2607.73095703125], [-124.84379, 46.908, -2320.634521484375], [-124.85167, 46.9095, -3072.94140625]]], [[[-124.90183, 46.90809, -7520.7236328125], [-124.90936, 46.90274, -8036.9736328125], [-124.90017, 46.9017, -7183.814453125], [-124.90183, 46.90809, -7520.7236328125]]], [[[-124.83527, 46.91095, -1636.6788330078125], [-124.82871, 46.90653, -927.1032104492188], [-124.82687, 46.91435, -965.5228881835938], [-124.83527, 46.91095, -1636.6788330078125]]], [[[-124.84915, 46.90146, -2607.73095703125], [-124.85809, 46.90156, -3410.554443359375], [-124.85597, 46.89399, -2911.26953125], [-124.84915, 46.90146, -2607.73095703125]]], [[[-124.89051, 46.91902, -6764.38671875], [-124.89923, 46.91671, -7511.69091796875], [-124.89421, 46.90977, -6893.06787109375], [-124.89051, 46.91902, -6764.38671875]]], [[[-124.90593, 46.94024, -8232.1083984375], [-124.90723, 46.94919, -8259.5908203125], [-124.91409, 46.94357, -8958.0537109375], [-124.90593, 46.94024, -8232.1083984375]]], [[[-124.88331, 46.90189, -5679.32470703125], [-124.88955, 46.89442, -5939.609375], [-124.88115, 46.89432, -5182.5244140625], [-124.88331, 46.90189, -5679.32470703125]]], [[[-124.8981, 46.94732, -7468.83935546875], [-124.90723, 46.94919, -8259.5908203125], [-124.90593, 46.94024, -8232.1083984375], [-124.8981, 46.94732, -7468.83935546875]]], [[[-124.90992, 46.95778, -8320.537109375], [-124.91898, 46.96136, -9024.7744140625], [-124.91581, 46.95247, -8977.7685546875], [-124.90992, 46.95778, -8320.537109375]]], [[[-124.8981, 46.94732, -7468.83935546875], [-124.9012, 46.9565, -7572.609375], [-124.90723, 46.94919, -8259.5908203125], [-124.8981, 46.94732, -7468.83935546875]]], [[[-124.91807, 46.89903, -8699.3642578125], [-124.92657, 46.89578, -9317.5361328125], [-124.92378, 46.89153, -8893.212890625], [-124.91807, 46.89903, -8699.3642578125]]], [[[-124.83262, 46.94435, -1621.9736328125], [-124.82489, 46.93952, -941.2686157226562], [-124.82628, 46.94866, -979.9378662109375], [-124.83262, 46.94435, -1621.9736328125]]], [[[-124.8981, 46.94732, -7468.83935546875], [-124.89253, 46.95622, -6797.94580078125], [-124.9012, 46.9565, -7572.609375], [-124.8981, 46.94732, -7468.83935546875]]], [[[-124.86649, 46.90167, -4166.81103515625], [-124.86436, 46.8941, -3668.3544921875], [-124.85809, 46.90156, -3410.554443359375], [-124.86649, 46.90167, -4166.81103515625]]], [[[-124.88751, 46.94877, -6491.66015625], [-124.89253, 46.95622, -6797.94580078125], [-124.8981, 46.94732, -7468.83935546875], [-124.88751, 46.94877, -6491.66015625]]], [[[-124.84379, 46.908, -2320.634521484375], [-124.84202, 46.91534, -2347.552978515625], [-124.85167, 46.9095, -3072.94140625], [-124.84379, 46.908, -2320.634521484375]]], [[[-124.89158, 46.94088, -6939.0283203125], [-124.8981, 46.94732, -7468.83935546875], [-124.89868, 46.93605, -7587.15673828125], [-124.89158, 46.94088, -6939.0283203125]]], [[[-124.85167, 46.9095, -3072.94140625], [-124.85809, 46.90156, -3410.554443359375], [-124.84915, 46.90146, -2607.73095703125], [-124.85167, 46.9095, -3072.94140625]]], [[[-124.88751, 46.94877, -6491.66015625], [-124.88336, 46.9566, -5956.85205078125], [-124.89253, 46.95622, -6797.94580078125], [-124.88751, 46.94877, -6491.66015625]]], [[[-124.91898, 46.96136, -9024.7744140625], [-124.92716, 46.96419, -9656.0078125], [-124.92398, 46.9558, -9653.8896484375], [-124.91898, 46.96136, -9024.7744140625]]], [[[-124.88955, 46.89442, -5939.609375], [-124.8952, 46.88687, -6237.79443359375], [-124.8868, 46.88676, -5481.10791015625], [-124.88955, 46.89442, -5939.609375]]], [[[-124.87541, 46.92499, -5474.40478515625], [-124.88084, 46.91733, -5877.037109375], [-124.87204, 46.91703, -5080.56298828125], [-124.87541, 46.92499, -5474.40478515625]]], [[[-124.85315, 46.92476, -3477.668701171875], [-124.8485, 46.9185, -2995.79833984375], [-124.84714, 46.92761, -2956.148193359375], [-124.85315, 46.92476, -3477.668701171875]]], [[[-124.86436, 46.8941, -3668.3544921875], [-124.87, 46.88655, -3967.734130859375], [-124.8616, 46.88644, -3211.04736328125], [-124.86436, 46.8941, -3668.3544921875]]], [[[-124.86073, 46.90922, -3875.514404296875], [-124.86649, 46.90167, -4166.81103515625], [-124.85809, 46.90156, -3410.554443359375], [-124.86073, 46.90922, -3875.514404296875]]], [[[-124.88751, 46.94877, -6491.66015625], [-124.87799, 46.94885, -5632.83251953125], [-124.88336, 46.9566, -5956.85205078125], [-124.88751, 46.94877, -6491.66015625]]], [[[-124.87754, 46.90944, -5388.62744140625], [-124.88611, 46.90995, -6172.73583984375], [-124.88331, 46.90189, -5679.32470703125], [-124.87754, 46.90944, -5388.62744140625]]], [[[-124.89172, 46.90199, -6435.58154296875], [-124.89794, 46.89453, -6696.6943359375], [-124.88955, 46.89442, -5939.609375], [-124.89172, 46.90199, -6435.58154296875]]], [[[-124.85134, 46.94851, -3238.801025390625], [-124.84727, 46.95577, -2720.962890625], [-124.85694, 46.95623, -3580.1982421875], [-124.85134, 46.94851, -3238.801025390625]]], [[[-124.90635, 46.89469, -7457.1474609375], [-124.90936, 46.90274, -8036.9736328125], [-124.91443, 46.89436, -8166.69970703125], [-124.90635, 46.89469, -7457.1474609375]]], [[[-124.84656, 46.94251, -2884.559326171875], [-124.83967, 46.93981, -2270.807861328125], [-124.84119, 46.94833, -2328.210205078125], [-124.84656, 46.94251, -2884.559326171875]]], [[[-124.88751, 46.94877, -6491.66015625], [-124.88212, 46.94121, -6087.32421875], [-124.87799, 46.94885, -5632.83251953125], [-124.88751, 46.94877, -6491.66015625]]], [[[-124.91898, 46.96136, -9024.7744140625], [-124.92435, 46.96832, -9262.1328125], [-124.92716, 46.96419, -9656.0078125], [-124.91898, 46.96136, -9024.7744140625]]], [[[-124.8981, 46.94732, -7468.83935546875], [-124.89158, 46.94088, -6939.0283203125], [-124.88751, 46.94877, -6491.66015625], [-124.8981, 46.94732, -7468.83935546875]]], [[[-124.83262, 46.94435, -1621.9736328125], [-124.83967, 46.93981, -2270.807861328125], [-124.83259, 46.93553, -1643.92236328125], [-124.83262, 46.94435, -1621.9736328125]]], [[[-124.90613, 46.92147, -8189.22802734375], [-124.89825, 46.92589, -7529.08837890625], [-124.90599, 46.93065, -8233.0205078125], [-124.90613, 46.92147, -8189.22802734375]]], [[[-124.9068, 46.96461, -7804.26171875], [-124.9012, 46.9565, -7572.609375], [-124.89802, 46.96448, -7016.5029296875], [-124.9068, 46.96461, -7804.26171875]]], [[[-124.86363, 46.91692, -4324.01318359375], [-124.86073, 46.90922, -3875.514404296875], [-124.85569, 46.91665, -3605.469970703125], [-124.86363, 46.91692, -4324.01318359375]]], [[[-124.90635, 46.89469, -7457.1474609375], [-124.912, 46.88708, -7751.16845703125], [-124.9036, 46.88698, -6994.4814453125], [-124.90635, 46.89469, -7457.1474609375]]], [[[-124.88212, 46.94121, -6087.32421875], [-124.88751, 46.94877, -6491.66015625], [-124.89158, 46.94088, -6939.0283203125], [-124.88212, 46.94121, -6087.32421875]]], [[[-124.85942, 46.92442, -4036.209228515625], [-124.85569, 46.91665, -3605.469970703125], [-124.85315, 46.92476, -3477.668701171875], [-124.85942, 46.92442, -4036.209228515625]]], [[[-124.89158, 46.94088, -6939.0283203125], [-124.88589, 46.93408, -6424.76171875], [-124.88212, 46.94121, -6087.32421875], [-124.89158, 46.94088, -6939.0283203125]]], [[[-124.92149, 46.97245, -8871.9248046875], [-124.91493, 46.9655, -8508.126953125], [-124.91272, 46.97232, -8083.8330078125], [-124.92149, 46.97245, -8871.9248046875]]], [[[-124.88331, 46.90189, -5679.32470703125], [-124.88115, 46.89432, -5182.5244140625], [-124.8749, 46.90178, -4923.06787109375], [-124.88331, 46.90189, -5679.32470703125]]], [[[-124.89158, 46.94088, -6939.0283203125], [-124.89169, 46.93023, -6950.8447265625], [-124.88589, 46.93408, -6424.76171875], [-124.89158, 46.94088, -6939.0283203125]]], [[[-124.86914, 46.90933, -4632.07080078125], [-124.8749, 46.90178, -4923.06787109375], [-124.86649, 46.90167, -4166.81103515625], [-124.86914, 46.90933, -4632.07080078125]]], [[[-124.88084, 46.91733, -5877.037109375], [-124.88611, 46.90995, -6172.73583984375], [-124.87754, 46.90944, -5388.62744140625], [-124.88084, 46.91733, -5877.037109375]]], [[[-124.867, 46.92484, -4718.95703125], [-124.87204, 46.91703, -5080.56298828125], [-124.86363, 46.91692, -4324.01318359375], [-124.867, 46.92484, -4718.95703125]]], [[[-124.90736, 46.91226, -8133.99755859375], [-124.91381, 46.91692, -8824.09375], [-124.91557, 46.9081, -8750.931640625], [-124.90736, 46.91226, -8133.99755859375]]], [[[-124.84483, 46.96318, -2259.20166015625], [-124.83663, 46.9634, -1511.0313720703125], [-124.84254, 46.97127, -1779.09375], [-124.84483, 46.96318, -2259.20166015625]]], [[[-124.89169, 46.93023, -6950.8447265625], [-124.89158, 46.94088, -6939.0283203125], [-124.89868, 46.93605, -7587.15673828125], [-124.89169, 46.93023, -6950.8447265625]]], [[[-124.90635, 46.89469, -7457.1474609375], [-124.91443, 46.89436, -8166.69970703125], [-124.912, 46.88708, -7751.16845703125], [-124.90635, 46.89469, -7457.1474609375]]], [[[-124.89169, 46.93023, -6950.8447265625], [-124.89868, 46.93605, -7587.15673828125], [-124.89825, 46.92589, -7529.08837890625], [-124.89169, 46.93023, -6950.8447265625]]], [[[-124.86044, 46.94858, -4057.29443359375], [-124.85134, 46.94851, -3238.801025390625], [-124.85694, 46.95623, -3580.1982421875], [-124.86044, 46.94858, -4057.29443359375]]], [[[-124.89802, 46.96448, -7016.5029296875], [-124.89253, 46.95622, -6797.94580078125], [-124.88925, 46.96435, -6228.74365234375], [-124.89802, 46.96448, -7016.5029296875]]], [[[-124.89169, 46.93023, -6950.8447265625], [-124.89825, 46.92589, -7529.08837890625], [-124.89051, 46.91902, -6764.38671875], [-124.89169, 46.93023, -6950.8447265625]]], [[[-124.87754, 46.90944, -5388.62744140625], [-124.88331, 46.90189, -5679.32470703125], [-124.8749, 46.90178, -4923.06787109375], [-124.87754, 46.90944, -5388.62744140625]]], [[[-124.88402, 46.92548, -6250.18798828125], [-124.89169, 46.93023, -6950.8447265625], [-124.89051, 46.91902, -6764.38671875], [-124.88402, 46.92548, -6250.18798828125]]], [[[-124.91898, 46.96136, -9024.7744140625], [-124.91493, 46.9655, -8508.126953125], [-124.92435, 46.96832, -9262.1328125], [-124.91898, 46.96136, -9024.7744140625]]], [[[-124.88115, 46.89432, -5182.5244140625], [-124.88955, 46.89442, -5939.609375], [-124.8868, 46.88676, -5481.10791015625], [-124.88115, 46.89432, -5182.5244140625]]], [[[-124.89802, 46.96448, -7016.5029296875], [-124.88925, 46.96435, -6228.74365234375], [-124.89518, 46.97206, -6507.64794921875], [-124.89802, 46.96448, -7016.5029296875]]], [[[-124.88589, 46.93408, -6424.76171875], [-124.89169, 46.93023, -6950.8447265625], [-124.88402, 46.92548, -6250.18798828125], [-124.88589, 46.93408, -6424.76171875]]], [[[-124.88589, 46.93408, -6424.76171875], [-124.88402, 46.92548, -6250.18798828125], [-124.87778, 46.93319, -5698.1689453125], [-124.88589, 46.93408, -6424.76171875]]], [[[-124.85942, 46.92442, -4036.209228515625], [-124.86363, 46.91692, -4324.01318359375], [-124.85569, 46.91665, -3605.469970703125], [-124.85942, 46.92442, -4036.209228515625]]], [[[-124.90936, 46.90274, -8036.9736328125], [-124.91557, 46.9081, -8750.931640625], [-124.91807, 46.89903, -8699.3642578125], [-124.90936, 46.90274, -8036.9736328125]]], [[[-124.82489, 46.93952, -941.2686157226562], [-124.81801, 46.94409, -310.69573974609375], [-124.82628, 46.94866, -979.9378662109375], [-124.82489, 46.93952, -941.2686157226562]]], [[[-124.88589, 46.93408, -6424.76171875], [-124.87778, 46.93319, -5698.1689453125], [-124.88212, 46.94121, -6087.32421875], [-124.88589, 46.93408, -6424.76171875]]], [[[-124.87541, 46.92499, -5474.40478515625], [-124.88402, 46.92548, -6250.18798828125], [-124.88084, 46.91733, -5877.037109375], [-124.87541, 46.92499, -5474.40478515625]]], [[[-124.89868, 46.93605, -7587.15673828125], [-124.90593, 46.94024, -8232.1083984375], [-124.90599, 46.93065, -8233.0205078125], [-124.89868, 46.93605, -7587.15673828125]]], [[[-124.92149, 46.97245, -8871.9248046875], [-124.92435, 46.96832, -9262.1328125], [-124.91493, 46.9655, -8508.126953125], [-124.92149, 46.97245, -8871.9248046875]]], [[[-124.85315, 46.92476, -3477.668701171875], [-124.85569, 46.91665, -3605.469970703125], [-124.8485, 46.9185, -2995.79833984375], [-124.85315, 46.92476, -3477.668701171875]]], [[[-124.88925, 46.96435, -6228.74365234375], [-124.88641, 46.97193, -5719.5556640625], [-124.89518, 46.97206, -6507.64794921875], [-124.88925, 46.96435, -6228.74365234375]]], [[[-124.87778, 46.93319, -5698.1689453125], [-124.87317, 46.94101, -5282.7412109375], [-124.88212, 46.94121, -6087.32421875], [-124.87778, 46.93319, -5698.1689453125]]], [[[-124.84714, 46.92761, -2956.148193359375], [-124.8403, 46.93193, -2336.689697265625], [-124.84782, 46.93592, -3013.013427734375], [-124.84714, 46.92761, -2956.148193359375]]], [[[-124.84714, 46.92761, -2956.148193359375], [-124.8485, 46.9185, -2995.79833984375], [-124.84046, 46.92359, -2328.815185546875], [-124.84714, 46.92761, -2956.148193359375]]], [[[-124.87204, 46.91703, -5080.56298828125], [-124.87754, 46.90944, -5388.62744140625], [-124.86914, 46.90933, -4632.07080078125], [-124.87204, 46.91703, -5080.56298828125]]], [[[-124.88955, 46.89442, -5939.609375], [-124.89794, 46.89453, -6696.6943359375], [-124.8952, 46.88687, -6237.79443359375], [-124.88955, 46.89442, -5939.609375]]], [[[-124.90723, 46.94919, -8259.5908203125], [-124.91581, 46.95247, -8977.7685546875], [-124.91409, 46.94357, -8958.0537109375], [-124.90723, 46.94919, -8259.5908203125]]], [[[-124.87778, 46.93319, -5698.1689453125], [-124.86939, 46.93299, -4945.32666015625], [-124.87317, 46.94101, -5282.7412109375], [-124.87778, 46.93319, -5698.1689453125]]], [[[-124.90992, 46.95778, -8320.537109375], [-124.91493, 46.9655, -8508.126953125], [-124.91898, 46.96136, -9024.7744140625], [-124.90992, 46.95778, -8320.537109375]]], [[[-124.85569, 46.91665, -3605.469970703125], [-124.85167, 46.9095, -3072.94140625], [-124.8485, 46.9185, -2995.79833984375], [-124.85569, 46.91665, -3605.469970703125]]], [[[-124.86441, 46.94088, -4494.45068359375], [-124.86922, 46.94872, -4845.0634765625], [-124.87317, 46.94101, -5282.7412109375], [-124.86441, 46.94088, -4494.45068359375]]], [[[-124.86939, 46.93299, -4945.32666015625], [-124.87778, 46.93319, -5698.1689453125], [-124.87541, 46.92499, -5474.40478515625], [-124.86939, 46.93299, -4945.32666015625]]], [[[-124.88084, 46.91733, -5877.037109375], [-124.87754, 46.90944, -5388.62744140625], [-124.87204, 46.91703, -5080.56298828125], [-124.88084, 46.91733, -5877.037109375]]], [[[-124.90936, 46.90274, -8036.9736328125], [-124.91807, 46.89903, -8699.3642578125], [-124.91443, 46.89436, -8166.69970703125], [-124.90936, 46.90274, -8036.9736328125]]], [[[-124.84782, 46.93592, -3013.013427734375], [-124.83967, 46.93981, -2270.807861328125], [-124.84656, 46.94251, -2884.559326171875], [-124.84782, 46.93592, -3013.013427734375]]], [[[-124.85134, 46.94851, -3238.801025390625], [-124.84119, 46.94833, -2328.210205078125], [-124.84727, 46.95577, -2720.962890625], [-124.85134, 46.94851, -3238.801025390625]]], [[[-124.82871, 46.90653, -927.1032104492188], [-124.8223, 46.90211, -222.3817596435547], [-124.81986, 46.91024, -237.93136596679688], [-124.82871, 46.90653, -927.1032104492188]]], [[[-124.86939, 46.93299, -4945.32666015625], [-124.87541, 46.92499, -5474.40478515625], [-124.867, 46.92484, -4718.95703125], [-124.86939, 46.93299, -4945.32666015625]]], [[[-124.91443, 46.89436, -8166.69970703125], [-124.9204, 46.88719, -8507.85546875], [-124.912, 46.88708, -7751.16845703125], [-124.91443, 46.89436, -8166.69970703125]]], [[[-124.86939, 46.93299, -4945.32666015625], [-124.867, 46.92484, -4718.95703125], [-124.86125, 46.93293, -4215.0146484375], [-124.86939, 46.93299, -4945.32666015625]]], [[[-124.82802, 46.95696, -942.76708984375], [-124.82628, 46.94866, -979.9378662109375], [-124.81906, 46.95319, -252.3748016357422], [-124.82802, 46.95696, -942.76708984375]]], [[[-124.86436, 46.8941, -3668.3544921875], [-124.87276, 46.89421, -4425.439453125], [-124.87, 46.88655, -3967.734130859375], [-124.86436, 46.8941, -3668.3544921875]]], [[[-124.86073, 46.90922, -3875.514404296875], [-124.86914, 46.90933, -4632.07080078125], [-124.86649, 46.90167, -4166.81103515625], [-124.86073, 46.90922, -3875.514404296875]]], [[[-124.867, 46.92484, -4718.95703125], [-124.87541, 46.92499, -5474.40478515625], [-124.87204, 46.91703, -5080.56298828125], [-124.867, 46.92484, -4718.95703125]]], [[[-124.84727, 46.95577, -2720.962890625], [-124.85414, 46.96383, -3077.707763671875], [-124.85694, 46.95623, -3580.1982421875], [-124.84727, 46.95577, -2720.962890625]]], [[[-124.89172, 46.90199, -6435.58154296875], [-124.90017, 46.9017, -7183.814453125], [-124.89794, 46.89453, -6696.6943359375], [-124.89172, 46.90199, -6435.58154296875]]], [[[-124.86939, 46.93299, -4945.32666015625], [-124.86125, 46.93293, -4215.0146484375], [-124.86441, 46.94088, -4494.45068359375], [-124.86939, 46.93299, -4945.32666015625]]], [[[-124.90613, 46.92147, -8189.22802734375], [-124.91324, 46.9259, -8871.8994140625], [-124.91381, 46.91692, -8824.09375], [-124.90613, 46.92147, -8189.22802734375]]], [[[-124.90017, 46.9017, -7183.814453125], [-124.90936, 46.90274, -8036.9736328125], [-124.90635, 46.89469, -7457.1474609375], [-124.90017, 46.9017, -7183.814453125]]], [[[-124.84714, 46.92761, -2956.148193359375], [-124.84046, 46.92359, -2328.815185546875], [-124.8403, 46.93193, -2336.689697265625], [-124.84714, 46.92761, -2956.148193359375]]], [[[-124.89253, 46.95622, -6797.94580078125], [-124.89802, 46.96448, -7016.5029296875], [-124.9012, 46.9565, -7572.609375], [-124.89253, 46.95622, -6797.94580078125]]], [[[-124.86939, 46.93299, -4945.32666015625], [-124.86441, 46.94088, -4494.45068359375], [-124.87317, 46.94101, -5282.7412109375], [-124.86939, 46.93299, -4945.32666015625]]], [[[-124.88084, 46.91733, -5877.037109375], [-124.89051, 46.91902, -6764.38671875], [-124.88611, 46.90995, -6172.73583984375], [-124.88084, 46.91733, -5877.037109375]]], [[[-124.89794, 46.89453, -6696.6943359375], [-124.9036, 46.88698, -6994.4814453125], [-124.8952, 46.88687, -6237.79443359375], [-124.89794, 46.89453, -6696.6943359375]]], [[[-124.91581, 46.95247, -8977.7685546875], [-124.92398, 46.9558, -9653.8896484375], [-124.92205, 46.94726, -9626.46875], [-124.91581, 46.95247, -8977.7685546875]]], [[[-124.86922, 46.94872, -4845.0634765625], [-124.86577, 46.95637, -4374.23388671875], [-124.87454, 46.95651, -5162.53271484375], [-124.86922, 46.94872, -4845.0634765625]]], [[[-124.85597, 46.89399, -2911.26953125], [-124.86436, 46.8941, -3668.3544921875], [-124.8616, 46.88644, -3211.04736328125], [-124.85597, 46.89399, -2911.26953125]]], [[[-124.88047, 46.96422, -5440.98486328125], [-124.8717, 46.96409, -4653.2255859375], [-124.87763, 46.9718, -4931.46337890625], [-124.88047, 46.96422, -5440.98486328125]]], [[[-124.86441, 46.94088, -4494.45068359375], [-124.86044, 46.94858, -4057.29443359375], [-124.86922, 46.94872, -4845.0634765625], [-124.86441, 46.94088, -4494.45068359375]]], [[[-124.9012, 46.9565, -7572.609375], [-124.9068, 46.96461, -7804.26171875], [-124.90992, 46.95778, -8320.537109375], [-124.9012, 46.9565, -7572.609375]]], [[[-124.85557, 46.94074, -3698.922119140625], [-124.86044, 46.94858, -4057.29443359375], [-124.86441, 46.94088, -4494.45068359375], [-124.85557, 46.94074, -3698.922119140625]]], [[[-124.91409, 46.94357, -8958.0537109375], [-124.92205, 46.94726, -9626.46875], [-124.92101, 46.93863, -9593.3154296875], [-124.91409, 46.94357, -8958.0537109375]]], [[[-124.88115, 46.89432, -5182.5244140625], [-124.8868, 46.88676, -5481.10791015625], [-124.8784, 46.88666, -4724.4208984375], [-124.88115, 46.89432, -5182.5244140625]]], [[[-124.85694, 46.95623, -3580.1982421875], [-124.85414, 46.96383, -3077.707763671875], [-124.86292, 46.96396, -3865.466796875], [-124.85694, 46.95623, -3580.1982421875]]], [[[-124.85557, 46.94074, -3698.922119140625], [-124.85134, 46.94851, -3238.801025390625], [-124.86044, 46.94858, -4057.29443359375], [-124.85557, 46.94074, -3698.922119140625]]], [[[-124.89421, 46.90977, -6893.06787109375], [-124.90017, 46.9017, -7183.814453125], [-124.89172, 46.90199, -6435.58154296875], [-124.89421, 46.90977, -6893.06787109375]]], [[[-124.87799, 46.94885, -5632.83251953125], [-124.87454, 46.95651, -5162.53271484375], [-124.88336, 46.9566, -5956.85205078125], [-124.87799, 46.94885, -5632.83251953125]]], [[[-124.85557, 46.94074, -3698.922119140625], [-124.84656, 46.94251, -2884.559326171875], [-124.85134, 46.94851, -3238.801025390625], [-124.85557, 46.94074, -3698.922119140625]]], [[[-124.86922, 46.94872, -4845.0634765625], [-124.86044, 46.94858, -4057.29443359375], [-124.86577, 46.95637, -4374.23388671875], [-124.86922, 46.94872, -4845.0634765625]]], [[[-124.90635, 46.89469, -7457.1474609375], [-124.9036, 46.88698, -6994.4814453125], [-124.89794, 46.89453, -6696.6943359375], [-124.90635, 46.89469, -7457.1474609375]]], [[[-124.8717, 46.96409, -4653.2255859375], [-124.86292, 46.96396, -3865.466796875], [-124.86886, 46.97167, -4143.37109375], [-124.8717, 46.96409, -4653.2255859375]]], [[[-124.85557, 46.94074, -3698.922119140625], [-124.84782, 46.93592, -3013.013427734375], [-124.84656, 46.94251, -2884.559326171875], [-124.85557, 46.94074, -3698.922119140625]]], [[[-124.88925, 46.96435, -6228.74365234375], [-124.88047, 46.96422, -5440.98486328125], [-124.88641, 46.97193, -5719.5556640625], [-124.88925, 46.96435, -6228.74365234375]]], [[[-124.85451, 46.93217, -3611.09326171875], [-124.84782, 46.93592, -3013.013427734375], [-124.85557, 46.94074, -3698.922119140625], [-124.85451, 46.93217, -3611.09326171875]]], [[[-124.85451, 46.93217, -3611.09326171875], [-124.84714, 46.92761, -2956.148193359375], [-124.84782, 46.93592, -3013.013427734375], [-124.85451, 46.93217, -3611.09326171875]]], [[[-124.90723, 46.94919, -8259.5908203125], [-124.90992, 46.95778, -8320.537109375], [-124.91581, 46.95247, -8977.7685546875], [-124.90723, 46.94919, -8259.5908203125]]], [[[-124.90613, 46.92147, -8189.22802734375], [-124.90599, 46.93065, -8233.0205078125], [-124.91324, 46.9259, -8871.8994140625], [-124.90613, 46.92147, -8189.22802734375]]], [[[-124.86292, 46.96396, -3865.466796875], [-124.85414, 46.96383, -3077.707763671875], [-124.86009, 46.97154, -3355.278564453125], [-124.86292, 46.96396, -3865.466796875]]], [[[-124.85451, 46.93217, -3611.09326171875], [-124.85315, 46.92476, -3477.668701171875], [-124.84714, 46.92761, -2956.148193359375], [-124.85451, 46.93217, -3611.09326171875]]], [[[-124.85414, 46.96383, -3077.707763671875], [-124.85132, 46.9714, -2567.18603515625], [-124.86009, 46.97154, -3355.278564453125], [-124.85414, 46.96383, -3077.707763671875]]], [[[-124.9204, 46.88719, -8507.85546875], [-124.91443, 46.89436, -8166.69970703125], [-124.92378, 46.89153, -8893.212890625], [-124.9204, 46.88719, -8507.85546875]]], [[[-124.88047, 46.96422, -5440.98486328125], [-124.87763, 46.9718, -4931.46337890625], [-124.88641, 46.97193, -5719.5556640625], [-124.88047, 46.96422, -5440.98486328125]]], [[[-124.85942, 46.92442, -4036.209228515625], [-124.85315, 46.92476, -3477.668701171875], [-124.85451, 46.93217, -3611.09326171875], [-124.85942, 46.92442, -4036.209228515625]]], [[[-124.9068, 46.96461, -7804.26171875], [-124.89802, 46.96448, -7016.5029296875], [-124.90395, 46.9722, -7295.740234375], [-124.9068, 46.96461, -7804.26171875]]], [[[-124.87454, 46.95651, -5162.53271484375], [-124.8717, 46.96409, -4653.2255859375], [-124.88047, 46.96422, -5440.98486328125], [-124.87454, 46.95651, -5162.53271484375]]], [[[-124.867, 46.92484, -4718.95703125], [-124.86363, 46.91692, -4324.01318359375], [-124.85942, 46.92442, -4036.209228515625], [-124.867, 46.92484, -4718.95703125]]], [[[-124.89421, 46.90977, -6893.06787109375], [-124.90183, 46.90809, -7520.7236328125], [-124.90017, 46.9017, -7183.814453125], [-124.89421, 46.90977, -6893.06787109375]]], [[[-124.87541, 46.92499, -5474.40478515625], [-124.87778, 46.93319, -5698.1689453125], [-124.88402, 46.92548, -6250.18798828125], [-124.87541, 46.92499, -5474.40478515625]]], [[[-124.88402, 46.92548, -6250.18798828125], [-124.89051, 46.91902, -6764.38671875], [-124.88084, 46.91733, -5877.037109375], [-124.88402, 46.92548, -6250.18798828125]]], [[[-124.85809, 46.90156, -3410.554443359375], [-124.86436, 46.8941, -3668.3544921875], [-124.85597, 46.89399, -2911.26953125], [-124.85809, 46.90156, -3410.554443359375]]], [[[-124.84119, 46.94833, -2328.210205078125], [-124.83262, 46.94435, -1621.9736328125], [-124.83615, 46.95451, -1754.9393310546875], [-124.84119, 46.94833, -2328.210205078125]]], [[[-124.90736, 46.91226, -8133.99755859375], [-124.91557, 46.9081, -8750.931640625], [-124.90936, 46.90274, -8036.9736328125], [-124.90736, 46.91226, -8133.99755859375]]], [[[-124.87317, 46.94101, -5282.7412109375], [-124.87799, 46.94885, -5632.83251953125], [-124.88212, 46.94121, -6087.32421875], [-124.87317, 46.94101, -5282.7412109375]]], [[[-124.84782, 46.93592, -3013.013427734375], [-124.8403, 46.93193, -2336.689697265625], [-124.83967, 46.93981, -2270.807861328125], [-124.84782, 46.93592, -3013.013427734375]]], [[[-124.90017, 46.9017, -7183.814453125], [-124.90635, 46.89469, -7457.1474609375], [-124.89794, 46.89453, -6696.6943359375], [-124.90017, 46.9017, -7183.814453125]]], [[[-124.86044, 46.94858, -4057.29443359375], [-124.85694, 46.95623, -3580.1982421875], [-124.86577, 46.95637, -4374.23388671875], [-124.86044, 46.94858, -4057.29443359375]]], [[[-124.92378, 46.89153, -8893.212890625], [-124.92657, 46.89578, -9317.5361328125], [-124.9288, 46.88729, -9264.5419921875], [-124.92378, 46.89153, -8893.212890625]]], [[[-124.87799, 46.94885, -5632.83251953125], [-124.86922, 46.94872, -4845.0634765625], [-124.87454, 46.95651, -5162.53271484375], [-124.87799, 46.94885, -5632.83251953125]]], [[[-124.87317, 46.94101, -5282.7412109375], [-124.86922, 46.94872, -4845.0634765625], [-124.87799, 46.94885, -5632.83251953125], [-124.87317, 46.94101, -5282.7412109375]]], [[[-124.88611, 46.90995, -6172.73583984375], [-124.89421, 46.90977, -6893.06787109375], [-124.89172, 46.90199, -6435.58154296875], [-124.88611, 46.90995, -6172.73583984375]]], [[[-124.87454, 46.95651, -5162.53271484375], [-124.88047, 46.96422, -5440.98486328125], [-124.88336, 46.9566, -5956.85205078125], [-124.87454, 46.95651, -5162.53271484375]]], [[[-124.86577, 46.95637, -4374.23388671875], [-124.8717, 46.96409, -4653.2255859375], [-124.87454, 46.95651, -5162.53271484375], [-124.86577, 46.95637, -4374.23388671875]]], [[[-124.84202, 46.91534, -2347.552978515625], [-124.83527, 46.91095, -1636.6788330078125], [-124.83357, 46.91891, -1662.330322265625], [-124.84202, 46.91534, -2347.552978515625]]], [[[-124.8717, 46.96409, -4653.2255859375], [-124.86577, 46.95637, -4374.23388671875], [-124.86292, 46.96396, -3865.466796875], [-124.8717, 46.96409, -4653.2255859375]]], [[[-124.8717, 46.96409, -4653.2255859375], [-124.86886, 46.97167, -4143.37109375], [-124.87763, 46.9718, -4931.46337890625], [-124.8717, 46.96409, -4653.2255859375]]], [[[-124.88925, 46.96435, -6228.74365234375], [-124.88336, 46.9566, -5956.85205078125], [-124.88047, 46.96422, -5440.98486328125], [-124.88925, 46.96435, -6228.74365234375]]], [[[-124.87276, 46.89421, -4425.439453125], [-124.8784, 46.88666, -4724.4208984375], [-124.87, 46.88655, -3967.734130859375], [-124.87276, 46.89421, -4425.439453125]]], [[[-124.88336, 46.9566, -5956.85205078125], [-124.88925, 46.96435, -6228.74365234375], [-124.89253, 46.95622, -6797.94580078125], [-124.88336, 46.9566, -5956.85205078125]]], [[[-124.86914, 46.90933, -4632.07080078125], [-124.87754, 46.90944, -5388.62744140625], [-124.8749, 46.90178, -4923.06787109375], [-124.86914, 46.90933, -4632.07080078125]]], [[[-124.8448, 46.88622, -1697.6737060546875], [-124.84696, 46.89444, -2123.98046875], [-124.8532, 46.88633, -2454.360595703125], [-124.8448, 46.88622, -1697.6737060546875]]], [[[-124.90992, 46.95778, -8320.537109375], [-124.90723, 46.94919, -8259.5908203125], [-124.9012, 46.9565, -7572.609375], [-124.90992, 46.95778, -8320.537109375]]], [[[-124.85597, 46.89399, -2911.26953125], [-124.8616, 46.88644, -3211.04736328125], [-124.8532, 46.88633, -2454.360595703125], [-124.85597, 46.89399, -2911.26953125]]], [[[-124.91807, 46.89903, -8699.3642578125], [-124.92378, 46.89153, -8893.212890625], [-124.91443, 46.89436, -8166.69970703125], [-124.91807, 46.89903, -8699.3642578125]]], [[[-124.91581, 46.95247, -8977.7685546875], [-124.92205, 46.94726, -9626.46875], [-124.91409, 46.94357, -8958.0537109375], [-124.91581, 46.95247, -8977.7685546875]]], [[[-124.91898, 46.96136, -9024.7744140625], [-124.92398, 46.9558, -9653.8896484375], [-124.91581, 46.95247, -8977.7685546875], [-124.91898, 46.96136, -9024.7744140625]]], [[[-124.90992, 46.95778, -8320.537109375], [-124.9068, 46.96461, -7804.26171875], [-124.91493, 46.9655, -8508.126953125], [-124.90992, 46.95778, -8320.537109375]]], [[[-124.91493, 46.9655, -8508.126953125], [-124.9068, 46.96461, -7804.26171875], [-124.91272, 46.97232, -8083.8330078125], [-124.91493, 46.9655, -8508.126953125]]], [[[-124.93027, 46.97258, -9660.017578125], [-124.92716, 46.96419, -9656.0078125], [-124.92435, 46.96832, -9262.1328125], [-124.93027, 46.97258, -9660.017578125]]], [[[-124.89802, 46.96448, -7016.5029296875], [-124.89518, 46.97206, -6507.64794921875], [-124.90395, 46.9722, -7295.740234375], [-124.89802, 46.96448, -7016.5029296875]]], [[[-124.84727, 46.95577, -2720.962890625], [-124.83615, 46.95451, -1754.9393310546875], [-124.84483, 46.96318, -2259.20166015625], [-124.84727, 46.95577, -2720.962890625]]], [[[-124.83357, 46.91891, -1662.330322265625], [-124.82687, 46.91435, -965.5228881835938], [-124.82585, 46.92313, -1015.94384765625], [-124.83357, 46.91891, -1662.330322265625]]], [[[-124.83155, 46.89791, -896.77490234375], [-124.82561, 46.89412, -196.76528930664062], [-124.8223, 46.90211, -222.3817596435547], [-124.83155, 46.89791, -896.77490234375]]], [[[-124.83155, 46.89791, -896.77490234375], [-124.83127, 46.89016, -551.7238159179688], [-124.82561, 46.89412, -196.76528930664062], [-124.83155, 46.89791, -896.77490234375]]], [[[-124.90736, 46.91226, -8133.99755859375], [-124.90613, 46.92147, -8189.22802734375], [-124.91381, 46.91692, -8824.09375], [-124.90736, 46.91226, -8133.99755859375]]], [[[-124.82687, 46.91435, -965.5228881835938], [-124.82871, 46.90653, -927.1032104492188], [-124.81986, 46.91024, -237.93136596679688], [-124.82687, 46.91435, -965.5228881835938]]], [[[-124.82491, 46.93158, -956.0847778320312], [-124.81792, 46.92675, -334.6343078613281], [-124.817, 46.935, -241.95399475097656], [-124.82491, 46.93158, -956.0847778320312]]], [[[-124.85167, 46.9095, -3072.94140625], [-124.86073, 46.90922, -3875.514404296875], [-124.85809, 46.90156, -3410.554443359375], [-124.85167, 46.9095, -3072.94140625]]], [[[-124.89051, 46.91902, -6764.38671875], [-124.89421, 46.90977, -6893.06787109375], [-124.88611, 46.90995, -6172.73583984375], [-124.89051, 46.91902, -6764.38671875]]], [[[-124.89825, 46.92589, -7529.08837890625], [-124.90613, 46.92147, -8189.22802734375], [-124.89923, 46.91671, -7511.69091796875], [-124.89825, 46.92589, -7529.08837890625]]], [[[-124.89923, 46.91671, -7511.69091796875], [-124.90736, 46.91226, -8133.99755859375], [-124.90183, 46.90809, -7520.7236328125], [-124.89923, 46.91671, -7511.69091796875]]], [[[-124.8749, 46.90178, -4923.06787109375], [-124.87276, 46.89421, -4425.439453125], [-124.86649, 46.90167, -4166.81103515625], [-124.8749, 46.90178, -4923.06787109375]]], [[[-124.84046, 46.92359, -2328.815185546875], [-124.84202, 46.91534, -2347.552978515625], [-124.83357, 46.91891, -1662.330322265625], [-124.84046, 46.92359, -2328.815185546875]]], [[[-124.8485, 46.9185, -2995.79833984375], [-124.84202, 46.91534, -2347.552978515625], [-124.84046, 46.92359, -2328.815185546875], [-124.8485, 46.9185, -2995.79833984375]]], [[[-124.8485, 46.9185, -2995.79833984375], [-124.85167, 46.9095, -3072.94140625], [-124.84202, 46.91534, -2347.552978515625], [-124.8485, 46.9185, -2995.79833984375]]], [[[-124.84046, 46.92359, -2328.815185546875], [-124.83357, 46.91891, -1662.330322265625], [-124.83268, 46.92771, -1658.3717041015625], [-124.84046, 46.92359, -2328.815185546875]]], [[[-124.8403, 46.93193, -2336.689697265625], [-124.84046, 46.92359, -2328.815185546875], [-124.83268, 46.92771, -1658.3717041015625], [-124.8403, 46.93193, -2336.689697265625]]], [[[-124.8403, 46.93193, -2336.689697265625], [-124.83268, 46.92771, -1658.3717041015625], [-124.83259, 46.93553, -1643.92236328125], [-124.8403, 46.93193, -2336.689697265625]]], [[[-124.8403, 46.93193, -2336.689697265625], [-124.83259, 46.93553, -1643.92236328125], [-124.83967, 46.93981, -2270.807861328125], [-124.8403, 46.93193, -2336.689697265625]]], [[[-124.84379, 46.908, -2320.634521484375], [-124.83841, 46.90262, -1680.509765625], [-124.83527, 46.91095, -1636.6788330078125], [-124.84379, 46.908, -2320.634521484375]]], [[[-124.83841, 46.90262, -1680.509765625], [-124.84379, 46.908, -2320.634521484375], [-124.84915, 46.90146, -2607.73095703125], [-124.83841, 46.90262, -1680.509765625]]], [[[-124.825, 46.971, -202.90899658203125], [-124.82964, 46.96497, -826.9791259765625], [-124.82203, 46.96209, -237.39524841308594], [-124.825, 46.971, -202.90899658203125]]], [[[-124.82964, 46.96497, -826.9791259765625], [-124.825, 46.971, -202.90899658203125], [-124.83377, 46.97114, -991.0014038085938], [-124.82964, 46.96497, -826.9791259765625]]], [[[-124.85694, 46.95623, -3580.1982421875], [-124.86292, 46.96396, -3865.466796875], [-124.86577, 46.95637, -4374.23388671875], [-124.85694, 46.95623, -3580.1982421875]]], [[[-124.867, 46.92484, -4718.95703125], [-124.85942, 46.92442, -4036.209228515625], [-124.86125, 46.93293, -4215.0146484375], [-124.867, 46.92484, -4718.95703125]]], [[[-124.86125, 46.93293, -4215.0146484375], [-124.85942, 46.92442, -4036.209228515625], [-124.85451, 46.93217, -3611.09326171875], [-124.86125, 46.93293, -4215.0146484375]]], [[[-124.86125, 46.93293, -4215.0146484375], [-124.85451, 46.93217, -3611.09326171875], [-124.85557, 46.94074, -3698.922119140625], [-124.86125, 46.93293, -4215.0146484375]]], [[[-124.86125, 46.93293, -4215.0146484375], [-124.85557, 46.94074, -3698.922119140625], [-124.86441, 46.94088, -4494.45068359375], [-124.86125, 46.93293, -4215.0146484375]]]]}}]}