{"type": "FeatureCollection", "features": [{"type": "Feature", "properties": {"name": "AW_WASH_65", "CFM_ID": 403, "region": "Offshore_WAOR", "primary_state/province": "WA", "secondary_state/province": null, "avg_dip": 50, "dip_dir": "W", "rake": -90, "slip_sense": "Normal", "fault_level": 1, "NSHM23_sliprates": null, "QFFDAgeCatBin": "late Quaternary", "QFFDAgeBin": "<130,000", "upper_depth": -0.6, "upper_depth_constraint": "bathymetry", "lower_depth": -8.4, "lower_depth_constraint": "megathrust", "3D_model_constraints": "trace extended at constant dip", "reference": "McNeill 97 and 98", "nshm23_id": null, "lineage": null, "usgs_qffd_#": "593", "comments": null, "id": "403"}, "geometry": {"type": "MultiPolygon", "coordinates": [[[[-124.83063, 46.93492, -8114.0107421875], [-124.83774, 46.92743, -8563.8740234375], [-124.83099, 46.92331, -7723.17578125], [-124.83063, 46.93492, -8114.0107421875]]], [[[-124.75812, 46.91716, -862.1153564453125], [-124.75009, 46.92115, -165.85092163085938], [-124.75681, 46.92639, -887.9552001953125], [-124.75812, 46.91716, -862.1153564453125]]], [[[-124.76156, 46.96134, -1614.5732421875], [-124.75854, 46.95462, -1665.3187255859375], [-124.75187, 46.95946, -880.05859375], [-124.76156, 46.96134, -1614.5732421875]]], [[[-124.77121, 46.96268, -2373.483154296875], [-124.76656, 46.96855, -1638.9798583984375], [-124.77622, 46.96985, -2392.151611328125], [-124.77121, 46.96268, -2373.483154296875]]], [[[-124.87215, 46.98939, -9182.833984375], [-124.88179, 46.99145, -9916.1318359375], [-124.87668, 46.98349, -9941.5419921875], [-124.87215, 46.98939, -9182.833984375]]], [[[-124.79577, 46.92694, -4532.3359375], [-124.8011, 46.91748, -4812.8759765625], [-124.79295, 46.91821, -4072.36181640625], [-124.79577, 46.92694, -4532.3359375]]], [[[-124.81155, 46.94184, -6486.17822265625], [-124.82171, 46.94134, -7409.6494140625], [-124.81574, 46.93309, -6696.3388671875], [-124.81155, 46.94184, -6486.17822265625]]], [[[-124.807, 46.89994, -5491.14501953125], [-124.79801, 46.89289, -5344.10986328125], [-124.79885, 46.90067, -4750.86328125], [-124.807, 46.89994, -5491.14501953125]]], [[[-124.83099, 46.92331, -7723.17578125], [-124.82119, 46.92401, -6823.97998046875], [-124.82441, 46.93101, -7448.857421875], [-124.83099, 46.92331, -7723.17578125]]], [[[-124.85284, 46.92562, -9920.2919921875], [-124.85229, 46.93429, -10110.01953125], [-124.85939, 46.93016, -10684.5341796875], [-124.85284, 46.92562, -9920.2919921875]]], [[[-124.75187, 46.95946, -880.05859375], [-124.742, 46.957, -162.53799438476562], [-124.74718, 46.96527, -164.91424560546875], [-124.75187, 46.95946, -880.05859375]]], [[[-124.83677, 47.04496, -5859.70556640625], [-124.83206, 47.05363, -5598.53857421875], [-124.84063, 47.05286, -6376.7666015625], [-124.83677, 47.04496, -5859.70556640625]]], [[[-124.84497, 46.93838, -9516.044921875], [-124.85205, 46.94166, -10165.9140625], [-124.85229, 46.93429, -10110.01953125], [-124.84497, 46.93838, -9516.044921875]]], [[[-124.78468, 46.91896, -3320.201171875], [-124.79295, 46.91821, -4072.36181640625], [-124.78878, 46.9101, -3605.0625], [-124.78468, 46.91896, -3320.201171875]]], [[[-124.79885, 46.90067, -4750.86328125], [-124.79801, 46.89289, -5344.10986328125], [-124.78987, 46.89362, -4603.83837890625], [-124.79885, 46.90067, -4750.86328125]]], [[[-124.77576, 46.99056, -897.023681640625], [-124.77197, 46.99696, -166.42800903320312], [-124.7816, 46.99926, -887.2612915039062], [-124.77576, 46.99056, -897.023681640625]]], [[[-124.8298, 46.9468, -8142.61181640625], [-124.83865, 46.95185, -8757.806640625], [-124.83727, 46.94005, -8824.140625], [-124.8298, 46.9468, -8142.61181640625]]], [[[-124.85229, 46.93429, -10110.01953125], [-124.85205, 46.94166, -10165.9140625], [-124.85856, 46.93782, -10759.02734375], [-124.85229, 46.93429, -10110.01953125]]], [[[-124.78097, 46.96404, -3132.793701171875], [-124.77121, 46.96268, -2373.483154296875], [-124.77622, 46.96985, -2392.151611328125], [-124.78097, 46.96404, -3132.793701171875]]], [[[-124.76443, 46.9125, -1393.9569091796875], [-124.75812, 46.91716, -862.1153564453125], [-124.76583, 46.922, -1633.88818359375], [-124.76443, 46.9125, -1393.9569091796875]]], [[[-124.84848, 46.9557, -9398.6767578125], [-124.85341, 46.94983, -10137.58203125], [-124.84439, 46.94607, -9468.0947265625], [-124.84848, 46.9557, -9398.6767578125]]], [[[-124.85503, 46.91695, -9805.5625], [-124.85284, 46.92562, -9920.2919921875], [-124.8618, 46.92155, -10582.17578125], [-124.85503, 46.91695, -9805.5625]]], [[[-124.74978, 46.95227, -870.5616455078125], [-124.74203, 46.94784, -164.97267150878906], [-124.742, 46.957, -162.53799438476562], [-124.74978, 46.95227, -870.5616455078125]]], [[[-124.86057, 46.97362, -9267.439453125], [-124.87066, 46.9755, -9978.8291015625], [-124.86439, 46.96741, -10022.7138671875], [-124.86057, 46.97362, -9267.439453125]]], [[[-124.8921, 47.04823, -11046.1376953125], [-124.89314, 47.03918, -10960.1064453125], [-124.88834, 47.04409, -10613.4560546875], [-124.8921, 47.04823, -11046.1376953125]]], [[[-124.80712, 46.9336, -5907.21923828125], [-124.81279, 46.92483, -6060.56640625], [-124.80461, 46.92561, -5315.95654296875], [-124.80712, 46.9336, -5907.21923828125]]], [[[-124.76443, 46.9125, -1393.9569091796875], [-124.75674, 46.90617, -872.89306640625], [-124.75812, 46.91716, -862.1153564453125], [-124.76443, 46.9125, -1393.9569091796875]]], [[[-124.82171, 46.94134, -7409.6494140625], [-124.81643, 46.94979, -6927.09130859375], [-124.82466, 46.95354, -7463.140625], [-124.82171, 46.94134, -7409.6494140625]]], [[[-124.78624, 46.97172, -3128.412353515625], [-124.78225, 46.97754, -2372.21728515625], [-124.79276, 46.98013, -3074.090087890625], [-124.78624, 46.97172, -3128.412353515625]]], [[[-124.83063, 46.93492, -8114.0107421875], [-124.83099, 46.92331, -7723.17578125], [-124.82441, 46.93101, -7448.857421875], [-124.83063, 46.93492, -8114.0107421875]]], [[[-124.78837, 46.92704, -3833.853759765625], [-124.78559, 46.93649, -3970.16845703125], [-124.79577, 46.92694, -4532.3359375], [-124.78837, 46.92704, -3833.853759765625]]], [[[-124.78256, 46.90213, -3270.30078125], [-124.78172, 46.89435, -3863.566650390625], [-124.77358, 46.89508, -3123.295166015625], [-124.78256, 46.90213, -3270.30078125]]], [[[-124.84798, 46.90446, -8984.4111328125], [-124.85554, 46.90025, -9765.6162109375], [-124.84725, 46.8961, -9156.68359375], [-124.84798, 46.90446, -8984.4111328125]]], [[[-124.77486, 46.94289, -3106.487060546875], [-124.76817, 46.93782, -2381.6142578125], [-124.76554, 46.94746, -2303.777587890625], [-124.77486, 46.94289, -3106.487060546875]]], [[[-124.84619, 46.92135, -9090.9990234375], [-124.85503, 46.91695, -9805.5625], [-124.84727, 46.91249, -9000.5322265625], [-124.84619, 46.92135, -9090.9990234375]]], [[[-124.77228, 46.97603, -1641.8736572265625], [-124.76243, 46.97477, -901.9795532226562], [-124.76902, 46.98244, -902.7129516601562], [-124.77228, 46.97603, -1641.8736572265625]]], [[[-124.78932, 46.98637, -2324.9189453125], [-124.78225, 46.97754, -2372.21728515625], [-124.77895, 46.984, -1625.08203125], [-124.78932, 46.98637, -2324.9189453125]]], [[[-124.77228, 46.97603, -1641.8736572265625], [-124.77622, 46.96985, -2392.151611328125], [-124.76656, 46.96855, -1638.9798583984375], [-124.77228, 46.97603, -1641.8736572265625]]], [[[-124.76656, 46.96855, -1638.9798583984375], [-124.77121, 46.96268, -2373.483154296875], [-124.76156, 46.96134, -1614.5732421875], [-124.76656, 46.96855, -1638.9798583984375]]], [[[-124.83865, 46.95185, -8757.806640625], [-124.84416, 46.96211, -8660.83203125], [-124.84848, 46.9557, -9398.6767578125], [-124.83865, 46.95185, -8757.806640625]]], [[[-124.7816, 46.99926, -887.2612915039062], [-124.77665, 47.00536, -166.50161743164062], [-124.78529, 47.00926, -873.4118041992188], [-124.7816, 46.99926, -887.2612915039062]]], [[[-124.77442, 46.90286, -2530.01953125], [-124.77358, 46.89508, -3123.295166015625], [-124.76544, 46.89581, -2383.023681640625], [-124.77442, 46.90286, -2530.01953125]]], [[[-124.84439, 46.94607, -9468.0947265625], [-124.85341, 46.94983, -10137.58203125], [-124.85205, 46.94166, -10165.9140625], [-124.84439, 46.94607, -9468.0947265625]]], [[[-124.86677, 46.98162, -9217.9697265625], [-124.87066, 46.9755, -9978.8291015625], [-124.86057, 46.97362, -9267.439453125], [-124.86677, 46.98162, -9217.9697265625]]], [[[-124.76587, 46.90373, -1750.8782958984375], [-124.75729, 46.89654, -1642.7520751953125], [-124.75674, 46.90617, -872.89306640625], [-124.76587, 46.90373, -1750.8782958984375]]], [[[-124.77228, 46.97603, -1641.8736572265625], [-124.78225, 46.97754, -2372.21728515625], [-124.77622, 46.96985, -2392.151611328125], [-124.77228, 46.97603, -1641.8736572265625]]], [[[-124.75854, 46.95462, -1665.3187255859375], [-124.74978, 46.95227, -870.5616455078125], [-124.75187, 46.95946, -880.05859375], [-124.75854, 46.95462, -1665.3187255859375]]], [[[-124.78624, 46.97172, -3128.412353515625], [-124.78097, 46.96404, -3132.793701171875], [-124.77622, 46.96985, -2392.151611328125], [-124.78624, 46.97172, -3128.412353515625]]], [[[-124.86057, 46.97362, -9267.439453125], [-124.86439, 46.96741, -10022.7138671875], [-124.85426, 46.96519, -9329.458984375], [-124.86057, 46.97362, -9267.439453125]]], [[[-124.8214, 46.97637, -5764.0478515625], [-124.83147, 46.98016, -6333.9951171875], [-124.82571, 46.97067, -6529.626953125], [-124.8214, 46.97637, -5764.0478515625]]], [[[-124.75187, 46.95946, -880.05859375], [-124.74718, 46.96527, -164.91424560546875], [-124.75692, 46.96718, -890.9230346679688], [-124.75187, 46.95946, -880.05859375]]], [[[-124.80343, 46.98348, -3727.104736328125], [-124.79979, 46.98995, -2982.716552734375], [-124.81124, 46.99433, -3684.370849609375], [-124.80343, 46.98348, -3727.104736328125]]], [[[-124.79071, 46.9014, -4010.58203125], [-124.78172, 46.89435, -3863.566650390625], [-124.78256, 46.90213, -3270.30078125], [-124.79071, 46.9014, -4010.58203125]]], [[[-124.75327, 46.93589, -901.1407470703125], [-124.7482, 46.9301, -165.0470733642578], [-124.7441, 46.9388, -165.3987579345703], [-124.75327, 46.93589, -901.1407470703125]]], [[[-124.80461, 46.92561, -5315.95654296875], [-124.8011, 46.91748, -4812.8759765625], [-124.79577, 46.92694, -4532.3359375], [-124.80461, 46.92561, -5315.95654296875]]], [[[-124.83416, 46.95819, -8028.98876953125], [-124.83865, 46.95185, -8757.806640625], [-124.8298, 46.9468, -8142.61181640625], [-124.83416, 46.95819, -8028.98876953125]]], [[[-124.82171, 46.94134, -7409.6494140625], [-124.82466, 46.95354, -7463.140625], [-124.8298, 46.9468, -8142.61181640625], [-124.82171, 46.94134, -7409.6494140625]]], [[[-124.83143, 46.89774, -7711.98876953125], [-124.82244, 46.89069, -7564.92431640625], [-124.82328, 46.89847, -6971.70751953125], [-124.83143, 46.89774, -7711.98876953125]]], [[[-124.75854, 46.95462, -1665.3187255859375], [-124.76758, 46.95601, -2417.41455078125], [-124.76554, 46.94746, -2303.777587890625], [-124.75854, 46.95462, -1665.3187255859375]]], [[[-124.78037, 46.92769, -3102.498779296875], [-124.77155, 46.92884, -2310.642822265625], [-124.77681, 46.93485, -3098.995849609375], [-124.78037, 46.92769, -3102.498779296875]]], [[[-124.77895, 46.984, -1625.08203125], [-124.76902, 46.98244, -902.7129516601562], [-124.77576, 46.99056, -897.023681640625], [-124.77895, 46.984, -1625.08203125]]], [[[-124.83762, 46.91574, -8166.2294921875], [-124.8389, 46.90601, -8165.8857421875], [-124.83022, 46.90696, -7378.59423828125], [-124.83762, 46.91574, -8166.2294921875]]], [[[-124.77486, 46.94289, -3106.487060546875], [-124.78559, 46.93649, -3970.16845703125], [-124.77681, 46.93485, -3098.995849609375], [-124.77486, 46.94289, -3106.487060546875]]], [[[-124.82119, 46.92401, -6823.97998046875], [-124.83099, 46.92331, -7723.17578125], [-124.82665, 46.91538, -7140.61083984375], [-124.82119, 46.92401, -6823.97998046875]]], [[[-124.75729, 46.94816, -1553.9560546875], [-124.76554, 46.94746, -2303.777587890625], [-124.75952, 46.94086, -1642.6207275390625], [-124.75729, 46.94816, -1553.9560546875]]], [[[-124.80461, 46.92561, -5315.95654296875], [-124.80924, 46.91674, -5553.39111328125], [-124.8011, 46.91748, -4812.8759765625], [-124.80461, 46.92561, -5315.95654296875]]], [[[-124.79295, 46.91821, -4072.36181640625], [-124.79692, 46.90937, -4345.45263671875], [-124.78878, 46.9101, -3605.0625], [-124.79295, 46.91821, -4072.36181640625]]], [[[-124.7834, 47.04782, -980.032958984375], [-124.77595, 47.04121, -156.0681610107422], [-124.77398, 47.05011, -155.40528869628906], [-124.7834, 47.04782, -980.032958984375]]], [[[-124.81574, 46.93309, -6696.3388671875], [-124.82441, 46.93101, -7448.857421875], [-124.82119, 46.92401, -6823.97998046875], [-124.81574, 46.93309, -6696.3388671875]]], [[[-124.77228, 46.97603, -1641.8736572265625], [-124.76656, 46.96855, -1638.9798583984375], [-124.76243, 46.97477, -901.9795532226562], [-124.77228, 46.97603, -1641.8736572265625]]], [[[-124.78837, 46.92704, -3833.853759765625], [-124.79295, 46.91821, -4072.36181640625], [-124.78468, 46.91896, -3320.201171875], [-124.78837, 46.92704, -3833.853759765625]]], [[[-124.85229, 46.93429, -10110.01953125], [-124.85856, 46.93782, -10759.02734375], [-124.85939, 46.93016, -10684.5341796875], [-124.85229, 46.93429, -10110.01953125]]], [[[-124.77215, 46.91199, -2096.9521484375], [-124.78053, 46.91098, -2856.126708984375], [-124.77442, 46.90286, -2530.01953125], [-124.77215, 46.91199, -2096.9521484375]]], [[[-124.75681, 46.92639, -887.9552001953125], [-124.75009, 46.92115, -165.85092163085938], [-124.7482, 46.9301, -165.0470733642578], [-124.75681, 46.92639, -887.9552001953125]]], [[[-124.87874, 47.02188, -9384.66796875], [-124.88634, 47.02623, -10114.3798828125], [-124.88642, 47.01696, -10052.3759765625], [-124.87874, 47.02188, -9384.66796875]]], [[[-124.83727, 46.94005, -8824.140625], [-124.84497, 46.93838, -9516.044921875], [-124.84458, 46.93132, -9334.9345703125], [-124.83727, 46.94005, -8824.140625]]], [[[-124.81514, 46.89921, -6231.42626953125], [-124.80616, 46.89216, -6084.38134765625], [-124.807, 46.89994, -5491.14501953125], [-124.81514, 46.89921, -6231.42626953125]]], [[[-124.75692, 46.96718, -890.9230346679688], [-124.74718, 46.96527, -164.91424560546875], [-124.75263, 46.97345, -163.69674682617188], [-124.75692, 46.96718, -890.9230346679688]]], [[[-124.83762, 46.91574, -8166.2294921875], [-124.84727, 46.91249, -9000.5322265625], [-124.8389, 46.90601, -8165.8857421875], [-124.83762, 46.91574, -8166.2294921875]]], [[[-124.80924, 46.91674, -5553.39111328125], [-124.80461, 46.92561, -5315.95654296875], [-124.81279, 46.92483, -6060.56640625], [-124.80924, 46.91674, -5553.39111328125]]], [[[-124.8214, 46.97637, -5764.0478515625], [-124.81617, 46.96656, -6005.63330078125], [-124.8111, 46.97118, -5261.77734375], [-124.8214, 46.97637, -5764.0478515625]]], [[[-124.78408, 47.03714, -856.8132934570312], [-124.77595, 47.04121, -156.0681610107422], [-124.7834, 47.04782, -980.032958984375], [-124.78408, 47.03714, -856.8132934570312]]], [[[-124.84619, 46.92135, -9090.9990234375], [-124.83774, 46.92743, -8563.8740234375], [-124.84458, 46.93132, -9334.9345703125], [-124.84619, 46.92135, -9090.9990234375]]], [[[-124.8389, 46.90601, -8165.8857421875], [-124.84727, 46.91249, -9000.5322265625], [-124.84798, 46.90446, -8984.4111328125], [-124.8389, 46.90601, -8165.8857421875]]], [[[-124.83993, 47.00269, -5856.900390625], [-124.85029, 46.99982, -6820.939453125], [-124.84139, 46.99583, -6215.84765625], [-124.83993, 47.00269, -5856.900390625]]], [[[-124.78683, 46.95791, -3973.519775390625], [-124.78097, 46.96404, -3132.793701171875], [-124.79076, 46.96562, -3881.704833984375], [-124.78683, 46.95791, -3973.519775390625]]], [[[-124.78408, 47.03714, -856.8132934570312], [-124.77697, 47.03225, -157.3347625732422], [-124.77595, 47.04121, -156.0681610107422], [-124.78408, 47.03714, -856.8132934570312]]], [[[-124.85426, 46.96519, -9329.458984375], [-124.86439, 46.96741, -10022.7138671875], [-124.85843, 46.959, -10063.1240234375], [-124.85426, 46.96519, -9329.458984375]]], [[[-124.84798, 46.90446, -8984.4111328125], [-124.84725, 46.8961, -9156.68359375], [-124.83978, 46.8972, -8464.6787109375], [-124.84798, 46.90446, -8984.4111328125]]], [[[-124.85462, 47.02636, -7209.85400390625], [-124.85865, 47.03473, -7675.38427734375], [-124.86318, 47.02583, -7989.20556640625], [-124.85462, 47.02636, -7209.85400390625]]], [[[-124.78527, 47.02819, -878.803955078125], [-124.77697, 47.03225, -157.3347625732422], [-124.78408, 47.03714, -856.8132934570312], [-124.78527, 47.02819, -878.803955078125]]], [[[-124.82171, 46.94134, -7409.6494140625], [-124.83063, 46.93492, -8114.0107421875], [-124.82441, 46.93101, -7448.857421875], [-124.82171, 46.94134, -7409.6494140625]]], [[[-124.82406, 47.02095, -4367.44140625], [-124.82001, 47.02981, -4074.387451171875], [-124.82859, 47.02905, -4852.4013671875], [-124.82406, 47.02095, -4367.44140625]]], [[[-124.85503, 46.91695, -9805.5625], [-124.8618, 46.92155, -10582.17578125], [-124.86345, 46.91257, -10498.025390625], [-124.85503, 46.91695, -9805.5625]]], [[[-124.79276, 46.98013, -3074.090087890625], [-124.78225, 46.97754, -2372.21728515625], [-124.78932, 46.98637, -2324.9189453125], [-124.79276, 46.98013, -3074.090087890625]]], [[[-124.79295, 46.91821, -4072.36181640625], [-124.8011, 46.91748, -4812.8759765625], [-124.79692, 46.90937, -4345.45263671875], [-124.79295, 46.91821, -4072.36181640625]]], [[[-124.84439, 46.94607, -9468.0947265625], [-124.85205, 46.94166, -10165.9140625], [-124.84497, 46.93838, -9516.044921875], [-124.84439, 46.94607, -9468.0947265625]]], [[[-124.77399, 46.9505, -3070.383544921875], [-124.76758, 46.95601, -2417.41455078125], [-124.77783, 46.95716, -3238.06640625], [-124.77399, 46.9505, -3070.383544921875]]], [[[-124.85229, 46.93429, -10110.01953125], [-124.85284, 46.92562, -9920.2919921875], [-124.84458, 46.93132, -9334.9345703125], [-124.85229, 46.93429, -10110.01953125]]], [[[-124.77399, 46.9505, -3070.383544921875], [-124.76554, 46.94746, -2303.777587890625], [-124.76758, 46.95601, -2417.41455078125], [-124.77399, 46.9505, -3070.383544921875]]], [[[-124.82328, 46.89847, -6971.70751953125], [-124.82244, 46.89069, -7564.92431640625], [-124.8143, 46.89143, -6824.65283203125], [-124.82328, 46.89847, -6971.70751953125]]], [[[-124.78624, 46.97172, -3128.412353515625], [-124.77622, 46.96985, -2392.151611328125], [-124.78225, 46.97754, -2372.21728515625], [-124.78624, 46.97172, -3128.412353515625]]], [[[-124.76156, 46.96134, -1614.5732421875], [-124.76758, 46.95601, -2417.41455078125], [-124.75854, 46.95462, -1665.3187255859375], [-124.76156, 46.96134, -1614.5732421875]]], [[[-124.78527, 47.02819, -878.803955078125], [-124.77797, 47.02328, -160.72055053710938], [-124.77697, 47.03225, -157.3347625732422], [-124.78527, 47.02819, -878.803955078125]]], [[[-124.75674, 46.90617, -872.89306640625], [-124.74842, 46.90526, -165.51889038085938], [-124.75099, 46.91312, -165.8785858154297], [-124.75674, 46.90617, -872.89306640625]]], [[[-124.75729, 46.94816, -1553.9560546875], [-124.75952, 46.94086, -1642.6207275390625], [-124.75061, 46.9441, -883.2279663085938], [-124.75729, 46.94816, -1553.9560546875]]], [[[-124.77215, 46.91199, -2096.9521484375], [-124.76587, 46.90373, -1750.8782958984375], [-124.76443, 46.9125, -1393.9569091796875], [-124.77215, 46.91199, -2096.9521484375]]], [[[-124.78058, 47.05823, -929.16748046875], [-124.7834, 47.04782, -980.032958984375], [-124.77398, 47.05011, -155.40528869628906], [-124.78058, 47.05823, -929.16748046875]]], [[[-124.84798, 46.90446, -8984.4111328125], [-124.85605, 46.9083, -9763.8779296875], [-124.85554, 46.90025, -9765.6162109375], [-124.84798, 46.90446, -8984.4111328125]]], [[[-124.75061, 46.9441, -883.2279663085938], [-124.74203, 46.94784, -164.97267150878906], [-124.74978, 46.95227, -870.5616455078125], [-124.75061, 46.9441, -883.2279663085938]]], [[[-124.82665, 46.91538, -7140.61083984375], [-124.83762, 46.91574, -8166.2294921875], [-124.83022, 46.90696, -7378.59423828125], [-124.82665, 46.91538, -7140.61083984375]]], [[[-124.78527, 47.02819, -878.803955078125], [-124.78588, 47.01881, -877.8621215820312], [-124.77797, 47.02328, -160.72055053710938], [-124.78527, 47.02819, -878.803955078125]]], [[[-124.79359, 47.02379, -1599.4796142578125], [-124.78588, 47.01881, -877.8621215820312], [-124.78527, 47.02819, -878.803955078125], [-124.79359, 47.02379, -1599.4796142578125]]], [[[-124.85605, 46.9083, -9763.8779296875], [-124.85503, 46.91695, -9805.5625], [-124.86345, 46.91257, -10498.025390625], [-124.85605, 46.9083, -9763.8779296875]]], [[[-124.75061, 46.9441, -883.2279663085938], [-124.7441, 46.9388, -165.3987579345703], [-124.74203, 46.94784, -164.97267150878906], [-124.75061, 46.9441, -883.2279663085938]]], [[[-124.85967, 47.00027, -7657.99755859375], [-124.86641, 46.99478, -8427.1396484375], [-124.8567, 46.9929, -7679.1494140625], [-124.85967, 47.00027, -7657.99755859375]]], [[[-124.807, 46.89994, -5491.14501953125], [-124.80507, 46.90864, -5085.8427734375], [-124.81321, 46.90791, -5826.2333984375], [-124.807, 46.89994, -5491.14501953125]]], [[[-124.76443, 46.9125, -1393.9569091796875], [-124.76587, 46.90373, -1750.8782958984375], [-124.75674, 46.90617, -872.89306640625], [-124.76443, 46.9125, -1393.9569091796875]]], [[[-124.75327, 46.93589, -901.1407470703125], [-124.7441, 46.9388, -165.3987579345703], [-124.75061, 46.9441, -883.2279663085938], [-124.75327, 46.93589, -901.1407470703125]]], [[[-124.79359, 47.02379, -1599.4796142578125], [-124.7935, 47.01378, -1572.0245361328125], [-124.78588, 47.01881, -877.8621215820312], [-124.79359, 47.02379, -1599.4796142578125]]], [[[-124.79359, 47.02379, -1599.4796142578125], [-124.8013, 47.01875, -2279.325927734375], [-124.7935, 47.01378, -1572.0245361328125], [-124.79359, 47.02379, -1599.4796142578125]]], [[[-124.77399, 46.9505, -3070.383544921875], [-124.77783, 46.95716, -3238.06640625], [-124.78266, 46.94744, -3858.837646484375], [-124.77399, 46.9505, -3070.383544921875]]], [[[-124.83022, 46.90696, -7378.59423828125], [-124.83143, 46.89774, -7711.98876953125], [-124.82328, 46.89847, -6971.70751953125], [-124.83022, 46.90696, -7378.59423828125]]], [[[-124.77783, 46.95716, -3238.06640625], [-124.78683, 46.95791, -3973.519775390625], [-124.78266, 46.94744, -3858.837646484375], [-124.77783, 46.95716, -3238.06640625]]], [[[-124.77486, 46.94289, -3106.487060546875], [-124.78266, 46.94744, -3858.837646484375], [-124.78559, 46.93649, -3970.16845703125], [-124.77486, 46.94289, -3106.487060546875]]], [[[-124.75327, 46.93589, -901.1407470703125], [-124.76252, 46.93213, -1605.2059326171875], [-124.75681, 46.92639, -887.9552001953125], [-124.75327, 46.93589, -901.1407470703125]]], [[[-124.79186, 46.94273, -4679.6982421875], [-124.7989, 46.94783, -5334.53076171875], [-124.80255, 46.94181, -5651.916015625], [-124.79186, 46.94273, -4679.6982421875]]], [[[-124.81738, 46.91601, -6293.9453125], [-124.81321, 46.90791, -5826.2333984375], [-124.80924, 46.91674, -5553.39111328125], [-124.81738, 46.91601, -6293.9453125]]], [[[-124.8013, 47.01875, -2279.325927734375], [-124.79359, 47.02379, -1599.4796142578125], [-124.80156, 47.03033, -2389.520263671875], [-124.8013, 47.01875, -2279.325927734375]]], [[[-124.83873, 46.88923, -9045.4677734375], [-124.83059, 46.88996, -8305.1962890625], [-124.83978, 46.8972, -8464.6787109375], [-124.83873, 46.88923, -9045.4677734375]]], [[[-124.79692, 46.90937, -4345.45263671875], [-124.79071, 46.9014, -4010.58203125], [-124.78878, 46.9101, -3605.0625], [-124.79692, 46.90937, -4345.45263671875]]], [[[-124.85462, 47.02636, -7209.85400390625], [-124.85007, 47.0355, -6897.30615234375], [-124.85865, 47.03473, -7675.38427734375], [-124.85462, 47.02636, -7209.85400390625]]], [[[-124.75952, 46.94086, -1642.6207275390625], [-124.75327, 46.93589, -901.1407470703125], [-124.75061, 46.9441, -883.2279663085938], [-124.75952, 46.94086, -1642.6207275390625]]], [[[-124.76758, 46.95601, -2417.41455078125], [-124.76156, 46.96134, -1614.5732421875], [-124.77121, 46.96268, -2373.483154296875], [-124.76758, 46.95601, -2417.41455078125]]], [[[-124.78529, 47.00926, -873.4118041992188], [-124.77665, 47.00536, -166.50161743164062], [-124.778, 47.01428, -164.1405029296875], [-124.78529, 47.00926, -873.4118041992188]]], [[[-124.78053, 46.91098, -2856.126708984375], [-124.78256, 46.90213, -3270.30078125], [-124.77442, 46.90286, -2530.01953125], [-124.78053, 46.91098, -2856.126708984375]]], [[[-124.80782, 47.02328, -2899.81591796875], [-124.8013, 47.01875, -2279.325927734375], [-124.80156, 47.03033, -2389.520263671875], [-124.80782, 47.02328, -2899.81591796875]]], [[[-124.83059, 46.88996, -8305.1962890625], [-124.83143, 46.89774, -7711.98876953125], [-124.83978, 46.8972, -8464.6787109375], [-124.83059, 46.88996, -8305.1962890625]]], [[[-124.82665, 46.91538, -7140.61083984375], [-124.83022, 46.90696, -7378.59423828125], [-124.82143, 46.9072, -6573.5498046875], [-124.82665, 46.91538, -7140.61083984375]]], [[[-124.79186, 46.94273, -4679.6982421875], [-124.78559, 46.93649, -3970.16845703125], [-124.78266, 46.94744, -3858.837646484375], [-124.79186, 46.94273, -4679.6982421875]]], [[[-124.85328, 46.89344, -9840.310546875], [-124.84725, 46.8961, -9156.68359375], [-124.85554, 46.90025, -9765.6162109375], [-124.85328, 46.89344, -9840.310546875]]], [[[-124.78225, 46.97754, -2372.21728515625], [-124.77228, 46.97603, -1641.8736572265625], [-124.77895, 46.984, -1625.08203125], [-124.78225, 46.97754, -2372.21728515625]]], [[[-124.77215, 46.91199, -2096.9521484375], [-124.77442, 46.90286, -2530.01953125], [-124.76587, 46.90373, -1750.8782958984375], [-124.77215, 46.91199, -2096.9521484375]]], [[[-124.80782, 47.02328, -2899.81591796875], [-124.80844, 47.0125, -2930.14501953125], [-124.8013, 47.01875, -2279.325927734375], [-124.80782, 47.02328, -2899.81591796875]]], [[[-124.84619, 46.92135, -9090.9990234375], [-124.84458, 46.93132, -9334.9345703125], [-124.85284, 46.92562, -9920.2919921875], [-124.84619, 46.92135, -9090.9990234375]]], [[[-124.88484, 46.99944, -9928.40234375], [-124.88607, 47.00815, -9985.1923828125], [-124.89348, 47.0029, -10667.6455078125], [-124.88484, 46.99944, -9928.40234375]]], [[[-124.78037, 46.92769, -3102.498779296875], [-124.78468, 46.91896, -3320.201171875], [-124.77533, 46.9202, -2478.7822265625], [-124.78037, 46.92769, -3102.498779296875]]], [[[-124.75812, 46.91716, -862.1153564453125], [-124.75674, 46.90617, -872.89306640625], [-124.75099, 46.91312, -165.8785858154297], [-124.75812, 46.91716, -862.1153564453125]]], [[[-124.77783, 46.95716, -3238.06640625], [-124.76758, 46.95601, -2417.41455078125], [-124.77121, 46.96268, -2373.483154296875], [-124.77783, 46.95716, -3238.06640625]]], [[[-124.78037, 46.92769, -3102.498779296875], [-124.78837, 46.92704, -3833.853759765625], [-124.78468, 46.91896, -3320.201171875], [-124.78037, 46.92769, -3102.498779296875]]], [[[-124.83099, 47.00325, -5047.17236328125], [-124.82175, 47.00342, -4215.93212890625], [-124.82784, 47.01215, -4692.4833984375], [-124.83099, 47.00325, -5047.17236328125]]], [[[-124.80844, 47.0125, -2930.14501953125], [-124.80782, 47.02328, -2899.81591796875], [-124.81552, 47.02162, -3590.753662109375], [-124.80844, 47.0125, -2930.14501953125]]], [[[-124.85605, 46.9083, -9763.8779296875], [-124.86345, 46.91257, -10498.025390625], [-124.86394, 46.90349, -10439.80078125], [-124.85605, 46.9083, -9763.8779296875]]], [[[-124.81574, 46.93309, -6696.3388671875], [-124.82171, 46.94134, -7409.6494140625], [-124.82441, 46.93101, -7448.857421875], [-124.81574, 46.93309, -6696.3388671875]]], [[[-124.81514, 46.89921, -6231.42626953125], [-124.81321, 46.90791, -5826.2333984375], [-124.82143, 46.9072, -6573.5498046875], [-124.81514, 46.89921, -6231.42626953125]]], [[[-124.83865, 46.95185, -8757.806640625], [-124.83416, 46.95819, -8028.98876953125], [-124.84416, 46.96211, -8660.83203125], [-124.83865, 46.95185, -8757.806640625]]], [[[-124.77576, 46.99056, -897.023681640625], [-124.76902, 46.98244, -902.7129516601562], [-124.76596, 46.98895, -165.88197326660156], [-124.77576, 46.99056, -897.023681640625]]], [[[-124.79757, 46.93457, -5041.8212890625], [-124.79577, 46.92694, -4532.3359375], [-124.78559, 46.93649, -3970.16845703125], [-124.79757, 46.93457, -5041.8212890625]]], [[[-124.78097, 46.96404, -3132.793701171875], [-124.78624, 46.97172, -3128.412353515625], [-124.79076, 46.96562, -3881.704833984375], [-124.78097, 46.96404, -3132.793701171875]]], [[[-124.85284, 46.92562, -9920.2919921875], [-124.85939, 46.93016, -10684.5341796875], [-124.8618, 46.92155, -10582.17578125], [-124.85284, 46.92562, -9920.2919921875]]], [[[-124.81827, 47.01275, -3823.23095703125], [-124.80844, 47.0125, -2930.14501953125], [-124.81552, 47.02162, -3590.753662109375], [-124.81827, 47.01275, -3823.23095703125]]], [[[-124.81124, 46.99433, -3684.370849609375], [-124.79979, 46.98995, -2982.716552734375], [-124.80553, 47.0007, -2884.664794921875], [-124.81124, 46.99433, -3684.370849609375]]], [[[-124.76817, 46.93782, -2381.6142578125], [-124.77681, 46.93485, -3098.995849609375], [-124.77155, 46.92884, -2310.642822265625], [-124.76817, 46.93782, -2381.6142578125]]], [[[-124.75854, 46.95462, -1665.3187255859375], [-124.75729, 46.94816, -1553.9560546875], [-124.74978, 46.95227, -870.5616455078125], [-124.75854, 46.95462, -1665.3187255859375]]], [[[-124.82859, 47.02905, -4852.4013671875], [-124.82001, 47.02981, -4074.387451171875], [-124.82434, 47.03781, -4563.0712890625], [-124.82859, 47.02905, -4852.4013671875]]], [[[-124.76252, 46.93213, -1605.2059326171875], [-124.75327, 46.93589, -901.1407470703125], [-124.75952, 46.94086, -1642.6207275390625], [-124.76252, 46.93213, -1605.2059326171875]]], [[[-124.75674, 46.90617, -872.89306640625], [-124.75729, 46.89654, -1642.7520751953125], [-124.74915, 46.89727, -902.4805297851562], [-124.75674, 46.90617, -872.89306640625]]], [[[-124.80553, 47.0007, -2884.664794921875], [-124.79576, 46.99633, -2251.555419921875], [-124.80009, 47.00752, -2223.14697265625], [-124.80553, 47.0007, -2884.664794921875]]], [[[-124.84725, 46.8961, -9156.68359375], [-124.83873, 46.88923, -9045.4677734375], [-124.83978, 46.8972, -8464.6787109375], [-124.84725, 46.8961, -9156.68359375]]], [[[-124.81377, 47.00466, -3484.600341796875], [-124.80844, 47.0125, -2930.14501953125], [-124.81827, 47.01275, -3823.23095703125], [-124.81377, 47.00466, -3484.600341796875]]], [[[-124.82859, 47.02905, -4852.4013671875], [-124.82434, 47.03781, -4563.0712890625], [-124.83292, 47.03704, -5341.1494140625], [-124.82859, 47.02905, -4852.4013671875]]], [[[-124.8389, 46.90601, -8165.8857421875], [-124.83978, 46.8972, -8464.6787109375], [-124.83143, 46.89774, -7711.98876953125], [-124.8389, 46.90601, -8165.8857421875]]], [[[-124.79757, 46.93457, -5041.8212890625], [-124.79186, 46.94273, -4679.6982421875], [-124.80255, 46.94181, -5651.916015625], [-124.79757, 46.93457, -5041.8212890625]]], [[[-124.79979, 46.98995, -2982.716552734375], [-124.79276, 46.98013, -3074.090087890625], [-124.78932, 46.98637, -2324.9189453125], [-124.79979, 46.98995, -2982.716552734375]]], [[[-124.8389, 46.90601, -8165.8857421875], [-124.84798, 46.90446, -8984.4111328125], [-124.83978, 46.8972, -8464.6787109375], [-124.8389, 46.90601, -8165.8857421875]]], [[[-124.83063, 46.93492, -8114.0107421875], [-124.8298, 46.9468, -8142.61181640625], [-124.83727, 46.94005, -8824.140625], [-124.83063, 46.93492, -8114.0107421875]]], [[[-124.76656, 46.96855, -1638.9798583984375], [-124.76156, 46.96134, -1614.5732421875], [-124.75692, 46.96718, -890.9230346679688], [-124.76656, 46.96855, -1638.9798583984375]]], [[[-124.80712, 46.9336, -5907.21923828125], [-124.80461, 46.92561, -5315.95654296875], [-124.79757, 46.93457, -5041.8212890625], [-124.80712, 46.9336, -5907.21923828125]]], [[[-124.75729, 46.94816, -1553.9560546875], [-124.75061, 46.9441, -883.2279663085938], [-124.74978, 46.95227, -870.5616455078125], [-124.75729, 46.94816, -1553.9560546875]]], [[[-124.82143, 46.9072, -6573.5498046875], [-124.82328, 46.89847, -6971.70751953125], [-124.81514, 46.89921, -6231.42626953125], [-124.82143, 46.9072, -6573.5498046875]]], [[[-124.83727, 46.94005, -8824.140625], [-124.84458, 46.93132, -9334.9345703125], [-124.83774, 46.92743, -8563.8740234375], [-124.83727, 46.94005, -8824.140625]]], [[[-124.82328, 46.89847, -6971.70751953125], [-124.8143, 46.89143, -6824.65283203125], [-124.81514, 46.89921, -6231.42626953125], [-124.82328, 46.89847, -6971.70751953125]]], [[[-124.86758, 47.03388, -8484.712890625], [-124.8625, 47.04265, -8194.1201171875], [-124.87135, 47.04149, -8989.7080078125], [-124.86758, 47.03388, -8484.712890625]]], [[[-124.80507, 46.90864, -5085.8427734375], [-124.807, 46.89994, -5491.14501953125], [-124.79885, 46.90067, -4750.86328125], [-124.80507, 46.90864, -5085.8427734375]]], [[[-124.80844, 47.0125, -2930.14501953125], [-124.81377, 47.00466, -3484.600341796875], [-124.80553, 47.0007, -2884.664794921875], [-124.80844, 47.0125, -2930.14501953125]]], [[[-124.77442, 46.90286, -2530.01953125], [-124.76544, 46.89581, -2383.023681640625], [-124.76587, 46.90373, -1750.8782958984375], [-124.77442, 46.90286, -2530.01953125]]], [[[-124.85554, 46.90025, -9765.6162109375], [-124.86394, 46.90349, -10439.80078125], [-124.86148, 46.895, -10444.3486328125], [-124.85554, 46.90025, -9765.6162109375]]], [[[-124.85605, 46.9083, -9763.8779296875], [-124.86394, 46.90349, -10439.80078125], [-124.85554, 46.90025, -9765.6162109375], [-124.85605, 46.9083, -9763.8779296875]]], [[[-124.79071, 46.9014, -4010.58203125], [-124.78987, 46.89362, -4603.83837890625], [-124.78172, 46.89435, -3863.566650390625], [-124.79071, 46.9014, -4010.58203125]]], [[[-124.87066, 46.9755, -9978.8291015625], [-124.86677, 46.98162, -9217.9697265625], [-124.87668, 46.98349, -9941.5419921875], [-124.87066, 46.9755, -9978.8291015625]]], [[[-124.87772, 47.03189, -9382.94921875], [-124.87149, 47.02598, -8751.6201171875], [-124.86758, 47.03388, -8484.712890625], [-124.87772, 47.03189, -9382.94921875]]], [[[-124.78037, 46.92769, -3102.498779296875], [-124.77681, 46.93485, -3098.995849609375], [-124.78559, 46.93649, -3970.16845703125], [-124.78037, 46.92769, -3102.498779296875]]], [[[-124.75327, 46.93589, -901.1407470703125], [-124.75681, 46.92639, -887.9552001953125], [-124.7482, 46.9301, -165.0470733642578], [-124.75327, 46.93589, -901.1407470703125]]], [[[-124.82665, 46.91538, -7140.61083984375], [-124.82143, 46.9072, -6573.5498046875], [-124.81738, 46.91601, -6293.9453125], [-124.82665, 46.91538, -7140.61083984375]]], [[[-124.80844, 47.0125, -2930.14501953125], [-124.80553, 47.0007, -2884.664794921875], [-124.80009, 47.00752, -2223.14697265625], [-124.80844, 47.0125, -2930.14501953125]]], [[[-124.76817, 46.93782, -2381.6142578125], [-124.77155, 46.92884, -2310.642822265625], [-124.76252, 46.93213, -1605.2059326171875], [-124.76817, 46.93782, -2381.6142578125]]], [[[-124.807, 46.89994, -5491.14501953125], [-124.80616, 46.89216, -6084.38134765625], [-124.79801, 46.89289, -5344.10986328125], [-124.807, 46.89994, -5491.14501953125]]], [[[-124.87946, 47.04123, -9735.0341796875], [-124.87494, 47.04978, -9489.6806640625], [-124.88352, 47.049, -10267.9091796875], [-124.87946, 47.04123, -9735.0341796875]]], [[[-124.79577, 46.92694, -4532.3359375], [-124.79295, 46.91821, -4072.36181640625], [-124.78837, 46.92704, -3833.853759765625], [-124.79577, 46.92694, -4532.3359375]]], [[[-124.7989, 46.94783, -5334.53076171875], [-124.79186, 46.94273, -4679.6982421875], [-124.79114, 46.95167, -4627.84619140625], [-124.7989, 46.94783, -5334.53076171875]]], [[[-124.76656, 46.96855, -1638.9798583984375], [-124.75692, 46.96718, -890.9230346679688], [-124.76243, 46.97477, -901.9795532226562], [-124.76656, 46.96855, -1638.9798583984375]]], [[[-124.85426, 46.96519, -9329.458984375], [-124.85843, 46.959, -10063.1240234375], [-124.84848, 46.9557, -9398.6767578125], [-124.85426, 46.96519, -9329.458984375]]], [[[-124.85328, 46.89344, -9840.310546875], [-124.86148, 46.895, -10444.3486328125], [-124.85501, 46.88775, -10526.0107421875], [-124.85328, 46.89344, -9840.310546875]]], [[[-124.79186, 46.94273, -4679.6982421875], [-124.79757, 46.93457, -5041.8212890625], [-124.78559, 46.93649, -3970.16845703125], [-124.79186, 46.94273, -4679.6982421875]]], [[[-124.80844, 47.0125, -2930.14501953125], [-124.80009, 47.00752, -2223.14697265625], [-124.8013, 47.01875, -2279.325927734375], [-124.80844, 47.0125, -2930.14501953125]]], [[[-124.80009, 47.00752, -2223.14697265625], [-124.7935, 47.01378, -1572.0245361328125], [-124.8013, 47.01875, -2279.325927734375], [-124.80009, 47.00752, -2223.14697265625]]], [[[-124.84727, 46.91249, -9000.5322265625], [-124.85605, 46.9083, -9763.8779296875], [-124.84798, 46.90446, -8984.4111328125], [-124.84727, 46.91249, -9000.5322265625]]], [[[-124.78468, 46.91896, -3320.201171875], [-124.78053, 46.91098, -2856.126708984375], [-124.77533, 46.9202, -2478.7822265625], [-124.78468, 46.91896, -3320.201171875]]], [[[-124.7935, 47.01378, -1572.0245361328125], [-124.80009, 47.00752, -2223.14697265625], [-124.79132, 47.00299, -1547.44091796875], [-124.7935, 47.01378, -1572.0245361328125]]], [[[-124.82143, 46.9072, -6573.5498046875], [-124.83022, 46.90696, -7378.59423828125], [-124.82328, 46.89847, -6971.70751953125], [-124.82143, 46.9072, -6573.5498046875]]], [[[-124.76156, 46.96134, -1614.5732421875], [-124.75187, 46.95946, -880.05859375], [-124.75692, 46.96718, -890.9230346679688], [-124.76156, 46.96134, -1614.5732421875]]], [[[-124.7935, 47.01378, -1572.0245361328125], [-124.79132, 47.00299, -1547.44091796875], [-124.78529, 47.00926, -873.4118041992188], [-124.7935, 47.01378, -1572.0245361328125]]], [[[-124.77533, 46.9202, -2478.7822265625], [-124.78053, 46.91098, -2856.126708984375], [-124.77215, 46.91199, -2096.9521484375], [-124.77533, 46.9202, -2478.7822265625]]], [[[-124.83654, 46.98828, -6218.06494140625], [-124.84197, 46.98295, -7022.130859375], [-124.83147, 46.98016, -6333.9951171875], [-124.83654, 46.98828, -6218.06494140625]]], [[[-124.78266, 46.94744, -3858.837646484375], [-124.77486, 46.94289, -3106.487060546875], [-124.77399, 46.9505, -3070.383544921875], [-124.78266, 46.94744, -3858.837646484375]]], [[[-124.81514, 46.89921, -6231.42626953125], [-124.8143, 46.89143, -6824.65283203125], [-124.80616, 46.89216, -6084.38134765625], [-124.81514, 46.89921, -6231.42626953125]]], [[[-124.7935, 47.01378, -1572.0245361328125], [-124.78529, 47.00926, -873.4118041992188], [-124.78588, 47.01881, -877.8621215820312], [-124.7935, 47.01378, -1572.0245361328125]]], [[[-124.83727, 46.94005, -8824.140625], [-124.84439, 46.94607, -9468.0947265625], [-124.84497, 46.93838, -9516.044921875], [-124.83727, 46.94005, -8824.140625]]], [[[-124.81321, 46.90791, -5826.2333984375], [-124.81514, 46.89921, -6231.42626953125], [-124.807, 46.89994, -5491.14501953125], [-124.81321, 46.90791, -5826.2333984375]]], [[[-124.77442, 46.90286, -2530.01953125], [-124.78256, 46.90213, -3270.30078125], [-124.77358, 46.89508, -3123.295166015625], [-124.77442, 46.90286, -2530.01953125]]], [[[-124.83063, 46.93492, -8114.0107421875], [-124.83727, 46.94005, -8824.140625], [-124.83774, 46.92743, -8563.8740234375], [-124.83063, 46.93492, -8114.0107421875]]], [[[-124.79692, 46.90937, -4345.45263671875], [-124.80507, 46.90864, -5085.8427734375], [-124.79885, 46.90067, -4750.86328125], [-124.79692, 46.90937, -4345.45263671875]]], [[[-124.78529, 47.00926, -873.4118041992188], [-124.778, 47.01428, -164.1405029296875], [-124.78588, 47.01881, -877.8621215820312], [-124.78529, 47.00926, -873.4118041992188]]], [[[-124.77486, 46.94289, -3106.487060546875], [-124.76554, 46.94746, -2303.777587890625], [-124.77399, 46.9505, -3070.383544921875], [-124.77486, 46.94289, -3106.487060546875]]], [[[-124.79071, 46.9014, -4010.58203125], [-124.79885, 46.90067, -4750.86328125], [-124.78987, 46.89362, -4603.83837890625], [-124.79071, 46.9014, -4010.58203125]]], [[[-124.79114, 46.95167, -4627.84619140625], [-124.78266, 46.94744, -3858.837646484375], [-124.78683, 46.95791, -3973.519775390625], [-124.79114, 46.95167, -4627.84619140625]]], [[[-124.81103, 47.04727, -3525.290771484375], [-124.80245, 47.04804, -2747.152587890625], [-124.80632, 47.05594, -3263.85302734375], [-124.81103, 47.04727, -3525.290771484375]]], [[[-124.84725, 46.8961, -9156.68359375], [-124.85328, 46.89344, -9840.310546875], [-124.84687, 46.88849, -9785.7392578125], [-124.84725, 46.8961, -9156.68359375]]], [[[-124.76817, 46.93782, -2381.6142578125], [-124.76252, 46.93213, -1605.2059326171875], [-124.75952, 46.94086, -1642.6207275390625], [-124.76817, 46.93782, -2381.6142578125]]], [[[-124.79692, 46.90937, -4345.45263671875], [-124.79885, 46.90067, -4750.86328125], [-124.79071, 46.9014, -4010.58203125], [-124.79692, 46.90937, -4345.45263671875]]], [[[-124.83143, 46.89774, -7711.98876953125], [-124.83059, 46.88996, -8305.1962890625], [-124.82244, 46.89069, -7564.92431640625], [-124.83143, 46.89774, -7711.98876953125]]], [[[-124.77155, 46.92884, -2310.642822265625], [-124.76583, 46.922, -1633.88818359375], [-124.76252, 46.93213, -1605.2059326171875], [-124.77155, 46.92884, -2310.642822265625]]], [[[-124.77228, 46.97603, -1641.8736572265625], [-124.76902, 46.98244, -902.7129516601562], [-124.77895, 46.984, -1625.08203125], [-124.77228, 46.97603, -1641.8736572265625]]], [[[-124.8389, 46.90601, -8165.8857421875], [-124.83143, 46.89774, -7711.98876953125], [-124.83022, 46.90696, -7378.59423828125], [-124.8389, 46.90601, -8165.8857421875]]], [[[-124.82434, 47.03781, -4563.0712890625], [-124.81961, 47.0465, -4303.4287109375], [-124.82819, 47.04573, -5081.5673828125], [-124.82434, 47.03781, -4563.0712890625]]], [[[-124.7816, 46.99926, -887.2612915039062], [-124.77197, 46.99696, -166.42800903320312], [-124.77665, 47.00536, -166.50161743164062], [-124.7816, 46.99926, -887.2612915039062]]], [[[-124.76554, 46.94746, -2303.777587890625], [-124.76817, 46.93782, -2381.6142578125], [-124.75952, 46.94086, -1642.6207275390625], [-124.76554, 46.94746, -2303.777587890625]]], [[[-124.80924, 46.91674, -5553.39111328125], [-124.80507, 46.90864, -5085.8427734375], [-124.8011, 46.91748, -4812.8759765625], [-124.80924, 46.91674, -5553.39111328125]]], [[[-124.83268, 47.02024, -5151.3046875], [-124.83716, 47.02828, -5630.41552734375], [-124.84124, 47.01947, -5930.0869140625], [-124.83268, 47.02024, -5151.3046875]]], [[[-124.77576, 46.99056, -897.023681640625], [-124.76596, 46.98895, -165.88197326660156], [-124.77197, 46.99696, -166.42800903320312], [-124.77576, 46.99056, -897.023681640625]]], [[[-124.84848, 46.9557, -9398.6767578125], [-124.85843, 46.959, -10063.1240234375], [-124.85341, 46.94983, -10137.58203125], [-124.84848, 46.9557, -9398.6767578125]]], [[[-124.76587, 46.90373, -1750.8782958984375], [-124.76544, 46.89581, -2383.023681640625], [-124.75729, 46.89654, -1642.7520751953125], [-124.76587, 46.90373, -1750.8782958984375]]], [[[-124.78097, 46.96404, -3132.793701171875], [-124.78683, 46.95791, -3973.519775390625], [-124.77783, 46.95716, -3238.06640625], [-124.78097, 46.96404, -3132.793701171875]]], [[[-124.78097, 46.96404, -3132.793701171875], [-124.77783, 46.95716, -3238.06640625], [-124.77121, 46.96268, -2373.483154296875], [-124.78097, 46.96404, -3132.793701171875]]], [[[-124.81643, 46.94979, -6927.09130859375], [-124.82171, 46.94134, -7409.6494140625], [-124.81155, 46.94184, -6486.17822265625], [-124.81643, 46.94979, -6927.09130859375]]], [[[-124.75692, 46.96718, -890.9230346679688], [-124.75263, 46.97345, -163.69674682617188], [-124.76243, 46.97477, -901.9795532226562], [-124.75692, 46.96718, -890.9230346679688]]], [[[-124.76252, 46.93213, -1605.2059326171875], [-124.76583, 46.922, -1633.88818359375], [-124.75681, 46.92639, -887.9552001953125], [-124.76252, 46.93213, -1605.2059326171875]]], [[[-124.74978, 46.95227, -870.5616455078125], [-124.742, 46.957, -162.53799438476562], [-124.75187, 46.95946, -880.05859375], [-124.74978, 46.95227, -870.5616455078125]]], [[[-124.82119, 46.92401, -6823.97998046875], [-124.82665, 46.91538, -7140.61083984375], [-124.81738, 46.91601, -6293.9453125], [-124.82119, 46.92401, -6823.97998046875]]], [[[-124.83268, 47.02024, -5151.3046875], [-124.82859, 47.02905, -4852.4013671875], [-124.83716, 47.02828, -5630.41552734375], [-124.83268, 47.02024, -5151.3046875]]], [[[-124.85554, 46.90025, -9765.6162109375], [-124.86148, 46.895, -10444.3486328125], [-124.85328, 46.89344, -9840.310546875], [-124.85554, 46.90025, -9765.6162109375]]], [[[-124.77486, 46.94289, -3106.487060546875], [-124.77681, 46.93485, -3098.995849609375], [-124.76817, 46.93782, -2381.6142578125], [-124.77486, 46.94289, -3106.487060546875]]], [[[-124.83099, 46.92331, -7723.17578125], [-124.83774, 46.92743, -8563.8740234375], [-124.83762, 46.91574, -8166.2294921875], [-124.83099, 46.92331, -7723.17578125]]], [[[-124.84725, 46.8961, -9156.68359375], [-124.84687, 46.88849, -9785.7392578125], [-124.83873, 46.88923, -9045.4677734375], [-124.84725, 46.8961, -9156.68359375]]], [[[-124.85967, 47.00027, -7657.99755859375], [-124.86886, 47.00205, -8462.4736328125], [-124.86641, 46.99478, -8427.1396484375], [-124.85967, 47.00027, -7657.99755859375]]], [[[-124.75729, 46.94816, -1553.9560546875], [-124.75854, 46.95462, -1665.3187255859375], [-124.76554, 46.94746, -2303.777587890625], [-124.75729, 46.94816, -1553.9560546875]]], [[[-124.84619, 46.92135, -9090.9990234375], [-124.85284, 46.92562, -9920.2919921875], [-124.85503, 46.91695, -9805.5625], [-124.84619, 46.92135, -9090.9990234375]]], [[[-124.75812, 46.91716, -862.1153564453125], [-124.75099, 46.91312, -165.8785858154297], [-124.75009, 46.92115, -165.85092163085938], [-124.75812, 46.91716, -862.1153564453125]]], [[[-124.79114, 46.95167, -4627.84619140625], [-124.79186, 46.94273, -4679.6982421875], [-124.78266, 46.94744, -3858.837646484375], [-124.79114, 46.95167, -4627.84619140625]]], [[[-124.77155, 46.92884, -2310.642822265625], [-124.77533, 46.9202, -2478.7822265625], [-124.76583, 46.922, -1633.88818359375], [-124.77155, 46.92884, -2310.642822265625]]], [[[-124.79757, 46.93457, -5041.8212890625], [-124.80461, 46.92561, -5315.95654296875], [-124.79577, 46.92694, -4532.3359375], [-124.79757, 46.93457, -5041.8212890625]]], [[[-124.79349, 47.04879, -1933.7259521484375], [-124.79774, 47.0567, -2485.62451171875], [-124.80245, 47.04804, -2747.152587890625], [-124.79349, 47.04879, -1933.7259521484375]]], [[[-124.81574, 46.93309, -6696.3388671875], [-124.81279, 46.92483, -6060.56640625], [-124.80712, 46.9336, -5907.21923828125], [-124.81574, 46.93309, -6696.3388671875]]], [[[-124.81574, 46.93309, -6696.3388671875], [-124.82119, 46.92401, -6823.97998046875], [-124.81279, 46.92483, -6060.56640625], [-124.81574, 46.93309, -6696.3388671875]]], [[[-124.83063, 46.93492, -8114.0107421875], [-124.82171, 46.94134, -7409.6494140625], [-124.8298, 46.9468, -8142.61181640625], [-124.83063, 46.93492, -8114.0107421875]]], [[[-124.83865, 46.95185, -8757.806640625], [-124.84848, 46.9557, -9398.6767578125], [-124.84439, 46.94607, -9468.0947265625], [-124.83865, 46.95185, -8757.806640625]]], [[[-124.84197, 46.98295, -7022.130859375], [-124.85227, 46.98549, -7735.55615234375], [-124.84655, 46.97754, -7797.384765625], [-124.84197, 46.98295, -7022.130859375]]], [[[-124.83762, 46.91574, -8166.2294921875], [-124.84619, 46.92135, -9090.9990234375], [-124.84727, 46.91249, -9000.5322265625], [-124.83762, 46.91574, -8166.2294921875]]], [[[-124.83727, 46.94005, -8824.140625], [-124.83865, 46.95185, -8757.806640625], [-124.84439, 46.94607, -9468.0947265625], [-124.83727, 46.94005, -8824.140625]]], [[[-124.83774, 46.92743, -8563.8740234375], [-124.84619, 46.92135, -9090.9990234375], [-124.83762, 46.91574, -8166.2294921875], [-124.83774, 46.92743, -8563.8740234375]]], [[[-124.772, 47.059, -150.93899536132812], [-124.78058, 47.05823, -929.16748046875], [-124.77398, 47.05011, -155.40528869628906], [-124.772, 47.059, -150.93899536132812]]], [[[-124.83099, 46.92331, -7723.17578125], [-124.83762, 46.91574, -8166.2294921875], [-124.82665, 46.91538, -7140.61083984375], [-124.83099, 46.92331, -7723.17578125]]], [[[-124.8625, 47.04265, -8194.1201171875], [-124.86637, 47.05055, -8711.4521484375], [-124.87135, 47.04149, -8989.7080078125], [-124.8625, 47.04265, -8194.1201171875]]], [[[-124.81738, 46.91601, -6293.9453125], [-124.81279, 46.92483, -6060.56640625], [-124.82119, 46.92401, -6823.97998046875], [-124.81738, 46.91601, -6293.9453125]]], [[[-124.81279, 46.92483, -6060.56640625], [-124.81738, 46.91601, -6293.9453125], [-124.80924, 46.91674, -5553.39111328125], [-124.81279, 46.92483, -6060.56640625]]], [[[-124.78037, 46.92769, -3102.498779296875], [-124.78559, 46.93649, -3970.16845703125], [-124.78837, 46.92704, -3833.853759765625], [-124.78037, 46.92769, -3102.498779296875]]], [[[-124.78037, 46.92769, -3102.498779296875], [-124.77533, 46.9202, -2478.7822265625], [-124.77155, 46.92884, -2310.642822265625], [-124.78037, 46.92769, -3102.498779296875]]], [[[-124.78468, 46.91896, -3320.201171875], [-124.78878, 46.9101, -3605.0625], [-124.78053, 46.91098, -2856.126708984375], [-124.78468, 46.91896, -3320.201171875]]], [[[-124.77533, 46.9202, -2478.7822265625], [-124.77215, 46.91199, -2096.9521484375], [-124.76583, 46.922, -1633.88818359375], [-124.77533, 46.9202, -2478.7822265625]]], [[[-124.76583, 46.922, -1633.88818359375], [-124.75812, 46.91716, -862.1153564453125], [-124.75681, 46.92639, -887.9552001953125], [-124.76583, 46.922, -1633.88818359375]]], [[[-124.78053, 46.91098, -2856.126708984375], [-124.78878, 46.9101, -3605.0625], [-124.78256, 46.90213, -3270.30078125], [-124.78053, 46.91098, -2856.126708984375]]], [[[-124.78878, 46.9101, -3605.0625], [-124.79071, 46.9014, -4010.58203125], [-124.78256, 46.90213, -3270.30078125], [-124.78878, 46.9101, -3605.0625]]], [[[-124.79692, 46.90937, -4345.45263671875], [-124.8011, 46.91748, -4812.8759765625], [-124.80507, 46.90864, -5085.8427734375], [-124.79692, 46.90937, -4345.45263671875]]], [[[-124.80924, 46.91674, -5553.39111328125], [-124.81321, 46.90791, -5826.2333984375], [-124.80507, 46.90864, -5085.8427734375], [-124.80924, 46.91674, -5553.39111328125]]], [[[-124.81738, 46.91601, -6293.9453125], [-124.82143, 46.9072, -6573.5498046875], [-124.81321, 46.90791, -5826.2333984375], [-124.81738, 46.91601, -6293.9453125]]], [[[-124.85605, 46.9083, -9763.8779296875], [-124.84727, 46.91249, -9000.5322265625], [-124.85503, 46.91695, -9805.5625], [-124.85605, 46.9083, -9763.8779296875]]], [[[-124.85328, 46.89344, -9840.310546875], [-124.85501, 46.88775, -10526.0107421875], [-124.84687, 46.88849, -9785.7392578125], [-124.85328, 46.89344, -9840.310546875]]], [[[-124.87066, 46.9755, -9978.8291015625], [-124.87668, 46.98349, -9941.5419921875], [-124.88068, 46.97732, -10689.9404296875], [-124.87066, 46.9755, -9978.8291015625]]], [[[-124.87066, 46.9755, -9978.8291015625], [-124.88068, 46.97732, -10689.9404296875], [-124.87437, 46.96931, -10734.2841796875], [-124.87066, 46.9755, -9978.8291015625]]], [[[-124.86439, 46.96741, -10022.7138671875], [-124.87066, 46.9755, -9978.8291015625], [-124.87437, 46.96931, -10734.2841796875], [-124.86439, 46.96741, -10022.7138671875]]], [[[-124.86439, 46.96741, -10022.7138671875], [-124.87437, 46.96931, -10734.2841796875], [-124.86826, 46.96123, -10775.55078125], [-124.86439, 46.96741, -10022.7138671875]]], [[[-124.85843, 46.959, -10063.1240234375], [-124.86439, 46.96741, -10022.7138671875], [-124.86826, 46.96123, -10775.55078125], [-124.85843, 46.959, -10063.1240234375]]], [[[-124.85843, 46.959, -10063.1240234375], [-124.86826, 46.96123, -10775.55078125], [-124.86299, 46.95287, -10798.572265625], [-124.85843, 46.959, -10063.1240234375]]], [[[-124.85341, 46.94983, -10137.58203125], [-124.85843, 46.959, -10063.1240234375], [-124.86299, 46.95287, -10798.572265625], [-124.85341, 46.94983, -10137.58203125]]], [[[-124.85029, 46.99982, -6820.939453125], [-124.85434, 47.0094, -7101.126953125], [-124.85967, 47.00027, -7657.99755859375], [-124.85029, 46.99982, -6820.939453125]]], [[[-124.85341, 46.94983, -10137.58203125], [-124.86299, 46.95287, -10798.572265625], [-124.85909, 46.94503, -10804.82421875], [-124.85341, 46.94983, -10137.58203125]]], [[[-124.85205, 46.94166, -10165.9140625], [-124.85341, 46.94983, -10137.58203125], [-124.85909, 46.94503, -10804.82421875], [-124.85205, 46.94166, -10165.9140625]]], [[[-124.79647, 46.97373, -3845.501220703125], [-124.78624, 46.97172, -3128.412353515625], [-124.79276, 46.98013, -3074.090087890625], [-124.79647, 46.97373, -3845.501220703125]]], [[[-124.85205, 46.94166, -10165.9140625], [-124.85909, 46.94503, -10804.82421875], [-124.85856, 46.93782, -10759.02734375], [-124.85205, 46.94166, -10165.9140625]]], [[[-124.87668, 46.98349, -9941.5419921875], [-124.88663, 46.98546, -10653.5625], [-124.88068, 46.97732, -10689.9404296875], [-124.87668, 46.98349, -9941.5419921875]]], [[[-124.87668, 46.98349, -9941.5419921875], [-124.88179, 46.99145, -9916.1318359375], [-124.88663, 46.98546, -10653.5625], [-124.87668, 46.98349, -9941.5419921875]]], [[[-124.87597, 46.99684, -9163.994140625], [-124.88179, 46.99145, -9916.1318359375], [-124.87215, 46.98939, -9182.833984375], [-124.87597, 46.99684, -9163.994140625]]], [[[-124.87597, 46.99684, -9163.994140625], [-124.88484, 46.99944, -9928.40234375], [-124.88179, 46.99145, -9916.1318359375], [-124.87597, 46.99684, -9163.994140625]]], [[[-124.87769, 47.00468, -9228.78515625], [-124.88484, 46.99944, -9928.40234375], [-124.87597, 46.99684, -9163.994140625], [-124.87769, 47.00468, -9228.78515625]]], [[[-124.87769, 47.00468, -9228.78515625], [-124.88607, 47.00815, -9985.1923828125], [-124.88484, 46.99944, -9928.40234375], [-124.87769, 47.00468, -9228.78515625]]], [[[-124.87845, 47.01314, -9291.220703125], [-124.88607, 47.00815, -9985.1923828125], [-124.87769, 47.00468, -9228.78515625], [-124.87845, 47.01314, -9291.220703125]]], [[[-124.86104, 47.01671, -7719.974609375], [-124.85462, 47.02636, -7209.85400390625], [-124.86318, 47.02583, -7989.20556640625], [-124.86104, 47.01671, -7719.974609375]]], [[[-124.8625, 47.04265, -8194.1201171875], [-124.85779, 47.05132, -7933.2236328125], [-124.86637, 47.05055, -8711.4521484375], [-124.8625, 47.04265, -8194.1201171875]]], [[[-124.87845, 47.01314, -9291.220703125], [-124.88642, 47.01696, -10052.3759765625], [-124.88607, 47.00815, -9985.1923828125], [-124.87845, 47.01314, -9291.220703125]]], [[[-124.87874, 47.02188, -9384.66796875], [-124.88642, 47.01696, -10052.3759765625], [-124.87845, 47.01314, -9291.220703125], [-124.87874, 47.02188, -9384.66796875]]], [[[-124.87772, 47.03189, -9382.94921875], [-124.88634, 47.02623, -10114.3798828125], [-124.87874, 47.02188, -9384.66796875], [-124.87772, 47.03189, -9382.94921875]]], [[[-124.87772, 47.03189, -9382.94921875], [-124.88586, 47.03602, -10219.671875], [-124.88634, 47.02623, -10114.3798828125], [-124.87772, 47.03189, -9382.94921875]]], [[[-124.87772, 47.03189, -9382.94921875], [-124.87946, 47.04123, -9735.0341796875], [-124.88586, 47.03602, -10219.671875], [-124.87772, 47.03189, -9382.94921875]]], [[[-124.87946, 47.04123, -9735.0341796875], [-124.87772, 47.03189, -9382.94921875], [-124.87135, 47.04149, -8989.7080078125], [-124.87946, 47.04123, -9735.0341796875]]], [[[-124.87946, 47.04123, -9735.0341796875], [-124.87135, 47.04149, -8989.7080078125], [-124.87494, 47.04978, -9489.6806640625], [-124.87946, 47.04123, -9735.0341796875]]], [[[-124.88352, 47.049, -10267.9091796875], [-124.88834, 47.04409, -10613.4560546875], [-124.87946, 47.04123, -9735.0341796875], [-124.88352, 47.049, -10267.9091796875]]], [[[-124.81617, 46.96656, -6005.63330078125], [-124.8214, 46.97637, -5764.0478515625], [-124.82571, 46.97067, -6529.626953125], [-124.81617, 46.96656, -6005.63330078125]]], [[[-124.8921, 47.04823, -11046.1376953125], [-124.88834, 47.04409, -10613.4560546875], [-124.88352, 47.049, -10267.9091796875], [-124.8921, 47.04823, -11046.1376953125]]], [[[-124.88586, 47.03602, -10219.671875], [-124.88834, 47.04409, -10613.4560546875], [-124.89314, 47.03918, -10960.1064453125], [-124.88586, 47.03602, -10219.671875]]], [[[-124.81617, 46.96656, -6005.63330078125], [-124.81237, 46.9572, -6209.04150390625], [-124.80699, 46.96252, -5451.4287109375], [-124.81617, 46.96656, -6005.63330078125]]], [[[-124.88586, 47.03602, -10219.671875], [-124.87946, 47.04123, -9735.0341796875], [-124.88834, 47.04409, -10613.4560546875], [-124.88586, 47.03602, -10219.671875]]], [[[-124.88586, 47.03602, -10219.671875], [-124.89314, 47.03918, -10960.1064453125], [-124.89418, 47.03014, -10872.6748046875], [-124.88586, 47.03602, -10219.671875]]], [[[-124.88634, 47.02623, -10114.3798828125], [-124.88586, 47.03602, -10219.671875], [-124.89418, 47.03014, -10872.6748046875], [-124.88634, 47.02623, -10114.3798828125]]], [[[-124.88634, 47.02623, -10114.3798828125], [-124.89418, 47.03014, -10872.6748046875], [-124.89432, 47.02106, -10798.5400390625], [-124.88634, 47.02623, -10114.3798828125]]], [[[-124.88642, 47.01696, -10052.3759765625], [-124.88634, 47.02623, -10114.3798828125], [-124.89432, 47.02106, -10798.5400390625], [-124.88642, 47.01696, -10052.3759765625]]], [[[-124.74842, 46.90526, -165.51889038085938], [-124.75674, 46.90617, -872.89306640625], [-124.74915, 46.89727, -902.4805297851562], [-124.74842, 46.90526, -165.51889038085938]]], [[[-124.88642, 47.01696, -10052.3759765625], [-124.89432, 47.02106, -10798.5400390625], [-124.89428, 47.01197, -10730.4794921875], [-124.88642, 47.01696, -10052.3759765625]]], [[[-124.88607, 47.00815, -9985.1923828125], [-124.88642, 47.01696, -10052.3759765625], [-124.89428, 47.01197, -10730.4794921875], [-124.88607, 47.00815, -9985.1923828125]]], [[[-124.88607, 47.00815, -9985.1923828125], [-124.89428, 47.01197, -10730.4794921875], [-124.89348, 47.0029, -10667.6455078125], [-124.88607, 47.00815, -9985.1923828125]]], [[[-124.88484, 46.99944, -9928.40234375], [-124.89348, 47.0029, -10667.6455078125], [-124.89143, 46.99393, -10632.12890625], [-124.88484, 46.99944, -9928.40234375]]], [[[-124.88179, 46.99145, -9916.1318359375], [-124.88484, 46.99944, -9928.40234375], [-124.89143, 46.99393, -10632.12890625], [-124.88179, 46.99145, -9916.1318359375]]], [[[-124.88179, 46.99145, -9916.1318359375], [-124.89143, 46.99393, -10632.12890625], [-124.88663, 46.98546, -10653.5625], [-124.88179, 46.99145, -9916.1318359375]]], [[[-124.78932, 46.98637, -2324.9189453125], [-124.77895, 46.984, -1625.08203125], [-124.78576, 46.99289, -1600.0828857421875], [-124.78932, 46.98637, -2324.9189453125]]], [[[-124.87494, 47.04978, -9489.6806640625], [-124.87135, 47.04149, -8989.7080078125], [-124.86637, 47.05055, -8711.4521484375], [-124.87494, 47.04978, -9489.6806640625]]], [[[-124.85392, 47.04342, -7415.98193359375], [-124.85779, 47.05132, -7933.2236328125], [-124.8625, 47.04265, -8194.1201171875], [-124.85392, 47.04342, -7415.98193359375]]], [[[-124.85392, 47.04342, -7415.98193359375], [-124.84921, 47.05209, -7154.9951171875], [-124.85779, 47.05132, -7933.2236328125], [-124.85392, 47.04342, -7415.98193359375]]], [[[-124.84534, 47.04419, -6637.84375], [-124.84921, 47.05209, -7154.9951171875], [-124.85392, 47.04342, -7415.98193359375], [-124.84534, 47.04419, -6637.84375]]], [[[-124.80343, 46.98348, -3727.104736328125], [-124.79276, 46.98013, -3074.090087890625], [-124.79979, 46.98995, -2982.716552734375], [-124.80343, 46.98348, -3727.104736328125]]], [[[-124.84534, 47.04419, -6637.84375], [-124.84063, 47.05286, -6376.7666015625], [-124.84921, 47.05209, -7154.9951171875], [-124.84534, 47.04419, -6637.84375]]], [[[-124.83677, 47.04496, -5859.70556640625], [-124.84063, 47.05286, -6376.7666015625], [-124.84534, 47.04419, -6637.84375], [-124.83677, 47.04496, -5859.70556640625]]], [[[-124.741, 46.898, -162.20899963378906], [-124.74842, 46.90526, -165.51889038085938], [-124.74915, 46.89727, -902.4805297851562], [-124.741, 46.898, -162.20899963378906]]], [[[-124.83677, 47.04496, -5859.70556640625], [-124.82819, 47.04573, -5081.5673828125], [-124.83206, 47.05363, -5598.53857421875], [-124.83677, 47.04496, -5859.70556640625]]], [[[-124.83292, 47.03704, -5341.1494140625], [-124.82819, 47.04573, -5081.5673828125], [-124.83677, 47.04496, -5859.70556640625], [-124.83292, 47.03704, -5341.1494140625]]], [[[-124.82434, 47.03781, -4563.0712890625], [-124.82819, 47.04573, -5081.5673828125], [-124.83292, 47.03704, -5341.1494140625], [-124.82434, 47.03781, -4563.0712890625]]], [[[-124.81576, 47.03858, -3784.992919921875], [-124.81961, 47.0465, -4303.4287109375], [-124.82434, 47.03781, -4563.0712890625], [-124.81576, 47.03858, -3784.992919921875]]], [[[-124.81576, 47.03858, -3784.992919921875], [-124.81103, 47.04727, -3525.290771484375], [-124.81961, 47.0465, -4303.4287109375], [-124.81576, 47.03858, -3784.992919921875]]], [[[-124.80707, 47.03922, -2993.881591796875], [-124.81103, 47.04727, -3525.290771484375], [-124.81576, 47.03858, -3784.992919921875], [-124.80707, 47.03922, -2993.881591796875]]], [[[-124.80707, 47.03922, -2993.881591796875], [-124.80245, 47.04804, -2747.152587890625], [-124.81103, 47.04727, -3525.290771484375], [-124.80707, 47.03922, -2993.881591796875]]], [[[-124.79858, 47.04008, -2226.510498046875], [-124.80245, 47.04804, -2747.152587890625], [-124.80707, 47.03922, -2993.881591796875], [-124.79858, 47.04008, -2226.510498046875]]], [[[-124.79858, 47.04008, -2226.510498046875], [-124.79349, 47.04879, -1933.7259521484375], [-124.80245, 47.04804, -2747.152587890625], [-124.79858, 47.04008, -2226.510498046875]]], [[[-124.79858, 47.04008, -2226.510498046875], [-124.7904, 47.04126, -1493.2491455078125], [-124.79349, 47.04879, -1933.7259521484375], [-124.79858, 47.04008, -2226.510498046875]]], [[[-124.7904, 47.04126, -1493.2491455078125], [-124.79858, 47.04008, -2226.510498046875], [-124.79269, 47.03295, -1603.953369140625], [-124.7904, 47.04126, -1493.2491455078125]]], [[[-124.7904, 47.04126, -1493.2491455078125], [-124.79269, 47.03295, -1603.953369140625], [-124.78408, 47.03714, -856.8132934570312], [-124.7904, 47.04126, -1493.2491455078125]]], [[[-124.7904, 47.04126, -1493.2491455078125], [-124.78408, 47.03714, -856.8132934570312], [-124.7834, 47.04782, -980.032958984375], [-124.7904, 47.04126, -1493.2491455078125]]], [[[-124.7904, 47.04126, -1493.2491455078125], [-124.7834, 47.04782, -980.032958984375], [-124.79349, 47.04879, -1933.7259521484375], [-124.7904, 47.04126, -1493.2491455078125]]], [[[-124.79349, 47.04879, -1933.7259521484375], [-124.7834, 47.04782, -980.032958984375], [-124.78916, 47.05747, -1707.39599609375], [-124.79349, 47.04879, -1933.7259521484375]]], [[[-124.79349, 47.04879, -1933.7259521484375], [-124.78916, 47.05747, -1707.39599609375], [-124.79774, 47.0567, -2485.62451171875], [-124.79349, 47.04879, -1933.7259521484375]]], [[[-124.80632, 47.05594, -3263.85302734375], [-124.80245, 47.04804, -2747.152587890625], [-124.79774, 47.0567, -2485.62451171875], [-124.80632, 47.05594, -3263.85302734375]]], [[[-124.81103, 47.04727, -3525.290771484375], [-124.80632, 47.05594, -3263.85302734375], [-124.8149, 47.05517, -4042.081298828125], [-124.81103, 47.04727, -3525.290771484375]]], [[[-124.81961, 47.0465, -4303.4287109375], [-124.81103, 47.04727, -3525.290771484375], [-124.8149, 47.05517, -4042.081298828125], [-124.81961, 47.0465, -4303.4287109375]]], [[[-124.81961, 47.0465, -4303.4287109375], [-124.8149, 47.05517, -4042.081298828125], [-124.82348, 47.0544, -4820.31005859375], [-124.81961, 47.0465, -4303.4287109375]]], [[[-124.82819, 47.04573, -5081.5673828125], [-124.81961, 47.0465, -4303.4287109375], [-124.82348, 47.0544, -4820.31005859375], [-124.82819, 47.04573, -5081.5673828125]]], [[[-124.82819, 47.04573, -5081.5673828125], [-124.82348, 47.0544, -4820.31005859375], [-124.83206, 47.05363, -5598.53857421875], [-124.82819, 47.04573, -5081.5673828125]]], [[[-124.78916, 47.05747, -1707.39599609375], [-124.7834, 47.04782, -980.032958984375], [-124.78058, 47.05823, -929.16748046875], [-124.78916, 47.05747, -1707.39599609375]]], [[[-124.78527, 47.02819, -878.803955078125], [-124.78408, 47.03714, -856.8132934570312], [-124.79269, 47.03295, -1603.953369140625], [-124.78527, 47.02819, -878.803955078125]]], [[[-124.79359, 47.02379, -1599.4796142578125], [-124.78527, 47.02819, -878.803955078125], [-124.79269, 47.03295, -1603.953369140625], [-124.79359, 47.02379, -1599.4796142578125]]], [[[-124.80156, 47.03033, -2389.520263671875], [-124.79359, 47.02379, -1599.4796142578125], [-124.79269, 47.03295, -1603.953369140625], [-124.80156, 47.03033, -2389.520263671875]]], [[[-124.80156, 47.03033, -2389.520263671875], [-124.79269, 47.03295, -1603.953369140625], [-124.79858, 47.04008, -2226.510498046875], [-124.80156, 47.03033, -2389.520263671875]]], [[[-124.80156, 47.03033, -2389.520263671875], [-124.79858, 47.04008, -2226.510498046875], [-124.80707, 47.03922, -2993.881591796875], [-124.80156, 47.03033, -2389.520263671875]]], [[[-124.81237, 46.9572, -6209.04150390625], [-124.82061, 46.96026, -6748.02880859375], [-124.81643, 46.94979, -6927.09130859375], [-124.81237, 46.9572, -6209.04150390625]]], [[[-124.81132, 47.0309, -3289.900146484375], [-124.80156, 47.03033, -2389.520263671875], [-124.80707, 47.03922, -2993.881591796875], [-124.81132, 47.0309, -3289.900146484375]]], [[[-124.80182, 46.9548, -5430.177734375], [-124.79691, 46.96025, -4716.36962890625], [-124.80699, 46.96252, -5451.4287109375], [-124.80182, 46.9548, -5430.177734375]]], [[[-124.80782, 47.02328, -2899.81591796875], [-124.80156, 47.03033, -2389.520263671875], [-124.81132, 47.0309, -3289.900146484375], [-124.80782, 47.02328, -2899.81591796875]]], [[[-124.81552, 47.02162, -3590.753662109375], [-124.80782, 47.02328, -2899.81591796875], [-124.81132, 47.0309, -3289.900146484375], [-124.81552, 47.02162, -3590.753662109375]]], [[[-124.81552, 47.02162, -3590.753662109375], [-124.81132, 47.0309, -3289.900146484375], [-124.82001, 47.02981, -4074.387451171875], [-124.81552, 47.02162, -3590.753662109375]]], [[[-124.81552, 47.02162, -3590.753662109375], [-124.82001, 47.02981, -4074.387451171875], [-124.82406, 47.02095, -4367.44140625], [-124.81552, 47.02162, -3590.753662109375]]], [[[-124.81827, 47.01275, -3823.23095703125], [-124.81552, 47.02162, -3590.753662109375], [-124.82406, 47.02095, -4367.44140625], [-124.81827, 47.01275, -3823.23095703125]]], [[[-124.82784, 47.01215, -4692.4833984375], [-124.81827, 47.01275, -3823.23095703125], [-124.82406, 47.02095, -4367.44140625], [-124.82784, 47.01215, -4692.4833984375]]], [[[-124.82175, 47.00342, -4215.93212890625], [-124.81827, 47.01275, -3823.23095703125], [-124.82784, 47.01215, -4692.4833984375], [-124.82175, 47.00342, -4215.93212890625]]], [[[-124.82175, 47.00342, -4215.93212890625], [-124.81377, 47.00466, -3484.600341796875], [-124.81827, 47.01275, -3823.23095703125], [-124.82175, 47.00342, -4215.93212890625]]], [[[-124.82175, 47.00342, -4215.93212890625], [-124.81124, 46.99433, -3684.370849609375], [-124.81377, 47.00466, -3484.600341796875], [-124.82175, 47.00342, -4215.93212890625]]], [[[-124.82282, 46.9947, -4666.9599609375], [-124.81124, 46.99433, -3684.370849609375], [-124.82175, 47.00342, -4215.93212890625], [-124.82282, 46.9947, -4666.9599609375]]], [[[-124.82282, 46.9947, -4666.9599609375], [-124.81429, 46.98685, -4415.9189453125], [-124.81124, 46.99433, -3684.370849609375], [-124.82282, 46.9947, -4666.9599609375]]], [[[-124.82576, 46.98619, -5434.70166015625], [-124.81429, 46.98685, -4415.9189453125], [-124.82282, 46.9947, -4666.9599609375], [-124.82576, 46.98619, -5434.70166015625]]], [[[-124.82576, 46.98619, -5434.70166015625], [-124.8167, 46.98042, -5069.86083984375], [-124.81429, 46.98685, -4415.9189453125], [-124.82576, 46.98619, -5434.70166015625]]], [[[-124.82576, 46.98619, -5434.70166015625], [-124.8214, 46.97637, -5764.0478515625], [-124.8167, 46.98042, -5069.86083984375], [-124.82576, 46.98619, -5434.70166015625]]], [[[-124.8214, 46.97637, -5764.0478515625], [-124.82576, 46.98619, -5434.70166015625], [-124.83147, 46.98016, -6333.9951171875], [-124.8214, 46.97637, -5764.0478515625]]], [[[-124.8214, 46.97637, -5764.0478515625], [-124.8111, 46.97118, -5261.77734375], [-124.8167, 46.98042, -5069.86083984375], [-124.8214, 46.97637, -5764.0478515625]]], [[[-124.8167, 46.98042, -5069.86083984375], [-124.8111, 46.97118, -5261.77734375], [-124.80682, 46.97697, -4491.14306640625], [-124.8167, 46.98042, -5069.86083984375]]], [[[-124.8167, 46.98042, -5069.86083984375], [-124.80682, 46.97697, -4491.14306640625], [-124.81429, 46.98685, -4415.9189453125], [-124.8167, 46.98042, -5069.86083984375]]], [[[-124.81429, 46.98685, -4415.9189453125], [-124.80682, 46.97697, -4491.14306640625], [-124.80343, 46.98348, -3727.104736328125], [-124.81429, 46.98685, -4415.9189453125]]], [[[-124.81429, 46.98685, -4415.9189453125], [-124.80343, 46.98348, -3727.104736328125], [-124.81124, 46.99433, -3684.370849609375], [-124.81429, 46.98685, -4415.9189453125]]], [[[-124.80343, 46.98348, -3727.104736328125], [-124.79647, 46.97373, -3845.501220703125], [-124.79276, 46.98013, -3074.090087890625], [-124.80343, 46.98348, -3727.104736328125]]], [[[-124.80682, 46.97697, -4491.14306640625], [-124.79647, 46.97373, -3845.501220703125], [-124.80343, 46.98348, -3727.104736328125], [-124.80682, 46.97697, -4491.14306640625]]], [[[-124.80095, 46.96795, -4621.8564453125], [-124.79647, 46.97373, -3845.501220703125], [-124.80682, 46.97697, -4491.14306640625], [-124.80095, 46.96795, -4621.8564453125]]], [[[-124.80095, 46.96795, -4621.8564453125], [-124.79076, 46.96562, -3881.704833984375], [-124.79647, 46.97373, -3845.501220703125], [-124.80095, 46.96795, -4621.8564453125]]], [[[-124.80095, 46.96795, -4621.8564453125], [-124.79691, 46.96025, -4716.36962890625], [-124.79076, 46.96562, -3881.704833984375], [-124.80095, 46.96795, -4621.8564453125]]], [[[-124.80095, 46.96795, -4621.8564453125], [-124.80699, 46.96252, -5451.4287109375], [-124.79691, 46.96025, -4716.36962890625], [-124.80095, 46.96795, -4621.8564453125]]], [[[-124.8111, 46.97118, -5261.77734375], [-124.80699, 46.96252, -5451.4287109375], [-124.80095, 46.96795, -4621.8564453125], [-124.8111, 46.97118, -5261.77734375]]], [[[-124.81617, 46.96656, -6005.63330078125], [-124.80699, 46.96252, -5451.4287109375], [-124.8111, 46.97118, -5261.77734375], [-124.81617, 46.96656, -6005.63330078125]]], [[[-124.81237, 46.9572, -6209.04150390625], [-124.81617, 46.96656, -6005.63330078125], [-124.82061, 46.96026, -6748.02880859375], [-124.81237, 46.9572, -6209.04150390625]]], [[[-124.81237, 46.9572, -6209.04150390625], [-124.81643, 46.94979, -6927.09130859375], [-124.80768, 46.95, -6131.48291015625], [-124.81237, 46.9572, -6209.04150390625]]], [[[-124.80182, 46.9548, -5430.177734375], [-124.81237, 46.9572, -6209.04150390625], [-124.80768, 46.95, -6131.48291015625], [-124.80182, 46.9548, -5430.177734375]]], [[[-124.80182, 46.9548, -5430.177734375], [-124.80699, 46.96252, -5451.4287109375], [-124.81237, 46.9572, -6209.04150390625], [-124.80182, 46.9548, -5430.177734375]]], [[[-124.79114, 46.95167, -4627.84619140625], [-124.79691, 46.96025, -4716.36962890625], [-124.80182, 46.9548, -5430.177734375], [-124.79114, 46.95167, -4627.84619140625]]], [[[-124.79114, 46.95167, -4627.84619140625], [-124.78683, 46.95791, -3973.519775390625], [-124.79691, 46.96025, -4716.36962890625], [-124.79114, 46.95167, -4627.84619140625]]], [[[-124.79691, 46.96025, -4716.36962890625], [-124.78683, 46.95791, -3973.519775390625], [-124.79076, 46.96562, -3881.704833984375], [-124.79691, 46.96025, -4716.36962890625]]], [[[-124.79114, 46.95167, -4627.84619140625], [-124.80182, 46.9548, -5430.177734375], [-124.7989, 46.94783, -5334.53076171875], [-124.79114, 46.95167, -4627.84619140625]]], [[[-124.7989, 46.94783, -5334.53076171875], [-124.80182, 46.9548, -5430.177734375], [-124.80768, 46.95, -6131.48291015625], [-124.7989, 46.94783, -5334.53076171875]]], [[[-124.7989, 46.94783, -5334.53076171875], [-124.80768, 46.95, -6131.48291015625], [-124.80255, 46.94181, -5651.916015625], [-124.7989, 46.94783, -5334.53076171875]]], [[[-124.80768, 46.95, -6131.48291015625], [-124.81155, 46.94184, -6486.17822265625], [-124.80255, 46.94181, -5651.916015625], [-124.80768, 46.95, -6131.48291015625]]], [[[-124.80768, 46.95, -6131.48291015625], [-124.81643, 46.94979, -6927.09130859375], [-124.81155, 46.94184, -6486.17822265625], [-124.80768, 46.95, -6131.48291015625]]], [[[-124.80255, 46.94181, -5651.916015625], [-124.81155, 46.94184, -6486.17822265625], [-124.80712, 46.9336, -5907.21923828125], [-124.80255, 46.94181, -5651.916015625]]], [[[-124.80255, 46.94181, -5651.916015625], [-124.80712, 46.9336, -5907.21923828125], [-124.79757, 46.93457, -5041.8212890625], [-124.80255, 46.94181, -5651.916015625]]], [[[-124.81155, 46.94184, -6486.17822265625], [-124.81574, 46.93309, -6696.3388671875], [-124.80712, 46.9336, -5907.21923828125], [-124.81155, 46.94184, -6486.17822265625]]], [[[-124.81643, 46.94979, -6927.09130859375], [-124.82061, 46.96026, -6748.02880859375], [-124.82466, 46.95354, -7463.140625], [-124.81643, 46.94979, -6927.09130859375]]], [[[-124.82061, 46.96026, -6748.02880859375], [-124.82984, 46.96451, -7295.6044921875], [-124.82466, 46.95354, -7463.140625], [-124.82061, 46.96026, -6748.02880859375]]], [[[-124.82571, 46.97067, -6529.626953125], [-124.82984, 46.96451, -7295.6044921875], [-124.82061, 46.96026, -6748.02880859375], [-124.82571, 46.97067, -6529.626953125]]], [[[-124.82984, 46.96451, -7295.6044921875], [-124.82571, 46.97067, -6529.626953125], [-124.83595, 46.9743, -7142.56396484375], [-124.82984, 46.96451, -7295.6044921875]]], [[[-124.82984, 46.96451, -7295.6044921875], [-124.83595, 46.9743, -7142.56396484375], [-124.8401, 46.96835, -7908.73291015625], [-124.82984, 46.96451, -7295.6044921875]]], [[[-124.82984, 46.96451, -7295.6044921875], [-124.8401, 46.96835, -7908.73291015625], [-124.83416, 46.95819, -8028.98876953125], [-124.82984, 46.96451, -7295.6044921875]]], [[[-124.82466, 46.95354, -7463.140625], [-124.82984, 46.96451, -7295.6044921875], [-124.83416, 46.95819, -8028.98876953125], [-124.82466, 46.95354, -7463.140625]]], [[[-124.82466, 46.95354, -7463.140625], [-124.83416, 46.95819, -8028.98876953125], [-124.8298, 46.9468, -8142.61181640625], [-124.82466, 46.95354, -7463.140625]]], [[[-124.8401, 46.96835, -7908.73291015625], [-124.84416, 46.96211, -8660.83203125], [-124.83416, 46.95819, -8028.98876953125], [-124.8401, 46.96835, -7908.73291015625]]], [[[-124.84416, 46.96211, -8660.83203125], [-124.8401, 46.96835, -7908.73291015625], [-124.85051, 46.97143, -8567.08984375], [-124.84416, 46.96211, -8660.83203125]]], [[[-124.84416, 46.96211, -8660.83203125], [-124.85051, 46.97143, -8567.08984375], [-124.85426, 46.96519, -9329.458984375], [-124.84416, 46.96211, -8660.83203125]]], [[[-124.84416, 46.96211, -8660.83203125], [-124.85426, 46.96519, -9329.458984375], [-124.84848, 46.9557, -9398.6767578125], [-124.84416, 46.96211, -8660.83203125]]], [[[-124.85051, 46.97143, -8567.08984375], [-124.86057, 46.97362, -9267.439453125], [-124.85426, 46.96519, -9329.458984375], [-124.85051, 46.97143, -8567.08984375]]], [[[-124.85051, 46.97143, -8567.08984375], [-124.85677, 46.97972, -8498.5146484375], [-124.86057, 46.97362, -9267.439453125], [-124.85051, 46.97143, -8567.08984375]]], [[[-124.84655, 46.97754, -7797.384765625], [-124.85677, 46.97972, -8498.5146484375], [-124.85051, 46.97143, -8567.08984375], [-124.84655, 46.97754, -7797.384765625]]], [[[-124.85227, 46.98549, -7735.55615234375], [-124.85677, 46.97972, -8498.5146484375], [-124.84655, 46.97754, -7797.384765625], [-124.85227, 46.98549, -7735.55615234375]]], [[[-124.85677, 46.97972, -8498.5146484375], [-124.85227, 46.98549, -7735.55615234375], [-124.86228, 46.98747, -8458.203125], [-124.85677, 46.97972, -8498.5146484375]]], [[[-124.85677, 46.97972, -8498.5146484375], [-124.86228, 46.98747, -8458.203125], [-124.86677, 46.98162, -9217.9697265625], [-124.85677, 46.97972, -8498.5146484375]]], [[[-124.85677, 46.97972, -8498.5146484375], [-124.86677, 46.98162, -9217.9697265625], [-124.86057, 46.97362, -9267.439453125], [-124.85677, 46.97972, -8498.5146484375]]], [[[-124.86228, 46.98747, -8458.203125], [-124.87215, 46.98939, -9182.833984375], [-124.86677, 46.98162, -9217.9697265625], [-124.86228, 46.98747, -8458.203125]]], [[[-124.86228, 46.98747, -8458.203125], [-124.86641, 46.99478, -8427.1396484375], [-124.87215, 46.98939, -9182.833984375], [-124.86228, 46.98747, -8458.203125]]], [[[-124.8567, 46.9929, -7679.1494140625], [-124.86641, 46.99478, -8427.1396484375], [-124.86228, 46.98747, -8458.203125], [-124.8567, 46.9929, -7679.1494140625]]], [[[-124.86213, 47.00759, -7810.37841796875], [-124.86886, 47.00205, -8462.4736328125], [-124.85967, 47.00027, -7657.99755859375], [-124.86213, 47.00759, -7810.37841796875]]], [[[-124.86213, 47.00759, -7810.37841796875], [-124.86996, 47.0101, -8520.189453125], [-124.86886, 47.00205, -8462.4736328125], [-124.86213, 47.00759, -7810.37841796875]]], [[[-124.86213, 47.00759, -7810.37841796875], [-124.86104, 47.01671, -7719.974609375], [-124.86996, 47.0101, -8520.189453125], [-124.86213, 47.00759, -7810.37841796875]]], [[[-124.85434, 47.0094, -7101.126953125], [-124.86104, 47.01671, -7719.974609375], [-124.86213, 47.00759, -7810.37841796875], [-124.85434, 47.0094, -7101.126953125]]], [[[-124.85434, 47.0094, -7101.126953125], [-124.85044, 47.0185, -6764.53369140625], [-124.86104, 47.01671, -7719.974609375], [-124.85434, 47.0094, -7101.126953125]]], [[[-124.84555, 47.01004, -6302.97265625], [-124.85044, 47.0185, -6764.53369140625], [-124.85434, 47.0094, -7101.126953125], [-124.84555, 47.01004, -6302.97265625]]], [[[-124.84555, 47.01004, -6302.97265625], [-124.84124, 47.01947, -5930.0869140625], [-124.85044, 47.0185, -6764.53369140625], [-124.84555, 47.01004, -6302.97265625]]], [[[-124.84555, 47.01004, -6302.97265625], [-124.83641, 47.01138, -5472.07666015625], [-124.84124, 47.01947, -5930.0869140625], [-124.84555, 47.01004, -6302.97265625]]], [[[-124.84555, 47.01004, -6302.97265625], [-124.83993, 47.00269, -5856.900390625], [-124.83641, 47.01138, -5472.07666015625], [-124.84555, 47.01004, -6302.97265625]]], [[[-124.83993, 47.00269, -5856.900390625], [-124.84555, 47.01004, -6302.97265625], [-124.85029, 46.99982, -6820.939453125], [-124.83993, 47.00269, -5856.900390625]]], [[[-124.83224, 46.99447, -5491.7763671875], [-124.83993, 47.00269, -5856.900390625], [-124.84139, 46.99583, -6215.84765625], [-124.83224, 46.99447, -5491.7763671875]]], [[[-124.83224, 46.99447, -5491.7763671875], [-124.83099, 47.00325, -5047.17236328125], [-124.83993, 47.00269, -5856.900390625], [-124.83224, 46.99447, -5491.7763671875]]], [[[-124.82282, 46.9947, -4666.9599609375], [-124.83099, 47.00325, -5047.17236328125], [-124.83224, 46.99447, -5491.7763671875], [-124.82282, 46.9947, -4666.9599609375]]], [[[-124.82282, 46.9947, -4666.9599609375], [-124.82175, 47.00342, -4215.93212890625], [-124.83099, 47.00325, -5047.17236328125], [-124.82282, 46.9947, -4666.9599609375]]], [[[-124.83099, 47.00325, -5047.17236328125], [-124.82784, 47.01215, -4692.4833984375], [-124.83641, 47.01138, -5472.07666015625], [-124.83099, 47.00325, -5047.17236328125]]], [[[-124.83099, 47.00325, -5047.17236328125], [-124.83641, 47.01138, -5472.07666015625], [-124.83993, 47.00269, -5856.900390625], [-124.83099, 47.00325, -5047.17236328125]]], [[[-124.83641, 47.01138, -5472.07666015625], [-124.82784, 47.01215, -4692.4833984375], [-124.83268, 47.02024, -5151.3046875], [-124.83641, 47.01138, -5472.07666015625]]], [[[-124.83641, 47.01138, -5472.07666015625], [-124.83268, 47.02024, -5151.3046875], [-124.84124, 47.01947, -5930.0869140625], [-124.83641, 47.01138, -5472.07666015625]]], [[[-124.82406, 47.02095, -4367.44140625], [-124.82859, 47.02905, -4852.4013671875], [-124.83268, 47.02024, -5151.3046875], [-124.82406, 47.02095, -4367.44140625]]], [[[-124.83716, 47.02828, -5630.41552734375], [-124.82859, 47.02905, -4852.4013671875], [-124.83292, 47.03704, -5341.1494140625], [-124.83716, 47.02828, -5630.41552734375]]], [[[-124.83716, 47.02828, -5630.41552734375], [-124.83292, 47.03704, -5341.1494140625], [-124.84149, 47.03627, -6119.2275390625], [-124.83716, 47.02828, -5630.41552734375]]], [[[-124.84574, 47.02751, -6408.58349609375], [-124.83716, 47.02828, -5630.41552734375], [-124.84149, 47.03627, -6119.2275390625], [-124.84574, 47.02751, -6408.58349609375]]], [[[-124.84124, 47.01947, -5930.0869140625], [-124.83716, 47.02828, -5630.41552734375], [-124.84574, 47.02751, -6408.58349609375], [-124.84124, 47.01947, -5930.0869140625]]], [[[-124.85044, 47.0185, -6764.53369140625], [-124.84124, 47.01947, -5930.0869140625], [-124.84574, 47.02751, -6408.58349609375], [-124.85044, 47.0185, -6764.53369140625]]], [[[-124.85044, 47.0185, -6764.53369140625], [-124.84574, 47.02751, -6408.58349609375], [-124.85462, 47.02636, -7209.85400390625], [-124.85044, 47.0185, -6764.53369140625]]], [[[-124.85044, 47.0185, -6764.53369140625], [-124.85462, 47.02636, -7209.85400390625], [-124.86104, 47.01671, -7719.974609375], [-124.85044, 47.0185, -6764.53369140625]]], [[[-124.86104, 47.01671, -7719.974609375], [-124.86318, 47.02583, -7989.20556640625], [-124.87044, 47.01814, -8596.716796875], [-124.86104, 47.01671, -7719.974609375]]], [[[-124.86104, 47.01671, -7719.974609375], [-124.87044, 47.01814, -8596.716796875], [-124.86996, 47.0101, -8520.189453125], [-124.86104, 47.01671, -7719.974609375]]], [[[-124.86996, 47.0101, -8520.189453125], [-124.87044, 47.01814, -8596.716796875], [-124.87845, 47.01314, -9291.220703125], [-124.86996, 47.0101, -8520.189453125]]], [[[-124.86996, 47.0101, -8520.189453125], [-124.87845, 47.01314, -9291.220703125], [-124.87769, 47.00468, -9228.78515625], [-124.86996, 47.0101, -8520.189453125]]], [[[-124.86886, 47.00205, -8462.4736328125], [-124.86996, 47.0101, -8520.189453125], [-124.87769, 47.00468, -9228.78515625], [-124.86886, 47.00205, -8462.4736328125]]], [[[-124.86886, 47.00205, -8462.4736328125], [-124.87769, 47.00468, -9228.78515625], [-124.87597, 46.99684, -9163.994140625], [-124.86886, 47.00205, -8462.4736328125]]], [[[-124.86641, 46.99478, -8427.1396484375], [-124.86886, 47.00205, -8462.4736328125], [-124.87597, 46.99684, -9163.994140625], [-124.86641, 46.99478, -8427.1396484375]]], [[[-124.86641, 46.99478, -8427.1396484375], [-124.87597, 46.99684, -9163.994140625], [-124.87215, 46.98939, -9182.833984375], [-124.86641, 46.99478, -8427.1396484375]]], [[[-124.84139, 46.99583, -6215.84765625], [-124.84692, 46.99088, -6931.5166015625], [-124.83654, 46.98828, -6218.06494140625], [-124.84139, 46.99583, -6215.84765625]]], [[[-124.87044, 47.01814, -8596.716796875], [-124.87874, 47.02188, -9384.66796875], [-124.87845, 47.01314, -9291.220703125], [-124.87044, 47.01814, -8596.716796875]]], [[[-124.87044, 47.01814, -8596.716796875], [-124.87149, 47.02598, -8751.6201171875], [-124.87874, 47.02188, -9384.66796875], [-124.87044, 47.01814, -8596.716796875]]], [[[-124.86318, 47.02583, -7989.20556640625], [-124.87149, 47.02598, -8751.6201171875], [-124.87044, 47.01814, -8596.716796875], [-124.86318, 47.02583, -7989.20556640625]]], [[[-124.86318, 47.02583, -7989.20556640625], [-124.86758, 47.03388, -8484.712890625], [-124.87149, 47.02598, -8751.6201171875], [-124.86318, 47.02583, -7989.20556640625]]], [[[-124.86758, 47.03388, -8484.712890625], [-124.86318, 47.02583, -7989.20556640625], [-124.85865, 47.03473, -7675.38427734375], [-124.86758, 47.03388, -8484.712890625]]], [[[-124.86758, 47.03388, -8484.712890625], [-124.85865, 47.03473, -7675.38427734375], [-124.8625, 47.04265, -8194.1201171875], [-124.86758, 47.03388, -8484.712890625]]], [[[-124.86758, 47.03388, -8484.712890625], [-124.87135, 47.04149, -8989.7080078125], [-124.87772, 47.03189, -9382.94921875], [-124.86758, 47.03388, -8484.712890625]]], [[[-124.87149, 47.02598, -8751.6201171875], [-124.87772, 47.03189, -9382.94921875], [-124.87874, 47.02188, -9384.66796875], [-124.87149, 47.02598, -8751.6201171875]]], [[[-124.85865, 47.03473, -7675.38427734375], [-124.85392, 47.04342, -7415.98193359375], [-124.8625, 47.04265, -8194.1201171875], [-124.85865, 47.03473, -7675.38427734375]]], [[[-124.85865, 47.03473, -7675.38427734375], [-124.85007, 47.0355, -6897.30615234375], [-124.85392, 47.04342, -7415.98193359375], [-124.85865, 47.03473, -7675.38427734375]]], [[[-124.84574, 47.02751, -6408.58349609375], [-124.85007, 47.0355, -6897.30615234375], [-124.85462, 47.02636, -7209.85400390625], [-124.84574, 47.02751, -6408.58349609375]]], [[[-124.84574, 47.02751, -6408.58349609375], [-124.84149, 47.03627, -6119.2275390625], [-124.85007, 47.0355, -6897.30615234375], [-124.84574, 47.02751, -6408.58349609375]]], [[[-124.82576, 46.98619, -5434.70166015625], [-124.83654, 46.98828, -6218.06494140625], [-124.83147, 46.98016, -6333.9951171875], [-124.82576, 46.98619, -5434.70166015625]]], [[[-124.85007, 47.0355, -6897.30615234375], [-124.84149, 47.03627, -6119.2275390625], [-124.84534, 47.04419, -6637.84375], [-124.85007, 47.0355, -6897.30615234375]]], [[[-124.85007, 47.0355, -6897.30615234375], [-124.84534, 47.04419, -6637.84375], [-124.85392, 47.04342, -7415.98193359375], [-124.85007, 47.0355, -6897.30615234375]]], [[[-124.84149, 47.03627, -6119.2275390625], [-124.83677, 47.04496, -5859.70556640625], [-124.84534, 47.04419, -6637.84375], [-124.84149, 47.03627, -6119.2275390625]]], [[[-124.83292, 47.03704, -5341.1494140625], [-124.83677, 47.04496, -5859.70556640625], [-124.84149, 47.03627, -6119.2275390625], [-124.83292, 47.03704, -5341.1494140625]]], [[[-124.82001, 47.02981, -4074.387451171875], [-124.81576, 47.03858, -3784.992919921875], [-124.82434, 47.03781, -4563.0712890625], [-124.82001, 47.02981, -4074.387451171875]]], [[[-124.82001, 47.02981, -4074.387451171875], [-124.81132, 47.0309, -3289.900146484375], [-124.81576, 47.03858, -3784.992919921875], [-124.82001, 47.02981, -4074.387451171875]]], [[[-124.81132, 47.0309, -3289.900146484375], [-124.80707, 47.03922, -2993.881591796875], [-124.81576, 47.03858, -3784.992919921875], [-124.81132, 47.0309, -3289.900146484375]]], [[[-124.82784, 47.01215, -4692.4833984375], [-124.82406, 47.02095, -4367.44140625], [-124.83268, 47.02024, -5151.3046875], [-124.82784, 47.01215, -4692.4833984375]]], [[[-124.82576, 46.98619, -5434.70166015625], [-124.82282, 46.9947, -4666.9599609375], [-124.83224, 46.99447, -5491.7763671875], [-124.82576, 46.98619, -5434.70166015625]]], [[[-124.82576, 46.98619, -5434.70166015625], [-124.83224, 46.99447, -5491.7763671875], [-124.83654, 46.98828, -6218.06494140625], [-124.82576, 46.98619, -5434.70166015625]]], [[[-124.84197, 46.98295, -7022.130859375], [-124.83654, 46.98828, -6218.06494140625], [-124.84692, 46.99088, -6931.5166015625], [-124.84197, 46.98295, -7022.130859375]]], [[[-124.84197, 46.98295, -7022.130859375], [-124.84692, 46.99088, -6931.5166015625], [-124.85227, 46.98549, -7735.55615234375], [-124.84197, 46.98295, -7022.130859375]]], [[[-124.83595, 46.9743, -7142.56396484375], [-124.84197, 46.98295, -7022.130859375], [-124.84655, 46.97754, -7797.384765625], [-124.83595, 46.9743, -7142.56396484375]]], [[[-124.83595, 46.9743, -7142.56396484375], [-124.83147, 46.98016, -6333.9951171875], [-124.84197, 46.98295, -7022.130859375], [-124.83595, 46.9743, -7142.56396484375]]], [[[-124.83147, 46.98016, -6333.9951171875], [-124.83595, 46.9743, -7142.56396484375], [-124.82571, 46.97067, -6529.626953125], [-124.83147, 46.98016, -6333.9951171875]]], [[[-124.83595, 46.9743, -7142.56396484375], [-124.84655, 46.97754, -7797.384765625], [-124.8401, 46.96835, -7908.73291015625], [-124.83595, 46.9743, -7142.56396484375]]], [[[-124.84655, 46.97754, -7797.384765625], [-124.85051, 46.97143, -8567.08984375], [-124.8401, 46.96835, -7908.73291015625], [-124.84655, 46.97754, -7797.384765625]]], [[[-124.84692, 46.99088, -6931.5166015625], [-124.8567, 46.9929, -7679.1494140625], [-124.85227, 46.98549, -7735.55615234375], [-124.84692, 46.99088, -6931.5166015625]]], [[[-124.84692, 46.99088, -6931.5166015625], [-124.85029, 46.99982, -6820.939453125], [-124.8567, 46.9929, -7679.1494140625], [-124.84692, 46.99088, -6931.5166015625]]], [[[-124.84692, 46.99088, -6931.5166015625], [-124.84139, 46.99583, -6215.84765625], [-124.85029, 46.99982, -6820.939453125], [-124.84692, 46.99088, -6931.5166015625]]], [[[-124.83224, 46.99447, -5491.7763671875], [-124.84139, 46.99583, -6215.84765625], [-124.83654, 46.98828, -6218.06494140625], [-124.83224, 46.99447, -5491.7763671875]]], [[[-124.85029, 46.99982, -6820.939453125], [-124.85967, 47.00027, -7657.99755859375], [-124.8567, 46.9929, -7679.1494140625], [-124.85029, 46.99982, -6820.939453125]]], [[[-124.85029, 46.99982, -6820.939453125], [-124.84555, 47.01004, -6302.97265625], [-124.85434, 47.0094, -7101.126953125], [-124.85029, 46.99982, -6820.939453125]]], [[[-124.85434, 47.0094, -7101.126953125], [-124.86213, 47.00759, -7810.37841796875], [-124.85967, 47.00027, -7657.99755859375], [-124.85434, 47.0094, -7101.126953125]]], [[[-124.8567, 46.9929, -7679.1494140625], [-124.86228, 46.98747, -8458.203125], [-124.85227, 46.98549, -7735.55615234375], [-124.8567, 46.9929, -7679.1494140625]]], [[[-124.87215, 46.98939, -9182.833984375], [-124.87668, 46.98349, -9941.5419921875], [-124.86677, 46.98162, -9217.9697265625], [-124.87215, 46.98939, -9182.833984375]]], [[[-124.81617, 46.96656, -6005.63330078125], [-124.82571, 46.97067, -6529.626953125], [-124.82061, 46.96026, -6748.02880859375], [-124.81617, 46.96656, -6005.63330078125]]], [[[-124.8111, 46.97118, -5261.77734375], [-124.80095, 46.96795, -4621.8564453125], [-124.80682, 46.97697, -4491.14306640625], [-124.8111, 46.97118, -5261.77734375]]], [[[-124.78624, 46.97172, -3128.412353515625], [-124.79647, 46.97373, -3845.501220703125], [-124.79076, 46.96562, -3881.704833984375], [-124.78624, 46.97172, -3128.412353515625]]], [[[-124.79979, 46.98995, -2982.716552734375], [-124.78932, 46.98637, -2324.9189453125], [-124.79576, 46.99633, -2251.555419921875], [-124.79979, 46.98995, -2982.716552734375]]], [[[-124.80553, 47.0007, -2884.664794921875], [-124.79979, 46.98995, -2982.716552734375], [-124.79576, 46.99633, -2251.555419921875], [-124.80553, 47.0007, -2884.664794921875]]], [[[-124.81124, 46.99433, -3684.370849609375], [-124.80553, 47.0007, -2884.664794921875], [-124.81377, 47.00466, -3484.600341796875], [-124.81124, 46.99433, -3684.370849609375]]], [[[-124.79576, 46.99633, -2251.555419921875], [-124.79132, 47.00299, -1547.44091796875], [-124.80009, 47.00752, -2223.14697265625], [-124.79576, 46.99633, -2251.555419921875]]], [[[-124.79576, 46.99633, -2251.555419921875], [-124.78576, 46.99289, -1600.0828857421875], [-124.79132, 47.00299, -1547.44091796875], [-124.79576, 46.99633, -2251.555419921875]]], [[[-124.78932, 46.98637, -2324.9189453125], [-124.78576, 46.99289, -1600.0828857421875], [-124.79576, 46.99633, -2251.555419921875], [-124.78932, 46.98637, -2324.9189453125]]], [[[-124.78576, 46.99289, -1600.0828857421875], [-124.77895, 46.984, -1625.08203125], [-124.77576, 46.99056, -897.023681640625], [-124.78576, 46.99289, -1600.0828857421875]]], [[[-124.78576, 46.99289, -1600.0828857421875], [-124.77576, 46.99056, -897.023681640625], [-124.7816, 46.99926, -887.2612915039062], [-124.78576, 46.99289, -1600.0828857421875]]], [[[-124.79132, 47.00299, -1547.44091796875], [-124.78576, 46.99289, -1600.0828857421875], [-124.7816, 46.99926, -887.2612915039062], [-124.79132, 47.00299, -1547.44091796875]]], [[[-124.79132, 47.00299, -1547.44091796875], [-124.7816, 46.99926, -887.2612915039062], [-124.78529, 47.00926, -873.4118041992188], [-124.79132, 47.00299, -1547.44091796875]]], [[[-124.84497, 46.93838, -9516.044921875], [-124.85229, 46.93429, -10110.01953125], [-124.84458, 46.93132, -9334.9345703125], [-124.84497, 46.93838, -9516.044921875]]], [[[-124.76443, 46.9125, -1393.9569091796875], [-124.76583, 46.922, -1633.88818359375], [-124.77215, 46.91199, -2096.9521484375], [-124.76443, 46.9125, -1393.9569091796875]]], [[[-124.76243, 46.97477, -901.9795532226562], [-124.75263, 46.97345, -163.69674682617188], [-124.75921, 46.98124, -163.52911376953125], [-124.76243, 46.97477, -901.9795532226562]]], [[[-124.76902, 46.98244, -902.7129516601562], [-124.76243, 46.97477, -901.9795532226562], [-124.75921, 46.98124, -163.52911376953125], [-124.76902, 46.98244, -902.7129516601562]]], [[[-124.76902, 46.98244, -902.7129516601562], [-124.75921, 46.98124, -163.52911376953125], [-124.76596, 46.98895, -165.88197326660156], [-124.76902, 46.98244, -902.7129516601562]]], [[[-124.78588, 47.01881, -877.8621215820312], [-124.778, 47.01428, -164.1405029296875], [-124.77797, 47.02328, -160.72055053710938], [-124.78588, 47.01881, -877.8621215820312]]]]}}]}