{"type": "FeatureCollection", "features": [{"type": "Feature", "properties": {"name": "Nehalem Bank (east)", "CFM_ID": 405, "region": "Offshore_WAOR", "primary_state/province": "OR", "secondary_state/province": null, "avg_dip": 60, "dip_dir": "NE", "rake": 90, "slip_sense": "Reverse", "fault_level": 1, "NSHM23_sliprates": null, "QFFDAgeCatBin": null, "QFFDAgeBin": null, "upper_depth": -0.2, "upper_depth_constraint": "bathymetry", "lower_depth": -11.0, "lower_depth_constraint": "approx avg max depth of Nehalem Bank (west)", "3D_model_constraints": "trace extended at constant dip", "reference": "McNeill et al. (1998)", "nshm23_id": null, "lineage": null, "usgs_qffd_#": null, "comments": "near edge of megathrust surface,  so maximum depth is modeled at 16 km based on the average maximum depth of Nehalem Bank (west) (same system)", "id": "405"}, "geometry": {"type": "MultiPolygon", "coordinates": [[[[-124.03892, 45.52343, -10256.73046875], [-124.04841, 45.52895, -10701.70703125], [-124.05113, 45.52479, -9818.658203125], [-124.03892, 45.52343, -10256.73046875]]], [[[-123.98609, 45.52949, -14254.234375], [-123.97281, 45.52625, -14478.712890625], [-123.98051, 45.533, -15186.060546875], [-123.98609, 45.52949, -14254.234375]]], [[[-124.00926, 45.5287, -12923.76171875], [-124.01916, 45.53456, -13359.2529296875], [-124.02137, 45.53018, -12474.6669921875], [-124.00926, 45.5287, -12923.76171875]]], [[[-124.0241, 45.52601, -11592.4970703125], [-124.03347, 45.53178, -12020.90625], [-124.03619, 45.5276, -11138.818359375], [-124.0241, 45.52601, -11592.4970703125]]], [[[-123.95701, 45.53004, -16000.0], [-123.96428, 45.53218, -16000.0], [-123.95864, 45.52754, -15469.3046875], [-123.95701, 45.53004, -16000.0]]], [[[-124.01371, 45.50396, -8291.544921875], [-124.02586, 45.50386, -7652.580078125], [-124.01642, 45.49984, -7419.31201171875], [-124.01371, 45.50396, -8291.544921875]]], [[[-123.97608, 45.52221, -13588.18359375], [-123.97835, 45.51762, -12659.53125], [-123.96597, 45.51634, -13089.119140625], [-123.97608, 45.52221, -13588.18359375]]], [[[-124.00895, 45.53305, -13695.5693359375], [-124.01484, 45.53879, -14351.109375], [-124.01916, 45.53456, -13359.2529296875], [-124.00895, 45.53305, -13695.5693359375]]], [[[-123.99431, 45.49298, -7457.8037109375], [-124.00661, 45.49465, -7029.68994140625], [-123.99712, 45.48892, -6589.02734375], [-123.99431, 45.49298, -7457.8037109375]]], [[[-124.01228, 45.52468, -12051.0263671875], [-124.00926, 45.5287, -12923.76171875], [-124.02137, 45.53018, -12474.6669921875], [-124.01228, 45.52468, -12051.0263671875]]], [[[-123.97835, 45.51762, -12659.53125], [-123.96864, 45.51225, -12220.5859375], [-123.96597, 45.51634, -13089.119140625], [-123.97835, 45.51762, -12659.53125]]], [[[-124.03131, 45.4956, -5902.98046875], [-124.04045, 45.50096, -6299.55224609375], [-124.04318, 45.49679, -5417.21142578125], [-124.03131, 45.4956, -5902.98046875]]], [[[-123.99712, 45.48892, -6589.02734375], [-123.99984, 45.48483, -5722.4951171875], [-123.98733, 45.48363, -6140.85595703125], [-123.99712, 45.48892, -6589.02734375]]], [[[-124.058, 45.4942, -4081.93896484375], [-124.07014, 45.49565, -3637.317138671875], [-124.06071, 45.49003, -3198.890380859375], [-124.058, 45.4942, -4081.93896484375]]], [[[-123.97608, 45.52221, -13588.18359375], [-123.96597, 45.51634, -13089.119140625], [-123.9633, 45.52043, -13957.212890625], [-123.97608, 45.52221, -13588.18359375]]], [[[-124.0348, 45.46847, -892.2952270507812], [-124.04761, 45.47215, -890.046875], [-124.04385, 45.46641, -86.8310546875], [-124.0348, 45.46847, -892.2952270507812]]], [[[-124.04982, 45.50672, -6728.38037109375], [-124.0471, 45.5109, -7610.46826171875], [-124.05928, 45.5123, -7169.51220703125], [-124.04982, 45.50672, -6728.38037109375]]], [[[-124.03074, 45.53595, -12902.9931640625], [-124.04025, 45.54143, -13350.853515625], [-124.04297, 45.53727, -12467.8046875], [-124.03074, 45.53595, -12902.9931640625]]], [[[-124.00968, 45.49062, -6154.11669921875], [-123.99984, 45.48483, -5722.4951171875], [-123.99712, 45.48892, -6589.02734375], [-124.00968, 45.49062, -6154.11669921875]]], [[[-123.99267, 45.53656, -15167.0244140625], [-123.99685, 45.54231, -16000.0], [-124.00525, 45.54049, -15200.7978515625], [-123.99267, 45.53656, -15167.0244140625]]], [[[-123.99984, 45.48483, -5722.4951171875], [-124.00968, 45.49062, -6154.11669921875], [-124.01215, 45.48628, -5258.2138671875], [-123.99984, 45.48483, -5722.4951171875]]], [[[-123.98051, 45.533, -15186.060546875], [-123.98471, 45.53908, -16000.0], [-123.99267, 45.53656, -15167.0244140625], [-123.98051, 45.533, -15186.060546875]]], [[[-124.01642, 45.49984, -7419.31201171875], [-124.02586, 45.50386, -7652.580078125], [-124.02862, 45.49977, -6781.94873046875], [-124.01642, 45.49984, -7419.31201171875]]], [[[-124.00427, 45.49864, -7855.1396484375], [-123.99187, 45.49715, -8323.205078125], [-124.00156, 45.50298, -8765.37109375], [-124.00427, 45.49864, -7855.1396484375]]], [[[-124.03071, 45.47559, -2369.485107421875], [-124.0387, 45.47391, -1682.3564453125], [-124.02398, 45.46995, -1743.1263427734375], [-124.03071, 45.47559, -2369.485107421875]]], [[[-124.035, 45.50931, -8063.81640625], [-124.04437, 45.51507, -8492.5556640625], [-124.0471, 45.5109, -7610.46826171875], [-124.035, 45.50931, -8063.81640625]]], [[[-124.00895, 45.53305, -13695.5693359375], [-124.00926, 45.5287, -12923.76171875], [-123.99701, 45.52899, -13597.966796875], [-124.00895, 45.53305, -13695.5693359375]]], [[[-124.0387, 45.47391, -1682.3564453125], [-124.03071, 45.47559, -2369.485107421875], [-124.04218, 45.47939, -2461.173828125], [-124.0387, 45.47391, -1682.3564453125]]], [[[-124.00853, 45.51215, -10013.3701171875], [-124.01772, 45.51639, -10296.9140625], [-124.02048, 45.51223, -9416.16796875], [-124.00853, 45.51215, -10013.3701171875]]], [[[-124.07829, 45.48316, -988.1707763671875], [-124.081, 45.479, -105.12200164794922], [-124.06858, 45.47485, -96.42979431152344], [-124.07829, 45.48316, -988.1707763671875]]], [[[-124.00021, 45.52446, -12628.287109375], [-123.99058, 45.51919, -12209.2119140625], [-123.98796, 45.5237, -13142.857421875], [-124.00021, 45.52446, -12628.287109375]]], [[[-124.02801, 45.54013, -13785.2041015625], [-124.03753, 45.5456, -14233.90234375], [-124.04025, 45.54143, -13350.853515625], [-124.02801, 45.54013, -13785.2041015625]]], [[[-124.04863, 45.48844, -3653.011962890625], [-124.058, 45.4942, -4081.93896484375], [-124.06071, 45.49003, -3198.890380859375], [-124.04863, 45.48844, -3653.011962890625]]], [[[-123.96886, 45.52984, -15329.0302734375], [-123.96076, 45.52431, -14781.9384765625], [-123.95864, 45.52754, -15469.3046875], [-123.96886, 45.52984, -15329.0302734375]]], [[[-124.03347, 45.53178, -12020.90625], [-124.04569, 45.53311, -11584.755859375], [-124.03619, 45.5276, -11138.818359375], [-124.03347, 45.53178, -12020.90625]]], [[[-124.0523, 45.47863, -1746.8824462890625], [-124.04761, 45.47215, -890.046875], [-124.0387, 45.47391, -1682.3564453125], [-124.0523, 45.47863, -1746.8824462890625]]], [[[-124.04761, 45.47215, -890.046875], [-124.05634, 45.47045, -91.71419525146484], [-124.04385, 45.46641, -86.8310546875], [-124.04761, 45.47215, -890.046875]]], [[[-124.04165, 45.51925, -9374.6435546875], [-124.05113, 45.52479, -9818.658203125], [-124.05384, 45.52062, -8935.609375], [-124.04165, 45.51925, -9374.6435546875]]], [[[-123.99984, 45.48483, -5722.4951171875], [-124.01215, 45.48628, -5258.2138671875], [-124.0023, 45.48066, -4855.48974609375], [-123.99984, 45.48483, -5722.4951171875]]], [[[-123.97281, 45.52625, -14478.712890625], [-123.97608, 45.52221, -13588.18359375], [-123.9633, 45.52043, -13957.212890625], [-123.97281, 45.52625, -14478.712890625]]], [[[-124.06296, 45.4855, -2277.82958984375], [-124.07557, 45.48733, -1871.2196044921875], [-124.06618, 45.48114, -1331.778076171875], [-124.06296, 45.4855, -2277.82958984375]]], [[[-124.0023, 45.48066, -4855.48974609375], [-123.99, 45.47954, -5272.3232421875], [-123.99984, 45.48483, -5722.4951171875], [-124.0023, 45.48066, -4855.48974609375]]], [[[-123.98733, 45.48363, -6140.85595703125], [-123.99984, 45.48483, -5722.4951171875], [-123.99, 45.47954, -5272.3232421875], [-123.98733, 45.48363, -6140.85595703125]]], [[[-124.0523, 45.47863, -1746.8824462890625], [-124.05147, 45.4842, -2753.3173828125], [-124.06296, 45.4855, -2277.82958984375], [-124.0523, 45.47863, -1746.8824462890625]]], [[[-123.97281, 45.52625, -14478.712890625], [-123.96886, 45.52984, -15329.0302734375], [-123.98051, 45.533, -15186.060546875], [-123.97281, 45.52625, -14478.712890625]]], [[[-124.04982, 45.50672, -6728.38037109375], [-124.062, 45.50814, -6286.46337890625], [-124.05255, 45.50255, -5846.29296875], [-124.04982, 45.50672, -6728.38037109375]]], [[[-124.0029, 45.52053, -11792.3115234375], [-124.01498, 45.52059, -11184.884765625], [-124.00571, 45.51639, -10912.392578125], [-124.0029, 45.52053, -11792.3115234375]]], [[[-123.98609, 45.52949, -14254.234375], [-123.98051, 45.533, -15186.060546875], [-123.99267, 45.53656, -15167.0244140625], [-123.98609, 45.52949, -14254.234375]]], [[[-124.0023, 45.48066, -4855.48974609375], [-123.99267, 45.47545, -4403.79052734375], [-123.99, 45.47954, -5272.3232421875], [-124.0023, 45.48066, -4855.48974609375]]], [[[-124.06296, 45.4855, -2277.82958984375], [-124.07286, 45.49149, -2754.268310546875], [-124.07557, 45.48733, -1871.2196044921875], [-124.06296, 45.4855, -2277.82958984375]]], [[[-123.98199, 45.49181, -7877.921875], [-123.99431, 45.49298, -7457.8037109375], [-123.98466, 45.48772, -7009.38916015625], [-123.98199, 45.49181, -7877.921875]]], [[[-124.01801, 45.54502, -15217.478515625], [-124.00525, 45.54049, -15200.7978515625], [-124.0086, 45.5462, -16000.0], [-124.01801, 45.54502, -15217.478515625]]], [[[-124.0052, 45.47664, -3988.97998046875], [-123.99267, 45.47545, -4403.79052734375], [-124.0023, 45.48066, -4855.48974609375], [-124.0052, 45.47664, -3988.97998046875]]], [[[-124.0052, 45.47664, -3988.97998046875], [-123.99533, 45.47136, -3535.257568359375], [-123.99267, 45.47545, -4403.79052734375], [-124.0052, 45.47664, -3988.97998046875]]], [[[-123.97835, 45.51762, -12659.53125], [-123.98097, 45.51349, -11789.888671875], [-123.96864, 45.51225, -12220.5859375], [-123.97835, 45.51762, -12659.53125]]], [[[-124.00571, 45.51639, -10912.392578125], [-124.01772, 45.51639, -10296.9140625], [-124.00853, 45.51215, -10013.3701171875], [-124.00571, 45.51639, -10912.392578125]]], [[[-124.058, 45.4942, -4081.93896484375], [-124.05527, 45.49837, -4964.20556640625], [-124.06743, 45.49981, -4520.36572265625], [-124.058, 45.4942, -4081.93896484375]]], [[[-124.05527, 45.49837, -4964.20556640625], [-124.05255, 45.50255, -5846.29296875], [-124.06471, 45.50398, -5403.41455078125], [-124.05527, 45.49837, -4964.20556640625]]], [[[-124.0052, 45.47664, -3988.97998046875], [-124.0078, 45.47251, -3122.45654296875], [-123.99533, 45.47136, -3535.257568359375], [-124.0052, 45.47664, -3988.97998046875]]], [[[-124.04863, 45.48844, -3653.011962890625], [-124.0459, 45.49261, -4535.1611328125], [-124.058, 45.4942, -4081.93896484375], [-124.04863, 45.48844, -3653.011962890625]]], [[[-124.05527, 45.49837, -4964.20556640625], [-124.06471, 45.50398, -5403.41455078125], [-124.06743, 45.49981, -4520.36572265625], [-124.05527, 45.49837, -4964.20556640625]]], [[[-123.98386, 45.50947, -10924.4736328125], [-123.98633, 45.50531, -10059.158203125], [-123.97398, 45.50407, -10483.5205078125], [-123.98386, 45.50947, -10924.4736328125]]], [[[-124.0029, 45.52053, -11792.3115234375], [-123.99346, 45.51535, -11377.1298828125], [-123.99058, 45.51919, -12209.2119140625], [-124.0029, 45.52053, -11792.3115234375]]], [[[-124.0052, 45.47664, -3988.97998046875], [-124.01775, 45.47825, -3542.35986328125], [-124.0078, 45.47251, -3122.45654296875], [-124.0052, 45.47664, -3988.97998046875]]], [[[-123.98904, 45.5012, -9189.09765625], [-124.00156, 45.50298, -8765.37109375], [-123.99187, 45.49715, -8323.205078125], [-123.98904, 45.5012, -9189.09765625]]], [[[-123.98633, 45.50531, -10059.158203125], [-123.98904, 45.5012, -9189.09765625], [-123.97665, 45.49998, -9614.9873046875], [-123.98633, 45.50531, -10059.158203125]]], [[[-124.04165, 45.51925, -9374.6435546875], [-124.03892, 45.52343, -10256.73046875], [-124.05113, 45.52479, -9818.658203125], [-124.04165, 45.51925, -9374.6435546875]]], [[[-124.06618, 45.48114, -1331.778076171875], [-124.07557, 45.48733, -1871.2196044921875], [-124.07829, 45.48316, -988.1707763671875], [-124.06618, 45.48114, -1331.778076171875]]], [[[-124.01775, 45.47825, -3542.35986328125], [-124.0052, 45.47664, -3988.97998046875], [-124.0147, 45.48243, -4443.8037109375], [-124.01775, 45.47825, -3542.35986328125]]], [[[-124.02703, 45.48356, -3981.48583984375], [-124.01775, 45.47825, -3542.35986328125], [-124.0147, 45.48243, -4443.8037109375], [-124.02703, 45.48356, -3981.48583984375]]], [[[-124.02955, 45.51766, -9828.08203125], [-124.02682, 45.52183, -10710.431640625], [-124.03892, 45.52343, -10256.73046875], [-124.02955, 45.51766, -9828.08203125]]], [[[-124.00333, 45.45909, -929.6588745117188], [-124.01872, 45.45858, -70.23077392578125], [-124.006, 45.455, -61.125999450683594], [-124.00333, 45.45909, -929.6588745117188]]], [[[-124.02862, 45.49977, -6781.94873046875], [-124.03773, 45.50514, -7181.64599609375], [-124.04045, 45.50096, -6299.55224609375], [-124.02862, 45.49977, -6781.94873046875]]], [[[-123.96886, 45.52984, -15329.0302734375], [-123.96428, 45.53218, -16000.0], [-123.97361, 45.53527, -16000.0], [-123.96886, 45.52984, -15329.0302734375]]], [[[-123.98904, 45.5012, -9189.09765625], [-123.99187, 45.49715, -8323.205078125], [-123.97932, 45.49589, -8746.455078125], [-123.98904, 45.5012, -9189.09765625]]], [[[-123.99712, 45.48892, -6589.02734375], [-123.98733, 45.48363, -6140.85595703125], [-123.98466, 45.48772, -7009.38916015625], [-123.99712, 45.48892, -6589.02734375]]], [[[-124.00926, 45.5287, -12923.76171875], [-124.00895, 45.53305, -13695.5693359375], [-124.01916, 45.53456, -13359.2529296875], [-124.00926, 45.5287, -12923.76171875]]], [[[-123.98904, 45.5012, -9189.09765625], [-123.97932, 45.49589, -8746.455078125], [-123.97665, 45.49998, -9614.9873046875], [-123.98904, 45.5012, -9189.09765625]]], [[[-124.02703, 45.48356, -3981.48583984375], [-124.02993, 45.47951, -3113.274658203125], [-124.01775, 45.47825, -3542.35986328125], [-124.02703, 45.48356, -3981.48583984375]]], [[[-124.02955, 45.51766, -9828.08203125], [-124.03892, 45.52343, -10256.73046875], [-124.04165, 45.51925, -9374.6435546875], [-124.02955, 45.51766, -9828.08203125]]], [[[-124.001, 45.53457, -14409.08203125], [-124.00525, 45.54049, -15200.7978515625], [-124.01484, 45.53879, -14351.109375], [-124.001, 45.53457, -14409.08203125]]], [[[-123.98386, 45.50947, -10924.4736328125], [-123.97398, 45.50407, -10483.5205078125], [-123.97131, 45.50816, -11352.0537109375], [-123.98386, 45.50947, -10924.4736328125]]], [[[-123.96428, 45.53218, -16000.0], [-123.96886, 45.52984, -15329.0302734375], [-123.95864, 45.52754, -15469.3046875], [-123.96428, 45.53218, -16000.0]]], [[[-124.035, 45.50931, -8063.81640625], [-124.03228, 45.51349, -8945.986328125], [-124.04437, 45.51507, -8492.5556640625], [-124.035, 45.50931, -8063.81640625]]], [[[-124.05147, 45.4842, -2753.3173828125], [-124.04863, 45.48844, -3653.011962890625], [-124.06071, 45.49003, -3198.890380859375], [-124.05147, 45.4842, -2753.3173828125]]], [[[-124.0147, 45.48243, -4443.8037109375], [-124.0023, 45.48066, -4855.48974609375], [-124.01215, 45.48628, -5258.2138671875], [-124.0147, 45.48243, -4443.8037109375]]], [[[-124.01801, 45.54502, -15217.478515625], [-124.01484, 45.53879, -14351.109375], [-124.00525, 45.54049, -15200.7978515625], [-124.01801, 45.54502, -15217.478515625]]], [[[-124.02703, 45.48356, -3981.48583984375], [-124.03949, 45.48329, -3294.52734375], [-124.02993, 45.47951, -3113.274658203125], [-124.02703, 45.48356, -3981.48583984375]]], [[[-124.04318, 45.49679, -5417.21142578125], [-124.04045, 45.50096, -6299.55224609375], [-124.05255, 45.50255, -5846.29296875], [-124.04318, 45.49679, -5417.21142578125]]], [[[-124.01498, 45.52059, -11184.884765625], [-124.0241, 45.52601, -11592.4970703125], [-124.02682, 45.52183, -10710.431640625], [-124.01498, 45.52059, -11184.884765625]]], [[[-124.05255, 45.50255, -5846.29296875], [-124.062, 45.50814, -6286.46337890625], [-124.06471, 45.50398, -5403.41455078125], [-124.05255, 45.50255, -5846.29296875]]], [[[-124.02703, 45.48356, -3981.48583984375], [-124.03676, 45.48736, -4158.39892578125], [-124.03949, 45.48329, -3294.52734375], [-124.02703, 45.48356, -3981.48583984375]]], [[[-123.98097, 45.51349, -11789.888671875], [-123.99346, 45.51535, -11377.1298828125], [-123.98386, 45.50947, -10924.4736328125], [-123.98097, 45.51349, -11789.888671875]]], [[[-124.02439, 45.48756, -4827.74951171875], [-124.03676, 45.48736, -4158.39892578125], [-124.02703, 45.48356, -3981.48583984375], [-124.02439, 45.48756, -4827.74951171875]]], [[[-124.02586, 45.50386, -7652.580078125], [-124.03773, 45.50514, -7181.64599609375], [-124.02862, 45.49977, -6781.94873046875], [-124.02586, 45.50386, -7652.580078125]]], [[[-124.02312, 45.50808, -8542.58984375], [-124.03228, 45.51349, -8945.986328125], [-124.035, 45.50931, -8063.81640625], [-124.02312, 45.50808, -8542.58984375]]], [[[-124.02439, 45.48756, -4827.74951171875], [-124.03406, 45.49145, -5024.8720703125], [-124.03676, 45.48736, -4158.39892578125], [-124.02439, 45.48756, -4827.74951171875]]], [[[-124.04982, 45.50672, -6728.38037109375], [-124.05928, 45.5123, -7169.51220703125], [-124.062, 45.50814, -6286.46337890625], [-124.04982, 45.50672, -6728.38037109375]]], [[[-124.04045, 45.50096, -6299.55224609375], [-124.03773, 45.50514, -7181.64599609375], [-124.04982, 45.50672, -6728.38037109375], [-124.04045, 45.50096, -6299.55224609375]]], [[[-124.02439, 45.48756, -4827.74951171875], [-124.02186, 45.4916, -5676.48486328125], [-124.03406, 45.49145, -5024.8720703125], [-124.02439, 45.48756, -4827.74951171875]]], [[[-123.98796, 45.5237, -13142.857421875], [-123.97835, 45.51762, -12659.53125], [-123.97608, 45.52221, -13588.18359375], [-123.98796, 45.5237, -13142.857421875]]], [[[-124.01371, 45.50396, -8291.544921875], [-124.00427, 45.49864, -7855.1396484375], [-124.00156, 45.50298, -8765.37109375], [-124.01371, 45.50396, -8291.544921875]]], [[[-124.02186, 45.4916, -5676.48486328125], [-124.02439, 45.48756, -4827.74951171875], [-124.01215, 45.48628, -5258.2138671875], [-124.02186, 45.4916, -5676.48486328125]]], [[[-123.98633, 45.50531, -10059.158203125], [-123.97665, 45.49998, -9614.9873046875], [-123.97398, 45.50407, -10483.5205078125], [-123.98633, 45.50531, -10059.158203125]]], [[[-124.02186, 45.4916, -5676.48486328125], [-124.01215, 45.48628, -5258.2138671875], [-124.00968, 45.49062, -6154.11669921875], [-124.02186, 45.4916, -5676.48486328125]]], [[[-124.0029, 45.52053, -11792.3115234375], [-124.01228, 45.52468, -12051.0263671875], [-124.01498, 45.52059, -11184.884765625], [-124.0029, 45.52053, -11792.3115234375]]], [[[-124.03619, 45.5276, -11138.818359375], [-124.04841, 45.52895, -10701.70703125], [-124.03892, 45.52343, -10256.73046875], [-124.03619, 45.5276, -11138.818359375]]], [[[-124.02186, 45.4916, -5676.48486328125], [-124.00968, 45.49062, -6154.11669921875], [-124.01901, 45.4958, -6568.439453125], [-124.02186, 45.4916, -5676.48486328125]]], [[[-123.98796, 45.5237, -13142.857421875], [-123.97608, 45.52221, -13588.18359375], [-123.98609, 45.52949, -14254.234375], [-123.98796, 45.5237, -13142.857421875]]], [[[-124.02186, 45.4916, -5676.48486328125], [-124.01901, 45.4958, -6568.439453125], [-124.03131, 45.4956, -5902.98046875], [-124.02186, 45.4916, -5676.48486328125]]], [[[-124.00895, 45.53305, -13695.5693359375], [-124.001, 45.53457, -14409.08203125], [-124.01484, 45.53879, -14351.109375], [-124.00895, 45.53305, -13695.5693359375]]], [[[-124.03406, 45.49145, -5024.8720703125], [-124.02186, 45.4916, -5676.48486328125], [-124.03131, 45.4956, -5902.98046875], [-124.03406, 45.49145, -5024.8720703125]]], [[[-124.00021, 45.52446, -12628.287109375], [-124.0029, 45.52053, -11792.3115234375], [-123.99058, 45.51919, -12209.2119140625], [-124.00021, 45.52446, -12628.287109375]]], [[[-123.96886, 45.52984, -15329.0302734375], [-123.97281, 45.52625, -14478.712890625], [-123.96076, 45.52431, -14781.9384765625], [-123.96886, 45.52984, -15329.0302734375]]], [[[-123.98633, 45.50531, -10059.158203125], [-123.99858, 45.50691, -9618.978515625], [-123.98904, 45.5012, -9189.09765625], [-123.98633, 45.50531, -10059.158203125]]], [[[-124.04318, 45.49679, -5417.21142578125], [-124.03406, 45.49145, -5024.8720703125], [-124.03131, 45.4956, -5902.98046875], [-124.04318, 45.49679, -5417.21142578125]]], [[[-124.06618, 45.48114, -1331.778076171875], [-124.07829, 45.48316, -988.1707763671875], [-124.06858, 45.47485, -96.42979431152344], [-124.06618, 45.48114, -1331.778076171875]]], [[[-124.02586, 45.54425, -14631.2900390625], [-124.01801, 45.54502, -15217.478515625], [-124.03481, 45.54976, -15116.951171875], [-124.02586, 45.54425, -14631.2900390625]]], [[[-124.01642, 45.49984, -7419.31201171875], [-124.00661, 45.49465, -7029.68994140625], [-124.00427, 45.49864, -7855.1396484375], [-124.01642, 45.49984, -7419.31201171875]]], [[[-124.03406, 45.49145, -5024.8720703125], [-124.04318, 45.49679, -5417.21142578125], [-124.0459, 45.49261, -4535.1611328125], [-124.03406, 45.49145, -5024.8720703125]]], [[[-124.01094, 45.50816, -9181.0634765625], [-124.00156, 45.50298, -8765.37109375], [-123.99858, 45.50691, -9618.978515625], [-124.01094, 45.50816, -9181.0634765625]]], [[[-124.03074, 45.53595, -12902.9931640625], [-124.02801, 45.54013, -13785.2041015625], [-124.04025, 45.54143, -13350.853515625], [-124.03074, 45.53595, -12902.9931640625]]], [[[-124.02048, 45.51223, -9416.16796875], [-124.02955, 45.51766, -9828.08203125], [-124.03228, 45.51349, -8945.986328125], [-124.02048, 45.51223, -9416.16796875]]], [[[-124.03676, 45.48736, -4158.39892578125], [-124.03406, 45.49145, -5024.8720703125], [-124.0459, 45.49261, -4535.1611328125], [-124.03676, 45.48736, -4158.39892578125]]], [[[-124.04437, 45.51507, -8492.5556640625], [-124.05656, 45.51646, -8052.56103515625], [-124.0471, 45.5109, -7610.46826171875], [-124.04437, 45.51507, -8492.5556640625]]], [[[-124.03773, 45.50514, -7181.64599609375], [-124.0471, 45.5109, -7610.46826171875], [-124.04982, 45.50672, -6728.38037109375], [-124.03773, 45.50514, -7181.64599609375]]], [[[-124.001, 45.53457, -14409.08203125], [-124.00895, 45.53305, -13695.5693359375], [-123.99701, 45.52899, -13597.966796875], [-124.001, 45.53457, -14409.08203125]]], [[[-123.99634, 45.511, -10457.8076171875], [-123.98386, 45.50947, -10924.4736328125], [-123.99346, 45.51535, -11377.1298828125], [-123.99634, 45.511, -10457.8076171875]]], [[[-124.03676, 45.48736, -4158.39892578125], [-124.0459, 45.49261, -4535.1611328125], [-124.04863, 45.48844, -3653.011962890625], [-124.03676, 45.48736, -4158.39892578125]]], [[[-124.04437, 45.51507, -8492.5556640625], [-124.05384, 45.52062, -8935.609375], [-124.05656, 45.51646, -8052.56103515625], [-124.04437, 45.51507, -8492.5556640625]]], [[[-124.02312, 45.50808, -8542.58984375], [-124.035, 45.50931, -8063.81640625], [-124.02586, 45.50386, -7652.580078125], [-124.02312, 45.50808, -8542.58984375]]], [[[-124.03676, 45.48736, -4158.39892578125], [-124.04863, 45.48844, -3653.011962890625], [-124.03949, 45.48329, -3294.52734375], [-124.03676, 45.48736, -4158.39892578125]]], [[[-124.06071, 45.49003, -3198.890380859375], [-124.07014, 45.49565, -3637.317138671875], [-124.07286, 45.49149, -2754.268310546875], [-124.06071, 45.49003, -3198.890380859375]]], [[[-123.99267, 45.53656, -15167.0244140625], [-123.98471, 45.53908, -16000.0], [-123.99685, 45.54231, -16000.0], [-123.99267, 45.53656, -15167.0244140625]]], [[[-124.03949, 45.48329, -3294.52734375], [-124.04863, 45.48844, -3653.011962890625], [-124.05147, 45.4842, -2753.3173828125], [-124.03949, 45.48329, -3294.52734375]]], [[[-124.04761, 45.47215, -890.046875], [-124.05932, 45.47597, -861.0585327148438], [-124.05634, 45.47045, -91.71419525146484], [-124.04761, 45.47215, -890.046875]]], [[[-124.01332, 45.46381, -1292.153564453125], [-124.01872, 45.45858, -70.23077392578125], [-124.00333, 45.45909, -929.6588745117188], [-124.01332, 45.46381, -1292.153564453125]]], [[[-124.00021, 45.52446, -12628.287109375], [-124.00926, 45.5287, -12923.76171875], [-124.01228, 45.52468, -12051.0263671875], [-124.00021, 45.52446, -12628.287109375]]], [[[-124.02586, 45.54425, -14631.2900390625], [-124.03481, 45.54976, -15116.951171875], [-124.03753, 45.5456, -14233.90234375], [-124.02586, 45.54425, -14631.2900390625]]], [[[-124.03949, 45.48329, -3294.52734375], [-124.05147, 45.4842, -2753.3173828125], [-124.04218, 45.47939, -2461.173828125], [-124.03949, 45.48329, -3294.52734375]]], [[[-124.03773, 45.50514, -7181.64599609375], [-124.035, 45.50931, -8063.81640625], [-124.0471, 45.5109, -7610.46826171875], [-124.03773, 45.50514, -7181.64599609375]]], [[[-124.02801, 45.54013, -13785.2041015625], [-124.02586, 45.54425, -14631.2900390625], [-124.03753, 45.5456, -14233.90234375], [-124.02801, 45.54013, -13785.2041015625]]], [[[-124.02993, 45.47951, -3113.274658203125], [-124.03949, 45.48329, -3294.52734375], [-124.04218, 45.47939, -2461.173828125], [-124.02993, 45.47951, -3113.274658203125]]], [[[-124.02682, 45.52183, -10710.431640625], [-124.03619, 45.5276, -11138.818359375], [-124.03892, 45.52343, -10256.73046875], [-124.02682, 45.52183, -10710.431640625]]], [[[-124.02993, 45.47951, -3113.274658203125], [-124.04218, 45.47939, -2461.173828125], [-124.03071, 45.47559, -2369.485107421875], [-124.02993, 45.47951, -3113.274658203125]]], [[[-124.01916, 45.53456, -13359.2529296875], [-124.02801, 45.54013, -13785.2041015625], [-124.03074, 45.53595, -12902.9931640625], [-124.01916, 45.53456, -13359.2529296875]]], [[[-124.058, 45.4942, -4081.93896484375], [-124.06743, 45.49981, -4520.36572265625], [-124.07014, 45.49565, -3637.317138671875], [-124.058, 45.4942, -4081.93896484375]]], [[[-124.01094, 45.50816, -9181.0634765625], [-124.02048, 45.51223, -9416.16796875], [-124.02312, 45.50808, -8542.58984375], [-124.01094, 45.50816, -9181.0634765625]]], [[[-124.02993, 45.47951, -3113.274658203125], [-124.03071, 45.47559, -2369.485107421875], [-124.01967, 45.47393, -2681.19580078125], [-124.02993, 45.47951, -3113.274658203125]]], [[[-124.02993, 45.47951, -3113.274658203125], [-124.01967, 45.47393, -2681.19580078125], [-124.01775, 45.47825, -3542.35986328125], [-124.02993, 45.47951, -3113.274658203125]]], [[[-124.04045, 45.50096, -6299.55224609375], [-124.04982, 45.50672, -6728.38037109375], [-124.05255, 45.50255, -5846.29296875], [-124.04045, 45.50096, -6299.55224609375]]], [[[-124.04318, 45.49679, -5417.21142578125], [-124.05527, 45.49837, -4964.20556640625], [-124.0459, 45.49261, -4535.1611328125], [-124.04318, 45.49679, -5417.21142578125]]], [[[-123.99858, 45.50691, -9618.978515625], [-123.98633, 45.50531, -10059.158203125], [-123.99634, 45.511, -10457.8076171875], [-123.99858, 45.50691, -9618.978515625]]], [[[-124.01967, 45.47393, -2681.19580078125], [-124.0078, 45.47251, -3122.45654296875], [-124.01775, 45.47825, -3542.35986328125], [-124.01967, 45.47393, -2681.19580078125]]], [[[-124.01228, 45.52468, -12051.0263671875], [-124.0241, 45.52601, -11592.4970703125], [-124.01498, 45.52059, -11184.884765625], [-124.01228, 45.52468, -12051.0263671875]]], [[[-124.0387, 45.47391, -1682.3564453125], [-124.0348, 45.46847, -892.2952270507812], [-124.02398, 45.46995, -1743.1263427734375], [-124.0387, 45.47391, -1682.3564453125]]], [[[-124.01967, 45.47393, -2681.19580078125], [-124.01051, 45.46832, -2237.870849609375], [-124.0078, 45.47251, -3122.45654296875], [-124.01967, 45.47393, -2681.19580078125]]], [[[-124.02439, 45.48756, -4827.74951171875], [-124.0147, 45.48243, -4443.8037109375], [-124.01215, 45.48628, -5258.2138671875], [-124.02439, 45.48756, -4827.74951171875]]], [[[-124.03619, 45.5276, -11138.818359375], [-124.04569, 45.53311, -11584.755859375], [-124.04841, 45.52895, -10701.70703125], [-124.03619, 45.5276, -11138.818359375]]], [[[-124.00853, 45.51215, -10013.3701171875], [-124.02048, 45.51223, -9416.16796875], [-124.01094, 45.50816, -9181.0634765625], [-124.00853, 45.51215, -10013.3701171875]]], [[[-124.02398, 45.46995, -1743.1263427734375], [-124.01051, 45.46832, -2237.870849609375], [-124.01967, 45.47393, -2681.19580078125], [-124.02398, 45.46995, -1743.1263427734375]]], [[[-124.02398, 45.46995, -1743.1263427734375], [-124.01332, 45.46381, -1292.153564453125], [-124.01051, 45.46832, -2237.870849609375], [-124.02398, 45.46995, -1743.1263427734375]]], [[[-124.03347, 45.53178, -12020.90625], [-124.04297, 45.53727, -12467.8046875], [-124.04569, 45.53311, -11584.755859375], [-124.03347, 45.53178, -12020.90625]]], [[[-124.0523, 45.47863, -1746.8824462890625], [-124.06618, 45.48114, -1331.778076171875], [-124.05932, 45.47597, -861.0585327148438], [-124.0523, 45.47863, -1746.8824462890625]]], [[[-124.02586, 45.50386, -7652.580078125], [-124.035, 45.50931, -8063.81640625], [-124.03773, 45.50514, -7181.64599609375], [-124.02586, 45.50386, -7652.580078125]]], [[[-124.02398, 45.46995, -1743.1263427734375], [-124.02332, 45.46451, -836.1014404296875], [-124.01332, 45.46381, -1292.153564453125], [-124.02398, 45.46995, -1743.1263427734375]]], [[[-124.02137, 45.53018, -12474.6669921875], [-124.03074, 45.53595, -12902.9931640625], [-124.03347, 45.53178, -12020.90625], [-124.02137, 45.53018, -12474.6669921875]]], [[[-124.02332, 45.46451, -836.1014404296875], [-124.02398, 45.46995, -1743.1263427734375], [-124.0348, 45.46847, -892.2952270507812], [-124.02332, 45.46451, -836.1014404296875]]], [[[-124.02332, 45.46451, -836.1014404296875], [-124.0348, 45.46847, -892.2952270507812], [-124.03115, 45.46272, -76.51258087158203], [-124.02332, 45.46451, -836.1014404296875]]], [[[-124.00021, 45.52446, -12628.287109375], [-123.99701, 45.52899, -13597.966796875], [-124.00926, 45.5287, -12923.76171875], [-124.00021, 45.52446, -12628.287109375]]], [[[-124.02332, 45.46451, -836.1014404296875], [-124.03115, 45.46272, -76.51258087158203], [-124.01872, 45.45858, -70.23077392578125], [-124.02332, 45.46451, -836.1014404296875]]], [[[-124.02048, 45.51223, -9416.16796875], [-124.03228, 45.51349, -8945.986328125], [-124.02312, 45.50808, -8542.58984375], [-124.02048, 45.51223, -9416.16796875]]], [[[-124.00571, 45.51639, -10912.392578125], [-124.01498, 45.52059, -11184.884765625], [-124.01772, 45.51639, -10296.9140625], [-124.00571, 45.51639, -10912.392578125]]], [[[-124.04165, 45.51925, -9374.6435546875], [-124.05384, 45.52062, -8935.609375], [-124.04437, 45.51507, -8492.5556640625], [-124.04165, 45.51925, -9374.6435546875]]], [[[-124.01332, 45.46381, -1292.153564453125], [-124.02332, 45.46451, -836.1014404296875], [-124.01872, 45.45858, -70.23077392578125], [-124.01332, 45.46381, -1292.153564453125]]], [[[-124.05932, 45.47597, -861.0585327148438], [-124.06618, 45.48114, -1331.778076171875], [-124.06858, 45.47485, -96.42979431152344], [-124.05932, 45.47597, -861.0585327148438]]], [[[-124.001, 45.53457, -14409.08203125], [-123.98609, 45.52949, -14254.234375], [-123.99267, 45.53656, -15167.0244140625], [-124.001, 45.53457, -14409.08203125]]], [[[-124.0471, 45.5109, -7610.46826171875], [-124.05656, 45.51646, -8052.56103515625], [-124.05928, 45.5123, -7169.51220703125], [-124.0471, 45.5109, -7610.46826171875]]], [[[-124.01332, 45.46381, -1292.153564453125], [-124.00333, 45.45909, -929.6588745117188], [-124.00067, 45.46318, -1798.1917724609375], [-124.01332, 45.46381, -1292.153564453125]]], [[[-124.01051, 45.46832, -2237.870849609375], [-124.01332, 45.46381, -1292.153564453125], [-124.00067, 45.46318, -1798.1917724609375], [-124.01051, 45.46832, -2237.870849609375]]], [[[-124.001, 45.53457, -14409.08203125], [-123.99267, 45.53656, -15167.0244140625], [-124.00525, 45.54049, -15200.7978515625], [-124.001, 45.53457, -14409.08203125]]], [[[-124.01051, 45.46832, -2237.870849609375], [-124.00067, 45.46318, -1798.1917724609375], [-123.998, 45.46727, -2666.724609375], [-124.01051, 45.46832, -2237.870849609375]]], [[[-124.01051, 45.46832, -2237.870849609375], [-123.998, 45.46727, -2666.724609375], [-124.0078, 45.47251, -3122.45654296875], [-124.01051, 45.46832, -2237.870849609375]]], [[[-124.02801, 45.54013, -13785.2041015625], [-124.01484, 45.53879, -14351.109375], [-124.02586, 45.54425, -14631.2900390625], [-124.02801, 45.54013, -13785.2041015625]]], [[[-123.99533, 45.47136, -3535.257568359375], [-124.0078, 45.47251, -3122.45654296875], [-123.998, 45.46727, -2666.724609375], [-123.99533, 45.47136, -3535.257568359375]]], [[[-124.00156, 45.50298, -8765.37109375], [-123.98904, 45.5012, -9189.09765625], [-123.99858, 45.50691, -9618.978515625], [-124.00156, 45.50298, -8765.37109375]]], [[[-123.97835, 45.51762, -12659.53125], [-123.99058, 45.51919, -12209.2119140625], [-123.98097, 45.51349, -11789.888671875], [-123.97835, 45.51762, -12659.53125]]], [[[-124.02682, 45.52183, -10710.431640625], [-124.0241, 45.52601, -11592.4970703125], [-124.03619, 45.5276, -11138.818359375], [-124.02682, 45.52183, -10710.431640625]]], [[[-124.01484, 45.53879, -14351.109375], [-124.01801, 45.54502, -15217.478515625], [-124.02586, 45.54425, -14631.2900390625], [-124.01484, 45.53879, -14351.109375]]], [[[-124.0348, 45.46847, -892.2952270507812], [-124.04385, 45.46641, -86.8310546875], [-124.03115, 45.46272, -76.51258087158203], [-124.0348, 45.46847, -892.2952270507812]]], [[[-123.97281, 45.52625, -14478.712890625], [-123.9633, 45.52043, -13957.212890625], [-123.96076, 45.52431, -14781.9384765625], [-123.97281, 45.52625, -14478.712890625]]], [[[-123.99701, 45.52899, -13597.966796875], [-123.98609, 45.52949, -14254.234375], [-124.001, 45.53457, -14409.08203125], [-123.99701, 45.52899, -13597.966796875]]], [[[-124.00853, 45.51215, -10013.3701171875], [-124.01094, 45.50816, -9181.0634765625], [-123.99858, 45.50691, -9618.978515625], [-124.00853, 45.51215, -10013.3701171875]]], [[[-124.0387, 45.47391, -1682.3564453125], [-124.04761, 45.47215, -890.046875], [-124.0348, 45.46847, -892.2952270507812], [-124.0387, 45.47391, -1682.3564453125]]], [[[-123.98097, 45.51349, -11789.888671875], [-123.98386, 45.50947, -10924.4736328125], [-123.97131, 45.50816, -11352.0537109375], [-123.98097, 45.51349, -11789.888671875]]], [[[-124.05932, 45.47597, -861.0585327148438], [-124.06858, 45.47485, -96.42979431152344], [-124.05634, 45.47045, -91.71419525146484], [-124.05932, 45.47597, -861.0585327148438]]], [[[-124.0523, 45.47863, -1746.8824462890625], [-124.05932, 45.47597, -861.0585327148438], [-124.04761, 45.47215, -890.046875], [-124.0523, 45.47863, -1746.8824462890625]]], [[[-124.0523, 45.47863, -1746.8824462890625], [-124.06296, 45.4855, -2277.82958984375], [-124.06618, 45.48114, -1331.778076171875], [-124.0523, 45.47863, -1746.8824462890625]]], [[[-123.96886, 45.52984, -15329.0302734375], [-123.97361, 45.53527, -16000.0], [-123.98051, 45.533, -15186.060546875], [-123.96886, 45.52984, -15329.0302734375]]], [[[-124.03071, 45.47559, -2369.485107421875], [-124.02398, 45.46995, -1743.1263427734375], [-124.01967, 45.47393, -2681.19580078125], [-124.03071, 45.47559, -2369.485107421875]]], [[[-124.04218, 45.47939, -2461.173828125], [-124.05147, 45.4842, -2753.3173828125], [-124.0523, 45.47863, -1746.8824462890625], [-124.04218, 45.47939, -2461.173828125]]], [[[-124.04218, 45.47939, -2461.173828125], [-124.0523, 45.47863, -1746.8824462890625], [-124.0387, 45.47391, -1682.3564453125], [-124.04218, 45.47939, -2461.173828125]]], [[[-124.02439, 45.48756, -4827.74951171875], [-124.02703, 45.48356, -3981.48583984375], [-124.0147, 45.48243, -4443.8037109375], [-124.02439, 45.48756, -4827.74951171875]]], [[[-124.05147, 45.4842, -2753.3173828125], [-124.06071, 45.49003, -3198.890380859375], [-124.06296, 45.4855, -2277.82958984375], [-124.05147, 45.4842, -2753.3173828125]]], [[[-124.0241, 45.52601, -11592.4970703125], [-124.02137, 45.53018, -12474.6669921875], [-124.03347, 45.53178, -12020.90625], [-124.0241, 45.52601, -11592.4970703125]]], [[[-123.97281, 45.52625, -14478.712890625], [-123.98609, 45.52949, -14254.234375], [-123.97608, 45.52221, -13588.18359375], [-123.97281, 45.52625, -14478.712890625]]], [[[-124.0459, 45.49261, -4535.1611328125], [-124.05527, 45.49837, -4964.20556640625], [-124.058, 45.4942, -4081.93896484375], [-124.0459, 45.49261, -4535.1611328125]]], [[[-124.02015, 45.55036, -16000.0], [-124.03481, 45.54976, -15116.951171875], [-124.01801, 45.54502, -15217.478515625], [-124.02015, 45.55036, -16000.0]]], [[[-123.98097, 45.51349, -11789.888671875], [-123.97131, 45.50816, -11352.0537109375], [-123.96864, 45.51225, -12220.5859375], [-123.98097, 45.51349, -11789.888671875]]], [[[-124.04318, 45.49679, -5417.21142578125], [-124.05255, 45.50255, -5846.29296875], [-124.05527, 45.49837, -4964.20556640625], [-124.04318, 45.49679, -5417.21142578125]]], [[[-123.99187, 45.49715, -8323.205078125], [-123.99431, 45.49298, -7457.8037109375], [-123.98199, 45.49181, -7877.921875], [-123.99187, 45.49715, -8323.205078125]]], [[[-124.03131, 45.4956, -5902.98046875], [-124.02862, 45.49977, -6781.94873046875], [-124.04045, 45.50096, -6299.55224609375], [-124.03131, 45.4956, -5902.98046875]]], [[[-124.02862, 45.49977, -6781.94873046875], [-124.03131, 45.4956, -5902.98046875], [-124.01901, 45.4958, -6568.439453125], [-124.02862, 45.49977, -6781.94873046875]]], [[[-123.99712, 45.48892, -6589.02734375], [-123.98466, 45.48772, -7009.38916015625], [-123.99431, 45.49298, -7457.8037109375], [-123.99712, 45.48892, -6589.02734375]]], [[[-124.01801, 45.54502, -15217.478515625], [-124.0086, 45.5462, -16000.0], [-124.02015, 45.55036, -16000.0], [-124.01801, 45.54502, -15217.478515625]]], [[[-124.01642, 45.49984, -7419.31201171875], [-124.02862, 45.49977, -6781.94873046875], [-124.01901, 45.4958, -6568.439453125], [-124.01642, 45.49984, -7419.31201171875]]], [[[-124.06071, 45.49003, -3198.890380859375], [-124.07286, 45.49149, -2754.268310546875], [-124.06296, 45.4855, -2277.82958984375], [-124.06071, 45.49003, -3198.890380859375]]], [[[-124.01371, 45.50396, -8291.544921875], [-124.02312, 45.50808, -8542.58984375], [-124.02586, 45.50386, -7652.580078125], [-124.01371, 45.50396, -8291.544921875]]], [[[-124.03074, 45.53595, -12902.9931640625], [-124.04297, 45.53727, -12467.8046875], [-124.03347, 45.53178, -12020.90625], [-124.03074, 45.53595, -12902.9931640625]]], [[[-124.01094, 45.50816, -9181.0634765625], [-124.02312, 45.50808, -8542.58984375], [-124.01371, 45.50396, -8291.544921875], [-124.01094, 45.50816, -9181.0634765625]]], [[[-124.00021, 45.52446, -12628.287109375], [-124.01228, 45.52468, -12051.0263671875], [-124.0029, 45.52053, -11792.3115234375], [-124.00021, 45.52446, -12628.287109375]]], [[[-124.00021, 45.52446, -12628.287109375], [-123.98796, 45.5237, -13142.857421875], [-123.99701, 45.52899, -13597.966796875], [-124.00021, 45.52446, -12628.287109375]]], [[[-124.0029, 45.52053, -11792.3115234375], [-124.00571, 45.51639, -10912.392578125], [-123.99346, 45.51535, -11377.1298828125], [-124.0029, 45.52053, -11792.3115234375]]], [[[-124.00571, 45.51639, -10912.392578125], [-123.99634, 45.511, -10457.8076171875], [-123.99346, 45.51535, -11377.1298828125], [-124.00571, 45.51639, -10912.392578125]]], [[[-123.99187, 45.49715, -8323.205078125], [-123.98199, 45.49181, -7877.921875], [-123.97932, 45.49589, -8746.455078125], [-123.99187, 45.49715, -8323.205078125]]], [[[-124.00571, 45.51639, -10912.392578125], [-124.00853, 45.51215, -10013.3701171875], [-123.99634, 45.511, -10457.8076171875], [-124.00571, 45.51639, -10912.392578125]]], [[[-124.00853, 45.51215, -10013.3701171875], [-123.99858, 45.50691, -9618.978515625], [-123.99634, 45.511, -10457.8076171875], [-124.00853, 45.51215, -10013.3701171875]]], [[[-124.01916, 45.53456, -13359.2529296875], [-124.03074, 45.53595, -12902.9931640625], [-124.02137, 45.53018, -12474.6669921875], [-124.01916, 45.53456, -13359.2529296875]]], [[[-124.01094, 45.50816, -9181.0634765625], [-124.01371, 45.50396, -8291.544921875], [-124.00156, 45.50298, -8765.37109375], [-124.01094, 45.50816, -9181.0634765625]]], [[[-124.00968, 45.49062, -6154.11669921875], [-123.99712, 45.48892, -6589.02734375], [-124.00661, 45.49465, -7029.68994140625], [-124.00968, 45.49062, -6154.11669921875]]], [[[-124.01371, 45.50396, -8291.544921875], [-124.01642, 45.49984, -7419.31201171875], [-124.00427, 45.49864, -7855.1396484375], [-124.01371, 45.50396, -8291.544921875]]], [[[-124.00661, 45.49465, -7029.68994140625], [-124.01642, 45.49984, -7419.31201171875], [-124.01901, 45.4958, -6568.439453125], [-124.00661, 45.49465, -7029.68994140625]]], [[[-124.01901, 45.4958, -6568.439453125], [-124.00968, 45.49062, -6154.11669921875], [-124.00661, 45.49465, -7029.68994140625], [-124.01901, 45.4958, -6568.439453125]]], [[[-124.00661, 45.49465, -7029.68994140625], [-123.99431, 45.49298, -7457.8037109375], [-124.00427, 45.49864, -7855.1396484375], [-124.00661, 45.49465, -7029.68994140625]]], [[[-123.99187, 45.49715, -8323.205078125], [-124.00427, 45.49864, -7855.1396484375], [-123.99431, 45.49298, -7457.8037109375], [-123.99187, 45.49715, -8323.205078125]]], [[[-123.98386, 45.50947, -10924.4736328125], [-123.99634, 45.511, -10457.8076171875], [-123.98633, 45.50531, -10059.158203125], [-123.98386, 45.50947, -10924.4736328125]]], [[[-123.99346, 45.51535, -11377.1298828125], [-123.98097, 45.51349, -11789.888671875], [-123.99058, 45.51919, -12209.2119140625], [-123.99346, 45.51535, -11377.1298828125]]], [[[-123.99058, 45.51919, -12209.2119140625], [-123.97835, 45.51762, -12659.53125], [-123.98796, 45.5237, -13142.857421875], [-123.99058, 45.51919, -12209.2119140625]]], [[[-124.03209, 45.55392, -16000.0], [-124.03481, 45.54976, -15116.951171875], [-124.02015, 45.55036, -16000.0], [-124.03209, 45.55392, -16000.0]]], [[[-123.99701, 45.52899, -13597.966796875], [-123.98796, 45.5237, -13142.857421875], [-123.98609, 45.52949, -14254.234375], [-123.99701, 45.52899, -13597.966796875]]], [[[-124.01228, 45.52468, -12051.0263671875], [-124.02137, 45.53018, -12474.6669921875], [-124.0241, 45.52601, -11592.4970703125], [-124.01228, 45.52468, -12051.0263671875]]], [[[-124.01498, 45.52059, -11184.884765625], [-124.02682, 45.52183, -10710.431640625], [-124.01772, 45.51639, -10296.9140625], [-124.01498, 45.52059, -11184.884765625]]], [[[-124.01772, 45.51639, -10296.9140625], [-124.02682, 45.52183, -10710.431640625], [-124.02955, 45.51766, -9828.08203125], [-124.01772, 45.51639, -10296.9140625]]], [[[-124.01484, 45.53879, -14351.109375], [-124.02801, 45.54013, -13785.2041015625], [-124.01916, 45.53456, -13359.2529296875], [-124.01484, 45.53879, -14351.109375]]], [[[-124.01772, 45.51639, -10296.9140625], [-124.02955, 45.51766, -9828.08203125], [-124.02048, 45.51223, -9416.16796875], [-124.01772, 45.51639, -10296.9140625]]], [[[-124.03228, 45.51349, -8945.986328125], [-124.04165, 45.51925, -9374.6435546875], [-124.04437, 45.51507, -8492.5556640625], [-124.03228, 45.51349, -8945.986328125]]], [[[-124.03228, 45.51349, -8945.986328125], [-124.02955, 45.51766, -9828.08203125], [-124.04165, 45.51925, -9374.6435546875], [-124.03228, 45.51349, -8945.986328125]]], [[[-124.00525, 45.54049, -15200.7978515625], [-123.99685, 45.54231, -16000.0], [-124.0086, 45.5462, -16000.0], [-124.00525, 45.54049, -15200.7978515625]]], [[[-123.98051, 45.533, -15186.060546875], [-123.97361, 45.53527, -16000.0], [-123.98471, 45.53908, -16000.0], [-123.98051, 45.533, -15186.060546875]]], [[[-124.0023, 45.48066, -4855.48974609375], [-124.0147, 45.48243, -4443.8037109375], [-124.0052, 45.47664, -3988.97998046875], [-124.0023, 45.48066, -4855.48974609375]]]]}}]}