{"type": "FeatureCollection", "features": [{"type": "Feature", "properties": {"name": "La Pine Graben (east)", "CFM_ID": 96, "region": "ForearcIntraarc_OR", "primary_state/province": "OR", "secondary_state/province": null, "avg_dip": 61, "dip_dir": "E", "rake": -110, "slip_sense": "Normal and Dextral", "fault_level": 1, "NSHM23_sliprates": null, "QFFDAgeCatBin": "late Quaternary", "QFFDAgeBin": "<130,000", "upper_depth": 1.4, "upper_depth_constraint": "topography", "lower_depth": -12.2, "lower_depth_constraint": "SDL", "3D_model_constraints": "trace extended at constant dip", "reference": "Alexander et al. (2022); Vadman and Bemis (2019); USGS QFFD", "nshm23_id": 2567.0, "lineage": "split and modified geometry", "usgs_qffd_#": "838", "comments": "single La Pine Graben structure in NSHM23 split into graben structure here ", "id": "96"}, "geometry": {"type": "MultiPolygon", "coordinates": [[[[-121.65594, 43.70086, -1934.7335205078125], [-121.64852, 43.70499, -1135.3753662109375], [-121.65293, 43.71029, -2031.649658203125], [-121.65594, 43.70086, -1934.7335205078125]]], [[[-121.6513, 43.69686, -1068.6336669921875], [-121.64868, 43.69084, -376.7549743652344], [-121.64456, 43.69964, -293.0245361328125], [-121.6513, 43.69686, -1068.6336669921875]]], [[[-121.64609, 43.73665, -2945.13037109375], [-121.63821, 43.74401, -2622.469970703125], [-121.64398, 43.74515, -3478.313720703125], [-121.64609, 43.73665, -2945.13037109375]]], [[[-121.73566, 43.72314, -14215.326171875], [-121.73952, 43.72847, -15034.505859375], [-121.74282, 43.72, -15036.6650390625], [-121.73566, 43.72314, -14215.326171875]]], [[[-121.65337, 43.71968, -2750.71142578125], [-121.65324, 43.72899, -3279.63818359375], [-121.65957, 43.72066, -3658.88525390625], [-121.65337, 43.71968, -2750.71142578125]]], [[[-121.68256, 43.73477, -7638.62939453125], [-121.67673, 43.73349, -6762.671875], [-121.67513, 43.74228, -7250.751953125], [-121.68256, 43.73477, -7638.62939453125]]], [[[-121.73205, 43.7313, -14216.0029296875], [-121.73952, 43.72847, -15034.505859375], [-121.73566, 43.72314, -14215.326171875], [-121.73205, 43.7313, -14216.0029296875]]], [[[-121.6402, 43.73511, -2037.9017333984375], [-121.63244, 43.74286, -1766.5531005859375], [-121.63821, 43.74401, -2622.469970703125], [-121.6402, 43.73511, -2037.9017333984375]]], [[[-121.6255, 43.72828, 473.5334777832031], [-121.62263, 43.72259, 1289.8011474609375], [-121.61783, 43.73067, 1290.034912109375], [-121.6255, 43.72828, 473.5334777832031]]], [[[-121.65594, 43.70086, -1934.7335205078125], [-121.6513, 43.69686, -1068.6336669921875], [-121.64852, 43.70499, -1135.3753662109375], [-121.65594, 43.70086, -1934.7335205078125]]], [[[-121.73205, 43.7313, -14216.0029296875], [-121.73566, 43.73679, -15028.6650390625], [-121.73952, 43.72847, -15034.505859375], [-121.73205, 43.7313, -14216.0029296875]]], [[[-121.65667, 43.69209, -1555.914306640625], [-121.66163, 43.68434, -2036.49853515625], [-121.65557, 43.68344, -1140.288818359375], [-121.65667, 43.69209, -1555.914306640625]]], [[[-121.72841, 43.73973, -14201.0888671875], [-121.73566, 43.73679, -15028.6650390625], [-121.73205, 43.7313, -14216.0029296875], [-121.72841, 43.73973, -14201.0888671875]]], [[[-121.72841, 43.73973, -14201.0888671875], [-121.73191, 43.74516, -15023.5029296875], [-121.73566, 43.73679, -15028.6650390625], [-121.72841, 43.73973, -14201.0888671875]]], [[[-121.72406, 43.74772, -14179.7666015625], [-121.73191, 43.74516, -15023.5029296875], [-121.72841, 43.73973, -14201.0888671875], [-121.72406, 43.74772, -14179.7666015625]]], [[[-121.72406, 43.74772, -14179.7666015625], [-121.72705, 43.75322, -15010.9794921875], [-121.73191, 43.74516, -15023.5029296875], [-121.72406, 43.74772, -14179.7666015625]]], [[[-121.65324, 43.72899, -3279.63818359375], [-121.64609, 43.73665, -2945.13037109375], [-121.65188, 43.73775, -3801.7822265625], [-121.65324, 43.72899, -3279.63818359375]]], [[[-121.71946, 43.75534, -14205.0205078125], [-121.72705, 43.75322, -15010.9794921875], [-121.72406, 43.74772, -14179.7666015625], [-121.71946, 43.75534, -14205.0205078125]]], [[[-121.6792, 43.70563, -5419.05615234375], [-121.67962, 43.69684, -4987.314453125], [-121.67347, 43.70444, -4560.74169921875], [-121.6792, 43.70563, -5419.05615234375]]], [[[-121.71946, 43.75534, -14205.0205078125], [-121.72129, 43.76079, -14991.83984375], [-121.72705, 43.75322, -15010.9794921875], [-121.71946, 43.75534, -14205.0205078125]]], [[[-121.71188, 43.76049, -13764.1904296875], [-121.70766, 43.76683, -13289.537109375], [-121.71338, 43.76799, -14142.9541015625], [-121.71188, 43.76049, -13764.1904296875]]], [[[-121.64044, 43.72512, -1297.7177734375], [-121.63334, 43.7257, -361.24560546875], [-121.63437, 43.734, -1174.64208984375], [-121.64044, 43.72512, -1297.7177734375]]], [[[-121.71188, 43.76049, -13764.1904296875], [-121.70673, 43.75855, -12898.46484375], [-121.70766, 43.76683, -13289.537109375], [-121.71188, 43.76049, -13764.1904296875]]], [[[-121.7151, 43.75261, -13374.4658203125], [-121.70673, 43.75855, -12898.46484375], [-121.71188, 43.76049, -13764.1904296875], [-121.7151, 43.75261, -13374.4658203125]]], [[[-121.70775, 43.75171, -12339.1953125], [-121.70673, 43.75855, -12898.46484375], [-121.7151, 43.75261, -13374.4658203125], [-121.70775, 43.75171, -12339.1953125]]], [[[-121.70673, 43.75855, -12898.46484375], [-121.70775, 43.75171, -12339.1953125], [-121.70062, 43.75793, -12055.5419921875], [-121.70673, 43.75855, -12898.46484375]]], [[[-121.62808, 43.73383, -328.0367736816406], [-121.62085, 43.74124, -112.82994079589844], [-121.62668, 43.74171, -910.5554809570312], [-121.62808, 43.73383, -328.0367736816406]]], [[[-121.70062, 43.75793, -12055.5419921875], [-121.70191, 43.76567, -12433.1708984375], [-121.70673, 43.75855, -12898.46484375], [-121.70062, 43.75793, -12055.5419921875]]], [[[-121.70062, 43.75793, -12055.5419921875], [-121.69616, 43.7645, -11576.8046875], [-121.70191, 43.76567, -12433.1708984375], [-121.70062, 43.75793, -12055.5419921875]]], [[[-121.70062, 43.75793, -12055.5419921875], [-121.69577, 43.75569, -11195.4111328125], [-121.69616, 43.7645, -11576.8046875], [-121.70062, 43.75793, -12055.5419921875]]], [[[-121.70062, 43.75793, -12055.5419921875], [-121.7037, 43.74926, -11591.908203125], [-121.69577, 43.75569, -11195.4111328125], [-121.70062, 43.75793, -12055.5419921875]]], [[[-121.61952, 43.73667, 506.4305725097656], [-121.6255, 43.72828, 473.5334777832031], [-121.61783, 43.73067, 1290.034912109375], [-121.61952, 43.73667, 506.4305725097656]]], [[[-121.70062, 43.75793, -12055.5419921875], [-121.70775, 43.75171, -12339.1953125], [-121.7037, 43.74926, -11591.908203125], [-121.70062, 43.75793, -12055.5419921875]]], [[[-121.63244, 43.74286, -1766.5531005859375], [-121.62668, 43.74171, -910.5554809570312], [-121.62723, 43.75051, -1300.4080810546875], [-121.63244, 43.74286, -1766.5531005859375]]], [[[-121.70775, 43.75171, -12339.1953125], [-121.71078, 43.7416, -11922.4833984375], [-121.7037, 43.74926, -11591.908203125], [-121.70775, 43.75171, -12339.1953125]]], [[[-121.70775, 43.75171, -12339.1953125], [-121.71381, 43.74618, -12695.3095703125], [-121.71078, 43.7416, -11922.4833984375], [-121.70775, 43.75171, -12339.1953125]]], [[[-121.63437, 43.734, -1174.64208984375], [-121.62668, 43.74171, -910.5554809570312], [-121.63244, 43.74286, -1766.5531005859375], [-121.63437, 43.734, -1174.64208984375]]], [[[-121.71381, 43.74618, -12695.3095703125], [-121.70775, 43.75171, -12339.1953125], [-121.7151, 43.75261, -13374.4658203125], [-121.71381, 43.74618, -12695.3095703125]]], [[[-121.65188, 43.73775, -3801.7822265625], [-121.64398, 43.74515, -3478.313720703125], [-121.64976, 43.74629, -4334.10107421875], [-121.65188, 43.73775, -3801.7822265625]]], [[[-121.71381, 43.74618, -12695.3095703125], [-121.7151, 43.75261, -13374.4658203125], [-121.72076, 43.74286, -13358.0185546875], [-121.71381, 43.74618, -12695.3095703125]]], [[[-121.72076, 43.74286, -13358.0185546875], [-121.71748, 43.73703, -12544.6298828125], [-121.71381, 43.74618, -12695.3095703125], [-121.72076, 43.74286, -13358.0185546875]]], [[[-121.71748, 43.73703, -12544.6298828125], [-121.72076, 43.74286, -13358.0185546875], [-121.7247, 43.73421, -13379.44140625], [-121.71748, 43.73703, -12544.6298828125]]], [[[-121.71748, 43.73703, -12544.6298828125], [-121.7247, 43.73421, -13379.44140625], [-121.72092, 43.7289, -12538.49609375], [-121.71748, 43.73703, -12544.6298828125]]], [[[-121.71307, 43.73186, -11647.6591796875], [-121.71748, 43.73703, -12544.6298828125], [-121.72092, 43.7289, -12538.49609375], [-121.71307, 43.73186, -11647.6591796875]]], [[[-121.71307, 43.73186, -11647.6591796875], [-121.71078, 43.7416, -11922.4833984375], [-121.71748, 43.73703, -12544.6298828125], [-121.71307, 43.73186, -11647.6591796875]]], [[[-121.65188, 43.73775, -3801.7822265625], [-121.64976, 43.74629, -4334.10107421875], [-121.65768, 43.73884, -4659.2568359375], [-121.65188, 43.73775, -3801.7822265625]]], [[[-121.71307, 43.73186, -11647.6591796875], [-121.70582, 43.74028, -11161.0712890625], [-121.71078, 43.7416, -11922.4833984375], [-121.71307, 43.73186, -11647.6591796875]]], [[[-121.70609, 43.73248, -10715.302734375], [-121.70582, 43.74028, -11161.0712890625], [-121.71307, 43.73186, -11647.6591796875], [-121.70609, 43.73248, -10715.302734375]]], [[[-121.70582, 43.74028, -11161.0712890625], [-121.70609, 43.73248, -10715.302734375], [-121.69983, 43.73858, -10234.5947265625], [-121.70582, 43.74028, -11161.0712890625]]], [[[-121.6255, 43.72828, 473.5334777832031], [-121.6299, 43.71969, 469.80682373046875], [-121.62263, 43.72259, 1289.8011474609375], [-121.6255, 43.72828, 473.5334777832031]]], [[[-121.70582, 43.74028, -11161.0712890625], [-121.69983, 43.73858, -10234.5947265625], [-121.69817, 43.7472, -10699.6591796875], [-121.70582, 43.74028, -11161.0712890625]]], [[[-121.62668, 43.74171, -910.5554809570312], [-121.62149, 43.74934, -444.0417175292969], [-121.62723, 43.75051, -1300.4080810546875], [-121.62668, 43.74171, -910.5554809570312]]], [[[-121.70582, 43.74028, -11161.0712890625], [-121.69817, 43.7472, -10699.6591796875], [-121.7037, 43.74926, -11591.908203125], [-121.70582, 43.74028, -11161.0712890625]]], [[[-121.70582, 43.74028, -11161.0712890625], [-121.7037, 43.74926, -11591.908203125], [-121.71078, 43.7416, -11922.4833984375], [-121.70582, 43.74028, -11161.0712890625]]], [[[-121.7037, 43.74926, -11591.908203125], [-121.69817, 43.7472, -10699.6591796875], [-121.69577, 43.75569, -11195.4111328125], [-121.7037, 43.74926, -11591.908203125]]], [[[-121.69577, 43.75569, -11195.4111328125], [-121.69817, 43.7472, -10699.6591796875], [-121.69001, 43.75449, -10333.544921875], [-121.69577, 43.75569, -11195.4111328125]]], [[[-121.69577, 43.75569, -11195.4111328125], [-121.69001, 43.75449, -10333.544921875], [-121.69042, 43.76334, -10720.4384765625], [-121.69577, 43.75569, -11195.4111328125]]], [[[-121.69577, 43.75569, -11195.4111328125], [-121.69042, 43.76334, -10720.4384765625], [-121.69616, 43.7645, -11576.8046875], [-121.69577, 43.75569, -11195.4111328125]]], [[[-121.63437, 43.734, -1174.64208984375], [-121.63334, 43.7257, -361.24560546875], [-121.62808, 43.73383, -328.0367736816406], [-121.63437, 43.734, -1174.64208984375]]], [[[-121.69001, 43.75449, -10333.544921875], [-121.68467, 43.76217, -9864.072265625], [-121.69042, 43.76334, -10720.4384765625], [-121.69001, 43.75449, -10333.544921875]]], [[[-121.69001, 43.75449, -10333.544921875], [-121.68427, 43.75331, -9476.5205078125], [-121.68467, 43.76217, -9864.072265625], [-121.69001, 43.75449, -10333.544921875]]], [[[-121.69001, 43.75449, -10333.544921875], [-121.69235, 43.74596, -9828.8740234375], [-121.68427, 43.75331, -9476.5205078125], [-121.69001, 43.75449, -10333.544921875]]], [[[-121.63437, 43.734, -1174.64208984375], [-121.62808, 43.73383, -328.0367736816406], [-121.62668, 43.74171, -910.5554809570312], [-121.63437, 43.734, -1174.64208984375]]], [[[-121.69235, 43.74596, -9828.8740234375], [-121.69001, 43.75449, -10333.544921875], [-121.69817, 43.7472, -10699.6591796875], [-121.69235, 43.74596, -9828.8740234375]]], [[[-121.69983, 43.73858, -10234.5947265625], [-121.69235, 43.74596, -9828.8740234375], [-121.69817, 43.7472, -10699.6591796875], [-121.69983, 43.73858, -10234.5947265625]]], [[[-121.69983, 43.73858, -10234.5947265625], [-121.69408, 43.73721, -9364.0869140625], [-121.69235, 43.74596, -9828.8740234375], [-121.69983, 43.73858, -10234.5947265625]]], [[[-121.7012, 43.72888, -9852.8125], [-121.69408, 43.73721, -9364.0869140625], [-121.69983, 43.73858, -10234.5947265625], [-121.7012, 43.72888, -9852.8125]]], [[[-121.66496, 43.73123, -5016.40087890625], [-121.65909, 43.73013, -4149.2568359375], [-121.65768, 43.73884, -4659.2568359375], [-121.66496, 43.73123, -5016.40087890625]]], [[[-121.69492, 43.72824, -8947.220703125], [-121.69408, 43.73721, -9364.0869140625], [-121.7012, 43.72888, -9852.8125], [-121.69492, 43.72824, -8947.220703125]]], [[[-121.62668, 43.74171, -910.5554809570312], [-121.62085, 43.74124, -112.82994079589844], [-121.62149, 43.74934, -444.0417175292969], [-121.62668, 43.74171, -910.5554809570312]]], [[[-121.69408, 43.73721, -9364.0869140625], [-121.69492, 43.72824, -8947.220703125], [-121.68833, 43.73602, -8504.0341796875], [-121.69408, 43.73721, -9364.0869140625]]], [[[-121.69408, 43.73721, -9364.0869140625], [-121.68833, 43.73602, -8504.0341796875], [-121.68663, 43.74476, -8974.2021484375], [-121.69408, 43.73721, -9364.0869140625]]], [[[-121.6299, 43.71969, 469.80682373046875], [-121.63395, 43.71109, 498.30828857421875], [-121.62639, 43.71423, 1289.572998046875], [-121.6299, 43.71969, 469.80682373046875]]], [[[-121.69408, 43.73721, -9364.0869140625], [-121.68663, 43.74476, -8974.2021484375], [-121.69235, 43.74596, -9828.8740234375], [-121.69408, 43.73721, -9364.0869140625]]], [[[-121.65768, 43.73884, -4659.2568359375], [-121.65554, 43.74742, -5189.8369140625], [-121.66349, 43.73997, -5522.03125], [-121.65768, 43.73884, -4659.2568359375]]], [[[-121.68663, 43.74476, -8974.2021484375], [-121.68427, 43.75331, -9476.5205078125], [-121.69235, 43.74596, -9828.8740234375], [-121.68663, 43.74476, -8974.2021484375]]], [[[-121.63738, 43.70241, 550.8920288085938], [-121.63327, 43.6974, 1393.7945556640625], [-121.63036, 43.70593, 1338.5191650390625], [-121.63738, 43.70241, 550.8920288085938]]], [[[-121.68427, 43.75331, -9476.5205078125], [-121.68663, 43.74476, -8974.2021484375], [-121.67855, 43.75211, -8619.2587890625], [-121.68427, 43.75331, -9476.5205078125]]], [[[-121.68427, 43.75331, -9476.5205078125], [-121.67855, 43.75211, -8619.2587890625], [-121.67893, 43.76101, -9007.7060546875], [-121.68427, 43.75331, -9476.5205078125]]], [[[-121.68427, 43.75331, -9476.5205078125], [-121.67893, 43.76101, -9007.7060546875], [-121.68467, 43.76217, -9864.072265625], [-121.68427, 43.75331, -9476.5205078125]]], [[[-121.6255, 43.72828, 473.5334777832031], [-121.63334, 43.7257, -361.24560546875], [-121.6299, 43.71969, 469.80682373046875], [-121.6255, 43.72828, 473.5334777832031]]], [[[-121.67855, 43.75211, -8619.2587890625], [-121.67318, 43.75984, -8151.33935546875], [-121.67893, 43.76101, -9007.7060546875], [-121.67855, 43.75211, -8619.2587890625]]], [[[-121.67855, 43.75211, -8619.2587890625], [-121.67283, 43.75091, -7761.63427734375], [-121.67318, 43.75984, -8151.33935546875], [-121.67855, 43.75211, -8619.2587890625]]], [[[-121.67855, 43.75211, -8619.2587890625], [-121.68087, 43.74353, -8112.19677734375], [-121.67283, 43.75091, -7761.63427734375], [-121.67855, 43.75211, -8619.2587890625]]], [[[-121.68087, 43.74353, -8112.19677734375], [-121.67855, 43.75211, -8619.2587890625], [-121.68663, 43.74476, -8974.2021484375], [-121.68087, 43.74353, -8112.19677734375]]], [[[-121.63821, 43.74401, -2622.469970703125], [-121.63244, 43.74286, -1766.5531005859375], [-121.63297, 43.75167, -2156.7744140625], [-121.63821, 43.74401, -2622.469970703125]]], [[[-121.68833, 43.73602, -8504.0341796875], [-121.68087, 43.74353, -8112.19677734375], [-121.68663, 43.74476, -8974.2021484375], [-121.68833, 43.73602, -8504.0341796875]]], [[[-121.64129, 43.70785, -283.9444885253906], [-121.63395, 43.71109, 498.30828857421875], [-121.63725, 43.71699, -377.2977600097656], [-121.64129, 43.70785, -283.9444885253906]]], [[[-121.65768, 43.73884, -4659.2568359375], [-121.64976, 43.74629, -4334.10107421875], [-121.65554, 43.74742, -5189.8369140625], [-121.65768, 43.73884, -4659.2568359375]]], [[[-121.64446, 43.75401, -3869.50732421875], [-121.64398, 43.74515, -3478.313720703125], [-121.63872, 43.75284, -3013.140869140625], [-121.64446, 43.75401, -3869.50732421875]]], [[[-121.68833, 43.73602, -8504.0341796875], [-121.68256, 43.73477, -7638.62939453125], [-121.68087, 43.74353, -8112.19677734375], [-121.68833, 43.73602, -8504.0341796875]]], [[[-121.62808, 43.73383, -328.0367736816406], [-121.61952, 43.73667, 506.4305725097656], [-121.62085, 43.74124, -112.82994079589844], [-121.62808, 43.73383, -328.0367736816406]]], [[[-121.68833, 43.73602, -8504.0341796875], [-121.6892, 43.72662, -8072.80810546875], [-121.68256, 43.73477, -7638.62939453125], [-121.68833, 43.73602, -8504.0341796875]]], [[[-121.6892, 43.72662, -8072.80810546875], [-121.68833, 43.73602, -8504.0341796875], [-121.69492, 43.72824, -8947.220703125], [-121.6892, 43.72662, -8072.80810546875]]], [[[-121.63334, 43.7257, -361.24560546875], [-121.6255, 43.72828, 473.5334777832031], [-121.62808, 43.73383, -328.0367736816406], [-121.63334, 43.7257, -361.24560546875]]], [[[-121.69593, 43.71813, -8427.6357421875], [-121.6892, 43.72662, -8072.80810546875], [-121.69492, 43.72824, -8947.220703125], [-121.69593, 43.71813, -8427.6357421875]]], [[[-121.65554, 43.74742, -5189.8369140625], [-121.64976, 43.74629, -4334.10107421875], [-121.6502, 43.75518, -4725.87353515625], [-121.65554, 43.74742, -5189.8369140625]]], [[[-121.69019, 43.717, -7569.3896484375], [-121.6892, 43.72662, -8072.80810546875], [-121.69593, 43.71813, -8427.6357421875], [-121.69019, 43.717, -7569.3896484375]]], [[[-121.69019, 43.717, -7569.3896484375], [-121.68333, 43.72537, -7195.3583984375], [-121.6892, 43.72662, -8072.80810546875], [-121.69019, 43.717, -7569.3896484375]]], [[[-121.68448, 43.71576, -6708.69287109375], [-121.68333, 43.72537, -7195.3583984375], [-121.69019, 43.717, -7569.3896484375], [-121.68448, 43.71576, -6708.69287109375]]], [[[-121.68448, 43.71576, -6708.69287109375], [-121.67737, 43.72414, -6307.21142578125], [-121.68333, 43.72537, -7195.3583984375], [-121.68448, 43.71576, -6708.69287109375]]], [[[-121.68448, 43.71576, -6708.69287109375], [-121.67868, 43.71469, -5846.85205078125], [-121.67737, 43.72414, -6307.21142578125], [-121.68448, 43.71576, -6708.69287109375]]], [[[-121.68448, 43.71576, -6708.69287109375], [-121.68493, 43.70681, -6277.3642578125], [-121.67868, 43.71469, -5846.85205078125], [-121.68448, 43.71576, -6708.69287109375]]], [[[-121.68448, 43.71576, -6708.69287109375], [-121.69066, 43.70799, -7135.728515625], [-121.68493, 43.70681, -6277.3642578125], [-121.68448, 43.71576, -6708.69287109375]]], [[[-121.68448, 43.71576, -6708.69287109375], [-121.69019, 43.717, -7569.3896484375], [-121.69066, 43.70799, -7135.728515625], [-121.68448, 43.71576, -6708.69287109375]]], [[[-121.69019, 43.717, -7569.3896484375], [-121.69638, 43.70918, -7994.28955078125], [-121.69066, 43.70799, -7135.728515625], [-121.69019, 43.717, -7569.3896484375]]], [[[-121.63821, 43.74401, -2622.469970703125], [-121.63872, 43.75284, -3013.140869140625], [-121.64398, 43.74515, -3478.313720703125], [-121.63821, 43.74401, -2622.469970703125]]], [[[-121.69019, 43.717, -7569.3896484375], [-121.69593, 43.71813, -8427.6357421875], [-121.69638, 43.70918, -7994.28955078125], [-121.69019, 43.717, -7569.3896484375]]], [[[-121.63738, 43.70241, 550.8920288085938], [-121.64061, 43.6944, 546.5111083984375], [-121.63327, 43.6974, 1393.7945556640625], [-121.63738, 43.70241, 550.8920288085938]]], [[[-121.69593, 43.71813, -8427.6357421875], [-121.7021, 43.71036, -8852.849609375], [-121.69638, 43.70918, -7994.28955078125], [-121.69593, 43.71813, -8427.6357421875]]], [[[-121.69593, 43.71813, -8427.6357421875], [-121.70169, 43.71919, -9284.732421875], [-121.7021, 43.71036, -8852.849609375], [-121.69593, 43.71813, -8427.6357421875]]], [[[-121.69593, 43.71813, -8427.6357421875], [-121.69492, 43.72824, -8947.220703125], [-121.70169, 43.71919, -9284.732421875], [-121.69593, 43.71813, -8427.6357421875]]], [[[-121.70169, 43.71919, -9284.732421875], [-121.69492, 43.72824, -8947.220703125], [-121.7012, 43.72888, -9852.8125], [-121.70169, 43.71919, -9284.732421875]]], [[[-121.64976, 43.74629, -4334.10107421875], [-121.64398, 43.74515, -3478.313720703125], [-121.64446, 43.75401, -3869.50732421875], [-121.64976, 43.74629, -4334.10107421875]]], [[[-121.70169, 43.71919, -9284.732421875], [-121.7012, 43.72888, -9852.8125], [-121.70728, 43.72027, -10118.265625], [-121.70169, 43.71919, -9284.732421875]]], [[[-121.6299, 43.71969, 469.80682373046875], [-121.62639, 43.71423, 1289.572998046875], [-121.62263, 43.72259, 1289.8011474609375], [-121.6299, 43.71969, 469.80682373046875]]], [[[-121.70169, 43.71919, -9284.732421875], [-121.70728, 43.72027, -10118.265625], [-121.70783, 43.71154, -9712.85546875], [-121.70169, 43.71919, -9284.732421875]]], [[[-121.70169, 43.71919, -9284.732421875], [-121.70783, 43.71154, -9712.85546875], [-121.7021, 43.71036, -8852.849609375], [-121.70169, 43.71919, -9284.732421875]]], [[[-121.70783, 43.71154, -9712.85546875], [-121.70825, 43.70275, -9278.86328125], [-121.7021, 43.71036, -8852.849609375], [-121.70783, 43.71154, -9712.85546875]]], [[[-121.70783, 43.71154, -9712.85546875], [-121.71398, 43.70394, -10137.70703125], [-121.70825, 43.70275, -9278.86328125], [-121.70783, 43.71154, -9712.85546875]]], [[[-121.71393, 43.71219, -10590.1220703125], [-121.71398, 43.70394, -10137.70703125], [-121.70783, 43.71154, -9712.85546875], [-121.71393, 43.71219, -10590.1220703125]]], [[[-121.71393, 43.71219, -10590.1220703125], [-121.71974, 43.70532, -11010.50390625], [-121.71398, 43.70394, -10137.70703125], [-121.71393, 43.71219, -10590.1220703125]]], [[[-121.64456, 43.69964, -293.0245361328125], [-121.63738, 43.70241, 550.8920288085938], [-121.64129, 43.70785, -283.9444885253906], [-121.64456, 43.69964, -293.0245361328125]]], [[[-121.71393, 43.71219, -10590.1220703125], [-121.72057, 43.71446, -11641.0625], [-121.71974, 43.70532, -11010.50390625], [-121.71393, 43.71219, -10590.1220703125]]], [[[-121.71389, 43.7185, -10943.0849609375], [-121.72057, 43.71446, -11641.0625], [-121.71393, 43.71219, -10590.1220703125], [-121.71389, 43.7185, -10943.0849609375]]], [[[-121.71389, 43.7185, -10943.0849609375], [-121.71751, 43.72341, -11708.138671875], [-121.72057, 43.71446, -11641.0625], [-121.71389, 43.7185, -10943.0849609375]]], [[[-121.71006, 43.72555, -10829.2978515625], [-121.71751, 43.72341, -11708.138671875], [-121.71389, 43.7185, -10943.0849609375], [-121.71006, 43.72555, -10829.2978515625]]], [[[-121.71006, 43.72555, -10829.2978515625], [-121.71307, 43.73186, -11647.6591796875], [-121.71751, 43.72341, -11708.138671875], [-121.71006, 43.72555, -10829.2978515625]]], [[[-121.71006, 43.72555, -10829.2978515625], [-121.70609, 43.73248, -10715.302734375], [-121.71307, 43.73186, -11647.6591796875], [-121.71006, 43.72555, -10829.2978515625]]], [[[-121.62149, 43.74934, -444.0417175292969], [-121.62085, 43.74124, -112.82994079589844], [-121.61574, 43.74817, 412.32464599609375], [-121.62149, 43.74934, -444.0417175292969]]], [[[-121.71006, 43.72555, -10829.2978515625], [-121.7012, 43.72888, -9852.8125], [-121.70609, 43.73248, -10715.302734375], [-121.71006, 43.72555, -10829.2978515625]]], [[[-121.71006, 43.72555, -10829.2978515625], [-121.70728, 43.72027, -10118.265625], [-121.7012, 43.72888, -9852.8125], [-121.71006, 43.72555, -10829.2978515625]]], [[[-121.70728, 43.72027, -10118.265625], [-121.71006, 43.72555, -10829.2978515625], [-121.71389, 43.7185, -10943.0849609375], [-121.70728, 43.72027, -10118.265625]]], [[[-121.66349, 43.73997, -5522.03125], [-121.66132, 43.74856, -6046.49853515625], [-121.66931, 43.74107, -6383.46826171875], [-121.66349, 43.73997, -5522.03125]]], [[[-121.70728, 43.72027, -10118.265625], [-121.71389, 43.7185, -10943.0849609375], [-121.71393, 43.71219, -10590.1220703125], [-121.70728, 43.72027, -10118.265625]]], [[[-121.70728, 43.72027, -10118.265625], [-121.71393, 43.71219, -10590.1220703125], [-121.70783, 43.71154, -9712.85546875], [-121.70728, 43.72027, -10118.265625]]], [[[-121.70609, 43.73248, -10715.302734375], [-121.7012, 43.72888, -9852.8125], [-121.69983, 43.73858, -10234.5947265625], [-121.70609, 43.73248, -10715.302734375]]], [[[-121.63395, 43.71109, 498.30828857421875], [-121.63036, 43.70593, 1338.5191650390625], [-121.62639, 43.71423, 1289.572998046875], [-121.63395, 43.71109, 498.30828857421875]]], [[[-121.71307, 43.73186, -11647.6591796875], [-121.72092, 43.7289, -12538.49609375], [-121.71751, 43.72341, -11708.138671875], [-121.71307, 43.73186, -11647.6591796875]]], [[[-121.71751, 43.72341, -11708.138671875], [-121.72092, 43.7289, -12538.49609375], [-121.72468, 43.72056, -12551.7958984375], [-121.71751, 43.72341, -11708.138671875]]], [[[-121.71751, 43.72341, -11708.138671875], [-121.72468, 43.72056, -12551.7958984375], [-121.72057, 43.71446, -11641.0625], [-121.71751, 43.72341, -11708.138671875]]], [[[-121.72786, 43.71274, -12545.875], [-121.72057, 43.71446, -11641.0625], [-121.72468, 43.72056, -12551.7958984375], [-121.72786, 43.71274, -12545.875]]], [[[-121.62085, 43.74124, -112.82994079589844], [-121.61952, 43.73667, 506.4305725097656], [-121.61574, 43.74817, 412.32464599609375], [-121.62085, 43.74124, -112.82994079589844]]], [[[-121.65554, 43.74742, -5189.8369140625], [-121.65595, 43.75634, -5582.240234375], [-121.66132, 43.74856, -6046.49853515625], [-121.65554, 43.74742, -5189.8369140625]]], [[[-121.72057, 43.71446, -11641.0625], [-121.72786, 43.71274, -12545.875], [-121.72532, 43.70626, -11834.6943359375], [-121.72057, 43.71446, -11641.0625]]], [[[-121.71911, 43.76915, -14996.3515625], [-121.72129, 43.76079, -14991.83984375], [-121.71338, 43.76799, -14142.9541015625], [-121.71911, 43.76915, -14996.3515625]]], [[[-121.6714, 43.72303, -5422.72509765625], [-121.67081, 43.73234, -5882.66455078125], [-121.67737, 43.72414, -6307.21142578125], [-121.6714, 43.72303, -5422.72509765625]]], [[[-121.72532, 43.70626, -11834.6943359375], [-121.71974, 43.70532, -11010.50390625], [-121.72057, 43.71446, -11641.0625], [-121.72532, 43.70626, -11834.6943359375]]], [[[-121.71974, 43.70532, -11010.50390625], [-121.72532, 43.70626, -11834.6943359375], [-121.72479, 43.69739, -11469.912109375], [-121.71974, 43.70532, -11010.50390625]]], [[[-121.71974, 43.70532, -11010.50390625], [-121.72479, 43.69739, -11469.912109375], [-121.71905, 43.6962, -10612.49609375], [-121.71974, 43.70532, -11010.50390625]]], [[[-121.65594, 43.70086, -1934.7335205078125], [-121.65667, 43.69209, -1555.914306640625], [-121.6513, 43.69686, -1068.6336669921875], [-121.65594, 43.70086, -1934.7335205078125]]], [[[-121.71398, 43.70394, -10137.70703125], [-121.71974, 43.70532, -11010.50390625], [-121.71905, 43.6962, -10612.49609375], [-121.71398, 43.70394, -10137.70703125]]], [[[-121.64061, 43.6944, 546.5111083984375], [-121.63699, 43.68903, 1349.4962158203125], [-121.63327, 43.6974, 1393.7945556640625], [-121.64061, 43.6944, 546.5111083984375]]], [[[-121.71398, 43.70394, -10137.70703125], [-121.71905, 43.6962, -10612.49609375], [-121.7133, 43.69501, -9755.0791015625], [-121.71398, 43.70394, -10137.70703125]]], [[[-121.70825, 43.70275, -9278.86328125], [-121.71398, 43.70394, -10137.70703125], [-121.7133, 43.69501, -9755.0791015625], [-121.70825, 43.70275, -9278.86328125]]], [[[-121.65957, 43.72066, -3658.88525390625], [-121.65909, 43.73013, -4149.2568359375], [-121.66538, 43.72213, -4541.06298828125], [-121.65957, 43.72066, -3658.88525390625]]], [[[-121.70825, 43.70275, -9278.86328125], [-121.7133, 43.69501, -9755.0791015625], [-121.70755, 43.69383, -8897.6630859375], [-121.70825, 43.70275, -9278.86328125]]], [[[-121.65979, 43.71135, -3042.55712890625], [-121.66741, 43.7035, -3669.33349609375], [-121.66138, 43.7024, -2773.74560546875], [-121.65979, 43.71135, -3042.55712890625]]], [[[-121.70253, 43.70157, -8420.5546875], [-121.70825, 43.70275, -9278.86328125], [-121.70755, 43.69383, -8897.6630859375], [-121.70253, 43.70157, -8420.5546875]]], [[[-121.66496, 43.73123, -5016.40087890625], [-121.65768, 43.73884, -4659.2568359375], [-121.66349, 43.73997, -5522.03125], [-121.66496, 43.73123, -5016.40087890625]]], [[[-121.7021, 43.71036, -8852.849609375], [-121.70825, 43.70275, -9278.86328125], [-121.70253, 43.70157, -8420.5546875], [-121.7021, 43.71036, -8852.849609375]]], [[[-121.65554, 43.74742, -5189.8369140625], [-121.6502, 43.75518, -4725.87353515625], [-121.65595, 43.75634, -5582.240234375], [-121.65554, 43.74742, -5189.8369140625]]], [[[-121.7021, 43.71036, -8852.849609375], [-121.70253, 43.70157, -8420.5546875], [-121.69638, 43.70918, -7994.28955078125], [-121.7021, 43.71036, -8852.849609375]]], [[[-121.69638, 43.70918, -7994.28955078125], [-121.70253, 43.70157, -8420.5546875], [-121.6968, 43.70039, -7562.24560546875], [-121.69638, 43.70918, -7994.28955078125]]], [[[-121.69638, 43.70918, -7994.28955078125], [-121.6968, 43.70039, -7562.24560546875], [-121.69066, 43.70799, -7135.728515625], [-121.69638, 43.70918, -7994.28955078125]]], [[[-121.69066, 43.70799, -7135.728515625], [-121.6968, 43.70039, -7562.24560546875], [-121.69107, 43.6992, -6703.93701171875], [-121.69066, 43.70799, -7135.728515625]]], [[[-121.64734, 43.71934, -1894.1754150390625], [-121.64455, 43.71388, -1136.162109375], [-121.64044, 43.72512, -1297.7177734375], [-121.64734, 43.71934, -1894.1754150390625]]], [[[-121.68493, 43.70681, -6277.3642578125], [-121.69066, 43.70799, -7135.728515625], [-121.69107, 43.6992, -6703.93701171875], [-121.68493, 43.70681, -6277.3642578125]]], [[[-121.64976, 43.74629, -4334.10107421875], [-121.64446, 43.75401, -3869.50732421875], [-121.6502, 43.75518, -4725.87353515625], [-121.64976, 43.74629, -4334.10107421875]]], [[[-121.68493, 43.70681, -6277.3642578125], [-121.69107, 43.6992, -6703.93701171875], [-121.68534, 43.69802, -5845.62841796875], [-121.68493, 43.70681, -6277.3642578125]]], [[[-121.66169, 43.75751, -6438.6064453125], [-121.66132, 43.74856, -6046.49853515625], [-121.65595, 43.75634, -5582.240234375], [-121.66169, 43.75751, -6438.6064453125]]], [[[-121.6792, 43.70563, -5419.05615234375], [-121.68493, 43.70681, -6277.3642578125], [-121.68534, 43.69802, -5845.62841796875], [-121.6792, 43.70563, -5419.05615234375]]], [[[-121.68493, 43.70681, -6277.3642578125], [-121.6792, 43.70563, -5419.05615234375], [-121.67868, 43.71469, -5846.85205078125], [-121.68493, 43.70681, -6277.3642578125]]], [[[-121.71338, 43.76799, -14142.9541015625], [-121.72129, 43.76079, -14991.83984375], [-121.71188, 43.76049, -13764.1904296875], [-121.71338, 43.76799, -14142.9541015625]]], [[[-121.67673, 43.73349, -6762.671875], [-121.67081, 43.73234, -5882.66455078125], [-121.66931, 43.74107, -6383.46826171875], [-121.67673, 43.73349, -6762.671875]]], [[[-121.67285, 43.71362, -4978.625], [-121.67868, 43.71469, -5846.85205078125], [-121.6792, 43.70563, -5419.05615234375], [-121.67285, 43.71362, -4978.625]]], [[[-121.67513, 43.74228, -7250.751953125], [-121.67283, 43.75091, -7761.63427734375], [-121.68087, 43.74353, -8112.19677734375], [-121.67513, 43.74228, -7250.751953125]]], [[[-121.63244, 43.74286, -1766.5531005859375], [-121.62723, 43.75051, -1300.4080810546875], [-121.63297, 43.75167, -2156.7744140625], [-121.63244, 43.74286, -1766.5531005859375]]], [[[-121.67285, 43.71362, -4978.625], [-121.6714, 43.72303, -5422.72509765625], [-121.67868, 43.71469, -5846.85205078125], [-121.67285, 43.71362, -4978.625]]], [[[-121.67285, 43.71362, -4978.625], [-121.66538, 43.72213, -4541.06298828125], [-121.6714, 43.72303, -5422.72509765625], [-121.67285, 43.71362, -4978.625]]], [[[-121.66687, 43.71238, -4082.129150390625], [-121.66538, 43.72213, -4541.06298828125], [-121.67285, 43.71362, -4978.625], [-121.66687, 43.71238, -4082.129150390625]]], [[[-121.63725, 43.71699, -377.2977600097656], [-121.63395, 43.71109, 498.30828857421875], [-121.6299, 43.71969, 469.80682373046875], [-121.63725, 43.71699, -377.2977600097656]]], [[[-121.66687, 43.71238, -4082.129150390625], [-121.65957, 43.72066, -3658.88525390625], [-121.66538, 43.72213, -4541.06298828125], [-121.66687, 43.71238, -4082.129150390625]]], [[[-121.66687, 43.71238, -4082.129150390625], [-121.65979, 43.71135, -3042.55712890625], [-121.65957, 43.72066, -3658.88525390625], [-121.66687, 43.71238, -4082.129150390625]]], [[[-121.67081, 43.73234, -5882.66455078125], [-121.66349, 43.73997, -5522.03125], [-121.66931, 43.74107, -6383.46826171875], [-121.67081, 43.73234, -5882.66455078125]]], [[[-121.66687, 43.71238, -4082.129150390625], [-121.66741, 43.7035, -3669.33349609375], [-121.65979, 43.71135, -3042.55712890625], [-121.66687, 43.71238, -4082.129150390625]]], [[[-121.65957, 43.72066, -3658.88525390625], [-121.65324, 43.72899, -3279.63818359375], [-121.65909, 43.73013, -4149.2568359375], [-121.65957, 43.72066, -3658.88525390625]]], [[[-121.66687, 43.71238, -4082.129150390625], [-121.67347, 43.70444, -4560.74169921875], [-121.66741, 43.7035, -3669.33349609375], [-121.66687, 43.71238, -4082.129150390625]]], [[[-121.66687, 43.71238, -4082.129150390625], [-121.67285, 43.71362, -4978.625], [-121.67347, 43.70444, -4560.74169921875], [-121.66687, 43.71238, -4082.129150390625]]], [[[-121.67285, 43.71362, -4978.625], [-121.6792, 43.70563, -5419.05615234375], [-121.67347, 43.70444, -4560.74169921875], [-121.67285, 43.71362, -4978.625]]], [[[-121.75006, 43.69422, -15013.8056640625], [-121.75219, 43.68556, -14990.103515625], [-121.74644, 43.68438, -14132.81640625], [-121.75006, 43.69422, -15013.8056640625]]], [[[-121.68256, 43.73477, -7638.62939453125], [-121.67513, 43.74228, -7250.751953125], [-121.68087, 43.74353, -8112.19677734375], [-121.68256, 43.73477, -7638.62939453125]]], [[[-121.6792, 43.70563, -5419.05615234375], [-121.68534, 43.69802, -5845.62841796875], [-121.67962, 43.69684, -4987.314453125], [-121.6792, 43.70563, -5419.05615234375]]], [[[-121.67962, 43.69684, -4987.314453125], [-121.68534, 43.69802, -5845.62841796875], [-121.68457, 43.68908, -5467.99609375], [-121.67962, 43.69684, -4987.314453125]]], [[[-121.61574, 43.74817, 412.32464599609375], [-121.61952, 43.73667, 506.4305725097656], [-121.61216, 43.73845, 1279.9970703125], [-121.61574, 43.74817, 412.32464599609375]]], [[[-121.67962, 43.69684, -4987.314453125], [-121.68457, 43.68908, -5467.99609375], [-121.67883, 43.6879, -4610.49853515625], [-121.67962, 43.69684, -4987.314453125]]], [[[-121.67962, 43.69684, -4987.314453125], [-121.67883, 43.6879, -4610.49853515625], [-121.67389, 43.69565, -4128.9990234375], [-121.67962, 43.69684, -4987.314453125]]], [[[-121.67347, 43.70444, -4560.74169921875], [-121.67962, 43.69684, -4987.314453125], [-121.67389, 43.69565, -4128.9990234375], [-121.67347, 43.70444, -4560.74169921875]]], [[[-121.72129, 43.76079, -14991.83984375], [-121.71946, 43.75534, -14205.0205078125], [-121.71188, 43.76049, -13764.1904296875], [-121.72129, 43.76079, -14991.83984375]]], [[[-121.63395, 43.71109, 498.30828857421875], [-121.63738, 43.70241, 550.8920288085938], [-121.63036, 43.70593, 1338.5191650390625], [-121.63395, 43.71109, 498.30828857421875]]], [[[-121.66741, 43.7035, -3669.33349609375], [-121.67347, 43.70444, -4560.74169921875], [-121.67389, 43.69565, -4128.9990234375], [-121.66741, 43.7035, -3669.33349609375]]], [[[-121.66741, 43.7035, -3669.33349609375], [-121.67389, 43.69565, -4128.9990234375], [-121.66816, 43.69447, -3270.916015625], [-121.66741, 43.7035, -3669.33349609375]]], [[[-121.66138, 43.7024, -2773.74560546875], [-121.66741, 43.7035, -3669.33349609375], [-121.66816, 43.69447, -3270.916015625], [-121.66138, 43.7024, -2773.74560546875]]], [[[-121.65293, 43.71029, -2031.649658203125], [-121.65979, 43.71135, -3042.55712890625], [-121.66138, 43.7024, -2773.74560546875], [-121.65293, 43.71029, -2031.649658203125]]], [[[-121.65979, 43.71135, -3042.55712890625], [-121.65293, 43.71029, -2031.649658203125], [-121.65337, 43.71968, -2750.71142578125], [-121.65979, 43.71135, -3042.55712890625]]], [[[-121.65979, 43.71135, -3042.55712890625], [-121.65337, 43.71968, -2750.71142578125], [-121.65957, 43.72066, -3658.88525390625], [-121.65979, 43.71135, -3042.55712890625]]], [[[-121.65337, 43.71968, -2750.71142578125], [-121.64702, 43.72784, -2360.708984375], [-121.65324, 43.72899, -3279.63818359375], [-121.65337, 43.71968, -2750.71142578125]]], [[[-121.64734, 43.71934, -1894.1754150390625], [-121.64702, 43.72784, -2360.708984375], [-121.65337, 43.71968, -2750.71142578125], [-121.64734, 43.71934, -1894.1754150390625]]], [[[-121.64734, 43.71934, -1894.1754150390625], [-121.64044, 43.72512, -1297.7177734375], [-121.64702, 43.72784, -2360.708984375], [-121.64734, 43.71934, -1894.1754150390625]]], [[[-121.65293, 43.71029, -2031.649658203125], [-121.64455, 43.71388, -1136.162109375], [-121.64734, 43.71934, -1894.1754150390625], [-121.65293, 43.71029, -2031.649658203125]]], [[[-121.65293, 43.71029, -2031.649658203125], [-121.64852, 43.70499, -1135.3753662109375], [-121.64455, 43.71388, -1136.162109375], [-121.65293, 43.71029, -2031.649658203125]]], [[[-121.74194, 43.69203, -13774.296875], [-121.75006, 43.69422, -15013.8056640625], [-121.74644, 43.68438, -14132.81640625], [-121.74194, 43.69203, -13774.296875]]], [[[-121.65667, 43.69209, -1555.914306640625], [-121.65594, 43.70086, -1934.7335205078125], [-121.6624, 43.69329, -2411.788330078125], [-121.65667, 43.69209, -1555.914306640625]]], [[[-121.65667, 43.69209, -1555.914306640625], [-121.6624, 43.69329, -2411.788330078125], [-121.66163, 43.68434, -2036.49853515625], [-121.65667, 43.69209, -1555.914306640625]]], [[[-121.65667, 43.69209, -1555.914306640625], [-121.65557, 43.68344, -1140.288818359375], [-121.64868, 43.69084, -376.7549743652344], [-121.65667, 43.69209, -1555.914306640625]]], [[[-121.64868, 43.69084, -376.7549743652344], [-121.6513, 43.69686, -1068.6336669921875], [-121.65667, 43.69209, -1555.914306640625], [-121.64868, 43.69084, -376.7549743652344]]], [[[-121.64852, 43.70499, -1135.3753662109375], [-121.6513, 43.69686, -1068.6336669921875], [-121.64456, 43.69964, -293.0245361328125], [-121.64852, 43.70499, -1135.3753662109375]]], [[[-121.64852, 43.70499, -1135.3753662109375], [-121.64456, 43.69964, -293.0245361328125], [-121.64129, 43.70785, -283.9444885253906], [-121.64852, 43.70499, -1135.3753662109375]]], [[[-121.64455, 43.71388, -1136.162109375], [-121.64852, 43.70499, -1135.3753662109375], [-121.64129, 43.70785, -283.9444885253906], [-121.64455, 43.71388, -1136.162109375]]], [[[-121.64455, 43.71388, -1136.162109375], [-121.64129, 43.70785, -283.9444885253906], [-121.63725, 43.71699, -377.2977600097656], [-121.64455, 43.71388, -1136.162109375]]], [[[-121.64455, 43.71388, -1136.162109375], [-121.63725, 43.71699, -377.2977600097656], [-121.64044, 43.72512, -1297.7177734375], [-121.64455, 43.71388, -1136.162109375]]], [[[-121.64044, 43.72512, -1297.7177734375], [-121.63725, 43.71699, -377.2977600097656], [-121.63334, 43.7257, -361.24560546875], [-121.64044, 43.72512, -1297.7177734375]]], [[[-121.64044, 43.72512, -1297.7177734375], [-121.63437, 43.734, -1174.64208984375], [-121.6402, 43.73511, -2037.9017333984375], [-121.64044, 43.72512, -1297.7177734375]]], [[[-121.6402, 43.73511, -2037.9017333984375], [-121.64702, 43.72784, -2360.708984375], [-121.64044, 43.72512, -1297.7177734375], [-121.6402, 43.73511, -2037.9017333984375]]], [[[-121.64702, 43.72784, -2360.708984375], [-121.6402, 43.73511, -2037.9017333984375], [-121.64609, 43.73665, -2945.13037109375], [-121.64702, 43.72784, -2360.708984375]]], [[[-121.65324, 43.72899, -3279.63818359375], [-121.64702, 43.72784, -2360.708984375], [-121.64609, 43.73665, -2945.13037109375], [-121.65324, 43.72899, -3279.63818359375]]], [[[-121.65909, 43.73013, -4149.2568359375], [-121.65324, 43.72899, -3279.63818359375], [-121.65188, 43.73775, -3801.7822265625], [-121.65909, 43.73013, -4149.2568359375]]], [[[-121.66538, 43.72213, -4541.06298828125], [-121.65909, 43.73013, -4149.2568359375], [-121.66496, 43.73123, -5016.40087890625], [-121.66538, 43.72213, -4541.06298828125]]], [[[-121.66538, 43.72213, -4541.06298828125], [-121.66496, 43.73123, -5016.40087890625], [-121.6714, 43.72303, -5422.72509765625], [-121.66538, 43.72213, -4541.06298828125]]], [[[-121.6714, 43.72303, -5422.72509765625], [-121.66496, 43.73123, -5016.40087890625], [-121.67081, 43.73234, -5882.66455078125], [-121.6714, 43.72303, -5422.72509765625]]], [[[-121.6714, 43.72303, -5422.72509765625], [-121.67737, 43.72414, -6307.21142578125], [-121.67868, 43.71469, -5846.85205078125], [-121.6714, 43.72303, -5422.72509765625]]], [[[-121.67737, 43.72414, -6307.21142578125], [-121.67081, 43.73234, -5882.66455078125], [-121.67673, 43.73349, -6762.671875], [-121.67737, 43.72414, -6307.21142578125]]], [[[-121.67737, 43.72414, -6307.21142578125], [-121.67673, 43.73349, -6762.671875], [-121.68333, 43.72537, -7195.3583984375], [-121.67737, 43.72414, -6307.21142578125]]], [[[-121.68256, 43.73477, -7638.62939453125], [-121.68333, 43.72537, -7195.3583984375], [-121.67673, 43.73349, -6762.671875], [-121.68256, 43.73477, -7638.62939453125]]], [[[-121.68333, 43.72537, -7195.3583984375], [-121.68256, 43.73477, -7638.62939453125], [-121.6892, 43.72662, -8072.80810546875], [-121.68333, 43.72537, -7195.3583984375]]], [[[-121.67283, 43.75091, -7761.63427734375], [-121.67513, 43.74228, -7250.751953125], [-121.66709, 43.74971, -6903.455078125], [-121.67283, 43.75091, -7761.63427734375]]], [[[-121.67283, 43.75091, -7761.63427734375], [-121.66709, 43.74971, -6903.455078125], [-121.66744, 43.75868, -7294.97265625], [-121.67283, 43.75091, -7761.63427734375]]], [[[-121.67283, 43.75091, -7761.63427734375], [-121.66744, 43.75868, -7294.97265625], [-121.67318, 43.75984, -8151.33935546875], [-121.67283, 43.75091, -7761.63427734375]]], [[[-121.66709, 43.74971, -6903.455078125], [-121.66169, 43.75751, -6438.6064453125], [-121.66744, 43.75868, -7294.97265625], [-121.66709, 43.74971, -6903.455078125]]], [[[-121.66709, 43.74971, -6903.455078125], [-121.66132, 43.74856, -6046.49853515625], [-121.66169, 43.75751, -6438.6064453125], [-121.66709, 43.74971, -6903.455078125]]], [[[-121.66709, 43.74971, -6903.455078125], [-121.66931, 43.74107, -6383.46826171875], [-121.66132, 43.74856, -6046.49853515625], [-121.66709, 43.74971, -6903.455078125]]], [[[-121.66931, 43.74107, -6383.46826171875], [-121.66709, 43.74971, -6903.455078125], [-121.67513, 43.74228, -7250.751953125], [-121.66931, 43.74107, -6383.46826171875]]], [[[-121.67673, 43.73349, -6762.671875], [-121.66931, 43.74107, -6383.46826171875], [-121.67513, 43.74228, -7250.751953125], [-121.67673, 43.73349, -6762.671875]]], [[[-121.67081, 43.73234, -5882.66455078125], [-121.66496, 43.73123, -5016.40087890625], [-121.66349, 43.73997, -5522.03125], [-121.67081, 43.73234, -5882.66455078125]]], [[[-121.65909, 43.73013, -4149.2568359375], [-121.65188, 43.73775, -3801.7822265625], [-121.65768, 43.73884, -4659.2568359375], [-121.65909, 43.73013, -4149.2568359375]]], [[[-121.64609, 43.73665, -2945.13037109375], [-121.64398, 43.74515, -3478.313720703125], [-121.65188, 43.73775, -3801.7822265625], [-121.64609, 43.73665, -2945.13037109375]]], [[[-121.6402, 43.73511, -2037.9017333984375], [-121.63821, 43.74401, -2622.469970703125], [-121.64609, 43.73665, -2945.13037109375], [-121.6402, 43.73511, -2037.9017333984375]]], [[[-121.63437, 43.734, -1174.64208984375], [-121.63244, 43.74286, -1766.5531005859375], [-121.6402, 43.73511, -2037.9017333984375], [-121.63437, 43.734, -1174.64208984375]]], [[[-121.62808, 43.73383, -328.0367736816406], [-121.6255, 43.72828, 473.5334777832031], [-121.61952, 43.73667, 506.4305725097656], [-121.62808, 43.73383, -328.0367736816406]]], [[[-121.63821, 43.74401, -2622.469970703125], [-121.63297, 43.75167, -2156.7744140625], [-121.63872, 43.75284, -3013.140869140625], [-121.63821, 43.74401, -2622.469970703125]]], [[[-121.66349, 43.73997, -5522.03125], [-121.65554, 43.74742, -5189.8369140625], [-121.66132, 43.74856, -6046.49853515625], [-121.66349, 43.73997, -5522.03125]]], [[[-121.61952, 43.73667, 506.4305725097656], [-121.61783, 43.73067, 1290.034912109375], [-121.61216, 43.73845, 1279.9970703125], [-121.61952, 43.73667, 506.4305725097656]]], [[[-121.64129, 43.70785, -283.9444885253906], [-121.63738, 43.70241, 550.8920288085938], [-121.63395, 43.71109, 498.30828857421875], [-121.64129, 43.70785, -283.9444885253906]]], [[[-121.63738, 43.70241, 550.8920288085938], [-121.64456, 43.69964, -293.0245361328125], [-121.64061, 43.6944, 546.5111083984375], [-121.63738, 43.70241, 550.8920288085938]]], [[[-121.64061, 43.6944, 546.5111083984375], [-121.64357, 43.68573, 511.5219421386719], [-121.63699, 43.68903, 1349.4962158203125], [-121.64061, 43.6944, 546.5111083984375]]], [[[-121.64061, 43.6944, 546.5111083984375], [-121.64868, 43.69084, -376.7549743652344], [-121.64357, 43.68573, 511.5219421386719], [-121.64061, 43.6944, 546.5111083984375]]], [[[-121.64868, 43.69084, -376.7549743652344], [-121.64061, 43.6944, 546.5111083984375], [-121.64456, 43.69964, -293.0245361328125], [-121.64868, 43.69084, -376.7549743652344]]], [[[-121.64998, 43.68168, -284.37420654296875], [-121.64357, 43.68573, 511.5219421386719], [-121.64868, 43.69084, -376.7549743652344], [-121.64998, 43.68168, -284.37420654296875]]], [[[-121.64998, 43.68168, -284.37420654296875], [-121.64502, 43.67743, 553.909423828125], [-121.64357, 43.68573, 511.5219421386719], [-121.64998, 43.68168, -284.37420654296875]]], [[[-121.64998, 43.68168, -284.37420654296875], [-121.64922, 43.67244, 108.41181945800781], [-121.64502, 43.67743, 553.909423828125], [-121.64998, 43.68168, -284.37420654296875]]], [[[-121.64998, 43.68168, -284.37420654296875], [-121.65517, 43.67426, -798.1314697265625], [-121.64922, 43.67244, 108.41181945800781], [-121.64998, 43.68168, -284.37420654296875]]], [[[-121.65557, 43.68344, -1140.288818359375], [-121.65517, 43.67426, -798.1314697265625], [-121.64998, 43.68168, -284.37420654296875], [-121.65557, 43.68344, -1140.288818359375]]], [[[-121.65557, 43.68344, -1140.288818359375], [-121.66092, 43.67544, -1655.921875], [-121.65517, 43.67426, -798.1314697265625], [-121.65557, 43.68344, -1140.288818359375]]], [[[-121.65557, 43.68344, -1140.288818359375], [-121.66163, 43.68434, -2036.49853515625], [-121.66092, 43.67544, -1655.921875], [-121.65557, 43.68344, -1140.288818359375]]], [[[-121.66163, 43.68434, -2036.49853515625], [-121.66665, 43.67662, -2513.856201171875], [-121.66092, 43.67544, -1655.921875], [-121.66163, 43.68434, -2036.49853515625]]], [[[-121.66736, 43.68552, -2894.499267578125], [-121.66665, 43.67662, -2513.856201171875], [-121.66163, 43.68434, -2036.49853515625], [-121.66736, 43.68552, -2894.499267578125]]], [[[-121.66736, 43.68552, -2894.499267578125], [-121.67238, 43.67781, -3371.8427734375], [-121.66665, 43.67662, -2513.856201171875], [-121.66736, 43.68552, -2894.499267578125]]], [[[-121.6731, 43.68671, -3752.49658203125], [-121.67238, 43.67781, -3371.8427734375], [-121.66736, 43.68552, -2894.499267578125], [-121.6731, 43.68671, -3752.49658203125]]], [[[-121.6731, 43.68671, -3752.49658203125], [-121.67811, 43.679, -4229.8291015625], [-121.67238, 43.67781, -3371.8427734375], [-121.6731, 43.68671, -3752.49658203125]]], [[[-121.6731, 43.68671, -3752.49658203125], [-121.67883, 43.6879, -4610.49853515625], [-121.67811, 43.679, -4229.8291015625], [-121.6731, 43.68671, -3752.49658203125]]], [[[-121.6731, 43.68671, -3752.49658203125], [-121.67389, 43.69565, -4128.9990234375], [-121.67883, 43.6879, -4610.49853515625], [-121.6731, 43.68671, -3752.49658203125]]], [[[-121.67389, 43.69565, -4128.9990234375], [-121.6731, 43.68671, -3752.49658203125], [-121.66816, 43.69447, -3270.916015625], [-121.67389, 43.69565, -4128.9990234375]]], [[[-121.66736, 43.68552, -2894.499267578125], [-121.66816, 43.69447, -3270.916015625], [-121.6731, 43.68671, -3752.49658203125], [-121.66736, 43.68552, -2894.499267578125]]], [[[-121.6624, 43.69329, -2411.788330078125], [-121.66816, 43.69447, -3270.916015625], [-121.66736, 43.68552, -2894.499267578125], [-121.6624, 43.69329, -2411.788330078125]]], [[[-121.66138, 43.7024, -2773.74560546875], [-121.66816, 43.69447, -3270.916015625], [-121.6624, 43.69329, -2411.788330078125], [-121.66138, 43.7024, -2773.74560546875]]], [[[-121.66138, 43.7024, -2773.74560546875], [-121.6624, 43.69329, -2411.788330078125], [-121.65594, 43.70086, -1934.7335205078125], [-121.66138, 43.7024, -2773.74560546875]]], [[[-121.65293, 43.71029, -2031.649658203125], [-121.66138, 43.7024, -2773.74560546875], [-121.65594, 43.70086, -1934.7335205078125], [-121.65293, 43.71029, -2031.649658203125]]], [[[-121.6624, 43.69329, -2411.788330078125], [-121.66736, 43.68552, -2894.499267578125], [-121.66163, 43.68434, -2036.49853515625], [-121.6624, 43.69329, -2411.788330078125]]], [[[-121.67883, 43.6879, -4610.49853515625], [-121.68384, 43.68018, -5087.8154296875], [-121.67811, 43.679, -4229.8291015625], [-121.67883, 43.6879, -4610.49853515625]]], [[[-121.68457, 43.68908, -5467.99609375], [-121.68384, 43.68018, -5087.8154296875], [-121.67883, 43.6879, -4610.49853515625], [-121.68457, 43.68908, -5467.99609375]]], [[[-121.68457, 43.68908, -5467.99609375], [-121.68958, 43.68137, -5945.8017578125], [-121.68384, 43.68018, -5087.8154296875], [-121.68457, 43.68908, -5467.99609375]]], [[[-121.68457, 43.68908, -5467.99609375], [-121.69032, 43.69027, -6325.4130859375], [-121.68958, 43.68137, -5945.8017578125], [-121.68457, 43.68908, -5467.99609375]]], [[[-121.68457, 43.68908, -5467.99609375], [-121.68534, 43.69802, -5845.62841796875], [-121.69032, 43.69027, -6325.4130859375], [-121.68457, 43.68908, -5467.99609375]]], [[[-121.69107, 43.6992, -6703.93701171875], [-121.69032, 43.69027, -6325.4130859375], [-121.68534, 43.69802, -5845.62841796875], [-121.69107, 43.6992, -6703.93701171875]]], [[[-121.69107, 43.6992, -6703.93701171875], [-121.69606, 43.69146, -7182.82958984375], [-121.69032, 43.69027, -6325.4130859375], [-121.69107, 43.6992, -6703.93701171875]]], [[[-121.69107, 43.6992, -6703.93701171875], [-121.6968, 43.70039, -7562.24560546875], [-121.69606, 43.69146, -7182.82958984375], [-121.69107, 43.6992, -6703.93701171875]]], [[[-121.6968, 43.70039, -7562.24560546875], [-121.70181, 43.69264, -8040.24658203125], [-121.69606, 43.69146, -7182.82958984375], [-121.6968, 43.70039, -7562.24560546875]]], [[[-121.6968, 43.70039, -7562.24560546875], [-121.70253, 43.70157, -8420.5546875], [-121.70181, 43.69264, -8040.24658203125], [-121.6968, 43.70039, -7562.24560546875]]], [[[-121.70253, 43.70157, -8420.5546875], [-121.70755, 43.69383, -8897.6630859375], [-121.70181, 43.69264, -8040.24658203125], [-121.70253, 43.70157, -8420.5546875]]], [[[-121.70755, 43.69383, -8897.6630859375], [-121.70677, 43.68492, -8519.7607421875], [-121.70181, 43.69264, -8040.24658203125], [-121.70755, 43.69383, -8897.6630859375]]], [[[-121.70755, 43.69383, -8897.6630859375], [-121.71251, 43.68611, -9377.7470703125], [-121.70677, 43.68492, -8519.7607421875], [-121.70755, 43.69383, -8897.6630859375]]], [[[-121.7133, 43.69501, -9755.0791015625], [-121.71251, 43.68611, -9377.7470703125], [-121.70755, 43.69383, -8897.6630859375], [-121.7133, 43.69501, -9755.0791015625]]], [[[-121.7133, 43.69501, -9755.0791015625], [-121.71824, 43.68729, -10235.7333984375], [-121.71251, 43.68611, -9377.7470703125], [-121.7133, 43.69501, -9755.0791015625]]], [[[-121.71905, 43.6962, -10612.49609375], [-121.71824, 43.68729, -10235.7333984375], [-121.7133, 43.69501, -9755.0791015625], [-121.71905, 43.6962, -10612.49609375]]], [[[-121.71905, 43.6962, -10612.49609375], [-121.72397, 43.68848, -11093.7197265625], [-121.71824, 43.68729, -10235.7333984375], [-121.71905, 43.6962, -10612.49609375]]], [[[-121.72479, 43.69739, -11469.912109375], [-121.72397, 43.68848, -11093.7197265625], [-121.71905, 43.6962, -10612.49609375], [-121.72479, 43.69739, -11469.912109375]]], [[[-121.72479, 43.69739, -11469.912109375], [-121.72971, 43.68966, -11951.7060546875], [-121.72397, 43.68848, -11093.7197265625], [-121.72479, 43.69739, -11469.912109375]]], [[[-121.73074, 43.69816, -12349.31640625], [-121.72971, 43.68966, -11951.7060546875], [-121.72479, 43.69739, -11469.912109375], [-121.73074, 43.69816, -12349.31640625]]], [[[-121.72971, 43.68966, -11951.7060546875], [-121.73074, 43.69816, -12349.31640625], [-121.73558, 43.69117, -12844.1455078125], [-121.72971, 43.68966, -11951.7060546875]]], [[[-121.72971, 43.68966, -11951.7060546875], [-121.73558, 43.69117, -12844.1455078125], [-121.73494, 43.68201, -12418.2421875], [-121.72971, 43.68966, -11951.7060546875]]], [[[-121.72971, 43.68966, -11951.7060546875], [-121.73494, 43.68201, -12418.2421875], [-121.72919, 43.68082, -11560.9560546875], [-121.72971, 43.68966, -11951.7060546875]]], [[[-121.72397, 43.68848, -11093.7197265625], [-121.72971, 43.68966, -11951.7060546875], [-121.72919, 43.68082, -11560.9560546875], [-121.72397, 43.68848, -11093.7197265625]]], [[[-121.72397, 43.68848, -11093.7197265625], [-121.72919, 43.68082, -11560.9560546875], [-121.72345, 43.67963, -10703.6689453125], [-121.72397, 43.68848, -11093.7197265625]]], [[[-121.71824, 43.68729, -10235.7333984375], [-121.72397, 43.68848, -11093.7197265625], [-121.72345, 43.67963, -10703.6689453125], [-121.71824, 43.68729, -10235.7333984375]]], [[[-121.71824, 43.68729, -10235.7333984375], [-121.72345, 43.67963, -10703.6689453125], [-121.7177, 43.67845, -9846.3818359375], [-121.71824, 43.68729, -10235.7333984375]]], [[[-121.71251, 43.68611, -9377.7470703125], [-121.71824, 43.68729, -10235.7333984375], [-121.7177, 43.67845, -9846.3818359375], [-121.71251, 43.68611, -9377.7470703125]]], [[[-121.71251, 43.68611, -9377.7470703125], [-121.7177, 43.67845, -9846.3818359375], [-121.71195, 43.67726, -8989.0947265625], [-121.71251, 43.68611, -9377.7470703125]]], [[[-121.70677, 43.68492, -8519.7607421875], [-121.71251, 43.68611, -9377.7470703125], [-121.71195, 43.67726, -8989.0947265625], [-121.70677, 43.68492, -8519.7607421875]]], [[[-121.70677, 43.68492, -8519.7607421875], [-121.71195, 43.67726, -8989.0947265625], [-121.7062, 43.67607, -8131.8076171875], [-121.70677, 43.68492, -8519.7607421875]]], [[[-121.70104, 43.68374, -7661.7744140625], [-121.70677, 43.68492, -8519.7607421875], [-121.7062, 43.67607, -8131.8076171875], [-121.70104, 43.68374, -7661.7744140625]]], [[[-121.70181, 43.69264, -8040.24658203125], [-121.70677, 43.68492, -8519.7607421875], [-121.70104, 43.68374, -7661.7744140625], [-121.70181, 43.69264, -8040.24658203125]]], [[[-121.70181, 43.69264, -8040.24658203125], [-121.70104, 43.68374, -7661.7744140625], [-121.69606, 43.69146, -7182.82958984375], [-121.70181, 43.69264, -8040.24658203125]]], [[[-121.69606, 43.69146, -7182.82958984375], [-121.70104, 43.68374, -7661.7744140625], [-121.69531, 43.68255, -6803.7880859375], [-121.69606, 43.69146, -7182.82958984375]]], [[[-121.69032, 43.69027, -6325.4130859375], [-121.69606, 43.69146, -7182.82958984375], [-121.69531, 43.68255, -6803.7880859375], [-121.69032, 43.69027, -6325.4130859375]]], [[[-121.69032, 43.69027, -6325.4130859375], [-121.69531, 43.68255, -6803.7880859375], [-121.68958, 43.68137, -5945.8017578125], [-121.69032, 43.69027, -6325.4130859375]]], [[[-121.69531, 43.68255, -6803.7880859375], [-121.69471, 43.6737, -6417.23388671875], [-121.68958, 43.68137, -5945.8017578125], [-121.69531, 43.68255, -6803.7880859375]]], [[[-121.69531, 43.68255, -6803.7880859375], [-121.70046, 43.67489, -7274.5205078125], [-121.69471, 43.6737, -6417.23388671875], [-121.69531, 43.68255, -6803.7880859375]]], [[[-121.69531, 43.68255, -6803.7880859375], [-121.70104, 43.68374, -7661.7744140625], [-121.70046, 43.67489, -7274.5205078125], [-121.69531, 43.68255, -6803.7880859375]]], [[[-121.70104, 43.68374, -7661.7744140625], [-121.7062, 43.67607, -8131.8076171875], [-121.70046, 43.67489, -7274.5205078125], [-121.70104, 43.68374, -7661.7744140625]]], [[[-121.68958, 43.68137, -5945.8017578125], [-121.69471, 43.6737, -6417.23388671875], [-121.68896, 43.67251, -5559.94677734375], [-121.68958, 43.68137, -5945.8017578125]]], [[[-121.68384, 43.68018, -5087.8154296875], [-121.68958, 43.68137, -5945.8017578125], [-121.68896, 43.67251, -5559.94677734375], [-121.68384, 43.68018, -5087.8154296875]]], [[[-121.68384, 43.68018, -5087.8154296875], [-121.68896, 43.67251, -5559.94677734375], [-121.68322, 43.67132, -4702.65966796875], [-121.68384, 43.68018, -5087.8154296875]]], [[[-121.68384, 43.68018, -5087.8154296875], [-121.68322, 43.67132, -4702.65966796875], [-121.67811, 43.679, -4229.8291015625], [-121.68384, 43.68018, -5087.8154296875]]], [[[-121.67811, 43.679, -4229.8291015625], [-121.68322, 43.67132, -4702.65966796875], [-121.67747, 43.67014, -3845.372802734375], [-121.67811, 43.679, -4229.8291015625]]], [[[-121.67811, 43.679, -4229.8291015625], [-121.67747, 43.67014, -3845.372802734375], [-121.67238, 43.67781, -3371.8427734375], [-121.67811, 43.679, -4229.8291015625]]], [[[-121.67173, 43.66895, -2988.0859375], [-121.67238, 43.67781, -3371.8427734375], [-121.67747, 43.67014, -3845.372802734375], [-121.67173, 43.66895, -2988.0859375]]], [[[-121.66665, 43.67662, -2513.856201171875], [-121.67238, 43.67781, -3371.8427734375], [-121.67173, 43.66895, -2988.0859375], [-121.66665, 43.67662, -2513.856201171875]]], [[[-121.66665, 43.67662, -2513.856201171875], [-121.67173, 43.66895, -2988.0859375], [-121.66598, 43.66776, -2130.798828125], [-121.66665, 43.67662, -2513.856201171875]]], [[[-121.66092, 43.67544, -1655.921875], [-121.66665, 43.67662, -2513.856201171875], [-121.66598, 43.66776, -2130.798828125], [-121.66092, 43.67544, -1655.921875]]], [[[-121.66092, 43.67544, -1655.921875], [-121.66598, 43.66776, -2130.798828125], [-121.66023, 43.66657, -1273.511962890625], [-121.66092, 43.67544, -1655.921875]]], [[[-121.65517, 43.67426, -798.1314697265625], [-121.66092, 43.67544, -1655.921875], [-121.66023, 43.66657, -1273.511962890625], [-121.65517, 43.67426, -798.1314697265625]]], [[[-121.65517, 43.67426, -798.1314697265625], [-121.66023, 43.66657, -1273.511962890625], [-121.65449, 43.66538, -416.2249450683594], [-121.65517, 43.67426, -798.1314697265625]]], [[[-121.64922, 43.67244, 108.41181945800781], [-121.65517, 43.67426, -798.1314697265625], [-121.65449, 43.66538, -416.2249450683594], [-121.64922, 43.67244, 108.41181945800781]]], [[[-121.64922, 43.67244, 108.41181945800781], [-121.65449, 43.66538, -416.2249450683594], [-121.64874, 43.66419, 441.06201171875], [-121.64922, 43.67244, 108.41181945800781]]], [[[-121.64502, 43.67743, 553.909423828125], [-121.64922, 43.67244, 108.41181945800781], [-121.64107, 43.67169, 1294.0322265625], [-121.64502, 43.67743, 553.909423828125]]], [[[-121.64502, 43.67743, 553.909423828125], [-121.64107, 43.67169, 1294.0322265625], [-121.63914, 43.68038, 1310.223388671875], [-121.64502, 43.67743, 553.909423828125]]], [[[-121.64357, 43.68573, 511.5219421386719], [-121.64502, 43.67743, 553.909423828125], [-121.63914, 43.68038, 1310.223388671875], [-121.64357, 43.68573, 511.5219421386719]]], [[[-121.64357, 43.68573, 511.5219421386719], [-121.63914, 43.68038, 1310.223388671875], [-121.63699, 43.68903, 1349.4962158203125], [-121.64357, 43.68573, 511.5219421386719]]], [[[-121.73558, 43.69117, -12844.1455078125], [-121.74069, 43.68319, -13275.529296875], [-121.73494, 43.68201, -12418.2421875], [-121.73558, 43.69117, -12844.1455078125]]], [[[-121.73558, 43.69117, -12844.1455078125], [-121.74194, 43.69203, -13774.296875], [-121.74069, 43.68319, -13275.529296875], [-121.73558, 43.69117, -12844.1455078125]]], [[[-121.73726, 43.70062, -13340.87109375], [-121.74194, 43.69203, -13774.296875], [-121.73558, 43.69117, -12844.1455078125], [-121.73726, 43.70062, -13340.87109375]]], [[[-121.73726, 43.70062, -13340.87109375], [-121.74376, 43.69841, -14242.111328125], [-121.74194, 43.69203, -13774.296875], [-121.73726, 43.70062, -13340.87109375]]], [[[-121.73726, 43.70062, -13340.87109375], [-121.74211, 43.70658, -14207.5361328125], [-121.74376, 43.69841, -14242.111328125], [-121.73726, 43.70062, -13340.87109375]]], [[[-121.61574, 43.74817, 412.32464599609375], [-121.61216, 43.73845, 1279.9970703125], [-121.61, 43.747, 1268.6910400390625], [-121.61574, 43.74817, 412.32464599609375]]], [[[-121.73726, 43.70062, -13340.87109375], [-121.73511, 43.70962, -13373.71484375], [-121.74211, 43.70658, -14207.5361328125], [-121.73726, 43.70062, -13340.87109375]]], [[[-121.73126, 43.70515, -12613.2939453125], [-121.73511, 43.70962, -13373.71484375], [-121.73726, 43.70062, -13340.87109375], [-121.73126, 43.70515, -12613.2939453125]]], [[[-121.72786, 43.71274, -12545.875], [-121.73511, 43.70962, -13373.71484375], [-121.73126, 43.70515, -12613.2939453125], [-121.72786, 43.71274, -12545.875]]], [[[-121.72786, 43.71274, -12545.875], [-121.73187, 43.7177, -13392.6904296875], [-121.73511, 43.70962, -13373.71484375], [-121.72786, 43.71274, -12545.875]]], [[[-121.72786, 43.71274, -12545.875], [-121.72468, 43.72056, -12551.7958984375], [-121.73187, 43.7177, -13392.6904296875], [-121.72786, 43.71274, -12545.875]]], [[[-121.73187, 43.7177, -13392.6904296875], [-121.72468, 43.72056, -12551.7958984375], [-121.72849, 43.72604, -13373.11328125], [-121.73187, 43.7177, -13392.6904296875]]], [[[-121.73187, 43.7177, -13392.6904296875], [-121.72849, 43.72604, -13373.11328125], [-121.73566, 43.72314, -14215.326171875], [-121.73187, 43.7177, -13392.6904296875]]], [[[-121.73187, 43.7177, -13392.6904296875], [-121.73566, 43.72314, -14215.326171875], [-121.73919, 43.7146, -14215.9853515625], [-121.73187, 43.7177, -13392.6904296875]]], [[[-121.73187, 43.7177, -13392.6904296875], [-121.73919, 43.7146, -14215.9853515625], [-121.73511, 43.70962, -13373.71484375], [-121.73187, 43.7177, -13392.6904296875]]], [[[-121.74211, 43.70658, -14207.5361328125], [-121.73511, 43.70962, -13373.71484375], [-121.73919, 43.7146, -14215.9853515625], [-121.74211, 43.70658, -14207.5361328125]]], [[[-121.73919, 43.7146, -14215.9853515625], [-121.74637, 43.71158, -15040.47265625], [-121.74211, 43.70658, -14207.5361328125], [-121.73919, 43.7146, -14215.9853515625]]], [[[-121.73919, 43.7146, -14215.9853515625], [-121.74282, 43.72, -15036.6650390625], [-121.74637, 43.71158, -15040.47265625], [-121.73919, 43.7146, -14215.9853515625]]], [[[-121.73566, 43.72314, -14215.326171875], [-121.74282, 43.72, -15036.6650390625], [-121.73919, 43.7146, -14215.9853515625], [-121.73566, 43.72314, -14215.326171875]]], [[[-121.74211, 43.70658, -14207.5361328125], [-121.74637, 43.71158, -15040.47265625], [-121.74863, 43.70295, -15035.890625], [-121.74211, 43.70658, -14207.5361328125]]], [[[-121.74211, 43.70658, -14207.5361328125], [-121.74863, 43.70295, -15035.890625], [-121.74376, 43.69841, -14242.111328125], [-121.74211, 43.70658, -14207.5361328125]]], [[[-121.74376, 43.69841, -14242.111328125], [-121.74863, 43.70295, -15035.890625], [-121.75006, 43.69422, -15013.8056640625], [-121.74376, 43.69841, -14242.111328125]]], [[[-121.74376, 43.69841, -14242.111328125], [-121.75006, 43.69422, -15013.8056640625], [-121.74194, 43.69203, -13774.296875], [-121.74376, 43.69841, -14242.111328125]]], [[[-121.74194, 43.69203, -13774.296875], [-121.74644, 43.68438, -14132.81640625], [-121.74069, 43.68319, -13275.529296875], [-121.74194, 43.69203, -13774.296875]]], [[[-121.72849, 43.72604, -13373.11328125], [-121.73205, 43.7313, -14216.0029296875], [-121.73566, 43.72314, -14215.326171875], [-121.72849, 43.72604, -13373.11328125]]], [[[-121.72849, 43.72604, -13373.11328125], [-121.7247, 43.73421, -13379.44140625], [-121.73205, 43.7313, -14216.0029296875], [-121.72849, 43.72604, -13373.11328125]]], [[[-121.72092, 43.7289, -12538.49609375], [-121.7247, 43.73421, -13379.44140625], [-121.72849, 43.72604, -13373.11328125], [-121.72092, 43.7289, -12538.49609375]]], [[[-121.72092, 43.7289, -12538.49609375], [-121.72849, 43.72604, -13373.11328125], [-121.72468, 43.72056, -12551.7958984375], [-121.72092, 43.7289, -12538.49609375]]], [[[-121.73205, 43.7313, -14216.0029296875], [-121.7247, 43.73421, -13379.44140625], [-121.72841, 43.73973, -14201.0888671875], [-121.73205, 43.7313, -14216.0029296875]]], [[[-121.72076, 43.74286, -13358.0185546875], [-121.72841, 43.73973, -14201.0888671875], [-121.7247, 43.73421, -13379.44140625], [-121.72076, 43.74286, -13358.0185546875]]], [[[-121.72076, 43.74286, -13358.0185546875], [-121.72406, 43.74772, -14179.7666015625], [-121.72841, 43.73973, -14201.0888671875], [-121.72076, 43.74286, -13358.0185546875]]], [[[-121.72076, 43.74286, -13358.0185546875], [-121.7151, 43.75261, -13374.4658203125], [-121.72406, 43.74772, -14179.7666015625], [-121.72076, 43.74286, -13358.0185546875]]], [[[-121.7151, 43.75261, -13374.4658203125], [-121.71946, 43.75534, -14205.0205078125], [-121.72406, 43.74772, -14179.7666015625], [-121.7151, 43.75261, -13374.4658203125]]], [[[-121.7151, 43.75261, -13374.4658203125], [-121.71188, 43.76049, -13764.1904296875], [-121.71946, 43.75534, -14205.0205078125], [-121.7151, 43.75261, -13374.4658203125]]], [[[-121.73126, 43.70515, -12613.2939453125], [-121.72532, 43.70626, -11834.6943359375], [-121.72786, 43.71274, -12545.875], [-121.73126, 43.70515, -12613.2939453125]]], [[[-121.72532, 43.70626, -11834.6943359375], [-121.73126, 43.70515, -12613.2939453125], [-121.73074, 43.69816, -12349.31640625], [-121.72532, 43.70626, -11834.6943359375]]], [[[-121.72532, 43.70626, -11834.6943359375], [-121.73074, 43.69816, -12349.31640625], [-121.72479, 43.69739, -11469.912109375], [-121.72532, 43.70626, -11834.6943359375]]], [[[-121.73126, 43.70515, -12613.2939453125], [-121.73726, 43.70062, -13340.87109375], [-121.73074, 43.69816, -12349.31640625], [-121.73126, 43.70515, -12613.2939453125]]], [[[-121.73726, 43.70062, -13340.87109375], [-121.73558, 43.69117, -12844.1455078125], [-121.73074, 43.69816, -12349.31640625], [-121.73726, 43.70062, -13340.87109375]]], [[[-121.65557, 43.68344, -1140.288818359375], [-121.64998, 43.68168, -284.37420654296875], [-121.64868, 43.69084, -376.7549743652344], [-121.65557, 43.68344, -1140.288818359375]]], [[[-121.63725, 43.71699, -377.2977600097656], [-121.6299, 43.71969, 469.80682373046875], [-121.63334, 43.7257, -361.24560546875], [-121.63725, 43.71699, -377.2977600097656]]], [[[-121.64734, 43.71934, -1894.1754150390625], [-121.65337, 43.71968, -2750.71142578125], [-121.65293, 43.71029, -2031.649658203125], [-121.64734, 43.71934, -1894.1754150390625]]], [[[-121.71078, 43.7416, -11922.4833984375], [-121.71381, 43.74618, -12695.3095703125], [-121.71748, 43.73703, -12544.6298828125], [-121.71078, 43.7416, -11922.4833984375]]], [[[-121.70766, 43.76683, -13289.537109375], [-121.70673, 43.75855, -12898.46484375], [-121.70191, 43.76567, -12433.1708984375], [-121.70766, 43.76683, -13289.537109375]]], [[[-121.64107, 43.67169, 1294.0322265625], [-121.64922, 43.67244, 108.41181945800781], [-121.64874, 43.66419, 441.06201171875], [-121.64107, 43.67169, 1294.0322265625]]], [[[-121.643, 43.663, 1298.3489990234375], [-121.64107, 43.67169, 1294.0322265625], [-121.64874, 43.66419, 441.06201171875], [-121.643, 43.663, 1298.3489990234375]]]]}}]}